addr_full,city,country,brand,extra,lat,lon,name,opening_hours,Phone,postcode,ref,state,website
2nd km AGRINIOU - ANTIRIOU (WHOLESALE),AGRINIO,Greece,Masouti,"{'brand': 'Masouti', 'fascia': 'CASH & CARRY', 'category': 'Retail', 'edit_date': '20250526', 'lat_lon_source': 'Third Party'}",38.600980,21.416973,Masouti AGRINIO,{'opening_hours': {}},2641024830,,369,AITOLOAKARNANIAS,https://www.masoutis.gr/stores
TH. NOVA - ATHINON 26,NAYPAKTOS,Greece,Masouti,"{'brand': 'Masouti', 'fascia': 'SUPER MARKET', 'category': 'Retail', 'edit_date': '20250526', 'lat_lon_source': 'Third Party'}",38.393701,21.835841,Masouti NAYPAKTOS,{'opening_hours': {}},2634021800,,382,AITOLOAKARNANIA,https://www.masoutis.gr/stores
PL. KILKIS & ANEKSARTISIAS,ARTA,Greece,Masouti,"{'brand': 'Masouti', 'fascia': 'SUPER MARKET', 'category': 'Retail', 'edit_date': '20250526', 'lat_lon_source': 'Third Party'}",39.159831,20.982401,Masouti ARTA,{'opening_hours': {}},2681024704,,224,ARTA,https://www.masoutis.gr/stores
AGIAS VARVARAS 102,ΠΑΛΑΙΟ ΦΑΛΗΡΟ,Greece,Masouti,"{'brand': 'Masouti', 'fascia': 'SUPER MARKET', 'category': 'Retail', 'edit_date': '20250526', 'lat_lon_source': 'Third Party'}",37.923101,23.719294,Masouti ΠΑΛΑΙΟ ΦΑΛΗΡΟ,{'opening_hours': {}},2109850196,,673,ATTICA,https://www.masoutis.gr/stores
ST. KONSTANTINOU & 28th OKTOVRIOU st.,N.IONIA,Greece,Masouti,"{'brand': 'Masouti', 'fascia': 'SUPER MARKET', 'category': 'Retail', 'edit_date': '20250526', 'lat_lon_source': 'Third Party'}",38.045627,23.754066,Masouti N.IONIA,{'opening_hours': {}},2102771216,,635,ATTICA,https://www.masoutis.gr/stores
"6, AGIOU ALEXANROU st.",P.FALIRO,Greece,Masouti,"{'brand': 'Masouti', 'fascia': 'SUPER MARKET', 'category': 'Retail', 'edit_date': '20250526', 'lat_lon_source': 'Third Party'}",37.925872,23.692132,Masouti P.FALIRO,{'opening_hours': {}},2109812473,,647,ATTICA,https://www.masoutis.gr/stores
"50, AETORACHIS & 2 CHANION st.",GALATSI,Greece,Masouti,"{'brand': 'Masouti', 'fascia': 'SUPER MARKET', 'category': 'Retail', 'edit_date': '20250526', 'lat_lon_source': 'Third Party'}",38.016292,23.745271,Masouti GALATSI,{'opening_hours': {}},2111821333,,648,ATTICA,https://www.masoutis.gr/stores
"14, ATHINAS (MONASTIRAKI) st.",ATHENS,Greece,Masouti,"{'brand': 'Masouti', 'fascia': 'SUPER MARKET', 'category': 'Retail', 'edit_date': '20250526', 'lat_lon_source': 'Third Party'}",37.977896,23.726515,Masouti ATHENS,{'opening_hours': {}},2114118636,,653,ATTICA,https://www.masoutis.gr/stores
"60, ATHINAS st.",KALLITHEA,Greece,Masouti,"{'brand': 'Masouti', 'fascia': 'SUPER MARKET', 'category': 'Retail', 'edit_date': '20250526', 'lat_lon_source': 'Third Party'}",37.948742,23.696914,Masouti KALLITHEA,{'opening_hours': {}},2109563740,,624,ATTICA,https://www.masoutis.gr/stores
"31, AKAKION st.",POLIDROSO,Greece,Masouti,"{'brand': 'Masouti', 'fascia': 'SUPER MARKET', 'category': 'Retail', 'edit_date': '20250526', 'lat_lon_source': 'Third Party'}",38.031952,23.810465,Masouti POLIDROSO,{'opening_hours': {}},2106811836,,603,ATTICA,https://www.masoutis.gr/stores
ALKIONIS & 2A ATLANTOS st.,P.FALIRO,Greece,Masouti,"{'brand': 'Masouti', 'fascia': 'SUPER MARKET', 'category': 'Retail', 'edit_date': '20250526', 'lat_lon_source': 'Third Party'}",37.927592,23.689837,Masouti P.FALIRO,{'opening_hours': {}},2114114916,,649,ATTICA,https://www.masoutis.gr/stores
AMERIKIS 11,KOLONAKI,Greece,Masouti,"{'brand': 'Masouti', 'fascia': 'SUPER MARKET', 'category': 'Retail', 'edit_date': '20250526', 'lat_lon_source': 'Third Party'}",37.978421,23.735485,Masouti KOLONAKI,{'opening_hours': {}},2103642789,,667,ATTICA,https://www.masoutis.gr/stores
"1, AMIKLON st.",GALATSI,Greece,Masouti,"{'brand': 'Masouti', 'fascia': 'SUPER MARKET', 'category': 'Retail', 'edit_date': '20250526', 'lat_lon_source': 'Third Party'}",38.021650,23.745852,Masouti GALATSI,{'opening_hours': {}},2102922105,,610,ATTICA,https://www.masoutis.gr/stores
"5, ARISTEIDOU st.",MAROUSI,Greece,Masouti,"{'brand': 'Masouti', 'fascia': 'SUPER MARKET', 'category': 'Retail', 'edit_date': '20250526', 'lat_lon_source': 'Third Party'}",38.056306,23.803882,Masouti MAROUSI,{'opening_hours': {}},2108056790,,646,ATTICA,https://www.masoutis.gr/stores
"45, ARISTOTELOUS st.",DRAPETSONA,Greece,Masouti,"{'brand': 'Masouti', 'fascia': 'SUPER MARKET', 'category': 'Retail', 'edit_date': '20250526', 'lat_lon_source': 'Third Party'}",37.949294,23.625737,Masouti DRAPETSONA,{'opening_hours': {}},2104619841,,643,ATTICA,https://www.masoutis.gr/stores
"51-53, ARCADIAS st.",ABELOKIPOI,Greece,Masouti,"{'brand': 'Masouti', 'fascia': 'SUPER MARKET', 'category': 'Retail', 'edit_date': '20250526', 'lat_lon_source': 'Third Party'}",37.987196,23.767501,Masouti ABELOKIPOI,{'opening_hours': {}},2107714028,,630,ATTICA,https://www.masoutis.gr/stores
"3, ARTIS st.",ST.DIMITRIOS,Greece,Masouti,"{'brand': 'Masouti', 'fascia': 'SUPER MARKET', 'category': 'Retail', 'edit_date': '20250526', 'lat_lon_source': 'Third Party'}",37.930807,23.726525,Masouti ST.DIMITRIOS,{'opening_hours': {}},2109352003,,629,ATTICA,https://www.masoutis.gr/stores
"343, ACHARNON st.",ATHENS,Greece,Masouti,"{'brand': 'Masouti', 'fascia': 'SUPER MARKET', 'category': 'Retail', 'edit_date': '20250526', 'lat_lon_source': 'Third Party'}",38.014959,23.728587,Masouti ATHENS,{'opening_hours': {}},2102022513,,621,ATTICA,https://www.masoutis.gr/stores
"98, ACHILLEOS st.",ΠΑΛΑΙΟ ΦΑΛΗΡΟ,Greece,Masouti,"{'brand': 'Masouti', 'fascia': 'SUPER MARKET', 'category': 'Retail', 'edit_date': '20250526', 'lat_lon_source': 'Third Party'}",37.928753,23.707187,Masouti ΠΑΛΑΙΟ ΦΑΛΗΡΟ,{'opening_hours': {}},2109830823,,659,ATTICA,https://www.masoutis.gr/stores
"30, VALTINON st.",GIZI,Greece,Masouti,"{'brand': 'Masouti', 'fascia': 'SUPER MARKET', 'category': 'Retail', 'edit_date': '20250526', 'lat_lon_source': 'Third Party'}",37.993228,23.744174,Masouti GIZI,{'opening_hours': {}},2106421150,,625,ATTICA,https://www.masoutis.gr/stores
"25, BASILEOS ALEXANDROU st.",PERISTERI,Greece,Masouti,"{'brand': 'Masouti', 'fascia': 'SUPER MARKET', 'category': 'Retail', 'edit_date': '20250526', 'lat_lon_source': 'Third Party'}",38.008038,23.696789,Masouti PERISTERI,{'opening_hours': {}},2105743452,,668,ATTICA,https://www.masoutis.gr/stores
"146, G.PAPANDREOU st.",METAMORFOSI,Greece,Masouti,"{'brand': 'Masouti', 'fascia': 'SUPER MARKET', 'category': 'Retail', 'edit_date': '20250526', 'lat_lon_source': 'Third Party'}",38.067776,23.769821,Masouti METAMORFOSI,{'opening_hours': {}},2102822955,,618,ATTICA,https://www.masoutis.gr/stores
"158, G.PAPANDREOU st.",ST.ANARGIROI,Greece,Masouti,"{'brand': 'Masouti', 'fascia': 'SUPER MARKET', 'category': 'Retail', 'edit_date': '20250526', 'lat_lon_source': 'Third Party'}",38.039417,23.731099,Masouti ST.ANARGIROI,{'opening_hours': {}},2102693361,,613,ATTICA,https://www.masoutis.gr/stores
"8, DESTOUNI st.",ST.ELEFTHERIOS,Greece,Masouti,"{'brand': 'Masouti', 'fascia': 'SUPER MARKET', 'category': 'Retail', 'edit_date': '20250526', 'lat_lon_source': 'Third Party'}",38.019880,23.728214,Masouti ST.ELEFTHERIOS,{'opening_hours': {}},2102111569,,604,ATTICA,https://www.masoutis.gr/stores
"202, DIMOSTHENOUS st.",KALLITHEA,Greece,Masouti,"{'brand': 'Masouti', 'fascia': 'SUPER MARKET', 'category': 'Retail', 'edit_date': '20250526', 'lat_lon_source': 'Third Party'}",37.948990,23.699807,Masouti KALLITHEA,{'opening_hours': {}},2109511763,,620,ATTICA,https://www.masoutis.gr/stores
ETHNARXOU MAKARIOU 54,ARGIROUPOLI,Greece,Masouti,"{'brand': 'Masouti', 'fascia': 'SUPER MARKET', 'category': 'Retail', 'edit_date': '20250526', 'lat_lon_source': 'Third Party'}",37.909907,23.748397,Masouti ARGIROUPOLI,{'opening_hours': {}},2160702767,,675,ATTICA,https://www.masoutis.gr/stores
"22, ZOODOCHOUS PIGIS st.",CHALANDRI,Greece,Masouti,"{'brand': 'Masouti', 'fascia': 'SUPER MARKET', 'category': 'Retail', 'edit_date': '20250526', 'lat_lon_source': 'Third Party'}",38.010316,23.800753,Masouti CHALANDRI,{'opening_hours': {}},2106777417,,642,ATTICA,https://www.masoutis.gr/stores
"2, IVIS st.",METAMORFOSI,Greece,Masouti,"{'brand': 'Masouti', 'fascia': 'SUPER MARKET', 'category': 'Retail', 'edit_date': '20250526', 'lat_lon_source': 'Third Party'}",38.060757,23.758607,Masouti METAMORFOSI,{'opening_hours': {}},2102828242,,639,ATTICA,https://www.masoutis.gr/stores
"35, THEOTOKOPOULOU st.",PATISIA,Greece,Masouti,"{'brand': 'Masouti', 'fascia': 'SUPER MARKET', 'category': 'Retail', 'edit_date': '20250526', 'lat_lon_source': 'Third Party'}",38.017091,23.733552,Masouti PATISIA,{'opening_hours': {}},2102230131,,619,ATTICA,https://www.masoutis.gr/stores
THESI ALONIA MAGKOULIZA,KALIVIA,Greece,Masouti,"{'brand': 'Masouti', 'fascia': 'SUPER MARKET', 'category': 'Retail', 'edit_date': '20250526', 'lat_lon_source': 'Third Party'}",37.838056,23.922361,Masouti KALIVIA,{'opening_hours': {}},2299046224,,670,ATTICA,https://www.masoutis.gr/stores
"52, K.VARNALI st.",METAMORFOSI,Greece,Masouti,"{'brand': 'Masouti', 'fascia': 'SUPER MARKET', 'category': 'Retail', 'edit_date': '20250526', 'lat_lon_source': 'Third Party'}",38.061994,23.765413,Masouti METAMORFOSI,{'opening_hours': {}},2102836680,,614,ATTICA,https://www.masoutis.gr/stores
"116-118, KARPATHOU & SKLAVOUNOU st.",PEIRAIAS,Greece,Masouti,"{'brand': 'Masouti', 'fascia': 'SUPER MARKET', 'category': 'Retail', 'edit_date': '20250526', 'lat_lon_source': 'Third Party'}",37.927714,23.633759,Masouti PEIRAIAS,{'opening_hours': {}},2104523700,,632,ATTICA,https://www.masoutis.gr/stores
"3, KORAI st.",ATHENS,Greece,Masouti,"{'brand': 'Masouti', 'fascia': 'SUPER MARKET', 'category': 'Retail', 'edit_date': '20250526', 'lat_lon_source': 'Third Party'}",37.980022,23.732279,Masouti ATHENS,{'opening_hours': {}},2114117065,,651,ATTICA,https://www.masoutis.gr/stores
79 VOULIAGMENIS & VENEZOUELAS st.,ATHENS,Greece,Masouti,"{'brand': 'Masouti', 'fascia': 'GRAND', 'category': 'Retail', 'edit_date': '20250526', 'lat_lon_source': 'Third Party'}",37.873585,23.757942,Masouti ATHENS,{'opening_hours': {}},2109649789,,679,ATTICA,https://www.masoutis.gr/stores
"7, LAMIAS & 18, POULIOU st.",ABELOKIPOI,Greece,Masouti,"{'brand': 'Masouti', 'fascia': 'SUPER MARKET', 'category': 'Retail', 'edit_date': '20250526', 'lat_lon_source': 'Third Party'}",37.988872,23.760378,Masouti ABELOKIPOI,{'opening_hours': {}},2106470492,,641,ATTICA,https://www.masoutis.gr/stores
LEOF. ATHINON SOUNIOU 5,KERATEA,Greece,Masouti,"{'brand': 'Masouti', 'fascia': 'SUPER MARKET', 'category': 'Retail', 'edit_date': '20250526', 'lat_lon_source': 'Third Party'}",37.811148,23.971982,Masouti KERATEA,{'opening_hours': {}},2299309728,,676,ATTICA,https://www.masoutis.gr/stores
VEIKOY 35 & IPSILANTOU 1,GALATSI,Greece,Masouti,"{'brand': 'Masouti', 'fascia': 'SUPER MARKET', 'category': 'Retail', 'edit_date': '20250526', 'lat_lon_source': 'Third Party'}",38.015979,23.754607,Masouti GALATSI,{'opening_hours': {}},2102134970,,665,ATTICA,https://www.masoutis.gr/stores
"139 - 141, THRAKOMAKEDONES av.",ACHARNES,Greece,Masouti,"{'brand': 'Masouti', 'fascia': 'SUPER MARKET', 'category': 'Retail', 'edit_date': '20250526', 'lat_lon_source': 'Third Party'}",38.119810,23.749910,Masouti ACHARNES,{'opening_hours': {}},2102435600,,671,ATTICA,https://www.masoutis.gr/stores
"28, MARKORA st.",PATISIA,Greece,Masouti,"{'brand': 'Masouti', 'fascia': 'SUPER MARKET', 'category': 'Retail', 'edit_date': '20250526', 'lat_lon_source': 'Third Party'}",38.017713,23.741379,Masouti PATISIA,{'opening_hours': {}},2102026291,,615,ATTICA,https://www.masoutis.gr/stores
"1, BOCHALI st.",N.FILOTHEI,Greece,Masouti,"{'brand': 'Masouti', 'fascia': 'SUPER MARKET', 'category': 'Retail', 'edit_date': '20250526', 'lat_lon_source': 'Third Party'}",37.997509,23.757387,Masouti N.FILOTHEI,{'opening_hours': {}},2106470430,,612,ATTICA,https://www.masoutis.gr/stores
"23, OLIMPIAS & SIROU st.",GALATSI,Greece,Masouti,"{'brand': 'Masouti', 'fascia': 'SUPER MARKET', 'category': 'Retail', 'edit_date': '20250526', 'lat_lon_source': 'Third Party'}",38.0115634,23.7578857,Masouti GALATSI,{'opening_hours': {}},2102136818,,627,ATTICA,https://www.masoutis.gr/stores
"22, PAPADIAMANTI st.",KIPRIADOU,Greece,Masouti,"{'brand': 'Masouti', 'fascia': 'SUPER MARKET', 'category': 'Retail', 'edit_date': '20250526', 'lat_lon_source': 'Third Party'}",38.021123,23.743283,Masouti KIPRIADOU,{'opening_hours': {}},2102132666,,605,ATTICA,https://www.masoutis.gr/stores
"158, PATISION st.",SQ.AMERIKIS,Greece,Masouti,"{'brand': 'Masouti', 'fascia': 'SUPER MARKET', 'category': 'Retail', 'edit_date': '20250526', 'lat_lon_source': 'Third Party'}",38.001244,23.733655,Masouti SQ.AMERIKIS,{'opening_hours': {}},2108623688,,631,ATTICA,https://www.masoutis.gr/stores
"268, PATISION st.",SQ.KOLATSIOU,Greece,Masouti,"{'brand': 'Masouti', 'fascia': 'SUPER MARKET', 'category': 'Retail', 'edit_date': '20250526', 'lat_lon_source': 'Third Party'}",38.011299,23.735196,Masouti SQ.KOLATSIOU,{'opening_hours': {}},2102015241,,638,ATTICA,https://www.masoutis.gr/stores
"384, PATISION st.",A.PATISIA,Greece,Masouti,"{'brand': 'Masouti', 'fascia': 'SUPER MARKET', 'category': 'Retail', 'edit_date': '20250526', 'lat_lon_source': 'Third Party'}",38.023036,23.736014,Masouti A.PATISIA,{'opening_hours': {}},2114113239,,645,ATTICA,https://www.masoutis.gr/stores
PETROUPOLEOS 28 SOFOULI,ILION,Greece,Masouti,"{'brand': 'Masouti', 'fascia': 'SUPER MARKET', 'category': 'Retail', 'edit_date': '20250526', 'lat_lon_source': 'Third Party'}",38.030460,23.697861,Masouti ILION,{'opening_hours': {}},2102619026,,669,ATTICA,https://www.masoutis.gr/stores
"124, PEFKON & V.IPEIROU st.",N.IRAKLIO,Greece,Masouti,"{'brand': 'Masouti', 'fascia': 'SUPER MARKET', 'category': 'Retail', 'edit_date': '20250526', 'lat_lon_source': 'Third Party'}",38.058076,23.774711,Masouti N.IRAKLIO,{'opening_hours': {}},2102840460,,644,ATTICA,https://www.masoutis.gr/stores
"6, PL. KIPROU & 9 FEIDIOU st.",GALATSI,Greece,Masouti,"{'brand': 'Masouti', 'fascia': 'SUPER MARKET', 'category': 'Retail', 'edit_date': '20250526', 'lat_lon_source': 'Third Party'}",38.015683,23.758422,Masouti GALATSI,{'opening_hours': {}},2102223013,,636,ATTICA,https://www.masoutis.gr/stores
"22, PLATONOS st.",GALATSI,Greece,Masouti,"{'brand': 'Masouti', 'fascia': 'SUPER MARKET', 'category': 'Retail', 'edit_date': '20250526', 'lat_lon_source': 'Third Party'}",38.016232,23.756642,Masouti GALATSI,{'opening_hours': {}},2102922775,,606,ATTICA,https://www.masoutis.gr/stores
"36, PLOUTONOS st.",DAFNI,Greece,Masouti,"{'brand': 'Masouti', 'fascia': 'SUPER MARKET', 'category': 'Retail', 'edit_date': '20250526', 'lat_lon_source': 'Third Party'}",37.944629,23.743461,Masouti DAFNI,{'opening_hours': {}},2109755027,,637,ATTICA,https://www.masoutis.gr/stores
"4, PROUSSIS st.",N.FILADELFIA,Greece,Masouti,"{'brand': 'Masouti', 'fascia': 'SUPER MARKET', 'category': 'Retail', 'edit_date': '20250526', 'lat_lon_source': 'Third Party'}",38.033748,23.738730,Masouti N.FILADELFIA,{'opening_hours': {}},2111823719,,650,ATTICA,https://www.masoutis.gr/stores
"75, S.VENIZELOU st.",CHALANDRI,Greece,Masouti,"{'brand': 'Masouti', 'fascia': 'SUPER MARKET', 'category': 'Retail', 'edit_date': '20250526', 'lat_lon_source': 'Third Party'}",38.013777,23.797670,Masouti CHALANDRI,{'opening_hours': {}},2106838734,,608,ATTICA,https://www.masoutis.gr/stores
SPARTIS 32 & PARODOS ATTIKIS ODOU,ATHENS,Greece,Masouti,"{'brand': 'Masouti', 'fascia': 'DARK STORE', 'category': 'Retail', 'edit_date': '20250526', 'lat_lon_source': 'Third Party'}",38.063827,23.751381,Masouti ATHENS,{'opening_hours': {}},2102888200,,690,ATTICA,https://www.masoutis.gr/stores
"37, SPIRIDOGIANNI st.",POLIGONO,Greece,Masouti,"{'brand': 'Masouti', 'fascia': 'SUPER MARKET', 'category': 'Retail', 'edit_date': '20250526', 'lat_lon_source': 'Third Party'}",37.995596,23.756346,Masouti POLIGONO,{'opening_hours': {}},2106440113,,611,ATTICA,https://www.masoutis.gr/stores
"18, ST. KARAGIORGI st.",N.IRAKLIO,Greece,Masouti,"{'brand': 'Masouti', 'fascia': 'SUPER MARKET', 'category': 'Retail', 'edit_date': '20250526', 'lat_lon_source': 'Third Party'}",38.044760,23.765687,Masouti N.IRAKLIO,{'opening_hours': {}},2102717010,,634,ATTICA,https://www.masoutis.gr/stores
"25, TILEMACHOU & 12 TIRINTHOS st. ",P.FALIRO,Greece,Masouti,"{'brand': 'Masouti', 'fascia': 'SUPER MARKET', 'category': 'Retail', 'edit_date': '20250526', 'lat_lon_source': 'Third Party'}",37.937808,23.706273,Masouti P.FALIRO,{'opening_hours': {}},2109483472,,623,ATTICA,https://www.masoutis.gr/stores
"97, TRALLEON st.",GALATSI,Greece,Masouti,"{'brand': 'Masouti', 'fascia': 'SUPER MARKET', 'category': 'Retail', 'edit_date': '20250526', 'lat_lon_source': 'Third Party'}",38.02132,23.7505,Masouti GALATSI,{'opening_hours': {}},2114119752,,652,ATTICA,https://www.masoutis.gr/stores
"2, TSOUNTA & 8 ANAVRISIS st.",ST.ELEFTHERIOS,Greece,Masouti,"{'brand': 'Masouti', 'fascia': 'SUPER MARKET', 'category': 'Retail', 'edit_date': '20250526', 'lat_lon_source': 'Third Party'}",38.020478,23.730902,Masouti ST.ELEFTHERIOS,{'opening_hours': {}},2102012010,,640,ATTICA,https://www.masoutis.gr/stores
"34, FEDRIANON st.",KIPSELI,Greece,Masouti,"{'brand': 'Masouti', 'fascia': 'SUPER MARKET', 'category': 'Retail', 'edit_date': '20250526', 'lat_lon_source': 'Third Party'}",38.005931,23.744885,Masouti KIPSELI,{'opening_hours': {}},2108663232,,607,ATTICA,https://www.masoutis.gr/stores
"1,CHLOIS & PENTELIS st.",MAROUSI,Greece,Masouti,"{'brand': 'Masouti', 'fascia': 'SUPER MARKET', 'category': 'Retail', 'edit_date': '20250526', 'lat_lon_source': 'Third Party'}",38.052421,23.818565,Masouti MAROUSI,{'opening_hours': {}},2108026546,,658,ATTICA,https://www.masoutis.gr/stores
"9, CHR. SMIRNIS st.",ST.PARASKEVI,Greece,Masouti,"{'brand': 'Masouti', 'fascia': 'SUPER MARKET', 'category': 'Retail', 'edit_date': '20250526', 'lat_lon_source': 'Third Party'}",38.020125,23.833078,Masouti ST.PARASKEVI,{'opening_hours': {}},2106080016,,609,ATTICA,https://www.masoutis.gr/stores
AGIOU ANDREA & ASKLIPIOU,PATRA,Greece,Masouti,"{'brand': 'Masouti', 'fascia': 'SUPER MARKET', 'category': 'Retail', 'edit_date': '20250526', 'lat_lon_source': 'Third Party'}",38.247396,21.732930,Masouti PATRA,{'opening_hours': {}},2610226680,,560,AXAIAS,https://www.masoutis.gr/stores
PANAHAIKOU 2 & YPSILA ALONIA SQUARE 22,PATRA,Greece,Masouti,"{'brand': 'Masouti', 'fascia': 'SUPER MARKET', 'category': 'Retail', 'edit_date': '20250526', 'lat_lon_source': 'Third Party'}",38.240845,21.734216,Masouti PATRA,{'opening_hours': {}},2610317762,,563,AXAIAS,https://www.masoutis.gr/stores
46TH PL.AGIOU GEORGIOU A,PATRA,Greece,Masouti,"{'brand': 'Masouti', 'fascia': 'SUPER MARKET', 'category': 'Retail', 'edit_date': '20250526', 'lat_lon_source': 'Third Party'}",38.245270,21.735668,Masouti PATRA,{'opening_hours': {}},2610223605,,562,AXAIAS,https://www.masoutis.gr/stores
SOFOKLEOUS & VIKELA 1,PATRA,Greece,Masouti,"{'brand': 'Masouti', 'fascia': 'SUPER MARKET', 'category': 'Retail', 'edit_date': '20250526', 'lat_lon_source': 'Third Party'}",38.265641,21.739942,Masouti PATRA,{'opening_hours': {}},2610438442,,561,AXAIAS,https://www.masoutis.gr/stores
"45, K. TALIADOURI & IPPOKRATOUS str.",GREVENA,Greece,Masouti,"{'brand': 'Masouti', 'fascia': 'SUPER MARKET', 'category': 'Retail', 'edit_date': '20250526', 'lat_lon_source': 'Third Party'}",40.084727,21.432295,Masouti GREVENA,{'opening_hours': {}},2462028703 ,,352,GREBENA,https://www.masoutis.gr/stores
3rd km of DRAMA - KAVALA rd,DRAMA,Greece,Masouti,"{'brand': 'Masouti', 'fascia': 'CASH & CARRY', 'category': 'Retail', 'edit_date': '20250526', 'lat_lon_source': 'Third Party'}",41.168164,24.186215,Masouti DRAMA,{'opening_hours': {}},2521021102,,417,DRAMA,https://www.masoutis.gr/stores
"13, DIRFYOS str",DRAMA,Greece,Masouti,"{'brand': 'Masouti', 'fascia': 'GRAND', 'category': 'Retail', 'edit_date': '20250526', 'lat_lon_source': 'Third Party'}",41.151936,24.145711,Masouti DRAMA,{'opening_hours': {}},2521027250,,415,DRAMA,https://www.masoutis.gr/stores
ENORIA XRISTOU POTHIA,KALIMNOS,Greece,Masouti,"{'brand': 'Masouti', 'fascia': 'SUPER MARKET', 'category': 'Retail', 'edit_date': '20250526', 'lat_lon_source': 'Third Party'}",36.950277,26.985011,Masouti KALIMNOS,{'opening_hours': {}},2243059230,,569,DODEKANISA,https://www.masoutis.gr/stores
POTAMI KALIMNOS,KALIMNOS,Greece,Masouti,"{'brand': 'Masouti', 'fascia': 'SUPER MARKET', 'category': 'Retail', 'edit_date': '20250526', 'lat_lon_source': 'Third Party'}",36.957726,26.964365,Masouti KALIMNOS,{'opening_hours': {}},2243059100,,570,DODEKANISA,https://www.masoutis.gr/stores
3rd km of ALEXANDROUPOLIS-SYNORON (MAISTROS),ALEKSANDROUPOLI,Greece,Masouti,"{'brand': 'Masouti', 'fascia': 'CASH & CARRY', 'category': 'Retail', 'edit_date': '20250526', 'lat_lon_source': 'Third Party'}",40.854347,25.913865,Masouti ALEKSANDROUPOLI,{'opening_hours': {}},2551088618,,599,EVROS,https://www.masoutis.gr/stores
"2, BASILEOS KONSTANTINOU st.",ORESTIADA,Greece,Masouti,"{'brand': 'Masouti', 'fascia': 'SUPER MARKET', 'category': 'Retail', 'edit_date': '20250526', 'lat_lon_source': 'Third Party'}",41.502810,26.535318,Masouti ORESTIADA,{'opening_hours': {}},2552024774,,592,EVROS,https://www.masoutis.gr/stores
"113, ETHNIKIS ANTISTASEOS st.",ALEKSANDROUPOLI,Greece,Masouti,"{'brand': 'Masouti', 'fascia': 'SUPER MARKET', 'category': 'Retail', 'edit_date': '20250526', 'lat_lon_source': 'Third Party'}",40.84501,25.87031,Masouti ALEKSANDROUPOLI,{'opening_hours': {}},2551080186,,593,EVROS,https://www.masoutis.gr/stores
1 KOLOKOTRONI st.,ALEKSANDROUPOLI,Greece,Masouti,"{'brand': 'Masouti', 'fascia': 'SUPER MARKET', 'category': 'Retail', 'edit_date': '20250526', 'lat_lon_source': 'Third Party'}",40.851147,25.831177,Masouti ALEKSANDROUPOLI,{'opening_hours': {}},2551040050 ,,597,EVROS,https://www.masoutis.gr/stores
"35, KONSTANTINOUPOLEOS st. (WHOLESALE)",ORESTIADA,Greece,Masouti,"{'brand': 'Masouti', 'fascia': 'CASH & CARRY', 'category': 'Retail', 'edit_date': '20250526', 'lat_lon_source': 'Third Party'}",41.487221,26.534491,Masouti ORESTIADA,{'opening_hours': {}},2552081786,,596,EVROS,https://www.masoutis.gr/stores
"146, DIMOKRATIAS AVENUE ",ALEKSANDROUPOLI,Greece,Masouti,"{'brand': 'Masouti', 'fascia': 'SUPER MARKET', 'category': 'Retail', 'edit_date': '20250526', 'lat_lon_source': 'Third Party'}",40.847032,25.880285,Masouti ALEKSANDROUPOLI,{'opening_hours': {}},2551033831,,590,EVROS,https://www.masoutis.gr/stores
10 BEGETI & GERMANOU st.,DIDIMOTIXO,Greece,Masouti,"{'brand': 'Masouti', 'fascia': 'SUPER MARKET', 'category': 'Retail', 'edit_date': '20250526', 'lat_lon_source': 'Third Party'}",41.34971,26.49567,Masouti DIDIMOTIXO,{'opening_hours': {}},2553026718,,594,EVROS,https://www.masoutis.gr/stores
OMIROU 2 & PLATIA ELEFTHERIAS,FERES,Greece,Masouti,"{'brand': 'Masouti', 'fascia': 'SUPER MARKET', 'category': 'Retail', 'edit_date': '20250526', 'lat_lon_source': 'Third Party'}",40.894259,26.174245,Masouti FERES,{'opening_hours': {}},2555088090,,598,EVROS,https://www.masoutis.gr/stores
"13, FYLIS st.",ALEKSANDROUPOLI,Greece,Masouti,"{'brand': 'Masouti', 'fascia': 'SUPER MARKET', 'category': 'Retail', 'edit_date': '20250526', 'lat_lon_source': 'Third Party'}",40.850094,25.876922,Masouti ALEKSANDROUPOLI,{'opening_hours': {}},2551024022,,595,EVROS,https://www.masoutis.gr/stores
25is MARTIOY& BELISARIOY XALKIDA EYBOIAS,ALIVERI,Greece,Masouti,"{'brand': 'Masouti', 'fascia': 'SUPER MARKET', 'category': 'Retail', 'edit_date': '20250526', 'lat_lon_source': 'Third Party'}",38.408772,24.036037,Masouti ALIVERI,{'opening_hours': {}},2223022342,,333,EVOIA,https://www.masoutis.gr/stores
28is OKTOBRIOY & SKYROY XALKIDA EYBOIAS,XALKIDA,Greece,Masouti,"{'brand': 'Masouti', 'fascia': 'SUPER MARKET', 'category': 'Retail', 'edit_date': '20250526', 'lat_lon_source': 'Third Party'}",38.460744,23.603518,Masouti XALKIDA,{'opening_hours': {}},2221088851,,331,EVOIA,https://www.masoutis.gr/stores
L.ATHINON XALKIDA EYBOIAS,XALKIDA,Greece,Masouti,"{'brand': 'Masouti', 'fascia': 'SUPER MARKET', 'category': 'Retail', 'edit_date': '20250526', 'lat_lon_source': 'Third Party'}",38.465726,23.573181,Masouti XALKIDA,{'opening_hours': {}},2221094881,,332,EVOIA,https://www.masoutis.gr/stores
ORESTI MAKRI 6 XALKIDA EYBOIAS,XALKIDA,Greece,Masouti,"{'brand': 'Masouti', 'fascia': 'GRAND', 'category': 'Retail', 'edit_date': '20250526', 'lat_lon_source': 'Third Party'}",38.468577,23.616094,Masouti XALKIDA,{'opening_hours': {}},2221088811,,330,EVOIA,https://www.masoutis.gr/stores
"4, 16th OKTOBRIOU st.",VERIA,Greece,Masouti,"{'brand': 'Masouti', 'fascia': 'SUPER MARKET', 'category': 'Retail', 'edit_date': '20250526', 'lat_lon_source': 'Third Party'}",40.519861,22.199639,Masouti VERIA,{'opening_hours': {}},2331026792,,376,HMATHIA,https://www.masoutis.gr/stores
3rd km OLD NATIONAL ROAD VERIA - THESSALONIKI,VERIA,Greece,Masouti,"{'brand': 'Masouti', 'fascia': 'CASH & CARRY', 'category': 'Retail', 'edit_date': '20250526', 'lat_lon_source': 'Third Party'}",40.538412,22.217737,Masouti VERIA,{'opening_hours': {}},2331065628,,174,HMATHIA,https://www.masoutis.gr/stores
"60, GR. LAMPRAKI st.",ALEKSANDRIA,Greece,Masouti,"{'brand': 'Masouti', 'fascia': 'GRAND', 'category': 'Retail', 'edit_date': '20250526', 'lat_lon_source': 'Third Party'}",40.622867,22.442126,Masouti ALEKSANDRIA,{'opening_hours': {}},2333023317,,171,HMATHIA,https://www.masoutis.gr/stores
"23, DIMARHIAS st.",NAOUSA,Greece,Masouti,"{'brand': 'Masouti', 'fascia': 'SUPER MARKET', 'category': 'Retail', 'edit_date': '20250526', 'lat_lon_source': 'Third Party'}",40.630337,22.067467,Masouti NAOUSA,{'opening_hours': {}},2332052140,,280,HMATHIA,https://www.masoutis.gr/stores
K. KARAMANLI & E. VENIZELOU st.,ALEKSANDRIA,Greece,Masouti,"{'brand': 'Masouti', 'fascia': 'SUPER MARKET', 'category': 'Retail', 'edit_date': '20250526', 'lat_lon_source': 'Third Party'}",40.632114,22.442841,Masouti ALEKSANDRIA,{'opening_hours': {}},2333028290,,172,HMATHIA,https://www.masoutis.gr/stores
LEOFOROS STRATOU,VERIA,Greece,Masouti,"{'brand': 'Masouti', 'fascia': 'SUPER MARKET', 'category': 'Retail', 'edit_date': '20250526', 'lat_lon_source': 'Third Party'}",40.528473,22.209100,Masouti VERIA,{'opening_hours': {}},2331071469,,390,HMATHIA,https://www.masoutis.gr/stores
"11, MEG. ALEXANDROU st.",VERIA,Greece,Masouti,"{'brand': 'Masouti', 'fascia': 'SUPER MARKET', 'category': 'Retail', 'edit_date': '20250526', 'lat_lon_source': 'Third Party'}",40.524991,22.202520,Masouti VERIA,{'opening_hours': {}},2331024001,,487,HMATHIA,https://www.masoutis.gr/stores
XRISTODOYLOY PETRIDI 12,NAOUSA,Greece,Masouti,"{'brand': 'Masouti', 'fascia': 'SUPER MARKET', 'category': 'Retail', 'edit_date': '20250526', 'lat_lon_source': 'Third Party'}",40.633919,22.072044,Masouti NAOUSA,{'opening_hours': {}},2332052151,,238,HMATHIA,https://www.masoutis.gr/stores
28TH OCTOBRIOU,IGOUMENITSA,Greece,Masouti,"{'brand': 'Masouti', 'fascia': 'SUPER MARKET', 'category': 'Retail', 'edit_date': '20250526', 'lat_lon_source': 'Third Party'}",39.512660,20.258479,Masouti IGOUMENITSA,{'opening_hours': {}},2665026649,,359,THESPROTIA,https://www.masoutis.gr/stores
49 1ST PROKRITON,PARAMITHIA,Greece,Masouti,"{'brand': 'Masouti', 'fascia': 'SUPER MARKET', 'category': 'Retail', 'edit_date': '20250526', 'lat_lon_source': 'Third Party'}",39.461612,20.513220,Masouti PARAMITHIA,{'opening_hours': {}},2666022613,,378,THESPROTIA,https://www.masoutis.gr/stores
11th km THESSALONIKI - MOUDANIA,THESSALONIKI,Greece,Masouti,"{'brand': 'Masouti', 'fascia': 'SUPER MARKET', 'category': 'Retail', 'edit_date': '20250526', 'lat_lon_source': 'Third Party'}",40.556119,22.994291,Masouti THESSALONIKI,{'opening_hours': {}},2310487970,,141,THESSALONIKI,https://www.masoutis.gr/stores
11o KLM THESSALONIKIS - ORAIOKASTROU,THESSALONIKI,Greece,Masouti,"{'brand': 'Masouti', 'fascia': 'SUPER MARKET', 'category': 'Retail', 'edit_date': '20250526', 'lat_lon_source': 'Third Party'}",40.721098,22.924453,Masouti THESSALONIKI,{'opening_hours': {}},2310809461 ,,143,THESSALONIKI,https://www.masoutis.gr/stores
14th km of THESSALONIKI-VASILIKA,THESSALONIKI,Greece,Masouti,"{'brand': 'Masouti', 'fascia': 'GRAND', 'category': 'Retail', 'edit_date': '20250526', 'lat_lon_source': 'Third Party'}",40.53963426,23.03047657,Masouti THESSALONIKI,{'opening_hours': {}},2310803857,,109,THESSALONIKI,https://www.masoutis.gr/stores
14th km of THESSALONIKI-VASILIKA (WHOLESALE),THESSALONIKI,Greece,Masouti,"{'brand': 'Masouti', 'fascia': 'CASH & CARRY', 'category': 'Retail', 'edit_date': '20250526', 'lat_lon_source': 'Third Party'}",40.53974,23.03036,Masouti THESSALONIKI,{'opening_hours': {}},2310803858,,125,THESSALONIKI,https://www.masoutis.gr/stores
23nd km of THES/NIKH-MIHANIONA,PERAIA,Greece,Masouti,"{'brand': 'Masouti', 'fascia': 'SUPER MARKET', 'category': 'Retail', 'edit_date': '20250526', 'lat_lon_source': 'Third Party'}",40.49989888,22.90632248,Masouti PERAIA,{'opening_hours': {}},2392020173 ,,127,THESSALONIKI,https://www.masoutis.gr/stores
"72-74, 25th MARTIOU st.",THESSALONIKI,Greece,Masouti,"{'brand': 'Masouti', 'fascia': 'SUPER MARKET', 'category': 'Retail', 'edit_date': '20250526', 'lat_lon_source': 'Third Party'}",40.67264163,22.91555464,Masouti THESSALONIKI,{'opening_hours': {}},2310775332,,278,THESSALONIKI,https://www.masoutis.gr/stores
"85, 25th MARTIOU",THESSALONIKI,Greece,Masouti,"{'brand': 'Masouti', 'fascia': 'SUPER MARKET', 'category': 'Retail', 'edit_date': '20250526', 'lat_lon_source': 'Third Party'}",40.601841,22.962844,Masouti THESSALONIKI,{'opening_hours': {}},2310301400,,133,THESSALONIKI,https://www.masoutis.gr/stores
26th km of THESSALONIKI-EPANOMI rd,EPANOMI,Greece,Masouti,"{'brand': 'Masouti', 'fascia': 'SUPER MARKET', 'category': 'Retail', 'edit_date': '20250526', 'lat_lon_source': 'Third Party'}",40.438868,22.932065,Masouti EPANOMI,{'opening_hours': {}},2392042252 ,,137,THESSALONIKI,https://www.masoutis.gr/stores
4th km of LAGADA st.,THESSALONIKI,Greece,Masouti,"{'brand': 'Masouti', 'fascia': 'GRAND', 'category': 'Retail', 'edit_date': '20250526', 'lat_lon_source': 'Third Party'}",40.674812,22.938989,Masouti THESSALONIKI,{'opening_hours': {}},2310655629,,119,THESSALONIKI,https://www.masoutis.gr/stores
6o KM LEOF. XARILAOY-THERMIS,THESSALONIKI,Greece,Masouti,"{'brand': 'Masouti', 'fascia': 'SUPER MARKET', 'category': 'Retail', 'edit_date': '20250526', 'lat_lon_source': 'Third Party'}",40.55300458,23.01661491,Masouti THESSALONIKI,{'opening_hours': {}},2310028250,,169,THESSALONIKI,https://www.masoutis.gr/stores
"210, A. PAPANDREOU st.",THESSALONIKI,Greece,Masouti,"{'brand': 'Masouti', 'fascia': 'SUPER MARKET', 'category': 'Retail', 'edit_date': '20250526', 'lat_lon_source': 'Third Party'}",40.65459283,22.95378149,Masouti THESSALONIKI,{'opening_hours': {}},2310630207,,474,THESSALONIKI,https://www.masoutis.gr/stores
"13, AGIOU DIMITRIOU st.",THESSALONIKI,Greece,Masouti,"{'brand': 'Masouti', 'fascia': 'SUPER MARKET', 'category': 'Retail', 'edit_date': '20250526', 'lat_lon_source': 'Third Party'}",40.64309081,22.93843389,Masouti THESSALONIKI,{'opening_hours': {}},2310529157,,259,THESSALONIKI,https://www.masoutis.gr/stores
"145, AGIOU NIKOLAOU st.",MIXANIONA,Greece,Masouti,"{'brand': 'Masouti', 'fascia': 'SUPER MARKET', 'category': 'Retail', 'edit_date': '20250526', 'lat_lon_source': 'Third Party'}",40.45915629,22.86289752,Masouti MIXANIONA,{'opening_hours': {}},2392036133,,130,THESSALONIKI,https://www.masoutis.gr/stores
"17, AGIOU SPYRIDONOS st.",THESSALONIKI,Greece,Masouti,"{'brand': 'Masouti', 'fascia': 'SUPER MARKET', 'category': 'Retail', 'edit_date': '20250526', 'lat_lon_source': 'Third Party'}",40.62342167,22.9711917,Masouti THESSALONIKI,{'opening_hours': {}},2310926910,,292,THESSALONIKI,https://www.masoutis.gr/stores
"33, AGIOU SPYRIDONOS st.",THESSALONIKI,Greece,Masouti,"{'brand': 'Masouti', 'fascia': 'SUPER MARKET', 'category': 'Retail', 'edit_date': '20250526', 'lat_lon_source': 'Third Party'}",40.62337077,22.97073036,Masouti THESSALONIKI,{'opening_hours': {}},2310909755,,287,THESSALONIKI,https://www.masoutis.gr/stores
"84, AG. STRATIOTOU st.",THESSALONIKI,Greece,Masouti,"{'brand': 'Masouti', 'fascia': 'SUPER MARKET', 'category': 'Retail', 'edit_date': '20250526', 'lat_lon_source': 'Third Party'}",40.660840,22.945725,Masouti THESSALONIKI,{'opening_hours': {}},2310600950,,473,THESSALONIKI,https://www.masoutis.gr/stores
AGGELAKI 16 (K2) - DETH,THESSALONIKI,Greece,Masouti,"{'brand': 'Masouti', 'fascia': 'SUPER MARKET', 'category': 'Retail', 'edit_date': '20250526', 'lat_lon_source': 'Third Party'}",40.627919,22.953143,Masouti THESSALONIKI,{'opening_hours': {}},2310276829,,294,THESSALONIKI,https://www.masoutis.gr/stores
"46, AGIAS SOFIAS st.",THESSALONIKI,Greece,Masouti,"{'brand': 'Masouti', 'fascia': 'SUPER MARKET', 'category': 'Retail', 'edit_date': '20250526', 'lat_lon_source': 'Third Party'}",40.633971,22.946419,Masouti THESSALONIKI,{'opening_hours': {}},2310277894,,126,THESSALONIKI,https://www.masoutis.gr/stores
AGIOREITON PATERON (EISODOS TRIADIOY),THESSALONIKI,Greece,Masouti,"{'brand': 'Masouti', 'fascia': 'SUPER MARKET', 'category': 'Retail', 'edit_date': '20250526', 'lat_lon_source': 'Third Party'}",40.54697196,23.04880142,Masouti THESSALONIKI,{'opening_hours': {}},2310024590,,197,THESSALONIKI,https://www.masoutis.gr/stores
MAKEDONIA AIRPORT,THESSALONIKI,Greece,Masouti,"{'brand': 'Masouti', 'fascia': 'SUPER MARKET', 'category': 'Retail', 'edit_date': '20250526', 'lat_lon_source': 'Third Party'}",40.525347,22.975184,Masouti THESSALONIKI,{'opening_hours': {}},2314400343,,380,THESSALONIKI,https://www.masoutis.gr/stores
"102, AIGAIOU st.",THESSALONIKI,Greece,Masouti,"{'brand': 'Masouti', 'fascia': 'SUPER MARKET', 'category': 'Retail', 'edit_date': '20250526', 'lat_lon_source': 'Third Party'}",40.585178,22.954495,Masouti THESSALONIKI,{'opening_hours': {}},2310427556,,255,THESSALONIKI,https://www.masoutis.gr/stores
"15, AIGAIOU st.",THESSALONIKI,Greece,Masouti,"{'brand': 'Masouti', 'fascia': 'SUPER MARKET', 'category': 'Retail', 'edit_date': '20250526', 'lat_lon_source': 'Third Party'}",40.589868,22.961180,Masouti THESSALONIKI,{'opening_hours': {}},2310440556,,458,THESSALONIKI,https://www.masoutis.gr/stores
"77, AL. PAPANASTASIOU st.",THESSALONIKI,Greece,Masouti,"{'brand': 'Masouti', 'fascia': 'SUPER MARKET', 'category': 'Retail', 'edit_date': '20250526', 'lat_lon_source': 'Third Party'}",40.64722216,22.94726372,Masouti THESSALONIKI,{'opening_hours': {}},2310625287,,258,THESSALONIKI,https://www.masoutis.gr/stores
"29, AL. SVOLOU st.",THESSALONIKI,Greece,Masouti,"{'brand': 'Masouti', 'fascia': 'SUPER MARKET', 'category': 'Retail', 'edit_date': '20250526', 'lat_lon_source': 'Third Party'}",40.631109,22.949839,Masouti THESSALONIKI,{'opening_hours': {}},2310233997,,132,THESSALONIKI,https://www.masoutis.gr/stores
ALBERTOU NAR 6-8 & KYPROY,THESSALONIKI,Greece,Masouti,"{'brand': 'Masouti', 'fascia': 'MAS VISION', 'category': 'Retail', 'edit_date': '20250526', 'lat_lon_source': 'Third Party'}",40.61375698,22.95496702,Masouti THESSALONIKI,{'opening_hours': {}},2310859808,,189,THESSALONIKI,https://www.masoutis.gr/stores
"11, AMMOHOSTOU st.",THESSALONIKI,Greece,Masouti,"{'brand': 'Masouti', 'fascia': 'SUPER MARKET', 'category': 'Retail', 'edit_date': '20250526', 'lat_lon_source': 'Third Party'}",40.608165,22.976424,Masouti THESSALONIKI,{'opening_hours': {}},2310906723,,432,THESSALONIKI,https://www.masoutis.gr/stores
"30, AMPELOKIPON st.",PERAIA,Greece,Masouti,"{'brand': 'Masouti', 'fascia': 'SUPER MARKET', 'category': 'Retail', 'edit_date': '20250526', 'lat_lon_source': 'Third Party'}",40.50580522,22.92666435,Masouti PERAIA,{'opening_hours': {}},2392024003,,131,THESSALONIKI,https://www.masoutis.gr/stores
AMPELOKIPON 36 & KOLOKOTRONI 40,THESSALONIKI,Greece,Masouti,"{'brand': 'Masouti', 'fascia': 'SUPER MARKET', 'category': 'Retail', 'edit_date': '20250526', 'lat_lon_source': 'Third Party'}",40.65949666,22.92911053,Masouti THESSALONIKI,{'opening_hours': {}},2310644240,,199,THESSALONIKI,https://www.masoutis.gr/stores
"52, AMPELONON st.",THESSALONIKI,Greece,Masouti,"{'brand': 'Masouti', 'fascia': 'SUPER MARKET', 'category': 'Retail', 'edit_date': '20250526', 'lat_lon_source': 'Third Party'}",40.65026047,22.9255566,Masouti THESSALONIKI,{'opening_hours': {}},2310721667,,470,THESSALONIKI,https://www.masoutis.gr/stores
"79, AN. PAPANDREOU st.",THESSALONIKI,Greece,Masouti,"{'brand': 'Masouti', 'fascia': 'SUPER MARKET', 'category': 'Retail', 'edit_date': '20250526', 'lat_lon_source': 'Third Party'}",40.65130238,22.94593066,Masouti THESSALONIKI,{'opening_hours': {}},2310637770,,254,THESSALONIKI,https://www.masoutis.gr/stores
261 A. PAPANDREOU & PASTER,THESSALONIKI,Greece,Masouti,"{'brand': 'Masouti', 'fascia': 'SUPER MARKET', 'category': 'Retail', 'edit_date': '20250526', 'lat_lon_source': 'Third Party'}",40.655820,22.961144,Masouti THESSALONIKI,{'opening_hours': {}},2310627541,,115,THESSALONIKI,https://www.masoutis.gr/stores
ΑΣΒΕΣΤΟΧΩΡΙ,ASVERSTOXORI,Greece,Masouti,"{'brand': 'Masouti', 'fascia': 'SUPER MARKET', 'category': 'Retail', 'edit_date': '20250526', 'lat_lon_source': 'Third Party'}",40.640177,23.028964,Masouti ASVERSTOXORI,{'opening_hours': {}},2310357900,,321,THESSALONIKI,https://www.masoutis.gr/stores
"170, VAS OLGAS st.",THESSALONIKI,Greece,Masouti,"{'brand': 'Masouti', 'fascia': 'SUPER MARKET', 'category': 'Retail', 'edit_date': '20250526', 'lat_lon_source': 'Third Party'}",40.59831133,22.95538276,Masouti THESSALONIKI,{'opening_hours': {}},2310426689,,107,THESSALONIKI,https://www.masoutis.gr/stores
B.OLGAS 128 & LYSIMAXOY,THESSALONIKI,Greece,Masouti,"{'brand': 'Masouti', 'fascia': 'SUPER MARKET', 'category': 'Retail', 'edit_date': '20250526', 'lat_lon_source': 'Third Party'}",40.60264706,22.95312166,Masouti THESSALONIKI,{'opening_hours': {}},2310835212,,190,THESSALONIKI,https://www.masoutis.gr/stores
"35, VARNALI st.",THESSALONIKI,Greece,Masouti,"{'brand': 'Masouti', 'fascia': 'SUPER MARKET', 'category': 'Retail', 'edit_date': '20250526', 'lat_lon_source': 'Third Party'}",40.610051,22.995018,Masouti THESSALONIKI,{'opening_hours': {}},2310949929,,452,THESSALONIKI,https://www.masoutis.gr/stores
VIZIINOY K LEVANTI,THESSALONIKI,Greece,Masouti,"{'brand': 'Masouti', 'fascia': 'SUPER MARKET', 'category': 'Retail', 'edit_date': '20250526', 'lat_lon_source': 'Third Party'}",40.630964,22.966750,Masouti THESSALONIKI,{'opening_hours': {}},2310216952,,362,THESSALONIKI,https://www.masoutis.gr/stores
"18, G. AGGELOU st.",THESSALONIKI,Greece,Masouti,"{'brand': 'Masouti', 'fascia': 'SUPER MARKET', 'category': 'Retail', 'edit_date': '20250526', 'lat_lon_source': 'Third Party'}",40.599282,22.973531,Masouti THESSALONIKI,{'opening_hours': {}},2310312054,,456,THESSALONIKI,https://www.masoutis.gr/stores
"59th, G. GENNIMATA str.",THESSALONIKI,Greece,Masouti,"{'brand': 'Masouti', 'fascia': 'SUPER MARKET', 'category': 'Retail', 'edit_date': '20250526', 'lat_lon_source': 'Third Party'}",40.5719191,22.9678932,Masouti THESSALONIKI,{'opening_hours': {}},2310443201 ,,165,THESSALONIKI,https://www.masoutis.gr/stores
"110, G. PAPANIKOLAOU",THESSALONIKI,Greece,Masouti,"{'brand': 'Masouti', 'fascia': 'SUPER MARKET', 'category': 'Retail', 'edit_date': '20250526', 'lat_lon_source': 'Third Party'}",40.655400,22.991706,Masouti THESSALONIKI,{'opening_hours': {}},2310674467,,121,THESSALONIKI,https://www.masoutis.gr/stores
"98, GR. LAMPRAKI st.",THESSALONIKI,Greece,Masouti,"{'brand': 'Masouti', 'fascia': 'SUPER MARKET', 'category': 'Retail', 'edit_date': '20250526', 'lat_lon_source': 'Third Party'}",40.617099,22.970463,Masouti THESSALONIKI,{'opening_hours': {}},2310939911,,459,THESSALONIKI,https://www.masoutis.gr/stores
GR.LAMPRAKI 149 - XARISI A.TOYMPA,THESSALONIKI,Greece,Masouti,"{'brand': 'Masouti', 'fascia': 'SUPER MARKET', 'category': 'Retail', 'edit_date': '20250526', 'lat_lon_source': 'Third Party'}",40.613933,22.979631,Masouti THESSALONIKI,{'opening_hours': {}},2310989670,,295,THESSALONIKI,https://www.masoutis.gr/stores
GR.LAMPRAKI 20,PLAGIARI,Greece,Masouti,"{'brand': 'Masouti', 'fascia': 'SUPER MARKET', 'category': 'Retail', 'edit_date': '20250526', 'lat_lon_source': 'Third Party'}",40.473722,22.95726299,Masouti PLAGIARI,{'opening_hours': {}},2392064112,,248,THESSALONIKI,https://www.masoutis.gr/stores
"2, M. PARTIKIOU & GRIGIRIOU E^27 st.",THESSALONIKI,Greece,Masouti,"{'brand': 'Masouti', 'fascia': 'SUPER MARKET', 'category': 'Retail', 'edit_date': '20250526', 'lat_lon_source': 'Third Party'}",40.599074,22.958766,Masouti THESSALONIKI,{'opening_hours': {}},2310322104,,268,THESSALONIKI,https://www.masoutis.gr/stores
Gymnasiarxoy Basileioy Mystakidoy B 1-3,THESSALONIKI,Greece,Masouti,"{'brand': 'Masouti', 'fascia': 'SUPER MARKET', 'category': 'Retail', 'edit_date': '20250526', 'lat_lon_source': 'Third Party'}",40.603842,22.971696,Masouti THESSALONIKI,{'opening_hours': {}},2310327323,,293,THESSALONIKI,https://www.masoutis.gr/stores
DELFON 113,THESSALONIKI,Greece,Masouti,"{'brand': 'Masouti', 'fascia': 'SUPER MARKET', 'category': 'Retail', 'edit_date': '20250526', 'lat_lon_source': 'Third Party'}",40.60543,22.95796,Masouti THESSALONIKI,{'opening_hours': {}},2310834939,,462,THESSALONIKI,https://www.masoutis.gr/stores
DIMOKRATIAS 40,KARDIA,Greece,Masouti,"{'brand': 'Masouti', 'fascia': 'SUPER MARKET', 'category': 'Retail', 'edit_date': '20250526', 'lat_lon_source': 'Third Party'}",40.468667,22.993880,Masouti KARDIA,{'opening_hours': {}},2392061276,,200,THESSALONIKI,https://www.masoutis.gr/stores
ΔΙΑΒΑΤΑ,DIAVATA,Greece,Masouti,"{'brand': 'Masouti', 'fascia': 'SUPER MARKET', 'category': 'Retail', 'edit_date': '20250526', 'lat_lon_source': 'Third Party'}",40.688228,22.851170,Masouti DIAVATA,{'opening_hours': {}},2310782270,,319,THESSALONIKI,https://www.masoutis.gr/stores
"93, EGNATIAS st.",THESSALONIKI,Greece,Masouti,"{'brand': 'Masouti', 'fascia': 'SUPER MARKET', 'category': 'Retail', 'edit_date': '20250526', 'lat_lon_source': 'Third Party'}",40.63351649,22.94891596,Masouti THESSALONIKI,{'opening_hours': {}},2310222884,,263,THESSALONIKI,https://www.masoutis.gr/stores
ETHNIKIS ANTISTASEOS & ALEXANDREIAS,THESSALONIKI,Greece,Masouti,"{'brand': 'Masouti', 'fascia': 'SUPER MARKET', 'category': 'Retail', 'edit_date': '20250526', 'lat_lon_source': 'Third Party'}",40.66772859,22.91799277,Masouti THESSALONIKI,{'opening_hours': {}},2310601795,,128,THESSALONIKI,https://www.masoutis.gr/stores
"103, EL. VENIZELOU st.",THESSALONIKI,Greece,Masouti,"{'brand': 'Masouti', 'fascia': 'SUPER MARKET', 'category': 'Retail', 'edit_date': '20250526', 'lat_lon_source': 'Third Party'}",40.65483091,22.91868478,Masouti THESSALONIKI,{'opening_hours': {}},2310737656,,264,THESSALONIKI,https://www.masoutis.gr/stores
"20, EL. VENIZELOU st.",THESSALONIKI,Greece,Masouti,"{'brand': 'Masouti', 'fascia': 'SUPER MARKET', 'category': 'Retail', 'edit_date': '20250526', 'lat_lon_source': 'Third Party'}",40.64464773,22.94883013,Masouti THESSALONIKI,{'opening_hours': {}},2310620158,,267,THESSALONIKI,https://www.masoutis.gr/stores
"50, ELEFTHERIAS st.",THESSALONIKI,Greece,Masouti,"{'brand': 'Masouti', 'fascia': 'SUPER MARKET', 'category': 'Retail', 'edit_date': '20250526', 'lat_lon_source': 'Third Party'}",40.652737,22.928578,Masouti THESSALONIKI,{'opening_hours': {}},2310740583,,112,THESSALONIKI,https://www.masoutis.gr/stores
"72, EPTAPYRGIOU - MEGARON",THESSALONIKI,Greece,Masouti,"{'brand': 'Masouti', 'fascia': 'SUPER MARKET', 'category': 'Retail', 'edit_date': '20250526', 'lat_lon_source': 'Third Party'}",40.652005,22.956228,Masouti THESSALONIKI,{'opening_hours': {}},2310611600,,383,THESSALONIKI,https://www.masoutis.gr/stores
EYAGGELISMO TIS THEOTOKOY 42 & MAKEDONOMAXON 5,THESSALONIKI,Greece,Masouti,"{'brand': 'Masouti', 'fascia': 'SUPER MARKET', 'category': 'Retail', 'edit_date': '20250526', 'lat_lon_source': 'Third Party'}",40.66900215,22.91141868,Masouti THESSALONIKI,{'opening_hours': {}},2310559744,,184,THESSALONIKI,https://www.masoutis.gr/stores
EVRISTHEOS 4,THESSALONIKI,Greece,Masouti,"{'brand': 'Masouti', 'fascia': 'SUPER MARKET', 'category': 'Retail', 'edit_date': '20250526', 'lat_lon_source': 'Third Party'}",40.611487,22.979477,Masouti THESSALONIKI,{'opening_hours': {}},2310950733 ,,364,THESSALONIKI,https://www.masoutis.gr/stores
"28, TH. SOFOULI st.",THESSALONIKI,Greece,Masouti,"{'brand': 'Masouti', 'fascia': 'SUPER MARKET', 'category': 'Retail', 'edit_date': '20250526', 'lat_lon_source': 'Third Party'}",40.59466373,22.95255303,Masouti THESSALONIKI,{'opening_hours': {}},2310427754,,283,THESSALONIKI,https://www.masoutis.gr/stores
"60, THEAG. HARISI st. & 5, ALEX. SYMEONIDI st.",THESSALONIKI,Greece,Masouti,"{'brand': 'Masouti', 'fascia': 'SUPER MARKET', 'category': 'Retail', 'edit_date': '20250526', 'lat_lon_source': 'Third Party'}",40.618312,22.959849,Masouti THESSALONIKI,{'opening_hours': {}},2310856753,,138,THESSALONIKI,https://www.masoutis.gr/stores
THESI MAYRA NERA O.T.G233,VRASNA,Greece,Masouti,"{'brand': 'Masouti', 'fascia': 'SUPER MARKET', 'category': 'Retail', 'edit_date': '20250526', 'lat_lon_source': 'Third Party'}",40.70680318,23.69528085,Masouti VRASNA,{'opening_hours': {}},2397024405 ,,140,THESSALONIKI,https://www.masoutis.gr/stores
"22, THESSALONIKIS st.",PERAIA,Greece,Masouti,"{'brand': 'Masouti', 'fascia': 'SUPER MARKET', 'category': 'Retail', 'edit_date': '20250526', 'lat_lon_source': 'Third Party'}",40.50213421,22.93313384,Masouti PERAIA,{'opening_hours': {}},2392029926,,290,THESSALONIKI,https://www.masoutis.gr/stores
"53-55, I. PASSALIDI st.",THESSALONIKI,Greece,Masouti,"{'brand': 'Masouti', 'fascia': 'SUPER MARKET', 'category': 'Retail', 'edit_date': '20250526', 'lat_lon_source': 'Third Party'}",40.58042169,22.95011759,Masouti THESSALONIKI,{'opening_hours': {}},2310481352,,120,THESSALONIKI,https://www.masoutis.gr/stores
"7, IPPODROMIOU st.",THESSALONIKI,Greece,Masouti,"{'brand': 'Masouti', 'fascia': 'SUPER MARKET', 'category': 'Retail', 'edit_date': '20250526', 'lat_lon_source': 'Third Party'}",40.629521,22.950665,Masouti THESSALONIKI,{'opening_hours': {}},2310260071,,284,THESSALONIKI,https://www.masoutis.gr/stores
"2, IOANNIDOU st.",THESSALONIKI,Greece,Masouti,"{'brand': 'Masouti', 'fascia': 'SUPER MARKET', 'category': 'Retail', 'edit_date': '20250526', 'lat_lon_source': 'Third Party'}",40.59094871,23.03275108,Masouti THESSALONIKI,{'opening_hours': {}},2310344500,,104,THESSALONIKI,https://www.masoutis.gr/stores
"89, K. VOGA st.",THESSALONIKI,Greece,Masouti,"{'brand': 'Masouti', 'fascia': 'SUPER MARKET', 'category': 'Retail', 'edit_date': '20250526', 'lat_lon_source': 'Third Party'}",40.599765,22.953338,Masouti THESSALONIKI,{'opening_hours': {}},2310835352,,453,THESSALONIKI,https://www.masoutis.gr/stores
"4, K.KRYSTALLI st.",THESSALONIKI,Greece,Masouti,"{'brand': 'Masouti', 'fascia': 'SUPER MARKET', 'category': 'Retail', 'edit_date': '20250526', 'lat_lon_source': 'Third Party'}",40.640212,22.940463,Masouti THESSALONIKI,{'opening_hours': {}},2310516206,,101,THESSALONIKI,https://www.masoutis.gr/stores
"115, KASSANDROU st.",THESSALONIKI,Greece,Masouti,"{'brand': 'Masouti', 'fascia': 'SUPER MARKET', 'category': 'Retail', 'edit_date': '20250526', 'lat_lon_source': 'Third Party'}",40.637769,22.951127,Masouti THESSALONIKI,{'opening_hours': {}},2310203391,,468,THESSALONIKI,https://www.masoutis.gr/stores
"49, KLAFTHMONOS st.",THESSALONIKI,Greece,Masouti,"{'brand': 'Masouti', 'fascia': 'SUPER MARKET', 'category': 'Retail', 'edit_date': '20250526', 'lat_lon_source': 'Third Party'}",40.64218513,22.95862287,Masouti THESSALONIKI,{'opening_hours': {}},2310219921,,260,THESSALONIKI,https://www.masoutis.gr/stores
"21, KOLOKOTRONI st.",THESSALONIKI,Greece,Masouti,"{'brand': 'Masouti', 'fascia': 'SUPER MARKET', 'category': 'Retail', 'edit_date': '20250526', 'lat_lon_source': 'Third Party'}",40.66859934,22.88989931,Masouti THESSALONIKI,{'opening_hours': {}},2310708011,,289,THESSALONIKI,https://www.masoutis.gr/stores
KOMNINON 28,THESSALONIKI,Greece,Masouti,"{'brand': 'Masouti', 'fascia': 'SUPER MARKET', 'category': 'Retail', 'edit_date': '20250526', 'lat_lon_source': 'Third Party'}",40.73154,22.91760,Masouti THESSALONIKI,{'opening_hours': {}},2310690662,,361,THESSALONIKI,https://www.masoutis.gr/stores
"2, KOMPOTHEKLAS st.",THESSALONIKI,Greece,Masouti,"{'brand': 'Masouti', 'fascia': 'SUPER MARKET', 'category': 'Retail', 'edit_date': '20250526', 'lat_lon_source': 'Third Party'}",40.60580144,22.95326918,Masouti THESSALONIKI,{'opening_hours': {}},2310846253,,108,THESSALONIKI,https://www.masoutis.gr/stores
28 KOSMA AITOLOU str,THESSALONIKI,Greece,Masouti,"{'brand': 'Masouti', 'fascia': 'SUPER MARKET', 'category': 'Retail', 'edit_date': '20250526', 'lat_lon_source': 'Third Party'}",40.662059,22.905478,Masouti THESSALONIKI,{'opening_hours': {}},2310559134,,164,THESSALONIKI,https://www.masoutis.gr/stores
"37, KOUNTOURIOTOU st.",THESSALONIKI,Greece,Masouti,"{'brand': 'Masouti', 'fascia': 'SUPER MARKET', 'category': 'Retail', 'edit_date': '20250526', 'lat_lon_source': 'Third Party'}",40.57153518,22.95751512,Masouti THESSALONIKI,{'opening_hours': {}},2310451118,,105,THESSALONIKI,https://www.masoutis.gr/stores
ΚΟΥΦΑΛΙΑ,KOYFALIA,Greece,Masouti,"{'brand': 'Masouti', 'fascia': 'SUPER MARKET', 'category': 'Retail', 'edit_date': '20250526', 'lat_lon_source': 'Third Party'}",40.765993,22.577398,Masouti KOYFALIA,{'opening_hours': {}},2391054702,,320,THESSALONIKI,https://www.masoutis.gr/stores
"16, KRITIS st.",THESSALONIKI,Greece,Masouti,"{'brand': 'Masouti', 'fascia': 'SUPER MARKET', 'category': 'Retail', 'edit_date': '20250526', 'lat_lon_source': 'Third Party'}",40.602844,22.956097,Masouti THESSALONIKI,{'opening_hours': {}},2310815641,,454,THESSALONIKI,https://www.masoutis.gr/stores
"1, KYPROU & A. PAPANDREOU st.",THESSALONIKI,Greece,Masouti,"{'brand': 'Masouti', 'fascia': 'SUPER MARKET', 'category': 'Retail', 'edit_date': '20250526', 'lat_lon_source': 'Third Party'}",40.65277568,22.94903398,Masouti THESSALONIKI,{'opening_hours': {}},2310637515,,122,THESSALONIKI,https://www.masoutis.gr/stores
"37, KONSTANTINOUPOLEOS st.",THESSALONIKI,Greece,Masouti,"{'brand': 'Masouti', 'fascia': 'SUPER MARKET', 'category': 'Retail', 'edit_date': '20250526', 'lat_lon_source': 'Third Party'}",40.614556,22.960206,Masouti THESSALONIKI,{'opening_hours': {}},2310868957,,286,THESSALONIKI,https://www.masoutis.gr/stores
KONSTANTINOU KARAMANLI st.,THESSALONIKI,Greece,Masouti,"{'brand': 'Masouti', 'fascia': 'SUPER MARKET', 'category': 'Retail', 'edit_date': '20250526', 'lat_lon_source': 'Third Party'}",40.65457655,22.93564171,Masouti THESSALONIKI,{'opening_hours': {}},2310527512,,288,THESSALONIKI,https://www.masoutis.gr/stores
"16, LEOF. STRATOU st.",THESSALONIKI,Greece,Masouti,"{'brand': 'Masouti', 'fascia': 'SUPER MARKET', 'category': 'Retail', 'edit_date': '20250526', 'lat_lon_source': 'Third Party'}",40.619858,22.957869,Masouti THESSALONIKI,{'opening_hours': {}},2310840303,,251,THESSALONIKI,https://www.masoutis.gr/stores
"3, LEOF. OHI st.",SINDOS,Greece,Masouti,"{'brand': 'Masouti', 'fascia': 'SUPER MARKET', 'category': 'Retail', 'edit_date': '20250526', 'lat_lon_source': 'Third Party'}",40.669204,22.805032,Masouti SINDOS,{'opening_hours': {}},2310795597,,272,THESSALONIKI,https://www.masoutis.gr/stores
MEG. ALEXANDROU & S. TSAKMANI st.,LAGADAS,Greece,Masouti,"{'brand': 'Masouti', 'fascia': 'SUPER MARKET', 'category': 'Retail', 'edit_date': '20250526', 'lat_lon_source': 'Third Party'}",40.747562,23.062519,Masouti LAGADAS,{'opening_hours': {}},2394026298,,134,THESSALONIKI,https://www.masoutis.gr/stores
"16, MEG. ALEXANDROU st.",THESSALONIKI,Greece,Masouti,"{'brand': 'Masouti', 'fascia': 'SUPER MARKET', 'category': 'Retail', 'edit_date': '20250526', 'lat_lon_source': 'Third Party'}",40.666511,22.896910,Masouti THESSALONIKI,{'opening_hours': {}},2310763712,,261,THESSALONIKI,https://www.masoutis.gr/stores
"18, M. KYRIAKOU st.",THESSALONIKI,Greece,Masouti,"{'brand': 'Masouti', 'fascia': 'SUPER MARKET', 'category': 'Retail', 'edit_date': '20250526', 'lat_lon_source': 'Third Party'}",40.635706,22.952682,Masouti THESSALONIKI,{'opening_hours': {}},2310203228,,469,THESSALONIKI,https://www.masoutis.gr/stores
"28, MAKEDONIAS st.",THESSALONIKI,Greece,Masouti,"{'brand': 'Masouti', 'fascia': 'SUPER MARKET', 'category': 'Retail', 'edit_date': '20250526', 'lat_lon_source': 'Third Party'}",40.6093059,22.95875967,Masouti THESSALONIKI,{'opening_hours': {}},2310833327,,106,THESSALONIKI,https://www.masoutis.gr/stores
"46, MARASLI & NEMEAS str",THESSALONIKI,Greece,Masouti,"{'brand': 'Masouti', 'fascia': 'SUPER MARKET', 'category': 'Retail', 'edit_date': '20250526', 'lat_lon_source': 'Third Party'}",40.60209518,22.96666145,Masouti THESSALONIKI,{'opening_hours': {}},2310314664 ,,167,THESSALONIKI,https://www.masoutis.gr/stores
MARTIRON 2nd SEPTEMVRI 3,HORTIATIS,Greece,Masouti,"{'brand': 'Masouti', 'fascia': 'SUPER MARKET', 'category': 'Retail', 'edit_date': '20250526', 'lat_lon_source': 'Third Party'}",40.616060,23.095352,Masouti HORTIATIS,{'opening_hours': {}},2310349280,,375,THESSALONIKI,https://www.masoutis.gr/stores
MEGALOU ALEXANDROU,THESSALONIKI,Greece,Masouti,"{'brand': 'Masouti', 'fascia': 'SUPER MARKET', 'category': 'Retail', 'edit_date': '20250526', 'lat_lon_source': 'Third Party'}",40.597714,22.982169,Masouti THESSALONIKI,{'opening_hours': {}},2310303563,,367,THESSALONIKI,https://www.masoutis.gr/stores
"39, MEG. ALEXANDROU st.",THESSALONIKI,Greece,Masouti,"{'brand': 'Masouti', 'fascia': 'SUPER MARKET', 'category': 'Retail', 'edit_date': '20250526', 'lat_lon_source': 'Third Party'}",40.66976506,22.90725857,Masouti THESSALONIKI,{'opening_hours': {}},2310772776,,256,THESSALONIKI,https://www.masoutis.gr/stores
"28, MESOLOGGIOU st.",THESSALONIKI,Greece,Masouti,"{'brand': 'Masouti', 'fascia': 'SUPER MARKET', 'category': 'Retail', 'edit_date': '20250526', 'lat_lon_source': 'Third Party'}",40.62130439,22.97140092,Masouti THESSALONIKI,{'opening_hours': {}},2310922706,,118,THESSALONIKI,https://www.masoutis.gr/stores
"112, MITR. KALLIDOU st.",THESSALONIKI,Greece,Masouti,"{'brand': 'Masouti', 'fascia': 'GRAND', 'category': 'Retail', 'edit_date': '20250526', 'lat_lon_source': 'Third Party'}",40.58554689,22.94705451,Masouti THESSALONIKI,{'opening_hours': {}},2310413755,,124,THESSALONIKI,https://www.masoutis.gr/stores
"59, MPOTSARI st.",THESSALONIKI,Greece,Masouti,"{'brand': 'Masouti', 'fascia': 'SUPER MARKET', 'category': 'Retail', 'edit_date': '20250526', 'lat_lon_source': 'Third Party'}",40.607236,22.961897,Masouti THESSALONIKI,{'opening_hours': {}},2310861600,,463,THESSALONIKI,https://www.masoutis.gr/stores
"64, BOUBOULINAS st.",THESSALONIKI,Greece,Masouti,"{'brand': 'Masouti', 'fascia': 'SUPER MARKET', 'category': 'Retail', 'edit_date': '20250526', 'lat_lon_source': 'Third Party'}",40.672365,22.932377,Masouti THESSALONIKI,{'opening_hours': {}},2310664083,,116,THESSALONIKI,https://www.masoutis.gr/stores
"113, OLYMPIADOS & IOULIANOU st.",THESSALONIKI,Greece,Masouti,"{'brand': 'Masouti', 'fascia': 'SUPER MARKET', 'category': 'Retail', 'edit_date': '20250526', 'lat_lon_source': 'Third Party'}",40.637989,22.953229,Masouti THESSALONIKI,{'opening_hours': {}},2310208297,,102,THESSALONIKI,https://www.masoutis.gr/stores
"33, OLYMPIADOS st.",THESSALONIKI,Greece,Masouti,"{'brand': 'Masouti', 'fascia': 'SUPER MARKET', 'category': 'Retail', 'edit_date': '20250526', 'lat_lon_source': 'Third Party'}",40.642340,22.944958,Masouti THESSALONIKI,{'opening_hours': {}},2310224709,,466,THESSALONIKI,https://www.masoutis.gr/stores
"115, OLYMPOU st.",THESSALONIKI,Greece,Masouti,"{'brand': 'Masouti', 'fascia': 'SUPER MARKET', 'category': 'Retail', 'edit_date': '20250526', 'lat_lon_source': 'Third Party'}",40.63572497,22.95098931,Masouti THESSALONIKI,{'opening_hours': {}},2310203429,,467,THESSALONIKI,https://www.masoutis.gr/stores
"73, P. SYNDIKA st.",THESSALONIKI,Greece,Masouti,"{'brand': 'Masouti', 'fascia': 'SUPER MARKET', 'category': 'Retail', 'edit_date': '20250526', 'lat_lon_source': 'Third Party'}",40.605121,22.961468,Masouti THESSALONIKI,{'opening_hours': {}},2310827150,,368,THESSALONIKI,https://www.masoutis.gr/stores
PAPADIAMANTH 4 & KALAVRITON 18,THESSALONIKI,Greece,Masouti,"{'brand': 'Masouti', 'fascia': 'SUPER MARKET', 'category': 'Retail', 'edit_date': '20250526', 'lat_lon_source': 'Third Party'}",40.58318397,22.95914054,Masouti THESSALONIKI,{'opening_hours': {}},2310482508,,249,THESSALONIKI,https://www.masoutis.gr/stores
"23, PAPAFI st.",THESSALONIKI,Greece,Masouti,"{'brand': 'Masouti', 'fascia': 'SUPER MARKET', 'category': 'Retail', 'edit_date': '20250526', 'lat_lon_source': 'Third Party'}",40.620840,22.961297,Masouti THESSALONIKI,{'opening_hours': {}},2310845605,,461,THESSALONIKI,https://www.masoutis.gr/stores
"51-53, PAPAFI st.",THESSALONIKI,Greece,Masouti,"{'brand': 'Masouti', 'fascia': 'SUPER MARKET', 'category': 'Retail', 'edit_date': '20250526', 'lat_lon_source': 'Third Party'}",40.617335,22.964618,Masouti THESSALONIKI,{'opening_hours': {}},2310949735,,262,THESSALONIKI,https://www.masoutis.gr/stores
PARASKEYOPOYLOY 43,THESSALONIKI,Greece,Masouti,"{'brand': 'Masouti', 'fascia': 'SUPER MARKET', 'category': 'Retail', 'edit_date': '20250526', 'lat_lon_source': 'Third Party'}",40.617016,22.960459,Masouti THESSALONIKI,{'opening_hours': {}},2310818210,,188,THESSALONIKI,https://www.masoutis.gr/stores
"25, PARAFENTIDOU & GIANOUDI st.",THESSALONIKI,Greece,Masouti,"{'brand': 'Masouti', 'fascia': 'SUPER MARKET', 'category': 'Retail', 'edit_date': '20250526', 'lat_lon_source': 'Third Party'}",40.600127,22.987738,Masouti THESSALONIKI,{'opening_hours': {}},2310310771,,451,THESSALONIKI,https://www.masoutis.gr/stores
"12, PASTER st.",THESSALONIKI,Greece,Masouti,"{'brand': 'Masouti', 'fascia': 'SUPER MARKET', 'category': 'Retail', 'edit_date': '20250526', 'lat_lon_source': 'Third Party'}",40.64000739,22.94638932,Masouti THESSALONIKI,{'opening_hours': {}},2310275926,,117,THESSALONIKI,https://www.masoutis.gr/stores
"2, PASTER & MEG. ALEXANDROU st.",THESSALONIKI,Greece,Masouti,"{'brand': 'Masouti', 'fascia': 'SUPER MARKET', 'category': 'Retail', 'edit_date': '20250526', 'lat_lon_source': 'Third Party'}",40.58288249,22.96197295,Masouti THESSALONIKI,{'opening_hours': {}},2310455964,,247,THESSALONIKI,https://www.masoutis.gr/stores
"8, PAVLOY MELA st.",THESSALONIKI,Greece,Masouti,"{'brand': 'Masouti', 'fascia': 'SUPER MARKET', 'category': 'Retail', 'edit_date': '20250526', 'lat_lon_source': 'Third Party'}",40.722698,22.909796,Masouti THESSALONIKI,{'opening_hours': {}},2310699003,,139,THESSALONIKI,https://www.masoutis.gr/stores
"35, PERAN st.",THESSALONIKI,Greece,Masouti,"{'brand': 'Masouti', 'fascia': 'SUPER MARKET', 'category': 'Retail', 'edit_date': '20250526', 'lat_lon_source': 'Third Party'}",40.6533328,22.9242868,Masouti THESSALONIKI,{'opening_hours': {}},2310742768,,379,THESSALONIKI,https://www.masoutis.gr/stores
"106-108, PERDIKA st.",THESSALONIKI,Greece,Masouti,"{'brand': 'Masouti', 'fascia': 'SUPER MARKET', 'category': 'Retail', 'edit_date': '20250526', 'lat_lon_source': 'Third Party'}",40.613469,22.966461,Masouti THESSALONIKI,{'opening_hours': {}},2310947890,,431,THESSALONIKI,https://www.masoutis.gr/stores
"18, PLASTIRA st.",THESSALONIKI,Greece,Masouti,"{'brand': 'Masouti', 'fascia': 'SUPER MARKET', 'category': 'Retail', 'edit_date': '20250526', 'lat_lon_source': 'Third Party'}",40.602249,22.972555,Masouti THESSALONIKI,{'opening_hours': {}},2310302531,,111,THESSALONIKI,https://www.masoutis.gr/stores
"85, RIGA FERAIOU st. & AL. PAPAGOU",THESSALONIKI,Greece,Masouti,"{'brand': 'Masouti', 'fascia': 'SUPER MARKET', 'category': 'Retail', 'edit_date': '20250526', 'lat_lon_source': 'Third Party'}",40.649912,22.943256,Masouti THESSALONIKI,{'opening_hours': {}},2310614335 ,,136,THESSALONIKI,https://www.masoutis.gr/stores
"36, SAKELLARIDI & 41 VOULGARI st.",THESSALONIKI,Greece,Masouti,"{'brand': 'Masouti', 'fascia': 'SUPER MARKET', 'category': 'Retail', 'edit_date': '20250526', 'lat_lon_source': 'Third Party'}",40.59670853,22.96318263,Masouti THESSALONIKI,{'opening_hours': {}},2310325173,,123,THESSALONIKI,https://www.masoutis.gr/stores
"14, SKRA st.",THESSALONIKI,Greece,Masouti,"{'brand': 'Masouti', 'fascia': 'SUPER MARKET', 'category': 'Retail', 'edit_date': '20250526', 'lat_lon_source': 'Third Party'}",40.66582431,22.92779624,Masouti THESSALONIKI,{'opening_hours': {}},2310650149,,478,THESSALONIKI,https://www.masoutis.gr/stores
ΘΕΣΣΑΛΟΝΙΚΗ,THESSALONIKI,Greece,Masouti,"{'brand': 'Masouti', 'fascia': 'SUPER MARKET', 'category': 'Retail', 'edit_date': '20250526', 'lat_lon_source': 'Third Party'}",40.591537,22.948287,Masouti THESSALONIKI,{'opening_hours': {}},2310429453,,360,THESSALONIKI,https://www.masoutis.gr/stores
"4, STR. KALLARI st.",THESSALONIKI,Greece,Masouti,"{'brand': 'Masouti', 'fascia': 'SUPER MARKET', 'category': 'Retail', 'edit_date': '20250526', 'lat_lon_source': 'Third Party'}",40.628184,22.947226,Masouti THESSALONIKI,{'opening_hours': {}},2310230539,,135,THESSALONIKI,https://www.masoutis.gr/stores
SXOLEION 82-84 LITI ,THESSALONIKI,Greece,Masouti,"{'brand': 'Masouti', 'fascia': 'SUPER MARKET', 'category': 'Retail', 'edit_date': '20250526', 'lat_lon_source': 'Third Party'}",40.737631,22.985676,Masouti THESSALONIKI,{'opening_hours': {}},2394071181,,299,THESSALONIKI,https://www.masoutis.gr/stores
"47, TZAVELLA st.",THESSALONIKI,Greece,Masouti,"{'brand': 'Masouti', 'fascia': 'SUPER MARKET', 'category': 'Retail', 'edit_date': '20250526', 'lat_lon_source': 'Third Party'}",40.598572,22.967403,Masouti THESSALONIKI,{'opening_hours': {}},2310318967,,457,THESSALONIKI,https://www.masoutis.gr/stores
"35, TSIAPANOU st.",THESSALONIKI,Greece,Masouti,"{'brand': 'Masouti', 'fascia': 'SUPER MARKET', 'category': 'Retail', 'edit_date': '20250526', 'lat_lon_source': 'Third Party'}",40.612745,22.984902,Masouti THESSALONIKI,{'opening_hours': {}},2310950290,,265,THESSALONIKI,https://www.masoutis.gr/stores
TSIMISKI 43 - SHOPPING CENTER PLATIA,THESSALONIKI,Greece,Masouti,"{'brand': 'Masouti', 'fascia': 'SUPER MARKET', 'category': 'Retail', 'edit_date': '20250526', 'lat_lon_source': 'Third Party'}",40.633578,22.942893,Masouti THESSALONIKI,{'opening_hours': {}},2310283668,,377,THESSALONIKI,https://www.masoutis.gr/stores
"5, SERRON & F. MENOU st.",THESSALONIKI,Greece,Masouti,"{'brand': 'Masouti', 'fascia': 'SUPER MARKET', 'category': 'Retail', 'edit_date': '20250526', 'lat_lon_source': 'Third Party'}",40.605492,22.978826,Masouti THESSALONIKI,{'opening_hours': {}},2310945355,,460,THESSALONIKI,https://www.masoutis.gr/stores
FILELLINON 42 & MIAOYLI,THESSALONIKI,Greece,Masouti,"{'brand': 'Masouti', 'fascia': 'SUPER MARKET', 'category': 'Retail', 'edit_date': '20250526', 'lat_lon_source': 'Third Party'}",40.57869419,23.01263452,Masouti THESSALONIKI,{'opening_hours': {}},2310332952,,246,THESSALONIKI,https://www.masoutis.gr/stores
"3, FILIKIS ETAIRIAS st.",THESSALONIKI,Greece,Masouti,"{'brand': 'Masouti', 'fascia': 'SUPER MARKET', 'category': 'Retail', 'edit_date': '20250526', 'lat_lon_source': 'Third Party'}",40.62003806,22.96930075,Masouti THESSALONIKI,{'opening_hours': {}},2310908704,,436,THESSALONIKI,https://www.masoutis.gr/stores
FILILPPOY 4 & PERIKLEOYS,TRILOFOS,Greece,Masouti,"{'brand': 'Masouti', 'fascia': 'SUPER MARKET', 'category': 'Retail', 'edit_date': '20250526', 'lat_lon_source': 'Third Party'}",40.467712,22.969322,Masouti TRILOFOS,{'opening_hours': {}},2392066669,,187,THESSALONIKI,https://www.masoutis.gr/stores
"1, ARTAKIS & HOURMOUZI st.",THESSALONIKI,Greece,Masouti,"{'brand': 'Masouti', 'fascia': 'SUPER MARKET', 'category': 'Retail', 'edit_date': '20250526', 'lat_lon_source': 'Third Party'}",40.608850,22.973099,Masouti THESSALONIKI,{'opening_hours': {}},2310923482,,253,THESSALONIKI,https://www.masoutis.gr/stores
3rd km NATIONAL ROAD IOANNINA - ARTA,IOANNINA,Greece,Masouti,"{'brand': 'Masouti', 'fascia': 'CASH & CARRY', 'category': 'Retail', 'edit_date': '20250526', 'lat_lon_source': 'Third Party'}",39.629259,20.858485,Masouti IOANNINA,{'opening_hours': {}},2651002571,,312,IOANNINA,https://www.masoutis.gr/stores
G. PAPANDREOY 26-28,IOANNINA,Greece,Masouti,"{'brand': 'Masouti', 'fascia': 'GRAND', 'category': 'Retail', 'edit_date': '20250526', 'lat_lon_source': 'Third Party'}",39.672920,20.849731,Masouti IOANNINA,{'opening_hours': {}},2651039380,,225,IOANNINA,https://www.masoutis.gr/stores
KATO NEOXOROYPOYLO,IOANNINA,Greece,Masouti,"{'brand': 'Masouti', 'fascia': 'SUPER MARKET', 'category': 'Retail', 'edit_date': '20250526', 'lat_lon_source': 'Third Party'}",39.644317,20.843244,Masouti IOANNINA,{'opening_hours': {}},2651043414,,226,IOANNINA,https://www.masoutis.gr/stores
KORAI 7,IOANNINA,Greece,Masouti,"{'brand': 'Masouti', 'fascia': 'SUPER MARKET', 'category': 'Retail', 'edit_date': '20250526', 'lat_lon_source': 'Third Party'}",39.669046,20.850751,Masouti IOANNINA,{'opening_hours': {}},2651027315,,381,IOANNINA,https://www.masoutis.gr/stores
LEOF. DIMOKRATIAS,IOANNINA,Greece,Masouti,"{'brand': 'Masouti', 'fascia': 'SUPER MARKET', 'category': 'Retail', 'edit_date': '20250526', 'lat_lon_source': 'Third Party'}",39.681306,20.823077,Masouti IOANNINA,{'opening_hours': {}},2651079384,,317,IOANNINA,https://www.masoutis.gr/stores
M. ALEKSANDROY & K. PALAIOLOGOY ANATOLI,IOANNINA,Greece,Masouti,"{'brand': 'Masouti', 'fascia': 'SUPER MARKET', 'category': 'Retail', 'edit_date': '20250526', 'lat_lon_source': 'Third Party'}",39.633252,20.860367,Masouti IOANNINA,{'opening_hours': {}},2651002185,,227,IOANNINA,https://www.masoutis.gr/stores
MARIKAS KOTOPOYLI 66 – 68,IOANNINA,Greece,Masouti,"{'brand': 'Masouti', 'fascia': 'SUPER MARKET', 'category': 'Retail', 'edit_date': '20250526', 'lat_lon_source': 'Third Party'}",39.678446,20.837769,Masouti IOANNINA,{'opening_hours': {}},2651076385,,316,IOANNINA,https://www.masoutis.gr/stores
NIKOPOLEOS 95 -97,IOANNINA,Greece,Masouti,"{'brand': 'Masouti', 'fascia': 'SUPER MARKET', 'category': 'Retail', 'edit_date': '20250526', 'lat_lon_source': 'Third Party'}",39.644121,20.862202,Masouti IOANNINA,{'opening_hours': {}},2651035005,,198,IOANNINA,https://www.masoutis.gr/stores
28is Oktobrioy & Kyproy,KAVALA,Greece,Masouti,"{'brand': 'Masouti', 'fascia': 'SUPER MARKET', 'category': 'Retail', 'edit_date': '20250526', 'lat_lon_source': 'Third Party'}",40.837549,24.303798,Masouti KAVALA,{'opening_hours': {}},2594022260,,414,KABALA,https://www.masoutis.gr/stores
AM. ERITHROU STAVROU & KRITIS,KAVALA,Greece,Masouti,"{'brand': 'Masouti', 'fascia': 'SUPER MARKET', 'category': 'Retail', 'edit_date': '20250526', 'lat_lon_source': 'Third Party'}",40.941378,24.423865,Masouti KAVALA,{'opening_hours': {}},2510231762,,403,KABALA,https://www.masoutis.gr/stores
AMISIANA,KAVALA,Greece,Masouti,"{'brand': 'Masouti', 'fascia': 'SUPER MARKET', 'category': 'Retail', 'edit_date': '20250526', 'lat_lon_source': 'Third Party'}",40.939424,24.328868,Masouti KAVALA,{'opening_hours': {}},2510326075,,404,KABALA,https://www.masoutis.gr/stores
AMISIANA (WHOLESALE),AMISIANA,Greece,Masouti,"{'brand': 'Masouti', 'fascia': 'CASH & CARRY', 'category': 'Retail', 'edit_date': '20250526', 'lat_lon_source': 'Third Party'}",40.939095,24.328883,Masouti AMISIANA,{'opening_hours': {}},2510326735,,408,KABALA,https://www.masoutis.gr/stores
KRITIS & YDRAS CORNER,KAVALA,Greece,Masouti,"{'brand': 'Masouti', 'fascia': 'SUPER MARKET', 'category': 'Retail', 'edit_date': '20250526', 'lat_lon_source': 'Third Party'}",40.867466,24.312448,Masouti KAVALA,{'opening_hours': {}},2594029044,,409,KABALA,https://www.masoutis.gr/stores
DAGLI & ROMANOU,KAVALA,Greece,Masouti,"{'brand': 'Masouti', 'fascia': 'SUPER MARKET', 'category': 'Retail', 'edit_date': '20250526', 'lat_lon_source': 'Third Party'}",40.939041,24.406152,Masouti KAVALA,{'opening_hours': {}},2510832257,,401,KABALA,https://www.masoutis.gr/stores
"13, DELIKARI st.",XRISOUPOLI,Greece,Masouti,"{'brand': 'Masouti', 'fascia': 'SUPER MARKET', 'category': 'Retail', 'edit_date': '20250526', 'lat_lon_source': 'Third Party'}",40.9823,24.7003,Masouti XRISOUPOLI,{'opening_hours': {}},2591024682,,420,KABALA,https://www.masoutis.gr/stores
"38, EL. VENIZELOU st.",KAVALA,Greece,Masouti,"{'brand': 'Masouti', 'fascia': 'SUPER MARKET', 'category': 'Retail', 'edit_date': '20250526', 'lat_lon_source': 'Third Party'}",40.936861,24.404497,Masouti KAVALA,{'opening_hours': {}},2510232021,,412,KABALA,https://www.masoutis.gr/stores
KALAMITSA,KAVALA,Greece,Masouti,"{'brand': 'Masouti', 'fascia': 'SUPER MARKET', 'category': 'Retail', 'edit_date': '20250526', 'lat_lon_source': 'Third Party'}",40.922945,24.387965,Masouti KAVALA,{'opening_hours': {}},2510240795,,402,KABALA,https://www.masoutis.gr/stores
FRIKSOU LEOFOROS PAPACHRISTIDI 81,ELEYTHEROUPOLI,Greece,Masouti,"{'brand': 'Masouti', 'fascia': 'SUPER MARKET', 'category': 'Retail', 'edit_date': '20250526', 'lat_lon_source': 'Third Party'}",40.914836,24.256018,Masouti ELEYTHEROUPOLI,{'opening_hours': {}},2592023747,,421,KABALA,https://www.masoutis.gr/stores
LIMENARIA THASOU,THASOS,Greece,Masouti,"{'brand': 'Masouti', 'fascia': 'SUPER MARKET', 'category': 'Retail', 'edit_date': '20250526', 'lat_lon_source': 'Third Party'}",40.617463,24.601104,Masouti THASOS,{'opening_hours': {}},2593051789,,419,KABALA,https://www.masoutis.gr/stores
LIMENAS THASOU,THASOS,Greece,Masouti,"{'brand': 'Masouti', 'fascia': 'SUPER MARKET', 'category': 'Retail', 'edit_date': '20250526', 'lat_lon_source': 'Third Party'}",40.775222,24.700068,Masouti THASOS,{'opening_hours': {}},2593022909,,418,KABALA,https://www.masoutis.gr/stores
PARALIA OFRYNIOU,KAVALA,Greece,Masouti,"{'brand': 'Masouti', 'fascia': 'SUPER MARKET', 'category': 'Retail', 'edit_date': '20250526', 'lat_lon_source': 'Third Party'}",40.768634,23.901832,Masouti KAVALA,{'opening_hours': {}},2594031015 ,,413,KABALA,https://www.masoutis.gr/stores
AGIOU NIKOLAOU SQUARE,KAVALA,Greece,Masouti,"{'brand': 'Masouti', 'fascia': 'SUPER MARKET', 'category': 'Retail', 'edit_date': '20250526', 'lat_lon_source': 'Third Party'}",40.936303,24.413096,Masouti KAVALA,{'opening_hours': {}},2510224841,,405,KABALA,https://www.masoutis.gr/stores
"15, TSIVELEKIDOU st.",XRISOUPOLI,Greece,Masouti,"{'brand': 'Masouti', 'fascia': 'SUPER MARKET', 'category': 'Retail', 'edit_date': '20250526', 'lat_lon_source': 'Third Party'}",40.986163,24.702899,Masouti XRISOUPOLI,{'opening_hours': {}},2591022416,,411,KABALA,https://www.masoutis.gr/stores
FILADELFEIAS & CHRISOSTOMOU SMYRNIS,KAVALA,Greece,Masouti,"{'brand': 'Masouti', 'fascia': 'GRAND', 'category': 'Retail', 'edit_date': '20250526', 'lat_lon_source': 'Third Party'}",40.934592,24.394117,Masouti KAVALA,{'opening_hours': {}},2510247441,,407,KABALA,https://www.masoutis.gr/stores
"22, AVEROF st.",KARDITSA,Greece,Masouti,"{'brand': 'Masouti', 'fascia': 'SUPER MARKET', 'category': 'Retail', 'edit_date': '20250526', 'lat_lon_source': 'Third Party'}",39.36248949,21.92199737,Masouti KARDITSA,{'opening_hours': {}},2441080913 ,,202,KARDITSA,https://www.masoutis.gr/stores
95-97 KARAISKAKI & THESSALIOTIDOS str,KARDITSA,Greece,Masouti,"{'brand': 'Masouti', 'fascia': 'SUPER MARKET', 'category': 'Retail', 'edit_date': '20250526', 'lat_lon_source': 'Third Party'}",39.3594239,21.9177189,Masouti KARDITSA,{'opening_hours': {}},2441021484,,204,KARDITSA,https://www.masoutis.gr/stores
"11, STRATIGOU PAPAGOU str",SOFADES,Greece,Masouti,"{'brand': 'Masouti', 'fascia': 'SUPER MARKET', 'category': 'Retail', 'edit_date': '20250526', 'lat_lon_source': 'Third Party'}",39.33882,22.09659,Masouti SOFADES,{'opening_hours': {}},2443023440,,206,KARDITSA,https://www.masoutis.gr/stores
"30, ATHAN. DIAKOU st.",KASTORIA,Greece,Masouti,"{'brand': 'Masouti', 'fascia': 'SUPER MARKET', 'category': 'Retail', 'edit_date': '20250526', 'lat_lon_source': 'Third Party'}",40.521240,21.258784,Masouti KASTORIA,{'opening_hours': {}},2467083710,,366,KASTORIA,https://www.masoutis.gr/stores
DISPILIO,KASTORIA,Greece,Masouti,"{'brand': 'Masouti', 'fascia': 'SUPER MARKET', 'category': 'Retail', 'edit_date': '20250526', 'lat_lon_source': 'Third Party'}",40.481176,21.289562,Masouti KASTORIA,{'opening_hours': {}},2467089123 ,,356,KASTORIA,https://www.masoutis.gr/stores
DISPILIO,KASTORIA,Greece,Masouti,"{'brand': 'Masouti', 'fascia': 'CASH & CARRY', 'category': 'Retail', 'edit_date': '20250526', 'lat_lon_source': 'Third Party'}",40.481822,21.289698,Masouti KASTORIA,{'opening_hours': {}},2467085899 ,,357,KASTORIA,https://www.masoutis.gr/stores
MANIAKI KASTORIAS,KASTORIA,Greece,Masouti,"{'brand': 'Masouti', 'fascia': 'SUPER MARKET', 'category': 'Retail', 'edit_date': '20250526', 'lat_lon_source': 'Third Party'}",40.504915,21.242479,Masouti KASTORIA,{'opening_hours': {}},2467055124,,374,KASTORIA,https://www.masoutis.gr/stores
"XLOIS, MEL. MERKOYRI & DORIEON (02B) O.T.91",KASTORIA,Greece,Masouti,"{'brand': 'Masouti', 'fascia': 'GREEN', 'category': 'Retail', 'edit_date': '20250526', 'lat_lon_source': 'Third Party'}",40.541065,21.261249,Masouti KASTORIA,{'opening_hours': {}},2467022602,,355,KASTORIA,https://www.masoutis.gr/stores
'NOSOKOMEIO' IOULIAS ANDREADI 16,KERKIRA,Greece,Masouti,"{'brand': 'Masouti', 'fascia': 'SUPER MARKET', 'category': 'Retail', 'edit_date': '20250526', 'lat_lon_source': 'Third Party'}",39.621740,19.912867,Masouti KERKIRA,{'opening_hours': {}},2661046406,,532,KERKIRA,https://www.masoutis.gr/stores
1ST KM LEYKIMIS,KERKIRA,Greece,Masouti,"{'brand': 'Masouti', 'fascia': 'SUPER MARKET', 'category': 'Retail', 'edit_date': '20250526', 'lat_lon_source': 'Third Party'}",39.610285,19.900723,Masouti KERKIRA,{'opening_hours': {}},2661045666,,525,KERKIRA,https://www.masoutis.gr/stores
IOANNOU THEOTOKI PALLADA,KERKIRA,Greece,Masouti,"{'brand': 'Masouti', 'fascia': 'SUPER MARKET', 'category': 'Retail', 'edit_date': '20250526', 'lat_lon_source': 'Third Party'}",39.62427,19.91378,Masouti KERKIRA,{'opening_hours': {}},2661022942,,530,KERKIRA,https://www.masoutis.gr/stores
ALEPOU KERKIRA,KERKIRA,Greece,Masouti,"{'brand': 'Masouti', 'fascia': 'SUPER MARKET', 'category': 'Retail', 'edit_date': '20250526', 'lat_lon_source': 'Third Party'}",39.614577,19.893305,Masouti KERKIRA,{'opening_hours': {}},2661043185,,540,KERKIRA,https://www.masoutis.gr/stores
ALIKES POTAMOU,KERKIRA,Greece,Masouti,"{'brand': 'Masouti', 'fascia': 'SUPER MARKET', 'category': 'Retail', 'edit_date': '20250526', 'lat_lon_source': 'Third Party'}",39.630062,19.886224,Masouti KERKIRA,{'opening_hours': {}},2661080995,,533,KERKIRA,https://www.masoutis.gr/stores
AXARAVI KERKIRA,KERKIRA,Greece,Masouti,"{'brand': 'Masouti', 'fascia': 'SUPER MARKET', 'category': 'Retail', 'edit_date': '20250526', 'lat_lon_source': 'Third Party'}",39.79093,19.81375,Masouti KERKIRA,{'opening_hours': {}},2663064646,,531,KERKIRA,https://www.masoutis.gr/stores
DIONISIOU SOLOMOU 11 SPILIA,KERKIRA,Greece,Masouti,"{'brand': 'Masouti', 'fascia': 'SUPER MARKET', 'category': 'Retail', 'edit_date': '20250526', 'lat_lon_source': 'Third Party'}",39.625292,19.919044,Masouti KERKIRA,{'opening_hours': {}},2661081466,,536,KERKIRA,https://www.masoutis.gr/stores
KASSIOPK SKRIPERO,KERKIRA,Greece,Masouti,"{'brand': 'Masouti', 'fascia': 'SUPER MARKET', 'category': 'Retail', 'edit_date': '20250526', 'lat_lon_source': 'Third Party'}",39.788859,19.920472,Masouti KERKIRA,{'opening_hours': {}},2663029221,,539,KERKIRA,https://www.masoutis.gr/stores
KOMVOS BRIONI KASTELLANI,KERKIRA,Greece,Masouti,"{'brand': 'Masouti', 'fascia': 'SUPER MARKET', 'category': 'Retail', 'edit_date': '20250526', 'lat_lon_source': 'Third Party'}",39.590563,19.895445,Masouti KERKIRA,{'opening_hours': {}},2661040622,,566,KERKIRA,https://www.masoutis.gr/stores
GERASIMOU MARKORA 16,KERKIRA,Greece,Masouti,"{'brand': 'Masouti', 'fascia': 'SUPER MARKET', 'category': 'Retail', 'edit_date': '20250526', 'lat_lon_source': 'Third Party'}",39.622722,19.918847,Masouti KERKIRA,{'opening_hours': {}},2661038348,,528,KERKIRA,https://www.masoutis.gr/stores
LEYKIMMH KERKYRA,KERKIRA,Greece,Masouti,"{'brand': 'Masouti', 'fascia': 'SUPER MARKET', 'category': 'Retail', 'edit_date': '20250526', 'lat_lon_source': 'Third Party'}",39.42216,20.04505,Masouti KERKIRA,{'opening_hours': {}},2662025212,,535,KERKIRA,https://www.masoutis.gr/stores
MITROPOLITOU METHODIOU 44,KERKIRA,Greece,Masouti,"{'brand': 'Masouti', 'fascia': 'SUPER MARKET', 'category': 'Retail', 'edit_date': '20250526', 'lat_lon_source': 'Third Party'}",39.620337,19.917213,Masouti KERKIRA,{'opening_hours': {}},2661022682,,538,KERKIRA,https://www.masoutis.gr/stores
MORAITIKA KERKIRA,KERKIRA,Greece,Masouti,"{'brand': 'Masouti', 'fascia': 'SUPER MARKET', 'category': 'Retail', 'edit_date': '20250526', 'lat_lon_source': 'Third Party'}",39.48142,19.92469,Masouti KERKIRA,{'opening_hours': {}},2661076376,,534,KERKIRA,https://www.masoutis.gr/stores
PINIA FILARMONIKIS 1 ,KERKIRA,Greece,Masouti,"{'brand': 'Masouti', 'fascia': 'SUPER MARKET', 'category': 'Retail', 'edit_date': '20250526', 'lat_lon_source': 'Third Party'}",39.62464,19.92201,Masouti KERKIRA,{'opening_hours': {}},2661027111,,529,KERKIRA,https://www.masoutis.gr/stores
PLATIA GEORGIOU THEOTOKI 23,KERKIRA,Greece,Masouti,"{'brand': 'Masouti', 'fascia': 'SUPER MARKET', 'category': 'Retail', 'edit_date': '20250526', 'lat_lon_source': 'Third Party'}",39.621972,19.917935,Masouti KERKIRA,{'opening_hours': {}},2661024476,,565,KERKIRA,https://www.masoutis.gr/stores
SIDARI KAROUSADES,KERKIRA,Greece,Masouti,"{'brand': 'Masouti', 'fascia': 'SUPER MARKET', 'category': 'Retail', 'edit_date': '20250526', 'lat_lon_source': 'Third Party'}",39.78316,19.70851,Masouti KERKIRA,{'opening_hours': {}},2663095110,,567,KERKIRA,https://www.masoutis.gr/stores
STRATIGOU KSRNOFONTOS 69,KERKIRA,Greece,Masouti,"{'brand': 'Masouti', 'fascia': 'SUPER MARKET', 'category': 'Retail', 'edit_date': '20250526', 'lat_lon_source': 'Third Party'}",39.625713,19.904302,Masouti KERKIRA,{'opening_hours': {}},2661045825,,537,KERKIRA,https://www.masoutis.gr/stores
DIMITRAKOU & KAMPANI st.,KILKIS,Greece,Masouti,"{'brand': 'Masouti', 'fascia': 'SUPER MARKET', 'category': 'Retail', 'edit_date': '20250526', 'lat_lon_source': 'Third Party'}",40.992572,22.872297,Masouti KILKIS,{'opening_hours': {}},2341027201,,181,KILKIS,https://www.masoutis.gr/stores
EL. BENIZELOU 94 & EUROPIS,KILKIS,Greece,Masouti,"{'brand': 'Masouti', 'fascia': 'SUPER MARKET', 'category': 'Retail', 'edit_date': '20250526', 'lat_lon_source': 'Third Party'}",40.996575,22.866498,Masouti KILKIS,{'opening_hours': {}},2341027207,,310,KILKIS,https://www.masoutis.gr/stores
"17, THESSSALONIKIS st.",KILKIS,Greece,Masouti,"{'brand': 'Masouti', 'fascia': 'SUPER MARKET', 'category': 'Retail', 'edit_date': '20250526', 'lat_lon_source': 'Third Party'}",40.992646,22.875965,Masouti KILKIS,{'opening_hours': {}},2341020052,,182,KILKIS,https://www.masoutis.gr/stores
"74, 25th MARTIOU st.",PTOLEMAIDA,Greece,Masouti,"{'brand': 'Masouti', 'fascia': 'SUPER MARKET', 'category': 'Retail', 'edit_date': '20250526', 'lat_lon_source': 'Third Party'}",40.514455,21.679565,Masouti PTOLEMAIDA,{'opening_hours': {}},2463053285,,304,KOZANI,https://www.masoutis.gr/stores
2ndkm of KOZANI - AIANI,KOZANI,Greece,Masouti,"{'brand': 'Masouti', 'fascia': 'SUPER MARKET', 'category': 'Retail', 'edit_date': '20250526', 'lat_lon_source': 'Third Party'}",40.280544,21.782325,Masouti KOZANI,{'opening_hours': {}},2461029250,,301,KOZANI,https://www.masoutis.gr/stores
"23, MEG. ALEXANDROU st.",SIATISTA,Greece,Masouti,"{'brand': 'Masouti', 'fascia': 'SUPER MARKET', 'category': 'Retail', 'edit_date': '20250526', 'lat_lon_source': 'Third Party'}",40.258843,21.551806,Masouti SIATISTA,{'opening_hours': {}},2465022212,,486,KOZANI,https://www.masoutis.gr/stores
"6, ELEFTHERIAS SQUARE",KOZANI,Greece,Masouti,"{'brand': 'Masouti', 'fascia': 'SUPER MARKET', 'category': 'Retail', 'edit_date': '20250526', 'lat_lon_source': 'Third Party'}",40.301291,21.786415,Masouti KOZANI,{'opening_hours': {}},2461029251,,302,KOZANI,https://www.masoutis.gr/stores
"13rd, SQUARE LASSANI str",KOZANI,Greece,Masouti,"{'brand': 'Masouti', 'fascia': 'SUPER MARKET', 'category': 'Retail', 'edit_date': '20250526', 'lat_lon_source': 'Third Party'}",40.298815,21.789851,Masouti KOZANI,{'opening_hours': {}},2461033125,,309,KOZANI,https://www.masoutis.gr/stores
"1, FILIPPOU st.",PTOLEMAIDA,Greece,Masouti,"{'brand': 'Masouti', 'fascia': 'SUPER MARKET', 'category': 'Retail', 'edit_date': '20250526', 'lat_lon_source': 'Third Party'}",40.511144,21.678307,Masouti PTOLEMAIDA,{'opening_hours': {}},2463055540,,308,KOZANI,https://www.masoutis.gr/stores
AGIOS SPIRIDONAS st.,ANDROS,Greece,Masouti,"{'brand': 'Masouti', 'fascia': 'SUPER MARKET', 'category': 'Retail', 'edit_date': '20250526', 'lat_lon_source': 'Third Party'}",37.831372,24.920736,Masouti ANDROS,{'opening_hours': {}},2282022410,,654,CYCLADES,https://www.masoutis.gr/stores
ADAMANTAS MILOS,MILOS,Greece,Masouti,"{'brand': 'Masouti', 'fascia': 'SUPER MARKET', 'category': 'Retail', 'edit_date': '20250526', 'lat_lon_source': 'Third Party'}",36.72624,24.44671,Masouti MILOS,{'opening_hours': {}},2287023746,,571,CYCLADES,https://www.masoutis.gr/stores
AKTI NAZOY PALLADA,TINOS,Greece,Masouti,"{'brand': 'Masouti', 'fascia': 'SUPER MARKET', 'category': 'Retail', 'edit_date': '20250526', 'lat_lon_source': 'Third Party'}",37.538991,25.160147,Masouti TINOS,{'opening_hours': {}},2283023647,,578,CYCLADES,https://www.masoutis.gr/stores
VARDIA GAVRIOU - BATSIOU st.,ANDROS,Greece,Masouti,"{'brand': 'Masouti', 'fascia': 'SUPER MARKET', 'category': 'Retail', 'edit_date': '20250526', 'lat_lon_source': 'Third Party'}",37.881477,24.742905,Masouti ANDROS,{'opening_hours': {}},2282072278,,656,CYCLADES,https://www.masoutis.gr/stores
GKLASTROS MIKONOS,MIKONOS,Greece,Masouti,"{'brand': 'Masouti', 'fascia': 'SUPER MARKET', 'category': 'Retail', 'edit_date': '20250526', 'lat_lon_source': 'Third Party'}",37.426457,25.333722,Masouti MIKONOS,{'opening_hours': {}},2289023540,,589,CYCLADES,https://www.masoutis.gr/stores
E.O. GAVRIOU - CHORAS ANDROUS (ANEMOMILOI) st.,ANDROS,Greece,Masouti,"{'brand': 'Masouti', 'fascia': 'SUPER MARKET', 'category': 'Retail', 'edit_date': '20250526', 'lat_lon_source': 'Third Party'}",37.834081,24.930218,Masouti ANDROS,{'opening_hours': {}},2282024924,,655,CYCLADES,https://www.masoutis.gr/stores
EMPORIO,SANTORINI,Greece,Masouti,"{'brand': 'Masouti', 'fascia': 'SUPER MARKET', 'category': 'Retail', 'edit_date': '20250526', 'lat_lon_source': 'Third Party'}",36.355906,25.446169,Masouti SANTORINI,{'opening_hours': {}},2286081755,,587,CYCLADES,https://www.masoutis.gr/stores
IROON POLITEXNEIOU,SIROS,Greece,Masouti,"{'brand': 'Masouti', 'fascia': 'SUPER MARKET', 'category': 'Retail', 'edit_date': '20250526', 'lat_lon_source': 'Third Party'}",37.43423,24.93565,Masouti SIROS,{'opening_hours': {}},2281075081,,577,CYCLADES,https://www.masoutis.gr/stores
KARTERADOS THIRA,SANTORINI,Greece,Masouti,"{'brand': 'Masouti', 'fascia': 'SUPER MARKET', 'category': 'Retail', 'edit_date': '20250526', 'lat_lon_source': 'Third Party'}",36.410503,25.440549,Masouti SANTORINI,{'opening_hours': {}},2286023896,,585,CYCLADES,https://www.masoutis.gr/stores
KRIKELI & ILIA GAFOU,TINOS,Greece,Masouti,"{'brand': 'Masouti', 'fascia': 'SUPER MARKET', 'category': 'Retail', 'edit_date': '20250526', 'lat_lon_source': 'Third Party'}",37.535572,25.167706,Masouti TINOS,{'opening_hours': {}},2283023817,,579,CYCLADES,https://www.masoutis.gr/stores
MEGALOHORI THESI KAMINIA ANALIPSEOS,SANTORINI,Greece,Masouti,"{'brand': 'Masouti', 'fascia': 'SUPER MARKET', 'category': 'Retail', 'edit_date': '20250526', 'lat_lon_source': 'Third Party'}",36.368441,25.426803,Masouti SANTORINI,{'opening_hours': {}},2286083644,,677,CYCLADES,https://www.masoutis.gr/stores
MESSARIA,SANTORINI,Greece,Masouti,"{'brand': 'Masouti', 'fascia': 'SUPER MARKET', 'category': 'Retail', 'edit_date': '20250526', 'lat_lon_source': 'Third Party'}",36.399925,25.457929,Masouti SANTORINI,{'opening_hours': {}},2286030170,,586,CYCLADES,https://www.masoutis.gr/stores
PARASPOROS PAROS,PAROS,Greece,Masouti,"{'brand': 'Masouti', 'fascia': 'CASH & CARRY', 'category': 'Retail', 'edit_date': '20250526', 'lat_lon_source': 'Third Party'}",37.06591,25.12882,Masouti PAROS,{'opening_hours': {}},2284027252,,583,KYKLADON,https://www.masoutis.gr/stores
PAROS PARIKIA THESI VINTZI,PAROS,Greece,Masouti,"{'brand': 'Masouti', 'fascia': 'SUPER MARKET', 'category': 'Retail', 'edit_date': '20250526', 'lat_lon_source': 'Third Party'}",37.086714,25.152866,Masouti PAROS,{'opening_hours': {}},2284027990,,575,KYKLADON,https://www.masoutis.gr/stores
LEOFOROS EGGARON,NAKSOS,Greece,Masouti,"{'brand': 'Masouti', 'fascia': 'CASH & CARRY', 'category': 'Retail', 'edit_date': '20250526', 'lat_lon_source': 'Third Party'}",37.109179,25.383977,Masouti NAKSOS,{'opening_hours': {}},2285023818,,580,CYCLADES,https://www.masoutis.gr/stores
PERIFERIAKI ODOS XORA NAKSOU,NAKSOS,Greece,Masouti,"{'brand': 'Masouti', 'fascia': 'SUPER MARKET', 'category': 'Retail', 'edit_date': '20250526', 'lat_lon_source': 'Third Party'}",37.105537,25.37992,Masouti NAKSOS,{'opening_hours': {}},2285026936,,574,CYCLADES,https://www.masoutis.gr/stores
PIRGOS SANTORINI,SANTORINI,Greece,Masouti,"{'brand': 'Masouti', 'fascia': 'CASH & CARRY', 'category': 'Retail', 'edit_date': '20250526', 'lat_lon_source': 'Third Party'}",36.384996,25.438539,Masouti SANTORINI,{'opening_hours': {}},2286034000,,678,CYCLADES,https://www.masoutis.gr/stores
1o km Larisa - Thessaloniki,LARISA,Greece,Masouti,"{'brand': 'Masouti', 'fascia': 'CASH & CARRY', 'category': 'Retail', 'edit_date': '20250526', 'lat_lon_source': 'Third Party'}",39.660732,22.441558,Masouti LARISA,{'opening_hours': {}},2410555190,,214,LARISA,https://www.masoutis.gr/stores
102-104 23rd OCTOBRIOU str,LARISA,Greece,Masouti,"{'brand': 'Masouti', 'fascia': 'SUPER MARKET', 'category': 'Retail', 'edit_date': '20250526', 'lat_lon_source': 'Third Party'}",39.63540645,22.42794245,Masouti LARISA,{'opening_hours': {}},2410284598,,212,LARISA,https://www.masoutis.gr/stores
VIZANTIOU & 6th OKTOVRIOU st.,ELASSONA,Greece,Masouti,"{'brand': 'Masouti', 'fascia': 'SUPER MARKET', 'category': 'Retail', 'edit_date': '20250526', 'lat_lon_source': 'Third Party'}",39.890433,22.18819052,Masouti ELASSONA,{'opening_hours': {}},2493025594 ,,210,LARISA,https://www.masoutis.gr/stores
24th D. GEORGIADOU & ER. STAVROU st.,LARISA,Greece,Masouti,"{'brand': 'Masouti', 'fascia': 'SUPER MARKET', 'category': 'Retail', 'edit_date': '20250526', 'lat_lon_source': 'Third Party'}",39.64257791,22.41936207,Masouti LARISA,{'opening_hours': {}},2410255508 ,,211,LARISA,https://www.masoutis.gr/stores
"80, IOANNINON st.",LARISA,Greece,Masouti,"{'brand': 'Masouti', 'fascia': 'SUPER MARKET', 'category': 'Retail', 'edit_date': '20250526', 'lat_lon_source': 'Third Party'}",39.63268,22.40040,Masouti LARISA,{'opening_hours': {}},2410626268,,347,LARISA,https://www.masoutis.gr/stores
"13-15, NIKITARA st.",LARISA,Greece,Masouti,"{'brand': 'Masouti', 'fascia': 'SUPER MARKET', 'category': 'Retail', 'edit_date': '20250526', 'lat_lon_source': 'Third Party'}",39.63929384,22.42173582,Masouti LARISA,{'opening_hours': {}},2410237720,,201,LARISA,https://www.masoutis.gr/stores
ΛΑΡΙΣΑ,LARISA,Greece,Masouti,"{'brand': 'Masouti', 'fascia': 'SUPER MARKET', 'category': 'Retail', 'edit_date': '20250526', 'lat_lon_source': 'Third Party'}",39.634694,22.417406,Masouti LARISA,{'opening_hours': {}},2410613508,,345,LARISA,https://www.masoutis.gr/stores
ΦΑΡΣΑΛΑ,FARSALA,Greece,Masouti,"{'brand': 'Masouti', 'fascia': 'SUPER MARKET', 'category': 'Retail', 'edit_date': '20250526', 'lat_lon_source': 'Third Party'}",39.298387,22.384377,Masouti FARSALA,{'opening_hours': {}},2491023979,,346,LARISAS,https://www.masoutis.gr/stores
XATZIMIXALI 81 FILIPPOYPOLI,LARISA,Greece,Masouti,"{'brand': 'Masouti', 'fascia': 'SUPER MARKET', 'category': 'Retail', 'edit_date': '20250526', 'lat_lon_source': 'Third Party'}",39.62916,22.39731,Masouti LARISA,{'opening_hours': {}},2410623210,,239,LARISA,https://www.masoutis.gr/stores
7th km MYTILINIS - KALLONIS (WHOLESALE),LESBOS,Greece,Masouti,"{'brand': 'Masouti', 'fascia': 'CASH & CARRY', 'category': 'Retail', 'edit_date': '20250526', 'lat_lon_source': 'Third Party'}",39.12037,26.47827,Masouti LESBOS,{'opening_hours': {}},2251086173,,370,LESBOS,https://www.masoutis.gr/stores
VAREIA  MYTILINIS,LESBOS,Greece,Masouti,"{'brand': 'Masouti', 'fascia': 'SUPER MARKET', 'category': 'Retail', 'edit_date': '20250526', 'lat_lon_source': 'Third Party'}",39.080052,26.568293,Masouti LESBOS,{'opening_hours': {}},2251024386,,492,LESBOS,https://www.masoutis.gr/stores
BENIZELOY 15 & OD.ELYTI,LESBOS,Greece,Masouti,"{'brand': 'Masouti', 'fascia': 'SUPER MARKET', 'category': 'Retail', 'edit_date': '20250526', 'lat_lon_source': 'Third Party'}",39.101895,26.555954,Masouti LESBOS,{'opening_hours': {}},2251054814,,244,LESBOS,https://www.masoutis.gr/stores
E.O. MYTILINIS - KALLONIS,LESBOS,Greece,Masouti,"{'brand': 'Masouti', 'fascia': 'SUPER MARKET', 'category': 'Retail', 'edit_date': '20250526', 'lat_lon_source': 'Third Party'}",39.230691,26.213037,Masouti LESBOS,{'opening_hours': {}},2253024507,,243,LESBOS,https://www.masoutis.gr/stores
PLATEIA PLOMARIOY,LESBOS,Greece,Masouti,"{'brand': 'Masouti', 'fascia': 'SUPER MARKET', 'category': 'Retail', 'edit_date': '20250526', 'lat_lon_source': 'Third Party'}",38.975362,26.368228,Masouti LESBOS,{'opening_hours': {}},2252032733,,245,LESBOS,https://www.masoutis.gr/stores
TRIFOTO MYRINAS,LIMNOS,Greece,Masouti,"{'brand': 'Masouti', 'fascia': 'SUPER MARKET', 'category': 'Retail', 'edit_date': '20250526', 'lat_lon_source': 'Third Party'}",39.873226,25.062144,Masouti LIMNOS,{'opening_hours': {}},2254020036,,242,LESBOS,https://www.masoutis.gr/stores
AXILLOPOYLOY 171,VOLOS,Greece,Masouti,"{'brand': 'Masouti', 'fascia': 'SUPER MARKET', 'category': 'Retail', 'edit_date': '20250526', 'lat_lon_source': 'Third Party'}",39.366427,22.954188,Masouti VOLOS,{'opening_hours': {}},2421048437,,220,MAGNISIA,https://www.masoutis.gr/stores
THYATEIRON 2 & EL. BENIZELOY (N.IONIA),VOLOS,Greece,Masouti,"{'brand': 'Masouti', 'fascia': 'SUPER MARKET', 'category': 'Retail', 'edit_date': '20250526', 'lat_lon_source': 'Third Party'}",39.378760,22.927171,Masouti VOLOS,{'opening_hours': {}},2421063973 ,,219,MAGNISIA,https://www.masoutis.gr/stores
KASSABETI 14 & 28is OKTOBRIOY,VOLOS,Greece,Masouti,"{'brand': 'Masouti', 'fascia': 'SUPER MARKET', 'category': 'Retail', 'edit_date': '20250526', 'lat_lon_source': 'Third Party'}",39.358190,22.955014,Masouti VOLOS,{'opening_hours': {}},2421028554,,222,MAGNISIA,https://www.masoutis.gr/stores
METAMORFOSEOS 21 & ALEKSANDRAS,VOLOS,Greece,Masouti,"{'brand': 'Masouti', 'fascia': 'SUPER MARKET', 'category': 'Retail', 'edit_date': '20250526', 'lat_lon_source': 'Third Party'}",39.364299,22.943531,Masouti VOLOS,{'opening_hours': {}},2421002051,,241,MAGNISIA,https://www.masoutis.gr/stores
RIGA FEREOU & KOYMOYNDOYROY 150,VOLOS,Greece,Masouti,"{'brand': 'Masouti', 'fascia': 'SUPER MARKET', 'category': 'Retail', 'edit_date': '20250526', 'lat_lon_source': 'Third Party'}",39.3629816,22.9528756,Masouti VOLOS,{'opening_hours': {}},2421059211,,240,MAGNISIA,https://www.masoutis.gr/stores
SKIATHOS,SKIATHOS,Greece,Masouti,"{'brand': 'Masouti', 'fascia': 'SUPER MARKET', 'category': 'Retail', 'edit_date': '20250526', 'lat_lon_source': 'Third Party'}",39.168189,23.491337,Masouti SKIATHOS,{'opening_hours': {}},2427021020,,493,MAGNISIA,https://www.masoutis.gr/stores
XRYS.SMYRNIS 2 & SINOPIS (N.IONIA),VOLOS,Greece,Masouti,"{'brand': 'Masouti', 'fascia': 'SUPER MARKET', 'category': 'Retail', 'edit_date': '20250526', 'lat_lon_source': 'Third Party'}",39.374886,22.939170,Masouti VOLOS,{'opening_hours': {}},2421061533,,223,MAGNISIA,https://www.masoutis.gr/stores
2nd km of XANTHI-PETEINOS,KSANTHI,Greece,Masouti,"{'brand': 'Masouti', 'fascia': 'GRAND', 'category': 'Retail', 'edit_date': '20250526', 'lat_lon_source': 'Third Party'}",41.123722,24.896757,Masouti KSANTHI,{'opening_hours': {}},2541076231,,501,KSANTHI,https://www.masoutis.gr/stores
2nd km of XANTHI-PETEINOS (WHOLESALE),KSANTHI,Greece,Masouti,"{'brand': 'Masouti', 'fascia': 'CASH & CARRY', 'category': 'Retail', 'edit_date': '20250526', 'lat_lon_source': 'Third Party'}",41.123861,24.896209,Masouti KSANTHI,{'opening_hours': {}},2541021130,,503,KSANTHI,https://www.masoutis.gr/stores
"74, M. KARAOLI st.",KSANTHI,Greece,Masouti,"{'brand': 'Masouti', 'fascia': 'SUPER MARKET', 'category': 'Retail', 'edit_date': '20250526', 'lat_lon_source': 'Third Party'}",41.135193,24.890453,Masouti KSANTHI,{'opening_hours': {}},2541075521,,502,KSANTHI,https://www.masoutis.gr/stores
1ST KLM. GIANNITSA THESSALONIKI,GIANNITSA,Greece,Masouti,"{'brand': 'Masouti', 'fascia': 'CASH & CARRY', 'category': 'Retail', 'edit_date': '20250526', 'lat_lon_source': 'Third Party'}",40.775763,22.419614,Masouti GIANNITSA,{'opening_hours': {}},2382020720,,394,PELLA,https://www.masoutis.gr/stores
"32, ATHANASIOU DIAKOU st",ARIDEA,Greece,Masouti,"{'brand': 'Masouti', 'fascia': 'SUPER MARKET', 'category': 'Retail', 'edit_date': '20250526', 'lat_lon_source': 'Third Party'}",40.971624,22.058432,Masouti ARIDEA,{'opening_hours': {}},2384028743,,170,PELLA,https://www.masoutis.gr/stores
"31-33, EHTNIKIS ANTISTASEOS st.",SKYDRA,Greece,Masouti,"{'brand': 'Masouti', 'fascia': 'SUPER MARKET', 'category': 'Retail', 'edit_date': '20250526', 'lat_lon_source': 'Third Party'}",40.767689,22.153324,Masouti SKYDRA,{'opening_hours': {}},2381082124,,178,PELLA,https://www.masoutis.gr/stores
"13, KOLOKOTRONI st.",GIANNITSA,Greece,Masouti,"{'brand': 'Masouti', 'fascia': 'SUPER MARKET', 'category': 'Retail', 'edit_date': '20250526', 'lat_lon_source': 'Third Party'}",40.797526,22.412866,Masouti GIANNITSA,{'opening_hours': {}},2382022229,,176,PELLA,https://www.masoutis.gr/stores
"6, KONSTANTINOUPOLEOS st.",EDESSA,Greece,Masouti,"{'brand': 'Masouti', 'fascia': 'SUPER MARKET', 'category': 'Retail', 'edit_date': '20250526', 'lat_lon_source': 'Third Party'}",40.804013,22.052910,Masouti EDESSA,{'opening_hours': {}},2381020018,,488,PELLA,https://www.masoutis.gr/stores
LEOFOROS KARAISKAKI,ARIDEA,Greece,Masouti,"{'brand': 'Masouti', 'fascia': 'SUPER MARKET', 'category': 'Retail', 'edit_date': '20250526', 'lat_lon_source': 'Third Party'}",40.967739,22.066454,Masouti ARIDEA,{'opening_hours': {}},2384024658,,385,PELLA,https://www.masoutis.gr/stores
MEG. ALEXANDROU & G. PAPANDREOU st.,GIANNITSA,Greece,Masouti,"{'brand': 'Masouti', 'fascia': 'SUPER MARKET', 'category': 'Retail', 'edit_date': '20250526', 'lat_lon_source': 'Third Party'}",40.791981,22.419286,Masouti GIANNITSA,{'opening_hours': {}},2382083951,,177,PELLA,https://www.masoutis.gr/stores
"MPAFRAS 6, MADYTOY",GIANNITSA,Greece,Masouti,"{'brand': 'Masouti', 'fascia': 'SUPER MARKET', 'category': 'Retail', 'edit_date': '20250526', 'lat_lon_source': 'Third Party'}",40.790051,22.411977,Masouti GIANNITSA,{'opening_hours': {}},2382081228,,186,PELLA,https://www.masoutis.gr/stores
"30, EGNATIAS & PATR. GRIGORIOU E^27 st.",EDESSA,Greece,Masouti,"{'brand': 'Masouti', 'fascia': 'SUPER MARKET', 'category': 'Retail', 'edit_date': '20250526', 'lat_lon_source': 'Third Party'}",40.538268,22.217407,Masouti EDESSA,{'opening_hours': {}},2381029428,,175,PELLA,https://www.masoutis.gr/stores
"24, 19ΤΗ ΜΑΙΟU st.",KATERINH,Greece,Masouti,"{'brand': 'Masouti', 'fascia': 'SUPER MARKET', 'category': 'Retail', 'edit_date': '20250526', 'lat_lon_source': 'Third Party'}",40.274883,22.514599,Masouti KATERINH,{'opening_hours': {}},2351073400,,384,PIERIA,https://www.masoutis.gr/stores
"25, MARTIOU st.(PLATAMONAS)",PLATAMONAS,Greece,Masouti,"{'brand': 'Masouti', 'fascia': 'SUPER MARKET', 'category': 'Retail', 'edit_date': '20250526', 'lat_lon_source': 'Third Party'}",39.988685,22.626610,Masouti PLATAMONAS,{'opening_hours': {}},2352041733,,373,PIERIA,https://www.masoutis.gr/stores
2o KM KATERINIS-ELASSONAS,KATERINH,Greece,Masouti,"{'brand': 'Masouti', 'fascia': 'GRAND', 'category': 'Retail', 'edit_date': '20250526', 'lat_lon_source': 'Third Party'}",40.271161,22.474914,Masouti KATERINH,{'opening_hours': {}},2351026881,,231,PIERIA,https://www.masoutis.gr/stores
2nd km of KATERINI - LARISA rd,KATERINH,Greece,Masouti,"{'brand': 'Masouti', 'fascia': 'CASH & CARRY', 'category': 'Retail', 'edit_date': '20250526', 'lat_lon_source': 'Third Party'}",40.257536,22.530269,Masouti KATERINH,{'opening_hours': {}},2351046131 ,,163,PIERIA,https://www.masoutis.gr/stores
"104-106-108, AG.NIKOLAOU st.",LITOHORO,Greece,Masouti,"{'brand': 'Masouti', 'fascia': 'SUPER MARKET', 'category': 'Retail', 'edit_date': '20250526', 'lat_lon_source': 'Third Party'}",40.106204,22.509318,Masouti LITOHORO,{'opening_hours': {}},2352021112,,372,PIERIA,https://www.masoutis.gr/stores
ANTIGONOY 2-6,KATERINH,Greece,Masouti,"{'brand': 'Masouti', 'fascia': 'SUPER MARKET', 'category': 'Retail', 'edit_date': '20250526', 'lat_lon_source': 'Third Party'}",40.269935,22.505546,Masouti KATERINH,{'opening_hours': {}},2351025699,,236,PIERIA,https://www.masoutis.gr/stores
"2-4, ARISTOTELOUS st.",KATERINH,Greece,Masouti,"{'brand': 'Masouti', 'fascia': 'SUPER MARKET', 'category': 'Retail', 'edit_date': '20250526', 'lat_lon_source': 'Third Party'}",40.270891,22.505056,Masouti KATERINH,{'opening_hours': {}},2351027690,,483,PIERIA,https://www.masoutis.gr/stores
BAS. KONSTANTINOY 77,KORINOS,Greece,Masouti,"{'brand': 'Masouti', 'fascia': 'SUPER MARKET', 'category': 'Retail', 'edit_date': '20250526', 'lat_lon_source': 'Third Party'}",40.314955,22.587786,Masouti KORINOS,{'opening_hours': {}},2351041373,,235,PIERIA,https://www.masoutis.gr/stores
LIVITHRON,LEPTOKARIA,Greece,Masouti,"{'brand': 'Masouti', 'fascia': 'SUPER MARKET', 'category': 'Retail', 'edit_date': '20250526', 'lat_lon_source': 'Third Party'}",40.060739,22.566043,Masouti LEPTOKARIA,{'opening_hours': {}},2352033336,,237,PIERIA,https://www.masoutis.gr/stores
"74, MEG. ALEXANDROU st.",KATERINH,Greece,Masouti,"{'brand': 'Masouti', 'fascia': 'SUPER MARKET', 'category': 'Retail', 'edit_date': '20250526', 'lat_lon_source': 'Third Party'}",40.271443,22.501492,Masouti KATERINH,{'opening_hours': {}},2351039656,,161,PIERIA,https://www.masoutis.gr/stores
PERDIKA 8,KATERINH,Greece,Masouti,"{'brand': 'Masouti', 'fascia': 'SUPER MARKET', 'category': 'Retail', 'edit_date': '20250526', 'lat_lon_source': 'Third Party'}",40.271174,22.511567,Masouti KATERINH,{'opening_hours': {}},2351074955,,233,PIERIA,https://www.masoutis.gr/stores
TSALDARI & NIKA,KATERINH,Greece,Masouti,"{'brand': 'Masouti', 'fascia': 'SUPER MARKET', 'category': 'Retail', 'edit_date': '20250526', 'lat_lon_source': 'Third Party'}",40.272775,22.511014,Masouti KATERINH,{'opening_hours': {}},2351076505 ,,166,PIERIA,https://www.masoutis.gr/stores
YPSILANTOY 3,KATERINH,Greece,Masouti,"{'brand': 'Masouti', 'fascia': 'SUPER MARKET', 'category': 'Retail', 'edit_date': '20250526', 'lat_lon_source': 'Third Party'}",40.273518,22.507868,Masouti KATERINH,{'opening_hours': {}},2351046275,,232,PIERIA,https://www.masoutis.gr/stores
XATZOGLOY 2,KATERINH,Greece,Masouti,"{'brand': 'Masouti', 'fascia': 'GRAND', 'category': 'Retail', 'edit_date': '20250526', 'lat_lon_source': 'Third Party'}",40.267502,22.522972,Masouti KATERINH,{'opening_hours': {}},2351023056,,234,PIERIA,https://www.masoutis.gr/stores
26o KM ETHNIKIS ODOY PREBEZIS - IOANNINON,PREBEZA,Greece,Masouti,"{'brand': 'Masouti', 'fascia': 'SUPER MARKET', 'category': 'Retail', 'edit_date': '20250526', 'lat_lon_source': 'Third Party'}",39.161269,20.753876,Masouti PREBEZA,{'opening_hours': {}},2682031804,,315,PREVEZA,https://www.masoutis.gr/stores
KARYOTAKI 15 & L. EIRINIS,PREBEZA,Greece,Masouti,"{'brand': 'Masouti', 'fascia': 'SUPER MARKET', 'category': 'Retail', 'edit_date': '20250526', 'lat_lon_source': 'Third Party'}",38.955171,20.752951,Masouti PREBEZA,{'opening_hours': {}},2682025804,,228,PREVEZA,https://www.masoutis.gr/stores
L.IOANNINON 199A,PREBEZA,Greece,Masouti,"{'brand': 'Masouti', 'fascia': 'GRAND', 'category': 'Retail', 'edit_date': '20250526', 'lat_lon_source': 'Third Party'}",38.971548,20.748064,Masouti PREBEZA,{'opening_hours': {}},2682089418,,229,PREVEZA,https://www.masoutis.gr/stores
"40, DIMOKRATIAS st.",KOMOTINI,Greece,Masouti,"{'brand': 'Masouti', 'fascia': 'SUPER MARKET', 'category': 'Retail', 'edit_date': '20250526', 'lat_lon_source': 'Third Party'}",41.119323,25.410429,Masouti KOMOTINI,{'opening_hours': {}},2531024177,,552,RODOPI,https://www.masoutis.gr/stores
"21, DIMOKRITOU Av.",KOMOTINI,Greece,Masouti,"{'brand': 'Masouti', 'fascia': 'SUPER MARKET', 'category': 'Retail', 'edit_date': '20250526', 'lat_lon_source': 'Third Party'}",41.118812,25.398558,Masouti KOMOTINI,{'opening_hours': {}},2531072878,,555,RODOPI,https://www.masoutis.gr/stores
"30, ETHNIKIS ANTISTASEOS Av.",KOMOTINI,Greece,Masouti,"{'brand': 'Masouti', 'fascia': 'CASH & CARRY', 'category': 'Retail', 'edit_date': '20250526', 'lat_lon_source': 'Third Party'}",41.127042,25.388766,Masouti KOMOTINI,{'opening_hours': {}},2531073321,,557,RODOPI,https://www.masoutis.gr/stores
ST. KOYMPARI 12 & XR. TSOYNTA O.T.280,KOMOTINI,Greece,Masouti,"{'brand': 'Masouti', 'fascia': 'SUPER MARKET', 'category': 'Retail', 'edit_date': '20250526', 'lat_lon_source': 'Third Party'}",41.113504,25.402818,Masouti KOMOTINI,{'opening_hours': {}},2531034041,,556,RODOPI,https://www.masoutis.gr/stores
2o KM EP. OD. SERRON-NIGRITAS,SERRES,Greece,Masouti,"{'brand': 'Masouti', 'fascia': 'CASH & CARRY', 'category': 'Retail', 'edit_date': '20250526', 'lat_lon_source': 'Third Party'}",41.067375,23.540776,Masouti SERRES,{'opening_hours': {}},2321085950,,196,SERRES,https://www.masoutis.gr/stores
4th km of SIDIROKASTRO-PROMAHONAS (WHOLESALE),SERRES,Greece,Masouti,"{'brand': 'Masouti', 'fascia': 'CASH & CARRY', 'category': 'Retail', 'edit_date': '20250526', 'lat_lon_source': 'Third Party'}",41.268147,23.344468,Masouti SERRES,{'opening_hours': {}},2323025396,,195,SERRES,https://www.masoutis.gr/stores
VENIZELOU 123,SERRES,Greece,Masouti,"{'brand': 'Masouti', 'fascia': 'SUPER MARKET', 'category': 'Retail', 'edit_date': '20250526', 'lat_lon_source': 'Third Party'}",41.086780,23.538933,Masouti SERRES,{'opening_hours': {}},2321085660,,491,SERRES,https://www.masoutis.gr/stores
"31, MAKEDONOMAHON st.",SERRES,Greece,Masouti,"{'brand': 'Masouti', 'fascia': 'SUPER MARKET', 'category': 'Retail', 'edit_date': '20250526', 'lat_lon_source': 'Third Party'}",41.0824627,23.5507983,Masouti SERRES,{'opening_hours': {}},2321038267,,490,SERRES,https://www.masoutis.gr/stores
"50, MERARHIAS st.",SERRES,Greece,Masouti,"{'brand': 'Masouti', 'fascia': 'SUPER MARKET', 'category': 'Retail', 'edit_date': '20250526', 'lat_lon_source': 'Third Party'}",41.086335,23.546044,Masouti SERRES,{'opening_hours': {}},2321056408,,489,SERRES,https://www.masoutis.gr/stores
P. KOSTOPOULOU st.,SERRES,Greece,Masouti,"{'brand': 'Masouti', 'fascia': 'SUPER MARKET', 'category': 'Retail', 'edit_date': '20250526', 'lat_lon_source': 'Third Party'}",41.088680,23.549682,Masouti SERRES,{'opening_hours': {}},2321058662,,191,SERRES,https://www.masoutis.gr/stores
"TROADOS & 4, EMM. MIAOULI st.",SERRES,Greece,Masouti,"{'brand': 'Masouti', 'fascia': 'SUPER MARKET', 'category': 'Retail', 'edit_date': '20250526', 'lat_lon_source': 'Third Party'}",41.089388,23.544450,Masouti SERRES,{'opening_hours': {}},2321051661,,192,SERRES,https://www.masoutis.gr/stores
B. TSITSANI & ABEROF,TRIKALA,Greece,Masouti,"{'brand': 'Masouti', 'fascia': 'SUPER MARKET', 'category': 'Retail', 'edit_date': '20250526', 'lat_lon_source': 'Third Party'}",39.5547535,21.7725304,Masouti TRIKALA,{'opening_hours': {}},2431026087,,215,TRIKALA,https://www.masoutis.gr/stores
"2, DELIGIORGI & ZIAKA st.",TRIKALA,Greece,Masouti,"{'brand': 'Masouti', 'fascia': 'SUPER MARKET', 'category': 'Retail', 'edit_date': '20250526', 'lat_lon_source': 'Third Party'}",39.55318519,21.76447928,Masouti TRIKALA,{'opening_hours': {}},2431063111,,207,TRIKALA,https://www.masoutis.gr/stores
ELEYTHERIAS & METEORON st.,TRIKALA,Greece,Masouti,"{'brand': 'Masouti', 'fascia': 'SUPER MARKET', 'category': 'Retail', 'edit_date': '20250526', 'lat_lon_source': 'Third Party'}",39.547802,21.763289,Masouti TRIKALA,{'opening_hours': {}},2431074290,,208,TRIKALA,https://www.masoutis.gr/stores
15th KONDYLI & TIOYSON str,TRIKALA,Greece,Masouti,"{'brand': 'Masouti', 'fascia': 'SUPER MARKET', 'category': 'Retail', 'edit_date': '20250526', 'lat_lon_source': 'Third Party'}",39.55766243,21.76835239,Masouti TRIKALA,{'opening_hours': {}},2431078520 ,,205,TRIKALA,https://www.masoutis.gr/stores
"73, KONDILI st.",TRIKALA,Greece,Masouti,"{'brand': 'Masouti', 'fascia': 'SUPER MARKET', 'category': 'Retail', 'edit_date': '20250526', 'lat_lon_source': 'Third Party'}",39.56307195,21.77078515,Masouti TRIKALA,{'opening_hours': {}},2431077877,,209,TRIKALA,https://www.masoutis.gr/stores
ΛΑΜΙΑ - KYPROY 11,LAMIA,Greece,Masouti,"{'brand': 'Masouti', 'fascia': 'SUPER MARKET', 'category': 'Retail', 'edit_date': '20250526', 'lat_lon_source': 'Third Party'}",38.893771,22.433796,Masouti LAMIA,{'opening_hours': {}},2231020230,,342,FTHIOTIDA,https://www.masoutis.gr/stores
ΛΑΜΙΑ,LAMIA,Greece,Masouti,"{'brand': 'Masouti', 'fascia': 'SUPER MARKET', 'category': 'Retail', 'edit_date': '20250526', 'lat_lon_source': 'Third Party'}",38.899472,22.436133,Masouti LAMIA,{'opening_hours': {}},2231024442,,340,FTHIOTIDA,https://www.masoutis.gr/stores
IPSILANTOU 75,LAMIA,Greece,Masouti,"{'brand': 'Masouti', 'fascia': 'SUPER MARKET', 'category': 'Retail', 'edit_date': '20250526', 'lat_lon_source': 'Third Party'}",38.9076748,22.4292895,Masouti LAMIA,{'opening_hours': {}},2231046201,,341,FTHIOTIDA,https://www.masoutis.gr/stores
EL. VENIZELOU & IOAN. ARTI,FLORINA,Greece,Masouti,"{'brand': 'Masouti', 'fascia': 'SUPER MARKET', 'category': 'Retail', 'edit_date': '20250526', 'lat_lon_source': 'Third Party'}",40.782879,21.413664,Masouti FLORINA,{'opening_hours': {}},2385044046 ,,353,FLORINA,https://www.masoutis.gr/stores
6th KOZANIS & 9th GREBENON str,FLORINA,Greece,Masouti,"{'brand': 'Masouti', 'fascia': 'SUPER MARKET', 'category': 'Retail', 'edit_date': '20250526', 'lat_lon_source': 'Third Party'}",40.781873,21.404997,Masouti FLORINA,{'opening_hours': {}},2385028468,,354,FLORINA,https://www.masoutis.gr/stores
1st km MOUDANION - POTIDAIAS rd (WHOLESALE),MOUDANIA,Greece,Masouti,"{'brand': 'Masouti', 'fascia': 'CASH & CARRY', 'category': 'Retail', 'edit_date': '20250526', 'lat_lon_source': 'Third Party'}",40.23742,23.30127,Masouti MOUDANIA,{'opening_hours': {}},2373025136,,147,XALKIDIKI,https://www.masoutis.gr/stores
1st km of MOUDANIA-POTIDEA rd,MOUDANIA,Greece,Masouti,"{'brand': 'Masouti', 'fascia': 'GRAND', 'category': 'Retail', 'edit_date': '20250526', 'lat_lon_source': 'Third Party'}",40.23741,23.30231,Masouti MOUDANIA,{'opening_hours': {}},2373025940,,146,XALKIDIKI,https://www.masoutis.gr/stores
1st km IERISSOS - GOMATI,IEROSSOS,Greece,Masouti,"{'brand': 'Masouti', 'fascia': 'SUPER MARKET', 'category': 'Retail', 'edit_date': '20250526', 'lat_lon_source': 'Third Party'}",40.39441,23.87362,Masouti IEROSSOS,{'opening_hours': {}},2377021150,,149,XALKIDIKI,https://www.masoutis.gr/stores
2nd TURN MARMARA (SHOPPING MALL),MARMARAS,Greece,Masouti,"{'brand': 'Masouti', 'fascia': 'SUPER MARKET', 'category': 'Retail', 'edit_date': '20250526', 'lat_lon_source': 'Third Party'}",40.08766,23.80300,Masouti MARMARAS,{'opening_hours': {}},2375071300 ,,183,XALKIDIKI,https://www.masoutis.gr/stores
4th km of KASSANDRIA - FOURKA,SIVIRI,Greece,Masouti,"{'brand': 'Masouti', 'fascia': 'SUPER MARKET', 'category': 'Retail', 'edit_date': '20250526', 'lat_lon_source': 'Third Party'}",40.03942,23.36881,Masouti SIVIRI,{'opening_hours': {}},2374025044 ,,160,XALKIDIKI,https://www.masoutis.gr/stores
"1, G. PAPANDREOU st.",KALLIKRATEIA,Greece,Masouti,"{'brand': 'Masouti', 'fascia': 'SUPER MARKET', 'category': 'Retail', 'edit_date': '20250526', 'lat_lon_source': 'Third Party'}",40.30988,23.06688,Masouti KALLIKRATEIA,{'opening_hours': {}},2399048855,,279,XALKIDIKI,https://www.masoutis.gr/stores
GEORGIOU KIPARISSI,NEA PLAGIA,Greece,Masouti,"{'brand': 'Masouti', 'fascia': 'SUPER MARKET', 'category': 'Retail', 'edit_date': '20250526', 'lat_lon_source': 'Third Party'}",40.269449,23.204752,Masouti NEA PLAGIA,{'opening_hours': {}},2373033193,,393,XALKIDIKI,https://www.masoutis.gr/stores
PROVINCIAL ROAD KALLITHEA-KASSANDREIA,KASSANDREIA,Greece,Masouti,"{'brand': 'Masouti', 'fascia': 'SUPER MARKET', 'category': 'Retail', 'edit_date': '20250526', 'lat_lon_source': 'Third Party'}",40.050889,23.408923,Masouti KASSANDREIA,{'opening_hours': {}},2374025698,,389,XALKIDIKI,https://www.masoutis.gr/stores
KALLITHEA,KALLITHEA,Greece,Masouti,"{'brand': 'Masouti', 'fascia': 'SUPER MARKET', 'category': 'Retail', 'edit_date': '20250526', 'lat_lon_source': 'Third Party'}",40.07830,23.44583,Masouti KALLITHEA,{'opening_hours': {}},2374025370,,152,XALKIDIKI,https://www.masoutis.gr/stores
KALLIKRATEIA,KALLIKRATEIA,Greece,Masouti,"{'brand': 'Masouti', 'fascia': 'SUPER MARKET', 'category': 'Retail', 'edit_date': '20250526', 'lat_lon_source': 'Third Party'}",40.32037,23.06560,Masouti KALLIKRATEIA,{'opening_hours': {}},2399021523,,151,XALKIDIKI,https://www.masoutis.gr/stores
LEOF. ELEFTHERIAS,MOUDANIA,Greece,Masouti,"{'brand': 'Masouti', 'fascia': 'SUPER MARKET', 'category': 'Retail', 'edit_date': '20250526', 'lat_lon_source': 'Third Party'}",40.24321,23.28039,Masouti MOUDANIA,{'opening_hours': {}},2373026186,,153,XALKIDIKI,https://www.masoutis.gr/stores
NIKITI,NIKITI,Greece,Masouti,"{'brand': 'Masouti', 'fascia': 'SUPER MARKET', 'category': 'Retail', 'edit_date': '20250526', 'lat_lon_source': 'Third Party'}",40.21802,23.67541,Masouti NIKITI,{'opening_hours': {}},2375023724,,158,XALKIDIKI,https://www.masoutis.gr/stores
NOSOKOMIO OT97,POLIGIROS,Greece,Masouti,"{'brand': 'Masouti', 'fascia': 'SUPER MARKET', 'category': 'Retail', 'edit_date': '20250526', 'lat_lon_source': 'Third Party'}",40.383112,23.445396,Masouti POLIGIROS,{'opening_hours': {}},2371021280,,386,XALKIDIKI,https://www.masoutis.gr/stores
PEFKOHORI,PEYKOXORI,Greece,Masouti,"{'brand': 'Masouti', 'fascia': 'SUPER MARKET', 'category': 'Retail', 'edit_date': '20250526', 'lat_lon_source': 'Third Party'}",39.99000,23.60852,Masouti PEYKOXORI,{'opening_hours': {}},2374062211,,148,XALKIDIKI,https://www.masoutis.gr/stores
TRIKOUPI & MAKEDONIAS,POLIGIROS,Greece,Masouti,"{'brand': 'Masouti', 'fascia': 'SUPER MARKET', 'category': 'Retail', 'edit_date': '20250526', 'lat_lon_source': 'Third Party'}",40.38009,23.44360,Masouti POLIGIROS,{'opening_hours': {}},2371024978,,157,XALKIDIKI,https://www.masoutis.gr/stores
FOURKA,FOURKA,Greece,Masouti,"{'brand': 'Masouti', 'fascia': 'SUPER MARKET', 'category': 'Retail', 'edit_date': '20250526', 'lat_lon_source': 'Third Party'}",39.997096772156894,23.385145416728403,Masouti FOURKA,{'opening_hours': {}},2374020480,,282,XALKIDIKI,https://www.masoutis.gr/stores
HANIOTI,XANIOTI,Greece,Masouti,"{'brand': 'Masouti', 'fascia': 'SUPER MARKET', 'category': 'Retail', 'edit_date': '20250526', 'lat_lon_source': 'Third Party'}",39.99707,23.57561,Masouti XANIOTI,{'opening_hours': {}},2374063280,,154,XALKIDIKI,https://www.masoutis.gr/stores
ΨΑΚΟΥΔΙΑ,XALKIDIKI,Greece,Masouti,"{'brand': 'Masouti', 'fascia': 'SUPER MARKET', 'category': 'Retail', 'edit_date': '20250526', 'lat_lon_source': 'Third Party'}",40.26012,23.50970,Masouti XALKIDIKI,{'opening_hours': {}},2371054202,,318,XALKIDIKI,https://www.masoutis.gr/stores
ΧΙΟΣ,XIOS,Greece,Masouti,"{'brand': 'Masouti', 'fascia': 'SUPER MARKET', 'category': 'Retail', 'edit_date': '20250526', 'lat_lon_source': 'Third Party'}",38.383692,26.134259,Masouti XIOS,{'opening_hours': {}},2271043000,,334,XIOU,https://www.masoutis.gr/stores
ΧΙΟΣ,XIOS,Greece,Masouti,"{'brand': 'Masouti', 'fascia': 'SUPER MARKET', 'category': 'Retail', 'edit_date': '20250526', 'lat_lon_source': 'Third Party'}",38.363667,26.135191,Masouti XIOS,{'opening_hours': {}},2271025594,,335,XIOU,https://www.masoutis.gr/stores
KONSTANTINOU MONOMAXOU 1,XIOS,Greece,Masouti,"{'brand': 'Masouti', 'fascia': 'SUPER MARKET', 'category': 'Retail', 'edit_date': '20250526', 'lat_lon_source': 'Third Party'}",38.373488,26.132542,Masouti XIOS,{'opening_hours': {}},2271025762,,582,XIOU,https://www.masoutis.gr/stores
LEOFOROS AGIOY MINA 146,XIOS,Greece,Masouti,"{'brand': 'Masouti', 'fascia': 'SUPER MARKET', 'category': 'Retail', 'edit_date': '20250526', 'lat_lon_source': 'Third Party'}",38.314744,26.122512,Masouti XIOS,{'opening_hours': {}},2271032881,,581,XIOU,https://www.masoutis.gr/stores
