addr_full,brand,city,country,extras,lat,lon,name,opening_hours,phone,postcode,ref,state,website
"Agia Paraskevi, 15-17 Halandriou str.  – At the upper floor of veropoulos' building",E Jumbo,,Greece,"{'brand': 'E Jumbo', 'fascia': 'E Jumbo', 'category': 'Retail', 'edit_date': '2025-05-09', 'lat_lon_source': 'Website'}",38.0142,23.8188,E Jumbo Agia Paraskevi,"{'opening_hours': {'Mon': '09:00-21:00', 'Tue': '09:00-21:00', 'Wed': '09:00-21:00', 'Thu': '09:00-21:00', 'Fri': '09:00-21:00', 'Sat': '09:00-20:00', 'Sun': '00:00-00:00'}}",(+30) 210 6019896,153 42,38.0142 - 23.8188,Περιφερειακή Ενότητα Βορείου Τομέα Αθηνών,https://corporate.e-jumbo.gr/en/stores-premises/
"Agios Elefterios, 373-375 Aharnon str. ",E Jumbo,Αθήνα,Greece,"{'brand': 'E Jumbo', 'fascia': 'E Jumbo', 'category': 'Retail', 'edit_date': '2025-05-09', 'lat_lon_source': 'Website'}",38.0194,23.7289,E Jumbo Agios Elefterios,"{'opening_hours': {'Mon': '09:00-21:00', 'Tue': '09:00-21:00', 'Wed': '09:00-21:00', 'Thu': '09:00-21:00', 'Fri': '09:00-21:00', 'Sat': '09:00-20:00', 'Sun': '00:00-00:00'}}",(+30) 210 2111594,111 43,38.0194 - 23.7289,Περιφερειακή Ενότητα Κεντρικού Τομέα Αθηνών,https://corporate.e-jumbo.gr/en/stores-premises/
"Agrinio, Papaflessa str. & Tertseti str.",E Jumbo,Δημοτική Ενότητα Αγρινίου,Greece,"{'brand': 'E Jumbo', 'fascia': 'E Jumbo', 'category': 'Retail', 'edit_date': '2025-05-09', 'lat_lon_source': 'Website'}",38.6223,21.4037,E Jumbo Agrinio,"{'opening_hours': {'Mon': '09:00-21:00', 'Tue': '09:00-21:00', 'Wed': '09:00-21:00', 'Thu': '09:00-21:00', 'Fri': '09:00-21:00', 'Sat': '09:00-20:30', 'Sun': '00:00-00:00'}}",(+30) 2641039600-1,301 31,38.6223 - 21.4037,Περιφερειακή Ενότητα Αιτωλοακαρνανίας,https://corporate.e-jumbo.gr/en/stores-premises/
"Alexandroupoli, 2nd km National Road Alexandroupoli-Borders",E Jumbo,Μαΐστρος,Greece,"{'brand': 'E Jumbo', 'fascia': 'E Jumbo', 'category': 'Retail', 'edit_date': '2025-05-09', 'lat_lon_source': 'Website'}",40.8537,25.9147,E Jumbo Alexandroupoli,"{'opening_hours': {'Mon': '09:00-21:00', 'Tue': '09:00-21:00', 'Wed': '09:00-21:00', 'Thu': '09:00-21:00', 'Fri': '09:00-21:00', 'Sat': '09:00-20:00', 'Sun': '00:00-00:00'}}",(+30) 2551028414 - 2551028332,681 00,40.8537 - 25.9147,Περιφερειακή Ενότητα Έβρου,https://corporate.e-jumbo.gr/en/stores-premises/
"Alimos, 51 Alimou ave. & Stymfalias str.",E Jumbo,,Greece,"{'brand': 'E Jumbo', 'fascia': 'E Jumbo', 'category': 'Retail', 'edit_date': '2025-05-09', 'lat_lon_source': 'Website'}",37.9075,23.7313,E Jumbo Alimos,"{'opening_hours': {'Mon': '09:00-21:00', 'Tue': '09:00-21:00', 'Wed': '09:00-21:00', 'Thu': '09:00-21:00', 'Fri': '09:00-21:00', 'Sat': '09:00-20:00', 'Sun': '00:00-00:00'}}",(+30) 2109947050-1,174 56,37.9075 - 23.7313,Περιφερειακή Ενότητα Νοτίου Τομέα Αθηνών,https://corporate.e-jumbo.gr/en/stores-premises/
"Anixi, 12 Marathonos ave. & Astipalaia str.",E Jumbo,,Greece,"{'brand': 'E Jumbo', 'fascia': 'E Jumbo', 'category': 'Retail', 'edit_date': '2025-05-09', 'lat_lon_source': 'Website'}",38.1249,23.8563,E Jumbo Anixi,"{'opening_hours': {'Mon': '09:00-21:00', 'Tue': '09:00-21:00', 'Wed': '09:00-21:00', 'Thu': '09:00-21:00', 'Fri': '09:00-21:00', 'Sat': '09:00-20:00', 'Sun': '00:00-00:00'}}",(+30) 2108145500-1,145 69,38.1249 - 23.8563,Περιφερειακή Ενότητα Ανατολικής Αττικής,https://corporate.e-jumbo.gr/en/stores-premises/
"Chalkida, 3rd km National Road Chalkida-N. Artaki",E Jumbo,Χαλκίδα,Greece,"{'brand': 'E Jumbo', 'fascia': 'E Jumbo', 'category': 'Retail', 'edit_date': '2025-05-09', 'lat_lon_source': 'Website'}",38.4862,23.6317,E Jumbo Chalkida,"{'opening_hours': {'Mon': '09:00-21:00', 'Tue': '09:00-21:00', 'Wed': '09:00-21:00', 'Thu': '09:00-21:00', 'Fri': '09:00-21:00', 'Sat': '09:00-20:00', 'Sun': '00:00-00:00'}}",(+30) 2221062270-1,341 32,38.4862 - 23.6317,Περιφερειακή Ενότητα Ευβοίας,https://corporate.e-jumbo.gr/en/stores-premises/
"Chania, 3rd km National road Chania-Kissamos",E Jumbo,Χανιά,Greece,"{'brand': 'E Jumbo', 'fascia': 'E Jumbo', 'category': 'Retail', 'edit_date': '2025-05-09', 'lat_lon_source': 'Website'}",35.5063,23.9869,E Jumbo Chania,"{'opening_hours': {'Mon': '09:00-21:00', 'Tue': '09:00-21:00', 'Wed': '09:00-21:00', 'Thu': '09:00-21:00', 'Fri': '09:00-21:00', 'Sat': '09:00-20:00', 'Sun': '00:00-00:00'}}",(+30) 2821033970-1,731 00,35.5063 - 23.9869,Περιφερειακή Ενότητα Χανίων,https://corporate.e-jumbo.gr/en/stores-premises/
"Corfu, 25 Kerkyras str. & Achilliou str.",E Jumbo,Κέρκυρα,Greece,"{'brand': 'E Jumbo', 'fascia': 'E Jumbo', 'category': 'Retail', 'edit_date': '2025-05-09', 'lat_lon_source': 'Website'}",39.6058,19.8929,E Jumbo Corfu,"{'opening_hours': {'Mon': '09:00-21:00', 'Tue': '09:00-21:00', 'Wed': '09:00-21:00', 'Thu': '09:00-21:00', 'Fri': '09:00-21:00', 'Sat': '09:00-20:00', 'Sun': '00:00-00:00'}}",(+30) 2661026696-7,491 00,39.6058 - 19.8929,Περιφερειακή Ενότητα Κέρκυρας,https://corporate.e-jumbo.gr/en/stores-premises/
"Elefsina, 49 Ν. Kanelopoulou str.",E Jumbo,Δημοτική Ενότητα Ελευσίνος,Greece,"{'brand': 'E Jumbo', 'fascia': 'E Jumbo', 'category': 'Retail', 'edit_date': '2025-05-09', 'lat_lon_source': 'Website'}",38.0347,23.547,E Jumbo Elefsina,"{'opening_hours': {'Mon': '09:00-21:00', 'Tue': '09:00-21:00', 'Wed': '09:00-21:00', 'Thu': '09:00-21:00', 'Fri': '09:00-21:00', 'Sat': '09:00-20:00', 'Sun': '00:00-00:00'}}",(+30) 2105563257-8,192 00,38.0347 - 23.547,Περιφερειακή Ενότητα Δυτικής Αττικής,https://corporate.e-jumbo.gr/en/stores-premises/
"Florida shopping center Thessaloniki, 11th kmThessaloniki- Airport (next to IKEA) County",E Jumbo,Δημοτική Ενότητα Πυλαίας,Greece,"{'brand': 'E Jumbo', 'fascia': 'E Jumbo', 'category': 'Retail', 'edit_date': '2025-05-09', 'lat_lon_source': 'Website'}",40.5529,22.9839,E Jumbo Florida shopping center Thessaloniki,"{'opening_hours': {'Mon': '09:00-21:00', 'Tue': '09:00-21:00', 'Wed': '09:00-21:00', 'Thu': '09:00-21:00', 'Fri': '09:00-21:00', 'Sat': '09:00-20:00', 'Sun': '00:00-00:00'}}",(+30) 2310476503,551 02,40.5529 - 22.9839,Μητροπολιτική Ενότητα Θεσσαλονίκης,https://corporate.e-jumbo.gr/en/stores-premises/
"Giannitsa, 2nd Km Giannitsa - Axos",E Jumbo,Γιαννιτσά,Greece,"{'brand': 'E Jumbo', 'fascia': 'E Jumbo', 'category': 'Retail', 'edit_date': '2025-05-09', 'lat_lon_source': 'Website'}",40.7899,22.3741,E Jumbo Giannitsa,"{'opening_hours': {'Mon': '09:00-21:00', 'Tue': '09:00-21:00', 'Wed': '09:00-21:00', 'Thu': '09:00-21:00', 'Fri': '09:00-21:00', 'Sat': '09:00-20:00', 'Sun': '00:00-00:00'}}",(+30) 2382022506,581 00,40.7899 - 22.3741,Περιφερειακή Ενότητα Πέλλας,https://corporate.e-jumbo.gr/en/stores-premises/
"Heraklion, 193 62 Martiron ave.",E Jumbo,Δημοτική Ενότητα Ηρακλείου,Greece,"{'brand': 'E Jumbo', 'fascia': 'E Jumbo', 'category': 'Retail', 'edit_date': '2025-05-09', 'lat_lon_source': 'Website'}",35.3304,25.1105,E Jumbo Heraklion,"{'opening_hours': {'Mon': '09:00-21:00', 'Tue': '09:00-21:00', 'Wed': '09:00-21:00', 'Thu': '09:00-21:00', 'Fri': '09:00-21:00', 'Sat': '09:00-20:00', 'Sun': '00:00-00:00'}}",(+30) 2810315806-2810318922,713 03,35.3304 - 25.1105,Περιφερειακή Ενότητα Ηρακλείου,https://corporate.e-jumbo.gr/en/stores-premises/
"Iasmos, Egnatia odos - Iasmos junction ",E Jumbo,Ίασμος,Greece,"{'brand': 'E Jumbo', 'fascia': 'E Jumbo', 'category': 'Retail', 'edit_date': '2025-05-09', 'lat_lon_source': 'Website'}",41.1145,25.1655,E Jumbo Iasmos,"{'opening_hours': {'Mon': '10:00-21:00', 'Tue': '10:00-21:00', 'Wed': '10:00-21:00', 'Thu': '10:00-21:00', 'Fri': '10:00-21:00', 'Sat': '10:00-20:00', 'Sun': '00:00-00:00'}}",(+30)25340 21101 - 2534021102,692 00,41.1145 - 25.1655,Περιφερειακή Ενότητα Ροδόπης,https://corporate.e-jumbo.gr/en/stores-premises/
"Ilion, 67Α Dimokratias Ave., just behind the Carrefour",E Jumbo,,Greece,"{'brand': 'E Jumbo', 'fascia': 'E Jumbo', 'category': 'Retail', 'edit_date': '2025-05-09', 'lat_lon_source': 'Website'}",38.0419,23.7265,E Jumbo Ilion,"{'opening_hours': {'Mon': '09:00-21:00', 'Tue': '09:00-21:00', 'Wed': '09:00-21:00', 'Thu': '09:00-21:00', 'Fri': '09:00-21:00', 'Sat': '09:00-20:00', 'Sun': '00:00-00:00'}}",(+30) 2102323333-4,135 62,38.0419 - 23.7265,Περιφερειακή Ενότητα Δυτικού Τομέα Αθηνών,https://corporate.e-jumbo.gr/en/stores-premises/
"Ioannina 1, 6 Stavrou Niarchou str",E Jumbo,Ιωάννινα,Greece,"{'brand': 'E Jumbo', 'fascia': 'E Jumbo', 'category': 'Retail', 'edit_date': '2025-05-09', 'lat_lon_source': 'Website'}",39.645,20.8487,E Jumbo Ioannina 1,"{'opening_hours': {'Mon': '09:00-21:00', 'Tue': '09:00-21:00', 'Wed': '09:00-21:00', 'Thu': '09:00-21:00', 'Fri': '09:00-21:00', 'Sat': '09:00-20:00', 'Sun': '00:00-00:00'}}",(+30) 2651085190-1,455 00,39.645 - 20.8487,Περιφερειακή Ενότητα Ιωαννίνων,https://corporate.e-jumbo.gr/en/stores-premises/
"Ioannina 2, 13th km National Road Ioannina-Arta, Episkopiko area",E Jumbo,,Greece,"{'brand': 'E Jumbo', 'fascia': 'E Jumbo', 'category': 'Retail', 'edit_date': '2025-05-09', 'lat_lon_source': 'Website'}",39.5435,20.8761,E Jumbo Ioannina 2,"{'opening_hours': {'Mon': '00:00-00:00', 'Tue': '00:00-00:00', 'Wed': '00:00-00:00', 'Thu': '00:00-00:00', 'Fri': '00:00-00:00', 'Sat': '10:00-20:00', 'Sun': '00:00-00:00'}}",(+30) 2651096291-2651096293,,39.5435 - 20.8761,Περιφερειακή Ενότητα Ιωαννίνων,https://corporate.e-jumbo.gr/en/stores-premises/
"Kalamata, 154 Psarron str. & Evaggelistrias str.",E Jumbo,Δήμος Καλαμάτας,Greece,"{'brand': 'E Jumbo', 'fascia': 'E Jumbo', 'category': 'Retail', 'edit_date': '2025-05-09', 'lat_lon_source': 'Website'}",37.0258,22.1094,E Jumbo Kalamata,"{'opening_hours': {'Mon': '09:00-21:00', 'Tue': '09:00-21:00', 'Wed': '09:00-21:00', 'Thu': '09:00-21:00', 'Fri': '09:00-21:00', 'Sat': '09:00-20:00', 'Sun': '00:00-00:00'}}",(+30) 2721091906-2721083138,241 00,37.0258 - 22.1094,Περιφερειακή Ενότητα Μεσσηνίας,https://corporate.e-jumbo.gr/en/stores-premises/
"Karditsa, 13th km Karditsa-Trikala, Agnantero 43061",E Jumbo,Αγναντερό,Greece,"{'brand': 'E Jumbo', 'fascia': 'E Jumbo', 'category': 'Retail', 'edit_date': '2025-05-09', 'lat_lon_source': 'Website'}",39.4821,21.846,E Jumbo Karditsa,"{'opening_hours': {'Mon': '00:00-00:00', 'Tue': '00:00-00:00', 'Wed': '00:00-00:00', 'Thu': '00:00-00:00', 'Fri': '00:00-00:00', 'Sat': '00:00-00:00', 'Sun': '00:00-00:00'}}",(+30) 2441082280,430 61,39.4821 - 21.846,Περιφερειακή Ενότητα Καρδίτσας,https://corporate.e-jumbo.gr/en/stores-premises/
"Katerini - Variko, Litoxoro, 430Km National Road Athens - Thessaloniki (in the direction towards Athens)",E Jumbo,,Greece,"{'brand': 'E Jumbo', 'fascia': 'E Jumbo', 'category': 'Retail', 'edit_date': '2025-05-09', 'lat_lon_source': 'Website'}",40.211094, 22.543126,E Jumbo Katerini - Variko,"{'opening_hours': {'Mon': '10:00-21:00', 'Tue': '10:00-21:00', 'Wed': '10:00-21:00', 'Thu': '10:00-21:00', 'Fri': '10:00-21:00', 'Sat': '10:00-20:00', 'Sun': '00:00-00:00'}}",(+30) 2352306200,601 00,40.211094 -  22.543126,Περιφερειακή Ενότητα Πιερίας,https://corporate.e-jumbo.gr/en/stores-premises/
"Kavala, Amigdaleonas Filippon str",E Jumbo,Αμυγδαλεώνας,Greece,"{'brand': 'E Jumbo', 'fascia': 'E Jumbo', 'category': 'Retail', 'edit_date': '2025-05-09', 'lat_lon_source': 'Website'}",40.970338872579134, 24.353457996562053,E Jumbo Kavala,"{'opening_hours': {'Mon': '09:00-21:00', 'Tue': '09:00-21:00', 'Wed': '09:00-21:00', 'Thu': '09:00-21:00', 'Fri': '09:00-21:00', 'Sat': '09:00-20:00', 'Sun': '00:00-00:00'}}",(+30) 2510622741-2,640 12,40.970338872579134 -  24.353457996562053,Περιφερειακή Ενότητα Καβάλας,https://corporate.e-jumbo.gr/en/stores-premises/
"Kolonos, 30-32 Kreontos str.",E Jumbo,Αθήνα,Greece,"{'brand': 'E Jumbo', 'fascia': 'E Jumbo', 'category': 'Retail', 'edit_date': '2025-05-09', 'lat_lon_source': 'Website'}",37.9965,23.709,E Jumbo Kolonos,"{'opening_hours': {'Mon': '09:00-21:00', 'Tue': '09:00-21:00', 'Wed': '09:00-21:00', 'Thu': '09:00-21:00', 'Fri': '09:00-21:00', 'Sat': '09:00-20:00', 'Sun': '00:00-00:00'}}",(+30) 2105154700-1,104 42,37.9965 - 23.709,Περιφερειακή Ενότητα Κεντρικού Τομέα Αθηνών,https://corporate.e-jumbo.gr/en/stores-premises/
"Korinthos, 3rd km Old National road  Korithos-Isthmos-Athens ",E Jumbo,Δημοτική Ενότητα Κορινθίων,Greece,"{'brand': 'E Jumbo', 'fascia': 'E Jumbo', 'category': 'Retail', 'edit_date': '2025-05-09', 'lat_lon_source': 'Website'}",37.9405,22.9477,E Jumbo Korinthos,"{'opening_hours': {'Mon': '09:00-21:00', 'Tue': '09:00-21:00', 'Wed': '09:00-21:00', 'Thu': '09:00-21:00', 'Fri': '09:00-21:00', 'Sat': '09:00-20:00', 'Sun': '00:00-00:00'}}",(+30) 2741074630,201 32,37.9405 - 22.9477,Περιφερειακή Ενότητα Κορινθίας,https://corporate.e-jumbo.gr/en/stores-premises/
"Lamia, Giannitsioti str., Vassilikon str., Velliou str., Papamayrou str.",E Jumbo,Δημοτική Ενότητα Λαμιέων,Greece,"{'brand': 'E Jumbo', 'fascia': 'E Jumbo', 'category': 'Retail', 'edit_date': '2025-05-09', 'lat_lon_source': 'Website'}",38.8942,22.4448,E Jumbo Lamia,"{'opening_hours': {'Mon': '09:00-21:00', 'Tue': '09:00-21:00', 'Wed': '09:00-21:00', 'Thu': '09:00-21:00', 'Fri': '09:00-21:00', 'Sat': '09:00-20:00', 'Sun': '00:00-00:00'}}",(+30) 2231066290 - 1,351 31,38.8942 - 22.4448,Περιφερειακή Ενότητα Φθιώτιδας,https://corporate.e-jumbo.gr/en/stores-premises/
"Larissa 1, 2nd km National road  Larissa-Kozani , Giannouli",E Jumbo,Δημοτική Ενότητα Γιάννουλης,Greece,"{'brand': 'E Jumbo', 'fascia': 'E Jumbo', 'category': 'Retail', 'edit_date': '2025-05-09', 'lat_lon_source': 'Website'}",39.6598,22.4034,E Jumbo Larissa 1,"{'opening_hours': {'Mon': '00:00-00:00', 'Tue': '00:00-00:00', 'Wed': '00:00-00:00', 'Thu': '00:00-00:00', 'Fri': '00:00-00:00', 'Sat': '00:00-00:00', 'Sun': '00:00-00:00'}}",(+30) 2410538330-1,415 00,39.6598 - 22.4034,Περιφερειακή Ενότητα Λάρισας,https://corporate.e-jumbo.gr/en/stores-premises/
"Larissa 2, 8th km National road Athens-Larissa , Nikaia area",E Jumbo,Δημοτική Ενότητα Νίκαιας,Greece,"{'brand': 'E Jumbo', 'fascia': 'E Jumbo', 'category': 'Retail', 'edit_date': '2025-05-09', 'lat_lon_source': 'Website'}",39.586,22.4682,E Jumbo Larissa 2,"{'opening_hours': {'Mon': '10:00-21:00', 'Tue': '10:00-21:00', 'Wed': '10:00-21:00', 'Thu': '10:00-21:00', 'Fri': '10:00-21:00', 'Sat': '10:00-20:00', 'Sun': '00:00-00:00'}}",(+30) 2410921701-2410921704,415 00,39.586 - 22.4682,Περιφερειακή Ενότητα Λάρισας,https://corporate.e-jumbo.gr/en/stores-premises/
"Lavrio, 1 Kountouriotou str. ",E Jumbo,Δημοτική Ενότητα Λαυρεωτικής,Greece,"{'brand': 'E Jumbo', 'fascia': 'E Jumbo', 'category': 'Retail', 'edit_date': '2025-05-09', 'lat_lon_source': 'Website'}",37.7113,24.0539,E Jumbo Lavrio,"{'opening_hours': {'Mon': '09:00-21:00', 'Tue': '09:00-21:00', 'Wed': '09:00-21:00', 'Thu': '09:00-21:00', 'Fri': '09:00-21:00', 'Sat': '09:00-20:00', 'Sun': '00:00-00:00'}}",(+30) 2292024070 - 1,195 00,37.7113 - 24.0539,Περιφερειακή Ενότητα Ανατολικής Αττικής,https://corporate.e-jumbo.gr/en/stores-premises/
"Maroussi 1, 41-45 Kifisias ave. & Gounari str.,  Avenue shopping centre",E Jumbo,,Greece,"{'brand': 'E Jumbo', 'fascia': 'E Jumbo', 'category': 'Retail', 'edit_date': '2025-05-09', 'lat_lon_source': 'Website'}",38.0351,23.7949,E Jumbo Maroussi 1,"{'opening_hours': {'Mon': '09:00-21:00', 'Tue': '09:00-21:00', 'Wed': '09:00-21:00', 'Thu': '09:00-21:00', 'Fri': '09:00-21:00', 'Sat': '09:00-20:00', 'Sun': '00:00-00:00'}}",(+30) 2106100433-4,15123,38.0351 - 23.7949,Περιφερειακή Ενότητα Βορείου Τομέα Αθηνών,https://corporate.e-jumbo.gr/en/stores-premises/
"Maroussi 2, 31 Andrea Papandreou str.,  Μikinon str. & Μenelaou str. (Νeratziotissa) 15124",E Jumbo,,Greece,"{'brand': 'E Jumbo', 'fascia': 'E Jumbo', 'category': 'Retail', 'edit_date': '2025-05-09', 'lat_lon_source': 'Website'}",38.0444,23.7945,E Jumbo Maroussi 2,"{'opening_hours': {'Mon': '09:00-21:00', 'Tue': '09:00-21:00', 'Wed': '09:00-21:00', 'Thu': '09:00-21:00', 'Fri': '09:00-21:00', 'Sat': '09:00-20:00', 'Sun': '00:00-00:00'}}",(+30) 2106104098 - 2106104094,15124,38.0444 - 23.7945,Περιφερειακή Ενότητα Βορείου Τομέα Αθηνών,https://corporate.e-jumbo.gr/en/stores-premises/
"Mitilini, Moria, 36th Country Road Mitilini - Kalloni, 81150",E Jumbo,Μυτιλήνη,Greece,"{'brand': 'E Jumbo', 'fascia': 'E Jumbo', 'category': 'Retail', 'edit_date': '2025-05-09', 'lat_lon_source': 'Website'}",39.125439, 26.471394,E Jumbo Mitilini,"{'opening_hours': {'Mon': '09:00-21:00', 'Tue': '09:00-21:00', 'Wed': '09:00-21:00', 'Thu': '09:00-21:00', 'Fri': '09:00-21:00', 'Sat': '09:00-20:00', 'Sun': '00:00-00:00'}}",(+30) 2251086098,811 00,39.125439 -  26.471394,Περιφερειακή Ενότητα Λέσβου,https://corporate.e-jumbo.gr/en/stores-premises/
"Nea Filadelfia, 239 Dekelias Avenue",E Jumbo,Δημοτική Ενότητα Νέας Φιλαδέλφειας,Greece,"{'brand': 'E Jumbo', 'fascia': 'E Jumbo', 'category': 'Retail', 'edit_date': '2025-05-09', 'lat_lon_source': 'Website'}",38.0496,23.7483,E Jumbo Nea Filadelfia,"{'opening_hours': {'Mon': '09:00-21:00', 'Tue': '09:00-21:00', 'Wed': '09:00-21:00', 'Thu': '09:00-21:00', 'Fri': '09:00-21:00', 'Sat': '09:00-20:00', 'Sun': '00:00-00:00'}}",(+30) 2102755794 - 2102710720,143 42,38.0496 - 23.7483,Περιφερειακή Ενότητα Κεντρικού Τομέα Αθηνών,https://corporate.e-jumbo.gr/en/stores-premises/
"Nikaia, 251 Thivon Ave.",E Jumbo,,Greece,"{'brand': 'E Jumbo', 'fascia': 'E Jumbo', 'category': 'Retail', 'edit_date': '2025-05-09', 'lat_lon_source': 'Website'}",37.979377,23.669539,E Jumbo Nikaia,"{'opening_hours': {'Mon': '09:00-21:00', 'Tue': '09:00-21:00', 'Wed': '09:00-21:00', 'Thu': '09:00-21:00', 'Fri': '09:00-21:00', 'Sat': '09:00-20:00', 'Sun': '00:00-00:00'}}",(+30) 2105697663-4,123 41,37.979377 - 23.669539,Περιφερειακή Ενότητα Δυτικού Τομέα Αθηνών,https://corporate.e-jumbo.gr/en/stores-premises/
"Oreokastro, 6th km Thessaloniki-Oreokastro",E Jumbo,Δημοτική Ενότητα Ευκαρπίας,Greece,"{'brand': 'E Jumbo', 'fascia': 'E Jumbo', 'category': 'Retail', 'edit_date': '2025-05-09', 'lat_lon_source': 'Website'}",40.6915,22.9413,E Jumbo Oreokastro,"{'opening_hours': {'Mon': '09:00-21:00', 'Tue': '09:00-21:00', 'Wed': '09:00-21:00', 'Thu': '09:00-21:00', 'Fri': '09:00-21:00', 'Sat': '09:00-20:00', 'Sun': '00:00-00:00'}}",(+30) 2310682068,56429,40.6915 - 22.9413,Μητροπολιτική Ενότητα Θεσσαλονίκης,https://corporate.e-jumbo.gr/en/stores-premises/
"Pagrati, 111 Filolaou str. & 79 Embedokleous str.",E Jumbo,Αθήνα,Greece,"{'brand': 'E Jumbo', 'fascia': 'E Jumbo', 'category': 'Retail', 'edit_date': '2025-05-09', 'lat_lon_source': 'Website'}",37.9629,23.7458,E Jumbo Pagrati,"{'opening_hours': {'Mon': '09:00-21:00', 'Tue': '09:00-21:00', 'Wed': '09:00-21:00', 'Thu': '09:00-21:00', 'Fri': '09:00-21:00', 'Sat': '09:00-20:00', 'Sun': '00:00-00:00'}}",(+30) 2107563986-7,116 32,37.9629 - 23.7458,Περιφερειακή Ενότητα Κεντρικού Τομέα Αθηνών,https://corporate.e-jumbo.gr/en/stores-premises/
"Paiania, 67 Lavriou Ave.19002 Paiania",E Jumbo,Δημοτική Ενότητα Παιανίας,Greece,"{'brand': 'E Jumbo', 'fascia': 'E Jumbo', 'category': 'Retail', 'edit_date': '2025-05-09', 'lat_lon_source': 'Website'}",37.9612,23.8554,E Jumbo Paiania,"{'opening_hours': {'Mon': '09:00-21:00', 'Tue': '09:00-21:00', 'Wed': '09:00-21:00', 'Thu': '09:00-21:00', 'Fri': '09:00-21:00', 'Sat': '09:00-20:00', 'Sun': '00:00-00:00'}}",(+30) 2106647206-7,190 02,37.9612 - 23.8554,Περιφερειακή Ενότητα Ανατολικής Αττικής,https://corporate.e-jumbo.gr/en/stores-premises/
"Palaio Faliro, Ethnarchou Makariou 1 and Moraitini 3",E Jumbo,,Greece,"{'brand': 'E Jumbo', 'fascia': 'E Jumbo', 'category': 'Retail', 'edit_date': '2025-05-09', 'lat_lon_source': 'Website'}",37.934,23.6916,E Jumbo Palaio Faliro,"{'opening_hours': {'Mon': '09:00-21:00', 'Tue': '09:00-21:00', 'Wed': '09:00-21:00', 'Thu': '09:00-21:00', 'Fri': '09:00-21:00', 'Sat': '09:00-20:00', 'Sun': '00:00-00:00'}}",(+30) 2109410071 - 2109410067,175 61,37.934 - 23.6916,Περιφερειακή Ενότητα Νοτίου Τομέα Αθηνών,https://corporate.e-jumbo.gr/en/stores-premises/
"Patra 1, New National Road Patra - Athens  & 74 Amerikis str.",E Jumbo,Δημοτική Ενότητα Πατρέων,Greece,"{'brand': 'E Jumbo', 'fascia': 'E Jumbo', 'category': 'Retail', 'edit_date': '2025-05-09', 'lat_lon_source': 'Website'}",38.2617,21.7502,E Jumbo Patra 1,"{'opening_hours': {'Mon': '09:00-21:00', 'Tue': '09:00-21:00', 'Wed': '09:00-21:00', 'Thu': '09:00-21:00', 'Fri': '09:00-21:00', 'Sat': '00:00-00:00', 'Sun': '00:00-00:00'}}",(+30) 2610436245-2610436326,264 41,38.2617 - 21.7502,Περιφερειακή Ενότητα Αχαΐας,https://corporate.e-jumbo.gr/en/stores-premises/
"Patra 2, 17 Akti Dimaion str.",E Jumbo,Πάτρα,Greece,"{'brand': 'E Jumbo', 'fascia': 'E Jumbo', 'category': 'Retail', 'edit_date': '2025-05-09', 'lat_lon_source': 'Website'}",38.2379,21.7259,E Jumbo Patra 2,"{'opening_hours': {'Mon': '09:00-21:00', 'Tue': '09:00-21:00', 'Wed': '09:00-21:00', 'Thu': '09:00-21:00', 'Fri': '09:00-21:00', 'Sat': '09:00-20:00', 'Sun': '00:00-00:00'}}",(+30) 2610361483-2610361432,262 22,38.2379 - 21.7259,Περιφερειακή Ενότητα Αχαΐας,https://corporate.e-jumbo.gr/en/stores-premises/
"Pefkakia, 36 G. Averof str., Makelaraki str., Βizantinon Αftokratoron str., Κirkinis str.",E Jumbo,,Greece,"{'brand': 'E Jumbo', 'fascia': 'E Jumbo', 'category': 'Retail', 'edit_date': '2025-05-09', 'lat_lon_source': 'Website'}",38.0354,23.7486,E Jumbo Pefkakia,"{'opening_hours': {'Mon': '09:00-21:00', 'Tue': '09:00-21:00', 'Wed': '09:00-21:00', 'Thu': '09:00-21:00', 'Fri': '09:00-21:00', 'Sat': '09:00-20:00', 'Sun': '00:00-00:00'}}",(+30) 2102725204-5,142 32,38.0354 - 23.7486,Περιφερειακή Ενότητα Βορείου Τομέα Αθηνών,https://corporate.e-jumbo.gr/en/stores-premises/
"Pilea, 8 Marinou Antipa str.,  Pilea Thessaloniki",E Jumbo,Δημοτική Ενότητα Πυλαίας,Greece,"{'brand': 'E Jumbo', 'fascia': 'E Jumbo', 'category': 'Retail', 'edit_date': '2025-05-09', 'lat_lon_source': 'Website'}",40.5695,22.9832,E Jumbo Pilea,"{'opening_hours': {'Mon': '09:00-21:00', 'Tue': '09:00-21:00', 'Wed': '09:00-21:00', 'Thu': '09:00-21:00', 'Fri': '09:00-21:00', 'Sat': '09:00-20:00', 'Sun': '00:00-00:00'}}",(+30) 2310471497-8,335 70,40.5695 - 22.9832,Μητροπολιτική Ενότητα Θεσσαλονίκης,https://corporate.e-jumbo.gr/en/stores-premises/
"Piraeus 1, 23, 34th Syntagmatos Pezikou str.",E Jumbo,Πειραιάς,Greece,"{'brand': 'E Jumbo', 'fascia': 'E Jumbo', 'category': 'Retail', 'edit_date': '2025-05-09', 'lat_lon_source': 'Website'}",37.9458,23.6495,E Jumbo Piraeus 1,"{'opening_hours': {'Mon': '09:00-21:00', 'Tue': '09:00-21:00', 'Wed': '09:00-21:00', 'Thu': '09:00-21:00', 'Fri': '09:00-21:00', 'Sat': '09:00-20:00', 'Sun': '00:00-00:00'}}",(+30) 2104220500,185 32,37.9458 - 23.6495,Περιφερειακή Ενότητα Πειραιώς,https://corporate.e-jumbo.gr/en/stores-premises/
"Piraeus 2, 5 Agiou Dionisiou str., Asklipiou str., Kastoros str.",E Jumbo,Πειραιάς,Greece,"{'brand': 'E Jumbo', 'fascia': 'E Jumbo', 'category': 'Retail', 'edit_date': '2025-05-09', 'lat_lon_source': 'Website'}",37.9495,23.6436,E Jumbo Piraeus 2,"{'opening_hours': {'Mon': '09:00-21:00', 'Tue': '09:00-21:00', 'Wed': '09:00-21:00', 'Thu': '09:00-21:00', 'Fri': '09:00-21:00', 'Sat': '09:00-20:00', 'Sun': '00:00-00:00'}}",(+30) 2104132608 - 2104119142,185 10,37.9495 - 23.6436,Περιφερειακή Ενότητα Πειραιώς,https://corporate.e-jumbo.gr/en/stores-premises/
"Port of Thessaloniki, 43 26th October str. & Kefallinias str",E Jumbo,Δημοτική Ενότητα Θεσαλονίκης,Greece,"{'brand': 'E Jumbo', 'fascia': 'E Jumbo', 'category': 'Retail', 'edit_date': '2025-05-09', 'lat_lon_source': 'Website'}",40.6409,22.9183,E Jumbo Port of Thessaloniki,"{'opening_hours': {'Mon': '09:00-21:00', 'Tue': '09:00-21:00', 'Wed': '09:00-21:00', 'Thu': '09:00-21:00', 'Fri': '09:00-21:00', 'Sat': '09:00-20:00', 'Sun': '00:00-00:00'}}",(+30) 2310502800-1,546 27,40.6409 - 22.9183,Μητροπολιτική Ενότητα Θεσσαλονίκης,https://corporate.e-jumbo.gr/en/stores-premises/
"Preveza, National road Preveza-Arta, Louros area",E Jumbo,,Greece,"{'brand': 'E Jumbo', 'fascia': 'E Jumbo', 'category': 'Retail', 'edit_date': '2025-05-09', 'lat_lon_source': 'Website'}",39.1246,20.7523,E Jumbo Preveza,"{'opening_hours': {'Mon': '09:00-21:00', 'Tue': '09:00-21:00', 'Wed': '09:00-21:00', 'Thu': '09:00-21:00', 'Fri': '09:00-21:00', 'Sat': '00:00-00:00', 'Sun': '00:00-00:00'}}",(+30) 2682031115-6,,39.1246 - 20.7523,Περιφερειακή Ενότητα Πρέβεζας,https://corporate.e-jumbo.gr/en/stores-premises/
"Renti, 161 Pireos str.,18233",E Jumbo,Δημοτική Ενότητα Αγίου Ιωάννου Ρέντη,Greece,"{'brand': 'E Jumbo', 'fascia': 'E Jumbo', 'category': 'Retail', 'edit_date': '2025-05-09', 'lat_lon_source': 'Website'}",37.954,23.6702,E Jumbo Renti,"{'opening_hours': {'Mon': '09:00-21:00', 'Tue': '09:00-21:00', 'Wed': '09:00-21:00', 'Thu': '09:00-21:00', 'Fri': '09:00-21:00', 'Sat': '09:00-20:00', 'Sun': '00:00-00:00'}}",(+30) 2104830617 - 2104830626,182 33,37.954 - 23.6702,Περιφερειακή Ενότητα Πειραιώς,https://corporate.e-jumbo.gr/en/stores-premises/
"Rhodes, 5th km National road Rodos-Lindos",E Jumbo,Δημοτική Ενότητα Ρόδου,Greece,"{'brand': 'E Jumbo', 'fascia': 'E Jumbo', 'category': 'Retail', 'edit_date': '2025-05-09', 'lat_lon_source': 'Website'}",36.4134,28.2036,E Jumbo Rhodes,"{'opening_hours': {'Mon': '09:00-21:00', 'Tue': '09:00-21:00', 'Wed': '09:00-21:00', 'Thu': '09:00-21:00', 'Fri': '09:00-21:00', 'Sat': '09:00-20:00', 'Sun': '00:00-00:00'}}",(+30) 2241060530-1,851 31,36.4134 - 28.2036,Περιφερειακή Ενότητα Ρόδου,https://corporate.e-jumbo.gr/en/stores-premises/
"Serres, 6th km National Road Serres - Thessaloniki",E Jumbo,Λευκώνας,Greece,"{'brand': 'E Jumbo', 'fascia': 'E Jumbo', 'category': 'Retail', 'edit_date': '2025-05-09', 'lat_lon_source': 'Website'}",41.0952,23.4715,E Jumbo Serres,"{'opening_hours': {'Mon': '10:00-21:00', 'Tue': '10:00-21:00', 'Wed': '10:00-21:00', 'Thu': '10:00-21:00', 'Fri': '10:00-21:00', 'Sat': '10:00-20:00', 'Sun': '00:00-00:00'}}",(+30) 2321080080 - 1,621 00,41.0952 - 23.4715,Περιφερειακή Ενότητα Σερρών,https://corporate.e-jumbo.gr/en/stores-premises/
"Spata, Ο.Τ. Ε71 Gialou, Shopping Mall ""Smart Park"" Spata",E Jumbo,Δημοτική Ενότητα Παλλήνης,Greece,"{'brand': 'E Jumbo', 'fascia': 'E Jumbo', 'category': 'Retail', 'edit_date': '2025-05-09', 'lat_lon_source': 'Website'}",37.9868,23.9104,E Jumbo Spata,"{'opening_hours': {'Mon': '10:00-21:00', 'Tue': '10:00-21:00', 'Wed': '10:00-21:00', 'Thu': '10:00-21:00', 'Fri': '10:00-21:00', 'Sat': '09:00-20:00', 'Sun': '00:00-00:00'}}",(+30) 2106630375 - 2106630195,190 04,37.9868 - 23.9104,Περιφερειακή Ενότητα Ανατολικής Αττικής,https://corporate.e-jumbo.gr/en/stores-premises/
"Tripoli, 4th km National Road, Tripoli-Argos, Rahes",E Jumbo,Δημοτική Ενότητα Κορυθίου,Greece,"{'brand': 'E Jumbo', 'fascia': 'E Jumbo', 'category': 'Retail', 'edit_date': '2025-05-09', 'lat_lon_source': 'Website'}",37.4994,22.4154,E Jumbo Tripoli,"{'opening_hours': {'Mon': '10:00-21:00', 'Tue': '10:00-21:00', 'Wed': '10:00-21:00', 'Thu': '10:00-21:00', 'Fri': '10:00-21:00', 'Sat': '10:00-20:00', 'Sun': '00:00-00:00'}}",(+30) 2710243850 - 2710243851,221 32,37.4994 - 22.4154,Περιφερειακή Ενότητα Αρκαδίας,https://corporate.e-jumbo.gr/en/stores-premises/
"Vari, 2nd km Country road Varis - Κoropiou ",E Jumbo,Αγία Μαρίνα,Greece,"{'brand': 'E Jumbo', 'fascia': 'E Jumbo', 'category': 'Retail', 'edit_date': '2025-05-09', 'lat_lon_source': 'Website'}",37.8464,23.8241,E Jumbo Vari,"{'opening_hours': {'Mon': '09:00-21:00', 'Tue': '09:00-21:00', 'Wed': '09:00-21:00', 'Thu': '09:00-21:00', 'Fri': '09:00-21:00', 'Sat': '09:00-20:00', 'Sun': '00:00-00:00'}}",(+30) 2109653918-9,194 00,37.8464 - 23.8241,Περιφερειακή Ενότητα Ανατολικής Αττικής,https://corporate.e-jumbo.gr/en/stores-premises/
"Varibobi, Aidonon str., Kalavriton str., Amaliados str, & Kalamatas str., Nea Kifisia",E Jumbo,,Greece,"{'brand': 'E Jumbo', 'fascia': 'E Jumbo', 'category': 'Retail', 'edit_date': '2025-05-09', 'lat_lon_source': 'Website'}",38.1022,23.8062,E Jumbo Varibobi,"{'opening_hours': {'Mon': '09:00-21:00', 'Tue': '09:00-21:00', 'Wed': '09:00-21:00', 'Thu': '09:00-21:00', 'Fri': '09:00-21:00', 'Sat': '09:00-20:00', 'Sun': '00:00-00:00'}}",(+30) 2108071741 - 2108071971,145 64,38.1022 - 23.8062,Περιφερειακή Ενότητα Βορείου Τομέα Αθηνών,https://corporate.e-jumbo.gr/en/stores-premises/
"Volos, 27 Zachou str. & Mitropolitou Gregoriou str.",E Jumbo,Δήμος Βόλου,Greece,"{'brand': 'E Jumbo', 'fascia': 'E Jumbo', 'category': 'Retail', 'edit_date': '2025-05-09', 'lat_lon_source': 'Website'}",39.3673,22.9326,E Jumbo Volos,"{'opening_hours': {'Mon': '09:00-21:00', 'Tue': '09:00-21:00', 'Wed': '09:00-21:00', 'Thu': '09:00-21:00', 'Fri': '09:00-21:00', 'Sat': '09:00-20:00', 'Sun': '00:00-00:00'}}",(+30) 2421037840,384 46,39.3673 - 22.9326,Περιφερειακή Ενότητα Μαγνησίας,https://corporate.e-jumbo.gr/en/stores-premises/
"Vrilissia, 98 Pentelis Ave. & Kissavou str.",E Jumbo,Δημοτική Ενότητα Μελισσίων,Greece,"{'brand': 'E Jumbo', 'fascia': 'E Jumbo', 'category': 'Retail', 'edit_date': '2025-05-09', 'lat_lon_source': 'Website'}",38.0447,23.8368,E Jumbo Vrilissia,"{'opening_hours': {'Mon': '09:00-21:00', 'Tue': '09:00-21:00', 'Wed': '09:00-21:00', 'Thu': '09:00-21:00', 'Fri': '09:00-21:00', 'Sat': '09:00-20:00', 'Sun': '00:00-00:00'}}",(+30) 2108037500-1,151 27,38.0447 - 23.8368,Περιφερειακή Ενότητα Βορείου Τομέα Αθηνών,https://corporate.e-jumbo.gr/en/stores-premises/
"Cyprus Lakatamia, Lakatamia, Abraam Antoniou 9",E Jumbo,Λακατάμεια,Greece,"{'brand': 'E Jumbo', 'fascia': 'E Jumbo', 'category': 'Retail', 'edit_date': '2025-05-09', 'lat_lon_source': 'Website'}",35.129705,33.320153,E Jumbo Cyprus Lakatamia,"{'opening_hours': {'Mon': '00:00-00:00', 'Tue': '00:00-00:00', 'Wed': '00:00-00:00', 'Thu': '00:00-00:00', 'Fri': '00:00-00:00', 'Sat': '00:00-00:00', 'Sun': '00:00-00:00'}}",,2330,35.129705 - 33.320153,Δήμος Λακατάμειας,https://corporate.e-jumbo.gr/en/stores-premises/
"Larnaca, Larnaca-Dikelia road, Leivadia area",E Jumbo,,Greece,"{'brand': 'E Jumbo', 'fascia': 'E Jumbo', 'category': 'Retail', 'edit_date': '2025-05-09', 'lat_lon_source': 'Website'}",34.945,33.6441,E Jumbo Larnaca,"{'opening_hours': {'Mon': '09:00-21:00', 'Tue': '09:00-20:00', 'Wed': '09:00-20:00', 'Thu': '09:00-20:00', 'Fri': '09:00-20:00', 'Sat': '14:00-20:00', 'Sun': '11:00-20:00'}}",0035724-662999 & 662888,6303,34.945 - 33.6441,Δήμος Λάρνακας,https://corporate.e-jumbo.gr/en/stores-premises/
"Limassol, 39 Agiou Athanasiou ave.",E Jumbo,Δήμος Αγίου Αθανασίου,Greece,"{'brand': 'E Jumbo', 'fascia': 'E Jumbo', 'category': 'Retail', 'edit_date': '2025-05-09', 'lat_lon_source': 'Website'}",34.7011,33.0604,E Jumbo Limassol,"{'opening_hours': {'Mon': '09:00-21:00', 'Tue': '09:00-21:00', 'Wed': '09:00-21:00', 'Thu': '09:00-21:00', 'Fri': '09:00-21:00', 'Sat': '09:00-21:00', 'Sun': '10:00-20:00'}}",0035725-823030 & 823032,4102,34.7011 - 33.0604,Δήμος Ανατολικής Λεμεσού,https://corporate.e-jumbo.gr/en/stores-premises/
"Nicosia, 9 Avraam Antoniou str., Lakatamia",E Jumbo,Λακατάμεια,Greece,"{'brand': 'E Jumbo', 'fascia': 'E Jumbo', 'category': 'Retail', 'edit_date': '2025-05-09', 'lat_lon_source': 'Website'}",35.1286,33.3187,E Jumbo Nicosia,"{'opening_hours': {'Mon': '09:00-21:00', 'Tue': '09:00-21:00', 'Wed': '09:00-21:00', 'Thu': '09:00-21:00', 'Fri': '09:00-21:00', 'Sat': '09:00-21:00', 'Sun': '10:00-20:00'}}",0035722-468100 & 468098,2330,35.1286 - 33.3187,Δήμος Λακατάμειας,https://corporate.e-jumbo.gr/en/stores-premises/
"Pafos, 2 Tafoi  Vasileon Av.",E Jumbo,Δήμος Πάφου,Greece,"{'brand': 'E Jumbo', 'fascia': 'E Jumbo', 'category': 'Retail', 'edit_date': '2025-05-09', 'lat_lon_source': 'Website'}",34.7646,32.4124,E Jumbo Pafos,"{'opening_hours': {'Mon': '09:00-21:00', 'Tue': '09:00-21:00', 'Wed': '09:00-21:00', 'Thu': '09:00-21:00', 'Fri': '09:00-21:00', 'Sat': '09:00-21:00', 'Sun': '10:00-20:00'}}",0035726-600890 & 600891,8046,34.7646 - 32.4124,,https://corporate.e-jumbo.gr/en/stores-premises/
"Polemidia, 20 Katsantonaion str.",E Jumbo,Δήμος Κάτω Πολεμιδίων,Greece,"{'brand': 'E Jumbo', 'fascia': 'E Jumbo', 'category': 'Retail', 'edit_date': '2025-05-09', 'lat_lon_source': 'Website'}",34.6874,33.0104,E Jumbo Polemidia,"{'opening_hours': {'Mon': '09:00-21:00', 'Tue': '09:00-21:00', 'Wed': '09:00-21:00', 'Thu': '09:00-21:00', 'Fri': '09:00-21:00', 'Sat': '09:00-21:00', 'Sun': '10:00-20:00'}}",00357 25383030 - 25 384031,4154,34.6874 - 33.0104,Δήμος Πολεμιδιών,https://corporate.e-jumbo.gr/en/stores-premises/
"Strovolos, Nicosia, Lemesou Avenue 195, 2025",E Jumbo,Strovolos,Greece,"{'brand': 'E Jumbo', 'fascia': 'E Jumbo', 'category': 'Retail', 'edit_date': '2025-05-09', 'lat_lon_source': 'Website'}",35.132193, 33.373819,E Jumbo Strovolos,"{'opening_hours': {'Mon': '09:00-21:00', 'Tue': '09:00-21:00', 'Wed': '09:00-21:00', 'Thu': '09:00-21:00', 'Fri': '09:00-21:00', 'Sat': '09:00-21:00', 'Sun': '10:00-20:00'}}",00357 22570800,2025,35.132193 -  33.373819,Δήμος Στροβόλου,https://corporate.e-jumbo.gr/en/stores-premises/
" Sibiu, Sibiu, Calea Surii Mari Nr.38B Sibiu, 55089",E Jumbo,Sibiu,Greece,"{'brand': 'E Jumbo', 'fascia': 'E Jumbo', 'category': 'Retail', 'edit_date': '2025-05-09', 'lat_lon_source': 'Website'}",45.822318, 24.144897,E Jumbo  Sibiu,"{'opening_hours': {'Mon': '10:00-21:00', 'Tue': '10:00-21:00', 'Wed': '10:00-21:00', 'Thu': '10:00-21:00', 'Fri': '10:00-21:00', 'Sat': '10:00-21:00', 'Sun': '10:00-21:00'}}",0040269200410 ,550098,45.822318 -  24.144897,Sibiu,https://corporate.e-jumbo.gr/en/stores-premises/
"Arad, Arad, Calea Radnei Nr. 298",E Jumbo,Arad,Greece,"{'brand': 'E Jumbo', 'fascia': 'E Jumbo', 'category': 'Retail', 'edit_date': '2025-05-09', 'lat_lon_source': 'Website'}",46.17006099936653, 21.38085155852362,E Jumbo Arad,"{'opening_hours': {'Mon': '10:00-21:00', 'Tue': '10:00-21:00', 'Wed': '10:00-21:00', 'Thu': '10:00-21:00', 'Fri': '10:00-21:00', 'Sat': '10:00-21:00', 'Sun': '10:00-21:00'}}",40257368500,310318,46.17006099936653 -  21.38085155852362,Arad,https://corporate.e-jumbo.gr/en/stores-premises/
"Bacau, Bacau, DN2, KM 280, Nr. 1251, Comuna Nicolae Balcescu, 607355",E Jumbo,Nicolae Bălcescu,Greece,"{'brand': 'E Jumbo', 'fascia': 'E Jumbo', 'category': 'Retail', 'edit_date': '2025-05-09', 'lat_lon_source': 'Website'}",46.50381345487987, 26.92651572132627,E Jumbo Bacau,"{'opening_hours': {'Mon': '10:00-21:00', 'Tue': '10:00-21:00', 'Wed': '10:00-21:00', 'Thu': '10:00-21:00', 'Fri': '10:00-21:00', 'Sat': '10:00-21:00', 'Sun': '10:00-21:00'}}",0040 234 204 800,600304,46.50381345487987 -  26.92651572132627,Bacău,https://corporate.e-jumbo.gr/en/stores-premises/
"Berceni, Bucuresti, Str. Drumul Dealul Bisericii Nr. 67-109, 042157",E Jumbo,București,Greece,"{'brand': 'E Jumbo', 'fascia': 'E Jumbo', 'category': 'Retail', 'edit_date': '2025-05-09', 'lat_lon_source': 'Website'}",44.36136091014824, 26.123926965339127,E Jumbo Berceni,"{'opening_hours': {'Mon': '10:00-21:00', 'Tue': '10:00-21:00', 'Wed': '10:00-21:00', 'Thu': '10:00-21:00', 'Fri': '10:00-21:00', 'Sat': '10:00-21:00', 'Sun': '10:00-21:00'}}",0040 214 065 200,042157,44.36136091014824 -  26.123926965339127,,https://corporate.e-jumbo.gr/en/stores-premises/
"Black Gold, Black Gold, Bul. Botevgradsko Shosse 525",E Jumbo,София,Greece,"{'brand': 'E Jumbo', 'fascia': 'E Jumbo', 'category': 'Retail', 'edit_date': '2025-05-09', 'lat_lon_source': 'Website'}",42.7074,23.4561,E Jumbo Black Gold,"{'opening_hours': {'Mon': '09:00-21:00', 'Tue': '09:00-21:00', 'Wed': '09:00-21:00', 'Thu': '09:00-21:00', 'Fri': '09:00-21:00', 'Sat': '09:00-21:00', 'Sun': '09:00-21:00'}}",0035928146301-2,1588,42.7074 - 23.4561,Кремиковци,https://corporate.e-jumbo.gr/en/stores-premises/
"Braila, Braila, Str. Transilvaniei nr. 1-5, 810058",E Jumbo,Brăila,Greece,"{'brand': 'E Jumbo', 'fascia': 'E Jumbo', 'category': 'Retail', 'edit_date': '2025-05-09', 'lat_lon_source': 'Website'}",45.27285665343992, 27.953966300001756,E Jumbo Braila,"{'opening_hours': {'Mon': '10:00-21:00', 'Tue': '10:00-21:00', 'Wed': '10:00-21:00', 'Thu': '10:00-21:00', 'Fri': '10:00-21:00', 'Sat': '10:00-21:00', 'Sun': '10:00-21:00'}}",0040 239 602 909,810075,45.27285665343992 -  27.953966300001756,Brăila,https://corporate.e-jumbo.gr/en/stores-premises/
"Brasov, Brasov, Calea Bucuresti Nr. 229 , 500299",E Jumbo,Brașov,Greece,"{'brand': 'E Jumbo', 'fascia': 'E Jumbo', 'category': 'Retail', 'edit_date': '2025-05-09', 'lat_lon_source': 'Website'}",45.62679777030687, 25.644321375252737,E Jumbo Brasov,"{'opening_hours': {'Mon': '10:00-21:00', 'Tue': '10:00-21:00', 'Wed': '10:00-21:00', 'Thu': '10:00-21:00', 'Fri': '10:00-21:00', 'Sat': '10:00-21:00', 'Sun': '10:00-21:00'}}",0040 268 401 601,500299,45.62679777030687 -  25.644321375252737,Brașov,https://corporate.e-jumbo.gr/en/stores-premises/
"Bucharest, Bucharest, Bucharest Sector 3 bd.Theodor Pallady nr.51",E Jumbo,București,Greece,"{'brand': 'E Jumbo', 'fascia': 'E Jumbo', 'category': 'Retail', 'edit_date': '2025-05-09', 'lat_lon_source': 'Website'}",44.4072720,26.2026930,E Jumbo Bucharest,"{'opening_hours': {'Mon': '00:00-00:00', 'Tue': '00:00-00:00', 'Wed': '00:00-00:00', 'Thu': '00:00-00:00', 'Fri': '00:00-00:00', 'Sat': '00:00-00:00', 'Sun': '00:00-00:00'}}",,032258,44.4072720 - 26.2026930,,https://corporate.e-jumbo.gr/en/stores-premises/
"Bulgaria Motopista, Sofia, Bulev. Bulgaria 51, Motopista, 1404",E Jumbo,София,Greece,"{'brand': 'E Jumbo', 'fascia': 'E Jumbo', 'category': 'Retail', 'edit_date': '2025-05-09', 'lat_lon_source': 'Website'}",42.666183,23.289421,E Jumbo Bulgaria Motopista,"{'opening_hours': {'Mon': '00:00-00:00', 'Tue': '00:00-00:00', 'Wed': '00:00-00:00', 'Thu': '00:00-00:00', 'Fri': '00:00-00:00', 'Sat': '00:00-00:00', 'Sun': '00:00-00:00'}}",,1404,42.666183 - 23.289421,Триадица,https://corporate.e-jumbo.gr/en/stores-premises/
"Burgas, 6km National Road Burgas-Sofia, interchange to Lukoil Neftohim",E Jumbo,Бургас,Greece,"{'brand': 'E Jumbo', 'fascia': 'E Jumbo', 'category': 'Retail', 'edit_date': '2025-05-09', 'lat_lon_source': 'Website'}",42.5667,27.4178,E Jumbo Burgas,"{'opening_hours': {'Mon': '09:00-21:00', 'Tue': '09:00-21:00', 'Wed': '09:00-21:00', 'Thu': '09:00-21:00', 'Fri': '09:00-21:00', 'Sat': '09:00-21:00', 'Sun': '09:00-21:00'}}",00359 56897101,8124,42.5667 - 27.4178,,https://corporate.e-jumbo.gr/en/stores-premises/
"Center, Bucuresti, Str. Progresului nr. 151-171, sector 5, 050696",E Jumbo,București,Greece,"{'brand': 'E Jumbo', 'fascia': 'E Jumbo', 'category': 'Retail', 'edit_date': '2025-05-09', 'lat_lon_source': 'Website'}",44.415753, 26.079003,E Jumbo Center,"{'opening_hours': {'Mon': '10:00-21:00', 'Tue': '10:00-21:00', 'Wed': '10:00-21:00', 'Thu': '10:00-21:00', 'Fri': '10:00-21:00', 'Sat': '10:00-21:00', 'Sun': '10:00-21:00'}}",004-0212006930,052069,44.415753 -  26.079003,,https://corporate.e-jumbo.gr/en/stores-premises/
"Constanta, Bulevardul Aurel Vlaicu Nr. 168, 900330",E Jumbo,Constanța,Greece,"{'brand': 'E Jumbo', 'fascia': 'E Jumbo', 'category': 'Retail', 'edit_date': '2025-05-09', 'lat_lon_source': 'Website'}",44.19160188765061, 28.59971874877014,E Jumbo Constanta,"{'opening_hours': {'Mon': '10:00-21:00', 'Tue': '10:00-21:00', 'Wed': '10:00-21:00', 'Thu': '10:00-21:00', 'Fri': '10:00-21:00', 'Sat': '10:00-21:00', 'Sun': '10:00-21:00'}}",0040 241 582 002,900330,44.19160188765061 -  28.59971874877014,Constanța,https://corporate.e-jumbo.gr/en/stores-premises/
"Craiova, Craiova, Calea Severinului Nr. 115, 200769",E Jumbo,Craiova,Greece,"{'brand': 'E Jumbo', 'fascia': 'E Jumbo', 'category': 'Retail', 'edit_date': '2025-05-09', 'lat_lon_source': 'Website'}",44.343656276955144, 23.75683710357517,E Jumbo Craiova,"{'opening_hours': {'Mon': '10:00-21:00', 'Tue': '10:00-21:00', 'Wed': '10:00-21:00', 'Thu': '10:00-21:00', 'Fri': '10:00-21:00', 'Sat': '10:00-21:00', 'Sun': '10:00-21:00'}}",0040 251 404 040,200769,44.343656276955144 -  23.75683710357517,Dolj,https://corporate.e-jumbo.gr/en/stores-premises/
"Europa, Bul. Slvnitsa 542B, Sofia",E Jumbo,София,Greece,"{'brand': 'E Jumbo', 'fascia': 'E Jumbo', 'category': 'Retail', 'edit_date': '2025-05-09', 'lat_lon_source': 'Website'}",42.7428,23.2332,E Jumbo Europa,"{'opening_hours': {'Mon': '09:00-21:00', 'Tue': '09:00-21:00', 'Wed': '09:00-21:00', 'Thu': '09:00-21:00', 'Fri': '09:00-21:00', 'Sat': '09:00-21:00', 'Sun': '09:00-21:00'}}",00359 29026101-2,1331,42.7428 - 23.2332,Връбница,https://corporate.e-jumbo.gr/en/stores-premises/
"Iasi, Iasi, Bulevaldul Socola , 700259",E Jumbo,Iași,Greece,"{'brand': 'E Jumbo', 'fascia': 'E Jumbo', 'category': 'Retail', 'edit_date': '2025-05-09', 'lat_lon_source': 'Website'}",47.1450870, 27.5964845,E Jumbo Iasi,"{'opening_hours': {'Mon': '10:00-21:00', 'Tue': '10:00-21:00', 'Wed': '10:00-21:00', 'Thu': '10:00-21:00', 'Fri': '10:00-21:00', 'Sat': '10:00-21:00', 'Sun': '10:00-21:00'}}",004-0232203750-59 ,700264,47.1450870 -  27.5964845,Iași,https://corporate.e-jumbo.gr/en/stores-premises/
"Militari, Bucuresti, Str. Comerțului Nr. 7-13, Domnești (West Park Retail), 077090",E Jumbo,Domnești,Greece,"{'brand': 'E Jumbo', 'fascia': 'E Jumbo', 'category': 'Retail', 'edit_date': '2025-05-09', 'lat_lon_source': 'Website'}",44.43370807355688, 25.95643015392044,E Jumbo Militari,"{'opening_hours': {'Mon': '10:00-21:00', 'Tue': '10:00-21:00', 'Wed': '10:00-21:00', 'Thu': '10:00-21:00', 'Fri': '10:00-21:00', 'Sat': '10:00-21:00', 'Sun': '10:00-21:00'}}",0040 212 021 360,077090,44.43370807355688 -  25.95643015392044,Ilfov,https://corporate.e-jumbo.gr/en/stores-premises/
"Motopista, Bulev. Bulgaria 51, Motopista, 1404",E Jumbo,София,Greece,"{'brand': 'E Jumbo', 'fascia': 'E Jumbo', 'category': 'Retail', 'edit_date': '2025-05-09', 'lat_lon_source': 'Website'}",42.6666,23.2894,E Jumbo Motopista,"{'opening_hours': {'Mon': '09:00-21:00', 'Tue': '09:00-21:00', 'Wed': '09:00-21:00', 'Thu': '09:00-21:00', 'Fri': '09:00-21:00', 'Sat': '09:00-21:00', 'Sun': '09:00-21:00'}}",00359 28056506,1404,42.6666 - 23.2894,Триадица,https://corporate.e-jumbo.gr/en/stores-premises/
"Oradea, Oradea, Str. Ogorului Nr. 173, 410554",E Jumbo,Oradea,Greece,"{'brand': 'E Jumbo', 'fascia': 'E Jumbo', 'category': 'Retail', 'edit_date': '2025-05-09', 'lat_lon_source': 'Website'}",47.046899538280435, 21.90700790000299,E Jumbo Oradea,"{'opening_hours': {'Mon': '10:00-21:00', 'Tue': '10:00-21:00', 'Wed': '10:00-21:00', 'Thu': '10:00-21:00', 'Fri': '10:00-21:00', 'Sat': '10:00-21:00', 'Sun': '10:00-21:00'}}",0040 259 401 150,410223,47.046899538280435 -  21.90700790000299,Bihor,https://corporate.e-jumbo.gr/en/stores-premises/
"Oradea 2 Episcopia , Oradea, Str. Suisului nr. 10A, 410018",E Jumbo,Oradea,Greece,"{'brand': 'E Jumbo', 'fascia': 'E Jumbo', 'category': 'Retail', 'edit_date': '2025-05-09', 'lat_lon_source': 'Website'}",47.11232991106535,21.892288854263782,E Jumbo Oradea 2 Episcopia ,"{'opening_hours': {'Mon': '10:00-21:00', 'Tue': '10:00-21:00', 'Wed': '10:00-21:00', 'Thu': '10:00-21:00', 'Fri': '10:00-21:00', 'Sat': '10:00-21:00', 'Sun': '10:00-21:00'}}",0040 259 404 110,410144,47.11232991106535 - 21.892288854263782,Bihor,https://corporate.e-jumbo.gr/en/stores-premises/
"Pallady, Bucuresti, B-dul Theodor Pallady Nr. 51 G, Sector 3, 032258",E Jumbo,București,Greece,"{'brand': 'E Jumbo', 'fascia': 'E Jumbo', 'category': 'Retail', 'edit_date': '2025-05-09', 'lat_lon_source': 'Website'}",44.40752261681948, 26.202539747713747,E Jumbo Pallady,"{'opening_hours': {'Mon': '10:00-21:00', 'Tue': '10:00-21:00', 'Wed': '10:00-21:00', 'Thu': '10:00-21:00', 'Fri': '10:00-21:00', 'Sat': '10:00-21:00', 'Sun': '10:00-21:00'}}","0040 217 804 561, 0040 217 804 562",032258,44.40752261681948 -  26.202539747713747,,https://corporate.e-jumbo.gr/en/stores-premises/
"Pitesti, Str. Constantin Dobrogeanu Gherea Nr. 1, Pitesti",E Jumbo,Pitești,Greece,"{'brand': 'E Jumbo', 'fascia': 'E Jumbo', 'category': 'Retail', 'edit_date': '2025-05-09', 'lat_lon_source': 'Website'}",44.88552153889685, 24.828401286506185,E Jumbo Pitesti,"{'opening_hours': {'Mon': '10:00-21:00', 'Tue': '10:00-21:00', 'Wed': '10:00-21:00', 'Thu': '10:00-21:00', 'Fri': '10:00-21:00', 'Sat': '10:00-21:00', 'Sun': '10:00-21:00'}}",0040 248 201 020,110104,44.88552153889685 -  24.828401286506185,Argeș,https://corporate.e-jumbo.gr/en/stores-premises/
"Ploiesti, Ploiesti, Str. Blejoi Nr. 1200, 107070",E Jumbo,Ploiești,Greece,"{'brand': 'E Jumbo', 'fascia': 'E Jumbo', 'category': 'Retail', 'edit_date': '2025-05-09', 'lat_lon_source': 'Website'}",44.94512809402552, 25.962756354373127,E Jumbo Ploiesti,"{'opening_hours': {'Mon': '10:00-21:00', 'Tue': '10:00-21:00', 'Wed': '10:00-21:00', 'Thu': '10:00-21:00', 'Fri': '10:00-21:00', 'Sat': '10:00-21:00', 'Sun': '10:00-21:00'}}",0040 244 406 810,107070,44.94512809402552 -  25.962756354373127,Prahova,https://corporate.e-jumbo.gr/en/stores-premises/
"Plovdiv, Kostievo vilage, Municipality of Maritza, Plovdiv Region 48th street No149 Ring road Plovdiv",E Jumbo,,Greece,"{'brand': 'E Jumbo', 'fascia': 'E Jumbo', 'category': 'Retail', 'edit_date': '2025-05-09', 'lat_lon_source': 'Website'}",42.1651,24.6765,E Jumbo Plovdiv,"{'opening_hours': {'Mon': '09:00-21:00', 'Tue': '09:00-21:00', 'Wed': '09:00-21:00', 'Thu': '09:00-21:00', 'Fri': '09:00-21:00', 'Sat': '09:00-21:00', 'Sun': '09:00-21:00'}}",00359 32 920101-2,4015,42.1651 - 24.6765,,https://corporate.e-jumbo.gr/en/stores-premises/
"Plovdiv, Plovdiv, Georgi Stranski 3, str. , 4000",E Jumbo,Пловдив,Greece,"{'brand': 'E Jumbo', 'fascia': 'E Jumbo', 'category': 'Retail', 'edit_date': '2025-05-09', 'lat_lon_source': 'Website'}",42.1445161,24.7800248,E Jumbo Plovdiv,"{'opening_hours': {'Mon': '00:00-00:00', 'Tue': '00:00-00:00', 'Wed': '00:00-00:00', 'Thu': '00:00-00:00', 'Fri': '00:00-00:00', 'Sat': '00:00-00:00', 'Sun': '00:00-00:00'}}",00359  32 229100,4006,42.1445161 - 24.7800248,,https://corporate.e-jumbo.gr/en/stores-premises/
"Russe, Karaach area, Sredna kula Location",E Jumbo,Русе,Greece,"{'brand': 'E Jumbo', 'fascia': 'E Jumbo', 'category': 'Retail', 'edit_date': '2025-05-09', 'lat_lon_source': 'Website'}",43.8046,25.9841,E Jumbo Russe,"{'opening_hours': {'Mon': '09:00-21:00', 'Tue': '09:00-21:00', 'Wed': '09:00-21:00', 'Thu': '09:00-21:00', 'Fri': '09:00-21:00', 'Sat': '09:00-21:00', 'Sun': '09:00-21:00'}}",00359 82299100,7075,43.8046 - 25.9841,,https://corporate.e-jumbo.gr/en/stores-premises/
"Stara Zagora, 52, Nikola Petkov str. Park Mall",E Jumbo,Стара Загора,Greece,"{'brand': 'E Jumbo', 'fascia': 'E Jumbo', 'category': 'Retail', 'edit_date': '2025-05-09', 'lat_lon_source': 'Website'}",42.4263266,25.6595272,E Jumbo Stara Zagora,"{'opening_hours': {'Mon': '09:00-21:00', 'Tue': '09:00-21:00', 'Wed': '09:00-21:00', 'Thu': '09:00-21:00', 'Fri': '09:00-21:00', 'Sat': '09:00-21:00', 'Sun': '09:00-21:00'}}",0035942612000,6009,42.4263266 - 25.6595272,,https://corporate.e-jumbo.gr/en/stores-premises/
"Suceava, Suceava, Str. Humorului Nr. 86, Comuna Șcheia, 727525",E Jumbo,Șcheia,Greece,"{'brand': 'E Jumbo', 'fascia': 'E Jumbo', 'category': 'Retail', 'edit_date': '2025-05-09', 'lat_lon_source': 'Website'}",47.65005896760688, 26.21364870796631,E Jumbo Suceava,"{'opening_hours': {'Mon': '10:00-21:00', 'Tue': '10:00-21:00', 'Wed': '10:00-21:00', 'Thu': '10:00-21:00', 'Fri': '10:00-21:00', 'Sat': '10:00-21:00', 'Sun': '10:00-21:00'}}",0040 230 207 090,727525,47.65005896760688 -  26.21364870796631,,https://corporate.e-jumbo.gr/en/stores-premises/
"Timisoara, Timisoara, Str. Aeroportului Nr. 86, Comuna Ghiroda, 307200",E Jumbo,Giarmata-Vii,Greece,"{'brand': 'E Jumbo', 'fascia': 'E Jumbo', 'category': 'Retail', 'edit_date': '2025-05-09', 'lat_lon_source': 'Website'}",45.78524874111307, 21.309379634657237,E Jumbo Timisoara,"{'opening_hours': {'Mon': '10:00-21:00', 'Tue': '10:00-21:00', 'Wed': '10:00-21:00', 'Thu': '10:00-21:00', 'Fri': '10:00-21:00', 'Sat': '10:00-21:00', 'Sun': '10:00-21:00'}}",0040 256 288 266,307201,45.78524874111307 -  21.309379634657237,Timiș,https://corporate.e-jumbo.gr/en/stores-premises/
"Timisoara, Timisoara, Calea Sagului 223, 307220",E Jumbo,Timișoara,Greece,"{'brand': 'E Jumbo', 'fascia': 'E Jumbo', 'category': 'Retail', 'edit_date': '2025-05-09', 'lat_lon_source': 'Website'}",45.72000232831167, 21.19806063170048,E Jumbo Timisoara,"{'opening_hours': {'Mon': '10:00-21:00', 'Tue': '10:00-21:00', 'Wed': '10:00-21:00', 'Thu': '10:00-21:00', 'Fri': '10:00-21:00', 'Sat': '10:00-21:00', 'Sun': '10:00-21:00'}}",0040 256288550,300516,45.72000232831167 -  21.19806063170048,Timiș,https://corporate.e-jumbo.gr/en/stores-premises/
"Tsarigradsko, Drujba-2 11, Obikolna str.",E Jumbo,София,Greece,"{'brand': 'E Jumbo', 'fascia': 'E Jumbo', 'category': 'Retail', 'edit_date': '2025-05-09', 'lat_lon_source': 'Website'}",42.6401,23.4121,E Jumbo Tsarigradsko,"{'opening_hours': {'Mon': '09:00-21:00', 'Tue': '09:00-21:00', 'Wed': '09:00-21:00', 'Thu': '09:00-21:00', 'Fri': '09:00-21:00', 'Sat': '09:00-21:00', 'Sun': '09:00-21:00'}}",00359 28926101,1582,42.6401 - 23.4121,Искър,https://corporate.e-jumbo.gr/en/stores-premises/
"Varna, Vladislav Varnenchik district 18, Konstantin i Frujin bulevard",E Jumbo,Варна,Greece,"{'brand': 'E Jumbo', 'fascia': 'E Jumbo', 'category': 'Retail', 'edit_date': '2025-05-09', 'lat_lon_source': 'Website'}",43.2292,27.8998,E Jumbo Varna,"{'opening_hours': {'Mon': '09:00-21:00', 'Tue': '09:00-21:00', 'Wed': '09:00-21:00', 'Thu': '09:00-21:00', 'Fri': '09:00-21:00', 'Sat': '09:00-21:00', 'Sun': '09:00-21:00'}}",00359 52529101,9025,43.2292 - 27.8998,Младост,https://corporate.e-jumbo.gr/en/stores-premises/
"Voluntari, Voluntari, Str. Școlii Nr. 7, 077190",E Jumbo,Voluntari,Greece,"{'brand': 'E Jumbo', 'fascia': 'E Jumbo', 'category': 'Retail', 'edit_date': '2025-05-09', 'lat_lon_source': 'Website'}",44.49273208732026, 26.19841940769565,E Jumbo Voluntari,"{'opening_hours': {'Mon': '10:00-21:00', 'Tue': '10:00-21:00', 'Wed': '10:00-21:00', 'Thu': '10:00-21:00', 'Fri': '10:00-21:00', 'Sat': '10:00-21:00', 'Sun': '10:00-21:00'}}",004 021 205 0010,077190,44.49273208732026 -  26.19841940769565,Ilfov,https://corporate.e-jumbo.gr/en/stores-premises/
