addr_full,brand,city,country,extras,lat,lon,name,opening_hours,phone,postcode,ref,state,website
"11ο χλμ Ε.Ο. Θεσ/κης Μουδανίων (Πυλαία) Θεσσαλονίκη, 57001, Θεσσαλονίκη - ",Intersport,Θεσσαλονίκη,Greece,"{'brand': 'Intersport', 'fascia': 'Intersport', 'category': 'Retail', 'edit_date': '2025-05-30', 'lat_lon_source': 'Third Party'}",40.55554299803811,22.99439376329517,Intersport Mediterranean Cosmos - Θεσσαλονίκη,"{'opening_hours': {'Mon': '10:00-21:00', 'Tue': '10:00-21:00', 'Wed': '10:00-21:00', 'Thu': '10:00-21:00', 'Fri': '10:00-21:00', 'Sat': '10:00-20:00'}}",,57001,880213,,https://www.intersport.gr/~880213
"Ave. Dodonis 21 Ioannina, 45221, Ioannina - ",Intersport,Ioannina,Greece,"{'brand': 'Intersport', 'fascia': 'Intersport', 'category': 'Retail', 'edit_date': '2025-05-30', 'lat_lon_source': 'Third Party'}",39.66176142091831,20.85187462608708,Intersport Ιωάννινα (Κέντρο),"{'opening_hours': {'Mon': '09:00-21:00', 'Tue': '09:00-21:00', 'Wed': '09:00-21:00', 'Thu': '09:00-21:00', 'Fri': '09:00-21:00', 'Sat': '09:00-20:00'}}",,45221,1223725,,https://www.intersport.gr/~1223725
"Leof. Mesogeion 429 Ag. Paraskevi, 15343, Athens - ",Intersport,Athens,Greece,"{'brand': 'Intersport', 'fascia': 'Intersport', 'category': 'Retail', 'edit_date': '2025-05-30', 'lat_lon_source': 'Third Party'}",38.013631510736595,23.81973959501625,Intersport Ag. Paraskevi,"{'opening_hours': {'Mon': '09:00-21:00', 'Tue': '09:00-21:00', 'Wed': '09:00-21:00', 'Thu': '09:00-21:00', 'Fri': '09:00-21:00', 'Sat': '09:00-20:00'}}",,15343,267937,,https://www.intersport.gr/~267937
"Leof. Vouliagmenis 276 Ag. Dimitrios, 17343, Athens - ",Intersport,Athens,Greece,"{'brand': 'Intersport', 'fascia': 'Intersport', 'category': 'Retail', 'edit_date': '2025-05-30', 'lat_lon_source': 'Third Party'}",37.93940074380014,23.740032933711777,Intersport Agios Dimitrios (Athens Metro Mall),"{'opening_hours': {'Mon': '09:00-21:00', 'Tue': '09:00-21:00', 'Wed': '09:00-21:00', 'Thu': '09:00-21:00', 'Fri': '09:00-21:00', 'Sat': '09:00-20:00'}}",,17343,267948,,https://www.intersport.gr/~267948
"Munincipal Road Char. Trikoupi & A-road Agriniou - Antirriou Agrinio, 30100, Agrinio - ",Intersport,Agrinio,Greece,"{'brand': 'Intersport', 'fascia': 'Intersport', 'category': 'Retail', 'edit_date': '2025-05-30', 'lat_lon_source': 'Third Party'}",38.6141617798101,21.411760960117263,Intersport Agrinio,"{'opening_hours': {'Mon': '09:00-21:00', 'Tue': '09:00-21:00', 'Wed': '09:00-21:00', 'Thu': '09:00-21:00', 'Fri': '09:00-21:00', 'Sat': '09:00-20:00'}}",,30100,267974,,https://www.intersport.gr/~267974
"Commercial Airport PArk Paiania, 19019, Spata - ",Intersport,Spata,Greece,"{'brand': 'Intersport', 'fascia': 'Intersport', 'category': 'Retail', 'edit_date': '2025-05-30', 'lat_lon_source': 'Third Party'}",37.925618882441725,23.92946681151353,Intersport Airport (IKEA building),"{'opening_hours': {'Mon': '10:00-21:00', 'Tue': '10:00-21:00', 'Wed': '10:00-21:00', 'Thu': '10:00-21:00', 'Fri': '10:00-21:00', 'Sat': '10:00-20:00', 'Sun': '11:00-20:00'}}",,19019,1104850,,https://www.intersport.gr/~1104850
"Athens International Airport – Airport Factory Outlet Spata, 19002, Athens - ",Intersport,Athens,Greece,"{'brand': 'Intersport', 'fascia': 'Intersport', 'category': 'Retail', 'edit_date': '2025-05-30', 'lat_lon_source': 'Third Party'}",37.92145376401559,23.927980129145663,Intersport Airport Factory Outlet ,"{'opening_hours': {'Mon': '10:00-21:00', 'Tue': '10:00-21:00', 'Wed': '10:00-21:00', 'Thu': '10:00-21:00', 'Fri': '10:00-21:00', 'Sat': '10:00-20:00', 'Sun': '11:00-20:00'}}",,19002,709167,,https://www.intersport.gr/~709167
"Leof. Dimokratias 1 Alexandroupoli, 68500, Alexandroupoli - ",Intersport,Alexandroupoli,Greece,"{'brand': 'Intersport', 'fascia': 'Intersport', 'category': 'Retail', 'edit_date': '2025-05-30', 'lat_lon_source': 'Third Party'}",40.84844629416775,25.88973632942913,Intersport Alexandroupoli,"{'opening_hours': {'Mon': '09:00-21:00', 'Tue': '09:00-21:00', 'Wed': '09:00-21:00', 'Thu': '09:00-21:00', 'Fri': '09:00-21:00', 'Sat': '09:00-20:00'}}",,68500,267960,,https://www.intersport.gr/~267960
"Leof. Pentelis 72 Chalandri, 15234, Athens - ",Intersport,Athens,Greece,"{'brand': 'Intersport', 'fascia': 'Intersport', 'category': 'Retail', 'edit_date': '2025-05-30', 'lat_lon_source': 'Third Party'}",38.026623089942056,23.811395129627876,Intersport Chalandri,"{'opening_hours': {'Mon': '09:00-21:00', 'Tue': '09:00-21:00', 'Wed': '09:00-21:00', 'Thu': '09:00-21:00', 'Fri': '09:00-21:00', 'Sat': '09:00-20:00'}}",,15234,880212,,https://www.intersport.gr/~880212
"G. Papandreou 3rd km N.R. Chalkidas-Edipsou Chalkida, 34100, Chalkida - ",Intersport,Chalkida,Greece,"{'brand': 'Intersport', 'fascia': 'Intersport', 'category': 'Retail', 'edit_date': '2025-05-30', 'lat_lon_source': 'Third Party'}",38.488378807963485,23.632065352235216,Intersport Chalkida,"{'opening_hours': {'Mon': '09:00-21:00', 'Tue': '09:00-21:00', 'Wed': '09:00-21:00', 'Thu': '09:00-21:00', 'Fri': '09:00-21:00', 'Sat': '09:00-20:00'}}",,34100,267958,,https://www.intersport.gr/~267958
"2nd km Old Road Chanion-Kissamou Periochi Parigorias (Chania), 73100, Chania - ",Intersport,Chania,Greece,"{'brand': 'Intersport', 'fascia': 'Intersport', 'category': 'Retail', 'edit_date': '2025-05-30', 'lat_lon_source': 'Third Party'}",35.50605130366306,23.996383953382136,Intersport Chania,"{'opening_hours': {'Mon': '09:00-21:00', 'Tue': '09:00-21:00', 'Wed': '09:00-21:00', 'Thu': '09:00-21:00', 'Fri': '09:00-21:00', 'Sat': '09:00-20:00', 'Sun': '11:00-19:00'}}",,73100,267966,,https://www.intersport.gr/~267966
"2nd km Ethnikis Odou Corfu- Palaiokastritsas Corfu, 49100, Corfu - ",Intersport,Corfu,Greece,"{'brand': 'Intersport', 'fascia': 'Intersport', 'category': 'Retail', 'edit_date': '2025-05-30', 'lat_lon_source': 'Third Party'}",39.62500746630494,19.89024508377599,Intersport Corfu,"{'opening_hours': {'Mon': '09:00-21:00', 'Tue': '09:00-21:00', 'Wed': '09:00-21:00', 'Thu': '09:00-21:00', 'Fri': '09:00-21:00', 'Sat': '09:00-20:00'}}",,49100,267970,,https://www.intersport.gr/~267970
"Ethnikis Adistaseos 78 Dafni, 17237, Athens - ",Intersport,Athens,Greece,"{'brand': 'Intersport', 'fascia': 'Intersport', 'category': 'Retail', 'edit_date': '2025-05-30', 'lat_lon_source': 'Third Party'}",37.950426285047854,23.738694756117383,Intersport Dafni,"{'opening_hours': {'Mon': '09:00-21:00', 'Tue': '09:00-21:00', 'Wed': '09:00-21:00', 'Thu': '09:00-21:00', 'Fri': '09:00-21:00', 'Sat': '09:00-20:00'}}",,17237,267938,,https://www.intersport.gr/~267938
"Patriarchou Dionysiou 13 Drama, 66100, Drama - ",Intersport,Drama,Greece,"{'brand': 'Intersport', 'fascia': 'Intersport', 'category': 'Retail', 'edit_date': '2025-05-30', 'lat_lon_source': 'Third Party'}",41.14701908906294,24.144995401766906,Intersport Drama,"{'opening_hours': {'Mon': '09:00-21:00', 'Tue': '09:00-21:00', 'Wed': '09:00-21:00', 'Thu': '09:00-21:00', 'Fri': '09:00-21:00', 'Sat': '09:00-20:00'}}",,66100,914834,,https://www.intersport.gr/~914834
"Leof. Kifisou 96-98 Egaleo, 12241, Athens - ",Intersport,Athens,Greece,"{'brand': 'Intersport', 'fascia': 'Intersport', 'category': 'Retail', 'edit_date': '2025-05-30', 'lat_lon_source': 'Third Party'}",37.9804342797398,23.679247990871506,Intersport Egaleo (River West Mall),"{'opening_hours': {'Mon': '09:00-21:00', 'Tue': '09:00-21:00', 'Wed': '09:00-21:00', 'Thu': '09:00-21:00', 'Fri': '09:00-21:00', 'Sat': '09:00-20:00'}}",,12241,267949,,https://www.intersport.gr/~267949
"Ermou 46 Athens, 10563, Athens - ",Intersport,Athens,Greece,"{'brand': 'Intersport', 'fascia': 'Intersport', 'category': 'Retail', 'edit_date': '2025-05-30', 'lat_lon_source': 'Third Party'}",37.9763677661816,23.729503388113432,Intersport Ermou - Athens,"{'opening_hours': {'Mon': '09:00-21:00', 'Tue': '09:00-21:00', 'Wed': '09:00-21:00', 'Thu': '09:00-21:00', 'Fri': '09:00-21:00', 'Sat': '09:00-20:00', 'Sun': '11:00-19:00'}}",,10563,666928,,https://www.intersport.gr/~666928
"226 Thivon Avenue & Parnassos Ag. Ioannis Rentis, 18233, Athens - ",Intersport,Athens,Greece,"{'brand': 'Intersport', 'fascia': 'Intersport', 'category': 'Retail', 'edit_date': '2025-05-30', 'lat_lon_source': 'Third Party'}",37.97489373201915,23.666587268590373,Intersport Football CLUB STORE Renti,"{'opening_hours': {'Mon': '09:00-21:00', 'Tue': '09:00-21:00', 'Wed': '09:00-21:00', 'Thu': '09:00-21:00', 'Fri': '09:00-21:00', 'Sat': '09:00-20:00'}}",,18233,1236179,,https://www.intersport.gr/~1236179
"Ave. Galatsiou 88 Galatsi, 11146, Athens - ",Intersport,Athens,Greece,"{'brand': 'Intersport', 'fascia': 'Intersport', 'category': 'Retail', 'edit_date': '2025-05-30', 'lat_lon_source': 'Third Party'}",38.01417349022,23.747326086506455,Intersport Galatsi,"{'opening_hours': {'Mon': '09:00-21:00', 'Tue': '09:00-21:00', 'Wed': '09:00-21:00', 'Thu': '09:00-21:00', 'Fri': '09:00-21:00', 'Sat': '09:00-20:00'}}",,11146,1199384,,https://www.intersport.gr/~1199384
"Leof. Marathonos 151 Gerakas, 15344, Athens - ",Intersport,Athens,Greece,"{'brand': 'Intersport', 'fascia': 'Intersport', 'category': 'Retail', 'edit_date': '2025-05-30', 'lat_lon_source': 'Third Party'}",38.007103168521084,23.86294155609989,Intersport Gerakas,"{'opening_hours': {'Mon': '09:00-21:00', 'Tue': '09:00-21:00', 'Wed': '09:00-21:00', 'Thu': '09:00-21:00', 'Fri': '09:00-21:00', 'Sat': '09:00-20:00'}}",,15344,267947,,https://www.intersport.gr/~267947
"Vouliagmenis 100 Glyfada, 16674, Athens - ",Intersport,Athens,Greece,"{'brand': 'Intersport', 'fascia': 'Intersport', 'category': 'Retail', 'edit_date': '2025-05-30', 'lat_lon_source': 'Third Party'}",37.868868308533855,23.759154792423935,Intersport Glyfada,"{'opening_hours': {'Mon': '09:00-21:00', 'Tue': '09:00-21:00', 'Wed': '09:00-21:00', 'Thu': '09:00-21:00', 'Fri': '09:00-21:00', 'Sat': '09:00-20:00', 'Sun': '11:00-19:00'}}",,16674,267932,,https://www.intersport.gr/~267932
"Mafsolou 2 & Balali & Anagenniseos Crete, 71601, Heraklion - ",Intersport,Heraklion,Greece,"{'brand': 'Intersport', 'fascia': 'Intersport', 'category': 'Retail', 'edit_date': '2025-05-30', 'lat_lon_source': 'Third Party'}",35.33520937370769,25.15851566434083,Intersport Heraklion,"{'opening_hours': {'Mon': '09:00-21:00', 'Tue': '09:00-21:00', 'Wed': '09:00-21:00', 'Thu': '09:00-21:00', 'Fri': '09:00-21:00', 'Sat': '09:00-20:00'}}",,71601,267967,,https://www.intersport.gr/~267967
"Psaromiligkon 2 &, Tagmatarchou Tzoulaki Crete, 71202, Heraklion - ",Intersport,Heraklion,Greece,"{'brand': 'Intersport', 'fascia': 'Intersport', 'category': 'Retail', 'edit_date': '2025-05-30', 'lat_lon_source': 'Third Party'}",35.33915302062573,25.1322668178701,Intersport Heraklion (City Center),"{'opening_hours': {'Mon': '09:00-21:00', 'Tue': '09:00-21:00', 'Wed': '09:00-21:00', 'Thu': '09:00-21:00', 'Fri': '09:00-21:00', 'Sat': '09:00-20:00'}}",,71202,267979,,https://www.intersport.gr/~267979
"An. Street 3, Escape Center Mall Ilion, 13122, Athens - ",Intersport,Athens,Greece,"{'brand': 'Intersport', 'fascia': 'Intersport', 'category': 'Retail', 'edit_date': '2025-05-30', 'lat_lon_source': 'Third Party'}",38.04324451420152,23.72434997144058,Intersport Ilion,"{'opening_hours': {'Mon': '09:00-21:00', 'Tue': '09:00-21:00', 'Wed': '09:00-21:00', 'Thu': '09:00-21:00', 'Fri': '09:00-21:00', 'Sat': '09:00-20:00'}}",,13122,267942,,https://www.intersport.gr/~267942
"13th km of National Road Ioanninon - Athinon at Commercial Top Park Ioannina, 45500, Ioannina - ",Intersport,Ioannina,Greece,"{'brand': 'Intersport', 'fascia': 'Intersport', 'category': 'Retail', 'edit_date': '2025-05-30', 'lat_lon_source': 'Third Party'}",39.55114948991604,20.870640315300694,Intersport Ioannina,"{'opening_hours': {'Mon': '09:00-21:00', 'Tue': '09:00-21:00', 'Wed': '09:00-21:00', 'Thu': '09:00-21:00', 'Fri': '09:00-21:00', 'Sat': '09:00-20:00'}}",,45500,267971,,https://www.intersport.gr/~267971
"Artemidos 130-134 Kalamata, 24100, Kalamata - ",Intersport,Kalamata,Greece,"{'brand': 'Intersport', 'fascia': 'Intersport', 'category': 'Retail', 'edit_date': '2025-05-30', 'lat_lon_source': 'Third Party'}",37.0367247,22.1056582,Intersport Kalamata,"{'opening_hours': {'Mon': '09:00-21:00', 'Tue': '09:00-21:00', 'Wed': '09:00-21:00', 'Thu': '09:00-21:00', 'Fri': '09:00-21:00', 'Sat': '09:00-20:00'}}",,24100,1083725,,https://www.intersport.gr/~1083725
"El. Venizelou 119 & Menelaou 93 Kallithea, 17672, Athens - ",Intersport,Athens,Greece,"{'brand': 'Intersport', 'fascia': 'Intersport', 'category': 'Retail', 'edit_date': '2025-05-30', 'lat_lon_source': 'Third Party'}",37.958571949647734,23.70607140318693,Intersport Kallithea,"{'opening_hours': {'Mon': '09:00-21:00', 'Tue': '09:00-21:00', 'Wed': '09:00-21:00', 'Thu': '09:00-21:00', 'Fri': '09:00-21:00', 'Sat': '09:00-20:00'}}",,17672,267978,,https://www.intersport.gr/~267978
"Irinis 42 Katerini, 60132, Katerini - ",Intersport,Katerini,Greece,"{'brand': 'Intersport', 'fascia': 'Intersport', 'category': 'Retail', 'edit_date': '2025-05-30', 'lat_lon_source': 'Third Party'}",40.269435102742776,22.514123798937966,Intersport Katerini,"{'opening_hours': {'Mon': '09:00-21:00', 'Tue': '09:00-21:00', 'Wed': '09:00-21:00', 'Thu': '09:00-21:00', 'Fri': '09:00-21:00', 'Sat': '09:00-20:00'}}",,60132,952702,,https://www.intersport.gr/~952702
"Damaskinou 29 & Dervenakion Korinthos, 20100, Korinthos - ",Intersport,Korinthos,Greece,"{'brand': 'Intersport', 'fascia': 'Intersport', 'category': 'Retail', 'edit_date': '2025-05-30', 'lat_lon_source': 'Third Party'}",37.9393479388929,22.935784914936573,Intersport Korinthos,"{'opening_hours': {'Mon': '09:00-21:00', 'Tue': '09:00-21:00', 'Wed': '09:00-21:00', 'Thu': '09:00-21:00', 'Fri': '09:00-21:00', 'Sat': '09:00-20:00'}}",,20100,856236,,https://www.intersport.gr/~856236
"Taxiarchon 33 Korydallos, 18120, Athens - ",Intersport,Athens,Greece,"{'brand': 'Intersport', 'fascia': 'Intersport', 'category': 'Retail', 'edit_date': '2025-05-30', 'lat_lon_source': 'Third Party'}",37.97811948338918,23.651352407107805,Intersport Korydallos,"{'opening_hours': {'Mon': '09:00-21:00', 'Tue': '09:00-21:00', 'Wed': '09:00-21:00', 'Thu': '09:00-21:00', 'Fri': '09:00-21:00', 'Sat': '09:00-20:00'}}",,18120,267976,,https://www.intersport.gr/~267976
"11th October, Gkertsiou & Smyrnis Kozani, 50100, Kozani - ",Intersport,Kozani,Greece,"{'brand': 'Intersport', 'fascia': 'Intersport', 'category': 'Retail', 'edit_date': '2025-05-30', 'lat_lon_source': 'Third Party'}",40.298931495815694,21.797057622162544,Intersport Kozani,"{'opening_hours': {'Mon': '09:00-21:00', 'Tue': '09:00-21:00', 'Wed': '09:00-21:00', 'Thu': '09:00-21:00', 'Fri': '09:00-21:00', 'Sat': '09:00-20:00'}}",,50100,267963,,https://www.intersport.gr/~267963
"End of Thermopylon, Against Lamia's Expo Lamia, 35100, Lamia - ",Intersport,Lamia,Greece,"{'brand': 'Intersport', 'fascia': 'Intersport', 'category': 'Retail', 'edit_date': '2025-05-30', 'lat_lon_source': 'Third Party'}",38.892903354869,22.445788720718188,Intersport Lamia,"{'opening_hours': {'Mon': '09:00-21:00', 'Tue': '09:00-21:00', 'Wed': '09:00-21:00', 'Thu': '09:00-21:00', 'Fri': '09:00-21:00', 'Sat': '09:00-20:00'}}",,35100,267959,,https://www.intersport.gr/~267959
"8th km ONR (Old Natioanl Road) Larisa - Athens Nikaia's Roundabout, 41500, Larisa - ",Intersport,Larisa,Greece,"{'brand': 'Intersport', 'fascia': 'Intersport', 'category': 'Retail', 'edit_date': '2025-05-30', 'lat_lon_source': 'Third Party'}",39.58086740031532,22.46971461965564,Intersport Larisa,"{'opening_hours': {'Mon': '09:00-21:00', 'Tue': '09:00-21:00', 'Wed': '09:00-21:00', 'Thu': '09:00-21:00', 'Fri': '09:00-21:00', 'Sat': '09:00-20:00'}}",,41500,267964,,https://www.intersport.gr/~267964
"Panagouli 19 & Papakyriazi Larisa, 41222, Larisa - ",Intersport,Larisa,Greece,"{'brand': 'Intersport', 'fascia': 'Intersport', 'category': 'Retail', 'edit_date': '2025-05-30', 'lat_lon_source': 'Third Party'}",39.63745493852321,22.419232973215273,Intersport Larisa (City Center),"{'opening_hours': {'Mon': '09:00-21:00', 'Tue': '09:00-21:00', 'Wed': '09:00-21:00', 'Thu': '09:00-21:00', 'Fri': '09:00-21:00', 'Sat': '09:00-20:00'}}",,41222,267953,,https://www.intersport.gr/~267953
"43 Georgikis Scholis Ave. Pylaia Thessaloniki, 55535, Thessaloniki - ",Intersport,Thessaloniki,Greece,"{'brand': 'Intersport', 'fascia': 'Intersport', 'category': 'Retail', 'edit_date': '2025-05-30', 'lat_lon_source': 'Third Party'}",40.563159704368026,22.976485066636606,Intersport Mega Outlet - Thessaloniki,"{'opening_hours': {'Mon': '10:00-21:00', 'Tue': '10:00-21:00', 'Wed': '10:00-21:00', 'Thu': '10:00-21:00', 'Fri': '10:00-21:00', 'Sat': '10:00-20:00'}}",,55535,880209,,https://www.intersport.gr/~880209
"Parnithos & Spartis 28 Menidi, 13678, Athens - ",Intersport,Athens,Greece,"{'brand': 'Intersport', 'fascia': 'Intersport', 'category': 'Retail', 'edit_date': '2025-05-30', 'lat_lon_source': 'Third Party'}",38.092471797369555,23.738409212924847,Intersport Menidi,"{'opening_hours': {'Mon': '09:00-21:00', 'Tue': '09:00-21:00', 'Wed': '09:00-21:00', 'Thu': '09:00-21:00', 'Fri': '09:00-21:00', 'Sat': '09:00-20:00'}}",,13678,267945,,https://www.intersport.gr/~267945
"1st kml Mytilene-Kalloni Mytilene, 81100, Mytilene - ",Intersport,Mytilene,Greece,"{'brand': 'Intersport', 'fascia': 'Intersport', 'category': 'Retail', 'edit_date': '2025-05-30', 'lat_lon_source': 'Third Party'}",39.11005093186204,26.52945116320119,Intersport Mytilene,"{'opening_hours': {'Mon': '09:00-21:00', 'Tue': '09:00-21:00', 'Wed': '09:00-21:00', 'Thu': '09:00-21:00', 'Fri': '09:00-21:00', 'Sat': '09:00-20:00'}}",,81100,1091994,,https://www.intersport.gr/~1091994
"Charilaou Trikoupi 154 N. Erythraia, 14671, Athens - ",Intersport,Athens,Greece,"{'brand': 'Intersport', 'fascia': 'Intersport', 'category': 'Retail', 'edit_date': '2025-05-30', 'lat_lon_source': 'Third Party'}",38.08870232961502,23.814318307034217,Intersport Nea Erythraia,"{'opening_hours': {'Mon': '09:00-21:00', 'Tue': '09:00-21:00', 'Wed': '09:00-21:00', 'Thu': '09:00-21:00', 'Fri': '09:00-21:00', 'Sat': '09:00-20:00'}}",,14671,267933,,https://www.intersport.gr/~267933
"Antigonis 3, Ιsminis & Ifigenias Nea Ionia, 14122, Athens - ",Intersport,Athens,Greece,"{'brand': 'Intersport', 'fascia': 'Intersport', 'category': 'Retail', 'edit_date': '2025-05-30', 'lat_lon_source': 'Third Party'}",38.0476007578523,23.75830531576014,Intersport Nea Ionia,"{'opening_hours': {'Mon': '09:00-21:00', 'Tue': '09:00-21:00', 'Wed': '09:00-21:00', 'Thu': '09:00-21:00', 'Fri': '09:00-21:00', 'Sat': '09:00-20:00'}}",,14122,267934,,https://www.intersport.gr/~267934
"Par. Leoforou Kifisou 60 Peristeri, 10442, Athens - ",Intersport,Athens,Greece,"{'brand': 'Intersport', 'fascia': 'Intersport', 'category': 'Retail', 'edit_date': '2025-05-30', 'lat_lon_source': 'Third Party'}",38.00023939560992,23.703937760293584,Intersport Outlet Kifisos,"{'opening_hours': {'Mon': '09:00-21:00', 'Tue': '09:00-21:00', 'Wed': '09:00-21:00', 'Thu': '09:00-21:00', 'Fri': '09:00-21:00', 'Sat': '09:00-20:00', 'Sun': '11:00-19:00'}}",,10442,707785,,https://www.intersport.gr/~707785
"Chremonidou 55 Pagrati, 11633, Athens - ",Intersport,Athens,Greece,"{'brand': 'Intersport', 'fascia': 'Intersport', 'category': 'Retail', 'edit_date': '2025-05-30', 'lat_lon_source': 'Third Party'}",37.96479269935825,23.751370228649094,Intersport Pagrati,"{'opening_hours': {'Mon': '09:00-21:00', 'Tue': '09:00-21:00', 'Wed': '09:00-21:00', 'Thu': '09:00-21:00', 'Fri': '09:00-21:00', 'Sat': '09:00-20:00'}}",,11633,1009209,,https://www.intersport.gr/~1009209
"El. Venizelou 198-200 P. Faliro, 17563, Athens - ",Intersport,Athens,Greece,"{'brand': 'Intersport', 'fascia': 'Intersport', 'category': 'Retail', 'edit_date': '2025-05-30', 'lat_lon_source': 'Third Party'}",37.92942576090117,23.709461132814592,Intersport Palaio Faliro,"{'opening_hours': {'Mon': '09:00-21:00', 'Tue': '09:00-21:00', 'Wed': '09:00-21:00', 'Thu': '09:00-21:00', 'Fri': '09:00-21:00', 'Sat': '09:00-20:00'}}",,17563,267935,,https://www.intersport.gr/~267935
"Panormou 68 Ampelokipoi, 11523, Athens - ",Intersport,Athens,Greece,"{'brand': 'Intersport', 'fascia': 'Intersport', 'category': 'Retail', 'edit_date': '2025-05-30', 'lat_lon_source': 'Third Party'}",37.9928159099652,23.762067804485564,Intersport Panormou,"{'opening_hours': {'Mon': '09:00-21:00', 'Tue': '09:00-21:00', 'Wed': '09:00-21:00', 'Thu': '09:00-21:00', 'Fri': '09:00-21:00', 'Sat': '09:00-20:00'}}",,11523,267977,,https://www.intersport.gr/~267977
"Ermou 44 Patra, 26221, Patra - ",Intersport,Patra,Greece,"{'brand': 'Intersport', 'fascia': 'Intersport', 'category': 'Retail', 'edit_date': '2025-05-30', 'lat_lon_source': 'Third Party'}",38.247449227653455,21.7352278919341,Intersport Patra (City Center),"{'opening_hours': {'Mon': '09:00-21:00', 'Tue': '09:00-21:00', 'Wed': '09:00-21:00', 'Thu': '09:00-21:00', 'Fri': '09:00-21:00', 'Sat': '09:00-20:00'}}",,26221,267981,,https://www.intersport.gr/~267981
"Glafkou 9 Perivola - Carefour Mall Center Patra, 26221, Patra - ",Intersport,Patra,Greece,"{'brand': 'Intersport', 'fascia': 'Intersport', 'category': 'Retail', 'edit_date': '2025-05-30', 'lat_lon_source': 'Third Party'}",38.20956967432209,21.763480966550468,Intersport Patra (Patra Mall),"{'opening_hours': {'Mon': '09:00-21:00', 'Tue': '09:00-21:00', 'Wed': '09:00-21:00', 'Thu': '09:00-21:00', 'Fri': '09:00-21:00', 'Sat': '09:00-20:00'}}",,26221,267954,,https://www.intersport.gr/~267954
"Ethnikis Adistaseos 65 Peristeri, 12134, Athens - ",Intersport,Athens,Greece,"{'brand': 'Intersport', 'fascia': 'Intersport', 'category': 'Retail', 'edit_date': '2025-05-30', 'lat_lon_source': 'Third Party'}",38.01330918303984,23.690365944828173,Intersport Peristeri,"{'opening_hours': {'Mon': '09:00-21:00', 'Tue': '09:00-21:00', 'Wed': '09:00-21:00', 'Thu': '09:00-21:00', 'Fri': '09:00-21:00', 'Sat': '09:00-20:00'}}",,12134,773956,,https://www.intersport.gr/~773956
"P. Ralli 97 (Sklavenitis Mall Center) Ag. Ioan. Renti, 18233, Athens - ",Intersport,Athens,Greece,"{'brand': 'Intersport', 'fascia': 'Intersport', 'category': 'Retail', 'edit_date': '2025-05-30', 'lat_lon_source': 'Third Party'}",37.974984801614504,23.6724556720317,Intersport Petrou Ralli (Sklavenitis Mall Center),"{'opening_hours': {'Mon': '09:00-21:00', 'Tue': '09:00-21:00', 'Wed': '09:00-21:00', 'Thu': '09:00-21:00', 'Fri': '09:00-21:00', 'Sat': '09:00-20:00'}}",,18233,267936,,https://www.intersport.gr/~267936
"Ethn. Adistaseos 25-27 Piraeus, 18531, Piraeus - ",Intersport,Piraeus,Greece,"{'brand': 'Intersport', 'fascia': 'Intersport', 'category': 'Retail', 'edit_date': '2025-05-30', 'lat_lon_source': 'Third Party'}",37.94665587453629,23.646289418354456,Intersport Piraeus,"{'opening_hours': {'Mon': '09:00-21:00', 'Tue': '09:00-21:00', 'Wed': '09:00-21:00', 'Thu': '09:00-21:00', 'Fri': '09:00-21:00', 'Sat': '09:00-20:00'}}",,18531,267946,,https://www.intersport.gr/~267946
"Pireos 161 & Flemingk Pireos, 18233, Athens - ",Intersport,Athens,Greece,"{'brand': 'Intersport', 'fascia': 'Intersport', 'category': 'Retail', 'edit_date': '2025-05-30', 'lat_lon_source': 'Third Party'}",37.95472984767145,23.671651675007872,Intersport Pireos - Agios Ioannis Renti,"{'opening_hours': {'Mon': '09:00-21:00', 'Tue': '09:00-21:00', 'Wed': '09:00-21:00', 'Thu': '09:00-21:00', 'Fri': '09:00-21:00', 'Sat': '09:00-20:00'}}",,18233,880211,,https://www.intersport.gr/~880211
"11th km N.R Thes/nikis Aerodromiou (Pylaia) Pylaia, 57001, Thessaloniki - ",Intersport,Thessaloniki,Greece,"{'brand': 'Intersport', 'fascia': 'Intersport', 'category': 'Retail', 'edit_date': '2025-05-30', 'lat_lon_source': 'Third Party'}",40.551482122577404,22.983811972271592,Intersport Pylaia - Thessaloniki,"{'opening_hours': {'Mon': '09:00-21:00', 'Tue': '09:00-21:00', 'Wed': '09:00-21:00', 'Thu': '09:00-21:00', 'Fri': '09:00-21:00', 'Sat': '09:00-20:00'}}",,57001,267951,,https://www.intersport.gr/~267951
"Leoforos P.Kountourioti 158 & G.Chortatzi Crete, 74100, Rethimno - ",Intersport,Rethimno,Greece,"{'brand': 'Intersport', 'fascia': 'Intersport', 'category': 'Retail', 'edit_date': '2025-05-30', 'lat_lon_source': 'Third Party'}",35.36567163830784,24.480682744240102,Intersport Rethimno,"{'opening_hours': {'Mon': '09:00-21:00', 'Tue': '09:00-21:00', 'Wed': '09:00-21:00', 'Thu': '09:00-21:00', 'Fri': '09:00-21:00', 'Sat': '09:00-20:00'}}",,74100,267980,,https://www.intersport.gr/~267980
"5th km Leof. Rhodes-Lindou Rhodes, 85100, Rhodes - ",Intersport,Rhodes,Greece,"{'brand': 'Intersport', 'fascia': 'Intersport', 'category': 'Retail', 'edit_date': '2025-05-30', 'lat_lon_source': 'Third Party'}",36.40615673002326,28.206014029412835,Intersport Rhodes,"{'opening_hours': {'Mon': '09:00-21:00', 'Tue': '09:00-21:00', 'Wed': '09:00-21:00', 'Thu': '09:00-21:00', 'Fri': '09:00-21:00', 'Sat': '09:00-20:00'}}",,85100,267968,,https://www.intersport.gr/~267968
"Venizelou & Ithaca 1 Serres, 62125, Serres - ",Intersport,Serres,Greece,"{'brand': 'Intersport', 'fascia': 'Intersport', 'category': 'Retail', 'edit_date': '2025-05-30', 'lat_lon_source': 'Third Party'}",41.08761081012497,23.539578981955565,Intersport Serres,"{'opening_hours': {'Mon': '09:00-21:00', 'Tue': '09:00-21:00', 'Wed': '09:00-21:00', 'Thu': '09:00-21:00', 'Fri': '09:00-21:00', 'Sat': '09:00-20:00'}}",,62125,952701,,https://www.intersport.gr/~952701
"Gyalou Spata Attikis - E.Poulaki Street (Smart Park) Spata, 19004, Athens - ",Intersport,Athens,Greece,"{'brand': 'Intersport', 'fascia': 'Intersport', 'category': 'Retail', 'edit_date': '2025-05-30', 'lat_lon_source': 'Third Party'}",37.98483494406797,23.914818129134243,Intersport Spata (Smart Park),"{'opening_hours': {'Mon': '10:00-21:00', 'Tue': '10:00-21:00', 'Wed': '10:00-21:00', 'Thu': '10:00-21:00', 'Fri': '10:00-21:00', 'Sat': '09:00-20:00', 'Sun': '11:00-20:00'}}",,19004,267950,,https://www.intersport.gr/~267950
"Stadiou 23 Stadiou, 10561, Athens - ",Intersport,Athens,Greece,"{'brand': 'Intersport', 'fascia': 'Intersport', 'category': 'Retail', 'edit_date': '2025-05-30', 'lat_lon_source': 'Third Party'}",37.979216068928295,23.732193432595103,Intersport Stadiou - Athens,"{'opening_hours': {'Mon': '09:00-21:00', 'Tue': '09:00-21:00', 'Wed': '09:00-21:00', 'Thu': '09:00-21:00', 'Fri': '09:00-21:00', 'Sat': '09:00-20:00'}}",,10561,467341,,https://www.intersport.gr/~467341
"Lagkada 341 & V. Tsitsani Stauroupoli, 56430, Thessaloniki - ",Intersport,Thessaloniki,Greece,"{'brand': 'Intersport', 'fascia': 'Intersport', 'category': 'Retail', 'edit_date': '2025-05-30', 'lat_lon_source': 'Third Party'}",40.67521780997696,22.938499003617448,Intersport Stauroupoli - Thessaloniki,"{'opening_hours': {'Mon': '09:00-21:00', 'Tue': '09:00-21:00', 'Wed': '09:00-21:00', 'Thu': '09:00-21:00', 'Fri': '09:00-21:00', 'Sat': '09:00-20:00'}}",,56430,267962,,https://www.intersport.gr/~267962
"Andrea Papandreou 35 Marousi, 15122, Athens - ",Intersport,Athens,Greece,"{'brand': 'Intersport', 'fascia': 'Intersport', 'category': 'Retail', 'edit_date': '2025-05-30', 'lat_lon_source': 'Third Party'}",38.04523836956515,23.79014507381476,Intersport The Mall Athens,"{'opening_hours': {'Mon': '10:00-21:00', 'Tue': '10:00-21:00', 'Wed': '10:00-21:00', 'Thu': '10:00-21:00', 'Fri': '10:00-21:00', 'Sat': '10:00-20:00'}}",,15122,267943,,https://www.intersport.gr/~267943
"Themistokleous 3 Athens, 10677, Athens - ",Intersport,Athens,Greece,"{'brand': 'Intersport', 'fascia': 'Intersport', 'category': 'Retail', 'edit_date': '2025-05-30', 'lat_lon_source': 'Third Party'}",37.98411496932489,23.730286575997713,Intersport Themistokleous - Athens,"{'opening_hours': {'Mon': '09:00-21:00', 'Tue': '09:00-21:00', 'Wed': '09:00-21:00', 'Thu': '09:00-21:00', 'Fri': '09:00-21:00', 'Sat': '09:00-20:00'}}",,10677,267941,,https://www.intersport.gr/~267941
"Grigoriou Lampraki 189 Toumpa Toumpa, 54352, Thessaloniki - ",Intersport,Thessaloniki,Greece,"{'brand': 'Intersport', 'fascia': 'Intersport', 'category': 'Retail', 'edit_date': '2025-05-30', 'lat_lon_source': 'Third Party'}",40.6128146966659,22.982658636364864,Intersport Toumpa - Thessaloniki,"{'opening_hours': {'Mon': '09:00-21:00', 'Tue': '09:00-21:00', 'Wed': '09:00-21:00', 'Thu': '09:00-21:00', 'Fri': '09:00-21:00', 'Sat': '09:00-20:00'}}",,54352,267952,,https://www.intersport.gr/~267952
"Vasiliou Tsitsani 33 Trikala, 42100, Trikala - ",Intersport,Trikala,Greece,"{'brand': 'Intersport', 'fascia': 'Intersport', 'category': 'Retail', 'edit_date': '2025-05-30', 'lat_lon_source': 'Third Party'}",39.55531871998081,21.77108177491385,Intersport Trikala,"{'opening_hours': {'Mon': '09:00-21:00', 'Tue': '09:00-21:00', 'Wed': '09:00-21:00', 'Thu': '09:00-21:00', 'Fri': '09:00-21:00', 'Sat': '09:00-20:00'}}",,42100,267975,,https://www.intersport.gr/~267975
"Tsimiski 90 Tsimiski, 54621, Thessaloniki - ",Intersport,Thessaloniki,Greece,"{'brand': 'Intersport', 'fascia': 'Intersport', 'category': 'Retail', 'edit_date': '2025-05-30', 'lat_lon_source': 'Third Party'}",40.630460783009894,22.946572286345486,Intersport Tsimiski - Thessaloniki,"{'opening_hours': {'Mon': '09:00-21:00', 'Tue': '09:00-21:00', 'Wed': '09:00-21:00', 'Thu': '09:00-21:00', 'Fri': '09:00-21:00', 'Sat': '09:00-20:00', 'Sun': '11:00-19:00'}}",,54621,267969,,https://www.intersport.gr/~267969
"Leof. Varis 60 Vari, 16672, Athens - ",Intersport,Athens,Greece,"{'brand': 'Intersport', 'fascia': 'Intersport', 'category': 'Retail', 'edit_date': '2025-05-30', 'lat_lon_source': 'Third Party'}",37.83404522795203,23.798144941304805,Intersport Vari,"{'opening_hours': {'Mon': '09:00-21:00', 'Tue': '09:00-21:00', 'Wed': '09:00-21:00', 'Thu': '09:00-21:00', 'Fri': '09:00-21:00', 'Sat': '09:00-20:00'}}",,16672,267944,,https://www.intersport.gr/~267944
"Dimitriados 63 Volos, 38333, Volos - ",Intersport,Volos,Greece,"{'brand': 'Intersport', 'fascia': 'Intersport', 'category': 'Retail', 'edit_date': '2025-05-30', 'lat_lon_source': 'Third Party'}",39.362150607882,22.94394639862219,Intersport Volos,"{'opening_hours': {'Mon': '09:00-21:00', 'Tue': '09:00-21:00', 'Wed': '09:00-21:00', 'Thu': '09:00-21:00', 'Fri': '09:00-21:00', 'Sat': '09:00-20:00'}}",,38333,267956,,https://www.intersport.gr/~267956
"Michail Karaoli & Elpidos Xanthi, 67100, Xanthi - ",Intersport,Xanthi,Greece,"{'brand': 'Intersport', 'fascia': 'Intersport', 'category': 'Retail', 'edit_date': '2025-05-30', 'lat_lon_source': 'Third Party'}",41.13764558887791,24.88944691531738,Intersport Xanthi,"{'opening_hours': {'Mon': '09:00-18:00', 'Tue': '09:00-21:00', 'Wed': '09:00-21:00', 'Thu': '09:00-21:00', 'Sun': '11:00-20:00'}}",,67100,267961,,https://www.intersport.gr/~267961
"Oulof Palme 38 Zografou, 15771, Athens - ",Intersport,Athens,Greece,"{'brand': 'Intersport', 'fascia': 'Intersport', 'category': 'Retail', 'edit_date': '2025-05-30', 'lat_lon_source': 'Third Party'}",37.978323339595995,23.76261556755575,Intersport Zografou,"{'opening_hours': {'Mon': '09:00-21:00', 'Tue': '09:00-21:00', 'Wed': '09:00-21:00', 'Thu': '09:00-21:00', 'Fri': '09:00-21:00', 'Sat': '09:00-20:00'}}",,15771,267973,,https://www.intersport.gr/~267973
