addr_full,brand,city,country,extras,lat,lon,name,opening_hours,phone,postcode,ref,state,website
서울 강동구 고덕비즈밸리로 51 3층,Shoemarker,강동구,South Korea,"{'brand': 'Shoemarker', 'fascia': 'Shoemarker', 'category': 'Retail', 'edit_date': '20250503', 'lat_lon_source': 'Third Party'}",37.5666602103625,127.157332910007,,"{'opening_hours': {'Mon': '00:00-23:59', 'Tue': '00:00-23:59', 'Wed': '00:00-23:59', 'Thu': '00:00-23:59', 'Fri': '00:00-23:59', 'Sat': '00:00-23:59', 'Sun': '00:00-23:59'}}",02-6463-8082,05203,37.5666602103625-127.157332910007,서울,https://www.shoemarker.co.kr/ASP/Customer/Ajax/StoreView.asp?Page=
서울 광진구 아차산로 262 스타시티몰 1층,Shoemarker,광진구,South Korea,"{'brand': 'Shoemarker', 'fascia': 'Shoemarker', 'category': 'Retail', 'edit_date': '20250503', 'lat_lon_source': 'Third Party'}",37.5370016363785,127.072962760454,,"{'opening_hours': {'Mon': '00:00-23:59', 'Tue': '00:00-23:59', 'Wed': '00:00-23:59', 'Thu': '00:00-23:59', 'Fri': '00:00-23:59', 'Sat': '00:00-23:59', 'Sun': '00:00-23:59'}}",02-3436-2809,05065,37.5370016363785-127.072962760454,서울,https://www.shoemarker.co.kr/ASP/Customer/Ajax/StoreView.asp?Page=
대구 중구 동성로6길 31 1층 플러스동성로점,Shoemarker,중구,South Korea,"{'brand': 'Shoemarker', 'fascia': 'Shoemarker', 'category': 'Retail', 'edit_date': '20250503', 'lat_lon_source': 'Third Party'}",35.86895187962,128.597128697096,,"{'opening_hours': {'Mon': '00:00-23:59', 'Tue': '00:00-23:59', 'Wed': '00:00-23:59', 'Thu': '00:00-23:59', 'Fri': '00:00-23:59', 'Sat': '00:00-23:59', 'Sun': '00:00-23:59'}}",053-256-5760,41938,35.86895187962-128.597128697096,대구,https://www.shoemarker.co.kr/ASP/Customer/Ajax/StoreView.asp?Page=
서울 종로구 대명길 9 1층 플러스대학로점,Shoemarker,종로구,South Korea,"{'brand': 'Shoemarker', 'fascia': 'Shoemarker', 'category': 'Retail', 'edit_date': '20250503', 'lat_lon_source': 'Third Party'}",37.583376138945,127.000958936342,,"{'opening_hours': {'Mon': '평일,휴일11:00-22:00', 'Tue': '평일,휴일11:00-22:00', 'Wed': '평일,휴일11:00-22:00', 'Thu': '평일,휴일11:00-22:00', 'Fri': '평일,휴일11:00-22:00', 'Sat': '평일,휴일11:00-22:00', 'Sun': '평일,휴일11:00-22:00'}}",02-745-2809,03078,37.583376138945-127.000958936342,서울,https://www.shoemarker.co.kr/ASP/Customer/Ajax/StoreView.asp?Page=
경기 성남시 분당구 서현로210번길 20 1층 슈마커플러스,Shoemarker,성남시 분당구,South Korea,"{'brand': 'Shoemarker', 'fascia': 'Shoemarker', 'category': 'Retail', 'edit_date': '20250503', 'lat_lon_source': 'Third Party'}",37.3858574301594,127.12403697062,,"{'opening_hours': {'Mon': '11:00 - 22:00', 'Tue': '11:00 - 22:00', 'Wed': '11:00 - 22:00', 'Thu': '11:00 - 22:00', 'Fri': '11:00 - 22:00', 'Sat': '11:00 - 22:00', 'Sun': '11:00 - 22:00'}}",031-724-0445,13591,37.3858574301594-127.12403697062,경기,https://www.shoemarker.co.kr/ASP/Customer/Ajax/StoreView.asp?Page=
경기 오산시 경기대로 822-22 모다아울렛 B1층 슈마커,Shoemarker,오산시,South Korea,"{'brand': 'Shoemarker', 'fascia': 'Shoemarker', 'category': 'Retail', 'edit_date': '20250503', 'lat_lon_source': 'Third Party'}",37.1919121892966,127.046360709612,오산모다점,"{'opening_hours': {'Mon': '평일 10:30-20:30, 주말 10:30-21:00', 'Tue': '평일 10:30-20:30, 주말 10:30-21:00', 'Wed': '평일 10:30-20:30, 주말 10:30-21:00', 'Thu': '평일 10:30-20:30, 주말 10:30-21:00', 'Fri': '평일 10:30-20:30, 주말 10:30-21:00', 'Sat': '평일 10:30-20:30, 주말 10:30-21:00', 'Sun': '평일 10:30-20:30, 주말 10:30-21:00'}}",031-8050-2809,18111,37.1919121892966-127.046360709612,경기,https://www.shoemarker.co.kr/ASP/Customer/Ajax/StoreView.asp?Page=
"경기 화성시 봉담읍 삼천병마로 1047-6 트레보시티 아울렛 A동105호,106호 슈마커",Shoemarker,화성시,South Korea,"{'brand': 'Shoemarker', 'fascia': 'Shoemarker', 'category': 'Retail', 'edit_date': '20250503', 'lat_lon_source': 'Third Party'}",37.2005128470099,126.940751360952,화성트레보시티점,"{'opening_hours': {'Mon': '평일, 휴일 10:30 - 21:00', 'Tue': '평일, 휴일 10:30 - 21:00', 'Wed': '평일, 휴일 10:30 - 21:00', 'Thu': '평일, 휴일 10:30 - 21:00', 'Fri': '평일, 휴일 10:30 - 21:00', 'Sat': '평일, 휴일 10:30 - 21:00', 'Sun': '평일, 휴일 10:30 - 21:00'}}",031-291-2809,18332,37.2005128470099-126.940751360952,경기,https://www.shoemarker.co.kr/ASP/Customer/Ajax/StoreView.asp?Page=
서울 중구 명동길 26 유네스코회관 1층 슈마커 플러스 명동점,Shoemarker,중구,South Korea,"{'brand': 'Shoemarker', 'fascia': 'Shoemarker', 'category': 'Retail', 'edit_date': '20250503', 'lat_lon_source': 'Third Party'}",37.5634574532023,126.983764788709,,"{'opening_hours': {'Mon': '평일.휴일11:00-22:00', 'Tue': '평일.휴일11:00-22:00', 'Wed': '평일.휴일11:00-22:00', 'Thu': '평일.휴일11:00-22:00', 'Fri': '평일.휴일11:00-22:00', 'Sat': '평일.휴일11:00-22:00', 'Sun': '평일.휴일11:00-22:00'}}",02-752-2809,04536,37.5634574532023-126.983764788709,서울,https://www.shoemarker.co.kr/ASP/Customer/Ajax/StoreView.asp?Page=
인천 연수구 청능대로 210 인천스퀘어원 3층,Shoemarker,연수구,South Korea,"{'brand': 'Shoemarker', 'fascia': 'Shoemarker', 'category': 'Retail', 'edit_date': '20250503', 'lat_lon_source': 'Third Party'}",37.4059981630337,126.683622060373,,"{'opening_hours': {'Mon': '평일,주말 11:00 - 22:00', 'Tue': '평일,주말 11:00 - 22:00', 'Wed': '평일,주말 11:00 - 22:00', 'Thu': '평일,주말 11:00 - 22:00', 'Fri': '평일,주말 11:00 - 22:00', 'Sat': '평일,주말 11:00 - 22:00', 'Sun': '평일,주말 11:00 - 22:00'}}",032-456-4368,21975,37.4059981630337-126.683622060373,인천,https://www.shoemarker.co.kr/ASP/Customer/Ajax/StoreView.asp?Page=
충청남도 아산시 온궁로 23 슈마커,Shoemarker,아산시,South Korea,"{'brand': 'Shoemarker', 'fascia': 'Shoemarker', 'category': 'Retail', 'edit_date': '20250503', 'lat_lon_source': 'Third Party'}",36.7823243219158,127.002982811863,온양점,"{'opening_hours': {'Mon': '10:30 - 22:00', 'Tue': '10:30 - 22:00', 'Wed': '10:30 - 22:00', 'Thu': '10:30 - 22:00', 'Fri': '10:30 - 22:00', 'Sat': '10:30 - 22:00', 'Sun': '10:30 - 22:00'}}",041-542-2809,31513,36.7823243219158-127.002982811863,충남,https://www.shoemarker.co.kr/ASP/Customer/Ajax/StoreView.asp?Page=
강원 강릉시 경강로 2398-10 이마트 1층,Shoemarker,강릉시,South Korea,"{'brand': 'Shoemarker', 'fascia': 'Shoemarker', 'category': 'Retail', 'edit_date': '20250503', 'lat_lon_source': 'Third Party'}",37.7705532388243,128.92270969201,E강릉점,"{'opening_hours': {'Mon': '10:00 - 22:00', 'Tue': '10:00 - 22:00', 'Wed': '10:00 - 22:00', 'Thu': '10:00 - 22:00', 'Fri': '10:00 - 22:00', 'Sat': '10:00 - 22:00', 'Sun': '10:00 - 22:00'}}",033-652-2809,25563,37.7705532388243-128.92270969201,강원특별자치도,https://www.shoemarker.co.kr/ASP/Customer/Ajax/StoreView.asp?Page=
서울 동작구 상도로 102 성대시장 103호,Shoemarker,동작구,South Korea,"{'brand': 'Shoemarker', 'fascia': 'Shoemarker', 'category': 'Retail', 'edit_date': '20250503', 'lat_lon_source': 'Third Party'}",37.4999426964441,126.931776254273,성대시장점,"{'opening_hours': {'Mon': '평일, 주말 11:00 - 22:00', 'Tue': '평일, 주말 11:00 - 22:00', 'Wed': '평일, 주말 11:00 - 22:00', 'Thu': '평일, 주말 11:00 - 22:00', 'Fri': '평일, 주말 11:00 - 22:00', 'Sat': '평일, 주말 11:00 - 22:00', 'Sun': '평일, 주말 11:00 - 22:00'}}",02-3280-2829,07041,37.4999426964441-126.931776254273,서울,https://www.shoemarker.co.kr/ASP/Customer/Ajax/StoreView.asp?Page=
제주특별자치도 제주시 관덕로 55 1층 슈마커,Shoemarker,제주시,South Korea,"{'brand': 'Shoemarker', 'fascia': 'Shoemarker', 'category': 'Retail', 'edit_date': '20250503', 'lat_lon_source': 'Third Party'}",33.5133488425736,126.525243369504,제주칠성점,"{'opening_hours': {'Mon': '평일, 주말 10:30 - 22:00', 'Tue': '평일, 주말 10:30 - 22:00', 'Wed': '평일, 주말 10:30 - 22:00', 'Thu': '평일, 주말 10:30 - 22:00', 'Fri': '평일, 주말 10:30 - 22:00', 'Sat': '평일, 주말 10:30 - 22:00', 'Sun': '평일, 주말 10:30 - 22:00'}}",070-8848-2809,63277,33.5133488425736-126.525243369504,제주특별자치도,https://www.shoemarker.co.kr/ASP/Customer/Ajax/StoreView.asp?Page=
대구광역시 달서구 달서대로85길 8 모다아울렛 1층 슈마커,Shoemarker,달서구,South Korea,"{'brand': 'Shoemarker', 'fascia': 'Shoemarker', 'category': 'Retail', 'edit_date': '20250503', 'lat_lon_source': 'Third Party'}",35.837437058439,128.490893389016,대구성서점,"{'opening_hours': {'Mon': '평일,휴일 오전11:00-21:30', 'Tue': '평일,휴일 오전11:00-21:30', 'Wed': '평일,휴일 오전11:00-21:30', 'Thu': '평일,휴일 오전11:00-21:30', 'Fri': '평일,휴일 오전11:00-21:30', 'Sat': '평일,휴일 오전11:00-21:30', 'Sun': '평일,휴일 오전11:00-21:30'}}",053-585-2809,42714,35.837437058439-128.490893389016,대구,https://www.shoemarker.co.kr/ASP/Customer/Ajax/StoreView.asp?Page=
경상남도 거제시 장평로 12 디큐브시티 거제점 3층,Shoemarker,거제시,South Korea,"{'brand': 'Shoemarker', 'fascia': 'Shoemarker', 'category': 'Retail', 'edit_date': '20250503', 'lat_lon_source': 'Third Party'}",34.8910558081136,128.616402009975,거제디큐브시티점,"{'opening_hours': {'Mon': '10:30 - 20:30 (주말 21:00)', 'Tue': '10:30 - 20:30 (주말 21:00)', 'Wed': '10:30 - 20:30 (주말 21:00)', 'Thu': '10:30 - 20:30 (주말 21:00)', 'Fri': '10:30 - 20:30 (주말 21:00)', 'Sat': '10:30 - 20:30 (주말 21:00)', 'Sun': '10:30 - 20:30 (주말 21:00)'}}",055-680-0372,53267,34.8910558081136-128.616402009975,경남,https://www.shoemarker.co.kr/ASP/Customer/Ajax/StoreView.asp?Page=
전북 전주시 완산구 전주객사5길 30 1층 슈마커,Shoemarker,전주시 완산구,South Korea,"{'brand': 'Shoemarker', 'fascia': 'Shoemarker', 'category': 'Retail', 'edit_date': '20250503', 'lat_lon_source': 'Third Party'}",35.8194989072014,127.145479517758,,"{'opening_hours': {'Mon': '10:00 - 22:00', 'Tue': '10:00 - 22:00', 'Wed': '10:00 - 22:00', 'Thu': '10:00 - 22:00', 'Fri': '10:00 - 22:00', 'Sat': '10:00 - 22:00', 'Sun': '10:00 - 22:00'}}",063-231-2809,54999,35.8194989072014-127.145479517758,전북특별자치도,https://www.shoemarker.co.kr/ASP/Customer/Ajax/StoreView.asp?Page=
강원 원주시 행구로 189 1F 슈마커 원주행구점,Shoemarker,Weonju,South Korea,"{'brand': 'Shoemarker', 'fascia': 'Shoemarker', 'category': 'Retail', 'edit_date': '20250503', 'lat_lon_source': 'Third Party'}",37.3426092,127.9748181,원주행구점,"{'opening_hours': {'Mon': '11:00 - 21:00', 'Tue': '11:00 - 21:00', 'Wed': '11:00 - 21:00', 'Thu': '11:00 - 21:00', 'Fri': '11:00 - 21:00', 'Sat': '11:00 - 21:00', 'Sun': '11:00 - 21:00'}}",033-745-2809,26456,37.3426092-127.9748181,Gangwon-do,https://www.shoemarker.co.kr/ASP/Customer/Ajax/StoreView.asp?Page=
인천광역시 서구 서곶로 754 검단이마트 2층,Shoemarker,서구,South Korea,"{'brand': 'Shoemarker', 'fascia': 'Shoemarker', 'category': 'Retail', 'edit_date': '20250503', 'lat_lon_source': 'Third Party'}",37.5857715794014,126.67744490369,E검단점,"{'opening_hours': {'Mon': '10:00 - 22:00', 'Tue': '10:00 - 22:00', 'Wed': '10:00 - 22:00', 'Thu': '10:00 - 22:00', 'Fri': '10:00 - 22:00', 'Sat': '10:00 - 22:00', 'Sun': '10:00 - 22:00'}}",070-8802-1460,22686,37.5857715794014-126.67744490369,인천,https://www.shoemarker.co.kr/ASP/Customer/Ajax/StoreView.asp?Page=
경기 수원시 영통구 덕영대로 1566 영통 판타지움 1층 슈마커,Shoemarker,수원시 영통구,South Korea,"{'brand': 'Shoemarker', 'fascia': 'Shoemarker', 'category': 'Retail', 'edit_date': '20250503', 'lat_lon_source': 'Third Party'}",37.2451332601807,127.061795805742,수원판타지움점,"{'opening_hours': {'Mon': '평일,주말 오전10:30-21:30', 'Tue': '평일,주말 오전10:30-21:30', 'Wed': '평일,주말 오전10:30-21:30', 'Thu': '평일,주말 오전10:30-21:30', 'Fri': '평일,주말 오전10:30-21:30', 'Sat': '평일,주말 오전10:30-21:30', 'Sun': '평일,주말 오전10:30-21:30'}}",070-8691-1109,16693,37.2451332601807-127.061795805742,경기,https://www.shoemarker.co.kr/ASP/Customer/Ajax/StoreView.asp?Page=
경남 창원시 성산구 원이대로 320 1층 슈마커 창원시티세븐점,Shoemarker,창원시 성산구,South Korea,"{'brand': 'Shoemarker', 'fascia': 'Shoemarker', 'category': 'Retail', 'edit_date': '20250503', 'lat_lon_source': 'Third Party'}",35.2396668440149,128.654408692296,창원시티세븐점,"{'opening_hours': {'Mon': '평일, 주말 10:30 - 22:00', 'Tue': '평일, 주말 10:30 - 22:00', 'Wed': '평일, 주말 10:30 - 22:00', 'Thu': '평일, 주말 10:30 - 22:00', 'Fri': '평일, 주말 10:30 - 22:00', 'Sat': '평일, 주말 10:30 - 22:00', 'Sun': '평일, 주말 10:30 - 22:00'}}",055-600-5422,51408,35.2396668440149-128.654408692296,경남,https://www.shoemarker.co.kr/ASP/Customer/Ajax/StoreView.asp?Page=
대전광역시 동구 은어송로 72 패션아일랜드 대전점 3층,Shoemarker,동구,South Korea,"{'brand': 'Shoemarker', 'fascia': 'Shoemarker', 'category': 'Retail', 'edit_date': '20250503', 'lat_lon_source': 'Third Party'}",36.3069678174478,127.457985837078,대전패션아일랜드점,"{'opening_hours': {'Mon': '10:30 - 21:00 (주말 30분 연장)', 'Tue': '10:30 - 21:00 (주말 30분 연장)', 'Wed': '10:30 - 21:00 (주말 30분 연장)', 'Thu': '10:30 - 21:00 (주말 30분 연장)', 'Fri': '10:30 - 21:00 (주말 30분 연장)', 'Sat': '10:30 - 21:00 (주말 30분 연장)', 'Sun': '10:30 - 21:00 (주말 30분 연장)'}}",042-272-7768,34681,36.3069678174478-127.457985837078,대전,https://www.shoemarker.co.kr/ASP/Customer/Ajax/StoreView.asp?Page=
충남 공주시 번영1로 31-3 슈마커,Shoemarker,공주시,South Korea,"{'brand': 'Shoemarker', 'fascia': 'Shoemarker', 'category': 'Retail', 'edit_date': '20250503', 'lat_lon_source': 'Third Party'}",36.4710127750648,127.132255455882,공주신관점,"{'opening_hours': {'Mon': '00:00-23:59', 'Tue': '00:00-23:59', 'Wed': '00:00-23:59', 'Thu': '00:00-23:59', 'Fri': '00:00-23:59', 'Sat': '00:00-23:59', 'Sun': '00:00-23:59'}}",041-855-7660,32574,36.4710127750648-127.132255455882,충남,https://www.shoemarker.co.kr/ASP/Customer/Ajax/StoreView.asp?Page=
충북 청주시 상당구 성안로 19-2 1층 플러스 청주성안점,Shoemarker,청주시 상당구,South Korea,"{'brand': 'Shoemarker', 'fascia': 'Shoemarker', 'category': 'Retail', 'edit_date': '20250503', 'lat_lon_source': 'Third Party'}",36.634959296933,127.489501895356,,"{'opening_hours': {'Mon': '평일.휴일11:00-22:00', 'Tue': '평일.휴일11:00-22:00', 'Wed': '평일.휴일11:00-22:00', 'Thu': '평일.휴일11:00-22:00', 'Fri': '평일.휴일11:00-22:00', 'Sat': '평일.휴일11:00-22:00', 'Sun': '평일.휴일11:00-22:00'}}",043-256-2461,28526,36.634959296933-127.489501895356,충북,https://www.shoemarker.co.kr/ASP/Customer/Ajax/StoreView.asp?Page=
인천광역시 남동구 인하로 485 뉴코아 아울렛 인천점 5층,Shoemarker,남동구,South Korea,"{'brand': 'Shoemarker', 'fascia': 'Shoemarker', 'category': 'Retail', 'edit_date': '20250503', 'lat_lon_source': 'Third Party'}",37.4440157653918,126.70069156615,인천뉴코아점,"{'opening_hours': {'Mon': '10:30 - 21:00 (주말 22:00)', 'Tue': '10:30 - 21:00 (주말 22:00)', 'Wed': '10:30 - 21:00 (주말 22:00)', 'Thu': '10:30 - 21:00 (주말 22:00)', 'Fri': '10:30 - 21:00 (주말 22:00)', 'Sat': '10:30 - 21:00 (주말 22:00)', 'Sun': '10:30 - 21:00 (주말 22:00)'}}",032-422-2809,21574,37.4440157653918-126.70069156615,인천,https://www.shoemarker.co.kr/ASP/Customer/Ajax/StoreView.asp?Page=
광주 광산구 사암로 172 1층  이마트 슈마커 광주광산점,Shoemarker,광산구,South Korea,"{'brand': 'Shoemarker', 'fascia': 'Shoemarker', 'category': 'Retail', 'edit_date': '20250503', 'lat_lon_source': 'Third Party'}",35.1600062566328,126.808579431558,E광주광산점,"{'opening_hours': {'Mon': '00:00-23:59', 'Tue': '00:00-23:59', 'Wed': '00:00-23:59', 'Thu': '00:00-23:59', 'Fri': '00:00-23:59', 'Sat': '00:00-23:59', 'Sun': '00:00-23:59'}}",062-941-0726,62364,35.1600062566328-126.808579431558,광주,https://www.shoemarker.co.kr/ASP/Customer/Ajax/StoreView.asp?Page=
경기 시흥시 정왕천로 23 다동 1층 슈마커,Shoemarker,시흥시,South Korea,"{'brand': 'Shoemarker', 'fascia': 'Shoemarker', 'category': 'Retail', 'edit_date': '20250503', 'lat_lon_source': 'Third Party'}",37.3172565357686,126.724790156688,안산한양대점,"{'opening_hours': {'Mon': '평일, 주말 오전10:30-20:30', 'Tue': '평일, 주말 오전10:30-20:30', 'Wed': '평일, 주말 오전10:30-20:30', 'Thu': '평일, 주말 오전10:30-20:30', 'Fri': '평일, 주말 오전10:30-20:30', 'Sat': '평일, 주말 오전10:30-20:30', 'Sun': '평일, 주말 오전10:30-20:30'}}",031-409-4201,15115,37.3172565357686-126.724790156688,경기,https://www.shoemarker.co.kr/ASP/Customer/Ajax/StoreView.asp?Page=
충남 천안시 동남구 천안대로 548 1층 슈마커매장,Shoemarker,천안시 동남구,South Korea,"{'brand': 'Shoemarker', 'fascia': 'Shoemarker', 'category': 'Retail', 'edit_date': '20250503', 'lat_lon_source': 'Third Party'}",36.7971256110515,127.165126959012,천안구성점,"{'opening_hours': {'Mon': '평일 오전11:00-오후22:00, 휴일 오전10:00-오후22:00', 'Tue': '평일 오전11:00-오후22:00, 휴일 오전10:00-오후22:00', 'Wed': '평일 오전11:00-오후22:00, 휴일 오전10:00-오후22:00', 'Thu': '평일 오전11:00-오후22:00, 휴일 오전10:00-오후22:00', 'Fri': '평일 오전11:00-오후22:00, 휴일 오전10:00-오후22:00', 'Sat': '평일 오전11:00-오후22:00, 휴일 오전10:00-오후22:00', 'Sun': '평일 오전11:00-오후22:00, 휴일 오전10:00-오후22:00'}}",041-555-2809,31069,36.7971256110515-127.165126959012,충남,https://www.shoemarker.co.kr/ASP/Customer/Ajax/StoreView.asp?Page=
경기도 수원시 팔달구 인계로 154 뉴코아 아울렛 동수원점  8층,Shoemarker,수원시 팔달구,South Korea,"{'brand': 'Shoemarker', 'fascia': 'Shoemarker', 'category': 'Retail', 'edit_date': '20250503', 'lat_lon_source': 'Third Party'}",37.2663068577779,127.034316011963,동수원뉴코아점,"{'opening_hours': {'Mon': '10:30 - 21:00 (주말 22:00)', 'Tue': '10:30 - 21:00 (주말 22:00)', 'Wed': '10:30 - 21:00 (주말 22:00)', 'Thu': '10:30 - 21:00 (주말 22:00)', 'Fri': '10:30 - 21:00 (주말 22:00)', 'Sat': '10:30 - 21:00 (주말 22:00)', 'Sun': '10:30 - 21:00 (주말 22:00)'}}",031-231-6309,16488,37.2663068577779-127.034316011963,경기,https://www.shoemarker.co.kr/ASP/Customer/Ajax/StoreView.asp?Page=
충남 공주시 정안면 논산천안고속도로 57 정안하행휴게소베르나아울렛C동1층,Shoemarker,공주시,South Korea,"{'brand': 'Shoemarker', 'fascia': 'Shoemarker', 'category': 'Retail', 'edit_date': '20250503', 'lat_lon_source': 'Third Party'}",36.5707960910293,127.112004437346,공주정안점,"{'opening_hours': {'Mon': '00:00-23:59', 'Tue': '00:00-23:59', 'Wed': '00:00-23:59', 'Thu': '00:00-23:59', 'Fri': '00:00-23:59', 'Sat': '00:00-23:59', 'Sun': '00:00-23:59'}}",-,32513,36.5707960910293-127.112004437346,충남,https://www.shoemarker.co.kr/ASP/Customer/Ajax/StoreView.asp?Page=
서울특별시 양천구 목동동로 309 행복한백화점 목동점 1층,Shoemarker,양천구,South Korea,"{'brand': 'Shoemarker', 'fascia': 'Shoemarker', 'category': 'Retail', 'edit_date': '20250503', 'lat_lon_source': 'Third Party'}",37.5292109947037,126.875984665042,행복한백화점목동점,"{'opening_hours': {'Mon': '월요일-목요일 오전10:30-20:00', 'Tue': '월요일-목요일 오전10:30-20:00', 'Wed': '월요일-목요일 오전10:30-20:00', 'Thu': '월요일-목요일 오전10:30-20:00', 'Fri': '월요일-목요일 오전10:30-20:00', 'Sat': '월요일-목요일 오전10:30-20:00', 'Sun': '월요일-목요일 오전10:30-20:00'}}",02-6678-3809,07997,37.5292109947037-126.875984665042,서울,https://www.shoemarker.co.kr/ASP/Customer/Ajax/StoreView.asp?Page=
경기 고양시 일산서구 한류월드로 300 1층 슈마커 일산원마운트점,Shoemarker,고양시 일산서구,South Korea,"{'brand': 'Shoemarker', 'fascia': 'Shoemarker', 'category': 'Retail', 'edit_date': '20250503', 'lat_lon_source': 'Third Party'}",37.6645540981816,126.754526582068,일산원마운트점,"{'opening_hours': {'Mon': '평일,주말 10:30-22:00', 'Tue': '평일,주말 10:30-22:00', 'Wed': '평일,주말 10:30-22:00', 'Thu': '평일,주말 10:30-22:00', 'Fri': '평일,주말 10:30-22:00', 'Sat': '평일,주말 10:30-22:00', 'Sun': '평일,주말 10:30-22:00'}}",031-923-2780,10392,37.6645540981816-126.754526582068,경기,https://www.shoemarker.co.kr/ASP/Customer/Ajax/StoreView.asp?Page=
서울특별시 구로구 디지털로32길 43 2층 슈마커,Shoemarker,구로구,South Korea,"{'brand': 'Shoemarker', 'fascia': 'Shoemarker', 'category': 'Retail', 'edit_date': '20250503', 'lat_lon_source': 'Third Party'}",37.4843992290119,126.897885833718,E구로점,"{'opening_hours': {'Mon': '10:00 - 22:00', 'Tue': '10:00 - 22:00', 'Wed': '10:00 - 22:00', 'Thu': '10:00 - 22:00', 'Fri': '10:00 - 22:00', 'Sat': '10:00 - 22:00', 'Sun': '10:00 - 22:00'}}",070-4268-2804,08379,37.4843992290119-126.897885833718,서울,https://www.shoemarker.co.kr/ASP/Customer/Ajax/StoreView.asp?Page=
경기도 안성시 중앙2길 10 슈마커 안성점,Shoemarker,안성시,South Korea,"{'brand': 'Shoemarker', 'fascia': 'Shoemarker', 'category': 'Retail', 'edit_date': '20250503', 'lat_lon_source': 'Third Party'}",37.0082645970449,127.270222974835,안성점,"{'opening_hours': {'Mon': '평일,휴일11:00-21:00', 'Tue': '평일,휴일11:00-21:00', 'Wed': '평일,휴일11:00-21:00', 'Thu': '평일,휴일11:00-21:00', 'Fri': '평일,휴일11:00-21:00', 'Sat': '평일,휴일11:00-21:00', 'Sun': '평일,휴일11:00-21:00'}}",031-677-3757,17589,37.0082645970449-127.270222974835,경기,https://www.shoemarker.co.kr/ASP/Customer/Ajax/StoreView.asp?Page=
충청남도 천안시 서북구 공원로 196 펜타포트 펜타포트 모다아울렛 천안점 2층,Shoemarker,천안시 서북구,South Korea,"{'brand': 'Shoemarker', 'fascia': 'Shoemarker', 'category': 'Retail', 'edit_date': '20250503', 'lat_lon_source': 'Third Party'}",36.7984279064312,127.101429867826,천안모다점,"{'opening_hours': {'Mon': '11:00 - 21:00 (주말 30분씩 연장)', 'Tue': '11:00 - 21:00 (주말 30분씩 연장)', 'Wed': '11:00 - 21:00 (주말 30분씩 연장)', 'Thu': '11:00 - 21:00 (주말 30분씩 연장)', 'Fri': '11:00 - 21:00 (주말 30분씩 연장)', 'Sat': '11:00 - 21:00 (주말 30분씩 연장)', 'Sun': '11:00 - 21:00 (주말 30분씩 연장)'}}",041-904-6309,31168,36.7984279064312-127.101429867826,충남,https://www.shoemarker.co.kr/ASP/Customer/Ajax/StoreView.asp?Page=
경상북도 문경시 중앙로 129 슈마커 문경점,Shoemarker,문경시,South Korea,"{'brand': 'Shoemarker', 'fascia': 'Shoemarker', 'category': 'Retail', 'edit_date': '20250503', 'lat_lon_source': 'Third Party'}",36.5965607167821,128.200079230547,문경점,"{'opening_hours': {'Mon': '평일,휴일 오전10:00-21:00', 'Tue': '평일,휴일 오전10:00-21:00', 'Wed': '평일,휴일 오전10:00-21:00', 'Thu': '평일,휴일 오전10:00-21:00', 'Fri': '평일,휴일 오전10:00-21:00', 'Sat': '평일,휴일 오전10:00-21:00', 'Sun': '평일,휴일 오전10:00-21:00'}}",054-553-8769,36971,36.5965607167821-128.200079230547,경북,https://www.shoemarker.co.kr/ASP/Customer/Ajax/StoreView.asp?Page=
서울특별시 금천구 벚꽃로 266 마리오아울렛 3관 3층,Shoemarker,금천구,South Korea,"{'brand': 'Shoemarker', 'fascia': 'Shoemarker', 'category': 'Retail', 'edit_date': '20250503', 'lat_lon_source': 'Third Party'}",37.4784775572043,126.885157102201,구로마리오점,"{'opening_hours': {'Mon': '10:30 - 21:00 (주말 30분 연장)', 'Tue': '10:30 - 21:00 (주말 30분 연장)', 'Wed': '10:30 - 21:00 (주말 30분 연장)', 'Thu': '10:30 - 21:00 (주말 30분 연장)', 'Fri': '10:30 - 21:00 (주말 30분 연장)', 'Sat': '10:30 - 21:00 (주말 30분 연장)', 'Sun': '10:30 - 21:00 (주말 30분 연장)'}}",02-2067-2131,08511,37.4784775572043-126.885157102201,서울,https://www.shoemarker.co.kr/ASP/Customer/Ajax/StoreView.asp?Page=
경상북도 구미시 구미대로 256 이마트 구미점 2층,Shoemarker,구미시,South Korea,"{'brand': 'Shoemarker', 'fascia': 'Shoemarker', 'category': 'Retail', 'edit_date': '20250503', 'lat_lon_source': 'Third Party'}",36.1094735939811,128.364892685404,E구미점,"{'opening_hours': {'Mon': '10:00 - 22:00', 'Tue': '10:00 - 22:00', 'Wed': '10:00 - 22:00', 'Thu': '10:00 - 22:00', 'Fri': '10:00 - 22:00', 'Sat': '10:00 - 22:00', 'Sun': '10:00 - 22:00'}}",054-465-5989,39344,36.1094735939811-128.364892685404,경북,https://www.shoemarker.co.kr/ASP/Customer/Ajax/StoreView.asp?Page=
경북 예천군 호명읍 수변로 113 1층 슈마커,Shoemarker,예천군,South Korea,"{'brand': 'Shoemarker', 'fascia': 'Shoemarker', 'category': 'Retail', 'edit_date': '20250503', 'lat_lon_source': 'Third Party'}",36.5748178395276,128.485513450743,예천점,"{'opening_hours': {'Mon': '00:00-23:59', 'Tue': '00:00-23:59', 'Wed': '00:00-23:59', 'Thu': '00:00-23:59', 'Fri': '00:00-23:59', 'Sat': '00:00-23:59', 'Sun': '00:00-23:59'}}",-,36849,36.5748178395276-128.485513450743,경북,https://www.shoemarker.co.kr/ASP/Customer/Ajax/StoreView.asp?Page=
강원도 춘천시 중앙로67번길 18 브라운5번가 2동 2117호외2,Shoemarker,춘천시,South Korea,"{'brand': 'Shoemarker', 'fascia': 'Shoemarker', 'category': 'Retail', 'edit_date': '20250503', 'lat_lon_source': 'Third Party'}",37.8780265137905,127.728393934447,춘천점,"{'opening_hours': {'Mon': '10:30 - 22:00', 'Tue': '10:30 - 22:00', 'Wed': '10:30 - 22:00', 'Thu': '10:30 - 22:00', 'Fri': '10:30 - 22:00', 'Sat': '10:30 - 22:00', 'Sun': '10:30 - 22:00'}}",033-255-2809,24354,37.8780265137905-127.728393934447,강원특별자치도,https://www.shoemarker.co.kr/ASP/Customer/Ajax/StoreView.asp?Page=
인천광역시 부평구 마장로 489 부평아이즈빌 패션존 7동 1층 슈마커,Shoemarker,부평구,South Korea,"{'brand': 'Shoemarker', 'fascia': 'Shoemarker', 'category': 'Retail', 'edit_date': '20250503', 'lat_lon_source': 'Third Party'}",37.5213637370093,126.70372062354,부평아이즈빌점,"{'opening_hours': {'Mon': '평일,휴일 오전11:00-21:30', 'Tue': '평일,휴일 오전11:00-21:30', 'Wed': '평일,휴일 오전11:00-21:30', 'Thu': '평일,휴일 오전11:00-21:30', 'Fri': '평일,휴일 오전11:00-21:30', 'Sat': '평일,휴일 오전11:00-21:30', 'Sun': '평일,휴일 오전11:00-21:30'}}",032-506-2809,21302,37.5213637370093-126.70372062354,인천,https://www.shoemarker.co.kr/ASP/Customer/Ajax/StoreView.asp?Page=
"경기 김포시 김포대로 1473 김포시 김포대로 1473 , 1층 슈마커",Shoemarker,김포시,South Korea,"{'brand': 'Shoemarker', 'fascia': 'Shoemarker', 'category': 'Retail', 'edit_date': '20250503', 'lat_lon_source': 'Third Party'}",37.6553319552338,126.667193906267,김포패션아울렛점,"{'opening_hours': {'Mon': '평일, 주말 11:00 - 21:00', 'Tue': '평일, 주말 11:00 - 21:00', 'Wed': '평일, 주말 11:00 - 21:00', 'Thu': '평일, 주말 11:00 - 21:00', 'Fri': '평일, 주말 11:00 - 21:00', 'Sat': '평일, 주말 11:00 - 21:00', 'Sun': '평일, 주말 11:00 - 21:00'}}",031-996-2273,10072,37.6553319552338-126.667193906267,경기,https://www.shoemarker.co.kr/ASP/Customer/Ajax/StoreView.asp?Page=
전라북도 군산시 구암3.1로 137 이마트 군산점 2층,Shoemarker,군산시,South Korea,"{'brand': 'Shoemarker', 'fascia': 'Shoemarker', 'category': 'Retail', 'edit_date': '20250503', 'lat_lon_source': 'Third Party'}",35.9831607212072,126.734007380515,E군산점,"{'opening_hours': {'Mon': '10:00 - 22:00', 'Tue': '10:00 - 22:00', 'Wed': '10:00 - 22:00', 'Thu': '10:00 - 22:00', 'Fri': '10:00 - 22:00', 'Sat': '10:00 - 22:00', 'Sun': '10:00 - 22:00'}}",063-446-8441,54032,35.9831607212072-126.734007380515,전북특별자치도,https://www.shoemarker.co.kr/ASP/Customer/Ajax/StoreView.asp?Page=
대구광역시 북구 침산로 93 1층 슈마커,Shoemarker,북구,South Korea,"{'brand': 'Shoemarker', 'fascia': 'Shoemarker', 'category': 'Retail', 'edit_date': '20250503', 'lat_lon_source': 'Third Party'}",35.8852255662606,128.58978990597,E대구칠성점,"{'opening_hours': {'Mon': '10:00 - 22:00', 'Tue': '10:00 - 22:00', 'Wed': '10:00 - 22:00', 'Thu': '10:00 - 22:00', 'Fri': '10:00 - 22:00', 'Sat': '10:00 - 22:00', 'Sun': '10:00 - 22:00'}}",053-355-2809,41593,35.8852255662606-128.58978990597,대구,https://www.shoemarker.co.kr/ASP/Customer/Ajax/StoreView.asp?Page=
경기도 김포시 김포한강7로 71 이마트 김포한강점 1층,Shoemarker,김포시,South Korea,"{'brand': 'Shoemarker', 'fascia': 'Shoemarker', 'category': 'Retail', 'edit_date': '20250503', 'lat_lon_source': 'Third Party'}",37.6443389795406,126.628286240998,E김포한강점,"{'opening_hours': {'Mon': '10:00 - 22:00', 'Tue': '10:00 - 22:00', 'Wed': '10:00 - 22:00', 'Thu': '10:00 - 22:00', 'Fri': '10:00 - 22:00', 'Sat': '10:00 - 22:00', 'Sun': '10:00 - 22:00'}}",070-7723-8915,10071,37.6443389795406-126.628286240998,경기,https://www.shoemarker.co.kr/ASP/Customer/Ajax/StoreView.asp?Page=
서울특별시 강동구 고덕로 276 이마트 명일점 3층,Shoemarker,강동구,South Korea,"{'brand': 'Shoemarker', 'fascia': 'Shoemarker', 'category': 'Retail', 'edit_date': '20250503', 'lat_lon_source': 'Third Party'}",37.5547067235109,127.155613136912,E명일점,"{'opening_hours': {'Mon': '10:00 - 22:00', 'Tue': '10:00 - 22:00', 'Wed': '10:00 - 22:00', 'Thu': '10:00 - 22:00', 'Fri': '10:00 - 22:00', 'Sat': '10:00 - 22:00', 'Sun': '10:00 - 22:00'}}",02-442-2809,05269,37.5547067235109-127.155613136912,서울,https://www.shoemarker.co.kr/ASP/Customer/Ajax/StoreView.asp?Page=
"경북 상주시 경상대로 3141 이마트, 1층 슈마커",Shoemarker,상주시,South Korea,"{'brand': 'Shoemarker', 'fascia': 'Shoemarker', 'category': 'Retail', 'edit_date': '20250503', 'lat_lon_source': 'Third Party'}",36.4277689019781,128.151009502997,E상주점,"{'opening_hours': {'Mon': '10:00 - 22:00', 'Tue': '10:00 - 22:00', 'Wed': '10:00 - 22:00', 'Thu': '10:00 - 22:00', 'Fri': '10:00 - 22:00', 'Sat': '10:00 - 22:00', 'Sun': '10:00 - 22:00'}}",054-535-3791,37161,36.4277689019781-128.151009502997,경북,https://www.shoemarker.co.kr/ASP/Customer/Ajax/StoreView.asp?Page=
경기도 남양주시 순화궁로 167 이마트 별내점 3층,Shoemarker,남양주시,South Korea,"{'brand': 'Shoemarker', 'fascia': 'Shoemarker', 'category': 'Retail', 'edit_date': '20250503', 'lat_lon_source': 'Third Party'}",37.6428100149332,127.125967996663,E별내점,"{'opening_hours': {'Mon': '10:00 - 22:00', 'Tue': '10:00 - 22:00', 'Wed': '10:00 - 22:00', 'Thu': '10:00 - 22:00', 'Fri': '10:00 - 22:00', 'Sat': '10:00 - 22:00', 'Sun': '10:00 - 22:00'}}",070-4245-2809,12113,37.6428100149332-127.125967996663,경기,https://www.shoemarker.co.kr/ASP/Customer/Ajax/StoreView.asp?Page=
충북 제천시 장평천로 11 제천이마트 2층 슈마커,Shoemarker,제천시,South Korea,"{'brand': 'Shoemarker', 'fascia': 'Shoemarker', 'category': 'Retail', 'edit_date': '20250503', 'lat_lon_source': 'Third Party'}",37.1232082952117,128.222899998746,E제천점,"{'opening_hours': {'Mon': '10:00 - 22:00', 'Tue': '10:00 - 22:00', 'Wed': '10:00 - 22:00', 'Thu': '10:00 - 22:00', 'Fri': '10:00 - 22:00', 'Sat': '10:00 - 22:00', 'Sun': '10:00 - 22:00'}}",043-653-2809,27198,37.1232082952117-128.222899998746,충북,https://www.shoemarker.co.kr/ASP/Customer/Ajax/StoreView.asp?Page=
대구 수성구 동원로 136 2층 슈마커,Shoemarker,수성구,South Korea,"{'brand': 'Shoemarker', 'fascia': 'Shoemarker', 'category': 'Retail', 'edit_date': '20250503', 'lat_lon_source': 'Third Party'}",35.8712064928348,128.637147299293,E대구만촌점,"{'opening_hours': {'Mon': '10:00 - 22:00', 'Tue': '10:00 - 22:00', 'Wed': '10:00 - 22:00', 'Thu': '10:00 - 22:00', 'Fri': '10:00 - 22:00', 'Sat': '10:00 - 22:00', 'Sun': '10:00 - 22:00'}}",053-753-2809,42037,35.8712064928348-128.637147299293,대구,https://www.shoemarker.co.kr/ASP/Customer/Ajax/StoreView.asp?Page=
서울특별시 양천구 오목로 299 이마트 목동점 지하 1층,Shoemarker,양천구,South Korea,"{'brand': 'Shoemarker', 'fascia': 'Shoemarker', 'category': 'Retail', 'edit_date': '20250503', 'lat_lon_source': 'Third Party'}",37.5260837006075,126.87035534357,E목동점,"{'opening_hours': {'Mon': '10:00 - 22:00', 'Tue': '10:00 - 22:00', 'Wed': '10:00 - 22:00', 'Thu': '10:00 - 22:00', 'Fri': '10:00 - 22:00', 'Sat': '10:00 - 22:00', 'Sun': '10:00 - 22:00'}}",02-2655-2809,08001,37.5260837006075-126.87035534357,서울,https://www.shoemarker.co.kr/ASP/Customer/Ajax/StoreView.asp?Page=
세종특별자치시 금송로 687 이마트 세종점 2층,Shoemarker,,South Korea,"{'brand': 'Shoemarker', 'fascia': 'Shoemarker', 'category': 'Retail', 'edit_date': '20250503', 'lat_lon_source': 'Third Party'}",36.4708996466069,127.250982490572,E세종점,"{'opening_hours': {'Mon': '10:00 - 22:00', 'Tue': '10:00 - 22:00', 'Wed': '10:00 - 22:00', 'Thu': '10:00 - 22:00', 'Fri': '10:00 - 22:00', 'Sat': '10:00 - 22:00', 'Sun': '10:00 - 22:00'}}",044-865-2809,30065,36.4708996466069-127.250982490572,세종특별자치시,https://www.shoemarker.co.kr/ASP/Customer/Ajax/StoreView.asp?Page=
"충남 보령시 해안로 25 이마트, 1층 슈마커",Shoemarker,보령시,South Korea,"{'brand': 'Shoemarker', 'fascia': 'Shoemarker', 'category': 'Retail', 'edit_date': '20250503', 'lat_lon_source': 'Third Party'}",36.3440112264787,126.588650652853,E보령점,"{'opening_hours': {'Mon': '10:00 - 22:00', 'Tue': '10:00 - 22:00', 'Wed': '10:00 - 22:00', 'Thu': '10:00 - 22:00', 'Fri': '10:00 - 22:00', 'Sat': '10:00 - 22:00', 'Sun': '10:00 - 22:00'}}",041-932-3542,33458,36.3440112264787-126.588650652853,충남,https://www.shoemarker.co.kr/ASP/Customer/Ajax/StoreView.asp?Page=
경상남도 창원시 성산구 원이대로 608 이마트 창원점 3층,Shoemarker,창원시 성산구,South Korea,"{'brand': 'Shoemarker', 'fascia': 'Shoemarker', 'category': 'Retail', 'edit_date': '20250503', 'lat_lon_source': 'Third Party'}",35.2265397930426,128.680190994091,E창원점,"{'opening_hours': {'Mon': '10:00 - 22:00', 'Tue': '10:00 - 22:00', 'Wed': '10:00 - 22:00', 'Thu': '10:00 - 22:00', 'Fri': '10:00 - 22:00', 'Sat': '10:00 - 22:00', 'Sun': '10:00 - 22:00'}}",055-264-1651,51515,35.2265397930426-128.680190994091,경남,https://www.shoemarker.co.kr/ASP/Customer/Ajax/StoreView.asp?Page=
서울특별시 노원구 마들로3길 15 이마트 월계점 2층 슈마커,Shoemarker,노원구,South Korea,"{'brand': 'Shoemarker', 'fascia': 'Shoemarker', 'category': 'Retail', 'edit_date': '20250503', 'lat_lon_source': 'Third Party'}",37.6265093604229,127.061979778612,E월계점,"{'opening_hours': {'Mon': '10:00 - 22:00', 'Tue': '10:00 - 22:00', 'Wed': '10:00 - 22:00', 'Thu': '10:00 - 22:00', 'Fri': '10:00 - 22:00', 'Sat': '10:00 - 22:00', 'Sun': '10:00 - 22:00'}}",070-7763-1987,01906,37.6265093604229-127.061979778612,서울,https://www.shoemarker.co.kr/ASP/Customer/Ajax/StoreView.asp?Page=
경상남도 통영시 광도면 죽림4로 9 이마트 통영점 2층,Shoemarker,통영시,South Korea,"{'brand': 'Shoemarker', 'fascia': 'Shoemarker', 'category': 'Retail', 'edit_date': '20250503', 'lat_lon_source': 'Third Party'}",34.8871333657334,128.417999522582,E통영점,"{'opening_hours': {'Mon': '10:00 - 22:00', 'Tue': '10:00 - 22:00', 'Wed': '10:00 - 22:00', 'Thu': '10:00 - 22:00', 'Fri': '10:00 - 22:00', 'Sat': '10:00 - 22:00', 'Sun': '10:00 - 22:00'}}",055-648-2809,53013,34.8871333657334-128.417999522582,경남,https://www.shoemarker.co.kr/ASP/Customer/Ajax/StoreView.asp?Page=
경북 안동시 옥동1길 2 지하 1층 슈마커 이마트 안동점,Shoemarker,안동시,South Korea,"{'brand': 'Shoemarker', 'fascia': 'Shoemarker', 'category': 'Retail', 'edit_date': '20250503', 'lat_lon_source': 'Third Party'}",36.5584743224722,128.699404613703,E안동점,"{'opening_hours': {'Mon': '00:00-23:59', 'Tue': '00:00-23:59', 'Wed': '00:00-23:59', 'Thu': '00:00-23:59', 'Fri': '00:00-23:59', 'Sat': '00:00-23:59', 'Sun': '00:00-23:59'}}",054-841-2809,36663,36.5584743224722-128.699404613703,경북,https://www.shoemarker.co.kr/ASP/Customer/Ajax/StoreView.asp?Page=
대구광역시 달서구 진천로 92 이마트 월배점 2층,Shoemarker,달서구,South Korea,"{'brand': 'Shoemarker', 'fascia': 'Shoemarker', 'category': 'Retail', 'edit_date': '20250503', 'lat_lon_source': 'Third Party'}",35.8171512293608,128.523645909581,E대구월배점,"{'opening_hours': {'Mon': '10:00 - 22:00', 'Tue': '10:00 - 22:00', 'Wed': '10:00 - 22:00', 'Thu': '10:00 - 22:00', 'Fri': '10:00 - 22:00', 'Sat': '10:00 - 22:00', 'Sun': '10:00 - 22:00'}}",070-4184-2809,42778,35.8171512293608-128.523645909581,대구,https://www.shoemarker.co.kr/ASP/Customer/Ajax/StoreView.asp?Page=
전라남도 목포시 옥암로 138 이마트 목포점 2층,Shoemarker,목포시,South Korea,"{'brand': 'Shoemarker', 'fascia': 'Shoemarker', 'category': 'Retail', 'edit_date': '20250503', 'lat_lon_source': 'Third Party'}",34.8116274557948,126.425210029665,E목포점,"{'opening_hours': {'Mon': '10:00 - 22:00', 'Tue': '10:00 - 22:00', 'Wed': '10:00 - 22:00', 'Thu': '10:00 - 22:00', 'Fri': '10:00 - 22:00', 'Sat': '10:00 - 22:00', 'Sun': '10:00 - 22:00'}}",070-8836-1678,58657,34.8116274557948-126.425210029665,전남,https://www.shoemarker.co.kr/ASP/Customer/Ajax/StoreView.asp?Page=
강원도 속초시 설악금강대교로 12 이마트 1층 슈마커,Shoemarker,속초시,South Korea,"{'brand': 'Shoemarker', 'fascia': 'Shoemarker', 'category': 'Retail', 'edit_date': '20250503', 'lat_lon_source': 'Third Party'}",38.1910430695899,128.595843389626,E속초점,"{'opening_hours': {'Mon': '10:00 - 22:00', 'Tue': '10:00 - 22:00', 'Wed': '10:00 - 22:00', 'Thu': '10:00 - 22:00', 'Fri': '10:00 - 22:00', 'Sat': '10:00 - 22:00', 'Sun': '10:00 - 22:00'}}",033-633-1317,24885,38.1910430695899-128.595843389626,강원특별자치도,https://www.shoemarker.co.kr/ASP/Customer/Ajax/StoreView.asp?Page=
경기도 부천시 부천로 1 부천역사 쇼핑몰 이마트 부천점 6층,Shoemarker,부천시 소사구,South Korea,"{'brand': 'Shoemarker', 'fascia': 'Shoemarker', 'category': 'Retail', 'edit_date': '20250503', 'lat_lon_source': 'Third Party'}",37.4840382748897,126.782648899659,E부천역점,"{'opening_hours': {'Mon': '10:00 - 22:00', 'Tue': '10:00 - 22:00', 'Wed': '10:00 - 22:00', 'Thu': '10:00 - 22:00', 'Fri': '10:00 - 22:00', 'Sat': '10:00 - 22:00', 'Sun': '10:00 - 22:00'}}",070-7761-2809,14637,37.4840382748897-126.782648899659,경기,https://www.shoemarker.co.kr/ASP/Customer/Ajax/StoreView.asp?Page=
충청남도  천안시 서북구 삼성대로 20 이마트 1층 슈마커,Shoemarker,천안시 서북구,South Korea,"{'brand': 'Shoemarker', 'fascia': 'Shoemarker', 'category': 'Retail', 'edit_date': '20250503', 'lat_lon_source': 'Third Party'}",36.8385687913558,127.12233923432,E천안서북점,"{'opening_hours': {'Mon': '10:00 - 22:00', 'Tue': '10:00 - 22:00', 'Wed': '10:00 - 22:00', 'Thu': '10:00 - 22:00', 'Fri': '10:00 - 22:00', 'Sat': '10:00 - 22:00', 'Sun': '10:00 - 22:00'}}",041-558-0130,31087,36.8385687913558-127.12233923432,충남,https://www.shoemarker.co.kr/ASP/Customer/Ajax/StoreView.asp?Page=
서울특별시 은평구 은평로 111  이마트 6층 슈마커,Shoemarker,은평구,South Korea,"{'brand': 'Shoemarker', 'fascia': 'Shoemarker', 'category': 'Retail', 'edit_date': '20250503', 'lat_lon_source': 'Third Party'}",37.6008254685415,126.920513478627,E은평점,"{'opening_hours': {'Mon': '10:00 - 22:00', 'Tue': '10:00 - 22:00', 'Wed': '10:00 - 22:00', 'Thu': '10:00 - 22:00', 'Fri': '10:00 - 22:00', 'Sat': '10:00 - 22:00', 'Sun': '10:00 - 22:00'}}",02-388-2009,03461,37.6008254685415-126.920513478627,서울,https://www.shoemarker.co.kr/ASP/Customer/Ajax/StoreView.asp?Page=
경기도 안양시 동안구 시민대로 300 이마트 지하1층 슈마커,Shoemarker,안양시 동안구,South Korea,"{'brand': 'Shoemarker', 'fascia': 'Shoemarker', 'category': 'Retail', 'edit_date': '20250503', 'lat_lon_source': 'Third Party'}",37.3949102903955,126.963710917289,E평촌점,"{'opening_hours': {'Mon': '10:00 - 22:00', 'Tue': '10:00 - 22:00', 'Wed': '10:00 - 22:00', 'Thu': '10:00 - 22:00', 'Fri': '10:00 - 22:00', 'Sat': '10:00 - 22:00', 'Sun': '10:00 - 22:00'}}",031-388-2677,14066,37.3949102903955-126.963710917289,경기,https://www.shoemarker.co.kr/ASP/Customer/Ajax/StoreView.asp?Page=
경상남도 양산시 양산역6길 12 이마트 양산점 2층,Shoemarker,양산시,South Korea,"{'brand': 'Shoemarker', 'fascia': 'Shoemarker', 'category': 'Retail', 'edit_date': '20250503', 'lat_lon_source': 'Third Party'}",35.336823652002,129.026440158698,E양산점,"{'opening_hours': {'Mon': '10:00 - 22:00', 'Tue': '10:00 - 22:00', 'Wed': '10:00 - 22:00', 'Thu': '10:00 - 22:00', 'Fri': '10:00 - 22:00', 'Sat': '10:00 - 22:00', 'Sun': '10:00 - 22:00'}}",055-366-5669,50629,35.336823652002-129.026440158698,경남,https://www.shoemarker.co.kr/ASP/Customer/Ajax/StoreView.asp?Page=
부산광역시 남구 전포대로91번길 47 이마트 문현점 3층,Shoemarker,남구,South Korea,"{'brand': 'Shoemarker', 'fascia': 'Shoemarker', 'category': 'Retail', 'edit_date': '20250503', 'lat_lon_source': 'Third Party'}",35.1443276304466,129.064224118799,E문현점,"{'opening_hours': {'Mon': '10:00 - 22:00', 'Tue': '10:00 - 22:00', 'Wed': '10:00 - 22:00', 'Thu': '10:00 - 22:00', 'Fri': '10:00 - 22:00', 'Sat': '10:00 - 22:00', 'Sun': '10:00 - 22:00'}}",051-636-2809,48401,35.1443276304466-129.064224118799,부산,https://www.shoemarker.co.kr/ASP/Customer/Ajax/StoreView.asp?Page=
경기 용인시 수지구 수지로 203 이마트 수지점 2층,Shoemarker,용인시 수지구,South Korea,"{'brand': 'Shoemarker', 'fascia': 'Shoemarker', 'category': 'Retail', 'edit_date': '20250503', 'lat_lon_source': 'Third Party'}",37.3197392590297,127.083327747719,E수지점,"{'opening_hours': {'Mon': '10:00 - 22:00', 'Tue': '10:00 - 22:00', 'Wed': '10:00 - 22:00', 'Thu': '10:00 - 22:00', 'Fri': '10:00 - 22:00', 'Sat': '10:00 - 22:00', 'Sun': '10:00 - 22:00'}}",031-266-6642,16845,37.3197392590297-127.083327747719,경기,https://www.shoemarker.co.kr/ASP/Customer/Ajax/StoreView.asp?Page=
경기도 성남시 분당구 불정로 134 이마트 2층 슈마커,Shoemarker,성남시 분당구,South Korea,"{'brand': 'Shoemarker', 'fascia': 'Shoemarker', 'category': 'Retail', 'edit_date': '20250503', 'lat_lon_source': 'Third Party'}",37.3587972091658,127.119757717726,E분당점,"{'opening_hours': {'Mon': '10:00 - 22:00', 'Tue': '10:00 - 22:00', 'Wed': '10:00 - 22:00', 'Thu': '10:00 - 22:00', 'Fri': '10:00 - 22:00', 'Sat': '10:00 - 22:00', 'Sun': '10:00 - 22:00'}}",031-711-5242,13605,37.3587972091658-127.119757717726,경기,https://www.shoemarker.co.kr/ASP/Customer/Ajax/StoreView.asp?Page=
충청남도 천안시 서북구 충무로 187 이마트 천안점 1층,Shoemarker,천안시 서북구,South Korea,"{'brand': 'Shoemarker', 'fascia': 'Shoemarker', 'category': 'Retail', 'edit_date': '20250503', 'lat_lon_source': 'Third Party'}",36.7959246450724,127.127099784501,E천안점,"{'opening_hours': {'Mon': '10:00 - 22:00', 'Tue': '10:00 - 22:00', 'Wed': '10:00 - 22:00', 'Thu': '10:00 - 22:00', 'Fri': '10:00 - 22:00', 'Sat': '10:00 - 22:00', 'Sun': '10:00 - 22:00'}}",041-577-2809,31180,36.7959246450724-127.127099784501,충남,https://www.shoemarker.co.kr/ASP/Customer/Ajax/StoreView.asp?Page=
경기도 의정부시 민락로 210 이마트 의정부점 지하 1층,Shoemarker,의정부시,South Korea,"{'brand': 'Shoemarker', 'fascia': 'Shoemarker', 'category': 'Retail', 'edit_date': '20250503', 'lat_lon_source': 'Third Party'}",37.7431843082026,127.102364149255,E의정부점,"{'opening_hours': {'Mon': '10:00 - 22:00', 'Tue': '10:00 - 22:00', 'Wed': '10:00 - 22:00', 'Thu': '10:00 - 22:00', 'Fri': '10:00 - 22:00', 'Sat': '10:00 - 22:00', 'Sun': '10:00 - 22:00'}}",070-4224-2809,11814,37.7431843082026-127.102364149255,경기,https://www.shoemarker.co.kr/ASP/Customer/Ajax/StoreView.asp?Page=
경기도 평택시 영신로 29 이마트 평택점 2층,Shoemarker,평택시,South Korea,"{'brand': 'Shoemarker', 'fascia': 'Shoemarker', 'category': 'Retail', 'edit_date': '20250503', 'lat_lon_source': 'Third Party'}",37.0211176055853,127.07553918798,E평택점,"{'opening_hours': {'Mon': '10:00 - 22:00', 'Tue': '10:00 - 22:00', 'Wed': '10:00 - 22:00', 'Thu': '10:00 - 22:00', 'Fri': '10:00 - 22:00', 'Sat': '10:00 - 22:00', 'Sun': '10:00 - 22:00'}}",031-656-3988,17840,37.0211176055853-127.07553918798,경기,https://www.shoemarker.co.kr/ASP/Customer/Ajax/StoreView.asp?Page=
"서울 서초구 매헌로 16 이마트 양재점, 지하 1층 슈마커",Shoemarker,서초구,South Korea,"{'brand': 'Shoemarker', 'fascia': 'Shoemarker', 'category': 'Retail', 'edit_date': '20250503', 'lat_lon_source': 'Third Party'}",37.462467348157,127.036947909974,E양재점,"{'opening_hours': {'Mon': '10:00 - 22:00', 'Tue': '10:00 - 22:00', 'Wed': '10:00 - 22:00', 'Thu': '10:00 - 22:00', 'Fri': '10:00 - 22:00', 'Sat': '10:00 - 22:00', 'Sun': '10:00 - 22:00'}}",-,06771,37.462467348157-127.036947909974,서울,https://www.shoemarker.co.kr/ASP/Customer/Ajax/StoreView.asp?Page=
전라남도 순천시 팔마로 191 2층 슈마커,Shoemarker,순천시,South Korea,"{'brand': 'Shoemarker', 'fascia': 'Shoemarker', 'category': 'Retail', 'edit_date': '20250503', 'lat_lon_source': 'Third Party'}",34.9425719076455,127.508450253353,E순천점,"{'opening_hours': {'Mon': '10:00 - 22:00', 'Tue': '10:00 - 22:00', 'Wed': '10:00 - 22:00', 'Thu': '10:00 - 22:00', 'Fri': '10:00 - 22:00', 'Sat': '10:00 - 22:00', 'Sun': '10:00 - 22:00'}}",061-742-2809,57964,34.9425719076455-127.508450253353,전남,https://www.shoemarker.co.kr/ASP/Customer/Ajax/StoreView.asp?Page=
경기도 군포시 산본로 347 이마트 산본점 3층,Shoemarker,군포시,South Korea,"{'brand': 'Shoemarker', 'fascia': 'Shoemarker', 'category': 'Retail', 'edit_date': '20250503', 'lat_lon_source': 'Third Party'}",37.3610881761218,126.931418119741,E산본점,"{'opening_hours': {'Mon': '10:00 - 22:00', 'Tue': '10:00 - 22:00', 'Wed': '10:00 - 22:00', 'Thu': '10:00 - 22:00', 'Fri': '10:00 - 22:00', 'Sat': '10:00 - 22:00', 'Sun': '10:00 - 22:00'}}",031-398-2809,15865,37.3610881761218-126.931418119741,경기,https://www.shoemarker.co.kr/ASP/Customer/Ajax/StoreView.asp?Page=
강원도 춘천시 경춘로 2353 이마트 춘천점 2층,Shoemarker,춘천시,South Korea,"{'brand': 'Shoemarker', 'fascia': 'Shoemarker', 'category': 'Retail', 'edit_date': '20250503', 'lat_lon_source': 'Third Party'}",37.8638689190636,127.718718364612,E춘천점,"{'opening_hours': {'Mon': '10:00 - 22:00', 'Tue': '10:00 - 22:00', 'Wed': '10:00 - 22:00', 'Thu': '10:00 - 22:00', 'Fri': '10:00 - 22:00', 'Sat': '10:00 - 22:00', 'Sun': '10:00 - 22:00'}}",033-256-2809,24435,37.8638689190636-127.718718364612,강원특별자치도,https://www.shoemarker.co.kr/ASP/Customer/Ajax/StoreView.asp?Page=
전북 익산시 평동로 705 2층 슈마커,Shoemarker,익산시,South Korea,"{'brand': 'Shoemarker', 'fascia': 'Shoemarker', 'category': 'Retail', 'edit_date': '20250503', 'lat_lon_source': 'Third Party'}",35.9306498230572,126.957862789397,E익산점,"{'opening_hours': {'Mon': '10:00 - 22:00', 'Tue': '10:00 - 22:00', 'Wed': '10:00 - 22:00', 'Thu': '10:00 - 22:00', 'Fri': '10:00 - 22:00', 'Sat': '10:00 - 22:00', 'Sun': '10:00 - 22:00'}}",070-4242-5058,54606,35.9306498230572-126.957862789397,전북특별자치도,https://www.shoemarker.co.kr/ASP/Customer/Ajax/StoreView.asp?Page=
경기도 포천시 호국로 915 이마트 포천점 1층,Shoemarker,포천시,South Korea,"{'brand': 'Shoemarker', 'fascia': 'Shoemarker', 'category': 'Retail', 'edit_date': '20250503', 'lat_lon_source': 'Third Party'}",37.8477456830185,127.160458753698,E포천점,"{'opening_hours': {'Mon': '10:00 - 22:00', 'Tue': '10:00 - 22:00', 'Wed': '10:00 - 22:00', 'Thu': '10:00 - 22:00', 'Fri': '10:00 - 22:00', 'Sat': '10:00 - 22:00', 'Sun': '10:00 - 22:00'}}",070-8800-4400,11161,37.8477456830185-127.160458753698,경기,https://www.shoemarker.co.kr/ASP/Customer/Ajax/StoreView.asp?Page=
경기 오산시 경기대로 181 3층 슈마커,Shoemarker,오산시,South Korea,"{'brand': 'Shoemarker', 'fascia': 'Shoemarker', 'category': 'Retail', 'edit_date': '20250503', 'lat_lon_source': 'Third Party'}",37.1406610739341,127.072703947859,E오산점,"{'opening_hours': {'Mon': '00:00-23:59', 'Tue': '00:00-23:59', 'Wed': '00:00-23:59', 'Thu': '00:00-23:59', 'Fri': '00:00-23:59', 'Sat': '00:00-23:59', 'Sun': '00:00-23:59'}}",031-374-2809,18143,37.1406610739341-127.072703947859,경기,https://www.shoemarker.co.kr/ASP/Customer/Ajax/StoreView.asp?Page=
전북 전주시 완산구 당산로 111 전주이마트 2층,Shoemarker,전주시 완산구,South Korea,"{'brand': 'Shoemarker', 'fascia': 'Shoemarker', 'category': 'Retail', 'edit_date': '20250503', 'lat_lon_source': 'Third Party'}",35.832590259328,127.12044783531,E전주점,"{'opening_hours': {'Mon': '10:00 - 22:00', 'Tue': '10:00 - 22:00', 'Wed': '10:00 - 22:00', 'Thu': '10:00 - 22:00', 'Fri': '10:00 - 22:00', 'Sat': '10:00 - 22:00', 'Sun': '10:00 - 22:00'}}",063-252-6740,54949,35.832590259328-127.12044783531,전북특별자치도,https://www.shoemarker.co.kr/ASP/Customer/Ajax/StoreView.asp?Page=
경상북도 포항시 북구 대이로 188 이마트 포항이동점 지하 1층,Shoemarker,포항시 북구,South Korea,"{'brand': 'Shoemarker', 'fascia': 'Shoemarker', 'category': 'Retail', 'edit_date': '20250503', 'lat_lon_source': 'Third Party'}",36.0317786480652,129.339041987992,E포항이동점,"{'opening_hours': {'Mon': '10:00 - 22:00', 'Tue': '10:00 - 22:00', 'Wed': '10:00 - 22:00', 'Thu': '10:00 - 22:00', 'Fri': '10:00 - 22:00', 'Sat': '10:00 - 22:00', 'Sun': '10:00 - 22:00'}}",054-275-5761,37694,36.0317786480652-129.339041987992,경북,https://www.shoemarker.co.kr/ASP/Customer/Ajax/StoreView.asp?Page=
강원 원주시 북원로 1928 1층 슈마커,Shoemarker,원주시,South Korea,"{'brand': 'Shoemarker', 'fascia': 'Shoemarker', 'category': 'Retail', 'edit_date': '20250503', 'lat_lon_source': 'Third Party'}",37.3206714811843,127.919047521687,E원주점,"{'opening_hours': {'Mon': '10:00 - 22:00', 'Tue': '10:00 - 22:00', 'Wed': '10:00 - 22:00', 'Thu': '10:00 - 22:00', 'Fri': '10:00 - 22:00', 'Sat': '10:00 - 22:00', 'Sun': '10:00 - 22:00'}}",033-765-7778,26395,37.3206714811843-127.919047521687,강원특별자치도,https://www.shoemarker.co.kr/ASP/Customer/Ajax/StoreView.asp?Page=
경기 화성시 봉담읍 효행로 278 이마트 지하 1층 슈마커 화성봉담점,Shoemarker,화성시,South Korea,"{'brand': 'Shoemarker', 'fascia': 'Shoemarker', 'category': 'Retail', 'edit_date': '20250503', 'lat_lon_source': 'Third Party'}",37.2225940279612,126.972697033512,E화성봉담점,"{'opening_hours': {'Mon': '00:00-23:59', 'Tue': '00:00-23:59', 'Wed': '00:00-23:59', 'Thu': '00:00-23:59', 'Fri': '00:00-23:59', 'Sat': '00:00-23:59', 'Sun': '00:00-23:59'}}",070-7757-9212,18298,37.2225940279612-126.972697033512,경기,https://www.shoemarker.co.kr/ASP/Customer/Ajax/StoreView.asp?Page=
경기도 수원시 장안구 경수대로 930 홈플러스 북수원점 3층,Shoemarker,수원시 장안구,South Korea,"{'brand': 'Shoemarker', 'fascia': 'Shoemarker', 'category': 'Retail', 'edit_date': '20250503', 'lat_lon_source': 'Third Party'}",37.302770156247,127.008801286183,H북수원점,"{'opening_hours': {'Mon': '10:00 - 24:00', 'Tue': '10:00 - 24:00', 'Wed': '10:00 - 24:00', 'Thu': '10:00 - 24:00', 'Fri': '10:00 - 24:00', 'Sat': '10:00 - 24:00', 'Sun': '10:00 - 24:00'}}",031-253-3707,16295,37.302770156247-127.008801286183,경기,https://www.shoemarker.co.kr/ASP/Customer/Ajax/StoreView.asp?Page=
경기 고양시 덕양구 백양로 79 이마트 화정점 지하 1층,Shoemarker,고양시 덕양구,South Korea,"{'brand': 'Shoemarker', 'fascia': 'Shoemarker', 'category': 'Retail', 'edit_date': '20250503', 'lat_lon_source': 'Third Party'}",37.6326870819297,126.833399287992,E화정점,"{'opening_hours': {'Mon': '10:00 - 22:00', 'Tue': '10:00 - 22:00', 'Wed': '10:00 - 22:00', 'Thu': '10:00 - 22:00', 'Fri': '10:00 - 22:00', 'Sat': '10:00 - 22:00', 'Sun': '10:00 - 22:00'}}",031-973-2809,10500,37.6326870819297-126.833399287992,경기,https://www.shoemarker.co.kr/ASP/Customer/Ajax/StoreView.asp?Page=
제주특별자치도 서귀포시 중앙로 180 홈플러스서귀포점 1층 슈마커,Shoemarker,서귀포시,South Korea,"{'brand': 'Shoemarker', 'fascia': 'Shoemarker', 'category': 'Retail', 'edit_date': '20250503', 'lat_lon_source': 'Third Party'}",33.2604859888121,126.559934556059,H서귀포점,"{'opening_hours': {'Mon': '00:00-23:59', 'Tue': '00:00-23:59', 'Wed': '00:00-23:59', 'Thu': '00:00-23:59', 'Fri': '00:00-23:59', 'Sat': '00:00-23:59', 'Sun': '00:00-23:59'}}",064-767-0224,63585,33.2604859888121-126.559934556059,제주특별자치도,https://www.shoemarker.co.kr/ASP/Customer/Ajax/StoreView.asp?Page=
서울특별시 금천구 시흥대로 387-2 금천홈플러스 1층,Shoemarker,금천구,South Korea,"{'brand': 'Shoemarker', 'fascia': 'Shoemarker', 'category': 'Retail', 'edit_date': '20250503', 'lat_lon_source': 'Third Party'}",37.4682101971541,126.89761304559,H금천점,"{'opening_hours': {'Mon': '10:00-24:00', 'Tue': '10:00-24:00', 'Wed': '10:00-24:00', 'Thu': '10:00-24:00', 'Fri': '10:00-24:00', 'Sat': '10:00-24:00', 'Sun': '10:00-24:00'}}",02-805-2809,08584,37.4682101971541-126.89761304559,서울,https://www.shoemarker.co.kr/ASP/Customer/Ajax/StoreView.asp?Page=
경기도 남양주시 진접읍 금강로 1447 홈플러스 진접점 지하 1층,Shoemarker,남양주시,South Korea,"{'brand': 'Shoemarker', 'fascia': 'Shoemarker', 'category': 'Retail', 'edit_date': '20250503', 'lat_lon_source': 'Third Party'}",37.7217474135421,127.188606644806,H진접점,"{'opening_hours': {'Mon': '10:00-23:00', 'Tue': '10:00-23:00', 'Wed': '10:00-23:00', 'Thu': '10:00-23:00', 'Fri': '10:00-23:00', 'Sat': '10:00-23:00', 'Sun': '10:00-23:00'}}",031-574-7231,12008,37.7217474135421-127.188606644806,경기,https://www.shoemarker.co.kr/ASP/Customer/Ajax/StoreView.asp?Page=
경남 창원시 마산합포구 신마산시장길 33 1층 슈마커,Shoemarker,창원시 마산합포구,South Korea,"{'brand': 'Shoemarker', 'fascia': 'Shoemarker', 'category': 'Retail', 'edit_date': '20250503', 'lat_lon_source': 'Third Party'}",35.1813235148166,128.560732929617,L마산점,"{'opening_hours': {'Mon': '10:00 - 22:00 영업', 'Tue': '10:00 - 22:00 영업', 'Wed': '10:00 - 22:00 영업', 'Thu': '10:00 - 22:00 영업', 'Fri': '10:00 - 22:00 영업', 'Sat': '10:00 - 22:00 영업', 'Sun': '10:00 - 22:00 영업'}}",070-7714-3582,51744,35.1813235148166-128.560732929617,경남,https://www.shoemarker.co.kr/ASP/Customer/Ajax/StoreView.asp?Page=
인천광역시 계양구 장제로 822 롯데마트 계양점 지하 1층,Shoemarker,계양구,South Korea,"{'brand': 'Shoemarker', 'fascia': 'Shoemarker', 'category': 'Retail', 'edit_date': '20250503', 'lat_lon_source': 'Third Party'}",37.5408492649713,126.736003459808,L계양점,"{'opening_hours': {'Mon': '10:00-23:00', 'Tue': '10:00-23:00', 'Wed': '10:00-23:00', 'Thu': '10:00-23:00', 'Fri': '10:00-23:00', 'Sat': '10:00-23:00', 'Sun': '10:00-23:00'}}",032-548-2888,21060,37.5408492649713-126.736003459808,인천,https://www.shoemarker.co.kr/ASP/Customer/Ajax/StoreView.asp?Page=
광주 동구 중앙로 163 NC광주충장로점 6층,Shoemarker,동구,South Korea,"{'brand': 'Shoemarker', 'fascia': 'Shoemarker', 'category': 'Retail', 'edit_date': '20250503', 'lat_lon_source': 'Third Party'}",35.1486317606388,126.913162021511,NC광주충장로점,"{'opening_hours': {'Mon': '월-목 10:30-21:00 금-일 10:30-22:00', 'Tue': '월-목 10:30-21:00 금-일 10:30-22:00', 'Wed': '월-목 10:30-21:00 금-일 10:30-22:00', 'Thu': '월-목 10:30-21:00 금-일 10:30-22:00', 'Fri': '월-목 10:30-21:00 금-일 10:30-22:00', 'Sat': '월-목 10:30-21:00 금-일 10:30-22:00', 'Sun': '월-목 10:30-21:00 금-일 10:30-22:00'}}",062-718-9599,61480,35.1486317606388-126.913162021511,광주,https://www.shoemarker.co.kr/ASP/Customer/Ajax/StoreView.asp?Page=
서울 노원구 노원로 330 롯데마트 2층 슈마커,Shoemarker,노원구,South Korea,"{'brand': 'Shoemarker', 'fascia': 'Shoemarker', 'category': 'Retail', 'edit_date': '20250503', 'lat_lon_source': 'Third Party'}",37.6467905319279,127.070940893709,L중계점,"{'opening_hours': {'Mon': '매일 오전10:00-오후23:00', 'Tue': '매일 오전10:00-오후23:00', 'Wed': '매일 오전10:00-오후23:00', 'Thu': '매일 오전10:00-오후23:00', 'Fri': '매일 오전10:00-오후23:00', 'Sat': '매일 오전10:00-오후23:00', 'Sun': '매일 오전10:00-오후23:00'}}",02-939-2809,01746,37.6467905319279-127.070940893709,서울,https://www.shoemarker.co.kr/ASP/Customer/Ajax/StoreView.asp?Page=
경기도 화성시 경기대로 985 홈플러스 병점점 1층,Shoemarker,화성시,South Korea,"{'brand': 'Shoemarker', 'fascia': 'Shoemarker', 'category': 'Retail', 'edit_date': '20250503', 'lat_lon_source': 'Third Party'}",37.2037454737551,127.036753152508,H병점점,"{'opening_hours': {'Mon': '10:00 - 24:00', 'Tue': '10:00 - 24:00', 'Wed': '10:00 - 24:00', 'Thu': '10:00 - 24:00', 'Fri': '10:00 - 24:00', 'Sat': '10:00 - 24:00', 'Sun': '10:00 - 24:00'}}",031-222-2809,18412,37.2037454737551-127.036753152508,경기,https://www.shoemarker.co.kr/ASP/Customer/Ajax/StoreView.asp?Page=
충청북도 청주시 흥덕구 서부로 1291 홈플러스 청주점 2층,Shoemarker,청주시 흥덕구,South Korea,"{'brand': 'Shoemarker', 'fascia': 'Shoemarker', 'category': 'Retail', 'edit_date': '20250503', 'lat_lon_source': 'Third Party'}",36.6154343869329,127.442238420125,H청주점,"{'opening_hours': {'Mon': '10:00-24:00', 'Tue': '10:00-24:00', 'Wed': '10:00-24:00', 'Thu': '10:00-24:00', 'Fri': '10:00-24:00', 'Sat': '10:00-24:00', 'Sun': '10:00-24:00'}}",043-234-1110,28413,36.6154343869329-127.442238420125,충북,https://www.shoemarker.co.kr/ASP/Customer/Ajax/StoreView.asp?Page=
인천광역시 부평구 길주로 623 롯데마트 삼산점 2층,Shoemarker,부평구,South Korea,"{'brand': 'Shoemarker', 'fascia': 'Shoemarker', 'category': 'Retail', 'edit_date': '20250503', 'lat_lon_source': 'Third Party'}",37.5078930616166,126.732015799254,L부평삼산점,"{'opening_hours': {'Mon': '10:00 - 23:00', 'Tue': '10:00 - 23:00', 'Wed': '10:00 - 23:00', 'Thu': '10:00 - 23:00', 'Fri': '10:00 - 23:00', 'Sat': '10:00 - 23:00', 'Sun': '10:00 - 23:00'}}",070-7740-2809,21344,37.5078930616166-126.732015799254,인천,https://www.shoemarker.co.kr/ASP/Customer/Ajax/StoreView.asp?Page=
광주광역시 서구 금화로 240 월드컵경기장 롯데마트 2층 슈마커,Shoemarker,서구,South Korea,"{'brand': 'Shoemarker', 'fascia': 'Shoemarker', 'category': 'Retail', 'edit_date': '20250503', 'lat_lon_source': 'Third Party'}",35.1336460778946,126.874829928048,L광주월드컵점,"{'opening_hours': {'Mon': '10:00 - 22:00', 'Tue': '10:00 - 22:00', 'Wed': '10:00 - 22:00', 'Thu': '10:00 - 22:00', 'Fri': '10:00 - 22:00', 'Sat': '10:00 - 22:00', 'Sun': '10:00 - 22:00'}}",070-7798-1324,62048,35.1336460778946-126.874829928048,광주,https://www.shoemarker.co.kr/ASP/Customer/Ajax/StoreView.asp?Page=
경기도 안산시 단원구 광덕대로 194 NC안산고잔점 B관 4층 슈마커,Shoemarker,안산시 단원구,South Korea,"{'brand': 'Shoemarker', 'fascia': 'Shoemarker', 'category': 'Retail', 'edit_date': '20250503', 'lat_lon_source': 'Third Party'}",37.3134591033479,126.831015927769,NC안산고잔점,"{'opening_hours': {'Mon': '월-목 10:30 - 21:00 , 금-일 10:30 - 22:00', 'Tue': '월-목 10:30 - 21:00 , 금-일 10:30 - 22:00', 'Wed': '월-목 10:30 - 21:00 , 금-일 10:30 - 22:00', 'Thu': '월-목 10:30 - 21:00 , 금-일 10:30 - 22:00', 'Fri': '월-목 10:30 - 21:00 , 금-일 10:30 - 22:00', 'Sat': '월-목 10:30 - 21:00 , 금-일 10:30 - 22:00', 'Sun': '월-목 10:30 - 21:00 , 금-일 10:30 - 22:00'}}",070-8880-4050,15462,37.3134591033479-126.831015927769,경기,https://www.shoemarker.co.kr/ASP/Customer/Ajax/StoreView.asp?Page=
경남 창원시 진해구 진해대로 762 3층 슈마커,Shoemarker,창원시 진해구,South Korea,"{'brand': 'Shoemarker', 'fascia': 'Shoemarker', 'category': 'Retail', 'edit_date': '20250503', 'lat_lon_source': 'Third Party'}",35.1581646243334,128.698757554273,L진해점,"{'opening_hours': {'Mon': '10:00 - 23:00', 'Tue': '10:00 - 23:00', 'Wed': '10:00 - 23:00', 'Thu': '10:00 - 23:00', 'Fri': '10:00 - 23:00', 'Sat': '10:00 - 23:00', 'Sun': '10:00 - 23:00'}}",-,51658,35.1581646243334-128.698757554273,경남,https://www.shoemarker.co.kr/ASP/Customer/Ajax/StoreView.asp?Page=
부산 해운대구 센텀동로 6 2층 슈마커,Shoemarker,해운대구,South Korea,"{'brand': 'Shoemarker', 'fascia': 'Shoemarker', 'category': 'Retail', 'edit_date': '20250503', 'lat_lon_source': 'Third Party'}",35.1709132429029,129.133691863258,H부산센텀시티점,"{'opening_hours': {'Mon': '10:00 - 22:00', 'Tue': '10:00 - 22:00', 'Wed': '10:00 - 22:00', 'Thu': '10:00 - 22:00', 'Fri': '10:00 - 22:00', 'Sat': '10:00 - 22:00', 'Sun': '10:00 - 22:00'}}",051-867-2809,48059,35.1709132429029-129.133691863258,부산,https://www.shoemarker.co.kr/ASP/Customer/Ajax/StoreView.asp?Page=
강원도 춘천시 김유정로 1840 홈플러스 춘천점 지하 1층,Shoemarker,춘천시,South Korea,"{'brand': 'Shoemarker', 'fascia': 'Shoemarker', 'category': 'Retail', 'edit_date': '20250503', 'lat_lon_source': 'Third Party'}",37.8506350190229,127.734774927708,H춘천점,"{'opening_hours': {'Mon': '10:00 - 24:00', 'Tue': '10:00 - 24:00', 'Wed': '10:00 - 24:00', 'Thu': '10:00 - 24:00', 'Fri': '10:00 - 24:00', 'Sat': '10:00 - 24:00', 'Sun': '10:00 - 24:00'}}",070-8847-2809,24423,37.8506350190229-127.734774927708,강원특별자치도,https://www.shoemarker.co.kr/ASP/Customer/Ajax/StoreView.asp?Page=
인천광역시 부평구 광장로 16 롯데마트 부평역점 2층,Shoemarker,부평구,South Korea,"{'brand': 'Shoemarker', 'fascia': 'Shoemarker', 'category': 'Retail', 'edit_date': '20250503', 'lat_lon_source': 'Third Party'}",37.4895676659869,126.72335064425,L부평역점,"{'opening_hours': {'Mon': '10:00-23:00', 'Tue': '10:00-23:00', 'Wed': '10:00-23:00', 'Thu': '10:00-23:00', 'Fri': '10:00-23:00', 'Sat': '10:00-23:00', 'Sun': '10:00-23:00'}}",032-502-9888,21404,37.4895676659869-126.72335064425,인천,https://www.shoemarker.co.kr/ASP/Customer/Ajax/StoreView.asp?Page=
광주 광산구 첨단강변로99번길 22 1층 슈마커,Shoemarker,광산구,South Korea,"{'brand': 'Shoemarker', 'fascia': 'Shoemarker', 'category': 'Retail', 'edit_date': '20250503', 'lat_lon_source': 'Third Party'}",35.2167748780346,126.851917253723,L광주첨단점,"{'opening_hours': {'Mon': '10:00 - 23:00', 'Tue': '10:00 - 23:00', 'Wed': '10:00 - 23:00', 'Thu': '10:00 - 23:00', 'Fri': '10:00 - 23:00', 'Sat': '10:00 - 23:00', 'Sun': '10:00 - 23:00'}}",070-4154-0726,62279,35.2167748780346-126.851917253723,광주,https://www.shoemarker.co.kr/ASP/Customer/Ajax/StoreView.asp?Page=
경기도 고양시 일산동구 중앙로 1206 지하2층 슈마커,Shoemarker,고양시 일산동구,South Korea,"{'brand': 'Shoemarker', 'fascia': 'Shoemarker', 'category': 'Retail', 'edit_date': '20250503', 'lat_lon_source': 'Third Party'}",37.6545811413927,126.776836304918,NC일산점,"{'opening_hours': {'Mon': '월-목 10:30 - 21:00 , 금-일 10:30 - 22:00', 'Tue': '월-목 10:30 - 21:00 , 금-일 10:30 - 22:00', 'Wed': '월-목 10:30 - 21:00 , 금-일 10:30 - 22:00', 'Thu': '월-목 10:30 - 21:00 , 금-일 10:30 - 22:00', 'Fri': '월-목 10:30 - 21:00 , 금-일 10:30 - 22:00', 'Sat': '월-목 10:30 - 21:00 , 금-일 10:30 - 22:00', 'Sun': '월-목 10:30 - 21:00 , 금-일 10:30 - 22:00'}}",031-900-5990,10414,37.6545811413927-126.776836304918,경기,https://www.shoemarker.co.kr/ASP/Customer/Ajax/StoreView.asp?Page=
충청북도 충주시 충원대로 626  롯데마트 충주점 2층,Shoemarker,충주시,South Korea,"{'brand': 'Shoemarker', 'fascia': 'Shoemarker', 'category': 'Retail', 'edit_date': '20250503', 'lat_lon_source': 'Third Party'}",36.9824981806255,127.914247500648,L충주점,"{'opening_hours': {'Mon': '10:00-23:00', 'Tue': '10:00-23:00', 'Wed': '10:00-23:00', 'Thu': '10:00-23:00', 'Fri': '10:00-23:00', 'Sat': '10:00-23:00', 'Sun': '10:00-23:00'}}",043-857-2809,27360,36.9824981806255-127.914247500648,충북,https://www.shoemarker.co.kr/ASP/Customer/Ajax/StoreView.asp?Page=
경상남도 창원시 마산회원구 삼호로 80 메트로시티 2단지 롯데마트 양덕점 2층,Shoemarker,창원시 마산회원구,South Korea,"{'brand': 'Shoemarker', 'fascia': 'Shoemarker', 'category': 'Retail', 'edit_date': '20250503', 'lat_lon_source': 'Third Party'}",35.2236728605877,128.584565894733,L양덕점,"{'opening_hours': {'Mon': '10:00-23:00', 'Tue': '10:00-23:00', 'Wed': '10:00-23:00', 'Thu': '10:00-23:00', 'Fri': '10:00-23:00', 'Sat': '10:00-23:00', 'Sun': '10:00-23:00'}}",055-256-2808,51319,35.2236728605877-128.584565894733,경남,https://www.shoemarker.co.kr/ASP/Customer/Ajax/StoreView.asp?Page=
경상북도 구미시 구미대로22길 11 롯데마트 구미점 2층,Shoemarker,구미시,South Korea,"{'brand': 'Shoemarker', 'fascia': 'Shoemarker', 'category': 'Retail', 'edit_date': '20250503', 'lat_lon_source': 'Third Party'}",36.1137881261944,128.365409037404,L구미점,"{'opening_hours': {'Mon': '10:00 - 23:00', 'Tue': '10:00 - 23:00', 'Wed': '10:00 - 23:00', 'Thu': '10:00 - 23:00', 'Fri': '10:00 - 23:00', 'Sat': '10:00 - 23:00', 'Sun': '10:00 - 23:00'}}",054-463-5989,39255,36.1137881261944-128.365409037404,경북,https://www.shoemarker.co.kr/ASP/Customer/Ajax/StoreView.asp?Page=
부산광역시 해운대구 해운대로 813 NC해운대점 5층 슈마커,Shoemarker,해운대구,South Korea,"{'brand': 'Shoemarker', 'fascia': 'Shoemarker', 'category': 'Retail', 'edit_date': '20250503', 'lat_lon_source': 'Third Party'}",35.1706091827148,129.177076183632,NC해운대점,"{'opening_hours': {'Mon': '월-목 10:30 - 21:00 , 금-일 10:30 - 22:00', 'Tue': '월-목 10:30 - 21:00 , 금-일 10:30 - 22:00', 'Wed': '월-목 10:30 - 21:00 , 금-일 10:30 - 22:00', 'Thu': '월-목 10:30 - 21:00 , 금-일 10:30 - 22:00', 'Fri': '월-목 10:30 - 21:00 , 금-일 10:30 - 22:00', 'Sat': '월-목 10:30 - 21:00 , 금-일 10:30 - 22:00', 'Sun': '월-목 10:30 - 21:00 , 금-일 10:30 - 22:00'}}",051-703-2809,48106,35.1706091827148-129.177076183632,부산,https://www.shoemarker.co.kr/ASP/Customer/Ajax/StoreView.asp?Page=
경상남도 통영시 무전대로 65 롯데마트 통영점 2층,Shoemarker,통영시,South Korea,"{'brand': 'Shoemarker', 'fascia': 'Shoemarker', 'category': 'Retail', 'edit_date': '20250503', 'lat_lon_source': 'Third Party'}",34.860578142666,128.428237605428,L통영점,"{'opening_hours': {'Mon': '10:00-23:00', 'Tue': '10:00-23:00', 'Wed': '10:00-23:00', 'Thu': '10:00-23:00', 'Fri': '10:00-23:00', 'Sat': '10:00-23:00', 'Sun': '10:00-23:00'}}",055-648-8746,53036,34.860578142666-128.428237605428,경남,https://www.shoemarker.co.kr/ASP/Customer/Ajax/StoreView.asp?Page=
전라북도 익산시 무왕로 1053 롯데마트 익산점 3층,Shoemarker,익산시,South Korea,"{'brand': 'Shoemarker', 'fascia': 'Shoemarker', 'category': 'Retail', 'edit_date': '20250503', 'lat_lon_source': 'Third Party'}",35.9592581655197,126.97424621545,L익산점,"{'opening_hours': {'Mon': '10:00 - 23:00', 'Tue': '10:00 - 23:00', 'Wed': '10:00 - 23:00', 'Thu': '10:00 - 23:00', 'Fri': '10:00 - 23:00', 'Sat': '10:00 - 23:00', 'Sun': '10:00 - 23:00'}}",070-7756-3151,54545,35.9592581655197-126.97424621545,전북특별자치도,https://www.shoemarker.co.kr/ASP/Customer/Ajax/StoreView.asp?Page=
충남 당진시 정안로 20 2층 슈마커,Shoemarker,당진시,South Korea,"{'brand': 'Shoemarker', 'fascia': 'Shoemarker', 'category': 'Retail', 'edit_date': '20250503', 'lat_lon_source': 'Third Party'}",36.9057741781123,126.646259954098,L당진점,"{'opening_hours': {'Mon': '10:00 - 23:00', 'Tue': '10:00 - 23:00', 'Wed': '10:00 - 23:00', 'Thu': '10:00 - 23:00', 'Fri': '10:00 - 23:00', 'Sat': '10:00 - 23:00', 'Sun': '10:00 - 23:00'}}",041-352-2503,31767,36.9057741781123-126.646259954098,충남,https://www.shoemarker.co.kr/ASP/Customer/Ajax/StoreView.asp?Page=
서울특별시 강서구 강서로56길 17 NC강서점 4층 슈마커,Shoemarker,강서구,South Korea,"{'brand': 'Shoemarker', 'fascia': 'Shoemarker', 'category': 'Retail', 'edit_date': '20250503', 'lat_lon_source': 'Third Party'}",37.559933531546,126.840498784915,NC강서점,"{'opening_hours': {'Mon': '10:30 - 21:00 (주말 30분씩 연장)', 'Tue': '10:30 - 21:00 (주말 30분씩 연장)', 'Wed': '10:30 - 21:00 (주말 30분씩 연장)', 'Thu': '10:30 - 21:00 (주말 30분씩 연장)', 'Fri': '10:30 - 21:00 (주말 30분씩 연장)', 'Sat': '10:30 - 21:00 (주말 30분씩 연장)', 'Sun': '10:30 - 21:00 (주말 30분씩 연장)'}}",02-2667-9880,07584,37.559933531546-126.840498784915,서울,https://www.shoemarker.co.kr/ASP/Customer/Ajax/StoreView.asp?Page=
