addr_full,brand,city,country,extras,lat,lon,name,opening_hours,phone,postcode,ref,state,website
"128 b, rue lépine",Castorama,Viriat,France,"{'brand': 'Castorama', 'fascia': 'Castorama Bourg-en-Bresse', 'category': '', 'edit_date': '20250313', 'lat_lon_source': 'website'}",46.22397,5.20402,Castorama Bourg-en-Bresse,"{'opening_hours': {'lun': '08:00 - 20:00', 'mar': '08:00 - 20:00', 'mer': '08:00 - 20:00', 'jeu': '08:00 - 20:00', 'ven': '08:00 - 20:00', 'sam': '08:00 - 20:00', 'dim': '09:00 - 18:00'}}",04 74 45 61 61,01440,1468,Bourg-en-bresse,https://www.castorama.fr/store/1468
Parc d affaires route du Paisy,Castorama,DARDILLY,France,"{'brand': 'Castorama', 'fascia': 'Castorama Dardilly', 'category': '', 'edit_date': '20250313', 'lat_lon_source': 'website'}",45.80558,4.76457,Castorama Dardilly,"{'opening_hours': {'lun': '07:00 - 20:00', 'mar': '07:00 - 20:00', 'mer': '07:00 - 20:00', 'jeu': '07:00 - 20:00', 'ven': '07:00 - 20:00', 'sam': '07:00 - 20:00', 'dim': '09:00 - 18:00'}}",04 78 35 69 68,69570,1424,Dardilly,https://www.castorama.fr/store/1424
Z.a.c. de champ roman,Castorama,ST MARTIN D'HERES,France,"{'brand': 'Castorama', 'fascia': 'Castorama Grenoble', 'category': '', 'edit_date': '20250313', 'lat_lon_source': 'website'}",45.1842739,5.773737399999959,Castorama Grenoble,"{'opening_hours': {'lun': '08:00 - 20:00', 'mar': '08:00 - 20:00', 'mer': '08:00 - 20:00', 'jeu': '08:00 - 20:00', 'ven': '08:00 - 20:00', 'sam': '08:00 - 20:00', 'dim': '09:00 - 18:00'}}",04 76 42 22 18,38400,1466,Grenoble,https://www.castorama.fr/store/1466
Le champ du roy rond point de vancia,Castorama,RILLIEUX LA PAPE,France,"{'brand': 'Castorama', 'fascia': 'Castorama Rillieux-La-Pape', 'category': '', 'edit_date': '20250313', 'lat_lon_source': 'website'}",45.82837,4.90765,Castorama Rillieux-La-Pape,"{'opening_hours': {'lun': '08:00 - 20:00', 'mar': '08:00 - 20:00', 'mer': '08:00 - 20:00', 'jeu': '08:00 - 20:00', 'ven': '08:00 - 20:00', 'sam': '08:00 - 20:00', 'dim': '09:00 - 18:00'}}",04 78 97 30 30,69140,1427,Rillieux-La-Pape,https://www.castorama.fr/store/1427
Aéroport de lyon bron case 06,Castorama,BRON,France,"{'brand': 'Castorama', 'fascia': 'Castorama Bron', 'category': '', 'edit_date': '20250313', 'lat_lon_source': 'website'}",45.72839,4.93743,Castorama Bron,"{'opening_hours': {'lun': '07:00 - 20:00', 'mar': '07:00 - 20:00', 'mer': '07:00 - 20:00', 'jeu': '07:00 - 20:00', 'ven': '07:00 - 20:00', 'sam': '07:00 - 20:00', 'dim': '09:00 - 18:00'}}",04 72 15 24 24,69675,1437,Bron,https://www.castorama.fr/store/1437
Zi landiers nord rue des marais,Castorama,CHAMBERY,France,"{'brand': 'Castorama', 'fascia': 'Castorama Chambéry', 'category': '', 'edit_date': '20250313', 'lat_lon_source': 'website'}",45.61432,5.88973,Castorama Chambéry,"{'opening_hours': {'lun': '08:00 - 20:00', 'mar': '08:00 - 20:00', 'mer': '08:00 - 20:00', 'jeu': '08:00 - 20:00', 'ven': '08:00 - 20:00', 'sam': '08:00 - 20:00', 'dim': '08:30 - 12:30'}}",04 79 68 55 55,73000,1469,Chambéry,https://www.castorama.fr/store/1469
Zone de la bouvarde,Castorama,METZ-TESSY (ANNECY),France,"{'brand': 'Castorama', 'fascia': 'Castorama Metz Tessy', 'category': '', 'edit_date': '20250313', 'lat_lon_source': 'website'}",45.93405,6.12152,Castorama Metz Tessy,"{'opening_hours': {'lun': '08:00 - 20:00', 'mar': '08:00 - 20:00', 'mer': '08:00 - 20:00', 'jeu': '08:00 - 20:00', 'ven': '08:00 - 20:00', 'sam': '08:00 - 20:00', 'dim': ''}}",04 50 27 26 20,74370,1465,Metz Tessy,https://www.castorama.fr/store/1465
Centre commercial carrefour,Castorama,GIVORS,France,"{'brand': 'Castorama', 'fascia': 'Castorama Givors', 'category': '', 'edit_date': '20250313', 'lat_lon_source': 'website'}",45.5837175026602,4.751267706600174,Castorama Givors,"{'opening_hours': {'lun': '08:00 - 20:00', 'mar': '08:00 - 20:00', 'mer': '08:00 - 20:00', 'jeu': '08:00 - 20:00', 'ven': '08:00 - 20:00', 'sam': '08:00 - 20:00', 'dim': '09:00 - 13:00'}}",04 72 49 23 90,69700,1414,Givors,https://www.castorama.fr/store/1414
Avenue du Roussillon,Castorama,AUBIERE,France,"{'brand': 'Castorama', 'fascia': 'Castorama Clermont-Ferrand', 'category': '', 'edit_date': '20250313', 'lat_lon_source': 'website'}",45.75544897649784,3.1268553915405164,Castorama Clermont-Ferrand,"{'opening_hours': {'lun': '08:00 - 20:00', 'mar': '08:00 - 20:00', 'mer': '08:00 - 20:00', 'jeu': '08:00 - 20:00', 'ven': '08:00 - 20:00', 'sam': '08:00 - 20:00', 'dim': '09:00 - 18:00'}}",04 73 28 68 28,63170,1436,Clermont-Ferrand,https://www.castorama.fr/store/1436
Route de Bénodet,Castorama,QUIMPER,France,"{'brand': 'Castorama', 'fascia': 'Castorama Quimper', 'category': '', 'edit_date': '20250313', 'lat_lon_source': 'website'}",47.9646,-4.08335,Castorama Quimper,"{'opening_hours': {'lun': '08:00 - 20:00', 'mar': '08:00 - 20:00', 'mer': '08:00 - 20:00', 'jeu': '08:00 - 20:00', 'ven': '08:00 - 20:00', 'sam': '08:00 - 20:00', 'dim': '09:00 - 17:00'}}",02 98 90 79 98,29000,1498,Quimper,https://www.castorama.fr/store/1498
140 rue du temple de blosne,Castorama,ST JACQUES DE LA LANDE,France,"{'brand': 'Castorama', 'fascia': 'Castorama Rennes-St Jacques', 'category': '', 'edit_date': '20250313', 'lat_lon_source': 'website'}",48.08748,-1.70601,Castorama Rennes-St Jacques,"{'opening_hours': {'lun': '08:00 - 20:00', 'mar': '08:00 - 20:00', 'mer': '08:00 - 20:00', 'jeu': '08:00 - 20:00', 'ven': '08:00 - 20:00', 'sam': '08:00 - 20:00', 'dim': '10:00 - 18:00'}}",02 99 35 36 37,35136,1432,Rennes-St Jacques,https://www.castorama.fr/store/1432
Rue denis papin zac de la maladière,Castorama,BOURGOIN JALLIEU,France,"{'brand': 'Castorama', 'fascia': 'Castorama Bourgoin-Jallieu', 'category': '', 'edit_date': '20250313', 'lat_lon_source': 'website'}",45.59019,5.25344,Castorama Bourgoin-Jallieu,"{'opening_hours': {'lun': '08:00 - 20:00', 'mar': '08:00 - 20:00', 'mer': '08:00 - 20:00', 'jeu': '08:00 - 20:00', 'ven': '08:00 - 20:00', 'sam': '08:00 - 20:00', 'dim': '09:00 - 18:00'}}",04 74 19 18 18,38300,1454,Bourgoin-jallieu,https://www.castorama.fr/store/1454
avenue du phare du grand jardin,Castorama,MELESSE,France,"{'brand': 'Castorama', 'fascia': 'Castorama Cap Malo', 'category': '', 'edit_date': '20250313', 'lat_lon_source': 'website'}",48.19994,-1.72406,Castorama Cap Malo,"{'opening_hours': {'lun': '08:00 - 20:00', 'mar': '08:00 - 20:00', 'mer': '08:00 - 20:00', 'jeu': '08:00 - 20:00', 'ven': '08:00 - 20:00', 'sam': '08:00 - 20:00', 'dim': '10:00 - 18:00'}}",02 99 13 00 01,35520,1482,Cap Malo,https://www.castorama.fr/store/1482
C.c. géant route de fréjus,Castorama,MANDELIEU,France,"{'brand': 'Castorama', 'fascia': 'Castorama Mandelieu', 'category': '', 'edit_date': '20250313', 'lat_lon_source': 'website'}",43.53214,6.93336,Castorama Mandelieu,"{'opening_hours': {'lun': '08:30 - 20:00', 'mar': '08:30 - 20:00', 'mer': '08:30 - 20:00', 'jeu': '08:30 - 20:00', 'ven': '08:30 - 20:00', 'sam': '08:30 - 20:00', 'dim': '09:00 - 13:00'}}",04 92 97 55 55,06210,1434,Mandelieu,https://www.castorama.fr/store/1434
Lieu-dit le rigon c.c. plan de campagne,Castorama,LES PENNES MIRABEAU,France,"{'brand': 'Castorama', 'fascia': 'Castorama Plan de Campagne', 'category': '', 'edit_date': '20250313', 'lat_lon_source': 'website'}",43.41501,5.35835,Castorama Plan de Campagne,"{'opening_hours': {'lun': '09:00 - 20:00', 'mar': '09:00 - 20:00', 'mer': '09:00 - 20:00', 'jeu': '09:00 - 20:00', 'ven': '09:00 - 20:00', 'sam': '09:00 - 20:00', 'dim': '09:00 - 20:00'}}",04 42 02 07 07,13170,1433,Plan de Campagne,https://www.castorama.fr/store/1433
4 rue René Cassin,Castorama,CHALON SUR SAONE,France,"{'brand': 'Castorama', 'fascia': 'Castorama Chalon-sur-Saône', 'category': '', 'edit_date': '20250313', 'lat_lon_source': 'website'}",46.77557,4.86434,Castorama Chalon-sur-Saône,"{'opening_hours': {'lun': '08:00 - 20:00', 'mar': '08:00 - 20:00', 'mer': '08:00 - 20:00', 'jeu': '08:00 - 20:00', 'ven': '08:00 - 20:00', 'sam': '08:00 - 20:00', 'dim': '08:30 - 12:30'}}",03 85 93 86 00,71100,1470,Chalon-sur-Saône,https://www.castorama.fr/store/1470
Avenue de draguignan z.i. toulon est,Castorama,LA GARDE,France,"{'brand': 'Castorama', 'fascia': 'Castorama Toulon La Garde', 'category': '', 'edit_date': '20250313', 'lat_lon_source': 'website'}",43.13794,6.03281,Castorama Toulon La Garde,"{'opening_hours': {'lun': '08:00 - 20:00', 'mar': '08:00 - 20:00', 'mer': '08:00 - 20:00', 'jeu': '08:00 - 20:00', 'ven': '08:00 - 20:00', 'sam': '08:00 - 20:00', 'dim': '09:00 - 18:00'}}",04 94 00 02 60,83130,1474,Toulon la garde,https://www.castorama.fr/store/1474
Zone commerciale acti sud,Castorama,MARSANNAY-LA-COTE,France,"{'brand': 'Castorama', 'fascia': 'Castorama Dijon', 'category': '', 'edit_date': '20250313', 'lat_lon_source': 'website'}",47.27813,5.01941,Castorama Dijon,"{'opening_hours': {'lun': '08:00 - 20:00', 'mar': '08:00 - 20:00', 'mer': '08:00 - 20:00', 'jeu': '08:00 - 20:00', 'ven': '08:00 - 20:00', 'sam': '08:00 - 20:00', 'dim': '10:00 - 17:00'}}",03 80 60 21 21,21160,1510,Dijon,https://www.castorama.fr/store/1510
Centre commercial carrefour,Castorama,VITROLLES,France,"{'brand': 'Castorama', 'fascia': 'Castorama Vitrolles', 'category': '', 'edit_date': '20250313', 'lat_lon_source': 'website'}",43.43372495854991,5.258503116455131,Castorama Vitrolles,"{'opening_hours': {'lun': '09:00 - 20:00', 'mar': '09:00 - 20:00', 'mer': '09:00 - 20:00', 'jeu': '09:00 - 20:00', 'ven': '09:00 - 20:00', 'sam': '09:00 - 20:00', 'dim': '09:00 - 13:00'}}",04 42 15 56 00,13127,1445,Vitrolles,https://www.castorama.fr/store/1445
ZI de Kergaradec 22 rue André Colin,Castorama,BREST,France,"{'brand': 'Castorama', 'fascia': 'Castorama Brest', 'category': '', 'edit_date': '20250313', 'lat_lon_source': 'website'}",48.424591331224875,-4.47525956085201,Castorama Brest,"{'opening_hours': {'lun': '08:00 - 20:00', 'mar': '08:00 - 20:00', 'mer': '08:00 - 20:00', 'jeu': '08:00 - 20:00', 'ven': '08:00 - 20:00', 'sam': '08:00 - 20:00', 'dim': '09:00 - 18:00'}}",02 98 02 67 33,29200,1485,Brest,https://www.castorama.fr/store/1485
3 rue d andré bardon,Castorama,MARSEILLE,France,"{'brand': 'Castorama', 'fascia': 'Castorama Marseille St - Loup', 'category': '', 'edit_date': '20250313', 'lat_lon_source': 'website'}",43.2824449,5.426268199999981,Castorama Marseille St - Loup,"{'opening_hours': {'lun': '07:00 - 20:00', 'mar': '07:00 - 20:00', 'mer': '07:00 - 20:00', 'jeu': '07:00 - 20:00', 'ven': '07:00 - 20:00', 'sam': '07:00 - 20:00', 'dim': '08:00 - 19:00'}}",04 91 35 40 00,13010,1511,Marseille St loup,https://www.castorama.fr/store/1511
CS 20014,Castorama,LE CANNET,France,"{'brand': 'Castorama', 'fascia': 'Castorama Le Cannet', 'category': '', 'edit_date': '20250313', 'lat_lon_source': 'website'}",43.57637,6.99213,Castorama Le Cannet,"{'opening_hours': {'lun': '08:00 - 20:00', 'mar': '08:00 - 20:00', 'mer': '08:00 - 20:00', 'jeu': '08:00 - 20:00', 'ven': '08:00 - 20:00', 'sam': '08:00 - 20:00', 'dim': '09:00 - 17:00'}}",04 93 69 38 00,06110,1444,Le Cannet,https://www.castorama.fr/store/1444
600 rue du bon vent,Castorama,AVIGNON,France,"{'brand': 'Castorama', 'fascia': 'Castorama Avignon', 'category': '', 'edit_date': '20250313', 'lat_lon_source': 'website'}",43.92545,4.84758,Castorama Avignon,"{'opening_hours': {'lun': '08:00 - 20:00', 'mar': '08:00 - 20:00', 'mer': '08:00 - 20:00', 'jeu': '08:00 - 20:00', 'ven': '08:00 - 20:00', 'sam': '08:00 - 20:00', 'dim': '09:00 - 18:00'}}",04 90 88 57 31,84000,1504,Avignon,https://www.castorama.fr/store/1504
168 avenue robert brun,Castorama,LA SEYNE SUR MER,France,"{'brand': 'Castorama', 'fascia': 'Castorama La Seyne sur Mer', 'category': '', 'edit_date': '20250313', 'lat_lon_source': 'website'}",43.117745,5.865068,Castorama La Seyne sur Mer,"{'opening_hours': {'lun': '08:00 - 20:00', 'mar': '08:00 - 20:00', 'mer': '08:00 - 20:00', 'jeu': '08:00 - 20:00', 'ven': '08:00 - 20:00', 'sam': '08:00 - 20:00', 'dim': '09:00 - 18:00'}}",04 94 10 10 10,83500,1447,La Seyne sur mer,https://www.castorama.fr/store/1447
Le forum 2 rue hélène boucher,Castorama,ORVAULT,France,"{'brand': 'Castorama', 'fascia': 'Castorama Nantes Orvault', 'category': '', 'edit_date': '20250313', 'lat_lon_source': 'website'}",47.25408,-1.62022,Castorama Nantes Orvault,"{'opening_hours': {'lun': '08:00 - 20:00', 'mar': '08:00 - 20:00', 'mer': '08:00 - 20:00', 'jeu': '08:00 - 20:00', 'ven': '08:00 - 20:00', 'sam': '08:00 - 20:00', 'dim': '10:00 - 18:00'}}",02 40 16 99 00,44700,1411,Nantes Orvault,https://www.castorama.fr/store/1411
115 rue beauvoisin - cs 40641,Castorama,AIX EN PROVENCE CEDEX 4,France,"{'brand': 'Castorama', 'fascia': 'Castorama Aix en Provence', 'category': '', 'edit_date': '20250313', 'lat_lon_source': 'website'}",43.50697,5.4068,Castorama Aix en Provence,"{'opening_hours': {'lun': '08:00 - 20:00', 'mar': '08:00 - 20:00', 'mer': '08:00 - 20:00', 'jeu': '08:00 - 20:00', 'ven': '08:00 - 20:00', 'sam': '08:00 - 20:00', 'dim': '09:00 - 18:00'}}",04 42 52 22 22,13547,1441,Aix en provence,https://www.castorama.fr/store/1441
C.d. 35 - les semboules,Castorama,ANTIBES,France,"{'brand': 'Castorama', 'fascia': 'Castorama Antibes', 'category': '', 'edit_date': '20250313', 'lat_lon_source': 'website'}",43.60209,7.07071,Castorama Antibes,"{'opening_hours': {'lun': '07:00 - 20:00', 'mar': '07:00 - 20:00', 'mer': '07:00 - 20:00', 'jeu': '07:00 - 20:00', 'ven': '07:00 - 20:00', 'sam': '07:00 - 20:00', 'dim': '09:00 - 19:00'}}",07 55 54 67 56,06600,1429,Antibes,https://www.castorama.fr/store/1429
Z.a.c océanis route de la côte de nacre,Castorama,ST NAZAIRE,France,"{'brand': 'Castorama', 'fascia': 'Castorama St Nazaire', 'category': '', 'edit_date': '20250313', 'lat_lon_source': 'website'}",47.25975116816826,-2.2668723108672566,Castorama St Nazaire,"{'opening_hours': {'lun': '08:00 - 20:00', 'mar': '08:00 - 20:00', 'mer': '08:00 - 20:00', 'jeu': '08:00 - 20:00', 'ven': '08:00 - 20:00', 'sam': '08:00 - 20:00', 'dim': '09:00 - 13:00'}}",02 51 76 66 66,44600,1426,St Nazaire,https://www.castorama.fr/store/1426
ZONE D ACTIVITE GRAND ESTEREL,Castorama,FREJUS,France,"{'brand': 'Castorama', 'fascia': 'Castorama Fréjus', 'category': '', 'edit_date': '20250313', 'lat_lon_source': 'website'}",43.44338,6.70666,Castorama Fréjus,"{'opening_hours': {'lun': '08:00 - 20:00', 'mar': '08:00 - 20:00', 'mer': '08:00 - 20:00', 'jeu': '08:00 - 20:00', 'ven': '08:00 - 20:00', 'sam': '08:00 - 20:00', 'dim': '09:00 - 19:00'}}",04 94 95 95 95,83600,1484,Fréjus,https://www.castorama.fr/store/1484
Boulevard de la beaujoire,Castorama,NANTES,France,"{'brand': 'Castorama', 'fascia': 'Castorama Nantes La Beaujoire', 'category': '', 'edit_date': '20250313', 'lat_lon_source': 'website'}",47.25823,-1.50909,Castorama Nantes La Beaujoire,"{'opening_hours': {'lun': '08:00 - 20:00', 'mar': '08:00 - 20:00', 'mer': '08:00 - 20:00', 'jeu': '08:00 - 20:00', 'ven': '08:00 - 20:00', 'sam': '08:00 - 20:00', 'dim': '10:00 - 18:00'}}",02 40 30 17 87,44300,1439,Nantes La Beaujoire,https://www.castorama.fr/store/1439
Z.a. de l'ardoise route d alençon,Castorama,LE MANS,France,"{'brand': 'Castorama', 'fascia': 'Castorama Le Mans', 'category': '', 'edit_date': '20250313', 'lat_lon_source': 'website'}",48.033,0.1792,Castorama Le Mans,"{'opening_hours': {'lun': '08:00 - 20:00', 'mar': '08:00 - 20:00', 'mer': '08:00 - 20:00', 'jeu': '08:00 - 20:00', 'ven': '08:00 - 20:00', 'sam': '08:00 - 20:00', 'dim': '09:00 - 17:00'}}",02 43 39 96 39,72021,1409,Le Mans,https://www.castorama.fr/store/1409
2 rue du commerce,Castorama,SAINT-ORENS,France,"{'brand': 'Castorama', 'fascia': 'Castorama Toulouse St Orens', 'category': '', 'edit_date': '20250313', 'lat_lon_source': 'website'}",43.56294,1.51982,Castorama Toulouse St Orens,"{'opening_hours': {'lun': '08:00 - 20:00', 'mar': '08:00 - 20:00', 'mer': '08:00 - 20:00', 'jeu': '08:00 - 20:00', 'ven': '08:00 - 20:00', 'sam': '08:00 - 20:00', 'dim': '09:00 - 18:00'}}",05 61 00 60 30,31650,1480,Toulouse St Orens,https://www.castorama.fr/store/1480
3 avenue de toulouse,Castorama,L'UNION,France,"{'brand': 'Castorama', 'fascia': ""Castorama Toulouse L'Union"", 'category': '', 'edit_date': '20250313', 'lat_lon_source': 'website'}",43.64891,1.47018,Castorama Toulouse L'Union,"{'opening_hours': {'lun': '08:00 - 20:00', 'mar': '08:00 - 20:00', 'mer': '08:00 - 20:00', 'jeu': '08:00 - 20:00', 'ven': '08:00 - 20:00', 'sam': '08:00 - 20:00', 'dim': '09:00 - 18:00'}}",05 62 89 32 00,31240,1471,Toulouse L'Union,https://www.castorama.fr/store/1471
42 chemin du capouchiné ville active,Castorama,NIMES,France,"{'brand': 'Castorama', 'fascia': 'Castorama Nîmes', 'category': '', 'edit_date': '20250313', 'lat_lon_source': 'website'}",43.81836,4.35111,Castorama Nîmes,"{'opening_hours': {'lun': '08:00 - 20:00', 'mar': '08:00 - 20:00', 'mer': '08:00 - 20:00', 'jeu': '08:00 - 20:00', 'ven': '08:00 - 20:00', 'sam': '08:00 - 20:00', 'dim': '09:00 - 18:00'}}",04 66 04 57 57,30900,1435,Nîmes,https://www.castorama.fr/store/1435
C.c. trifontaine rte de ganges,Castorama,ST CLEMENT DE RIVIERE,France,"{'brand': 'Castorama', 'fascia': 'Castorama St Clément', 'category': '', 'edit_date': '20250313', 'lat_lon_source': 'website'}",43.65109,3.8469,Castorama St Clément,"{'opening_hours': {'lun': '08:00 - 20:00', 'mar': '08:00 - 20:00', 'mer': '08:00 - 20:00', 'jeu': '08:00 - 20:00', 'ven': '08:00 - 20:00', 'sam': '08:00 - 20:00', 'dim': '09:00 - 13:00'}}",04 67 63 90 09,34980,1442,St Clément,https://www.castorama.fr/store/1442
Pae de soriech,Castorama,LATTES,France,"{'brand': 'Castorama', 'fascia': 'Castorama Lattes', 'category': '', 'edit_date': '20250313', 'lat_lon_source': 'website'}",43.58124189999999,3.9256490000000213,Castorama Lattes,"{'opening_hours': {'lun': '08:00 - 20:00', 'mar': '08:00 - 20:00', 'mer': '08:00 - 20:00', 'jeu': '08:00 - 20:00', 'ven': '08:00 - 20:00', 'sam': '08:00 - 20:00', 'dim': '09:00 - 13:00'}}",04 67 99 40 99,34970,1419,Lattes,https://www.castorama.fr/store/1419
rue gustave flaubert,Castorama,BLAGNAC,France,"{'brand': 'Castorama', 'fascia': 'Castorama Toulouse Blagnac', 'category': '', 'edit_date': '20250313', 'lat_lon_source': 'website'}",43.65042949801308,1.3673484574890153,Castorama Toulouse Blagnac,"{'opening_hours': {'lun': '08:00 - 20:00', 'mar': '08:00 - 20:00', 'mer': '08:00 - 20:00', 'jeu': '08:00 - 20:00', 'ven': '08:00 - 20:00', 'sam': '08:00 - 20:00', 'dim': '09:00 - 18:00'}}",05 34 36 25 00,31700,1476,Toulouse Blagnac,https://www.castorama.fr/store/1476
Domaine de la Plantation,Castorama,VILLENAVE D'ORNON,France,"{'brand': 'Castorama', 'fascia': ""Castorama Villenave d'Ornon"", 'category': '', 'edit_date': '20250313', 'lat_lon_source': 'website'}",44.78944,-0.52932,Castorama Villenave d'Ornon,"{'opening_hours': {'lun': '08:00 - 20:00', 'mar': '08:00 - 20:00', 'mer': '08:00 - 20:00', 'jeu': '08:00 - 20:00', 'ven': '08:00 - 20:00', 'sam': '08:00 - 20:00', 'dim': '09:00 - 18:00'}}",05 56 49 96 50,33140,1464,Villenave d'Ornon,https://www.castorama.fr/store/1464
2 route de francazal,Castorama,PORTET SUR GARONNE,France,"{'brand': 'Castorama', 'fascia': 'Castorama Portet sur Garonne', 'category': '', 'edit_date': '20250313', 'lat_lon_source': 'website'}",43.53191,1.39042,Castorama Portet sur Garonne,"{'opening_hours': {'lun': '08:00 - 20:00', 'mar': '08:00 - 20:00', 'mer': '08:00 - 20:00', 'jeu': '08:00 - 20:00', 'ven': '08:00 - 20:00', 'sam': '08:00 - 20:00', 'dim': '10:00 - 17:00'}}",05 61 72 89 89,31128,1446,Portet sur Garonne,https://www.castorama.fr/store/1446
Z.a.c de la domitienne,Castorama,BÉZIERS,France,"{'brand': 'Castorama', 'fascia': 'Castorama Béziers', 'category': '', 'edit_date': '20250313', 'lat_lon_source': 'website'}",43.34919182834792,3.2550694831420515,Castorama Béziers,"{'opening_hours': {'lun': '08:00 - 20:00', 'mar': '08:00 - 20:00', 'mer': '08:00 - 20:00', 'jeu': '08:00 - 20:00', 'ven': '08:00 - 20:00', 'sam': '08:00 - 20:00', 'dim': '09:00 - 18:00'}}",04 67 62 83 83,34500,1450,Béziers,https://www.castorama.fr/store/1450
1270 avenue d espagne,Castorama,PERPIGNAN,France,"{'brand': 'Castorama', 'fascia': 'Castorama Perpignan', 'category': '', 'edit_date': '20250313', 'lat_lon_source': 'website'}",42.67869404987119,2.891027123803724,Castorama Perpignan,"{'opening_hours': {'lun': '08:00 - 20:00', 'mar': '08:00 - 20:00', 'mer': '08:00 - 20:00', 'jeu': '08:00 - 20:00', 'ven': '08:00 - 20:00', 'sam': '08:00 - 20:00', 'dim': '09:00 - 17:00'}}",04 68 88 68 00,66100,1475,Perpignan,https://www.castorama.fr/store/1475
137 avenue du 8 mai 1945,Castorama,POITIERS,France,"{'brand': 'Castorama', 'fascia': 'Castorama Poitiers', 'category': '', 'edit_date': '20250313', 'lat_lon_source': 'website'}",46.55391,0.3083,Castorama Poitiers,"{'opening_hours': {'lun': '08:00 - 20:00', 'mar': '08:00 - 20:00', 'mer': '08:00 - 20:00', 'jeu': '08:00 - 20:00', 'ven': '08:00 - 20:00', 'sam': '08:00 - 20:00', 'dim': '09:00 - 18:00'}}",05 49 61 69 00,86000,1452,Poitiers,https://www.castorama.fr/store/1452
Centre lescar soleil,Castorama,LESCAR,France,"{'brand': 'Castorama', 'fascia': 'Castorama Pau - Lescar', 'category': '', 'edit_date': '20250313', 'lat_lon_source': 'website'}",43.32037,-0.43659,Castorama Pau - Lescar,"{'opening_hours': {'lun': '08:00 - 20:00', 'mar': '08:00 - 20:00', 'mer': '08:00 - 20:00', 'jeu': '08:00 - 20:00', 'ven': '08:00 - 20:00', 'sam': '08:00 - 20:00', 'dim': '09:00 - 18:00'}}",05 59 81 21 67,64232,1512,Pau-Lescar,https://www.castorama.fr/store/1512
10 rue turgot - espace mendès france 2,Castorama,NIORT,France,"{'brand': 'Castorama', 'fascia': 'Castorama Niort', 'category': '', 'edit_date': '20250313', 'lat_lon_source': 'website'}",46.33362,-0.4097,Castorama Niort,"{'opening_hours': {'lun': '08:00 - 20:00', 'mar': '08:00 - 20:00', 'mer': '08:00 - 20:00', 'jeu': '08:00 - 20:00', 'ven': '08:00 - 20:00', 'sam': '08:00 - 20:00', 'dim': '09:00 - 18:00'}}",05 49 04 45 00,79043,1460,Niort,https://www.castorama.fr/store/1460
Avenue des portes de feytiat,Castorama,FEYTIAT,France,"{'brand': 'Castorama', 'fascia': 'Castorama Limoges', 'category': '', 'edit_date': '20250313', 'lat_lon_source': 'website'}",45.81227,1.29868,Castorama Limoges,"{'opening_hours': {'lun': '08:00 - 20:00', 'mar': '08:00 - 20:00', 'mer': '08:00 - 20:00', 'jeu': '08:00 - 20:00', 'ven': '08:00 - 20:00', 'sam': '08:00 - 20:00', 'dim': '10:00 - 18:00'}}",05 55 06 94 06,87220,1430,Limoges,https://www.castorama.fr/store/1430
29 avenue des martyrs de la liberation,Castorama,MERIGNAC,France,"{'brand': 'Castorama', 'fascia': 'Castorama Mérignac', 'category': '', 'edit_date': '20250313', 'lat_lon_source': 'website'}",44.8399,-0.67275,Castorama Mérignac,"{'opening_hours': {'lun': '08:00 - 20:00', 'mar': '08:00 - 20:00', 'mer': '08:00 - 20:00', 'jeu': '08:00 - 20:00', 'ven': '08:00 - 20:00', 'sam': '08:00 - 20:00', 'dim': '09:00 - 18:00'}}",0557533740,33700,2537,Mérignac,https://www.castorama.fr/store/2537
Avenue de Paris,Castorama,Lormont,France,"{'brand': 'Castorama', 'fascia': 'Castorama Lormont', 'category': '', 'edit_date': '20250313', 'lat_lon_source': 'website'}",44.883837214416445,-0.5069389952147958,Castorama Lormont,"{'opening_hours': {'lun': '08:00 - 20:00', 'mar': '08:00 - 20:00', 'mer': '08:00 - 20:00', 'jeu': '08:00 - 20:00', 'ven': '08:00 - 20:00', 'sam': '08:00 - 20:00', 'dim': '09:00 - 18:00'}}",05 56 44 33 33,33310,1499,Bordeaux Lormont,https://www.castorama.fr/store/1499
Z.a.c. agen sud avenue de l atlantique,Castorama,AGEN,France,"{'brand': 'Castorama', 'fascia': 'Castorama Agen', 'category': '', 'edit_date': '20250313', 'lat_lon_source': 'website'}",44.1847,0.61767,Castorama Agen,"{'opening_hours': {'lun': '08:00 - 20:00', 'mar': '08:00 - 20:00', 'mer': '08:00 - 20:00', 'jeu': '08:00 - 20:00', 'ven': '08:00 - 20:00', 'sam': '08:00 - 20:00', 'dim': '09:00 - 18:00'}}",05 53 66 15 32,47000,1415,Agen,https://www.castorama.fr/store/1415
Z.a.c. de belle aire,Castorama,AYTRE,France,"{'brand': 'Castorama', 'fascia': 'Castorama La Rochelle', 'category': '', 'edit_date': '20250313', 'lat_lon_source': 'website'}",46.13381,-1.10003,Castorama La Rochelle,"{'opening_hours': {'lun': '08:00 - 20:00', 'mar': '08:00 - 20:00', 'mer': '08:00 - 20:00', 'jeu': '08:00 - 20:00', 'ven': '08:00 - 20:00', 'sam': '08:00 - 20:00', 'dim': '09:00 - 18:00'}}",05 46 31 12 12,17440,1459,La Rochelle,https://www.castorama.fr/store/1459
Parc de l estuaire r.n. 15,Castorama,GONFREVILLE L'ORCHER,France,"{'brand': 'Castorama', 'fascia': 'Castorama Le Havre', 'category': '', 'edit_date': '20250313', 'lat_lon_source': 'website'}",49.51098955453049,0.22673410583502118,Castorama Le Havre,"{'opening_hours': {'lun': '09:00 - 19:30', 'mar': '09:00 - 19:30', 'mer': '09:00 - 19:30', 'jeu': '09:00 - 19:30', 'ven': '09:00 - 19:30', 'sam': '09:00 - 19:30', 'dim': ''}}",02 35 13 00 30,76700,1489,Le Havre,https://www.castorama.fr/store/1489
Centre commercial la carbonnière,Castorama,BARENTIN,France,"{'brand': 'Castorama', 'fascia': 'Castorama Barentin', 'category': '', 'edit_date': '20250313', 'lat_lon_source': 'website'}",49.53267,0.96926,Castorama Barentin,"{'opening_hours': {'lun': '08:00 - 20:00', 'mar': '08:00 - 20:00', 'mer': '08:00 - 20:00', 'jeu': '08:00 - 20:00', 'ven': '08:00 - 20:00', 'sam': '08:00 - 20:00', 'dim': '10:00 - 18:00'}}",02 32 94 94 40,76360,1488,Barentin,https://www.castorama.fr/store/1488
43 allée du plateau,Castorama,VILLEMOMBLE,France,"{'brand': 'Castorama', 'fascia': 'Castorama Villemomble', 'category': '', 'edit_date': '20250313', 'lat_lon_source': 'website'}",48.87957,2.50346,Castorama Villemomble,"{'opening_hours': {'lun': '08:00 - 20:00', 'mar': '08:00 - 20:00', 'mer': '08:00 - 20:00', 'jeu': '08:00 - 20:00', 'ven': '08:00 - 20:00', 'sam': '08:00 - 20:00', 'dim': '09:00 - 20:00'}}",01 56 63 94 00,93250,1422,Villemomble,https://www.castorama.fr/store/1422
A côté d IKEA,Castorama,FLEURY SUR ORNE,France,"{'brand': 'Castorama', 'fascia': 'Castorama Caen Fleury-sur-Orne', 'category': '', 'edit_date': '20250313', 'lat_lon_source': 'website'}",49.13952,-0.3713000000000193,Castorama Caen Fleury-sur-Orne,"{'opening_hours': {'lun': '08:00 - 20:00', 'mar': '08:00 - 20:00', 'mer': '08:00 - 20:00', 'jeu': '08:00 - 20:00', 'ven': '08:00 - 20:00', 'sam': '08:00 - 20:00', 'dim': '09:00 - 18:00'}}",02 31 78 54 54,14123,1509,Caen Fleury-Sur-Orne,https://www.castorama.fr/store/1509
Rond point de girac route de bordeaux,Castorama,ANGOULÊME,France,"{'brand': 'Castorama', 'fascia': 'Castorama Angoulême', 'category': '', 'edit_date': '20250313', 'lat_lon_source': 'website'}",45.63587,0.12554,Castorama Angoulême,"{'opening_hours': {'lun': '08:00 - 20:00', 'mar': '08:00 - 20:00', 'mer': '08:00 - 20:00', 'jeu': '08:00 - 20:00', 'ven': '08:00 - 20:00', 'sam': '08:00 - 20:00', 'dim': '09:00 - 18:00'}}",05 45 91 38 28,16000,1513,Angoulême,https://www.castorama.fr/store/1513
Rue des siettes,Castorama,HEROUVILLE ST CLAIR,France,"{'brand': 'Castorama', 'fascia': 'Castorama Caen Hérouville', 'category': '', 'edit_date': '20250313', 'lat_lon_source': 'website'}",49.18955,-0.334,Castorama Caen Hérouville,"{'opening_hours': {'lun': '08:00 - 20:00', 'mar': '08:00 - 20:00', 'mer': '08:00 - 20:00', 'jeu': '08:00 - 20:00', 'ven': '08:00 - 20:00', 'sam': '08:00 - 20:00', 'dim': '09:00 - 18:00'}}",02 31 53 54 55,14200,1438,Caen Hérouville,https://www.castorama.fr/store/1438
Rue des 44 arpents,Castorama,Villabé,France,"{'brand': 'Castorama', 'fascia': 'Castorama Villabé', 'category': '', 'edit_date': '20250313', 'lat_lon_source': 'website'}",48.5845661,2.4452251999999817,Castorama Villabé,"{'opening_hours': {'lun': '08:00 - 20:00', 'mar': '08:00 - 20:00', 'mer': '08:00 - 20:00', 'jeu': '08:00 - 20:00', 'ven': '08:00 - 20:00', 'sam': '08:00 - 20:00', 'dim': '09:00 - 20:00'}}",01 60 88 91 91,91100,1503,Villabé,https://www.castorama.fr/store/1503
C.c. les arcades 1/3 rue de caulaincourt,Castorama,PARIS,France,"{'brand': 'Castorama', 'fascia': 'Castorama Place de Clichy', 'category': '', 'edit_date': '20250313', 'lat_lon_source': 'website'}",48.88496,2.32961,Castorama Place de Clichy,"{'opening_hours': {'lun': '09:00 - 20:00', 'mar': '09:00 - 20:00', 'mer': '09:00 - 20:00', 'jeu': '09:00 - 20:00', 'ven': '09:00 - 20:00', 'sam': '09:00 - 20:00', 'dim': '10:00 - 19:00'}}",01 53 42 42 42,75018,1486,Paris Place de Clichy,https://www.castorama.fr/store/1486
1 avenue du général leclerc,Castorama,Pierrelaye,France,"{'brand': 'Castorama', 'fascia': 'Castorama Pierrelaye', 'category': '', 'edit_date': '20250313', 'lat_lon_source': 'website'}",49.01152976422586,2.163387192651385,Castorama Pierrelaye,"{'opening_hours': {'lun': '07:00 - 20:00', 'mar': '07:00 - 20:00', 'mer': '07:00 - 20:00', 'jeu': '07:00 - 20:00', 'ven': '07:00 - 20:00', 'sam': '07:00 - 20:00', 'dim': '09:00 - 20:00'}}",01 39 09 43 43,95480,1501,Pierrelaye,https://www.castorama.fr/store/1501
ZA VELIZY-VILLACOUBLAY,Castorama,VÉLIZY VILLACOUBLAY,France,"{'brand': 'Castorama', 'fascia': 'Castorama Vélizy', 'category': '', 'edit_date': '20250313', 'lat_lon_source': 'website'}",48.77526,2.22576,Castorama Vélizy,"{'opening_hours': {'lun': '09:00 - 20:00', 'mar': '09:00 - 20:00', 'mer': '09:00 - 20:00', 'jeu': '09:00 - 20:00', 'ven': '09:00 - 20:00', 'sam': '09:00 - 20:00', 'dim': '09:00 - 19:00'}}",01 39 26 40 00,78140,1462,Vélizy,https://www.castorama.fr/store/1462
9/11 cours de Vincennes,Castorama,PARIS,France,"{'brand': 'Castorama', 'fascia': 'Castorama Nation', 'category': '', 'edit_date': '20250313', 'lat_lon_source': 'website'}",48.84861,2.39987,Castorama Nation,"{'opening_hours': {'lun': '09:00 - 20:00', 'mar': '09:00 - 20:00', 'mer': '09:00 - 20:00', 'jeu': '09:00 - 20:00', 'ven': '09:00 - 20:00', 'sam': '09:00 - 20:00', 'dim': '10:00 - 19:00'}}",01 55 25 14 14,75020,1487,Paris Nation,https://www.castorama.fr/store/1487
4 rue Henri Barbusse,Castorama,Levallois Perret,France,"{'brand': 'Castorama', 'fascia': 'Casto Levallois', 'category': '', 'edit_date': '20250313', 'lat_lon_source': 'website'}",48.897750828510496,2.3006358693267384,Casto Levallois,"{'opening_hours': {'lun': '09:00 - 20:00', 'mar': '09:00 - 20:00', 'mer': '09:00 - 20:00', 'jeu': '09:00 - 20:00', 'ven': '09:00 - 20:00', 'sam': '09:00 - 20:00', 'dim': '10:00 - 14:00'}}",01 45 19 99 72,92300,2752,Levallois,https://www.castorama.fr/store/2752
11 boulevard de grenelle,Castorama,Paris,France,"{'brand': 'Castorama', 'fascia': 'Castorama Bir Hakeim', 'category': '', 'edit_date': '20250313', 'lat_lon_source': 'website'}",48.8540417,2.289454200000023,Castorama Bir Hakeim,"{'opening_hours': {'lun': '09:00 - 20:00', 'mar': '09:00 - 20:00', 'mer': '09:00 - 20:00', 'jeu': '09:00 - 20:00', 'ven': '09:00 - 20:00', 'sam': '09:00 - 20:00', 'dim': '10:00 - 19:00'}}",01 58 01 26 26,75015,1506,Paris Grenelle,https://www.castorama.fr/store/1506
C.c. pince-vent z.a.c. de l hippodrome,Castorama,CHENNEVIERES SUR MARNE,France,"{'brand': 'Castorama', 'fascia': 'Castorama Ormesson', 'category': '', 'edit_date': '20250313', 'lat_lon_source': 'website'}",48.79552,2.55844,Castorama Ormesson,"{'opening_hours': {'lun': '08:00 - 20:00', 'mar': '08:00 - 20:00', 'mer': '08:00 - 20:00', 'jeu': '08:00 - 20:00', 'ven': '08:00 - 20:00', 'sam': '08:00 - 20:00', 'dim': '09:00 - 20:00'}}",01 49 62 23 23,94430,1473,Ormesson,https://www.castorama.fr/store/1473
90 avenue henri barbusse,Castorama,LES-CLAYES-SOUS-BOIS,France,"{'brand': 'Castorama', 'fascia': 'Castorama Les-Clayes-Sous-Bois', 'category': '', 'edit_date': '20250313', 'lat_lon_source': 'website'}",48.82952,1.9715,Castorama Les-Clayes-Sous-Bois,"{'opening_hours': {'lun': '09:00 - 20:00', 'mar': '09:00 - 20:00', 'mer': '09:00 - 20:00', 'jeu': '09:00 - 20:00', 'ven': '09:00 - 20:00', 'sam': '09:00 - 20:00', 'dim': '09:00 - 19:00'}}",01 30 07 96 00,78340,1479,Les-Clayes-Sous-Bois,https://www.castorama.fr/store/1479
Z.a.c du champs de foire,Castorama,MELUN,France,"{'brand': 'Castorama', 'fascia': 'Castorama Melun', 'category': '', 'edit_date': '20250313', 'lat_lon_source': 'website'}",48.55605,2.63791,Castorama Melun,"{'opening_hours': {'lun': '09:00 - 20:00', 'mar': '09:00 - 20:00', 'mer': '09:00 - 20:00', 'jeu': '09:00 - 20:00', 'ven': '09:00 - 20:00', 'sam': '09:00 - 20:00', 'dim': '09:00 - 20:00'}}",01 60 56 74 00,77000,1423,Melun,https://www.castorama.fr/store/1423
15 Boulevard de la liberté,Castorama,Les Lilas,France,"{'brand': 'Castorama', 'fascia': 'Casto Les Lilas', 'category': '', 'edit_date': '20250313', 'lat_lon_source': 'website'}",48.8802205051795,2.4179340116553667,Casto Les Lilas,"{'opening_hours': {'lun': '09:00 - 20:00', 'mar': '09:00 - 20:00', 'mer': '09:00 - 20:00', 'jeu': '09:00 - 20:00', 'ven': '09:00 - 20:00', 'sam': '09:00 - 20:00', 'dim': '10:00 - 14:00'}}",01 48 70 29 12,93260,2753,Les Lilas,https://www.castorama.fr/store/2753
6-8 Avenue de l Océanie,Castorama,LES ULIS,France,"{'brand': 'Castorama', 'fascia': 'Castorama Les Ulis', 'category': '', 'edit_date': '20250313', 'lat_lon_source': 'website'}",48.678598,2.2003819,Castorama Les Ulis,"{'opening_hours': {'lun': '09:00 - 20:00', 'mar': '09:00 - 20:00', 'mer': '09:00 - 20:00', 'jeu': '09:00 - 20:00', 'ven': '09:00 - 20:00', 'sam': '09:00 - 20:00', 'dim': '09:00 - 20:00'}}",01 69 74 95 95,91940,1457,Les Ulis,https://www.castorama.fr/store/1457
Boulevard Joffre RD 392,Castorama,Cormeilles-en-Parisis,France,"{'brand': 'Castorama', 'fascia': 'Castorama Cormeilles-en-Parisis', 'category': '', 'edit_date': '20250313', 'lat_lon_source': 'website'}",48.95389,2.20306,Castorama Cormeilles-en-Parisis,"{'opening_hours': {'lun': '06:30 - 20:00', 'mar': '06:30 - 20:00', 'mer': '06:30 - 20:00', 'jeu': '06:30 - 20:00', 'ven': '06:30 - 20:00', 'sam': '06:30 - 20:00', 'dim': '08:00 - 20:00'}}",01 30 10 40 10,95240,1493,Cormeilles,https://www.castorama.fr/store/1493
Z.i. de paris nord ii b.p. 50036,Castorama,ROISSY CHARLES DE GAULLE,France,"{'brand': 'Castorama', 'fascia': 'Castorama Gonesse', 'category': '', 'edit_date': '20250313', 'lat_lon_source': 'website'}",48.97703,2.49574,Castorama Gonesse,"{'opening_hours': {'lun': '09:00 - 20:00', 'mar': '09:00 - 20:00', 'mer': '09:00 - 20:00', 'jeu': '09:00 - 20:00', 'ven': '09:00 - 20:00', 'sam': '09:00 - 20:00', 'dim': '09:00 - 20:00'}}",01 48 63 88 00,95700,1420,Gonesse,https://www.castorama.fr/store/1420
Zone de jorlis bd du b.a.b. bp 534,Castorama,ANGLET,France,"{'brand': 'Castorama', 'fascia': 'Castorama Anglet', 'category': '', 'edit_date': '20250313', 'lat_lon_source': 'website'}",43.49843,-1.49486,Castorama Anglet,"{'opening_hours': {'lun': '08:00 - 20:00', 'mar': '08:00 - 20:00', 'mer': '08:00 - 20:00', 'jeu': '08:00 - 20:00', 'ven': '08:00 - 20:00', 'sam': '08:00 - 20:00', 'dim': '09:00 - 18:00'}}",05 59 57 21 21,64600,1417,Anglet,https://www.castorama.fr/store/1417
ZAC des Sablons,Castorama,CLAYE SOUILLY,France,"{'brand': 'Castorama', 'fascia': 'Castorama Claye-Souilly', 'category': '', 'edit_date': '20250313', 'lat_lon_source': 'website'}",48.9512405,2.662976399999934,Castorama Claye-Souilly,"{'opening_hours': {'lun': '07:00 - 20:00', 'mar': '07:00 - 20:00', 'mer': '07:00 - 20:00', 'jeu': '07:00 - 20:00', 'ven': '07:00 - 20:00', 'sam': '08:00 - 20:00', 'dim': '09:00 - 20:00'}}",01 60 94 84 84,77410,1455,Claye-Souilly,https://www.castorama.fr/store/1455
70 avenue du maréchal foch,Castorama,CRETEIL,France,"{'brand': 'Castorama', 'fascia': 'Castorama Creteil', 'category': '', 'edit_date': '20250313', 'lat_lon_source': 'website'}",48.78018,2.43803,Castorama Creteil,"{'opening_hours': {'lun': '08:00 - 20:00', 'mar': '08:00 - 20:00', 'mer': '08:00 - 20:00', 'jeu': '08:00 - 20:00', 'ven': '08:00 - 20:00', 'sam': '08:00 - 20:00', 'dim': '09:00 - 19:00'}}",01 45 17 00 75,94034,1440,Creteil,https://www.castorama.fr/store/1440
Les vergers de la plaine,Castorama,CHAMBOURCY,France,"{'brand': 'Castorama', 'fascia': 'Castorama Chambourcy', 'category': '', 'edit_date': '20250313', 'lat_lon_source': 'website'}",48.910865138772174,2.036530719604457,Castorama Chambourcy,"{'opening_hours': {'lun': '09:00 - 20:00', 'mar': '09:00 - 20:00', 'mer': '09:00 - 20:00', 'jeu': '09:00 - 20:00', 'ven': '09:00 - 20:00', 'sam': '09:00 - 20:00', 'dim': '09:00 - 20:00'}}",01 39 27 18 78,78240,1508,Chambourcy,https://www.castorama.fr/store/1508
Les Portes de Chevreuses,Castorama,COIGNIERES,France,"{'brand': 'Castorama', 'fascia': 'Castorama Coignières', 'category': '', 'edit_date': '20250313', 'lat_lon_source': 'website'}",48.7518719,1.9280628999999863,Castorama Coignières,"{'opening_hours': {'lun': '09:00 - 20:00', 'mar': '09:00 - 20:00', 'mer': '09:00 - 20:00', 'jeu': '09:00 - 20:00', 'ven': '09:00 - 20:00', 'sam': '09:00 - 20:00', 'dim': '09:00 - 19:00'}}",01 30 49 24 60,78310,1497,Coignières,https://www.castorama.fr/store/1497
R.n. 186 voie des laitières,Castorama,FRESNES,France,"{'brand': 'Castorama', 'fascia': 'Castorama Fresnes', 'category': '', 'edit_date': '20250313', 'lat_lon_source': 'website'}",48.7539,2.33928,Castorama Fresnes,"{'opening_hours': {'lun': '09:00 - 20:00', 'mar': '09:00 - 20:00', 'mer': '09:00 - 20:00', 'jeu': '09:00 - 20:00', 'ven': '09:00 - 20:00', 'sam': '09:00 - 20:00', 'dim': '09:00 - 19:00'}}",01 49 84 51 00,94260,1458,Fresnes,https://www.castorama.fr/store/1458
Rue de Rome,Castorama,DUNKERQUE,France,"{'brand': 'Castorama', 'fascia': 'Castorama Dunkerque', 'category': '', 'edit_date': '20250313', 'lat_lon_source': 'website'}",51.01864,2.35426,Castorama Dunkerque,"{'opening_hours': {'lun': '08:00 - 20:00', 'mar': '08:00 - 20:00', 'mer': '08:00 - 20:00', 'jeu': '08:00 - 20:00', 'ven': '08:00 - 20:00', 'sam': '08:00 - 20:00', 'dim': '09:00 - 13:00'}}",03 28 28 16 20,59140,1461,Dunkerque,https://www.castorama.fr/store/1461
Z.a.c. le bord des eaux c.c.,Castorama,HENIN BEAUMONT,France,"{'brand': 'Castorama', 'fascia': 'Castorama Hénin-Beaumont', 'category': '', 'edit_date': '20250313', 'lat_lon_source': 'website'}",50.4092492330538,2.970577952331496,Castorama Hénin-Beaumont,"{'opening_hours': {'lun': '09:00 - 20:00', 'mar': '09:00 - 20:00', 'mer': '09:00 - 20:00', 'jeu': '09:00 - 20:00', 'ven': '09:00 - 20:00', 'sam': '09:00 - 20:00', 'dim': '09:00 - 18:00'}}",03 21 08 75 75,62110,1448,Hénin-Beaumont,https://www.castorama.fr/store/1448
Centre commercial - b.p. 49,Castorama,HAUBOURDIN,France,"{'brand': 'Castorama', 'fascia': 'Castorama Englos', 'category': '', 'edit_date': '20250313', 'lat_lon_source': 'website'}",50.62964,2.96527,Castorama Englos,"{'opening_hours': {'lun': '08:00 - 20:00', 'mar': '08:00 - 20:00', 'mer': '08:00 - 20:00', 'jeu': '08:00 - 20:00', 'ven': '08:00 - 20:00', 'sam': '08:00 - 20:00', 'dim': '09:00 - 18:00'}}",03 20 22 74 74,59481,1477,Englos,https://www.castorama.fr/store/1477
422 avenue du général de gaulle,Castorama,BONDUES,France,"{'brand': 'Castorama', 'fascia': 'Castorama Bondues', 'category': '', 'edit_date': '20250313', 'lat_lon_source': 'website'}",50.69306,3.0889,Castorama Bondues,"{'opening_hours': {'lun': '08:00 - 20:00', 'mar': '08:00 - 20:00', 'mer': '08:00 - 20:00', 'jeu': '08:00 - 20:00', 'ven': '08:00 - 20:00', 'sam': '08:00 - 20:00', 'dim': '09:00 - 18:00'}}",03 20 28 28 28,59910,1410,Bondues,https://www.castorama.fr/store/1410
Zac les longères des haies,Castorama,St MAXIMIN,France,"{'brand': 'Castorama', 'fascia': 'Castorama Creil St Maximin', 'category': '', 'edit_date': '20250313', 'lat_lon_source': 'website'}",49.23398,2.46288,Castorama Creil St Maximin,"{'opening_hours': {'lun': '09:00 - 20:00', 'mar': '09:00 - 20:00', 'mer': '09:00 - 20:00', 'jeu': '09:00 - 20:00', 'ven': '09:00 - 20:00', 'sam': '09:00 - 20:00', 'dim': '09:00 - 19:00'}}",03 44 64 73 73,60740,1507,Creil St Maximin,https://www.castorama.fr/store/1507
Route nationale 63,Castorama,MUNDOLSHEIM,France,"{'brand': 'Castorama', 'fascia': 'Castorama Strasbourg', 'category': '', 'edit_date': '20250313', 'lat_lon_source': 'website'}",48.65358,7.7212,Castorama Strasbourg,"{'opening_hours': {'lun': '08:30 - 20:00', 'mar': '08:30 - 20:00', 'mer': '08:30 - 20:00', 'jeu': '08:30 - 20:00', 'ven': '08:30 - 20:00', 'sam': '08:30 - 19:30', 'dim': ''}}",03 88 20 46 22,67450,1418,Strasbourg,https://www.castorama.fr/store/1418
Rue Bernard Palissy BP124,Castorama,VANDOEUVRE LES NANCY,France,"{'brand': 'Castorama', 'fascia': 'Castorama Vandoeuvre', 'category': '', 'edit_date': '20250313', 'lat_lon_source': 'website'}",48.65580498232446,6.181587342605553,Castorama Vandoeuvre,"{'opening_hours': {'lun': '08:00 - 20:00', 'mar': '08:00 - 20:00', 'mer': '08:00 - 20:00', 'jeu': '08:00 - 20:00', 'ven': '08:00 - 20:00', 'sam': '08:00 - 20:00', 'dim': '09:00 - 13:00'}}",03 83 51 03 86,54504,1431,Vandoeuvre,https://www.castorama.fr/store/1431
Avenue du 14 juillet 1789,Castorama,TERVILLE,France,"{'brand': 'Castorama', 'fascia': 'Castorama Terville', 'category': '', 'edit_date': '20250313', 'lat_lon_source': 'website'}",49.35485,6.12832,Castorama Terville,"{'opening_hours': {'lun': '08:30 - 20:00', 'mar': '08:30 - 20:00', 'mer': '08:30 - 20:00', 'jeu': '08:30 - 20:00', 'ven': '08:30 - 20:00', 'sam': '07:00 - 20:00', 'dim': ''}}",03 82 59 69 79,57180,1463,Terville,https://www.castorama.fr/store/1463
Parc Maison + Face à IKEA,Castorama,Thillois,France,"{'brand': 'Castorama', 'fascia': 'Castorama Reims Thillois', 'category': '', 'edit_date': '20250313', 'lat_lon_source': 'website'}",49.25815849728658,3.9637873757324087,Castorama Reims Thillois,"{'opening_hours': {'lun': '08:00 - 20:00', 'mar': '08:00 - 20:00', 'mer': '08:00 - 20:00', 'jeu': '08:00 - 20:00', 'ven': '08:00 - 20:00', 'sam': '08:00 - 20:00', 'dim': '09:00 - 13:00'}}",03 26 36 51 00,51370,1500,Reims,https://www.castorama.fr/store/1500
Zone actisud   76 route de metz,Castorama,JOUY AUX ARCHES,France,"{'brand': 'Castorama', 'fascia': 'Castorama Metz', 'category': '', 'edit_date': '20250313', 'lat_lon_source': 'website'}",49.07583,6.10145,Castorama Metz,"{'opening_hours': {'lun': '08:00 - 20:00', 'mar': '08:00 - 20:00', 'mer': '08:00 - 20:00', 'jeu': '08:00 - 20:00', 'ven': '08:00 - 20:00', 'sam': '08:00 - 20:00', 'dim': ''}}",03 87 38 36 00,57130,1502,Metz,https://www.castorama.fr/store/1502
150 route de richwiller,Castorama,KINGERSHEIM,France,"{'brand': 'Castorama', 'fascia': 'Castorama Kingersheim', 'category': '', 'edit_date': '20250313', 'lat_lon_source': 'website'}",47.79049,7.31203,Castorama Kingersheim,"{'opening_hours': {'lun': '08:00 - 20:00', 'mar': '08:00 - 20:00', 'mer': '08:00 - 20:00', 'jeu': '08:00 - 20:00', 'ven': '08:00 - 20:00', 'sam': '08:00 - 20:00', 'dim': ''}}",03 89 51 27 00,68264,1478,Kingersheim,https://www.castorama.fr/store/1478
Parc de l Aéroport - B.P. 667,Castorama,COLMAR,France,"{'brand': 'Castorama', 'fascia': 'Castorama Colmar', 'category': '', 'edit_date': '20250313', 'lat_lon_source': 'website'}",48.10369,7.3611,Castorama Colmar,"{'opening_hours': {'lun': '08:30 - 19:30', 'mar': '08:30 - 19:30', 'mer': '08:30 - 19:30', 'jeu': '08:30 - 19:30', 'ven': '08:30 - 19:30', 'sam': '08:30 - 19:30', 'dim': ''}}",03 89 21 14 30,68027,1443,Colmar,https://www.castorama.fr/store/1443
Za de pen méné rue marcelin berthelot,Castorama,VANNES,France,"{'brand': 'Castorama', 'fascia': 'Castorama Vannes', 'category': '', 'edit_date': '20250313', 'lat_lon_source': 'website'}",47.66224,-2.78718,Castorama Vannes,"{'opening_hours': {'lun': '08:00 - 20:00', 'mar': '08:00 - 20:00', 'mer': '08:00 - 20:00', 'jeu': '08:00 - 20:00', 'ven': '08:00 - 20:00', 'sam': '08:00 - 20:00', 'dim': '09:00 - 18:00'}}",02 97 40 80 00,56000,1481,Vannes,https://www.castorama.fr/store/1481
Quartier de la laye,Castorama,ST MARCEL LES VALENCE,France,"{'brand': 'Castorama', 'fascia': 'Castorama St Marcel Les Valence', 'category': '', 'edit_date': '20250313', 'lat_lon_source': 'website'}",44.96136,4.93761,Castorama St Marcel Les Valence,"{'opening_hours': {'lun': '08:00 - 20:00', 'mar': '08:00 - 20:00', 'mer': '08:00 - 20:00', 'jeu': '08:00 - 20:00', 'ven': '08:00 - 20:00', 'sam': '08:00 - 20:00', 'dim': '09:00 - 18:00'}}",04 75 83 82 81,26320,1483,St Marcel les valence,https://www.castorama.fr/store/1483
ZAC de la Vrillonnerie,Castorama,CHAMBRAY LES TOURS,France,"{'brand': 'Castorama', 'fascia': 'Castorama Chambray-Lès-Tours', 'category': '', 'edit_date': '20250313', 'lat_lon_source': 'website'}",47.33319,0.70303,Castorama Chambray-Lès-Tours,"{'opening_hours': {'lun': '08:00 - 20:00', 'mar': '08:00 - 20:00', 'mer': '08:00 - 20:00', 'jeu': '08:00 - 20:00', 'ven': '08:00 - 20:00', 'sam': '08:00 - 20:00', 'dim': '09:00 - 18:00'}}",02 47 80 16 00,37170,1412,Chambray-Lès-Tours,https://www.castorama.fr/store/1412
MABLY,Castorama,ROANNE,France,"{'brand': 'Castorama', 'fascia': 'Castorama Roanne', 'category': '', 'edit_date': '20250313', 'lat_lon_source': 'website'}",46.06613,4.05886,Castorama Roanne,"{'opening_hours': {'lun': '08:00 - 20:00', 'mar': '08:00 - 20:00', 'mer': '08:00 - 20:00', 'jeu': '08:00 - 20:00', 'ven': '08:00 - 20:00', 'sam': '08:00 - 20:00', 'dim': '08:30 - 12:30'}}",04 77 23 61 61,42300,1425,Roanne,https://www.castorama.fr/store/1425
20 rue de gascogne,Castorama,OLIVET,France,"{'brand': 'Castorama', 'fascia': 'Castorama Olivet', 'category': '', 'edit_date': '20250313', 'lat_lon_source': 'website'}",47.83932,1.91762,Castorama Olivet,"{'opening_hours': {'lun': '08:00 - 20:00', 'mar': '08:00 - 20:00', 'mer': '08:00 - 20:00', 'jeu': '08:00 - 20:00', 'ven': '08:00 - 20:00', 'sam': '08:00 - 20:00', 'dim': '09:00 - 18:00'}}",02 38 49 38 38,45160,1456,Olivet,https://www.castorama.fr/store/1456
Espace Valentin Sud,Castorama,BESANCON,France,"{'brand': 'Castorama', 'fascia': 'Castorama Besançon', 'category': '', 'edit_date': '20250313', 'lat_lon_source': 'website'}",47.2773,5.98904,Castorama Besançon,"{'opening_hours': {'lun': '09:00 - 20:00', 'mar': '09:00 - 20:00', 'mer': '09:00 - 20:00', 'jeu': '09:00 - 20:00', 'ven': '09:00 - 20:00', 'sam': '09:00 - 20:00', 'dim': '09:00 - 13:00'}}",03 81 80 57 24,25000,1467,Besançon,https://www.castorama.fr/store/1467
