city,sub_area,address_en,country,shop_id,shop_name_en,extras,tel,url_param,link_url,hours,services,latitude,longitude
Tokyo,Harajuku,"1F/2F, 3-24-7 Jingumae, Shibuya-ku, Tokyo",Japan,1,BEAMS HARAJUKU,"{'brand': 'Beams', 'fascia': 'Beams', 'category': 'Retail', 'edit_date': '20250301', 'description_en': ""BEAMS HARAJUKU, the original BEAMS shop, has been the flagship shop for men's fashion and lifestyles since 1976."", 'lat_lon_source': 'thirdparty'}",03 3470 3947,h,/global/shop/h/,"12:00 - 20:00 (Mon〜Fri) / 11:00 - 20:00(Sat, Sun, Holiday)","Tax-freeShop, UnionPay, ALIPAY",35.67123,139.707668
Rest of Asia,Bangkok,"2F Paragon Department Store, 991/1 Rama I Rd., Pathumwan, Pathumwan Bangkok 10330, Thailand",Japan,159,BEAMS BANGKOK PARAGON,"{'brand': 'Beams', 'fascia': 'Beams', 'category': 'Retail', 'edit_date': '20250301', 'description_en': ""BEAMS BANGKOK PARAGON is a concept shop that embodies the BEAMS aesthetic through a selection of mostly original men's and women's casual wear, accessories and other merchandise."", 'lat_lon_source': 'thirdparty'}",+662 610 7752,bangkok_paragon,/global/shop/bangkok_paragon/,10:00 - 22:00,,13.747908,100.534962
Rest of Asia,Bangkok,"MA-01 MF EM Galleria Floor, The Emsphere Shopping Complex, Bangkok, Thailand",Japan,157,BEAMS BANGKOK,"{'brand': 'Beams', 'fascia': 'Beams', 'category': 'Retail', 'edit_date': '20250301', 'description_en': ""With a focus on 6 levels of original products characteristic of BEAMS, we have selected a range of men's and women's casual wear and accessories. BEAMS will continue to spread its belief in enjoying fashion and having a fulfilling life in the new lifestyles of the region."", 'lat_lon_source': 'thirdparty'}",+662 129 6053,bangkok,/global/shop/bangkok/,10:00 - 22:00,,13.73234,100.56680
Rest of Asia,Taiwan,"3F, No. 268, Sec. 3, Zhongxiao E. Rd., Da’an Dist., Taipei City",Japan,241,BEAMS SHIN KONG MITSUKOSHI DIAMOND TOWERS,"{'brand': 'Beams', 'fascia': 'Beams', 'category': 'Retail', 'edit_date': '20250301', 'description_en': ""BEAMS introduce a formal wear concept store in Taiwan for the first time, offering a range of contemporary and elegant sub-brands, including ＜BEAMS F＞, ＜Brilla per il gusto＞ ＜International Gallery BEAMS＞＜Demi-Luxe BEAMS＞ and ＜AK+1＞These sub-brands provide a fresh and diverse selection of men's and women's clothing styles."", 'lat_lon_source': 'thirdparty'}",02 2778 2232,diamond_towers,/global/shop/diamond_towers/,11:00 - 21:30（⽇ - 木）／ 11:00 - 22:00（金 - ⼟・祝祭⽇前⽇）,,25.04148853041179,121.54212837089123
Rest of Asia,Taiwan,"Taichung City, East District, Jinde Rd, 600號2樓",Japan,237,BEAMS LaLaport Taichung,"{'brand': 'Beams', 'fascia': 'Beams', 'category': 'Retail', 'edit_date': '20250301', 'description_en': 'The design concept is inspired by European marketplaces. The surrounding red brick represents pedestrian walkways, and the diverse range of products are showcased in the central cement area which radiates outward from the the Lush tree at the heart of it all. From Childrenswear, outdoor gears to lifestyle essentials and pet supplies, our store offers a wide variety of products to cater to different lifestyles.', 'lat_lon_source': 'thirdparty'}",+886 4 2215 3029,lalaport_taichung,/global/shop/lalaport_taichung/,11:00 - 22:00,,24.135713,120.692561
Rest of Asia,Taiwan,"Taipei City, Zhongshan District, Nanjing W Rd, 14號, Eslite Spectrum Nanxi, 1樓",Japan,236,BEAMS Eslite Spectrum Nanxi,"{'brand': 'Beams', 'fascia': 'Beams', 'category': 'Retail', 'edit_date': '20250301', 'description_en': 'Providing original products for both Menswear and Womenswear, as well as a selections of fashion, accessories, and lifestyle goods sourced from Japan and overseas. Embodying the fashion trends from Tokyo and ""HAPPY"" lifestyle proposed by BEAMS.', 'lat_lon_source': 'thirdparty'}",+886 2 2723 2818,eslite_spectrum_nanxi,/global/shop/eslite_spectrum_nanxi/,11:00 - 22:00,,25.052137,121.520671
Rest of Asia,Taiwan,"No. 168, Section 10, Taiwan Blvd, Wuqi District, Taichung City",Japan,221,BEAMS OUTLET TAICHUNG,"{'brand': 'Beams', 'fascia': 'Beams', 'category': 'Retail', 'edit_date': '20250301', 'description_en': 'Daily-use casuals and products to fit the business scene, accessories and miscellaneous goods for all ages.', 'lat_lon_source': 'thirdparty'}",+886 4 2656 4138,outlet_taichung,/global/shop/outlet_taichung/,"11:00 - 21:30（Sun - Fri）／10:30 - 21:30（Sat, Sun, Public Holidays）",,24.2593129,120.51867559
Rest of Asia,Taiwan,"No. 301, Section 3, Taiwan Blvd, Xitun District, Taichung City",Japan,220,BEAMS TAICHUNG MITSUKOSHI,"{'brand': 'Beams', 'fascia': 'Beams', 'category': 'Retail', 'edit_date': '20250301', 'description_en': ""A concept shop that embodies the BEAMS aesthetic through a selection of mostly original men's and women's casual wear, children's apparel, accessories, art and other merchandise."", 'lat_lon_source': 'thirdparty'}",+886 4 2251 6010,taichung,/global/shop/taichung/,"11:00 - 22:00（Sun - Fri）／ 10:30 - 22:00（Sat, Sun, Public Holidays）",,24.16526,120.64371
Rest of Asia,Taiwan,"3F, No. 17, Songzhi Rd., Xinyi Dist., Taipei City 110, Taiwan",Japan,187,BEAMS Breeze NAN SHAN,"{'brand': 'Beams', 'fascia': 'Beams', 'category': 'Retail', 'edit_date': '20250301', 'description_en': 'On the 3rd floor of ""Breeze NanShan Atre"" inside the ""Breeze NanShan"" complex. The line-up includes casual original items for men and women, clothing and accessories selected from inside and outside of Japan, and household goods. We provide fashion from Tokyo and a happy lifestyle as imagined by BEAMS.', 'lat_lon_source': 'thirdparty'}",+886 2 2723 6584,breeze_man_shan_atre,/global/shop/breeze_man_shan_atre/,"11:00 - 22:00 (Thu - Sat,Before holidays), 11:00 - 21:30（Sun - Wed）",,25.034484,121.566862
Rest of Asia,Taiwan,"No. 356, Section 1, Wenhua 3rd Rd, Linkou District, New Taipei City, Taiwan",Japan,155,BEAMS OUTLET LINKOU,"{'brand': 'Beams', 'fascia': 'Beams', 'category': 'Retail', 'edit_date': '20250301', 'description_en': 'We are located in the row of Japanese specialty boutiques on the first floor of ""Mitsui Outlet Park Taiwan Linkou,"" the biggest outlet mall in northern Taiwan. In addition to our lineup of  casual men\'s and women\'s clothing, we handle accessories, kids\' items, business wear, and many other items.', 'lat_lon_source': 'thirdparty'}",+886 2 2600 3783,outlet_linkou,/global/shop/outlet_linkou/,11:00 - 21:30（Sunday-Thursday）／11:00 - 22:00（Friday～Saturday）,,25.070083,121.365562
Rest of Asia,Taiwan,"No.340, Fujin Street, Taipei City, Taiwan",Japan,152,BEAMS TAIPEI,"{'brand': 'Beams', 'fascia': 'Beams', 'category': 'Retail', 'edit_date': '20250301', 'description_en': ""BEAMS TAIPEI is a concept shop that embodies the BEAMS aesthetic through a selection of mostly original men's and women's casual wear, children's apparel, accessories, art and other merchandise."", 'lat_lon_source': 'thirdparty'}",+886 2 2767 2716,taipei,/global/shop/taipei/,"12:00 - 20:30 (Mon–Fri), 11:30 - 20:30 (Sat, Sun, Public Holidays)",,25.060390,121.557106
Rest of Asia,Hong Kong,"Shop 626-627 , 6F , Hysan Place , Causeway Bay , Hong Kong, China",Japan,182,BEAMS HONG KONG HYSAN PLACE,"{'brand': 'Beams', 'fascia': 'Beams', 'category': 'Retail', 'edit_date': '20250301', 'description_en': ""On the sixth-floor of Hysan Place shopping centre in Causeway Bay, Hong Kong.You can feel 'Tokyo casual style' through original and selected items from men's casual, women's casual and accessories."", 'lat_lon_source': 'thirdparty'}",+852-2759-3282,hongkong_hysan_place,/global/shop/hongkong_hysan_place/,"Sunday - Thursday, 10:00 - 22:30 / Friday, Saturday & The day before Holidays, 10:00 - 23:00",,22.2797977,114.183731
Rest of Asia,Hong Kong,"Shop UG207, The ONE, Tsim Sha Tsui, Kowloon, Hong Kong, China",Japan,146,BEAMS HONG KONG THE ONE,"{'brand': 'Beams', 'fascia': 'Beams', 'category': 'Retail', 'edit_date': '20250301', 'description_en': 'BEAMS HONG KONG THE ONE is located within a mall ""THE ONE"" in Kowloon that has a direct access to Tsim Sha Tsui train station.', 'lat_lon_source': 'thirdparty'}",+852 2677 0230,hongkong_theone,/global/shop/hongkong_theone/,11:00 - 22:30,,22.299558,114.172126
Rest of Asia,Hong Kong,"LG1-31, Festival Walk, Kowloon Tong, Kowloon, Hong Kong, China",Japan,143,BEAMS HONG KONG FESTIVAL WALK,"{'brand': 'Beams', 'fascia': 'Beams', 'category': 'Retail', 'edit_date': '20250301', 'description_en': ""B1 floor of the 'Festival Walk' shopping mall in the Kowloon Tong area. Offering women's Tokyo casual style where you can freely enjoy fashion based around Ray Beams original products. "", 'lat_lon_source': 'thirdparty'}",＋852 2265 7050,hongkong_festivalwalk,/global/shop/hongkong_festivalwalk/,11:00 - 22:00,,22.337233,114.174423
Rest of Asia,Shenzhen,"1881 Baoan South Road, Luohu District, Shenzhen, Guangdong, China",Japan,250,BEAMS SHENZHEN The MIX C,"{'brand': 'Beams', 'fascia': 'Beams', 'category': 'Retail', 'edit_date': '20250301', 'description_en': '\u3000\u3000', 'lat_lon_source': 'thirdparty'}",+86 10 6416 2087,shenzhen,/global/shop/shenzhen/,10:00 - 22:00,,22.53982,114.11132
Rest of Asia,Wuhan,"No.628 Jiefang Avenue, Qiaokou District, Wuhan City, China",Japan,253,BEAMS WUHAN K11,"{'brand': 'Beams', 'fascia': 'Beams', 'category': 'Retail', 'edit_date': '20250301', 'description_en': '\u3000\u3000', 'lat_lon_source': 'thirdparty'}",+86 571 8656 0160,wuhan,/global/shop/wuhan/,10:00 - 22:00,,30.578757,114.264398
Rest of Asia,Chengdu,"No. 98, Shuangcheng 2nd Road, Chenghua District, Chengdu (Block 3, 4), Chengdu City D131",Japan,252,BEAMS CHENGDU THE MIX C,"{'brand': 'Beams', 'fascia': 'Beams', 'category': 'Retail', 'edit_date': '20250301', 'description_en': ' \u3000\u3000   ', 'lat_lon_source': 'thirdparty'}",+86 28 8413 1989,chengdu,/global/shop/chengdu/,10:00 - 22:00（Mon〜Thu・Sun）／10:00 - 22:30（Fri・Sat）,,30.65017,104.11503
Rest of Asia,Hangzhou,"353 Yan'an Rd, Xiacheng District, Hangzhou, Zhejiang, China",Japan,254,BEAMS HANGZHOU KERRY CENTRE,"{'brand': 'Beams', 'fascia': 'Beams', 'category': 'Retail', 'edit_date': '20250301', 'description_en': '\u3000\u3000  ', 'lat_lon_source': 'thirdparty'}",+86 571 8656 0160,hangzhou,/global/shop/hangzhou/,10:00 - 22:00,,30.260451,120.163116
Rest of Asia,Shanghai,"1-01&1-02, Level1, Xintiandi Plaza 333 Huaihai Middle Road, Huangpu, Shanghai , China",Japan,251,BEAMS SHANGHAI XINTIANDI PLAZA,"{'brand': 'Beams', 'fascia': 'Beams', 'category': 'Retail', 'edit_date': '20250301', 'description_en': '\u3000\u3000', 'lat_lon_source': 'thirdparty'}",+86 21 6373 0035,shanghai,/global/shop/shanghai/,10:00 - 22:00,,31.21899,121.474850
Rest of Asia,Beijing,"Taikoo Li Sanlitun South S1-15&23 No.19 Sanlitun Road Chaoyang District Beijing, China",Japan,249,BEAMS BEIJING TAIKOO LI SANLITUN ,"{'brand': 'Beams', 'fascia': 'Beams', 'category': 'Retail', 'edit_date': '20250301', 'description_en': '\u3000\u3000', 'lat_lon_source': 'thirdparty'}",+86 10 6416 2087,beijing,/global/shop/beijing/,10:00 - 22:00,,39.935363,116.455499
Chugoku / Shikoku / Kyushu / Okinawa,Okinawa,"OKINAWA OUTLET MALL ASHIBINAA , 1-188 Toyosaki, Tomigusuku-shi, Okinawa",Japan,25,BEAMS OUTLET OKINAWA,"{'brand': 'Beams', 'fascia': 'Beams', 'category': 'Retail', 'edit_date': '20250301', 'description_en': 'Daily-use casuals and products to fit the business scene, accessories and miscellaneous goods for all ages.', 'lat_lon_source': 'thirdparty'}",098 891 7733,oko,/global/shop/oko/,10:00 - 20:00,"Tax-freeShop, UnionPay, ALIPAY",26.15939592,127.6567769
Chugoku / Shikoku / Kyushu / Okinawa,Kagoshima,"AMU PLAZA Kagoshima 1F, 1-1 Cyuo-cho, Kagoshima-shi, Kagoshima",Japan,118,BEAMS KAGOSHIMA,"{'brand': 'Beams', 'fascia': 'Beams', 'category': 'Retail', 'edit_date': '20250301', 'description_en': 'Daily-use casuals and products to fit the business scene, accessories and miscellaneous goods for all ages.', 'lat_lon_source': 'thirdparty'}",099 812 6266 （Men's）/ 099 812 6267 （Women's）,kgb,/global/shop/kgb/,10:00 - 20:00,"Tax-freeShop, UnionPay",31.584602,130.542606
Chugoku / Shikoku / Kyushu / Okinawa,Miyazaki,"Amyupurazamiyazaki 1F 2-2-22 Oimatsu, Miyazaki-shi Miyazaki",Japan,214,BEAMS MIYAZAKI,"{'brand': 'Beams', 'fascia': 'Beams', 'category': 'Retail', 'edit_date': '20250301', 'description_en': 'Daily-use casuals and products to fit the business scene, accessories and miscellaneous goods for all ages.', 'lat_lon_source': 'thirdparty'}",0985-41-6761,myz,/global/shop/myz/,10:00 - 20:00,,31.914888,131.431258
Chugoku / Shikoku / Kyushu / Okinawa,Oita,"AMU PLAZA Oita 1F, 1-14 Kanamemachi, Oita-shi, Oita",Japan,116,BEAMS OITA,"{'brand': 'Beams', 'fascia': 'Beams', 'category': 'Retail', 'edit_date': '20250301', 'description_en': 'Daily-use casuals and products to fit the business scene, accessories and miscellaneous goods for all ages.', 'lat_lon_source': 'thirdparty'}",097 513 2296,oia,/global/shop/oia/,"11:00 - 20:00(Mon-Fri) / 10:00 - 20:00(Sat, Sun, Holiday)","Tax-freeShop, UnionPay",33.233253,131.606100
Chugoku / Shikoku / Kyushu / Okinawa,Kumamoto,"AMU PLAZA KUMAMOTO 1F, 3-15-26 Kasuga, Nishi-ku, Kumamoto-shi Kumamoto",Japan,115,BEAMS KUMAMOTO,"{'brand': 'Beams', 'fascia': 'Beams', 'category': 'Retail', 'edit_date': '20250301', 'description_en': 'Daily-use casuals and products to fit the business scene, accessories and miscellaneous goods for all ages.', 'lat_lon_source': 'thirdparty'}",096 359 7771 （Women's）／ 096 359 1280 （Men's）,km,/global/shop/km/,10:00 - 20:00,"Tax-freeShop, UnionPay",32.7890230,130.68875
Chugoku / Shikoku / Kyushu / Okinawa,Nagasaki,"AMU PLAZA NAGASAKI 2F, 1-1 Onoemachi, Nagasaki-shi, Nagasaki",Japan,128,B:MING LIFE STORE by BEAMS AMU PLAZA NAGASAKI,"{'brand': 'Beams', 'fascia': 'Beams', 'category': 'Retail', 'edit_date': '20250301', 'description_en': 'The main product line includes men’s and women’s original casual wear and business formal; additionally, kid’s and baby wear, miscellanea, cosmetics, and beauty supplies form a diverse lineup of goods offering the pleasures of contemporary lifestyles.', 'lat_lon_source': 'thirdparty'}",095 833 2311,nsa,/global/shop/nsa/,10:00 - 20:00,Tax-freeShop,32.751674,129.87089
Chugoku / Shikoku / Kyushu / Okinawa,Nagasaki,"1F AMU PLAZA Nagasaki New Building, 1-1  Onoue-machi, Nagasaki-shi Nagasaki",Japan,113,BEAMS NAGASAKI,"{'brand': 'Beams', 'fascia': 'Beams', 'category': 'Retail', 'edit_date': '20250301', 'description_en': 'Daily-use casuals and products to fit the business scene, accessories and miscellaneous goods for all ages.', 'lat_lon_source': 'thirdparty'}",095-822-6006,ns,/global/shop/ns/,10:00 - 20:00,,32.75147,129.87035
Chugoku / Shikoku / Kyushu / Okinawa,Saga,"TOSU PREMIUM OUTLETS, 8-1 Yayoigaoka, Tosu-shi, Saga",Japan,23,BEAMS OUTLET TOSU,"{'brand': 'Beams', 'fascia': 'Beams', 'category': 'Retail', 'edit_date': '20250301', 'description_en': 'Daily-use casuals and products to fit the business scene, accessories and miscellaneous goods for all ages.', 'lat_lon_source': 'thirdparty'}",0942 87 7327,bto,/global/shop/bto/,10:00 - 20:00,"Tax-freeShop, UnionPay, ALIPAY",33.406078,130.512475
Chugoku / Shikoku / Kyushu / Okinawa,Fukuoka,"THE OUTLETS KITAKYUSHU, 4-1-1 Higashida, Kitakyushu Yahatahigashi-ku, Fukuoka-shi Fukuoka",Japan,225,BEAMS OUTLET KITAKYUSHU,"{'brand': 'Beams', 'fascia': 'Beams', 'category': 'Retail', 'edit_date': '20250301', 'description_en': 'Daily-use casuals and products to fit the business scene, accessories and miscellaneous goods for all ages.', 'lat_lon_source': 'thirdparty'}",093 616 7275,kko,/global/shop/kko/,10:00 - 20:00,Tax-freeShop,33.873961,130.810891
Chugoku / Shikoku / Kyushu / Okinawa,Fukuoka,"JR Hakata City 3F, 1-1 Hakataeki Chuougai, Hakata-ku, Fukuoka-shi, Fukuoka",Japan,107,BEAMS HAKATA,"{'brand': 'Beams', 'fascia': 'Beams', 'category': 'Retail', 'edit_date': '20250301', 'description_en': 'Daily-use casuals and products to fit the business scene, accessories and miscellaneous goods for all ages.', 'lat_lon_source': 'thirdparty'}",092 413 5444,hkt,/global/shop/hkt/,10:00 - 20:00,"Tax-freeShop, UnionPay, ALIPAY",33.590544,130.419945
Chugoku / Shikoku / Kyushu / Okinawa,Fukuoka,"Fukuoka PARCO New Bldg. 1-2F, 2-11-1 Tenjin, Chuo-ku, Fukuoka-shi, Fukuoka",Japan,108,BEAMS FUKUOKA,"{'brand': 'Beams', 'fascia': 'Beams', 'category': 'Retail', 'edit_date': '20250301', 'description_en': 'Daily-use casuals and products to fit the business scene, accessories and miscellaneous goods for all ages.', 'lat_lon_source': 'thirdparty'}",092 737 2401,fkp,/global/shop/fkp/,10:00 - 20:30,"Tax-freeShop, UnionPay",33.590877,130.398122
Chugoku / Shikoku / Kyushu / Okinawa,Ehime,"AVA 2F, 3-2-1 Ichiban-cho, Matsuyama-shi, Ehime",Japan,104,BEAMS MATSUYAMA,"{'brand': 'Beams', 'fascia': 'Beams', 'category': 'Retail', 'edit_date': '20250301', 'description_en': 'Daily-use casuals and products to fit the business scene, accessories and miscellaneous goods for all ages.', 'lat_lon_source': 'thirdparty'}",089 941 0400,my,/global/shop/my/,11:00 - 20:00(Mon- Sat)/11:00 - 19:00(Sun),"Tax-freeShop, UnionPay",33.840793,132.768694
Chugoku / Shikoku / Kyushu / Okinawa,Kagawa,"Kotoden Kawaramachi Building 1F/2F, 1-3-1 Tokiwa-cho, Takamatsu-shi, Kagawa",Japan,103,BEAMS TAKAMATSU,"{'brand': 'Beams', 'fascia': 'Beams', 'category': 'Retail', 'edit_date': '20250301', 'description_en': 'Daily-use casuals and products to fit the business scene, accessories and miscellaneous goods for all ages.', 'lat_lon_source': 'thirdparty'}","087 837 7919 （Men）／
087 834 5331（Women）",tm,/global/shop/tm/,10:00 - 20:00,Tax-freeShop,34.338821,134.052439
Chugoku / Shikoku / Kyushu / Okinawa,Hiroshima,"1F/2F, 3-10 Hon-dori, Naka-ku, Hiroshima-shi Hiroshima",Japan,102,BEAMS HIROSHIMA,"{'brand': 'Beams', 'fascia': 'Beams', 'category': 'Retail', 'edit_date': '20250301', 'description_en': 'Daily-use casuals and products to fit the business scene, accessories and miscellaneous goods for all ages.', 'lat_lon_source': 'thirdparty'}","082 544 2961 (Men's)
082 544 2962 (Women's)",hi,/global/shop/hi/,11:00 - 20:00,"Tax-freeShop, UnionPay",34.39306,132.46016
Chugoku / Shikoku / Kyushu / Okinawa,Okayama,"MITSUI OUTLET PARK KURASHIKI 1F, 12-1 Kotobukicho, Kurashiki-shi, Okayama",Japan,29,BEAMS OUTLET KURASHIKI,"{'brand': 'Beams', 'fascia': 'Beams', 'category': 'Retail', 'edit_date': '20250301', 'description_en': 'Daily-use casuals and products to fit the business scene, accessories and miscellaneous goods for all ages.', 'lat_lon_source': 'thirdparty'}",086 435 7360,kso,/global/shop/kso/,10:00 - 20:00,"Tax-freeShop, UnionPay",34.603326,133.764169
Chugoku / Shikoku / Kyushu / Okinawa,Okayama,"CRED Okayama 1F, 1-8-45 Nakasange, Kita-ku, Okayama-shi, Okayama",Japan,75,BEAMS OKAYAMA,"{'brand': 'Beams', 'fascia': 'Beams', 'category': 'Retail', 'edit_date': '20250301', 'description_en': 'Daily-use casuals and products to fit the business scene, accessories and miscellaneous goods for all ages.', 'lat_lon_source': 'thirdparty'}",086 235 1722,okb,/global/shop/okb/,10:00 - 19:30,Tax-freeShop,34.662759,133.926804
Kansai,Hyogo,"MITSUI OUTLET PARK 1F, 12-2 Kaigan dori, Tarumi-ku Kobe-shi Hyogo",Japan,247,BEAMS OUTLET TARUMI,"{'brand': 'Beams', 'fascia': 'Beams', 'category': 'Retail', 'edit_date': '20250301', 'description_en': 'デイリーユースのカジュアルウエアから、オンデューティで活躍するアイテム、さらにバッグやアクセサリーまで、メンズ、ウィメンズ、キッズともに幅広い品揃えです。', 'lat_lon_source': 'thirdparty'}",078-797-5130,tro,/global/shop/tro/,10:00 - 20:00,"Tax-freeShop, UnionPay",34.626058,135.04882
Kansai,Hyogo,"SANYO DEPARTMENT STORE South Building 1F, 1 Minamimachi, Himeji-shi Hyogo",Japan,234,BEAMS HIMEJI,"{'brand': 'Beams', 'fascia': 'Beams', 'category': 'Retail', 'edit_date': '20250301', 'description_en': 'Daily-use casuals and products to fit the business scene, accessories and miscellaneous goods for all ages.\r\n', 'lat_lon_source': 'thirdparty'}",079 280 7260,hmj,/global/shop/hmj/,10:00 - 19:30,,34.828250,134.689087
Kansai,Hyogo,"KOBE-SANDA PREMIUM OUTLETS, 7-3 Kouzudai, Kita-ku, Kobe-shi, Hyogo",Japan,34,BEAMS OUTLET KOBE SANDA,"{'brand': 'Beams', 'fascia': 'Beams', 'category': 'Retail', 'edit_date': '20250301', 'description_en': 'Daily-use casuals and products to fit the business scene, accessories and miscellaneous goods for all ages.', 'lat_lon_source': 'thirdparty'}",078 983 3536,sdo,/global/shop/sdo/,10:00 - 20:00,"Tax-freeShop, UnionPay, ALIPAY",34.860356,135.192199
Kansai,Hyogo,"1F, 25 Kyomachi, Chuo-ku, Kobe-shi, Hyogo",Japan,133,BEAMS HOUSE MEN KOBE,"{'brand': 'Beams', 'fascia': 'Beams', 'category': 'Retail', 'edit_date': '20250301', 'description_en': 'We introduce a new formal and casual style for the new generation with comfortable service. We aspire to becoming a store adults would enjoy and patronize for ever.', 'lat_lon_source': 'thirdparty'}",078 334 7125,hmk,/global/shop/hmk/,11:00 - 20:00,"Tax-freeShop, UnionPay",34.68786,135.19315
Kansai,Hyogo,"Clefy SANNOMIYA B1Ｆ-1F, 1-4-3 Sannomiya-cho, Chuo-ku, Kobe-shi, Hyogo",Japan,131,BEAMS KOBE,"{'brand': 'Beams', 'fascia': 'Beams', 'category': 'Retail', 'edit_date': '20250301', 'description_en': 'Daily-use casuals and products to fit the business scene, accessories and miscellaneous goods for all ages.', 'lat_lon_source': 'thirdparty'}",078 335 2720,kbc,/global/shop/kbc/,11:00 - 20:00,"Tax-freeShop, UnionPay",34.691063,135.193086
Kansai,Nara,"narafamily zoro 1F, 2-4-1 Saidaijihigashimachi, Nara-shi, Nara",Japan,167,BEAMS NARA,"{'brand': 'Beams', 'fascia': 'Beams', 'category': 'Retail', 'edit_date': '20250301', 'description_en': 'Daily-use casuals and products to fit the business scene, accessories and miscellaneous goods for all ages.', 'lat_lon_source': 'thirdparty'}",0742-32-5025,nr,/global/shop/nr/,10:00 - 20:00,Tax-freeShop,34.695057,135.784487
Kansai,Osaka,"MITSUI OUTLET PARK OSAKA KADOMA 2F, 204-3 Matsuoi cho, Kadoma shi Osaka",Japan,40,BEAMS OUTLET OSAKA KADOMA,"{'brand': 'Beams', 'fascia': 'Beams', 'category': 'Retail', 'edit_date': '20250301', 'description_en': 'Daily-use casuals and products to fit the business scene, accessories and miscellaneous goods for all ages.', 'lat_lon_source': 'thirdparty'}",06 6926 9011,oto,/global/shop/oto/,10:00 - 21:00,"Tax-freeShop, UnionPay",34.732604,135.582924
Kansai,Osaka,"KUZUHA MALL 1F, 15-1 Kuzuhahanazonocho, Hirakata-shi, Osaka",Japan,135,B:MING LIFE STORE by BEAMS KUZUHA MALL,"{'brand': 'Beams', 'fascia': 'Beams', 'category': 'Retail', 'edit_date': '20250301', 'description_en': 'The main product line includes men’s and women’s original casual wear and business formal; additionally, kid’s and baby wear, miscellanea, cosmetics, and beauty supplies form a diverse lineup of goods offering the pleasures of contemporary lifestyles.', 'lat_lon_source': 'thirdparty'}",072 836 3270,kkz,/global/shop/kkz/,"10:00 - 20:00（Mon- Fri）／10:00 - 21:00（Sat, Sun, Holiday）",Tax-freeShop,34.861847,135.676666
Kansai,Osaka,"NAMBA parks 2F, 2-10-70 Nambanaka, Naniwa-ku, Osaka-shi Osaka",Japan,190,BEAMS HOUSE NAMBA,"{'brand': 'Beams', 'fascia': 'Beams', 'category': 'Retail', 'edit_date': '20250301', 'description_en': 'We introduce a new formal and casual style for the new generation with comfortable service. We aspire to becoming a store adults would enjoy and patronize for ever.', 'lat_lon_source': 'thirdparty'}",06 6635 2301,nmh,/global/shop/nmh/,11:00 - 21:00,"Tax-freeShop, UnionPay",34.661626,135.501943
Kansai,Osaka,"GRAND FRONT OSAKA South Bldg. 2F, 4-20 Ofuka-cho, Kita-ku, Osaka-shi, Osaka",Japan,111,BEAMS HOUSE UMEDA,"{'brand': 'Beams', 'fascia': 'Beams', 'category': 'Retail', 'edit_date': '20250301', 'description_en': 'BEAMS EX UMEDA Demi-Luxe BEAMS UMEDA is a chic shop for adults who enjoy their own fashion and lifestyle. We provide comfortable services and products in a shop with a classical and sedate mood.', 'lat_lon_source': 'thirdparty'}",06 6359 3451,bhu,/global/shop/bhu/,11:00 - 21:00,"Tax-freeShop, UnionPay",34.704093,135.494730
Kansai,Osaka,"LUCUA osaka 3F, 3-1-3 Umeda, Kita-ku, Osaka-shi, Osaka",Japan,101,BEAMS UMEDA,"{'brand': 'Beams', 'fascia': 'Beams', 'category': 'Retail', 'edit_date': '20250301', 'description_en': 'Daily-use casuals and products to fit the business scene, accessories and miscellaneous goods for all ages.', 'lat_lon_source': 'thirdparty'}",06 6347 0490,umd,/global/shop/umd/,10:30 - 20:30,"Tax-freeShop, UnionPay, ALIPAY",34.703242,135.495671
Kansai,Kyoto,"ATICK 1F, 1049 Kitasui, Maizuru-sh Kyoto",Japan,246,BEAMS JAPAN MAIZURU,"{'brand': 'Beams', 'fascia': 'Beams', 'category': 'Retail', 'edit_date': '20250301', 'description_en': 'This shop is the hub from which BEAMS ""TEAM JAPAN"", a project to curate content across a broad range of categories based on the keyword of ""Japan"", sets new trends. The shop categories such as ""Food"", ""Brand items"", ""Fashion"", ""Collaborations"", ""Culture"", ""Art"", and ""Crafts"". The shop as a whole acts to transmit these various attractive aspects of Japan both nationwide and around the world.', 'lat_lon_source': 'thirdparty'}",0773 77 5678,jmz,/global/shop/jmz/,10:00 - 18:00,,35.475395,135.384536
Kansai,Kyoto,"1F ShinPuhKan, 586-2, Karasumadori Aneyakoji-sagaru Banocho, Nakagyo-ku, Kyoto-shi Kyoto Kyoto",Japan,205,Pilgrim Surf+Supply KYOTO,"{'brand': 'Beams', 'fascia': 'Beams', 'category': 'Retail', 'edit_date': '20250301', 'description_en': 'The first Japanese flagship store of ""Pilgrim Surf+Supply,"" a select shop from Brooklyn, New York. The shop follows the concept of ""a dual life that combines both nature and urban,"" and proposes a lifestyle of outdoor activities with a focus on surf filtered through the scope of American East Coast culture. Not limited to fashion apparel only, the shop offers a wide variety of content that includes activities as well.', 'lat_lon_source': 'thirdparty'}",075 708 6632,psk,/global/shop/psk/,11:00 - 20:00,"Tax-freeShop, UnionPay, ALIPAY",35.009697,135.760267
Kansai,Kyoto,"1F ShinPuhKan, 586-2, Karasumadori Aneyakoji-sagaru Banocho, Nakagyo-ku, Kyoto-shi Kyoto",Japan,204,BEAMS JAPAN KYOTO,"{'brand': 'Beams', 'fascia': 'Beams', 'category': 'Retail', 'edit_date': '20250301', 'description_en': 'This shop is the hub from which BEAMS ""TEAM JAPAN"", a project to curate content across a broad range of categories based on the keyword of ""Japan"", sets new trends. The shop categories such as ""Food"", ""Brand items"", ""Fashion"", ""Collaborations"", ""Culture"", ""Art"", and ""Crafts"". The shop as a whole acts to transmit these various attractive aspects of Japan both nationwide and around the world.', 'lat_lon_source': 'thirdparty'}",075 708 6848,jk,/global/shop/jk/,11:00〜20:00,"Tax-freeShop, UnionPay",35.0095415,135.7600422
Kansai,Kyoto,"KYOTO SHOCHIKUZA BUILDING 1F, 415 Sakurano-cho, Sanjo-sagaru Shinkyogoku Nakagyo-ku, Kyoto-shi  Kyoto",Japan,99,BEAMS KYOTO,"{'brand': 'Beams', 'fascia': 'Beams', 'category': 'Retail', 'edit_date': '20250301', 'description_en': 'Daily-use casuals and products to fit the business scene, accessories and miscellaneous goods for all ages.', 'lat_lon_source': 'thirdparty'}",075-257-8065,kyo,/global/shop/kyo/,11:00 - 20:00,"Tax-freeShop, UnionPay",35.008164,135.767621
Hokuriku / Shinetsu / Tokai,Mie,"MITSUI OUTLET PARK JAZZ DREAM NAGASHIMA, 368 Urayasu, Nagashimacho, Kuwana-shi, Mie",Japan,53,BEAMS OUTLET NAGASHIMA,"{'brand': 'Beams', 'fascia': 'Beams', 'category': 'Retail', 'edit_date': '20250301', 'description_en': 'Daily-use casuals and products to fit the business scene, accessories and miscellaneous goods for all ages.', 'lat_lon_source': 'thirdparty'}",0594 45 8745,nso,/global/shop/nso/,10:00 - 20:00,"Tax-freeShop, UnionPay",35.030657,136.725899
Hokuriku / Shinetsu / Tokai,Aichi,"Dai Nagoya Building Shops&Restaurants 2F, 3-28-12 Meieki, Nakamura-ku, Nagoya-shi",Japan,232,BEAMS GOLF Dai Nagoya Building,"{'brand': 'Beams', 'fascia': 'Beams', 'category': 'Retail', 'edit_date': '20250301', 'description_en': 'A store specializing in the BEAMS GOLF produce line, our label providing unique, fashionable and functional BEAMS golf styles.\r\n', 'lat_lon_source': 'thirdparty'}",052 564 1085,dbg,/global/shop/dbg/,11:00 - 20:00,,35.172101,136.884458
Hokuriku / Shinetsu / Tokai,Aichi,"mozo WONDER CITY 1F, 40 Futakatacho, Nishi-ku, Nagoya-shi, Aichi",Japan,189,B:MING LIFE STORE by BEAMS mozo WONDER CITY,"{'brand': 'Beams', 'fascia': 'Beams', 'category': 'Retail', 'edit_date': '20250301', 'description_en': 'The main product line includes men’s and women’s original casual wear and business formal; additionally, kid’s and baby wear, miscellanea, cosmetics, and beauty supplies form a diverse lineup of goods offering the pleasures of contemporary lifestyles.', 'lat_lon_source': 'thirdparty'}",052 509 2390,mwc,/global/shop/mwc/,10:00 - 21:00,"Tax-freeShop, UnionPay",35.224937,136.883134
Hokuriku / Shinetsu / Tokai,Aichi,"LaLaport Minato AQULS 1F, 2-3-2 Koumei, Minato-ku, Nagoya-shi, Aichi",Japan,185,B:MING LIFE STORE by BEAMS LaLaport Minato AQULS,"{'brand': 'Beams', 'fascia': 'Beams', 'category': 'Retail', 'edit_date': '20250301', 'description_en': 'The main product line includes men’s and women’s original casual wear and business formal; additionally, kid’s and baby wear, miscellanea, cosmetics, and beauty supplies form a diverse lineup of goods offering the pleasures of contemporary lifestyles.', 'lat_lon_source': 'thirdparty'}",052-659-2821,nma,/global/shop/nma/,"Monday - Friday, 10:00 - 20:00 / Saturday, Sunday & holiday, 10:00 - 21:00",Tax-freeShop,35.660470,139.729246
Hokuriku / Shinetsu / Tokai,Aichi,"Matsuzakaya Nagoya South Wing 5F, 3-16-1 Sakae, Naka-ku, Nagoya-shi, Aichi",Japan,98,BEAMS GOLF MATSUZAKAYA NAGOYA,"{'brand': 'Beams', 'fascia': 'Beams', 'category': 'Retail', 'edit_date': '20250301', 'description_en': 'A store specializing in the BEAMS GOLF produce line, our label providing unique, fashionable and functional BEAMS golf styles.', 'lat_lon_source': 'thirdparty'}",052 238 3981,nmg,/global/shop/nmg/,10:00 - 19:00,"Tax-freeShop, UnionPay",35.16462578,136.9080377
Hokuriku / Shinetsu / Tokai,Aichi,"Takashimaya GATE TOWER MALL 3F, 1-1-3 Meieki, Nakamura-ku, Nagoya-shi, Aichi",Japan,170,BEAMS HOUSE NAGOYA,"{'brand': 'Beams', 'fascia': 'Beams', 'category': 'Retail', 'edit_date': '20250301', 'description_en': 'We introduce a new formal and casual style for the new generation with comfortable service. We aspire to becoming a store adults would enjoy and patronize for ever.', 'lat_lon_source': 'thirdparty'}",052 589 2671,bhn,/global/shop/bhn/,10:00 - 21:00,"Tax-freeShop, UnionPay",35.172022,136.883030
Hokuriku / Shinetsu / Tokai,Aichi,"LACHIC 2F, 3-6-1 Sakae, Naka-ku, Nagoya-shi, Aichi",Japan,94,BEAMS NAGOYA,"{'brand': 'Beams', 'fascia': 'Beams', 'category': 'Retail', 'edit_date': '20250301', 'description_en': 'Daily-use casuals and products to fit the business scene, accessories and miscellaneous goods for all ages.', 'lat_lon_source': 'thirdparty'}",052 265 2610,bna,/global/shop/bna/,11:00 - 21:00,"Tax-freeShop, UnionPay",35.167496,136.907762
Hokuriku / Shinetsu / Tokai,Shizuoka,"Shin-Shizuoka Cenova 1F, 1-1-1 Takajo, Aoi-ku, Shizuoka-shi Shizuoka",Japan,240,BEAMS GOLF Shin-Shizuoka Cenova,"{'brand': 'Beams', 'fascia': 'Beams', 'category': 'Retail', 'edit_date': '20250301', 'description_en': 'A store specializing in the BEAMS GOLF produce line, our label providing unique, fashionable and functional BEAMS golf styles.', 'lat_lon_source': 'thirdparty'}",054 204 5500,szg,/global/shop/szg/,10:00 - 20:00,,34.9756,138.3873
Hokuriku / Shinetsu / Tokai,Shizuoka,"GOTEMBA PREMIUM OUTLETS, 1312 Fukasawa, Gotemba-shi, Shizuoka",Japan,57,BEAMS OUTLET GOTEMBA,"{'brand': 'Beams', 'fascia': 'Beams', 'category': 'Retail', 'edit_date': '20250301', 'description_en': 'Daily-use casuals and products to fit the business scene, accessories and miscellaneous goods for all ages.', 'lat_lon_source': 'thirdparty'}",0550-70-1211,bgo,/global/shop/bgo/,"December - February, 10:00 - 19:00 / March - July & September - November, 10:00 - 20:00 / August, 10:00 - 21:00","Tax-freeShop, UnionPay, ALIPAY",35.307386,138.966901
Hokuriku / Shinetsu / Tokai,Shizuoka,"Shin-Shizuoka Cenova 2F, 1-1-1 Takajou, Aoi-ku, Shizuoka-shi, Shizuoka",Japan,119,B:MING LIFE STORE by BEAMS Shin-Shizuoka Cenova,"{'brand': 'Beams', 'fascia': 'Beams', 'category': 'Retail', 'edit_date': '20250301', 'description_en': 'The main product line includes men’s and women’s original casual wear and business formal; additionally, kid’s and baby wear, miscellanea, cosmetics, and beauty supplies form a diverse lineup of goods offering the pleasures of contemporary lifestyles.', 'lat_lon_source': 'thirdparty'}",054 205 5511,szc,/global/shop/szc/,"10:30 - 19:30(Mon-Fri) / 10:00 - 20:00(Sat, Sun, Holiday)",Tax-freeShop,34.975512,138.3872036
Hokuriku / Shinetsu / Tokai,Shizuoka,"Shin Shizuoka Cenova 1F, 1-1-1 Takajou, Aoi-ku, Shizuoka-shi, Shizuoka",Japan,93,BEAMS SHIZUOKA,"{'brand': 'Beams', 'fascia': 'Beams', 'category': 'Retail', 'edit_date': '20250301', 'description_en': 'Daily-use casuals and products to fit the business scene, accessories and miscellaneous goods for all ages.', 'lat_lon_source': 'thirdparty'}",054 275 2070,szk,/global/shop/szk/,10:00 - 20:00,"Tax-freeShop, UnionPay",34.975331,138.386721
Hokuriku / Shinetsu / Tokai,Nagano,"491-i Nagano-Motoyoshicho, Nagano City Nagano",Japan,245,BEAMS JAPAN ZENKOJI,"{'brand': 'Beams', 'fascia': 'Beams', 'category': 'Retail', 'edit_date': '20250301', 'description_en': 'This shop is the hub from which BEAMS ""TEAM JAPAN"", a project to curate content across a broad range of categories based on the keyword of ""Japan"", sets new trends. The shop categories such as ""Food"", ""Brand items"", ""Fashion"", ""Collaborations"", ""Culture"", ""Art"", and ""Crafts"". The shop as a whole acts to transmit these various attractive aspects of Japan both nationwide and around the world.\r\n', 'lat_lon_source': 'thirdparty'}",026 234 3595,jnz,/global/shop/jnz/,9:00 - 16:00,,36.66103,138.18788
Hokuriku / Shinetsu / Tokai,Nagano,"KARUIZAWA PRINCE SHOPPING PLAZA New East, 1178-160 Karuizawa, Karuizawamachi, Kitasaku-gun, Nagano",Japan,91,BEAMS GOLF KARUIZAWA,"{'brand': 'Beams', 'fascia': 'Beams', 'category': 'Retail', 'edit_date': '20250301', 'description_en': 'A store specializing in the BEAMS GOLF produce line, our label providing unique, fashionable and functional BEAMS golf styles.', 'lat_lon_source': 'thirdparty'}",0267 41 1577,kpg,/global/shop/kpg/,10:00 - 19:00（There is variation depending on the season）,"Tax-freeShop, UnionPay",36.341981,138.63789
Hokuriku / Shinetsu / Tokai,Nagano,"KARUIZAWA PRINCE SHOPPING PLAZA Center Mall, 1178-160 Karuizawa, Karuizawamachi, Kitasaku-gun, Nagano",Japan,89,Kodomo BEAMS KARUIZAWA,"{'brand': 'Beams', 'fascia': 'Beams', 'category': 'Retail', 'edit_date': '20250301', 'description_en': ""Kodomo BEAMS was opened to give children the chance to expand their creativity and sensitivity through our products, events and workshops. We intorduce children's clothes that create a happy lifestyle for both children and their parents."", 'lat_lon_source': 'thirdparty'}",0267 41 6708,kkp,/global/shop/kkp/,10:00 - 19:00（There is variation depending on the season）,"Tax-freeShop, UnionPay, ALIPAY",36.341995,138.634543
Hokuriku / Shinetsu / Tokai,Nagano,"KARUIZAWA PRINCE SHOPPING PLAZA New East, 1178-160 Karuizawa, Karuizawamachi, Kitasaku-gun, Nagano",Japan,62,BEAMS OUTLET KARUIZAWA,"{'brand': 'Beams', 'fascia': 'Beams', 'category': 'Retail', 'edit_date': '20250301', 'description_en': 'Daily-use casuals and products to fit the business scene, accessories and miscellaneous goods for all ages.', 'lat_lon_source': 'thirdparty'}",0267 41 2021,bko,/global/shop/bko/,10:00 - 19:00（There is variation depending on the season）,"Tax-freeShop, UnionPay, ALIPAY",36.340779,138.637784
Hokuriku / Shinetsu / Tokai,Ishikawa,"1-2F, 2-4-30 Kohrinbo, Kanazawa-shi, Ishikawa",Japan,86,BEAMS KANAZAWA,"{'brand': 'Beams', 'fascia': 'Beams', 'category': 'Retail', 'edit_date': '20250301', 'description_en': ""The spacious interior is divided into a women's floor (1F) and men's (2F). They present a wide range of varying articles casual, elegant, formal, and more."", 'lat_lon_source': 'thirdparty'}",076 260 1551,knz,/global/shop/knz/,11:00 - 20:00,"Tax-freeShop, UnionPay",36.564155,136.65349
Hokuriku / Shinetsu / Tokai,Toyama,"MITSUI OUTLET PARK HOKURIKU OYABE, 972-1 Nishinakano, Oyabe-shi, Toyama",Japan,105,BEAMS OUTLET HOKURIKUOYABE,"{'brand': 'Beams', 'fascia': 'Beams', 'category': 'Retail', 'edit_date': '20250301', 'description_en': 'Daily-use casuals and products to fit the business scene, accessories and miscellaneous goods for all ages.', 'lat_lon_source': 'thirdparty'}",0766 67 2306,hoo,/global/shop/hoo/,10:00 - 20:00,"Tax-freeShop, UnionPay",36.688775,136.883292
Hokuriku / Shinetsu / Tokai,Niigata,"ACROSS Niigata 1F, 2-5-2 Yachiyo, Chuo-ku, Niigata-shi, Niigata",Japan,84,BEAMS NIIGATA,"{'brand': 'Beams', 'fascia': 'Beams', 'category': 'Retail', 'edit_date': '20250301', 'description_en': 'Daily-use casuals and products to fit the business scene, accessories and miscellaneous goods for all ages.', 'lat_lon_source': 'thirdparty'}",025 255 1000,nib,/global/shop/nib/,"Monday - Friday, 11:00 - 20:00 / Saturday, Sunday & Holiday, 10:00 - 20:00",Tax-freeShop,37.916669,139.053338
Hokkaido / Tohoku,Miyagi,"SENDAIKOU MITSUI OUTLET PARK 1F, 3-7-2 Nakano, Miyagino-ku, Sendai-shi, Miyagi",Japan,201,BEAMS OUTLET SENDAIKOU,"{'brand': 'Beams', 'fascia': 'Beams', 'category': 'Retail', 'edit_date': '20250301', 'description_en': 'Daily-use casuals and products to fit the business scene, accessories and miscellaneous goods for all ages.', 'lat_lon_source': 'thirdparty'}",022 387 1101,sko,/global/shop/sko/,10:00 - 20:00,UnionPay,38.2751889,140.9898179
Hokkaido / Tohoku,Miyagi,"SENDAI-IZUMI PREMIUM OUTLETS 1F, 6-1 Teraoka, Izumi-ku, Sendai-shi, Miyagi",Japan,161,BEAMS OUTLET SENDAI-IZUMI,"{'brand': 'Beams', 'fascia': 'Beams', 'category': 'Retail', 'edit_date': '20250301', 'description_en': 'Daily-use casuals and products to fit the business scene, accessories and miscellaneous goods for all ages.', 'lat_lon_source': 'thirdparty'}",022 342 6455,sio,/global/shop/sio/,"September - July, 10:00 - 20:00 / August, 10:00 - 21:00","Tax-freeShop, UnionPay",38.341252,140.837029
Hokkaido / Tohoku,Miyagi,"1F/2F, 3-6-1 Ichibancho, Aoba-ku, Sendai-shi, Miyagi",Japan,79,BEAMS SENDAI,"{'brand': 'Beams', 'fascia': 'Beams', 'category': 'Retail', 'edit_date': '20250301', 'description_en': 'Daily-use casuals and products to fit the business scene, accessories and miscellaneous goods for all ages.', 'lat_lon_source': 'thirdparty'}",022 263 2011,sdi,/global/shop/sdi/,11:00 - 20:00,"Tax-freeShop, UnionPay",38.26125,140.874
Hokkaido / Tohoku,Hokkaido,"Sapporo STELLAR PLACE B1F , Nishi-2chome , Kita-5jo , Chuo-ku , Sapporo-shi,  Hokkaido",Japan,198,BEAMS SAPPORO STELLAR PLACE,"{'brand': 'Beams', 'fascia': 'Beams', 'category': 'Retail', 'edit_date': '20250301', 'description_en': 'Daily-use casuals and products to fit the business scene, accessories and miscellaneous goods for all ages.', 'lat_lon_source': 'thirdparty'}",011 200 2092,ssp,/global/shop/ssp/,10:00 - 21:00,"Tax-freeShop, UnionPay",43.068321,141.351825
Hokkaido / Tohoku,Hokkaido,"MITSUI OUTLET PARK SAPPORO KITA-HIROSHIMA, 3-7-6 Omagari-Saiwai-cho, Kita-Hiroshima-shi, Hokkaido",Japan,162,BEAMS OUTLET SAPPORO KITAHIROSHIMA,"{'brand': 'Beams', 'fascia': 'Beams', 'category': 'Retail', 'edit_date': '20250301', 'description_en': 'Daily-use casuals and products to fit the business scene, accessories and miscellaneous goods for all ages.', 'lat_lon_source': 'thirdparty'}",011 377 1972,kho,/global/shop/kho/,10:00 - 20:00,"Tax-freeShop, UnionPay",42.971129,141.47083
Hokkaido / Tohoku,Hokkaido,"1F/2F, 8-11 Nishi-3chome, Minami-1jo, Chuo-ku, Sapporo-shi, Hokkaido",Japan,76,BEAMS SAPPORO,"{'brand': 'Beams', 'fascia': 'Beams', 'category': 'Retail', 'edit_date': '20250301', 'description_en': 'Daily-use casuals and products to fit the business scene, accessories and miscellaneous goods for all ages.', 'lat_lon_source': 'thirdparty'}","011 252 5111 （Women's 1F） 
011 252 5100 （Men's 2F）",sp,/global/shop/sp/,11:00 - 20:00,"Tax-freeShop, UnionPay, ALIPAY",43.059490,141.35375
Kanto,Kanagawa,"THE OUTLETS SHONAN HIRATSUKA 1F, 1-1 Okam-8chome, Hiratsuka-shi Kanagawa",Japan,235,BEAMS OUTLET SHONAN HIRATSUKA,"{'brand': 'Beams', 'fascia': 'Beams', 'category': 'Retail', 'edit_date': '20250301', 'description_en': 'Daily-use casuals and products to fit the business scene, accessories and miscellaneous goods for all ages.', 'lat_lon_source': 'thirdparty'}",0463 86 3381,sho,/global/shop/sho/,10:00 - 20:00,,35.393138,139.363653
Kanto,Kanagawa,"MITSUI OUTLET PARK YOKOHAMA-BAYSIDE, 5-2 Shiraho, Kanazawa-ku, Yokohama-shi, Kanagawa",Japan,123,BEAMS OUTLET YOKOHAMA,"{'brand': 'Beams', 'fascia': 'Beams', 'category': 'Retail', 'edit_date': '20250301', 'description_en': 'Daily-use casuals and products to fit the business scene, accessories and miscellaneous goods for all ages.', 'lat_lon_source': 'thirdparty'}",045 350 9517,ybo,/global/shop/ybo/,10:00 - 20:00,"Tax-freeShop, UnionPay",35.380347,139.645334
Kanto,Kanagawa,"Terrace Mall Shonan 1F, 1-3-1 Tsujidokandai Fujisawa-shi Kanagawa",Japan,179,B:MING LIFE STORE by BEAMS Terrace Mall Shonan,"{'brand': 'Beams', 'fascia': 'Beams', 'category': 'Retail', 'edit_date': '20250301', 'description_en': 'The main product line includes men’s and women’s original casual wear and business formal; additionally, kid’s and baby wear, miscellanea, cosmetics, and beauty supplies form a diverse lineup of goods offering the pleasures of contemporary lifestyles.', 'lat_lon_source': 'thirdparty'}",0466-38-1361,tms,/global/shop/tms/,10:00 - 21:00,Tax-freeShop,35.338099,139.446439
Kanto,Kanagawa,"Lazona Kawasaki Plaza 3F, 72-1 Horikawacho, Saiwai-ku, Kawasaki-shi, Kanagawa",Japan,77,B:MING LIFE STORE by BEAMS Lazona Kawasaki Plaza,"{'brand': 'Beams', 'fascia': 'Beams', 'category': 'Retail', 'edit_date': '20250301', 'description_en': 'The main product line includes men’s and women’s original casual wear and business formal; additionally, kid’s and baby wear, miscellanea, cosmetics, and beauty supplies form a diverse lineup of goods offering the pleasures of contemporary lifestyles.', 'lat_lon_source': 'thirdparty'}",044 540 3520,kwl,/global/shop/kwl/,10:00 - 21:00,"Tax-freeShop, UnionPay",35.532869,139.695774
Kanto,Kanagawa,"TAMAPLAZA TERRACE 1F, 1-1-2 Utsukushigaoka, Aoba-ku, Yokohama-shi, Kanagawa",Japan,87,B:MING LIFE STORE by BEAMS TAMAPLAZA TERRACE,"{'brand': 'Beams', 'fascia': 'Beams', 'category': 'Retail', 'edit_date': '20250301', 'description_en': 'The main product line includes men’s and women’s original casual wear and business formal; additionally, kid’s and baby wear, miscellanea, cosmetics, and beauty supplies form a diverse lineup of goods offering the pleasures of contemporary lifestyles.', 'lat_lon_source': 'thirdparty'}",045 905 3790,tpt,/global/shop/tpt/,10:00 - 20:00,Tax-freeShop,35.57762871393647,139.55934294204712
Kanto,Kanagawa,"LaLaPort Yokohama 1F, 4035-1 Ikonobecho, Tsuzuki-ku, Yokohoma-shi, Kanagawa",Japan,90,B:MING LIFE STORE by BEAMS LaLaPort Yokohama,"{'brand': 'Beams', 'fascia': 'Beams', 'category': 'Retail', 'edit_date': '20250301', 'description_en': 'The main product line includes men’s and women’s original casual wear and business formal; additionally, kid’s and baby wear, miscellanea, cosmetics, and beauty supplies form a diverse lineup of goods offering the pleasures of contemporary lifestyles.', 'lat_lon_source': 'thirdparty'}",045 930 3530,yhl,/global/shop/yhl/,"Monday - Friday, 10:00 - 20:00 / Saturday, Sunday & holiday, 10:00 - 21:00","Tax-freeShop, UnionPay",35.51715174267968,139.5666492794037
Kanto,Kanagawa,"Terrace Mall Shonan 2F, 1-3-1 Tsujidokandai, Fujisawa-shi, Kanagawa",Japan,180,BEAMS TSUJIDO,"{'brand': 'Beams', 'fascia': 'Beams', 'category': 'Retail', 'edit_date': '20250301', 'description_en': 'A concept store that promotes an innovative approach to an authentic and casual style for adults. Based on the ideas of heritage, native art and design, our lineup features high quality attire and an abundant selection of accessories inspired by American Indian jewelry. From ivy and more, enjoy a classic sense of style that has persisted throughout time.', 'lat_lon_source': 'thirdparty'}",0466 38 6175,tjd,/global/shop/tjd/,10:00 - 21:00,Tax-freeShop,35.338427,139.446305
Kanto,Kanagawa,"JOINUS 2F, 1-5-1 Minamisaiwai, Nishi-ku, Yokohama-shi, Kanagawa",Japan,66,BEAMS STREET YOKOHAMA,"{'brand': 'Beams', 'fascia': 'Beams', 'category': 'Retail', 'edit_date': '20250301', 'description_en': 'Daily-use casuals and products to fit the business scene, accessories and miscellaneous goods for all ages.', 'lat_lon_source': 'thirdparty'}",045 412 5380,syh,/global/shop/syh/,10:00 - 21:00,"Tax-freeShop, UnionPay",35.464375,139.620462
Kanto,Chiba,"MITSUI OUTLET PARK KISARAZU, 3-1-1 Kaneda Higashi, Kisarazu-shi, Chiba",Japan,142,BEAMS OUTLET KISARAZU,"{'brand': 'Beams', 'fascia': 'Beams', 'category': 'Retail', 'edit_date': '20250301', 'description_en': 'Daily-use casuals and products to fit the business scene, accessories and miscellaneous goods for all ages.', 'lat_lon_source': 'thirdparty'}",0438 40 1270,kzo,/global/shop/kzo/,10:00 - 20:00,"Tax-freeShop, UnionPay",35.4346804,139.9361113
Kanto,Chiba,"MITSUI OUTLET PARK MAKUHARI, 2-6-1 Hibino, Mihama-ku, Chiba",Japan,144,BEAMS OUTLET MAKUHARI,"{'brand': 'Beams', 'fascia': 'Beams', 'category': 'Retail', 'edit_date': '20250301', 'description_en': 'Daily-use casuals and products to fit the business scene, accessories and miscellaneous goods for all ages.', 'lat_lon_source': 'thirdparty'}",043 350 4700,mho,/global/shop/mho/,10:00 - 20:00,"Tax-freeShop, UnionPay",35.647748,140.041676
Kanto,Chiba,"IKSPIARI 2F, 1-4 Maihama, Urayasu-shi, Chiba",Japan,138,B:MING LIFE STORE by BEAMS IKSPIARI,"{'brand': 'Beams', 'fascia': 'Beams', 'category': 'Retail', 'edit_date': '20250301', 'description_en': 'The main product line includes men’s and women’s original casual wear and business formal; additionally, kid’s and baby wear, miscellanea, cosmetics, and beauty supplies form a diverse lineup of goods offering the pleasures of contemporary lifestyles.', 'lat_lon_source': 'thirdparty'}",047 390 7037,ikp,/global/shop/ikp/,"Monday - Friday, 11:00 - 20:00 / Saturday, Sunday & holiday, 10:00 - 20:00","Tax-freeShop, UnionPay",35.635114,139.884099
Kanto,Chiba,"LaLaPort Kasiwanoha 2F, 175 Wakashiba, Kashiwa-shi, Chiba",Japan,61,B:MING LIFE STORE by BEAMS LaLaPort Kasiwanoha,"{'brand': 'Beams', 'fascia': 'Beams', 'category': 'Retail', 'edit_date': '20250301', 'description_en': 'The main product line includes men’s and women’s original casual wear and business formal; additionally, kid’s and baby wear, miscellanea, cosmetics, and beauty supplies form a diverse lineup of goods offering the pleasures of contemporary lifestyles.', 'lat_lon_source': 'thirdparty'}",04 7137 6750,khl,/global/shop/khl/,"Monday - Friday, 10:00 - 20:00 / Saturday, Sunday & holiday, 10:00 - 21:00","Tax-freeShop, UnionPay",35.893311,139.951356
Kanto,Saitama,"FUKAYA-HANAZONO PREMIUM OUTLETS, 1 Hanazono, Fukaya-shi Saitama",Japan,226,BEAMS OUTLET FUKAYA HANAZONO,"{'brand': 'Beams', 'fascia': 'Beams', 'category': 'Retail', 'edit_date': '20250301', 'description_en': 'Daily-use casuals and products to fit the business scene, accessories and miscellaneous goods for all ages.', 'lat_lon_source': 'thirdparty'}",048 579 5297,fho,/global/shop/fho/,10:00 - 20:00,"Tax-freeShop, UnionPay",36.133213,139.249135
Kanto,Saitama,"Grand Emio TOKOROZAWA 2F, 1-14-5 Kusunokidai, Tokorozawa-shi, Saitama",Japan,173,B:MING LIFE STORE by BEAMS Grand Emio TOKOROZAWA,"{'brand': 'Beams', 'fascia': 'Beams', 'category': 'Retail', 'edit_date': '20250301', 'description_en': 'The main product line includes men’s and women’s original casual wear and business formal; additionally, kid’s and baby wear, miscellanea, cosmetics, and beauty supplies form a diverse lineup of goods offering the pleasures of contemporary lifestyles.', 'lat_lon_source': 'thirdparty'}",042 968 6918,get,/global/shop/get/,10:00 - 21:00,Tax-freeShop,35.786547,139.473766
Kanto,Saitama,"LUMINE OMIYA2 2F, 630 Nishikicho, Omiya-ku, Saitama-shi, Saitama",Japan,69,BEAMS OMIYA,"{'brand': 'Beams', 'fascia': 'Beams', 'category': 'Retail', 'edit_date': '20250301', 'description_en': 'Daily-use casuals and products to fit the business scene, accessories and miscellaneous goods for all ages.', 'lat_lon_source': 'thirdparty'}",048 640 5601,omb,/global/shop/omb/,"Monday - Saturday, 10:00 - 21:00 / Sunday, Holiday, 10:00 - 20:30",Tax-freeShop,35.906198,139.623903
Kanto,Tochigi,"2287 Yamauchi, Nikko-shi Tochigi",Japan,230,BEAMS JAPAN NIKKO,"{'brand': 'Beams', 'fascia': 'Beams', 'category': 'Retail', 'edit_date': '20250301', 'description_en': 'This shop is the hub from which BEAMS ""TEAM JAPAN"", a project to curate content across a broad range of categories based on the keyword of ""Japan"", sets new trends. The shop categories such as ""Food"", ""Brand items"", ""Fashion"", ""Collaborations"", ""Culture"", ""Art"", and ""Crafts"". The shop as a whole acts to transmit these various attractive aspects of Japan both nationwide and around the world.', 'lat_lon_source': 'thirdparty'}",0288 25 5028,jnt,/global/shop/jnt/,10:00 - 17:00（Apr. - Nov.）／10:00 - 16:00（Dec. - Mar.）,,36.753867,139.600100
Kanto,Tochigi,"SANO PREMIUM OUTLETS, 2058 Koena-cho, Sano-shi, Tochigi",Japan,156,BEAMS OUTLET SANO,"{'brand': 'Beams', 'fascia': 'Beams', 'category': 'Retail', 'edit_date': '20250301', 'description_en': 'Daily-use casuals and products to fit the business scene, accessories and miscellaneous goods for all ages.', 'lat_lon_source': 'thirdparty'}",0283 27 2026,bso,/global/shop/bso/,"10:00 - 20:00 / February only on weekdays, 10:00 - 19:00","Tax-freeShop, UnionPay",36.294082,139.605737
Kanto,Ibaraki,"AMI PREMIUM OUTLETS, 2700 Yoshihara, Ami-cho, Inashiki-gun, Ibaraki",Japan,158,BEAMS OUTLET AMI,"{'brand': 'Beams', 'fascia': 'Beams', 'category': 'Retail', 'edit_date': '20250301', 'description_en': 'Daily-use casuals and products to fit the business scene, accessories and miscellaneous goods for all ages.', 'lat_lon_source': 'thirdparty'}",029 833 6676,amo,/global/shop/amo/,"September - June, 10:00 - 20:00 / July & August, 10:00 - 21:00","Tax-freeShop, UnionPay",35.983648,140.237693
Tokyo,Minamimachida,"1F Grandberry Park, 3-4-1 Tsuruma, Machida-shi Tokyo",Japan,199,BEAMS OUTLET MINAMIMACHIDA,"{'brand': 'Beams', 'fascia': 'Beams', 'category': 'Retail', 'edit_date': '20250301', 'description_en': 'Daily-use casuals and products to fit the business scene, accessories and miscellaneous goods for all ages.', 'lat_lon_source': 'thirdparty'}",042 850 7061,gpo,/global/shop/gpo/,10:00 - 20:00,Tax-freeShop,35.5098378,139.4699593
Tokyo,Minamiosawa,"MITSUI OUTLET PARK TAMA MINAMI OSAWA, 1-600 Minami-Osawa, Hachioji-shi, Tokyo",Japan,132,BEAMS OUTLET TAMA MINAMI OSAWA,"{'brand': 'Beams', 'fascia': 'Beams', 'category': 'Retail', 'edit_date': '20250301', 'description_en': 'Daily-use casuals and products to fit the business scene, accessories and miscellaneous goods for all ages.', 'lat_lon_source': 'thirdparty'}",042 678 7600,tmo,/global/shop/tmo/,10:00 - 20:00,"Tax-freeShop, UnionPay",35.614188,139.377316
Tokyo,Machida,"LUMINE Machida 2F, 6-1-11 Haramachida, Machida-shi, Tokyo",Japan,55,BEAMS MACHIDA,"{'brand': 'Beams', 'fascia': 'Beams', 'category': 'Retail', 'edit_date': '20250301', 'description_en': 'Daily-use casuals and products to fit the business scene, accessories and miscellaneous goods for all ages.', 'lat_lon_source': 'thirdparty'}",042 732 5101,mcb,/global/shop/mcb/,10:30  - 20:30,Tax-freeShop,35.542048,139.446078
Tokyo,Tachikawa,"LaLaport Tachikawa Tachihi 2F, 935-1 Izumicho, Tachikawa-shi, Tokyo",Japan,141,B:MING LIFE STORE by BEAMS LaLaport Tachikawa Tachihi,"{'brand': 'Beams', 'fascia': 'Beams', 'category': 'Retail', 'edit_date': '20250301', 'description_en': 'The main product line includes men’s and women’s original casual wear and business formal; additionally, kid’s and baby wear, miscellanea, cosmetics, and beauty supplies form a diverse lineup of goods offering the pleasures of contemporary lifestyles.', 'lat_lon_source': 'thirdparty'}",042 540 6050,ttl,/global/shop/ttl/,"Monday - Friday, 10:00 - 20:00 / Saturday, Sunday & holiday, 10:00 - 21:00","Tax-freeShop, UnionPay",35.713588,139.418523
Tokyo,Tachikawa,"LUMINE Tachikawa 2F, 2-1-1 Akebonocho, Tachikawa-shi, Tokyo",Japan,54,BEAMS TACHIKAWA,"{'brand': 'Beams', 'fascia': 'Beams', 'category': 'Retail', 'edit_date': '20250301', 'description_en': 'Daily-use casuals and products to fit the business scene, accessories and miscellaneous goods for all ages.', 'lat_lon_source': 'thirdparty'}",042 548 1070 （Men's） / 042 548 1071 （Women's）,tcb,/global/shop/tcb/,10:00 - 20:00,Tax-freeShop,35.69838,139.414954
Tokyo,Toyosu,"Urban Dock LaLaport Toyosu 1F, 2-4-9 Toyosu, Koto-ku, Tokyo",Japan,80,B:MING LIFE STORE by BEAMS Urban Dock LaLaport Toyosu,"{'brand': 'Beams', 'fascia': 'Beams', 'category': 'Retail', 'edit_date': '20250301', 'description_en': 'The main product line includes men’s and women’s original casual wear and business formal; additionally, kid’s and baby wear, miscellanea, cosmetics, and beauty supplies form a diverse lineup of goods offering the pleasures of contemporary lifestyles.', 'lat_lon_source': 'thirdparty'}",03 3532 3100,tyl,/global/shop/tyl/,10:00 - 21:00,"Tax-freeShop, UnionPay",35.655141,139.792766
Tokyo,Kitasenju,"LUMINE Kitasenju 3F, 42-2 Senjuasahicho, Adachi-ku, Tokyo",Japan,51,BEAMS KITASENJU,"{'brand': 'Beams', 'fascia': 'Beams', 'category': 'Retail', 'edit_date': '20250301', 'description_en': 'Daily-use casuals and products to fit the business scene, accessories and miscellaneous goods for all ages.', 'lat_lon_source': 'thirdparty'}",03 5284 2211,ksj,/global/shop/ksj/,11:00 - 20:30,Tax-freeShop,35.749706,139.8049388
Tokyo,Ikebukuro,"LUMINE Ikebukuro 1F, 1-11-1 Nishi-Ikebukuro, Toshima-ku, Tokyo",Japan,35,BEAMS IKEBUKURO,"{'brand': 'Beams', 'fascia': 'Beams', 'category': 'Retail', 'edit_date': '20250301', 'description_en': 'A wide range of fashion products for men and women, including casual wear, business suits, accessories, and miscellaneous goods.', 'lat_lon_source': 'thirdparty'}",03 5956 1590,ikb,/global/shop/ikb/,11:00 - 21:00,"Tax-freeShop, UnionPay",35.728812,139.709388
Tokyo,Shimokitazawa,"reload 2−1, 3-19-20 Kitazawa, Setagaya-ku Tokyo",Japan,239,BEAMS Planets LIMITED STORE SHIMOKITAZAWA,"{'brand': 'Beams', 'fascia': 'Beams', 'category': 'Retail', 'edit_date': '20250301', 'description_en': '〈BEAMS Planets〉is a label that connects people and things around the world, continues to create products full of originality, and carefully delivers their charms along with their stories. It is a limited-time shop of this label.', 'lat_lon_source': 'thirdparty'}",03 3460 8515,planets,/global/shop/planets/,11:00 - 20:00,,35.66329,139.66972
Tokyo,Shinjuku,"M2F, Odakyu Department Shinjuku Maine Store, 1-5-1 Nishishinjuku, Shinjuku-ku Tokyo",Japan,32,BEAMS GOLF ODAKYU DEPARTMENT SHINJUKU,"{'brand': 'Beams', 'fascia': 'Beams', 'category': 'Retail', 'edit_date': '20250301', 'description_en': 'A store specializing in the BEAMS GOLF produce line, our label providing unique, fashionable and functional BEAMS golf styles.', 'lat_lon_source': 'thirdparty'}",03 5325 1090,hlg,/global/shop/hlg/,"10:00 - 20:30／10:00 - 20:00 (Sunday, Holiday)","Tax-freeShop, UnionPay",35.69245,139.69834
Tokyo,Shinjuku,"LUMINE EST Shinjuku 1F, 3-38-1 Shinjuku, Shinjuku-ku Tokyo",Japan,30,Ray BEAMS SHINJUKU,"{'brand': 'Beams', 'fascia': 'Beams', 'category': 'Retail', 'edit_date': '20250301', 'description_en': 'Ray BEAMS SHINJUKU offers customers trendy high-ended casual fashion. We introduce both imported and domestic products with vivid colors and sharp silhouettes. Our line up of the most fashionable items for our stylish customers can now be found in our newest store, BEAMS shop # 4 in the Shinjuku area.', 'lat_lon_source': 'thirdparty'}",03 5368 2191,rs,/global/shop/rs/,"Monday - Friday, 11:00 - 21:00 / Saturday, Sunday & Holiday, 10:30 - 21:00","Tax-freeShop, UnionPay",35.69142000,139.701150
Tokyo,Shinjuku,"LUMINE EST Shinjuku B2F, 3-38-1 Shinjuku, Shinjuku-ku, Tokyo",Japan,28,BEAMS SHINJUKU,"{'brand': 'Beams', 'fascia': 'Beams', 'category': 'Retail', 'edit_date': '20250301', 'description_en': 'BEAMS SHINJUKU has a collection of BEAMS, Ray BEAMS, and BEAMS BOY brand products. We also display products by BEAMS Lights, a brand that expresses cleanliness and adult class while keeping its designs modest. This shop is connected to Shinjuku station, convenience that attracts many customers.', 'lat_lon_source': 'thirdparty'}",03 5369 2140,leb,/global/shop/leb/,"Monday - Friday, 11:00 - 21:00 / Saturday, Sunday & Holiday, 10:30 - 21:00","Tax-freeShop, UnionPay",35.6914560,139.701122
Tokyo,Shinjuku,"LUMINE Shinjuku 1 2F , 1-1-5 Nishi-Shinjuku, Shinjuku-ku, Tokyo",Japan,26,Demi-Luxe BEAMS SHINJUKU,"{'brand': 'Beams', 'fascia': 'Beams', 'category': 'Retail', 'edit_date': '20250301', 'description_en': 'Demi-luxe BEAMS which means ""small and light"", introduces quality-conscious work and free-time clothes for independent women who enjoy their own style.', 'lat_lon_source': 'thirdparty'}",03 5339 9070,dls,/global/shop/dls/,11:00 - 21:00,"Tax-freeShop, UnionPay",35.689207,139.6993
Tokyo,Shinjuku,"B1F - 5F, 3-32-6 Shinjuku, Shinjuku-ku, Tokyo",Japan,24,BEAMS JAPAN,"{'brand': 'Beams', 'fascia': 'Beams', 'category': 'Retail', 'edit_date': '20250301', 'description_en': 'This shop is the hub from which BEAMS ""TEAM JAPAN"", a project to curate content across a broad range of categories based on the keyword of ""Japan"", sets new trends. Each of its six floors, from the first level basement to the fifth floor, is home to distinct categories such as ""Food"", ""Brand items"", ""Fashion"", ""Collaborations"", ""Culture"", ""Art"", and ""Crafts"". The shop as a whole acts to transmit these various attractive aspects of Japan both nationwide and around the world.', 'lat_lon_source': 'thirdparty'}",03 5368 7300,j,/global/shop/j/,"11:00-20:00（1F-5F）／11:30-15:00, 17:00-23:00（CRAFT GRILL）","Tax-freeShop, UnionPay, ALIPAY",35.690354,139.704011
Tokyo,Shinjuku,"6/7F, 3-32-6 Shinjuku, Shinjuku-ku, Tokyo",Japan,22,BEAMS F SHINJUKU,"{'brand': 'Beams', 'fascia': 'Beams', 'category': 'Retail', 'edit_date': '20250301', 'description_en': 'The shop features a broad line-up of goods, from high quality, original items to the hottest imported brands. Suits and jackets suitable for business wear are available in store, and can also be made to order. In addition, the shop stocks a wide variety of fashion goods and casual items produced to uncompromising quality standards.', 'lat_lon_source': 'thirdparty'}",03 5368 7305,jbf,/global/shop/jbf/,11:00 - 20:00,"Tax-freeShop, UnionPay",35.690354,139.704011
Tokyo,Roppongi,"2F-3F Roppongi Hills West Walk, 6-10-1 Roppongi, Minato-ku Tokyo",Japan,184,BEAMS ROPPONGI HILLS,"{'brand': 'Beams', 'fascia': 'Beams', 'category': 'Retail', 'edit_date': '20250301', 'description_en': 'BEAMS\' flagship store, housing a fine collection of men\'s and women\'s clothes, featuring everything from casual to formal wear. BEAMS embraces the concepts of ""high fashion"", ""high casual"", and ""high quality"", and in order to realize the Beams vision of ""high style"", this store puts a fresh twist on the large collection of Beams brand items, and also carries a number of bespoke items and store exclusive brands that respond to the local trends in the area.', 'lat_lon_source': 'thirdparty'}",03 5775 1620（2F）／03 5775 1623（3F）,rph,/global/shop/rph/,11:00 - 20:00,"Tax-freeShop, UnionPay, ALIPAY",35.660972,139.728799
Tokyo,Roppongi,"TOKYO MIDTOWN·Galleria 1F, 9-7-3 Akasaka, Minato-ku, Tokyo",Japan,45,BEAMS HOUSE ROPPONGI,"{'brand': 'Beams', 'fascia': 'Beams', 'category': 'Retail', 'edit_date': '20250301', 'description_en': 'BEAMS HOUSE ROPPONGI is a chic shop for adults who enjoy their own fashion and lifestyle. We provide comfortable services and products in a shop with a classical and sedate mood.', 'lat_lon_source': 'thirdparty'}",03 5413 7690,bhr,/global/shop/bhr/,11:00 - 20:00,"Tax-freeShop, UnionPay",35.665891,139.730301
Tokyo,Yurakucho,"Yurakucho Denki Bldg. 1F, 1-7-1 Yurakucho, Chiyoda-ku, Tokyo",Japan,42,BEAMS GOLF YURAKUCHO,"{'brand': 'Beams', 'fascia': 'Beams', 'category': 'Retail', 'edit_date': '20250301', 'description_en': ""A BEAMS GOLF shop, an original brand that proposes a golf wear style that is both fashionable and functional, and unique to BEAMS. You'll find a full line up of carefully selected imported items, as well as items from collaborations with popular fashion brands."", 'lat_lon_source': 'thirdparty'}",03 5221 6001,yg,/global/shop/yg/,11:00 - 20:00,"Tax-freeShop, UnionPay",35.6743248,139.7613036
Tokyo,Marunouchi,"DAIMARU TOKYO 11F, 1-9-1 Marunouchi, Chiyoda-ku, Tokyo",Japan,39,BEAMS GOLF DAIMARU TOKYO,"{'brand': 'Beams', 'fascia': 'Beams', 'category': 'Retail', 'edit_date': '20250301', 'description_en': 'A store specializing in the BEAMS GOLF produce line, our label providing unique, fashionable and functional BEAMS golf styles.', 'lat_lon_source': 'thirdparty'}",03 5218 2210,dtg,/global/shop/dtg/,"10:00〜20:00 / Thu,Fri, 10:00〜21:00","Tax-freeShop, UnionPay",35.681532,139.768871
Tokyo,Marunouchi,"SHIN-MARUNOUCHI Bldg. 3F, 1-5-1 Marunouchi, Chiyoda-ku, Tokyo",Japan,38,BEAMS SHIN-MARUNOUCHI,"{'brand': 'Beams', 'fascia': 'Beams', 'category': 'Retail', 'edit_date': '20250301', 'description_en': 'Casual clothes and items for grown-up weekends starting with BEAMS LIGHTS can be found at BEAM SHIN-MARUNOUCHI.', 'lat_lon_source': 'thirdparty'}",03 5288 7670,smb,/global/shop/smb/,"Mon - Sat, 11:00 - 21:00 / Sun, Holiday, 11:00 - 20:00","Tax-freeShop, UnionPay",35.682543,139.7643
Tokyo,Marunouchi,"Marunouchi Nakadori Bldg. 1F, 2-2-3 Marunouchi, Chiyoda-ku Tokyo",Japan,41,BEAMS PLUS MARUNOUCHI,"{'brand': 'Beams', 'fascia': 'Beams', 'category': 'Retail', 'edit_date': '20250301', 'description_en': ""Our customers can browse traditional American clothes and shoes in a shop like Ernest Hemingway's summer house. Suits, a company that counts American Presidents among its customers, a collection of original suits, jackets, and ties are displayed. We also take pattern orders."", 'lat_lon_source': 'thirdparty'}",03 5220 3151,bpm,/global/shop/bpm/,11:00 - 20:00,,35.68016213985807,139.7625434069124
Tokyo,Marunouchi,"MARUNOUCHI Bldg. 1F, 2-4-1 Marunouchi, Chiyoda-ku, Tokyo",Japan,37,BEAMS HOUSE MARUNOUCHI,"{'brand': 'Beams', 'fascia': 'Beams', 'category': 'Retail', 'edit_date': '20250301', 'description_en': 'We introduce a new formal and casual style for the new generation in our high quality and spacious shop. Our products and services such as individual tailoring and dress rentals target adults.', 'lat_lon_source': 'thirdparty'}",03 5220 8686,bhm,/global/shop/bhm/,"Monday - Saturday, 11:00 - 21:00 / Sunday, Holiday, 11:00 - 20:00","Tax-freeShop, UnionPay",35.681096,139.763631
Tokyo,Ginza,"2F/3F, 4-4-1 Ginza, Chuo-ku, Tokyo",Japan,17,BEAMS GINZA,"{'brand': 'Beams', 'fascia': 'Beams', 'category': 'Retail', 'edit_date': '20250301', 'description_en': 'We display a wide variety of clothes from business clothes that suit the streets of Ginza to casual clothes for borderless fashion.', 'lat_lon_source': 'thirdparty'}",03 3567 2223（2F Casual）／ 03 3567 2224（3F Formal）,gnz,/global/shop/gnz/,11:00 - 20:00,"Tax-freeShop, UnionPay, ALIPAY",35.672267,139.765167
Tokyo,Daikanyama,"1F, 19-7 Sarugakucho, Shibuya-ku, Tokyo",Japan,21,Kodomo BEAMS,"{'brand': 'Beams', 'fascia': 'Beams', 'category': 'Retail', 'edit_date': '20250301', 'description_en': ""Kodomo BEAMS was opened in September, 2008, in Daikanyama to give children the chance to expand their creativity and sensitivity through our products, events and workshops. We intorduce children's clothes that create a happy lifestyle for both children and their parents."", 'lat_lon_source': 'thirdparty'}",03 5428 4844,kd,/global/shop/kd/,10:00 - 19:00,"Tax-freeShop, UnionPay, ALIPAY",35.648970,139.700715
Tokyo,Ebisu,"Atre Ebisu 4F, 1-5-5 Ebisu-Minami, Shibuya-ku, Tokyo",Japan,16,BEAMS EBISU,"{'brand': 'Beams', 'fascia': 'Beams', 'category': 'Retail', 'edit_date': '20250301', 'description_en': 'Daily-use casuals and products to fit the business scene, accessories and miscellaneous goods for all ages.', 'lat_lon_source': 'thirdparty'}",03 5447 7061,ebs,/global/shop/ebs/,10:00 - 21:00,"Tax-freeShop, UnionPay",35.646175,139.710517
Tokyo,Shibuya,"TOKYU PLAZA SHIBUYA 2F, 1-2-3 Dogenzaka, Shibuya-ku, Tokyo",Japan,200,BEAMS JAPAN SHIBUYA,"{'brand': 'Beams', 'fascia': 'Beams', 'category': 'Retail', 'edit_date': '20250301', 'description_en': 'This shop is the hub from which BEAMS ""TEAM JAPAN"", a project to curate content across a broad range of categories based on the keyword of ""Japan"", sets new trends. The shop categories such as ""Food"", ""Brand items"", ""Fashion"", ""Collaborations"", ""Culture"", ""Art"", and ""Crafts"". The shop as a whole acts to transmit these various attractive aspects of Japan both nationwide and around the world.', 'lat_lon_source': 'thirdparty'}",03 5422 3974,js,/global/shop/js/,11:00〜20:00,"Tax-freeShop, UnionPay, ALIPAY",35.657721,139.700313
Tokyo,Shibuya,"1F/2F, 1-15-1 Jinnan, Shibuya-ku, Tokyo",Japan,10,BEAMS MEN SHIBUYA,"{'brand': 'Beams', 'fascia': 'Beams', 'category': 'Retail', 'edit_date': '20250301', 'description_en': ""Spread out over 2 floors, BEAMS SHIBAYA categorizes men's clothing not by age groups, but by style and feel."", 'lat_lon_source': 'thirdparty'}",03 3780 5500,s,/global/shop/s/,11:00 - 20:00,"Tax-freeShop, UnionPay, ALIPAY",35.663797,139.699659
Tokyo,Shibuya,"1F, 1-14-7 Jinnan, Shibuya-ku, Tokyo",Japan,13,Pilgrim Surf+Supply TOKYO,"{'brand': 'Beams', 'fascia': 'Beams', 'category': 'Retail', 'edit_date': '20250301', 'description_en': 'The first Japanese flagship store of ""Pilgrim Surf+Supply,"" a select shop from Brooklyn, New York. The shop follows the concept of ""a dual life that combines both nature and urban,"" and proposes a lifestyle of outdoor activities with a focus on surf filtered through the scope of American East Coast culture. Not limited to fashion apparel only, the shop offers a wide variety of content that includes activities as well.', 'lat_lon_source': 'thirdparty'}",03 5459 1690,pss,/global/shop/pss/,11:00 - 20:00,"Tax-freeShop, UnionPay, ALIPAY",35.663618,139.699925
Tokyo,Harajuku,1F 3-24-5 Jingumae Shibuya-ku Tokyo,Japan,238,BEAMS HARAJUKU ANNEX,"{'brand': 'Beams', 'fascia': 'Beams', 'category': 'Retail', 'edit_date': '20250301', 'description_en': 'This is the actual store of ""FUTURE ARCHIVE"", a project led by a new generation that creates a ""future archive"" that will not fade 10 or 20 years from now.', 'lat_lon_source': 'thirdparty'}",03 3470 8452,ha,/global/shop/ha/,13:00 - 20:00,,35.670994,139.707522
Tokyo,Harajuku,"2F, 3-25-15 jingumae shibuya-ku Tokyo",Japan,215,BEAMS KOUBOU,"{'brand': 'Beams', 'fascia': 'Beams', 'category': 'Retail', 'edit_date': '20250301', 'description_en': 'A repair shop that proposes the best repairs, care, remakes, and customs for each person.', 'lat_lon_source': 'thirdparty'}",080 9703 9379,bkoubou,/global/shop/bkoubou/,"12:00 - 20:00 (Mon〜Fri) / 11:00 - 20:00(Sat, Sun, Holiday)",,35.671727,139.708098
Tokyo,Harajuku,"3F, 1-5-8 Jingumae, Shibuya-ku, Tokyo",Japan,11,Uniform Circus BEAMS,"{'brand': 'Beams', 'fascia': 'Beams', 'category': 'Retail', 'edit_date': '20250301', 'description_en': ""Uniform Circus BEAMS makes event merchandise, company and sport team uniforms, and other novelty items based on our customers' requests."", 'lat_lon_source': 'thirdparty'}",03-3470-9393,uc,/global/shop/uc/,,,35.670574,139.706745
Tokyo,Harajuku,"1F, 3-25-15 Jingumae, Shibuya-ku, Tokyo",Japan,7,BEAMS T HARAJUKU,"{'brand': 'Beams', 'fascia': 'Beams', 'category': 'Retail', 'edit_date': '20250301', 'description_en': 'With ""Art for Everyday"" as our concept, BEAMS T HARAJUKU expresses art in everyday life using t-shirts as canvases. We also hold exhibitions every year to provide a place where artists and customers can come mingle.', 'lat_lon_source': 'thirdparty'}",03 3470 8601,hbt,/global/shop/hbt/,"12:00 - 20:00 (Mon〜Fri) / 11:00 - 20:00(Sat, Sun, Holiday)","Tax-freeShop, UnionPay, ALIPAY",35.671609,139.708001
Tokyo,Harajuku,"1F, 3-25-15 Jingumae, Shibuya-ku, Tokyo",Japan,9,BEAMS RECORDS,"{'brand': 'Beams', 'fascia': 'Beams', 'category': 'Retail', 'edit_date': '20250301', 'description_en': 'All CDs and analog records can be played before purchase. We have a treasure of unique and timeless music for everyone.', 'lat_lon_source': 'thirdparty'}",03 3746 0789,hbr,/global/shop/hbr/,"12:00 - 20:00 (Mon〜Fri) / 11:00 - 20:00(Sat, Sun, Holiday)","Tax-freeShop, UnionPay",35.671674,139.708044
Tokyo,Harajuku,"1F, 3-25-12 Jingumae, Shibuya-ku, Tokyo",Japan,5,BEAMS PLUS HARAJUKU,"{'brand': 'Beams', 'fascia': 'Beams', 'category': 'Retail', 'edit_date': '20250301', 'description_en': 'BEAMS PLUS HARAJUKU pursues the starting point of men\'s casual fashion with ""long-lasting men\'s clothes"" as its theme. We provide a wide variety of fashion, including authentic casual fashion to general-use items.', 'lat_lon_source': 'thirdparty'}",03 3746 5851,bph,/global/shop/bph/,"12:00 - 20:00 (Mon〜Fri) / 11:00 - 20:00(Sat, Sun, Holiday)","Tax-freeShop, UnionPay, ALIPAY",35.671352,139.707856
Tokyo,Harajuku,"1F, 3-25-14 Jingumae, Shibuya-ku, Tokyo",Japan,4,BEAMS BOY HARAJUKU,"{'brand': 'Beams', 'fascia': 'Beams', 'category': 'Retail', 'edit_date': '20250301', 'description_en': ""BEAMS BOY specializes in men's-like clothing for women. Work, military, sports, ivy league, and all other authentic American style fashions are offered with the BEAMS BOY touch."", 'lat_lon_source': 'thirdparty'}",03 5770 5550,hry,/global/shop/hry/,"12:00 - 20:00 (Mon〜Fri) / 11:00 - 20:00(Sat, Sun, Holiday)","Tax-freeShop, UnionPay, ALIPAY",35.671530,139.707936
Tokyo,Harajuku,"B1F Jingumae Terrace, 3-25-15 Jingumae, Shibuya-ku Tokyo",Japan,2,BEAMS WOMEN HARAJUKU,"{'brand': 'Beams', 'fascia': 'Beams', 'category': 'Retail', 'edit_date': '20250301', 'description_en': 'Re-editing the items from the women\'s labels ""Ray BEAMS"" and ""BEAMS BOY,"" this shop presents an original style through mixing trends from international collections and a Tokyo street mood.', 'lat_lon_source': 'thirdparty'}",03 5413 6415 /,hw,/global/shop/hw/,"12:00 - 20:00 (Mon〜Fri) / 11:00 - 20:00(Sat, Sun, Holiday)","Tax-freeShop, UnionPay, ALIPAY",35.671576,139.708141
Tokyo,Harajuku,"1F-2F, 3-25-15 Jingumae, Shibuya-ku, Tokyo",Japan,3,BEAMS F / International Gallery BEAMS,"{'brand': 'Beams', 'fascia': 'Beams', 'category': 'Retail', 'edit_date': '20250301', 'description_en': 'The flagship store of the label “BEAMS F” ”International Gallery BEAMS”, bringing together style trends from around the world. ', 'lat_lon_source': 'thirdparty'}",(BEAMS F) /,fig,/global/shop/fig/,"12:00 - 20:00 (Mon〜Fri) / 11:00 - 20:00(Sat, Sun, Holiday)",,35.6716373,139.7081792
Tokyo,Shinjuku,"EKINAKA NEWoMan 2F, 5-24-55 Sendagaya, Shibuya-ku, Tokyo",Japan,31,BEAMS NEWS,"{'brand': 'Beams', 'fascia': 'Beams', 'category': 'Retail', 'edit_date': '20250301', 'description_en': 'Located in NEWoMan on the second floor inside the station area of the New Aouth Exit of Shinjuku Station. It is a concept store full of clothing and miscellaneous goods that have been revised in line with the themes that change on a regular basis, from among the labels of BEAMS. As a new ""newsstand,"" it will send out information on the goods and items picked up by BEAMS\' discerning eye.', 'lat_lon_source': 'thirdparty'}",03 3351 3090,nsn,/global/shop/nsn/,"Monday - Saturday, 9:00 - 21:00 / Sunday & Holiday, 9:00 - 20:30","Tax-freeShop, UnionPay",35.688616,139.700663
Tokyo,Futakotamagawa,"Tamagawa Takashimaya Shopping Center South Bldg. 2F, 3-17-1 Tamagawa, Setagaya-ku, Tokyo",Japan,46,BEAMS FUTAKOTAMAGAWA,"{'brand': 'Beams', 'fascia': 'Beams', 'category': 'Retail', 'edit_date': '20250301', 'description_en': 'Daily-use casuals and products to fit the business scene, accessories and miscellaneous goods for all ages.', 'lat_lon_source': 'thirdparty'}",03 3707 8998,ttb,/global/shop/ttb/,10:00 - 20:00,"Tax-freeShop, UnionPay",35.613314,139.626467
Tokyo,Oshiage,"TOKYO SKY TREE TOWN Solamachi 2F, 1-1-2 Oshiage Sumida-ku, Tokyo",Japan,163,BEAMS TOKYO SKYTREE TOWN,"{'brand': 'Beams', 'fascia': 'Beams', 'category': 'Retail', 'edit_date': '20250301', 'description_en': 'Daily-use casuals and products to fit the business scene, accessories and miscellaneous goods for all ages.', 'lat_lon_source': 'thirdparty'}",03 5819 4011,tst,/global/shop/tst/,10:00 - 21:00,"Tax-freeShop, UnionPay",35.7101587,139.8118193
Tokyo,Kichijoji,"kirarina Kichijoji 3F, 2-1-25 Kichijojiminamicho, Musashino-shi, Tokyo",Japan,52,BEAMS KICHIJOJI,"{'brand': 'Beams', 'fascia': 'Beams', 'category': 'Retail', 'edit_date': '20250301', 'description_en': 'Daily-use casuals and products to fit the business scene, accessories and miscellaneous goods for all ages.', 'lat_lon_source': 'thirdparty'}",0422 70 2571,kkj,/global/shop/kkj/,10:00 - 21:00,"Tax-freeShop, UnionPay",35.702803,139.579946
Kanto,Saitama,"COCOON2 COCOON CITY 2F, 4-263-1 Kishiki-cho, Omiya-ku, Saitama-shi, Saitama",Japan,139,B:MING LIFE STORE by BEAMS COCOON CITY,"{'brand': 'Beams', 'fascia': 'Beams', 'category': 'Retail', 'edit_date': '20250301', 'description_en': 'The main product line includes men’s and women’s original casual wear and business formal; additionally, kid’s and baby wear, miscellanea, cosmetics, and beauty supplies form a diverse lineup of goods offering the pleasures of contemporary lifestyles.', 'lat_lon_source': 'thirdparty'}",048 788 1130,ssc,/global/shop/ssc/,10:00 - 21:00,"Tax-freeShop, UnionPay",35.895933,139.635626
Kanto,Saitama,"MITSUI OUTLET PARK IRUMA, 3169-1 Miyadera, Iruma-shi, Saitama",Japan,151,BEAMS OUTLET IRUMA,"{'brand': 'Beams', 'fascia': 'Beams', 'category': 'Retail', 'edit_date': '20250301', 'description_en': 'Daily-use casuals and products to fit the business scene, accessories and miscellaneous goods for all ages.', 'lat_lon_source': 'thirdparty'}",04 2902 5222,bio,/global/shop/bio/,10:00 - 20:00,"Tax-freeShop, UnionPay",35.8103275,139.3795523
Kanto,Chiba,"Kashiwa Takashimaya Station Mall 4F, 1-1 Suehirocho, Kashiwa-shi, Chiba",Japan,71,BEAMS KASHIWA,"{'brand': 'Beams', 'fascia': 'Beams', 'category': 'Retail', 'edit_date': '20250301', 'description_en': 'Daily-use casuals and products to fit the business scene, accessories and miscellaneous goods for all ages.', 'lat_lon_source': 'thirdparty'}",04 7147 9831,ktb,/global/shop/ktb/,10:00 - 20:00,Tax-freeShop,35.862538,139.970609
Kanto,Chiba,"KASHIWA Takashimaya Station Mall 3F, 1-1 Suehirocho, Kashiwa-shi, Chiba",Japan,72,Demi-Luxe BEAMS KASHIWA,"{'brand': 'Beams', 'fascia': 'Beams', 'category': 'Retail', 'edit_date': '20250301', 'description_en': 'Demi-Luxe BEAMS which means ""small and light"", introduces quality-conscious work and free-time clothes for independent women who enjoy their own style.', 'lat_lon_source': 'thirdparty'}",04 7148 2032,dlk,/global/shop/dlk/,10:00 - 20:00,Tax-freeShop,35.862500,139.970557
Kanto,Kanagawa,"LUMINE  Yokohama 1F, 2-16-1 Takashima, Nishi-ku, Yokohama-shi Kanagawa",Japan,60,BEAMS YOKOHAMA HIGASHIGUCHI,"{'brand': 'Beams', 'fascia': 'Beams', 'category': 'Retail', 'edit_date': '20250301', 'description_en': 'You will find a wide-range of varying articles from plain-daily-use styles to street styles with the latest trends here.', 'lat_lon_source': 'thirdparty'}",045 444 0710,yeb,/global/shop/yeb/,"Monday - Friday, 10:00 - 21:00 / Saturday, Sunday & Holiday, 10:00 - 20:30","Tax-freeShop, UnionPay",35.46534,139.62289
Kanto,Kanagawa,"MARK IS minatomirai 1F, 3-5-1 MInatomirai, Nishi-ku, Yokohama-shi, Kanagawa",Japan,186,BEAMS MINATOMIRAI,"{'brand': 'Beams', 'fascia': 'Beams', 'category': 'Retail', 'edit_date': '20250301', 'description_en': 'Daily-use casuals and products to fit the business scene, accessories and miscellaneous goods for all ages.', 'lat_lon_source': 'thirdparty'}",045 680 3300,mmb,/global/shop/mmb/,10:00 - 20:00,"Tax-freeShop, UnionPay",35.457393,139.632434
Kanto,Kanagawa,"Luzon Kawasaki Plaza 2F, 72-1 Horikawacho Saiwai-ku Kawasaki-shi Kanagawa",Japan,177,BEAMS KAWASAKI,"{'brand': 'Beams', 'fascia': 'Beams', 'category': 'Retail', 'edit_date': '20250301', 'description_en': 'Daily-use casuals and products to fit the business scene, accessories and miscellaneous goods for all ages.', 'lat_lon_source': 'thirdparty'}",044 520 1780,kwb,/global/shop/kwb/,10:00 - 21:00,"Tax-freeShop, UnionPay",35.532423,139.696286
Kansai,Osaka,"HEP FIVE 1F,5-15 Kakuta-cho, Kita-ku, Osaka-shi, Osaka",Japan,109,BEAMS STREET UMEDA,"{'brand': 'Beams', 'fascia': 'Beams', 'category': 'Retail', 'edit_date': '20250301', 'description_en': 'Daily-use casuals and products to fit the business scene, accessories and miscellaneous goods for all ages.', 'lat_lon_source': 'thirdparty'}",06 6366 3695,sum,/global/shop/sum/,11:00～21:00,"Tax-freeShop, UnionPay, ALIPAY",34.70411,135.50034
Kansai,Osaka,"Namba CITY Main Bldg.B1F, 5-1-60 Namba, Chuo-ku, Osaka-shi, Osaka",Japan,191,BEAMS NAMBA,"{'brand': 'Beams', 'fascia': 'Beams', 'category': 'Retail', 'edit_date': '20250301', 'description_en': 'Daily-use casuals and products to fit the business scene, accessories and miscellaneous goods for all ages.', 'lat_lon_source': 'thirdparty'}",06 6635 2601,nmb,/global/shop/nmb/,11:00 - 21:00,"Tax-freeShop, UnionPay",34.663768,135.501702
Kansai,Osaka,"LaLaport EXPOCITY 1F, 2-1 Senri Bampakukoen, Suita-shi, Osaka",Japan,140,B:MING LIFE STORE by BEAMS LaLaport EXPOCITY,"{'brand': 'Beams', 'fascia': 'Beams', 'category': 'Retail', 'edit_date': '20250301', 'description_en': 'The main product line includes men’s and women’s original casual wear and business formal; additionally, kid’s and baby wear, miscellanea, cosmetics, and beauty supplies form a diverse lineup of goods offering the pleasures of contemporary lifestyles.', 'lat_lon_source': 'thirdparty'}",06 4864 8265,ecl,/global/shop/ecl/,10:00 - 21:00,"Tax-freeShop, UnionPay",34.805403,135.535455
Kansai,Hyogo,"2F HANKYU NISHINOMIYA GARDENS, 14-2 Takamatsucho, Nishinomiya-shi Hyogo",Japan,192,BEAMS NISHINOMIYA,"{'brand': 'Beams', 'fascia': 'Beams', 'category': 'Retail', 'edit_date': '20250301', 'description_en': 'Daily-use casuals and products to fit the business scene, accessories and miscellaneous goods for all ages.', 'lat_lon_source': 'thirdparty'}",0798 69 1022,hnb,/global/shop/hnb/,10:00 - 20:00,"Tax-freeShop, UnionPay",34.744632,135.360618
Kansai,Hyogo,"KCS Naniwamachi 1-3F,59-3 Naniwamachi, Kobe Chuo-ku, Hyogo Hyogo",Japan,207,BEAMS GOLF KOBE,"{'brand': 'Beams', 'fascia': 'Beams', 'category': 'Retail', 'edit_date': '20250301', 'description_en': ""A BEAMS GOLF shop, an original brand that proposes a golf wear style that is both fashionable and functional, and unique to BEAMS. You'll find a full line up of carefully selected imported items, as well as items from collaborations with popular fashion brands."", 'lat_lon_source': 'thirdparty'}",,bgk,/global/shop/bgk/,11:00〜20:00,"Tax-freeShop, UnionPay",34.689176,135.192458
Chugoku / Shikoku / Kyushu / Okinawa,Hiroshima,"THE OUTLETS HIROSHIMA, 4-1-1 Ishiuchihigashi Saeki-ku Hiroshima-shi Hiroshima",Japan,181,BEAMS OUTLET HIRSHIMA,"{'brand': 'Beams', 'fascia': 'Beams', 'category': 'Retail', 'edit_date': '20250301', 'description_en': 'Daily-use casuals and products to fit the business scene, accessories and miscellaneous goods for all ages.', 'lat_lon_source': 'thirdparty'}",082 961 6260,hio,/global/shop/hio/,10:00 - 20:00,"Tax-freeShop, UnionPay",34.409494,132.397072
Chugoku / Shikoku / Kyushu / Okinawa,Shimane,"1346-5 Kitsukiminami, Taisha-cho, Izumo-shi Shimane",Japan,227,BEAMS JAPAN IZUMO,"{'brand': 'Beams', 'fascia': 'Beams', 'category': 'Retail', 'edit_date': '20250301', 'description_en': 'This shop is the hub from which BEAMS ""TEAM JAPAN"", a project to curate content across a broad range of categories based on the keyword of ""Japan"", sets new trends. The shop categories such as ""Food"", ""Brand items"", ""Fashion"", ""Collaborations"", ""Culture"", ""Art"", and ""Crafts"". The shop as a whole acts to transmit these various attractive aspects of Japan both nationwide and around the world.\r\n', 'lat_lon_source': 'thirdparty'}",0853 31 4505,jiz,/global/shop/jiz/,10:00 - 17:00,UnionPay,35.39333,132.68719
Chugoku / Shikoku / Kyushu / Okinawa,Kochi,"ALCO2 1F, 1-11-8 Harimaya-machi, Kochi-shi, Kochi",Japan,106,BEAMS KOCHI,"{'brand': 'Beams', 'fascia': 'Beams', 'category': 'Retail', 'edit_date': '20250301', 'description_en': 'Daily-use casuals and products to fit the business scene, accessories and miscellaneous goods for all ages.', 'lat_lon_source': 'thirdparty'}",088 880 3388,kc,/global/shop/kc/,11:00 - 20:00,,33.560562,133.545016
Chugoku / Shikoku / Kyushu / Okinawa,Fukuoka,"VIORO B1F, 2-10-3 Tenjin, Chuo-ku, Fukuoka-shi, Fukuoka",Japan,194,BEAMS GOLF VIORO,"{'brand': 'Beams', 'fascia': 'Beams', 'category': 'Retail', 'edit_date': '20250301', 'description_en': 'A store specializing in the BEAMS GOLF produce line, our label providing unique, fashionable and functional BEAMS golf styles.', 'lat_lon_source': 'thirdparty'}",092 738 6501,fvg,/global/shop/fvg/,10:00 - 20:00,"Tax-freeShop, UnionPay",33.589715,130.398415
Chugoku / Shikoku / Kyushu / Okinawa,Hiroshima,"Iwasou Sakura-bekkan, 374 Miyajimacho Minamimachi, Hatsukaichi-shi Hiroshima",Japan,219,BEAMS JAPAN MIYAJIMA,"{'brand': 'Beams', 'fascia': 'Beams', 'category': 'Retail', 'edit_date': '20250301', 'description_en': 'This shop is the hub from which BEAMS ""TEAM JAPAN"", a project to curate content across a broad range of categories based on the keyword of ""Japan"", sets new trends. The shop categories such as ""Food"", ""Brand items"", ""Fashion"", ""Collaborations"", ""Culture"", ""Art"", and ""Crafts"". The shop as a whole acts to transmit these various attractive aspects of Japan both nationwide and around the world.', 'lat_lon_source': 'thirdparty'}",0829-44-1560,jmj,/global/shop/jmj/,10:00 - 17:00,,34.29566603729118,132.32127754844103
Kansai,Hyogo,"2F KOBE PORT TOWER, 5-5 Hatobasho, Chuo-ku, Kobe-shi Hyogo",Japan,244,BEAMS JAPAN KOBE,"{'brand': 'Beams', 'fascia': 'Beams', 'category': 'Retail', 'edit_date': '20250301', 'description_en': 'This shop is the hub from which BEAMS ""TEAM JAPAN"", a project to curate content across a broad range of categories based on the keyword of ""Japan"", sets new trends. The shop categories such as ""Food"", ""Brand items"", ""Fashion"", ""Collaborations"", ""Culture"", ""Art"", and ""Crafts"". The shop as a whole acts to transmit these various attractive aspects of Japan both nationwide and around the world.', 'lat_lon_source': 'thirdparty'}",078 977 7637,jkb,/global/shop/jkb/,10:00 - 20:00,,34.682647,135.186699
Kansai,Osaka,"RINKU PREMIUM OUTLETS, 3-28 Rinku Ourai-minami, Izumisano-shi, Osaka",Japan,43,BEAMS OUTLET RINKU,"{'brand': 'Beams', 'fascia': 'Beams', 'category': 'Retail', 'edit_date': '20250301', 'description_en': 'Daily-use casuals and products to fit the business scene, accessories and miscellaneous goods for all ages.', 'lat_lon_source': 'thirdparty'}",072 464 6436,bro,/global/shop/bro/,10:00 - 20:00,"Tax-freeShop, UnionPay, ALIPAY",34.406669,135.294967
Kansai,Osaka,"LaLaport EXPOCITY 2F, 2-1 Senri Bampakukoen, Suita-shi, Osaka",Japan,126,BEAMS LaLaport EXPOCITY,"{'brand': 'Beams', 'fascia': 'Beams', 'category': 'Retail', 'edit_date': '20250301', 'description_en': 'Daily-use casuals and products to fit the business scene, accessories and miscellaneous goods for all ages.', 'lat_lon_source': 'thirdparty'}",06 4864 8350,bec,/global/shop/bec/,"Monday-Friday 10:00 - 20:00 / Saturdays, Sundays & holidays 10:00 - 21:00","Tax-freeShop, UnionPay",34.805403,135.535455
Kansai,Osaka,"ABENO HARUKAS Wing Bldg. 6F, 1-1-43 Abenosuji, Abeno-ku, Osaka-shi, Osaka",Japan,124,BEAMS GOLF KINTETSU ABENO HARUKAS,"{'brand': 'Beams', 'fascia': 'Beams', 'category': 'Retail', 'edit_date': '20250301', 'description_en': 'A store specializing in the BEAMS GOLF produce line, our label providing unique, fashionable and functional BEAMS golf styles.', 'lat_lon_source': 'thirdparty'}",06 4399 9200,akg,/global/shop/akg/,10:00 - 20:00,"Tax-freeShop, UnionPay",34.64585,135.513975
Kansai,Osaka,"Tennoji MIO Plaza Bldg. 2F, 10-48 Hidenincho, Tennoji-ku, Osaka-shi, Osaka",Japan,85,B:MING LIFE STORE by BEAMS Tennoji MIO,"{'brand': 'Beams', 'fascia': 'Beams', 'category': 'Retail', 'edit_date': '20250301', 'description_en': 'The main product line includes men’s and women’s original casual wear and business formal; additionally, kid’s and baby wear, miscellanea, cosmetics, and beauty supplies form a diverse lineup of goods offering the pleasures of contemporary lifestyles.', 'lat_lon_source': 'thirdparty'}",06 6779 1710,tjm,/global/shop/tjm/,10:30 - 20:30,"Tax-freeShop, UnionPay",34.646836,135.513546
Kansai,Osaka,"Tennoji MIO Main Bldg. 1F, 10-39 Hidenin-cho, Tennoji-ku, Osaka-shi, Osaka",Japan,174,BEAMS TENNOJI,"{'brand': 'Beams', 'fascia': 'Beams', 'category': 'Retail', 'edit_date': '20250301', 'description_en': 'Daily-use casuals and products to fit the business scene, accessories and miscellaneous goods for all ages.', 'lat_lon_source': 'thirdparty'}",06 6776 7681,tnj,/global/shop/tnj/,10:30 - 20:30,"Tax-freeShop, UnionPay",34.646711,135.5147165
Kansai,Osaka,"NAMBA parks 2F, 2-10-70 Nambanaka, Naniwa-ku, Osaka-shi, Osaka",Japan,175,BEAMS GOLF NAMBA PARKS,"{'brand': 'Beams', 'fascia': 'Beams', 'category': 'Retail', 'edit_date': '20250301', 'description_en': 'A store specializing in the BEAMS GOLF produce line, our label providing unique, fashionable and functional BEAMS golf styles.', 'lat_lon_source': 'thirdparty'}",06 6635 2093,npg,/global/shop/npg/,11:00 - 21:00,"Tax-freeShop, UnionPay",34.660774,135.502132
Kansai,Osaka,"GRAND FRONT OSAKA South Bldg. 1F, 4-20 Ofuka-cho, Kita-ku, Osaka-shi, Osaka",Japan,114,BEAMS GOLF GRAND FRONT OSAKA,"{'brand': 'Beams', 'fascia': 'Beams', 'category': 'Retail', 'edit_date': '20250301', 'description_en': 'A store specializing in the BEAMS GOLF produce line, our label providing unique, fashionable and functional BEAMS golf styles.', 'lat_lon_source': 'thirdparty'}",06 6359 1671,gog,/global/shop/gog/,11:00 - 21:00,"Tax-freeShop, UnionPay",34.70433,135.49491
Kansai,Kyoto,"3F, Takashimaya Kyoto S.C 35 Otabicho, Shimogyo-ku, Kyoto-shi Kyoto",Japan,242,BEAMS GOLF TAKASHIMAYA KYOTO S.C,"{'brand': 'Beams', 'fascia': 'Beams', 'category': 'Retail', 'edit_date': '20250301', 'description_en': 'A store specializing in the BEAMS GOLF produce line, our label providing unique, fashionable and functional BEAMS golf styles.\r\n', 'lat_lon_source': 'thirdparty'}",075 606 5624,ktg,/global/shop/ktg/,10:00 - 20:00,,35.00353,135.76825
Kansai,Shiga,"MITSUI OUTLET PARK SHIGA RYUO, 1178-694 Oaza Kuzushi Aza Sunayama, Ryuocho, Gamou-gun, Shiga",Japan,50,BEAMS OUTLET SHIGA RYUO,"{'brand': 'Beams', 'fascia': 'Beams', 'category': 'Retail', 'edit_date': '20250301', 'description_en': 'Daily-use casuals and products to fit the business scene, accessories and miscellaneous goods for all ages.', 'lat_lon_source': 'thirdparty'}",0748 58 8210,sro,/global/shop/sro/,10:00 - 20:00,"Tax-freeShop, UnionPay",35.059251,136.100309
Hokuriku / Shinetsu / Tokai,Gifu,"TOKI PREMIUM OUTLETS, 1-2 Tokigaoka, Toki-shi, Gifu",Japan,59,BEAMS OUTLET TOKI,"{'brand': 'Beams', 'fascia': 'Beams', 'category': 'Retail', 'edit_date': '20250301', 'description_en': 'Daily-use casuals and products to fit the business scene, accessories and miscellaneous goods for all ages.', 'lat_lon_source': 'thirdparty'}",0572 53 2126,tko,/global/shop/tko/,10:00 - 20:00,"Tax-freeShop, UnionPay",35.341105,137.166088
Kanto,Kanagawa,"MARK IS minatomirai 2F, 3-5-1 MInatomirai, Nishi-ku, Yokohama-shi, Kanagawa",Japan,96,B:MING LIFE STORE by BEAMS MARK IS minatomirai,"{'brand': 'Beams', 'fascia': 'Beams', 'category': 'Retail', 'edit_date': '20250301', 'description_en': 'The main product line includes men’s and women’s original casual wear and business formal; additionally, kid’s and baby wear, miscellanea, cosmetics, and beauty supplies form a diverse lineup of goods offering the pleasures of contemporary lifestyles.', 'lat_lon_source': 'thirdparty'}",045 228 3020,mmm,/global/shop/mmm/,10:00 - 20:00,"Tax-freeShop, UnionPay",35.457442,139.632245
Kanto,Kanagawa,"GRANDTREE MUSASHIKOSUGI 1F, 3-1135-1 Shinmaruko-Higashi, Nakahara-ku, Kawasaki-shi, Kanagawa",Japan,56,BEAMS MUSASHIKOSUGI,"{'brand': 'Beams', 'fascia': 'Beams', 'category': 'Retail', 'edit_date': '20250301', 'description_en': 'Daily-use casuals and products to fit the business scene, accessories and miscellaneous goods for all ages.', 'lat_lon_source': 'thirdparty'}",044 431 8400,gmk,/global/shop/gmk/,10:00 - 21:00,"Tax-freeShop, UnionPay",35.574085,139.660157
Kanto,Kanagawa,"YOKOHAMA MORES 1F-2F, 1-3-1 MinamiSaiwai, Nishi-ku, Yokohama-shi, Kanagawa",Japan,64,BEAMS LIFE YOKOHAMA,"{'brand': 'Beams', 'fascia': 'Beams', 'category': 'Retail', 'edit_date': '20250301', 'description_en': 'Art, fashion, culture.\r\nBEAMS LIFE is an experiential select shop that stimulates the five senses by fusing every genre.', 'lat_lon_source': 'thirdparty'}",045 548 5305,lfy,/global/shop/lfy/,10:00 - 21:00,"Tax-freeShop, UnionPay",35.46727,139.62204
Kanto,Chiba,"SHISUI PREMIUM OUTLET, 2-4-1 Iizumi, Shisuimachi, Inba-gun, Chiba",Japan,136,BEAMS OUTLET SHISUI,"{'brand': 'Beams', 'fascia': 'Beams', 'category': 'Retail', 'edit_date': '20250301', 'description_en': 'Daily-use casuals and products to fit the business scene, accessories and miscellaneous goods for all ages.', 'lat_lon_source': 'thirdparty'}",043 496 5782,sso,/global/shop/sso/,10:00 - 20:00,"Tax-freeShop, UnionPay, ALIPAY",35.714142,140.294153
Kanto,Chiba,"LaLaport TOKYO-BAY South Wing 2F, 2-1-1 Hamamachi, Funabashi-shi, Chiba",Japan,74,B:MING LIFE STORE BY BEAMS LaLaport TOKYO-BAY,"{'brand': 'Beams', 'fascia': 'Beams', 'category': 'Retail', 'edit_date': '20250301', 'description_en': 'The main product line includes men’s and women’s original casual wear and business formal; additionally, kid’s and baby wear, miscellanea, cosmetics, and beauty supplies form a diverse lineup of goods offering the pleasures of contemporary lifestyles.', 'lat_lon_source': 'thirdparty'}",047 436 6500,fbl,/global/shop/fbl/,"Monday - Friday, 10:00 - 20:00/ Saturday, Sunday & Holiday,10:00 - 21:00",Tax-freeShop,35.685743,139.990775
Kanto,Chiba,"PERIE CHIBA 3F, 1-1-1 ShinChiba, Chuo-ku, Chiba-shi, Chiba",Japan,172,BEAMS CHIBA,"{'brand': 'Beams', 'fascia': 'Beams', 'category': 'Retail', 'edit_date': '20250301', 'description_en': 'Daily-use casuals and products to fit the business scene, accessories and miscellaneous goods for all ages.\r\n', 'lat_lon_source': 'thirdparty'}",043 202 1010,cb,/global/shop/cb/,"Monday, 10:30 - 21:00 / Tuesday - Saturday, 10:00 - 21:00 / Sunday, holiday, 10:00 - 20:30 / Only Feb; Monday, 10:30 - 20:30 / Tuesday - Sunday, holiday, 10:00 - 20:30","Tax-freeShop, UnionPay",35.613218,140.114032
Kanto,Saitama,"Lake Town outlet, 4-1-1 lake town, Koshigaya-shi, Saitama",Japan,148,BEAMS OUTLET KOSHIGAYA,"{'brand': 'Beams', 'fascia': 'Beams', 'category': 'Retail', 'edit_date': '20250301', 'description_en': 'Daily-use casuals and products to fit the business scene, accessories and miscellaneous goods for all ages.', 'lat_lon_source': 'thirdparty'}",048 961 1260,lto,/global/shop/lto/,10:00 - 20:00,"Tax-freeShop, UnionPay",35.8799694,139.8247713
Kanto,Tochigi,"NASU GARDEN OUTLET, 184-7 Shionosaki, Nasushiobara-shi, Tochigi",Japan,153,BEAMS OUTLET NASU,"{'brand': 'Beams', 'fascia': 'Beams', 'category': 'Retail', 'edit_date': '20250301', 'description_en': 'Daily-use casuals and products to fit the business scene, accessories and miscellaneous goods for all ages.', 'lat_lon_source': 'thirdparty'}",0287 67 2166,bno,/global/shop/bno/,"October - June, 10:00-19:00 / July - September, 10:00-21:00","Tax-freeShop, UnionPay",36.965723,139.992549
Tokyo,Futakotamagawa,"Tamagawa Takashimaya Shopping Center South Bldg. 5F, 3-17-1, Tamagawa, Setagaya-ku, Tokyo",Japan,47,BEAMS GOLF Tamagawa Takashimaya,"{'brand': 'Beams', 'fascia': 'Beams', 'category': 'Retail', 'edit_date': '20250301', 'description_en': 'A store specializing in the BEAMS GOLF produce line, our label providing unique, fashionable and functional BEAMS golf styles.', 'lat_lon_source': 'thirdparty'}",03 5491 5741,ttg,/global/shop/ttg/,10:00 - 20:00,"Tax-freeShop, UnionPay",35.613311,139.62648
