area,sub_area,shop_id,shop_name_en,url_param,link_url,address_en,description_en,tel,image_url,hours,services,latitude,longitude
Tokyo,Harajuku,1,BEAMS HARAJUKU,h,/global/shop/h/,"1F/2F, 3-24-7 Jingumae, Shibuya-ku, Tokyo","BEAMS HARAJUKU, the original BEAMS shop, has been the flagship shop for men's fashion and lifestyles since 1976.",03 3470 3947,//cdn-cms.beams.co.jp/cdn/cms/shop/1/list_ObBCuI.jpg,"12:00 - 20:00 (Mon〜Fri) / 11:00 - 20:00(Sat, Sun, Holiday)","Tax-freeShop, UnionPay, ALIPAY",35.67123,139.707668
Rest of Asia,Bangkok,159,BEAMS BANGKOK PARAGON,bangkok_paragon,/global/shop/bangkok_paragon/,"2F Paragon Department Store, 991/1 Rama I Rd., Pathumwan, Pathumwan Bangkok 10330, Thailand","BEAMS BANGKOK PARAGON is a concept shop that embodies the BEAMS aesthetic through a selection of mostly original men's and women's casual wear, accessories and other merchandise.",+662 610 7752,//cdn-cms.beams.co.jp/cdn/cms/shop/159/list_3QMFXg.jpg,10:00 - 22:00,,13.747908,100.534962
Rest of Asia,Bangkok,157,BEAMS BANGKOK,bangkok,/global/shop/bangkok/,"MA-01 MF EM Galleria Floor, The Emsphere Shopping Complex, Bangkok, Thailand","With a focus on 6 levels of original products characteristic of BEAMS, we have selected a range of men's and women's casual wear and accessories. BEAMS will continue to spread its belief in enjoying fashion and having a fulfilling life in the new lifestyles of the region.",+662 129 6053,//cdn-cms.beams.co.jp/cdn/cms/shop/157/list_c8I9FF.jpg,10:00 - 22:00,,13.73234,100.56680
Rest of Asia,Taiwan,241,BEAMS SHIN KONG MITSUKOSHI DIAMOND TOWERS,diamond_towers,/global/shop/diamond_towers/,"3F, No. 268, Sec. 3, Zhongxiao E. Rd., Da’an Dist., Taipei City","BEAMS introduce a formal wear concept store in Taiwan for the first time, offering a range of contemporary and elegant sub-brands, including ＜BEAMS F＞, ＜Brilla per il gusto＞ ＜International Gallery BEAMS＞＜Demi-Luxe BEAMS＞ and ＜AK+1＞These sub-brands provide a fresh and diverse selection of men's and women's clothing styles.",02 2778 2232,//cdn-cms.beams.co.jp/cdn/cms/shop/241/list_UCyAN7.jpg,11:00 - 21:30（⽇ - 木）／ 11:00 - 22:00（金 - ⼟・祝祭⽇前⽇）,,25.04148853041179,121.54212837089123
Rest of Asia,Taiwan,237,BEAMS LaLaport Taichung,lalaport_taichung,/global/shop/lalaport_taichung/,"Taichung City, East District, Jinde Rd, 600號2樓","The design concept is inspired by European marketplaces. The surrounding red brick represents pedestrian walkways, and the diverse range of products are showcased in the central cement area which radiates outward from the the Lush tree at the heart of it all. From Childrenswear, outdoor gears to lifestyle essentials and pet supplies, our store offers a wide variety of products to cater to different lifestyles.",+886 4 2215 3029,//cdn-cms.beams.co.jp/cdn/cms/shop/237/list_6yBs1O.jpg,11:00 - 22:00,,24.135713,120.692561
Rest of Asia,Taiwan,236,BEAMS Eslite Spectrum Nanxi,eslite_spectrum_nanxi,/global/shop/eslite_spectrum_nanxi/,"Taipei City, Zhongshan District, Nanjing W Rd, 14號, Eslite Spectrum Nanxi, 1樓","Providing original products for both Menswear and Womenswear, as well as a selections of fashion, accessories, and lifestyle goods sourced from Japan and overseas. Embodying the fashion trends from Tokyo and ""HAPPY"" lifestyle proposed by BEAMS.",+886 2 2723 2818,//cdn-cms.beams.co.jp/cdn/cms/shop/236/list_zlqv6X.jpg,11:00 - 22:00,,25.052137,121.520671
Rest of Asia,Taiwan,221,BEAMS OUTLET TAICHUNG,outlet_taichung,/global/shop/outlet_taichung/,"No. 168, Section 10, Taiwan Blvd, Wuqi District, Taichung City","Daily-use casuals and products to fit the business scene, accessories and miscellaneous goods for all ages.",+886 4 2656 4138,//cdn-cms.beams.co.jp/cdn/cms/shop/221/list_zFtUhp.jpg,"11:00 - 21:30（Sun - Fri）／10:30 - 21:30（Sat, Sun, Public Holidays）",,24.2593129,120.51867559
Rest of Asia,Taiwan,220,BEAMS TAICHUNG MITSUKOSHI,taichung,/global/shop/taichung/,"No. 301, Section 3, Taiwan Blvd, Xitun District, Taichung City","A concept shop that embodies the BEAMS aesthetic through a selection of mostly original men's and women's casual wear, children's apparel, accessories, art and other merchandise.",+886 4 2251 6010,//cdn-cms.beams.co.jp/cdn/cms/shop/220/list_Ekvetd.jpg,"11:00 - 22:00（Sun - Fri）／ 10:30 - 22:00（Sat, Sun, Public Holidays）",,24.16526,120.64371
Rest of Asia,Taiwan,187,BEAMS Breeze NAN SHAN,breeze_man_shan_atre,/global/shop/breeze_man_shan_atre/,"3F, No. 17, Songzhi Rd., Xinyi Dist., Taipei City 110, Taiwan","On the 3rd floor of ""Breeze NanShan Atre"" inside the ""Breeze NanShan"" complex. The line-up includes casual original items for men and women, clothing and accessories selected from inside and outside of Japan, and household goods. We provide fashion from Tokyo and a happy lifestyle as imagined by BEAMS.",+886 2 2723 6584,//cdn-cms.beams.co.jp/cdn/cms/shop/187/list_4oqcmf.jpg,"11:00 - 22:00 (Thu - Sat,Before holidays), 11:00 - 21:30（Sun - Wed）",,25.034484,121.566862
Rest of Asia,Taiwan,155,BEAMS OUTLET LINKOU,outlet_linkou,/global/shop/outlet_linkou/,"No. 356, Section 1, Wenhua 3rd Rd, Linkou District, New Taipei City, Taiwan","We are located in the row of Japanese specialty boutiques on the first floor of ""Mitsui Outlet Park Taiwan Linkou,"" the biggest outlet mall in northern Taiwan. In addition to our lineup of  casual men's and women's clothing, we handle accessories, kids' items, business wear, and many other items.",+886 2 2600 3783,//cdn-cms.beams.co.jp/cdn/cms/shop/155/list_NpnVkH.jpg,11:00 - 21:30（Sunday-Thursday）／11:00 - 22:00（Friday～Saturday）,,25.070083,121.365562
Rest of Asia,Taiwan,152,BEAMS TAIPEI,taipei,/global/shop/taipei/,"No.340, Fujin Street, Taipei City, Taiwan","BEAMS TAIPEI is a concept shop that embodies the BEAMS aesthetic through a selection of mostly original men's and women's casual wear, children's apparel, accessories, art and other merchandise.",+886 2 2767 2716,//cdn-cms.beams.co.jp/cdn/cms/shop/152/list_IdZ4Z5.jpg,"12:00 - 20:30 (Mon–Fri), 11:30 - 20:30 (Sat, Sun, Public Holidays)",,25.060390,121.557106
Rest of Asia,Hong Kong,182,BEAMS HONG KONG HYSAN PLACE,hongkong_hysan_place,/global/shop/hongkong_hysan_place/,"Shop 626-627 , 6F , Hysan Place , Causeway Bay , Hong Kong, China","On the sixth-floor of Hysan Place shopping centre in Causeway Bay, Hong Kong.You can feel 'Tokyo casual style' through original and selected items from men's casual, women's casual and accessories.",+852-2759-3282,//cdn-cms.beams.co.jp/cdn/cms/shop/182/list_S3mbD0.jpg,"Sunday - Thursday, 10:00 - 22:30 / Friday, Saturday & The day before Holidays, 10:00 - 23:00",,22.2797977,114.183731
Rest of Asia,Hong Kong,146,BEAMS HONG KONG THE ONE,hongkong_theone,/global/shop/hongkong_theone/,"Shop UG207, The ONE, Tsim Sha Tsui, Kowloon, Hong Kong, China","BEAMS HONG KONG THE ONE is located within a mall ""THE ONE"" in Kowloon that has a direct access to Tsim Sha Tsui train station.",+852 2677 0230,//cdn-cms.beams.co.jp/cdn/cms/shop/146/list_S6dON7.jpg,11:00 - 22:30,,22.299558,114.172126
Rest of Asia,Hong Kong,143,BEAMS HONG KONG FESTIVAL WALK,hongkong_festivalwalk,/global/shop/hongkong_festivalwalk/,"LG1-31, Festival Walk, Kowloon Tong, Kowloon, Hong Kong, China",B1 floor of the 'Festival Walk' shopping mall in the Kowloon Tong area. Offering women's Tokyo casual style where you can freely enjoy fashion based around Ray Beams original products. ,＋852 2265 7050,//cdn-cms.beams.co.jp/cdn/cms/shop/143/list_q4uueh.jpg,11:00 - 22:00,,22.337233,114.174423
Rest of Asia,Shenzhen,250,BEAMS SHENZHEN The MIX C,shenzhen,/global/shop/shenzhen/,"1881 Baoan South Road, Luohu District, Shenzhen, Guangdong, China",　　,+86 10 6416 2087,//cdn-cms.beams.co.jp/cdn/cms/shop/250/list_pChKNz.jpg,10:00 - 22:00,,22.53982,114.11132
Rest of Asia,Wuhan,253,BEAMS WUHAN K11,wuhan,/global/shop/wuhan/,"No.628 Jiefang Avenue, Qiaokou District, Wuhan City, China",　　,+86 571 8656 0160,//cdn-cms.beams.co.jp/cdn/cms/shop/253/list_gwZERe.jpg,10:00 - 22:00,,30.578757,114.264398
Rest of Asia,Chengdu,252,BEAMS CHENGDU THE MIX C,chengdu,/global/shop/chengdu/,"No. 98, Shuangcheng 2nd Road, Chenghua District, Chengdu (Block 3, 4), Chengdu City D131", 　　   ,+86 28 8413 1989,//cdn-cms.beams.co.jp/cdn/cms/shop/252/list_d45v8A.jpg,10:00 - 22:00（Mon〜Thu・Sun）／10:00 - 22:30（Fri・Sat）,,30.65017,104.11503
Rest of Asia,Hangzhou,254,BEAMS HANGZHOU KERRY CENTRE,hangzhou,/global/shop/hangzhou/,"353 Yan'an Rd, Xiacheng District, Hangzhou, Zhejiang, China",　　  ,+86 571 8656 0160,//cdn-cms.beams.co.jp/cdn/cms/shop/254/list_7Utl0q.jpg,10:00 - 22:00,,30.260451,120.163116
Rest of Asia,Shanghai,251,BEAMS SHANGHAI XINTIANDI PLAZA,shanghai,/global/shop/shanghai/,"1-01&1-02, Level1, Xintiandi Plaza 333 Huaihai Middle Road, Huangpu, Shanghai , China",　　,+86 21 6373 0035,//cdn-cms.beams.co.jp/cdn/cms/shop/251/list_OOrKln.jpg,10:00 - 22:00,,31.21899,121.474850
Rest of Asia,Beijing,249,BEAMS BEIJING TAIKOO LI SANLITUN ,beijing,/global/shop/beijing/,"Taikoo Li Sanlitun South S1-15&23 No.19 Sanlitun Road Chaoyang District Beijing, China",　　,+86 10 6416 2087,//cdn-cms.beams.co.jp/cdn/cms/shop/249/list_wZiF53.jpg,10:00 - 22:00,,39.935363,116.455499
Chugoku / Shikoku / Kyushu / Okinawa,Okinawa,25,BEAMS OUTLET OKINAWA,oko,/global/shop/oko/,"OKINAWA OUTLET MALL ASHIBINAA , 1-188 Toyosaki, Tomigusuku-shi, Okinawa","Daily-use casuals and products to fit the business scene, accessories and miscellaneous goods for all ages.",098 891 7733,//cdn-cms.beams.co.jp/cdn/cms/shop/25/list_ApFr6K.jpg,10:00 - 20:00,"Tax-freeShop, UnionPay, ALIPAY",26.15939592,127.6567769
Chugoku / Shikoku / Kyushu / Okinawa,Kagoshima,118,BEAMS KAGOSHIMA,kgb,/global/shop/kgb/,"AMU PLAZA Kagoshima 1F, 1-1 Cyuo-cho, Kagoshima-shi, Kagoshima","Daily-use casuals and products to fit the business scene, accessories and miscellaneous goods for all ages.",099 812 6266 （Men's）/ 099 812 6267 （Women's）,//cdn-cms.beams.co.jp/cdn/cms/shop/118/list_epgpOL.jpg,10:00 - 20:00,"Tax-freeShop, UnionPay",31.584602,130.542606
Chugoku / Shikoku / Kyushu / Okinawa,Miyazaki,214,BEAMS MIYAZAKI,myz,/global/shop/myz/,"Amyupurazamiyazaki 1F 2-2-22 Oimatsu, Miyazaki-shi Miyazaki","Daily-use casuals and products to fit the business scene, accessories and miscellaneous goods for all ages.",0985-41-6761,//cdn-cms.beams.co.jp/cdn/cms/shop/214/list_3ZJfjR.jpg,10:00 - 20:00,,31.914888,131.431258
Chugoku / Shikoku / Kyushu / Okinawa,Oita,116,BEAMS OITA,oia,/global/shop/oia/,"AMU PLAZA Oita 1F, 1-14 Kanamemachi, Oita-shi, Oita","Daily-use casuals and products to fit the business scene, accessories and miscellaneous goods for all ages.",097 513 2296,//cdn-cms.beams.co.jp/cdn/cms/shop/116/list_89i6uV.jpg,"11:00 - 20:00(Mon-Fri) / 10:00 - 20:00(Sat, Sun, Holiday)","Tax-freeShop, UnionPay",33.233253,131.606100
Chugoku / Shikoku / Kyushu / Okinawa,Kumamoto,115,BEAMS KUMAMOTO,km,/global/shop/km/,"AMU PLAZA KUMAMOTO 1F, 3-15-26 Kasuga, Nishi-ku, Kumamoto-shi Kumamoto","Daily-use casuals and products to fit the business scene, accessories and miscellaneous goods for all ages.",096 359 7771 （Women's）／ 096 359 1280 （Men's）,//cdn-cms.beams.co.jp/cdn/cms/shop/115/list_mufp4b.jpg,10:00 - 20:00,"Tax-freeShop, UnionPay",32.7890230,130.68875
Chugoku / Shikoku / Kyushu / Okinawa,Nagasaki,128,B:MING LIFE STORE by BEAMS AMU PLAZA NAGASAKI,nsa,/global/shop/nsa/,"AMU PLAZA NAGASAKI 2F, 1-1 Onoemachi, Nagasaki-shi, Nagasaki","The main product line includes men’s and women’s original casual wear and business formal; additionally, kid’s and baby wear, miscellanea, cosmetics, and beauty supplies form a diverse lineup of goods offering the pleasures of contemporary lifestyles.",095 833 2311,//cdn-cms.beams.co.jp/cdn/cms/shop/128/list_PYQUDp.jpg,10:00 - 20:00,Tax-freeShop,32.751674,129.87089
Chugoku / Shikoku / Kyushu / Okinawa,Nagasaki,113,BEAMS NAGASAKI,ns,/global/shop/ns/,"1F AMU PLAZA Nagasaki New Building, 1-1  Onoue-machi, Nagasaki-shi Nagasaki","Daily-use casuals and products to fit the business scene, accessories and miscellaneous goods for all ages.",095-822-6006,//cdn-cms.beams.co.jp/cdn/cms/shop/113/list_3v2FrM.jpg,10:00 - 20:00,,32.75147,129.87035
Chugoku / Shikoku / Kyushu / Okinawa,Saga,23,BEAMS OUTLET TOSU,bto,/global/shop/bto/,"TOSU PREMIUM OUTLETS, 8-1 Yayoigaoka, Tosu-shi, Saga","Daily-use casuals and products to fit the business scene, accessories and miscellaneous goods for all ages.",0942 87 7327,//cdn-cms.beams.co.jp/cdn/cms/shop/23/list_UiQWLP.jpg,10:00 - 20:00,"Tax-freeShop, UnionPay, ALIPAY",33.406078,130.512475
Chugoku / Shikoku / Kyushu / Okinawa,Fukuoka,225,BEAMS OUTLET KITAKYUSHU,kko,/global/shop/kko/,"THE OUTLETS KITAKYUSHU, 4-1-1 Higashida, Kitakyushu Yahatahigashi-ku, Fukuoka-shi Fukuoka","Daily-use casuals and products to fit the business scene, accessories and miscellaneous goods for all ages.",093 616 7275,//cdn-cms.beams.co.jp/cdn/cms/shop/225/list_lbjoAi.jpg,10:00 - 20:00,Tax-freeShop,33.873961,130.810891
Chugoku / Shikoku / Kyushu / Okinawa,Fukuoka,194,BEAMS GOLF VIORO,fvg,/global/shop/fvg/,"VIORO B1F, 2-10-3 Tenjin, Chuo-ku, Fukuoka-shi, Fukuoka","A store specializing in the BEAMS GOLF produce line, our label providing unique, fashionable and functional BEAMS golf styles.",092 738 6501,//cdn-cms.beams.co.jp/cdn/cms/shop/194/list_sl55aY.jpg,10:00 - 20:00,"Tax-freeShop, UnionPay",33.589715,130.398415
Chugoku / Shikoku / Kyushu / Okinawa,Fukuoka,108,BEAMS FUKUOKA,fkp,/global/shop/fkp/,"Fukuoka PARCO New Bldg. 1-2F, 2-11-1 Tenjin, Chuo-ku, Fukuoka-shi, Fukuoka","Daily-use casuals and products to fit the business scene, accessories and miscellaneous goods for all ages.",092 737 2401,//cdn-cms.beams.co.jp/cdn/cms/shop/108/list_zBxswB.jpg,10:00 - 20:30,"Tax-freeShop, UnionPay",33.590877,130.398122
Chugoku / Shikoku / Kyushu / Okinawa,Ehime,104,BEAMS MATSUYAMA,my,/global/shop/my/,"AVA 2F, 3-2-1 Ichiban-cho, Matsuyama-shi, Ehime","Daily-use casuals and products to fit the business scene, accessories and miscellaneous goods for all ages.",089 941 0400,//cdn-cms.beams.co.jp/cdn/cms/shop/104/list_UuiHv2.jpg,11:00 - 20:00(Mon- Sat)/11:00 - 19:00(Sun),"Tax-freeShop, UnionPay",33.840793,132.768694
Chugoku / Shikoku / Kyushu / Okinawa,Kagawa,103,BEAMS TAKAMATSU,tm,/global/shop/tm/,"Kotoden Kawaramachi Building 1F/2F, 1-3-1 Tokiwa-cho, Takamatsu-shi, Kagawa","Daily-use casuals and products to fit the business scene, accessories and miscellaneous goods for all ages.","087 837 7919 （Men）／
087 834 5331（Women）",//cdn-cms.beams.co.jp/cdn/cms/shop/103/list_d4JTEt.jpg,10:00 - 20:00,Tax-freeShop,34.338821,134.052439
Chugoku / Shikoku / Kyushu / Okinawa,Shimane,227,BEAMS JAPAN IZUMO,jiz,/global/shop/jiz/,"1346-5 Kitsukiminami, Taisha-cho, Izumo-shi Shimane","This shop is the hub from which BEAMS ""TEAM JAPAN"", a project to curate content across a broad range of categories based on the keyword of ""Japan"", sets new trends. The shop categories such as ""Food"", ""Brand items"", ""Fashion"", ""Collaborations"", ""Culture"", ""Art"", and ""Crafts"". The shop as a whole acts to transmit these various attractive aspects of Japan both nationwide and around the world.
",0853 31 4505,//cdn-cms.beams.co.jp/cdn/cms/shop/227/list_qinSeB.jpg,10:00 - 17:00,UnionPay,35.39333,132.68719
Chugoku / Shikoku / Kyushu / Okinawa,Hiroshima,102,BEAMS HIROSHIMA,hi,/global/shop/hi/,"1F/2F, 3-10 Hon-dori, Naka-ku, Hiroshima-shi Hiroshima","Daily-use casuals and products to fit the business scene, accessories and miscellaneous goods for all ages.","082 544 2961 (Men's)
082 544 2962 (Women's)",//cdn-cms.beams.co.jp/cdn/cms/shop/102/list_u7ASfE.jpg,11:00 - 20:00,"Tax-freeShop, UnionPay",34.39306,132.46016
Chugoku / Shikoku / Kyushu / Okinawa,Okayama,75,BEAMS OKAYAMA,okb,/global/shop/okb/,"CRED Okayama 1F, 1-8-45 Nakasange, Kita-ku, Okayama-shi, Okayama","Daily-use casuals and products to fit the business scene, accessories and miscellaneous goods for all ages.",086 235 1722,//cdn-cms.beams.co.jp/cdn/cms/shop/75/list_i5Csvf.jpg,10:00 - 19:30,Tax-freeShop,34.662759,133.926804
Kansai,Hyogo,244,BEAMS JAPAN KOBE,jkb,/global/shop/jkb/,"2F KOBE PORT TOWER, 5-5 Hatobasho, Chuo-ku, Kobe-shi Hyogo","This shop is the hub from which BEAMS ""TEAM JAPAN"", a project to curate content across a broad range of categories based on the keyword of ""Japan"", sets new trends. The shop categories such as ""Food"", ""Brand items"", ""Fashion"", ""Collaborations"", ""Culture"", ""Art"", and ""Crafts"". The shop as a whole acts to transmit these various attractive aspects of Japan both nationwide and around the world.",078 977 7637,//cdn-cms.beams.co.jp/cdn/cms/shop/244/list_khr67v.jpg,10:00 - 20:00,,34.682647,135.186699
Kansai,Hyogo,234,BEAMS HIMEJI,hmj,/global/shop/hmj/,"SANYO DEPARTMENT STORE South Building 1F, 1 Minamimachi, Himeji-shi Hyogo","Daily-use casuals and products to fit the business scene, accessories and miscellaneous goods for all ages.
",079 280 7260,//cdn-cms.beams.co.jp/cdn/cms/shop/234/list_XYyO7K.jpg,10:00 - 19:30,,34.828250,134.689087
Kansai,Hyogo,207,BEAMS GOLF KOBE,bgk,/global/shop/bgk/,"KCS Naniwamachi 1-3F,59-3 Naniwamachi, Kobe Chuo-ku, Hyogo Hyogo","A BEAMS GOLF shop, an original brand that proposes a golf wear style that is both fashionable and functional, and unique to BEAMS. You'll find a full line up of carefully selected imported items, as well as items from collaborations with popular fashion brands.",,//cdn-cms.beams.co.jp/cdn/cms/shop/207/list_0pCkse.jpg,11:00〜20:00,"Tax-freeShop, UnionPay",34.689176,135.192458
Kansai,Osaka,43,BEAMS OUTLET RINKU,bro,/global/shop/bro/,"RINKU PREMIUM OUTLETS, 3-28 Rinku Ourai-minami, Izumisano-shi, Osaka","Daily-use casuals and products to fit the business scene, accessories and miscellaneous goods for all ages.",072 464 6436,//cdn-cms.beams.co.jp/cdn/cms/shop/43/list_og0U7j.jpg,10:00 - 20:00,"Tax-freeShop, UnionPay, ALIPAY",34.406669,135.294967
Kansai,Osaka,40,BEAMS OUTLET OSAKA KADOMA,oto,/global/shop/oto/,"MITSUI OUTLET PARK OSAKA KADOMA 2F, 204-3 Matsuoi cho, Kadoma shi Osaka","Daily-use casuals and products to fit the business scene, accessories and miscellaneous goods for all ages.",06 6926 9011,//cdn-cms.beams.co.jp/cdn/cms/shop/40/list_ufQx9u.jpg,10:00 - 21:00,"Tax-freeShop, UnionPay",34.732604,135.582924
Kansai,Osaka,135,B:MING LIFE STORE by BEAMS KUZUHA MALL,kkz,/global/shop/kkz/,"KUZUHA MALL 1F, 15-1 Kuzuhahanazonocho, Hirakata-shi, Osaka","The main product line includes men’s and women’s original casual wear and business formal; additionally, kid’s and baby wear, miscellanea, cosmetics, and beauty supplies form a diverse lineup of goods offering the pleasures of contemporary lifestyles.",072 836 3270,//cdn-cms.beams.co.jp/cdn/cms/shop/135/list_CPbNcJ.jpg,"10:00 - 20:00（Mon- Fri）／10:00 - 21:00（Sat, Sun, Holiday）",Tax-freeShop,34.861847,135.676666
Kansai,Osaka,140,B:MING LIFE STORE by BEAMS LaLaport EXPOCITY,ecl,/global/shop/ecl/,"LaLaport EXPOCITY 1F, 2-1 Senri Bampakukoen, Suita-shi, Osaka","The main product line includes men’s and women’s original casual wear and business formal; additionally, kid’s and baby wear, miscellanea, cosmetics, and beauty supplies form a diverse lineup of goods offering the pleasures of contemporary lifestyles.",06 4864 8265,//cdn-cms.beams.co.jp/cdn/cms/shop/140/list_FwW8l2.jpg,10:00 - 21:00,"Tax-freeShop, UnionPay",34.805403,135.535455
Kansai,Osaka,126,BEAMS LaLaport EXPOCITY,bec,/global/shop/bec/,"LaLaport EXPOCITY 2F, 2-1 Senri Bampakukoen, Suita-shi, Osaka","Daily-use casuals and products to fit the business scene, accessories and miscellaneous goods for all ages.",06 4864 8350,//cdn-cms.beams.co.jp/cdn/cms/shop/126/list_fWRlgw.jpg,"Monday-Friday 10:00 - 20:00 / Saturdays, Sundays & holidays 10:00 - 21:00","Tax-freeShop, UnionPay",34.805403,135.535455
Kansai,Osaka,85,B:MING LIFE STORE by BEAMS Tennoji MIO,tjm,/global/shop/tjm/,"Tennoji MIO Plaza Bldg. 2F, 10-48 Hidenincho, Tennoji-ku, Osaka-shi, Osaka","The main product line includes men’s and women’s original casual wear and business formal; additionally, kid’s and baby wear, miscellanea, cosmetics, and beauty supplies form a diverse lineup of goods offering the pleasures of contemporary lifestyles.",06 6779 1710,//cdn-cms.beams.co.jp/cdn/cms/shop/85/list_8BzWoe.jpg,10:30 - 20:30,"Tax-freeShop, UnionPay",34.646836,135.513546
Kansai,Osaka,175,BEAMS GOLF NAMBA PARKS,npg,/global/shop/npg/,"NAMBA parks 2F, 2-10-70 Nambanaka, Naniwa-ku, Osaka-shi, Osaka","A store specializing in the BEAMS GOLF produce line, our label providing unique, fashionable and functional BEAMS golf styles.",06 6635 2093,//cdn-cms.beams.co.jp/cdn/cms/shop/175/list_wbOX9z.jpg,11:00 - 21:00,"Tax-freeShop, UnionPay",34.660774,135.502132
Kansai,Osaka,191,BEAMS NAMBA,nmb,/global/shop/nmb/,"Namba CITY Main Bldg.B1F, 5-1-60 Namba, Chuo-ku, Osaka-shi, Osaka","Daily-use casuals and products to fit the business scene, accessories and miscellaneous goods for all ages.",06 6635 2601,//cdn-cms.beams.co.jp/cdn/cms/shop/191/list_av47sx.jpg,11:00 - 21:00,"Tax-freeShop, UnionPay",34.663768,135.501702
Kansai,Kyoto,246,BEAMS JAPAN MAIZURU,jmz,/global/shop/jmz/,"ATICK 1F, 1049 Kitasui, Maizuru-sh Kyoto","This shop is the hub from which BEAMS ""TEAM JAPAN"", a project to curate content across a broad range of categories based on the keyword of ""Japan"", sets new trends. The shop categories such as ""Food"", ""Brand items"", ""Fashion"", ""Collaborations"", ""Culture"", ""Art"", and ""Crafts"". The shop as a whole acts to transmit these various attractive aspects of Japan both nationwide and around the world.",0773 77 5678,//cdn-cms.beams.co.jp/cdn/cms/shop/246/list_4YJmv4.jpg,10:00 - 18:00,,35.475395,135.384536
Kansai,Kyoto,242,BEAMS GOLF TAKASHIMAYA KYOTO S.C,ktg,/global/shop/ktg/,"3F, Takashimaya Kyoto S.C 35 Otabicho, Shimogyo-ku, Kyoto-shi Kyoto","A store specializing in the BEAMS GOLF produce line, our label providing unique, fashionable and functional BEAMS golf styles.
",075 606 5624,//cdn-cms.beams.co.jp/cdn/cms/shop/242/list_0Rn94K.jpg,10:00 - 20:00,,35.00353,135.76825
Kansai,Kyoto,205,Pilgrim Surf+Supply KYOTO,psk,/global/shop/psk/,"1F ShinPuhKan, 586-2, Karasumadori Aneyakoji-sagaru Banocho, Nakagyo-ku, Kyoto-shi Kyoto Kyoto","The first Japanese flagship store of ""Pilgrim Surf+Supply,"" a select shop from Brooklyn, New York. The shop follows the concept of ""a dual life that combines both nature and urban,"" and proposes a lifestyle of outdoor activities with a focus on surf filtered through the scope of American East Coast culture. Not limited to fashion apparel only, the shop offers a wide variety of content that includes activities as well.",075 708 6632,//cdn-cms.beams.co.jp/cdn/cms/shop/205/list_c20Vvm.jpg,11:00 - 20:00,"Tax-freeShop, UnionPay, ALIPAY",35.009697,135.760267
Kansai,Kyoto,204,BEAMS JAPAN KYOTO,jk,/global/shop/jk/,"1F ShinPuhKan, 586-2, Karasumadori Aneyakoji-sagaru Banocho, Nakagyo-ku, Kyoto-shi Kyoto","This shop is the hub from which BEAMS ""TEAM JAPAN"", a project to curate content across a broad range of categories based on the keyword of ""Japan"", sets new trends. The shop categories such as ""Food"", ""Brand items"", ""Fashion"", ""Collaborations"", ""Culture"", ""Art"", and ""Crafts"". The shop as a whole acts to transmit these various attractive aspects of Japan both nationwide and around the world.",075 708 6848,//cdn-cms.beams.co.jp/cdn/cms/shop/204/list_SIhK2K.jpg,11:00〜20:00,"Tax-freeShop, UnionPay",35.0095415,135.7600422
Kansai,Kyoto,99,BEAMS KYOTO,kyo,/global/shop/kyo/,"KYOTO SHOCHIKUZA BUILDING 1F, 415 Sakurano-cho, Sanjo-sagaru Shinkyogoku Nakagyo-ku, Kyoto-shi  Kyoto","Daily-use casuals and products to fit the business scene, accessories and miscellaneous goods for all ages.",075-257-8065,//cdn-cms.beams.co.jp/cdn/cms/shop/99/list_zPKEP9.jpg,11:00 - 20:00,"Tax-freeShop, UnionPay",35.008164,135.767621
Hokuriku / Shinetsu / Tokai,Aichi,232,BEAMS GOLF Dai Nagoya Building,dbg,/global/shop/dbg/,"Dai Nagoya Building Shops&Restaurants 2F, 3-28-12 Meieki, Nakamura-ku, Nagoya-shi","A store specializing in the BEAMS GOLF produce line, our label providing unique, fashionable and functional BEAMS golf styles.
",052 564 1085,//cdn-cms.beams.co.jp/cdn/cms/shop/232/list_mh2OJB.jpg,11:00 - 20:00,,35.172101,136.884458
Hokuriku / Shinetsu / Tokai,Aichi,185,B:MING LIFE STORE by BEAMS LaLaport Minato AQULS,nma,/global/shop/nma/,"LaLaport Minato AQULS 1F, 2-3-2 Koumei, Minato-ku, Nagoya-shi, Aichi","The main product line includes men’s and women’s original casual wear and business formal; additionally, kid’s and baby wear, miscellanea, cosmetics, and beauty supplies form a diverse lineup of goods offering the pleasures of contemporary lifestyles.",052-659-2821,//cdn-cms.beams.co.jp/cdn/cms/shop/185/list_UrjilB.jpg,"Monday - Friday, 10:00 - 20:00 / Saturday, Sunday & holiday, 10:00 - 21:00",Tax-freeShop,35.660470,139.729246
Hokuriku / Shinetsu / Tokai,Aichi,94,BEAMS NAGOYA,bna,/global/shop/bna/,"LACHIC 2F, 3-6-1 Sakae, Naka-ku, Nagoya-shi, Aichi","Daily-use casuals and products to fit the business scene, accessories and miscellaneous goods for all ages.",052 265 2610,//cdn-cms.beams.co.jp/cdn/cms/shop/94/list_Fil9ah.jpg,11:00 - 21:00,"Tax-freeShop, UnionPay",35.167496,136.907762
Hokuriku / Shinetsu / Tokai,Shizuoka,57,BEAMS OUTLET GOTEMBA,bgo,/global/shop/bgo/,"GOTEMBA PREMIUM OUTLETS, 1312 Fukasawa, Gotemba-shi, Shizuoka","Daily-use casuals and products to fit the business scene, accessories and miscellaneous goods for all ages.",0550-70-1211,//cdn-cms.beams.co.jp/cdn/cms/shop/57/list_CiZDwa.jpg,"December - February, 10:00 - 19:00 / March - July & September - November, 10:00 - 20:00 / August, 10:00 - 21:00","Tax-freeShop, UnionPay, ALIPAY",35.307386,138.966901
Hokuriku / Shinetsu / Tokai,Shizuoka,119,B:MING LIFE STORE by BEAMS Shin-Shizuoka Cenova,szc,/global/shop/szc/,"Shin-Shizuoka Cenova 2F, 1-1-1 Takajou, Aoi-ku, Shizuoka-shi, Shizuoka","The main product line includes men’s and women’s original casual wear and business formal; additionally, kid’s and baby wear, miscellanea, cosmetics, and beauty supplies form a diverse lineup of goods offering the pleasures of contemporary lifestyles.",054 205 5511,//cdn-cms.beams.co.jp/cdn/cms/shop/119/list_TPuAJa.jpg,"10:30 - 19:30(Mon-Fri) / 10:00 - 20:00(Sat, Sun, Holiday)",Tax-freeShop,34.975512,138.3872036
Hokuriku / Shinetsu / Tokai,Nagano,91,BEAMS GOLF KARUIZAWA,kpg,/global/shop/kpg/,"KARUIZAWA PRINCE SHOPPING PLAZA New East, 1178-160 Karuizawa, Karuizawamachi, Kitasaku-gun, Nagano","A store specializing in the BEAMS GOLF produce line, our label providing unique, fashionable and functional BEAMS golf styles.",0267 41 1577,//cdn-cms.beams.co.jp/cdn/cms/shop/91/list_hwItQS.jpg,10:00 - 19:00（There is variation depending on the season）,"Tax-freeShop, UnionPay",36.341981,138.63789
Hokuriku / Shinetsu / Tokai,Nagano,89,Kodomo BEAMS KARUIZAWA,kkp,/global/shop/kkp/,"KARUIZAWA PRINCE SHOPPING PLAZA Center Mall, 1178-160 Karuizawa, Karuizawamachi, Kitasaku-gun, Nagano","Kodomo BEAMS was opened to give children the chance to expand their creativity and sensitivity through our products, events and workshops. We intorduce children's clothes that create a happy lifestyle for both children and their parents.",0267 41 6708,//cdn-cms.beams.co.jp/cdn/cms/shop/89/list_megy8K.jpg,10:00 - 19:00（There is variation depending on the season）,"Tax-freeShop, UnionPay, ALIPAY",36.341995,138.634543
Hokuriku / Shinetsu / Tokai,Nagano,62,BEAMS OUTLET KARUIZAWA,bko,/global/shop/bko/,"KARUIZAWA PRINCE SHOPPING PLAZA New East, 1178-160 Karuizawa, Karuizawamachi, Kitasaku-gun, Nagano","Daily-use casuals and products to fit the business scene, accessories and miscellaneous goods for all ages.",0267 41 2021,//cdn-cms.beams.co.jp/cdn/cms/shop/62/list_JLX8Nr.jpg,10:00 - 19:00（There is variation depending on the season）,"Tax-freeShop, UnionPay, ALIPAY",36.340779,138.637784
Hokuriku / Shinetsu / Tokai,Ishikawa,86,BEAMS KANAZAWA,knz,/global/shop/knz/,"1-2F, 2-4-30 Kohrinbo, Kanazawa-shi, Ishikawa","The spacious interior is divided into a women's floor (1F) and men's (2F). They present a wide range of varying articles casual, elegant, formal, and more.",076 260 1551,//cdn-cms.beams.co.jp/cdn/cms/shop/86/list_mUS4aZ.jpg,11:00 - 20:00,"Tax-freeShop, UnionPay",36.564155,136.65349
Hokkaido / Tohoku,Miyagi,161,BEAMS OUTLET SENDAI-IZUMI,sio,/global/shop/sio/,"SENDAI-IZUMI PREMIUM OUTLETS 1F, 6-1 Teraoka, Izumi-ku, Sendai-shi, Miyagi","Daily-use casuals and products to fit the business scene, accessories and miscellaneous goods for all ages.",022 342 6455,//cdn-cms.beams.co.jp/cdn/cms/shop/161/list_FW6D19.jpg,"September - July, 10:00 - 20:00 / August, 10:00 - 21:00","Tax-freeShop, UnionPay",38.341252,140.837029
Hokkaido / Tohoku,Hokkaido,198,BEAMS SAPPORO STELLAR PLACE,ssp,/global/shop/ssp/,"Sapporo STELLAR PLACE B1F , Nishi-2chome , Kita-5jo , Chuo-ku , Sapporo-shi,  Hokkaido","Daily-use casuals and products to fit the business scene, accessories and miscellaneous goods for all ages.",011 200 2092,//cdn-cms.beams.co.jp/cdn/cms/shop/198/list_chZQUX.jpg,10:00 - 21:00,"Tax-freeShop, UnionPay",43.068321,141.351825
Kanto,Kanagawa,235,BEAMS OUTLET SHONAN HIRATSUKA,sho,/global/shop/sho/,"THE OUTLETS SHONAN HIRATSUKA 1F, 1-1 Okam-8chome, Hiratsuka-shi Kanagawa","Daily-use casuals and products to fit the business scene, accessories and miscellaneous goods for all ages.",0463 86 3381,//cdn-cms.beams.co.jp/cdn/cms/shop/235/list_l0f7KZ.jpg,10:00 - 20:00,,35.393138,139.363653
Kanto,Kanagawa,179,B:MING LIFE STORE by BEAMS Terrace Mall Shonan,tms,/global/shop/tms/,"Terrace Mall Shonan 1F, 1-3-1 Tsujidokandai Fujisawa-shi Kanagawa","The main product line includes men’s and women’s original casual wear and business formal; additionally, kid’s and baby wear, miscellanea, cosmetics, and beauty supplies form a diverse lineup of goods offering the pleasures of contemporary lifestyles.",0466-38-1361,//cdn-cms.beams.co.jp/cdn/cms/shop/179/list_2Rz8P4.jpg,10:00 - 21:00,Tax-freeShop,35.338099,139.446439
Kanto,Kanagawa,87,B:MING LIFE STORE by BEAMS TAMAPLAZA TERRACE,tpt,/global/shop/tpt/,"TAMAPLAZA TERRACE 1F, 1-1-2 Utsukushigaoka, Aoba-ku, Yokohama-shi, Kanagawa","The main product line includes men’s and women’s original casual wear and business formal; additionally, kid’s and baby wear, miscellanea, cosmetics, and beauty supplies form a diverse lineup of goods offering the pleasures of contemporary lifestyles.",045 905 3790,//cdn-cms.beams.co.jp/cdn/cms/shop/87/list_RdvtD8.jpg,10:00 - 20:00,Tax-freeShop,35.57762871393647,139.55934294204712
Kanto,Kanagawa,90,B:MING LIFE STORE by BEAMS LaLaPort Yokohama,yhl,/global/shop/yhl/,"LaLaPort Yokohama 1F, 4035-1 Ikonobecho, Tsuzuki-ku, Yokohoma-shi, Kanagawa","The main product line includes men’s and women’s original casual wear and business formal; additionally, kid’s and baby wear, miscellanea, cosmetics, and beauty supplies form a diverse lineup of goods offering the pleasures of contemporary lifestyles.",045 930 3530,//cdn-cms.beams.co.jp/cdn/cms/shop/90/list_PaSXSe.jpg,"Monday - Friday, 10:00 - 20:00 / Saturday, Sunday & holiday, 10:00 - 21:00","Tax-freeShop, UnionPay",35.51715174267968,139.5666492794037
Kanto,Kanagawa,96,B:MING LIFE STORE by BEAMS MARK IS minatomirai,mmm,/global/shop/mmm/,"MARK IS minatomirai 2F, 3-5-1 MInatomirai, Nishi-ku, Yokohama-shi, Kanagawa","The main product line includes men’s and women’s original casual wear and business formal; additionally, kid’s and baby wear, miscellanea, cosmetics, and beauty supplies form a diverse lineup of goods offering the pleasures of contemporary lifestyles.",045 228 3020,//cdn-cms.beams.co.jp/cdn/cms/shop/96/list_HW43Ql.jpg,10:00 - 20:00,"Tax-freeShop, UnionPay",35.457442,139.632245
Kanto,Kanagawa,56,BEAMS MUSASHIKOSUGI,gmk,/global/shop/gmk/,"GRANDTREE MUSASHIKOSUGI 1F, 3-1135-1 Shinmaruko-Higashi, Nakahara-ku, Kawasaki-shi, Kanagawa","Daily-use casuals and products to fit the business scene, accessories and miscellaneous goods for all ages.",044 431 8400,//cdn-cms.beams.co.jp/cdn/cms/shop/56/list_VEKz2a.jpg,10:00 - 21:00,"Tax-freeShop, UnionPay",35.574085,139.660157
Kanto,Kanagawa,177,BEAMS KAWASAKI,kwb,/global/shop/kwb/,"Luzon Kawasaki Plaza 2F, 72-1 Horikawacho Saiwai-ku Kawasaki-shi Kanagawa","Daily-use casuals and products to fit the business scene, accessories and miscellaneous goods for all ages.",044 520 1780,//cdn-cms.beams.co.jp/cdn/cms/shop/177/list_dmx4gd.jpg,10:00 - 21:00,"Tax-freeShop, UnionPay",35.532423,139.696286
Kanto,Kanagawa,64,BEAMS LIFE YOKOHAMA,lfy,/global/shop/lfy/,"YOKOHAMA MORES 1F-2F, 1-3-1 MinamiSaiwai, Nishi-ku, Yokohama-shi, Kanagawa","Art, fashion, culture.
BEAMS LIFE is an experiential select shop that stimulates the five senses by fusing every genre.",045 548 5305,//cdn-cms.beams.co.jp/cdn/cms/shop/64/list_4Q0XKH.jpg,10:00 - 21:00,"Tax-freeShop, UnionPay",35.46727,139.62204
Kanto,Kanagawa,60,BEAMS YOKOHAMA HIGASHIGUCHI,yeb,/global/shop/yeb/,"LUMINE  Yokohama 1F, 2-16-1 Takashima, Nishi-ku, Yokohama-shi Kanagawa",You will find a wide-range of varying articles from plain-daily-use styles to street styles with the latest trends here.,045 444 0710,//cdn-cms.beams.co.jp/cdn/cms/shop/60/list_KN3llt.jpg,"Monday - Friday, 10:00 - 21:00 / Saturday, Sunday & Holiday, 10:00 - 20:30","Tax-freeShop, UnionPay",35.46534,139.62289
Kanto,Chiba,142,BEAMS OUTLET KISARAZU,kzo,/global/shop/kzo/,"MITSUI OUTLET PARK KISARAZU, 3-1-1 Kaneda Higashi, Kisarazu-shi, Chiba","Daily-use casuals and products to fit the business scene, accessories and miscellaneous goods for all ages.",0438 40 1270,//cdn-cms.beams.co.jp/cdn/cms/shop/142/list_FtEx6x.jpg,10:00 - 20:00,"Tax-freeShop, UnionPay",35.4346804,139.9361113
Kanto,Chiba,144,BEAMS OUTLET MAKUHARI,mho,/global/shop/mho/,"MITSUI OUTLET PARK MAKUHARI, 2-6-1 Hibino, Mihama-ku, Chiba","Daily-use casuals and products to fit the business scene, accessories and miscellaneous goods for all ages.",043 350 4700,//cdn-cms.beams.co.jp/cdn/cms/shop/144/list_K6aAMF.jpg,10:00 - 20:00,"Tax-freeShop, UnionPay",35.647748,140.041676
Kanto,Chiba,136,BEAMS OUTLET SHISUI,sso,/global/shop/sso/,"SHISUI PREMIUM OUTLET, 2-4-1 Iizumi, Shisuimachi, Inba-gun, Chiba","Daily-use casuals and products to fit the business scene, accessories and miscellaneous goods for all ages.",043 496 5782,//cdn-cms.beams.co.jp/cdn/cms/shop/136/list_mF8iA6.jpg,10:00 - 20:00,"Tax-freeShop, UnionPay, ALIPAY",35.714142,140.294153
Kanto,Chiba,138,B:MING LIFE STORE by BEAMS IKSPIARI,ikp,/global/shop/ikp/,"IKSPIARI 2F, 1-4 Maihama, Urayasu-shi, Chiba","The main product line includes men’s and women’s original casual wear and business formal; additionally, kid’s and baby wear, miscellanea, cosmetics, and beauty supplies form a diverse lineup of goods offering the pleasures of contemporary lifestyles.",047 390 7037,//cdn-cms.beams.co.jp/cdn/cms/shop/138/list_48MjZu.jpg,"Monday - Friday, 11:00 - 20:00 / Saturday, Sunday & holiday, 10:00 - 20:00","Tax-freeShop, UnionPay",35.635114,139.884099
Kanto,Chiba,74,B:MING LIFE STORE BY BEAMS LaLaport TOKYO-BAY,fbl,/global/shop/fbl/,"LaLaport TOKYO-BAY South Wing 2F, 2-1-1 Hamamachi, Funabashi-shi, Chiba","The main product line includes men’s and women’s original casual wear and business formal; additionally, kid’s and baby wear, miscellanea, cosmetics, and beauty supplies form a diverse lineup of goods offering the pleasures of contemporary lifestyles.",047 436 6500,//cdn-cms.beams.co.jp/cdn/cms/shop/74/list_jPI57V.jpg,"Monday - Friday, 10:00 - 20:00/ Saturday, Sunday & Holiday,10:00 - 21:00",Tax-freeShop,35.685743,139.990775
Kanto,Chiba,61,B:MING LIFE STORE by BEAMS LaLaPort Kasiwanoha,khl,/global/shop/khl/,"LaLaPort Kasiwanoha 2F, 175 Wakashiba, Kashiwa-shi, Chiba","The main product line includes men’s and women’s original casual wear and business formal; additionally, kid’s and baby wear, miscellanea, cosmetics, and beauty supplies form a diverse lineup of goods offering the pleasures of contemporary lifestyles.",04 7137 6750,//cdn-cms.beams.co.jp/cdn/cms/shop/61/list_G0HZ4R.jpg,"Monday - Friday, 10:00 - 20:00 / Saturday, Sunday & holiday, 10:00 - 21:00","Tax-freeShop, UnionPay",35.893311,139.951356
Kanto,Chiba,72,Demi-Luxe BEAMS KASHIWA,dlk,/global/shop/dlk/,"KASHIWA Takashimaya Station Mall 3F, 1-1 Suehirocho, Kashiwa-shi, Chiba","Demi-Luxe BEAMS which means ""small and light"", introduces quality-conscious work and free-time clothes for independent women who enjoy their own style.",04 7148 2032,//cdn-cms.beams.co.jp/cdn/cms/shop/72/list_VSfBDH.jpg,10:00 - 20:00,Tax-freeShop,35.862500,139.970557
Kanto,Chiba,71,BEAMS KASHIWA,ktb,/global/shop/ktb/,"Kashiwa Takashimaya Station Mall 4F, 1-1 Suehirocho, Kashiwa-shi, Chiba","Daily-use casuals and products to fit the business scene, accessories and miscellaneous goods for all ages.",04 7147 9831,//cdn-cms.beams.co.jp/cdn/cms/shop/71/list_EiQEUt.jpg,10:00 - 20:00,Tax-freeShop,35.862538,139.970609
Kanto,Chiba,172,BEAMS CHIBA,cb,/global/shop/cb/,"PERIE CHIBA 3F, 1-1-1 ShinChiba, Chuo-ku, Chiba-shi, Chiba","Daily-use casuals and products to fit the business scene, accessories and miscellaneous goods for all ages.
",043 202 1010,//cdn-cms.beams.co.jp/cdn/cms/shop/172/list_enNfXJ.jpg,"Monday, 10:30 - 21:00 / Tuesday - Saturday, 10:00 - 21:00 / Sunday, holiday, 10:00 - 20:30 / Only Feb; Monday, 10:30 - 20:30 / Tuesday - Sunday, holiday, 10:00 - 20:30","Tax-freeShop, UnionPay",35.613218,140.114032
Kanto,Saitama,226,BEAMS OUTLET FUKAYA HANAZONO,fho,/global/shop/fho/,"FUKAYA-HANAZONO PREMIUM OUTLETS, 1 Hanazono, Fukaya-shi Saitama","Daily-use casuals and products to fit the business scene, accessories and miscellaneous goods for all ages.",048 579 5297,//cdn-cms.beams.co.jp/cdn/cms/shop/226/list_pKPaXR.jpg,10:00 - 20:00,"Tax-freeShop, UnionPay",36.133213,139.249135
Kanto,Saitama,151,BEAMS OUTLET IRUMA,bio,/global/shop/bio/,"MITSUI OUTLET PARK IRUMA, 3169-1 Miyadera, Iruma-shi, Saitama","Daily-use casuals and products to fit the business scene, accessories and miscellaneous goods for all ages.",04 2902 5222,//cdn-cms.beams.co.jp/cdn/cms/shop/151/list_yCegT5.jpg,10:00 - 20:00,"Tax-freeShop, UnionPay",35.8103275,139.3795523
Kanto,Saitama,148,BEAMS OUTLET KOSHIGAYA,lto,/global/shop/lto/,"Lake Town outlet, 4-1-1 lake town, Koshigaya-shi, Saitama","Daily-use casuals and products to fit the business scene, accessories and miscellaneous goods for all ages.",048 961 1260,//cdn-cms.beams.co.jp/cdn/cms/shop/148/list_qITgqv.jpg,10:00 - 20:00,"Tax-freeShop, UnionPay",35.8799694,139.8247713
Kanto,Saitama,173,B:MING LIFE STORE by BEAMS Grand Emio TOKOROZAWA,get,/global/shop/get/,"Grand Emio TOKOROZAWA 2F, 1-14-5 Kusunokidai, Tokorozawa-shi, Saitama","The main product line includes men’s and women’s original casual wear and business formal; additionally, kid’s and baby wear, miscellanea, cosmetics, and beauty supplies form a diverse lineup of goods offering the pleasures of contemporary lifestyles.",042 968 6918,//cdn-cms.beams.co.jp/cdn/cms/shop/173/list_iyrQZv.jpg,10:00 - 21:00,Tax-freeShop,35.786547,139.473766
Kanto,Saitama,139,B:MING LIFE STORE by BEAMS COCOON CITY,ssc,/global/shop/ssc/,"COCOON2 COCOON CITY 2F, 4-263-1 Kishiki-cho, Omiya-ku, Saitama-shi, Saitama","The main product line includes men’s and women’s original casual wear and business formal; additionally, kid’s and baby wear, miscellanea, cosmetics, and beauty supplies form a diverse lineup of goods offering the pleasures of contemporary lifestyles.",048 788 1130,//cdn-cms.beams.co.jp/cdn/cms/shop/139/list_YmBBrq.jpg,10:00 - 21:00,"Tax-freeShop, UnionPay",35.895933,139.635626
Kanto,Saitama,69,BEAMS OMIYA,omb,/global/shop/omb/,"LUMINE OMIYA2 2F, 630 Nishikicho, Omiya-ku, Saitama-shi, Saitama","Daily-use casuals and products to fit the business scene, accessories and miscellaneous goods for all ages.",048 640 5601,//cdn-cms.beams.co.jp/cdn/cms/shop/69/list_iZEkzd.jpg,"Monday - Saturday, 10:00 - 21:00 / Sunday, Holiday, 10:00 - 20:30",Tax-freeShop,35.906198,139.623903
Kanto,Tochigi,230,BEAMS JAPAN NIKKO,jnt,/global/shop/jnt/,"2287 Yamauchi, Nikko-shi Tochigi","This shop is the hub from which BEAMS ""TEAM JAPAN"", a project to curate content across a broad range of categories based on the keyword of ""Japan"", sets new trends. The shop categories such as ""Food"", ""Brand items"", ""Fashion"", ""Collaborations"", ""Culture"", ""Art"", and ""Crafts"". The shop as a whole acts to transmit these various attractive aspects of Japan both nationwide and around the world.",0288 25 5028,//cdn-cms.beams.co.jp/cdn/cms/shop/230/list_rwZxS6.jpg,10:00 - 17:00（Apr. - Nov.）／10:00 - 16:00（Dec. - Mar.）,,36.753867,139.600100
Kanto,Tochigi,156,BEAMS OUTLET SANO,bso,/global/shop/bso/,"SANO PREMIUM OUTLETS, 2058 Koena-cho, Sano-shi, Tochigi","Daily-use casuals and products to fit the business scene, accessories and miscellaneous goods for all ages.",0283 27 2026,//cdn-cms.beams.co.jp/cdn/cms/shop/156/list_OXi9S1.jpg,"10:00 - 20:00 / February only on weekdays, 10:00 - 19:00","Tax-freeShop, UnionPay",36.294082,139.605737
Kanto,Tochigi,153,BEAMS OUTLET NASU,bno,/global/shop/bno/,"NASU GARDEN OUTLET, 184-7 Shionosaki, Nasushiobara-shi, Tochigi","Daily-use casuals and products to fit the business scene, accessories and miscellaneous goods for all ages.",0287 67 2166,//cdn-cms.beams.co.jp/cdn/cms/shop/153/list_v5IOC3.jpg,"October - June, 10:00-19:00 / July - September, 10:00-21:00","Tax-freeShop, UnionPay",36.965723,139.992549
Kanto,Ibaraki,158,BEAMS OUTLET AMI,amo,/global/shop/amo/,"AMI PREMIUM OUTLETS, 2700 Yoshihara, Ami-cho, Inashiki-gun, Ibaraki","Daily-use casuals and products to fit the business scene, accessories and miscellaneous goods for all ages.",029 833 6676,//cdn-cms.beams.co.jp/cdn/cms/shop/158/list_Iz9Jqe.jpg,"September - June, 10:00 - 20:00 / July & August, 10:00 - 21:00","Tax-freeShop, UnionPay",35.983648,140.237693
Tokyo,Minamimachida,199,BEAMS OUTLET MINAMIMACHIDA,gpo,/global/shop/gpo/,"1F Grandberry Park, 3-4-1 Tsuruma, Machida-shi Tokyo","Daily-use casuals and products to fit the business scene, accessories and miscellaneous goods for all ages.",042 850 7061,//cdn-cms.beams.co.jp/cdn/cms/shop/199/list_bioKLV.jpg,10:00 - 20:00,Tax-freeShop,35.5098378,139.4699593
Tokyo,Minamiosawa,132,BEAMS OUTLET TAMA MINAMI OSAWA,tmo,/global/shop/tmo/,"MITSUI OUTLET PARK TAMA MINAMI OSAWA, 1-600 Minami-Osawa, Hachioji-shi, Tokyo","Daily-use casuals and products to fit the business scene, accessories and miscellaneous goods for all ages.",042 678 7600,//cdn-cms.beams.co.jp/cdn/cms/shop/132/list_ENS3Zy.jpg,10:00 - 20:00,"Tax-freeShop, UnionPay",35.614188,139.377316
Tokyo,Machida,55,BEAMS MACHIDA,mcb,/global/shop/mcb/,"LUMINE Machida 2F, 6-1-11 Haramachida, Machida-shi, Tokyo","Daily-use casuals and products to fit the business scene, accessories and miscellaneous goods for all ages.",042 732 5101,//cdn-cms.beams.co.jp/cdn/cms/shop/55/list_4vy0ji.jpg,10:30  - 20:30,Tax-freeShop,35.542048,139.446078
Tokyo,Tachikawa,141,B:MING LIFE STORE by BEAMS LaLaport Tachikawa Tachihi,ttl,/global/shop/ttl/,"LaLaport Tachikawa Tachihi 2F, 935-1 Izumicho, Tachikawa-shi, Tokyo","The main product line includes men’s and women’s original casual wear and business formal; additionally, kid’s and baby wear, miscellanea, cosmetics, and beauty supplies form a diverse lineup of goods offering the pleasures of contemporary lifestyles.",042 540 6050,//cdn-cms.beams.co.jp/cdn/cms/shop/141/list_FtuSvm.jpg,"Monday - Friday, 10:00 - 20:00 / Saturday, Sunday & holiday, 10:00 - 21:00","Tax-freeShop, UnionPay",35.713588,139.418523
Tokyo,Tachikawa,54,BEAMS TACHIKAWA,tcb,/global/shop/tcb/,"LUMINE Tachikawa 2F, 2-1-1 Akebonocho, Tachikawa-shi, Tokyo","Daily-use casuals and products to fit the business scene, accessories and miscellaneous goods for all ages.",042 548 1070 （Men's） / 042 548 1071 （Women's）,//cdn-cms.beams.co.jp/cdn/cms/shop/54/list_lZynaT.jpg,10:00 - 20:00,Tax-freeShop,35.69838,139.414954
Tokyo,Kichijoji,52,BEAMS KICHIJOJI,kkj,/global/shop/kkj/,"kirarina Kichijoji 3F, 2-1-25 Kichijojiminamicho, Musashino-shi, Tokyo","Daily-use casuals and products to fit the business scene, accessories and miscellaneous goods for all ages.",0422 70 2571,//cdn-cms.beams.co.jp/cdn/cms/shop/52/list_ehKqh5.jpg,10:00 - 21:00,"Tax-freeShop, UnionPay",35.702803,139.579946
Tokyo,Toyosu,80,B:MING LIFE STORE by BEAMS Urban Dock LaLaport Toyosu,tyl,/global/shop/tyl/,"Urban Dock LaLaport Toyosu 1F, 2-4-9 Toyosu, Koto-ku, Tokyo","The main product line includes men’s and women’s original casual wear and business formal; additionally, kid’s and baby wear, miscellanea, cosmetics, and beauty supplies form a diverse lineup of goods offering the pleasures of contemporary lifestyles.",03 3532 3100,//cdn-cms.beams.co.jp/cdn/cms/shop/80/list_pPASxk.jpg,10:00 - 21:00,"Tax-freeShop, UnionPay",35.655141,139.792766
Tokyo,Oshiage,163,BEAMS TOKYO SKYTREE TOWN,tst,/global/shop/tst/,"TOKYO SKY TREE TOWN Solamachi 2F, 1-1-2 Oshiage Sumida-ku, Tokyo","Daily-use casuals and products to fit the business scene, accessories and miscellaneous goods for all ages.",03 5819 4011,//cdn-cms.beams.co.jp/cdn/cms/shop/163/list_BGnyJQ.jpg,10:00 - 21:00,"Tax-freeShop, UnionPay",35.7101587,139.8118193
Tokyo,Ikebukuro,35,BEAMS IKEBUKURO,ikb,/global/shop/ikb/,"LUMINE Ikebukuro 1F, 1-11-1 Nishi-Ikebukuro, Toshima-ku, Tokyo","A wide range of fashion products for men and women, including casual wear, business suits, accessories, and miscellaneous goods.",03 5956 1590,//cdn-cms.beams.co.jp/cdn/cms/shop/35/list_d14eWP.jpg,11:00 - 21:00,"Tax-freeShop, UnionPay",35.728812,139.709388
Tokyo,Futakotamagawa,47,BEAMS GOLF Tamagawa Takashimaya,ttg,/global/shop/ttg/,"Tamagawa Takashimaya Shopping Center South Bldg. 5F, 3-17-1, Tamagawa, Setagaya-ku, Tokyo","A store specializing in the BEAMS GOLF produce line, our label providing unique, fashionable and functional BEAMS golf styles.",03 5491 5741,//cdn-cms.beams.co.jp/cdn/cms/shop/47/list_h2SRjK.jpg,10:00 - 20:00,"Tax-freeShop, UnionPay",35.613311,139.62648
Tokyo,Shimokitazawa,239,BEAMS Planets LIMITED STORE SHIMOKITAZAWA,planets,/global/shop/planets/,"reload 2−1, 3-19-20 Kitazawa, Setagaya-ku Tokyo","〈BEAMS Planets〉is a label that connects people and things around the world, continues to create products full of originality, and carefully delivers their charms along with their stories. It is a limited-time shop of this label.",03 3460 8515,//cdn-cms.beams.co.jp/cdn/cms/shop/239/list_uT0j24.jpg,11:00 - 20:00,,35.66329,139.66972
Tokyo,Roppongi,45,BEAMS HOUSE ROPPONGI,bhr,/global/shop/bhr/,"TOKYO MIDTOWN·Galleria 1F, 9-7-3 Akasaka, Minato-ku, Tokyo",BEAMS HOUSE ROPPONGI is a chic shop for adults who enjoy their own fashion and lifestyle. We provide comfortable services and products in a shop with a classical and sedate mood.,03 5413 7690,//cdn-cms.beams.co.jp/cdn/cms/shop/45/list_5Gx6i0.jpg,11:00 - 20:00,"Tax-freeShop, UnionPay",35.665891,139.730301
Tokyo,Yurakucho,42,BEAMS GOLF YURAKUCHO,yg,/global/shop/yg/,"Yurakucho Denki Bldg. 1F, 1-7-1 Yurakucho, Chiyoda-ku, Tokyo","A BEAMS GOLF shop, an original brand that proposes a golf wear style that is both fashionable and functional, and unique to BEAMS. You'll find a full line up of carefully selected imported items, as well as items from collaborations with popular fashion brands.",03 5221 6001,//cdn-cms.beams.co.jp/cdn/cms/shop/42/list_bBAyIG.jpg,11:00 - 20:00,"Tax-freeShop, UnionPay",35.6743248,139.7613036
Tokyo,Marunouchi,39,BEAMS GOLF DAIMARU TOKYO,dtg,/global/shop/dtg/,"DAIMARU TOKYO 11F, 1-9-1 Marunouchi, Chiyoda-ku, Tokyo","A store specializing in the BEAMS GOLF produce line, our label providing unique, fashionable and functional BEAMS golf styles.",03 5218 2210,//cdn-cms.beams.co.jp/cdn/cms/shop/39/list_w4mM8j.jpg,"10:00〜20:00 / Thu,Fri, 10:00〜21:00","Tax-freeShop, UnionPay",35.681532,139.768871
Tokyo,Marunouchi,38,BEAMS SHIN-MARUNOUCHI,smb,/global/shop/smb/,"SHIN-MARUNOUCHI Bldg. 3F, 1-5-1 Marunouchi, Chiyoda-ku, Tokyo",Casual clothes and items for grown-up weekends starting with BEAMS LIGHTS can be found at BEAM SHIN-MARUNOUCHI.,03 5288 7670,//cdn-cms.beams.co.jp/cdn/cms/shop/38/list_W03Koc.jpg,"Mon - Sat, 11:00 - 21:00 / Sun, Holiday, 11:00 - 20:00","Tax-freeShop, UnionPay",35.682543,139.7643
Tokyo,Ginza,17,BEAMS GINZA,gnz,/global/shop/gnz/,"2F/3F, 4-4-1 Ginza, Chuo-ku, Tokyo",We display a wide variety of clothes from business clothes that suit the streets of Ginza to casual clothes for borderless fashion.,03 3567 2223（2F Casual）／ 03 3567 2224（3F Formal）,//cdn-cms.beams.co.jp/cdn/cms/shop/17/list_ksNFTn.jpg,11:00 - 20:00,"Tax-freeShop, UnionPay, ALIPAY",35.672267,139.765167
Tokyo,Daikanyama,21,Kodomo BEAMS,kd,/global/shop/kd/,"1F, 19-7 Sarugakucho, Shibuya-ku, Tokyo","Kodomo BEAMS was opened in September, 2008, in Daikanyama to give children the chance to expand their creativity and sensitivity through our products, events and workshops. We intorduce children's clothes that create a happy lifestyle for both children and their parents.",03 5428 4844,//cdn-cms.beams.co.jp/cdn/cms/shop/21/list_RMgeYr.jpg,10:00 - 19:00,"Tax-freeShop, UnionPay, ALIPAY",35.648970,139.700715
Tokyo,Ebisu,16,BEAMS EBISU,ebs,/global/shop/ebs/,"Atre Ebisu 4F, 1-5-5 Ebisu-Minami, Shibuya-ku, Tokyo","Daily-use casuals and products to fit the business scene, accessories and miscellaneous goods for all ages.",03 5447 7061,//cdn-cms.beams.co.jp/cdn/cms/shop/16/list_Ym279R.jpg,10:00 - 21:00,"Tax-freeShop, UnionPay",35.646175,139.710517
Tokyo,Shibuya,10,BEAMS MEN SHIBUYA,s,/global/shop/s/,"1F/2F, 1-15-1 Jinnan, Shibuya-ku, Tokyo","Spread out over 2 floors, BEAMS SHIBAYA categorizes men's clothing not by age groups, but by style and feel.",03 3780 5500,//cdn-cms.beams.co.jp/cdn/cms/shop/10/list_sgiBFA.jpg,11:00 - 20:00,"Tax-freeShop, UnionPay, ALIPAY",35.663797,139.699659
Tokyo,Harajuku,238,BEAMS HARAJUKU ANNEX,ha,/global/shop/ha/,1F 3-24-5 Jingumae Shibuya-ku Tokyo,"This is the actual store of ""FUTURE ARCHIVE"", a project led by a new generation that creates a ""future archive"" that will not fade 10 or 20 years from now.",03 3470 8452,//cdn-cms.beams.co.jp/cdn/cms/shop/238/list_ZLVgoP.jpg,13:00 - 20:00,,35.670994,139.707522
Tokyo,Harajuku,5,BEAMS PLUS HARAJUKU,bph,/global/shop/bph/,"1F, 3-25-12 Jingumae, Shibuya-ku, Tokyo","BEAMS PLUS HARAJUKU pursues the starting point of men's casual fashion with ""long-lasting men's clothes"" as its theme. We provide a wide variety of fashion, including authentic casual fashion to general-use items.",03 3746 5851,//cdn-cms.beams.co.jp/cdn/cms/shop/5/list_uBoItk.jpg,"12:00 - 20:00 (Mon〜Fri) / 11:00 - 20:00(Sat, Sun, Holiday)","Tax-freeShop, UnionPay, ALIPAY",35.671352,139.707856
Tokyo,Harajuku,4,BEAMS BOY HARAJUKU,hry,/global/shop/hry/,"1F, 3-25-14 Jingumae, Shibuya-ku, Tokyo","BEAMS BOY specializes in men's-like clothing for women. Work, military, sports, ivy league, and all other authentic American style fashions are offered with the BEAMS BOY touch.",03 5770 5550,//cdn-cms.beams.co.jp/cdn/cms/shop/4/list_d81Y7s.jpg,"12:00 - 20:00 (Mon〜Fri) / 11:00 - 20:00(Sat, Sun, Holiday)","Tax-freeShop, UnionPay, ALIPAY",35.671530,139.707936
Tokyo,Harajuku,2,BEAMS WOMEN HARAJUKU,hw,/global/shop/hw/,"B1F Jingumae Terrace, 3-25-15 Jingumae, Shibuya-ku Tokyo","Re-editing the items from the women's labels ""Ray BEAMS"" and ""BEAMS BOY,"" this shop presents an original style through mixing trends from international collections and a Tokyo street mood.",03 5413 6415 /,//cdn-cms.beams.co.jp/cdn/cms/shop/2/list_r2m0U0.jpg,"12:00 - 20:00 (Mon〜Fri) / 11:00 - 20:00(Sat, Sun, Holiday)","Tax-freeShop, UnionPay, ALIPAY",35.671576,139.708141
Tokyo,Harajuku,3,BEAMS F / International Gallery BEAMS,fig,/global/shop/fig/,"1F-2F, 3-25-15 Jingumae, Shibuya-ku, Tokyo","The flagship store of the label “BEAMS F” ”International Gallery BEAMS”, bringing together style trends from around the world. ",(BEAMS F) /,//cdn-cms.beams.co.jp/cdn/cms/shop/3/list_qTofo1.jpg,"12:00 - 20:00 (Mon〜Fri) / 11:00 - 20:00(Sat, Sun, Holiday)",,35.6716373,139.7081792
Tokyo,Harajuku,9,BEAMS RECORDS,hbr,/global/shop/hbr/,"1F, 3-25-15 Jingumae, Shibuya-ku, Tokyo",All CDs and analog records can be played before purchase. We have a treasure of unique and timeless music for everyone.,03 3746 0789,//cdn-cms.beams.co.jp/cdn/cms/shop/9/list_7R11Lg.jpg,"12:00 - 20:00 (Mon〜Fri) / 11:00 - 20:00(Sat, Sun, Holiday)","Tax-freeShop, UnionPay",35.671674,139.708044
Tokyo,Shibuya,13,Pilgrim Surf+Supply TOKYO,pss,/global/shop/pss/,"1F, 1-14-7 Jinnan, Shibuya-ku, Tokyo","The first Japanese flagship store of ""Pilgrim Surf+Supply,"" a select shop from Brooklyn, New York. The shop follows the concept of ""a dual life that combines both nature and urban,"" and proposes a lifestyle of outdoor activities with a focus on surf filtered through the scope of American East Coast culture. Not limited to fashion apparel only, the shop offers a wide variety of content that includes activities as well.",03 5459 1690,//cdn-cms.beams.co.jp/cdn/cms/shop/13/list_1R4jQr.jpg,11:00 - 20:00,"Tax-freeShop, UnionPay, ALIPAY",35.663618,139.699925
Tokyo,Marunouchi,37,BEAMS HOUSE MARUNOUCHI,bhm,/global/shop/bhm/,"MARUNOUCHI Bldg. 1F, 2-4-1 Marunouchi, Chiyoda-ku, Tokyo",We introduce a new formal and casual style for the new generation in our high quality and spacious shop. Our products and services such as individual tailoring and dress rentals target adults.,03 5220 8686,//cdn-cms.beams.co.jp/cdn/cms/shop/37/list_9EogkT.jpg,"Monday - Saturday, 11:00 - 21:00 / Sunday, Holiday, 11:00 - 20:00","Tax-freeShop, UnionPay",35.681096,139.763631
Tokyo,Marunouchi,41,BEAMS PLUS MARUNOUCHI,bpm,/global/shop/bpm/,"Marunouchi Nakadori Bldg. 1F, 2-2-3 Marunouchi, Chiyoda-ku Tokyo","Our customers can browse traditional American clothes and shoes in a shop like Ernest Hemingway's summer house. Suits, a company that counts American Presidents among its customers, a collection of original suits, jackets, and ties are displayed. We also take pattern orders.",03 5220 3151,//cdn-cms.beams.co.jp/cdn/cms/shop/41/list_BSb5Lv.jpg,11:00 - 20:00,,35.68016213985807,139.7625434069124
Tokyo,Shinjuku,24,BEAMS JAPAN,j,/global/shop/j/,"B1F - 5F, 3-32-6 Shinjuku, Shinjuku-ku, Tokyo","This shop is the hub from which BEAMS ""TEAM JAPAN"", a project to curate content across a broad range of categories based on the keyword of ""Japan"", sets new trends. Each of its six floors, from the first level basement to the fifth floor, is home to distinct categories such as ""Food"", ""Brand items"", ""Fashion"", ""Collaborations"", ""Culture"", ""Art"", and ""Crafts"". The shop as a whole acts to transmit these various attractive aspects of Japan both nationwide and around the world.",03 5368 7300,//cdn-cms.beams.co.jp/cdn/cms/shop/24/list_xjKywx.jpg,"11:00-20:00（1F-5F）／11:30-15:00, 17:00-23:00（CRAFT GRILL）","Tax-freeShop, UnionPay, ALIPAY",35.690354,139.704011
Tokyo,Shinjuku,30,Ray BEAMS SHINJUKU,rs,/global/shop/rs/,"LUMINE EST Shinjuku 1F, 3-38-1 Shinjuku, Shinjuku-ku Tokyo","Ray BEAMS SHINJUKU offers customers trendy high-ended casual fashion. We introduce both imported and domestic products with vivid colors and sharp silhouettes. Our line up of the most fashionable items for our stylish customers can now be found in our newest store, BEAMS shop # 4 in the Shinjuku area.",03 5368 2191,//cdn-cms.beams.co.jp/cdn/cms/shop/30/list_jfiOyH.jpg,"Monday - Friday, 11:00 - 21:00 / Saturday, Sunday & Holiday, 10:30 - 21:00","Tax-freeShop, UnionPay",35.69142000,139.701150
Tokyo,Shinjuku,31,BEAMS NEWS,nsn,/global/shop/nsn/,"EKINAKA NEWoMan 2F, 5-24-55 Sendagaya, Shibuya-ku, Tokyo","Located in NEWoMan on the second floor inside the station area of the New Aouth Exit of Shinjuku Station. It is a concept store full of clothing and miscellaneous goods that have been revised in line with the themes that change on a regular basis, from among the labels of BEAMS. As a new ""newsstand,"" it will send out information on the goods and items picked up by BEAMS' discerning eye.",03 3351 3090,//cdn-cms.beams.co.jp/cdn/cms/shop/31/list_ZYI3Sn.jpg,"Monday - Saturday, 9:00 - 21:00 / Sunday & Holiday, 9:00 - 20:30","Tax-freeShop, UnionPay",35.688616,139.700663
Tokyo,Shinjuku,32,BEAMS GOLF ODAKYU DEPARTMENT SHINJUKU,hlg,/global/shop/hlg/,"M2F, Odakyu Department Shinjuku Maine Store, 1-5-1 Nishishinjuku, Shinjuku-ku Tokyo","A store specializing in the BEAMS GOLF produce line, our label providing unique, fashionable and functional BEAMS golf styles.",03 5325 1090,//cdn-cms.beams.co.jp/cdn/cms/shop/32/list_HqzGSu.jpg,"10:00 - 20:30／10:00 - 20:00 (Sunday, Holiday)","Tax-freeShop, UnionPay",35.69245,139.69834
