addr_full,brand,city,country,extras,lat,lon,name,opening_hours,phone,postcode,ref,state,website
"Sunayama-cho, Naka-ku, Hamamatsu-shi 320-2",Hugo Boss,Shizuoka,JP,"{'brand': ['boss'], 'fascia': 'Shop', 'category': ['menswear'], 'edit_date': '20250228', 'lat_lon_source': 'website'}",34.70416,137.73318,BOSS Menswear Shop,"{'Shop': {'Mon': '10:00-19:00', 'Tue': '10:00-19:00', 'Wed': '10:00-19:00', 'Thu': '10:00-19:00', 'Fri': '10:00-19:00', 'Sat': '10:00-19:00', 'Sun': '10:00-19:00'}}",+81534575301,430-8588,9923777,22,https://www.hugoboss.com/store#lat=34.70416&lng=137.73318
"Rinku-Orai Minami, Izumi Sano-shi 3-28",Hugo Boss,Osaka,JP,"{'brand': ['boss'], 'fascia': 'Outlet', 'category': ['menswear', 'womenswear'], 'edit_date': '20250228', 'lat_lon_source': 'website'}",34.40606,135.295,BOSS Outlet,"{'Outlet': {'Mon': '10:00-19:00', 'Tue': '10:00-19:00', 'Wed': '10:00-19:00', 'Thu': '10:00-19:00', 'Fri': '10:00-19:00', 'Sat': '10:00-19:00', 'Sun': '10:00-19:00'}}",+81 724646731,598-8508,9923706,27,https://www.hugoboss.com/store#lat=34.40606&lng=135.295
"Abenosuji, Abeno-ku, Osaka-shi 1-1-43",Hugo Boss,Osaka,JP,"{'brand': ['boss'], 'fascia': 'Shop', 'category': ['menswear'], 'edit_date': '20250228', 'lat_lon_source': 'website'}",34.64597,135.51338,BOSS Menswear Shop,"{'Shop': {'Mon': '10:00-20:00', 'Tue': '10:00-20:00', 'Wed': '10:00-20:00', 'Thu': '10:00-20:00', 'Fri': '10:00-20:00', 'Sat': '10:00-20:00', 'Sun': '10:00-20:00'}}",+81 666266404,545-0052,9923723,27,https://www.hugoboss.com/store#lat=34.64597&lng=135.51338
"Namba, Chuo-ku, Osaka-shi 5-1-5",Hugo Boss,Osaka,JP,"{'brand': ['boss', 'boss-green'], 'fascia': 'Shop', 'category': ['menswear'], 'edit_date': '20250228', 'lat_lon_source': 'website'}",34.6644,135.50192,BOSS Menswear Shop,"{'Shop': {'Mon': '10:00-20:00', 'Tue': '10:00-20:00', 'Wed': '10:00-20:00', 'Thu': '10:00-20:00', 'Fri': '10:00-20:00', 'Sat': '10:00-20:00', 'Sun': '10:00-20:00'}}",+81 666443682,542-0076,9923719,27,https://www.hugoboss.com/store#lat=34.6644&lng=135.50192
"Shinsaibashisuji, Chuo-ku, Osakashi 1-5-23",Hugo Boss,Osaka,JP,"{'brand': ['boss', 'boss-green'], 'fascia': 'Store', 'category': ['menswear'], 'edit_date': '20250228', 'lat_lon_source': 'website'}",34.67266,135.50155,BOSS Store,"{'Store': {'Mon': '11:00-21:00', 'Tue': '11:00-21:00', 'Wed': '11:00-21:00', 'Thu': '11:00-21:00', 'Fri': '11:00-21:00', 'Sat': '11:00-21:00', 'Sun': '11:00-21:00'}}",+815035288406,542-0085,9929255,27,https://www.hugoboss.com/store#lat=34.67266&lng=135.50155
"Matuo-cho, Kadoma 204-3",Hugo Boss,Osaka,JP,"{'brand': ['boss'], 'fascia': 'Outlet', 'category': ['menswear', 'womenswear'], 'edit_date': '20250228', 'lat_lon_source': 'website'}",34.73036,135.58359,BOSS Outlet,"{'Outlet': {'Mon': '10:00-21:00', 'Tue': '10:00-21:00', 'Wed': '10:00-21:00', 'Thu': '10:00-21:00', 'Fri': '10:00-21:00', 'Sat': '10:00-21:00', 'Sun': '10:00-21:00'}}",+81 5033549621,571-8620,9926156,27,https://www.hugoboss.com/store#lat=34.73036&lng=135.58359
"Kakuda-cho, Kita-ku, Osaka-shi 7-10",Hugo Boss,Osaka,JP,"{'brand': ['boss'], 'fascia': 'Shop', 'category': ['menswear'], 'edit_date': '20250228', 'lat_lon_source': 'website'}",34.70346,135.50019,BOSS Menswear Shop,"{'Shop': {'Mon': '10:00-20:00', 'Tue': '10:00-20:00', 'Wed': '10:00-20:00', 'Thu': '10:00-20:00', 'Fri': '10:00-20:00', 'Sat': '10:00-20:00', 'Sun': '10:00-20:00'}}",+81 669488639,530-0017,9923770,27,https://www.hugoboss.com/store#lat=34.70346&lng=135.50019
"Kakuda-Cho, Kita-ku, Osaka-shi 7-10",Hugo Boss,Osaka,JP,"{'brand': ['boss', 'boss-camel'], 'fascia': 'Shop', 'category': ['menswear'], 'edit_date': '20250228', 'lat_lon_source': 'website'}",34.70346,135.50019,BOSS Menswear Shop,"{'Shop': {'Mon': '10:00-20:00', 'Tue': '10:00-20:00', 'Wed': '10:00-20:00', 'Thu': '10:00-20:00', 'Fri': '10:00-20:00', 'Sat': '10:00-20:00', 'Sun': '10:00-20:00'}}",+81 663610597,530-0017,9923722,27,https://www.hugoboss.com/store#lat=34.70346&lng=135.50019
"Kakuda-cho, Kita-ku, Osaka-shi 7-10",Hugo Boss,Osaka,JP,"{'brand': ['boss', 'boss-green'], 'fascia': 'Shop', 'category': ['menswear'], 'edit_date': '20250228', 'lat_lon_source': 'website'}",34.70305,135.49835,BOSS Menswear Shop / Athleisure,"{'Shop': {'Mon': '10:00-20:00', 'Tue': '10:00-20:00', 'Wed': '10:00-20:00', 'Thu': '10:00-20:00', 'Fri': '10:00-20:00', 'Sat': '10:00-20:00', 'Sun': '10:00-20:00'}}",+81 669488639,530-0017,9925235,27,https://www.hugoboss.com/store#lat=34.70305&lng=135.49835
"Kakuda-cho, Kita-ku, Osaka-shi 8-7",Hugo Boss,Osaka,JP,"{'brand': ['boss'], 'fascia': 'Shop', 'category': ['womenswear'], 'edit_date': '20250228', 'lat_lon_source': 'website'}",34.70305,135.49835,BOSS Womenswear Shop,"{'Shop': {'Mon': '10:00-20:00', 'Tue': '10:00-20:00', 'Wed': '10:00-20:00', 'Thu': '10:00-20:00', 'Fri': '10:00-20:00', 'Sat': '10:00-20:00', 'Sun': '10:00-20:00'}}",+81 5036127383,530-8350,9925236,27,https://www.hugoboss.com/store#lat=34.70305&lng=135.49835
"Urayasu, Nagashimacho, Kuwana-shi 368",Hugo Boss,Mie,JP,"{'brand': ['boss'], 'fascia': 'Outlet', 'category': ['menswear'], 'edit_date': '20250228', 'lat_lon_source': 'website'}",35.03323,136.72588,BOSS Outlet,"{'Outlet': {'Mon': '10:00-20:00', 'Tue': '10:00-20:00', 'Wed': '10:00-20:00', 'Thu': '10:00-20:00', 'Fri': '10:00-20:00', 'Sat': '10:00-20:00', 'Sun': '10:00-20:00'}}",+81 594452755,511-1135,9923787,24,https://www.hugoboss.com/store#lat=35.03323&lng=136.72588
"Akashimachi, Chuo-ku, Kobe-shi 40",Hugo Boss,Hyogo,JP,"{'brand': ['boss'], 'fascia': 'Shop', 'category': ['menswear'], 'edit_date': '20250228', 'lat_lon_source': 'website'}",34.68868,135.19045,BOSS Menswear Shop,"{'Shop': {'Mon': '10:00-19:00', 'Tue': '10:00-19:00', 'Wed': '10:00-19:00', 'Thu': '10:00-19:00', 'Fri': '10:00-19:00', 'Sat': '10:00-19:00', 'Sun': '10:00-19:00'}}",+81 783816088,650-0037,9929216,28,https://www.hugoboss.com/store#lat=34.68868&lng=135.19045
"Kaigan-Dori, Tarumi-ku 12-2",Hugo Boss,Hyogo,JP,"{'brand': ['boss'], 'fascia': 'Outlet', 'category': ['menswear'], 'edit_date': '20250228', 'lat_lon_source': 'website'}",34.62604,135.04738,BOSS Outlet,"{'Outlet': {'Mon': '10:00-20:00', 'Tue': '10:00-20:00', 'Wed': '10:00-20:00', 'Thu': '10:00-20:00', 'Fri': '10:00-20:00', 'Sat': '10:00-20:00', 'Sun': '10:00-20:00'}}",+81 50-3612-4880,655-0036,9921700,28,https://www.hugoboss.com/store#lat=34.62604&lng=135.04738
"Kuzushi Sunayama, Ryuo-cho, Gamou-gun 1178-694",Hugo Boss,Shiga,JP,"{'brand': ['boss'], 'fascia': 'Outlet', 'category': ['menswear', 'womenswear'], 'edit_date': '20250228', 'lat_lon_source': 'website'}",35.05869,136.09956,BOSS Outlet,"{'Outlet': {'Mon': '10:00-19:00', 'Tue': '10:00-19:00', 'Wed': '10:00-19:00', 'Thu': '10:00-19:00', 'Fri': '10:00-19:00', 'Sat': '10:00-20:00', 'Sun': '10:00-20:00'}}",+81 748362442,520-2551,9923441,25,https://www.hugoboss.com/store#lat=35.05869&lng=136.09956
"Sakae Naka-ku, Nagoya-shi 3-16-1",Hugo Boss,Aichi,JP,"{'brand': ['boss', 'boss-camel'], 'fascia': 'Shop', 'category': ['menswear'], 'edit_date': '20250228', 'lat_lon_source': 'website'}",35.16515,136.90828,BOSS Menswear Shop,"{'Shop': {'Mon': '10:00-20:00', 'Tue': '10:00-20:00', 'Wed': '10:00-20:00', 'Thu': '10:00-20:00', 'Fri': '10:00-20:00', 'Sat': '10:00-20:00', 'Sun': '10:00-20:00'}}",+81 526845336,460-8430,9923725,23,https://www.hugoboss.com/store#lat=35.16515&lng=136.90828
"Sakae, Naka-ku, Nagoya-shi 3-5-1",Hugo Boss,Aichi,JP,"{'brand': ['boss'], 'fascia': 'Shop', 'category': ['menswear'], 'edit_date': '20250228', 'lat_lon_source': 'website'}",35.16833,136.9077,BOSS Menswear Shop,"{'Shop': {'Mon': '10:00-19:00', 'Tue': '10:00-19:00', 'Wed': '10:00-19:00', 'Thu': '10:00-19:00', 'Fri': '10:00-19:00', 'Sat': '10:00-19:00', 'Sun': '10:00-19:00'}}",+81 522523169,460-0008,9923765,23,https://www.hugoboss.com/store#lat=35.16833&lng=136.9077
"Sakae, Naka-ku, Nagoya-shi 3-5-1",Hugo Boss,Nagoya,JP,"{'brand': ['boss'], 'fascia': 'Shop', 'category': ['womenswear'], 'edit_date': '20250228', 'lat_lon_source': 'website'}",35.16833,136.9077,BOSS Womenswear Shop,"{'Shop': {'Mon': '10:00-20:00', 'Tue': '10:00-20:00', 'Wed': '10:00-20:00', 'Thu': '10:00-20:00', 'Fri': '10:00-20:00', 'Sat': '10:00-20:00', 'Sun': '10:00-20:00'}}",+81 522635668,460-0008,9924721,23,https://www.hugoboss.com/store#lat=35.16833&lng=136.9077
"Meieki, Nakamura-ku, Nagoya-shi 1-1-4",Hugo Boss,Nagoya,JP,"{'brand': ['boss-green'], 'fascia': 'Shop', 'category': ['menswear'], 'edit_date': '20250228', 'lat_lon_source': 'website'}",35.1705,136.88192,BOSS Menswear Shop / Athleisure,"{'Shop': {'Mon': '10:00-20:00', 'Tue': '10:00-20:00', 'Wed': '10:00-20:00', 'Thu': '10:00-20:00', 'Fri': '10:00-20:00', 'Sat': '10:00-20:00', 'Sun': '10:00-20:00'}}",+81 525668636,450-6001,9925212,23,https://www.hugoboss.com/store#lat=35.1705&lng=136.88192
"Meieki, Nakamura-ku, Nagoya-shi 1-1-4",Hugo Boss,Aichi,JP,"{'brand': ['boss', 'boss-green', 'boss-camel'], 'fascia': 'Shop', 'category': ['menswear'], 'edit_date': '20250228', 'lat_lon_source': 'website'}",35.17136,136.88267,BOSS Menswear Shop,"{'Shop': {'Mon': '10:00-20:00', 'Tue': '10:00-20:00', 'Wed': '10:00-20:00', 'Thu': '10:00-20:00', 'Fri': '10:00-20:00', 'Sat': '10:00-20:00', 'Sun': '10:00-20:00'}}",+81 525668109,450-6001,9923718,23,https://www.hugoboss.com/store#lat=35.17136&lng=136.88267
"Meieki, Nakamura-ku, Nagoya 1-1-4",Hugo Boss,Aichi,JP,"{'brand': ['boss'], 'fascia': 'Shop', 'category': ['womenswear'], 'edit_date': '20250228', 'lat_lon_source': 'website'}",35.17136,136.88267,BOSS Womenswear Shop,"{'Shop': {'Mon': '10:00-20:00', 'Tue': '10:00-20:00', 'Wed': '10:00-20:00', 'Thu': '10:00-20:00', 'Fri': '10:00-20:00', 'Sat': '10:00-20:00', 'Sun': '10:00-20:00'}}",+81 52-566-3864,450-6001,9927062,23,https://www.hugoboss.com/store#lat=35.17136&lng=136.88267
"Karasumadori, Shimogyo-ku, Kyoto-shi",Hugo Boss,Kyoto,JP,"{'brand': ['boss'], 'fascia': 'Shop', 'category': ['menswear'], 'edit_date': '20250228', 'lat_lon_source': 'website'}",34.98588,135.75757,BOSS Menswear Shop,"{'Shop': {'Mon': '10:00-19:00', 'Tue': '10:00-19:00', 'Wed': '10:00-19:00', 'Thu': '10:00-19:00', 'Fri': '10:00-19:00', 'Sat': '10:00-19:00', 'Sun': '10:00-19:00'}}",+81 753433343,600-8555,9923796,26,https://www.hugoboss.com/store#lat=34.98588&lng=135.75757
"Nishiirumacho, Shijodori Kawaramachi, Shimogyu-ku, Kyoto-shi 52",Hugo Boss,Kyoto,JP,"{'brand': ['boss', 'boss-camel'], 'fascia': 'Shop', 'category': ['menswear'], 'edit_date': '20250228', 'lat_lon_source': 'website'}",35.00316,135.7683,BOSS Menswear Shop,"{'Shop': {'Mon': '10:00-20:00', 'Tue': '10:00-20:00', 'Wed': '10:00-20:00', 'Thu': '10:00-20:00', 'Fri': '10:00-20:00', 'Sat': '10:00-20:00', 'Sun': '10:00-20:00'}}",+81 752527824,600-8520,9923782,26,https://www.hugoboss.com/store#lat=35.00316&lng=135.7683
"Nishiirumacho, Shijodori Kawaramach",Hugo Boss,Kyoto,JP,"{'brand': ['boss'], 'fascia': 'Shop', 'category': ['menswear'], 'edit_date': '20250228', 'lat_lon_source': 'website'}",35.00348,135.76888,BOSS Kids Shop,"{'Shop': {'Mon': '10:00-20:00', 'Tue': '10:00-20:00', 'Wed': '10:00-20:00', 'Thu': '10:00-20:00', 'Fri': '10:00-20:00', 'Sat': '10:00-20:00', 'Sun': '10:00-20:00'}}",,600-8520,9926340,26,https://www.hugoboss.com/store#lat=35.00348&lng=135.76888
"Takakura Nishiiri, Shijo dori, Shimogyo-ku 79",Hugo Boss,Kyoto,JP,"{'brand': ['boss'], 'fascia': 'Shop', 'category': ['menswear'], 'edit_date': '20250228', 'lat_lon_source': 'website'}",35.00337,135.76049,BOSS Menswear Shop,"{'Shop': {'Mon': '10:00-19:00', 'Tue': '10:00-19:00', 'Wed': '10:00-19:00', 'Thu': '10:00-19:00', 'Fri': '10:00-19:00', 'Sat': '10:00-19:00', 'Sun': '10:00-19:00'}}",+81 752236607,600-8511,9923448,26,https://www.hugoboss.com/store#lat=35.00337&lng=135.76049
"Kouzudai, Kita-ku, Kobe-shi 7-3",Hugo Boss,Hyogo,JP,"{'brand': ['boss'], 'fascia': 'Outlet', 'category': ['menswear', 'womenswear'], 'edit_date': '20250228', 'lat_lon_source': 'website'}",34.86109,135.19177,BOSS Outlet,"{'Outlet': {'Mon': '10:00-19:00', 'Tue': '10:00-19:00', 'Wed': '10:00-19:00', 'Thu': '10:00-19:00', 'Fri': '10:00-19:00', 'Sat': '10:00-19:00', 'Sun': '10:00-19:00'}}",+81 789860597,651-1515,9923785,28,https://www.hugoboss.com/store#lat=34.86109&lng=135.19177
"Tokigaoka, Toki-shi 1-2",Hugo Boss,Gifu,JP,"{'brand': ['boss'], 'fascia': 'Outlet', 'category': ['menswear'], 'edit_date': '20250228', 'lat_lon_source': 'website'}",35.34656,137.18253,BOSS Outlet,"{'Outlet': {'Mon': '10:00-19:00', 'Tue': '10:00-19:00', 'Wed': '10:00-19:00', 'Thu': '10:00-19:00', 'Fri': '10:00-19:00', 'Sat': '10:00-19:00', 'Sun': '10:00-19:00'}}",+81 5036469127,509-5127,9926197,21,https://www.hugoboss.com/store#lat=35.34656&lng=137.18253
"Uchimachi, Takamatsu-shi 7-1",Hugo Boss,Kagawa,JP,"{'brand': ['boss'], 'fascia': 'Shop', 'category': ['menswear'], 'edit_date': '20250228', 'lat_lon_source': 'website'}",34.34647,134.05105,BOSS Menswear Shop,"{'Shop': {'Mon': '10:00-19:00', 'Tue': '10:00-19:00', 'Wed': '10:00-19:00', 'Thu': '10:00-19:00', 'Fri': '10:00-19:00', 'Sat': '10:00-19:00', 'Sun': '10:00-19:00'}}",+81 878517751,760-8639,9923783,39,https://www.hugoboss.com/store#lat=34.34647&lng=134.05105
"Minamimachi, Himeji-shi 1",Hugo Boss,Hyogo,JP,"{'brand': ['boss'], 'fascia': 'Shop', 'category': ['menswear'], 'edit_date': '20250228', 'lat_lon_source': 'website'}",34.82866,134.68975,BOSS Menswear Shop,"{'Shop': {'Mon': '10:00-19:30', 'Tue': '10:00-19:30', 'Wed': '10:00-19:30', 'Thu': '10:00-19:30', 'Fri': '10:00-19:30', 'Sat': '10:00-19:30', 'Sun': '10:00-19:30'}}",+81 5036127385,670-0912,9925234,28,https://www.hugoboss.com/store#lat=34.82866&lng=134.68975
"Fukasawa, Gotemba-shi 1312",Hugo Boss,Shizuoka,JP,"{'brand': ['boss'], 'fascia': 'Outlet', 'category': ['menswear'], 'edit_date': '20250228', 'lat_lon_source': 'website'}",35.30754,138.96462,"BOSS Outlet, Shizuoka, Gotemba","{'Outlet': {'Mon': '10:00-19:00', 'Tue': '10:00-19:00', 'Wed': '10:00-19:00', 'Thu': '10:00-19:00', 'Fri': '10:00-19:00', 'Sat': '10:00-19:00', 'Sun': '10:00-19:00'}}",+81 550701508,412-0023,9923704,22,https://www.hugoboss.com/store#lat=35.30754&lng=138.96462
"Omotecho , Kita-ku  Okayama-shi 2-1-1",Hugo Boss,Okayama,JP,"{'brand': ['boss'], 'fascia': 'Shop', 'category': ['menswear'], 'edit_date': '20250228', 'lat_lon_source': 'website'}",34.66183,133.92888,BOSS Menswear Shop,"{'Shop': {'Mon': '10:00-19:30', 'Tue': '10:00-19:30', 'Wed': '10:00-19:30', 'Thu': '10:00-19:30', 'Fri': '10:00-19:30', 'Sat': '10:00-19:30', 'Sun': '10:00-19:30'}}",+81 862268105,700-8625,9923771,33,https://www.hugoboss.com/store#lat=34.66183&lng=133.92888
"Kotobuki-cho, Kurashiki-shi 12-3",Hugo Boss,Okayama,JP,"{'brand': ['boss'], 'fascia': 'Outlet', 'category': ['menswear'], 'edit_date': '20250228', 'lat_lon_source': 'website'}",34.60373,133.76206,BOSS Outlet,"{'Outlet': {'Mon': '10:00-19:00', 'Tue': '10:00-19:00', 'Wed': '10:00-19:00', 'Thu': '10:00-19:00', 'Fri': '10:00-19:00', 'Sat': '10:00-20:00', 'Sun': '10:00-20:00'}}",+81 864231600,710-0813,9925299,33,https://www.hugoboss.com/store#lat=34.60373&lng=133.76206
"Tsujido Shindai, Fujisawa-shi 1-3-1",Hugo Boss,Kanagawa,JP,"{'brand': ['boss-orange'], 'fascia': 'Store', 'category': ['menswear'], 'edit_date': '20250228', 'lat_lon_source': 'website'}",35.34082,139.44603,BOSS Store / Casual,Not Available,+81 466867216,251-0041,9929104,14,https://www.hugoboss.com/store#lat=35.34082&lng=139.44603
"Shiraho, Kanazawa-ku, Yokohama-shi 5-2",Hugo Boss,Kanagawa,JP,"{'brand': ['boss'], 'fascia': 'Outlet', 'category': ['menswear'], 'edit_date': '20250228', 'lat_lon_source': 'website'}",35.37977,139.64622,BOSS Outlet,"{'Outlet': {'Mon': '10:00-20:00', 'Tue': '10:00-20:00', 'Wed': '10:00-20:00', 'Thu': '10:00-20:00', 'Fri': '10:00-20:00', 'Sat': '10:00-20:00', 'Sun': '10:00-20:00'}}",+81 5038510302,236-0007,9925348,14,https://www.hugoboss.com/store#lat=35.37977&lng=139.64622
"Minato-machi, Matsuyama-shi 5-1-1",Hugo Boss,Ehime,JP,"{'brand': ['boss', 'boss-green'], 'fascia': 'Shop', 'category': ['menswear'], 'edit_date': '20250228', 'lat_lon_source': 'website'}",33.83571,132.76317,BOSS Menswear Shop,"{'Shop': {'Mon': '10:00-19:00', 'Tue': '10:00-19:00', 'Wed': '10:00-19:00', 'Thu': '10:00-19:00', 'Fri': '10:00-19:00', 'Sat': '10:00-19:00', 'Sun': '10:00-19:00'}}",+81 899482840,790-8587,9923720,38,https://www.hugoboss.com/store#lat=33.83571&lng=132.76317
"Minamisaiwai, Nishi-ku, Yokohama-shi 1-6-31",Hugo Boss,Kanagawa,JP,"{'brand': ['boss', 'boss-camel'], 'fascia': 'Shop', 'category': ['menswear'], 'edit_date': '20250228', 'lat_lon_source': 'website'}",35.46578,139.6206,BOSS Menswear Shop,"{'Shop': {'Mon': '10:00-20:00', 'Tue': '10:00-20:00', 'Wed': '10:00-20:00', 'Thu': '10:00-20:00', 'Fri': '10:00-20:00', 'Sat': '10:00-20:00', 'Sun': '10:00-20:00'}}",+81 455348230,220-8601,9923447,14,https://www.hugoboss.com/store#lat=35.46578&lng=139.6206
"Takashima, Nishi-ku, Yokohama-shi 2-18-1",Hugo Boss,Kanagawa,JP,"{'brand': ['boss', 'boss-green'], 'fascia': 'Shop', 'category': ['menswear'], 'edit_date': '20250228', 'lat_lon_source': 'website'}",35.46454,139.62353,BOSS Menswear Shop / Athleisure,"{'Shop': {'Mon': '10:00-20:00', 'Tue': '10:00-20:00', 'Wed': '10:00-20:00', 'Thu': '10:00-20:00', 'Fri': '10:00-20:00', 'Sat': '10:00-20:00', 'Sun': '10:00-20:00'}}",+81 454655390,220-8510,9925315,14,https://www.hugoboss.com/store#lat=35.46454&lng=139.62353
"Takashima, Nishi-ku, Yokohama-shi 2-18-1",Hugo Boss,Kanagawa,JP,"{'brand': ['boss', 'boss-camel'], 'fascia': 'Shop', 'category': ['menswear'], 'edit_date': '20250228', 'lat_lon_source': 'website'}",35.46571,139.6251,BOSS Menswear Shop,"{'Shop': {'Mon': '10:00-20:00', 'Tue': '10:00-20:00', 'Wed': '10:00-20:00', 'Thu': '10:00-20:00', 'Fri': '10:00-20:00', 'Sat': '10:00-20:00', 'Sun': '10:00-20:00'}}",+81 454401128,220-8510,9923768,14,https://www.hugoboss.com/store#lat=35.46571&lng=139.6251
"Kaneda-higashi, Kisarazu-shi 3-1-1",Hugo Boss,Chiba,JP,"{'brand': ['boss'], 'fascia': 'Outlet', 'category': ['menswear', 'womenswear'], 'edit_date': '20250228', 'lat_lon_source': 'website'}",35.43404,139.92394,BOSS Outlet,"{'Outlet': {'Mon': '10:00-20:00', 'Tue': '10:00-20:00', 'Wed': '10:00-20:00', 'Thu': '10:00-20:00', 'Fri': '10:00-20:00', 'Sat': '10:00-20:00', 'Sun': '10:00-20:00'}}",+81 438538232,292-0009,9929696,12,https://www.hugoboss.com/store#lat=35.43404&lng=139.92394
"Tamagawa, Setagaya-ku 3-17-1",Hugo Boss,Tokyo,JP,"{'brand': ['boss'], 'fascia': 'Shop', 'category': ['menswear'], 'edit_date': '20250228', 'lat_lon_source': 'website'}",35.61396,139.62687,BOSS Menswear Shop,"{'Shop': {'Mon': '10:00-20:00', 'Tue': '10:00-20:00', 'Wed': '10:00-20:00', 'Thu': '10:00-20:00', 'Fri': '10:00-20:00', 'Sat': '10:00-20:00', 'Sun': '10:00-20:00'}}",+81 337073329,158-0094,9923757,13,https://www.hugoboss.com/store#lat=35.61396&lng=139.62687
"2F, Izumi-cho, Tachikawa-shi 935-1",Hugo Boss,Tokyo,JP,"{'brand': None, 'fascia': 'Shop', 'category': None, 'edit_date': '20250228', 'lat_lon_source': 'website'}",35.71135,139.42081,BOSS Shop,"{'Shop': {'Mon': '10:00-20:00', 'Tue': '10:00-20:00', 'Wed': '10:00-20:00', 'Thu': '10:00-20:00', 'Fri': '10:00-20:00', 'Sat': '10:00-21:00', 'Sun': '10:00-21:00'}}",+81 5037734983,190-0015,9925631,13,https://www.hugoboss.com/store#lat=35.71135&lng=139.42081
"Minami-Aoyama, Minato-ku 5-2-1",Hugo Boss,Tokyo,JP,"{'brand': None, 'fascia': 'Shop', 'category': None, 'edit_date': '20250228', 'lat_lon_source': 'website'}",35.66437,139.71379,LINE BOSS Official Account - Marketing,Not Available,,107-0062,9921362,01,https://www.hugoboss.com/store#lat=35.66437&lng=139.71379
"Jingumae, Shibuya-ku 5-1-3",Hugo Boss,Tokyo,JP,"{'brand': ['boss'], 'fascia': 'Store', 'category': ['menswear'], 'edit_date': '20250228', 'lat_lon_source': 'website'}",35.66598,139.71034,BOSS Store,"{'Store': {'Mon': '11:00-20:00', 'Tue': '11:00-20:00', 'Wed': '11:00-20:00', 'Thu': '11:00-20:00', 'Fri': '11:00-20:00', 'Sat': '11:00-20:00', 'Sun': '11:00-20:00'}}",+81 364189365,150-0001,9929493,13,https://www.hugoboss.com/store#lat=35.66598&lng=139.71034
"Roppongi, Minato-ku 6-15-1",Hugo Boss,Tokyo,JP,"{'brand': ['boss', 'boss-green', 'boss-camel'], 'fascia': 'Store', 'category': ['menswear', 'womenswear'], 'edit_date': '20250228', 'lat_lon_source': 'website'}",35.65928,139.72803,BOSS Store,"{'Store': {'Mon': '11:00-20:00', 'Tue': '11:00-20:00', 'Wed': '11:00-20:00', 'Thu': '11:00-20:00', 'Fri': '11:00-20:00', 'Sat': '11:00-21:00', 'Sun': '11:00-20:00'}}",+81 357869806,106-0032,9923703,13,https://www.hugoboss.com/store#lat=35.65928&lng=139.72803
Miyadera Iruma City 3169-1,Hugo Boss,Saitama,JP,"{'brand': ['boss'], 'fascia': 'Outlet', 'category': ['menswear', 'womenswear'], 'edit_date': '20250228', 'lat_lon_source': 'website'}",35.81033,139.37942,BOSS Outlet,"{'Outlet': {'Mon': '10:00-20:00', 'Tue': '10:00-20:00', 'Wed': '10:00-20:00', 'Thu': '10:00-20:00', 'Fri': '10:00-20:00', 'Sat': '10:00-20:00', 'Sun': '10:00-20:00'}}",+81429026301,358-8515,9923440,11,https://www.hugoboss.com/store#lat=35.81033&lng=139.37942
Sendagaya Shibuya-ku 5-24-2,Hugo Boss,Tokyo,JP,"{'brand': ['boss'], 'fascia': 'Shop', 'category': ['menswear', 'womenswear'], 'edit_date': '20250228', 'lat_lon_source': 'website'}",35.68772,139.70215,BOSS Kids Shop,"{'Shop': {'Mon': '10:30-19:30', 'Tue': '10:30-19:30', 'Wed': '10:30-19:30', 'Thu': '10:30-19:30', 'Fri': '10:30-19:30', 'Sat': '10:30-19:30', 'Sun': '10:30-19:30'}}",+81 353611981,151-8580,9925636,13,https://www.hugoboss.com/store#lat=35.68772&lng=139.70215
"Nishi-Shinjuku, Shinjuku-ku 1-1-3",Hugo Boss,Tokyo,JP,"{'brand': ['boss'], 'fascia': 'Shop', 'category': ['womenswear'], 'edit_date': '20250228', 'lat_lon_source': 'website'}",35.69133,139.6996,BOSS Womenswear Shop,Not Available,+81 359905415,160-0023,9923468,13,https://www.hugoboss.com/store#lat=35.69133&lng=139.6996
"Shinjuku, Shinjuku-ku 3-14-1",Hugo Boss,Tokyo,JP,"{'brand': ['boss', 'boss-camel'], 'fascia': 'Shop', 'category': ['menswear'], 'edit_date': '20250228', 'lat_lon_source': 'website'}",35.69164,139.70462,BOSS Menswear Shop,"{'Shop': {'Mon': '10:00-20:00', 'Tue': '10:00-20:00', 'Wed': '10:00-20:00', 'Thu': '10:00-20:00', 'Fri': '10:00-20:00', 'Sat': '10:00-20:00', 'Sun': '10:00-20:00'}}",+81363806581,160-0022,9923755,13,https://www.hugoboss.com/store#lat=35.69164&lng=139.70462
"Sendagaya, Shibuya-ku 5-24-2",Hugo Boss,Tokyo,JP,"{'brand': ['boss', 'boss-green', 'boss-camel'], 'fascia': 'Shop', 'category': ['menswear', 'womenswear'], 'edit_date': '20250228', 'lat_lon_source': 'website'}",35.69788,139.70226,BOSS Menswear Shop,"{'Shop': {'Mon': '10:30-19:30', 'Tue': '10:30-19:30', 'Wed': '10:30-19:30', 'Thu': '10:30-19:30', 'Fri': '10:30-19:30', 'Sat': '10:30-19:30', 'Sun': '10:30-19:30'}}",+81 333534773,151-8580,9923702,13,https://www.hugoboss.com/store#lat=35.69788&lng=139.70226
"Ginza, Chuo-ku 5-2-1",Hugo Boss,Tokyo,JP,"{'brand': ['boss', 'boss-green', 'boss-camel'], 'fascia': 'Store', 'category': ['menswear', 'womenswear', 'kidswear'], 'edit_date': '20250228', 'lat_lon_source': 'website'}",35.67224,139.76241,BOSS Store,"{'Store': {'Mon': '11:00-21:00', 'Tue': '11:00-21:00', 'Wed': '11:00-21:00', 'Thu': '11:00-21:00', 'Fri': '11:00-21:00', 'Sat': '11:00-21:00', 'Sun': '11:00-21:00'}}",,104-0061,9924735,13,https://www.hugoboss.com/store#lat=35.67224&lng=139.76241
"Ginza, Chuo-ku 4-6-16",Hugo Boss,Tokyo,JP,"{'brand': ['boss'], 'fascia': 'Shop', 'category': ['menswear'], 'edit_date': '20250228', 'lat_lon_source': 'website'}",35.67132,139.76584,BOSS Menswear Shop,"{'Shop': {'Mon': '10:00-20:00', 'Tue': '10:00-20:00', 'Wed': '10:00-20:00', 'Thu': '10:00-20:00', 'Fri': '10:00-20:00', 'Sat': '10:00-20:00', 'Sun': '10:00-20:00'}}",+81 362630781,104-8212,9924739,13,https://www.hugoboss.com/store#lat=35.67132&lng=139.76584
"Yurakucho, Chiyoda-ku 2-5-1",Hugo Boss,Tokyo,JP,"{'brand': ['boss'], 'fascia': 'Shop', 'category': ['menswear'], 'edit_date': '20250228', 'lat_lon_source': 'website'}",35.67382,139.76242,BOSS Menswear Shop,"{'Shop': {'Mon': '12:00-20:00', 'Tue': '12:00-20:00', 'Wed': '12:00-20:00', 'Thu': '12:00-20:00', 'Fri': '12:00-20:00', 'Sat': '11:00-20:00', 'Sun': '11:00-20:00'}}",+81 362525357,100-8488,9923730,13,https://www.hugoboss.com/store#lat=35.67382&lng=139.76242
"Ginza, Chuo-ku 3-6-1",Hugo Boss,Tokyo,JP,"{'brand': ['boss'], 'fascia': 'Shop', 'category': ['menswear'], 'edit_date': '20250228', 'lat_lon_source': 'website'}",35.67235,139.76666,BOSS Menswear Shop,"{'Shop': {'Mon': '11:00-20:00', 'Tue': '11:00-20:00', 'Wed': '11:00-20:00', 'Thu': '11:00-20:00', 'Fri': '11:00-20:00', 'Sat': '11:00-20:00', 'Sun': '11:00-19:30'}}",+81352506516,104-8130,9923713,13,https://www.hugoboss.com/store#lat=35.67235&lng=139.76666
"Ginza, Chuo-ku 3-6-1",Hugo Boss,Tokyo,JP,"{'brand': ['boss'], 'fascia': 'Shop', 'category': ['womenswear'], 'edit_date': '20250228', 'lat_lon_source': 'website'}",35.67235,139.76666,BOSS Womenswear Shop,"{'Shop': {'Mon': '11:00-20:00', 'Tue': '11:00-20:00', 'Wed': '11:00-20:00', 'Thu': '11:00-20:00', 'Fri': '11:00-20:00', 'Sat': '11:00-20:00', 'Sun': '11:00-19:30'}}",+81335648097,104-8130,9923751,13,https://www.hugoboss.com/store#lat=35.67235&lng=139.76666
"Marunouchi, Chiyoda-ku 1-9-1",Hugo Boss,Tokyo,JP,"{'brand': ['boss', 'boss-green'], 'fascia': 'Shop', 'category': ['menswear'], 'edit_date': '20250228', 'lat_lon_source': 'website'}",35.68296,139.7684,BOSS Menswear Shop,"{'Shop': {'Mon': '10:00-20:00', 'Tue': '10:00-20:00', 'Wed': '10:00-20:00', 'Thu': '10:00-20:00', 'Fri': '10:00-20:00', 'Sat': '10:00-20:00', 'Sun': '10:00-20:00'}}",+81 332012620,100-0005,9923758,13,https://www.hugoboss.com/store#lat=35.68296&lng=139.7684
"Nihonbashi, Chuo-ku 2-4-1",Hugo Boss,Tokyo,JP,"{'brand': ['boss'], 'fascia': 'Shop', 'category': ['womenswear'], 'edit_date': '20250228', 'lat_lon_source': 'website'}",35.68074,139.77369,BOSS Womenswear Shop,"{'Shop': {'Mon': '10:30-19:30', 'Tue': '10:30-19:30', 'Wed': '10:30-19:30', 'Thu': '10:30-19:30', 'Fri': '10:30-19:30', 'Sat': '10:30-19:30', 'Sun': '10:30-19:30'}}",+81 332315218,103-8265,9923734,13,https://www.hugoboss.com/store#lat=35.68074&lng=139.77369
"Nihonbashi, Chuo-ku 2-4-1",Hugo Boss,Tokyo,JP,"{'brand': ['boss'], 'fascia': 'Shop', 'category': ['menswear'], 'edit_date': '20250228', 'lat_lon_source': 'website'}",35.68147,139.77383,BOSS Menswear Shop,"{'Shop': {'Mon': '10:30-19:30', 'Tue': '10:30-19:30', 'Wed': '10:30-19:30', 'Thu': '10:30-19:30', 'Fri': '10:30-19:30', 'Sat': '10:30-19:30', 'Sun': '10:30-19:30'}}",+81332464289,103-8265,9923716,13,https://www.hugoboss.com/store#lat=35.68147&lng=139.77383
"Nihonbashi Muromachi, Chuo-ku 1-4-1",Hugo Boss,Tokyo,JP,"{'brand': ['boss'], 'fascia': 'Shop', 'category': ['womenswear'], 'edit_date': '20250228', 'lat_lon_source': 'website'}",35.68528,139.77333,BOSS Womenswear Shop,"{'Shop': {'Mon': '10:00-19:00', 'Tue': '10:00-19:00', 'Wed': '10:00-19:00', 'Thu': '10:00-19:00', 'Fri': '10:00-19:00', 'Sat': '10:00-19:00', 'Sun': '10:00-19:00'}}",+81 332707740,103-8011,9925311,13,https://www.hugoboss.com/store#lat=35.68528&lng=139.77333
"Nihonbashi Muromachi,  Chuo-ku 1-4-1",Hugo Boss,Tokyo,JP,"{'brand': ['boss', 'boss-green', 'boss-camel'], 'fascia': 'Shop', 'category': ['menswear'], 'edit_date': '20250228', 'lat_lon_source': 'website'}",35.68569,139.77313,BOSS Menswear Shop,"{'Shop': {'Mon': '10:00-19:00', 'Tue': '10:00-19:00', 'Wed': '10:00-19:00', 'Thu': '10:00-19:00', 'Fri': '10:00-19:00', 'Sat': '10:00-19:00', 'Sun': '10:00-19:00'}}",+81 332422339,103-8011,9923762,13,https://www.hugoboss.com/store#lat=35.68569&lng=139.77313
"Nihonbashi Muromachi,  Chuo-ku 1-4-1",Hugo Boss,Tokyo,JP,"{'brand': ['boss'], 'fascia': 'Shop', 'category': ['menswear', 'womenswear'], 'edit_date': '20250228', 'lat_lon_source': 'website'}",35.68564,139.77358,BOSS Kids Shop,"{'Shop': {'Mon': '10:00-19:00', 'Tue': '10:00-19:00', 'Wed': '10:00-19:00', 'Thu': '10:00-19:00', 'Fri': '10:00-19:00', 'Sat': '10:00-19:00', 'Sun': '10:00-19:00'}}",+815035292450,103-8001,9926342,13,https://www.hugoboss.com/store#lat=35.68564&lng=139.77358
"Minami Ikebukuro, Toshima-ku 1-28-1",Hugo Boss,Tokyo,JP,"{'brand': None, 'fascia': 'Shop', 'category': None, 'edit_date': '20250228', 'lat_lon_source': 'website'}",35.72415,139.71059,BOSS Kids Shop,"{'Shop': {'Mon': '10:00-21:00', 'Tue': '10:00-21:00', 'Wed': '10:00-21:00', 'Thu': '10:00-21:00', 'Fri': '10:00-21:00', 'Sat': '10:00-21:00', 'Sun': '10:00-20:00'}}",+81 5036467140,171-0022,9925635,13,https://www.hugoboss.com/store#lat=35.72415&lng=139.71059
"Minami Ikebukuro, Toshima-ku 1-28-1",Hugo Boss,Tokyo,JP,"{'brand': ['boss', 'boss-green'], 'fascia': 'Shop', 'category': ['menswear'], 'edit_date': '20250228', 'lat_lon_source': 'website'}",35.72874,139.71124,BOSS Menswear Shop,"{'Shop': {'Mon': '10:00-20:00', 'Tue': '10:00-20:00', 'Wed': '10:00-20:00', 'Thu': '10:00-20:00', 'Fri': '10:00-20:00', 'Sat': '10:00-20:00', 'Sun': '10:00-20:00'}}",+81 339805262,171-0022,9923714,13,https://www.hugoboss.com/store#lat=35.72874&lng=139.71124
"Yamamuro, Fujimi-shi, 2110-02 1-1313",Hugo Boss,Saitama,JP,"{'brand': ['boss'], 'fascia': 'Shop', 'category': ['menswear', 'womenswear'], 'edit_date': '20250228', 'lat_lon_source': 'website'}",35.85978,139.54858,BOSS Shop,"{'Shop': {'Mon': '10:00-20:00', 'Tue': '10:00-20:00', 'Wed': '10:00-20:00', 'Thu': '10:00-20:00', 'Fri': '10:00-20:00', 'Sat': '10:00-21:00', 'Sun': '10:00-21:00'}}",,354-8560,9925211,11,https://www.hugoboss.com/store#lat=35.85978&lng=139.54858
"Hibino, Mihama-ku, Chiba-shi 2-6-1",Hugo Boss,Chiba,JP,"{'brand': ['boss'], 'fascia': 'Outlet', 'category': ['menswear'], 'edit_date': '20250228', 'lat_lon_source': 'website'}",35.64688,140.04153,BOSS Outlet,"{'Outlet': {'Mon': '10:00-20:00', 'Tue': '10:00-20:00', 'Wed': '10:00-20:00', 'Thu': '10:00-20:00', 'Fri': '10:00-20:00', 'Sat': '10:00-20:00', 'Sun': '10:00-20:00'}}",+81 434457688,261-0021,9925359,12,https://www.hugoboss.com/store#lat=35.64688&lng=140.04153
"Takasago, Urawa-ku, Saitama-shi 1-15-1",Hugo Boss,Saitama City,JP,"{'brand': ['boss'], 'fascia': 'Shop', 'category': ['menswear'], 'edit_date': '20250228', 'lat_lon_source': 'website'}",35.85922,139.65719,BOSS Menswear Shop,"{'Shop': {'Mon': '10:00-19:00', 'Tue': '10:00-19:00', 'Wed': '10:00-19:00', 'Thu': '10:00-19:00', 'Fri': '10:00-19:00', 'Sat': '10:00-19:00', 'Sun': '10:00-19:00'}}",+81 488328106,336-0011,9923775,11,https://www.hugoboss.com/store#lat=35.85922&lng=139.65719
"3-4-1 Tsuruma, Machida-shi 3-4-1",Hugo Boss,Tokyo,JP,"{'brand': ['boss', 'boss-camel'], 'fascia': 'Outlet', 'category': ['menswear'], 'edit_date': '20250228', 'lat_lon_source': 'website'}",35.88036,139.82512,BOSS Outlet,"{'Outlet': {'Mon': '10:00-20:00', 'Tue': '10:00-20:00', 'Wed': '10:00-20:00', 'Thu': '10:00-20:00', 'Fri': '10:00-20:00', 'Sat': '10:00-20:00', 'Sun': '10:00-20:00'}}",+81 5033549620,194-8589,9925360,11,https://www.hugoboss.com/store#lat=35.88036&lng=139.82512
Hiroshima-shi 6-26,Hugo Boss,Hiroshima,JP,"{'brand': ['boss'], 'fascia': 'Shop', 'category': ['menswear'], 'edit_date': '20250228', 'lat_lon_source': 'website'}",34.41026,132.48139,BOSS Menswear Shop,"{'Shop': {'Mon': '10:30-19:30', 'Tue': '10:30-19:30', 'Wed': '10:30-19:30', 'Thu': '10:30-19:30', 'Fri': '10:30-19:30', 'Sat': '10:30-19:30', 'Sun': '10:30-19:30'}}",+81 82-246-6512,730-8548,9924740,34,https://www.hugoboss.com/store#lat=34.41026&lng=132.48139
"Laketown, Koshigaya-shi 4-1-1",Hugo Boss,Saitama,JP,"{'brand': ['boss'], 'fascia': 'Outlet', 'category': ['menswear'], 'edit_date': '20250228', 'lat_lon_source': 'website'}",35.88243,139.82856,BOSS Outlet,"{'Outlet': {'Mon': '10:00-20:00', 'Tue': '10:00-20:00', 'Wed': '10:00-20:00', 'Thu': '10:00-20:00', 'Fri': '10:00-20:00', 'Sat': '10:00-20:00', 'Sun': '10:00-20:00'}}",+815035285780,343-0828,9926593,11,https://www.hugoboss.com/store#lat=35.88243&lng=139.82856
Kuroda Fukaya-shi 169,Hugo Boss,Saitama,JP,"{'brand': ['boss'], 'fascia': 'Outlet', 'category': ['menswear', 'womenswear'], 'edit_date': '20250228', 'lat_lon_source': 'website'}",36.13446,139.25018,BOSS Outlet,"{'Outlet': {'Mon': '10:00-19:00', 'Tue': '10:00-19:00', 'Wed': '10:00-19:00', 'Thu': '10:00-19:00', 'Fri': '10:00-19:00', 'Sat': '10:00-19:00', 'Sun': '10:00-19:00'}}",+81 5036137575,369-1244,9925210,11,https://www.hugoboss.com/store#lat=36.13446&lng=139.25018
"Iizumi, Shisui-machi, Inba-gun 2-4-1",Hugo Boss,Chiba,JP,"{'brand': ['boss'], 'fascia': 'Outlet', 'category': ['menswear'], 'edit_date': '20250228', 'lat_lon_source': 'website'}",35.71399,140.29474,BOSS Outlet,"{'Outlet': {'Mon': '10:00-19:00', 'Tue': '10:00-19:00', 'Wed': '10:00-19:00', 'Thu': '10:00-19:00', 'Fri': '10:00-19:00', 'Sat': '10:00-19:00', 'Sun': '10:00-19:00'}}",+81 432358659,285-0912,9925361,12,https://www.hugoboss.com/store#lat=35.71399&lng=140.29474
"Karuizawa, Karuizawa-machi, Kita Saku-Gun #NE-12",Hugo Boss,Nagano,JP,"{'brand': ['boss'], 'fascia': 'Outlet', 'category': ['menswear', 'womenswear'], 'edit_date': '20250228', 'lat_lon_source': 'website'}",36.37418,138.62886,BOSS Outlet,"{'Outlet': {'Mon': '10:00-19:00', 'Tue': '10:00-19:00', 'Wed': '10:00-19:00', 'Thu': '10:00-19:00', 'Fri': '10:00-19:00', 'Sat': '10:00-19:00', 'Sun': '10:00-19:00'}}",+815036468173,389-0102,9923740,20,https://www.hugoboss.com/store#lat=36.37418&lng=138.62886
"Korinbo, Kanazawa-shi 1-1-1",Hugo Boss,Ishikawa,JP,"{'brand': ['boss'], 'fascia': 'Shop', 'category': ['menswear'], 'edit_date': '20250228', 'lat_lon_source': 'website'}",36.56317,136.65413,BOSS Menswear Shop,"{'Shop': {'Mon': '10:00-19:00', 'Tue': '10:00-19:00', 'Wed': '10:00-19:00', 'Thu': '10:00-19:00', 'Fri': '10:00-19:00', 'Sat': '10:00-19:00', 'Sun': '10:00-19:00'}}",+81762201524,920-8550,9923729,17,https://www.hugoboss.com/store#lat=36.56317&lng=136.65413
"Koenacho, Sano-shi 2058",Hugo Boss,Tochigi,JP,"{'brand': ['boss'], 'fascia': 'Outlet', 'category': ['menswear', 'womenswear'], 'edit_date': '20250228', 'lat_lon_source': 'website'}",36.2924,139.60443,BOSS Outlet,"{'Outlet': {'Mon': '10:00-19:00', 'Tue': '10:00-19:00', 'Wed': '10:00-19:00', 'Thu': '10:00-19:00', 'Fri': '10:00-19:00', 'Sat': '10:00-19:00', 'Sun': '10:00-19:00'}}",+81 283258551,327-0822,9923318,09,https://www.hugoboss.com/store#lat=36.2924&lng=139.60443
"Tetori honcho, Chuo-ku 6-1",Hugo Boss,Kumamoto,JP,"{'brand': ['boss'], 'fascia': 'Shop', 'category': ['menswear'], 'edit_date': '20250228', 'lat_lon_source': 'website'}",32.7989,130.70529,BOSS Menswear Shop,"{'Shop': {'Mon': '10:00-19:00', 'Tue': '10:00-19:00', 'Wed': '10:00-19:00', 'Thu': '10:00-19:00', 'Fri': '10:00-19:30', 'Sat': '10:00-19:30', 'Sun': '10:00-19:00'}}",+81 963225330,860-8586,9923724,43,https://www.hugoboss.com/store#lat=32.7989&lng=130.70529
"Senba-machi, Kokurakita-ku, Kitakyushu-shi 1-1",Hugo Boss,"Kitakyushu City, Fukuoka",JP,"{'brand': ['boss'], 'fascia': 'Shop', 'category': ['menswear'], 'edit_date': '20250228', 'lat_lon_source': 'website'}",33.88444,130.87826,BOSS Menswear Shop,"{'Shop': {'Mon': '10:00-19:00', 'Tue': '10:00-19:00', 'Wed': '10:00-19:00', 'Thu': '10:00-19:00', 'Fri': '10:00-19:00', 'Sat': '10:00-19:00', 'Sun': '10:00-19:00'}}",+81 935222518,802-8511,9923619,40,https://www.hugoboss.com/store#lat=33.88444&lng=130.87826
"Higashida, Yahata Higashi-ku, Kita Kyushu-shi 4-1-101",Hugo Boss,Fukuoka,JP,"{'brand': ['boss'], 'fascia': 'Outlet', 'category': ['menswear'], 'edit_date': '20250228', 'lat_lon_source': 'website'}",33.87389,130.81147,BOSS Outlet,"{'Outlet': {'Mon': '10:00-20:00', 'Tue': '10:00-20:00', 'Wed': '10:00-20:00', 'Thu': '10:00-20:00', 'Fri': '10:00-20:00', 'Sat': '10:00-20:00', 'Sun': '10:00-20:00'}}",+81 5036469131,805-0071,9925275,40,https://www.hugoboss.com/store#lat=33.87389&lng=130.81147
"Shionosaki, Nasu Shiobara-shi 184-7",Hugo Boss,Tochigi,JP,"{'brand': ['boss'], 'fascia': 'Outlet', 'category': ['menswear'], 'edit_date': '20250228', 'lat_lon_source': 'website'}",36.96583,139.99112,BOSS Outlet,"{'Outlet': {'Mon': '10:00-19:00', 'Tue': '10:00-19:00', 'Wed': '10:00-19:00', 'Thu': '10:00-19:00', 'Fri': '10:00-19:00', 'Sat': '10:00-19:00', 'Sun': '10:00-19:00'}}",+81 5035290928,329-3122,9925651,09,https://www.hugoboss.com/store#lat=36.96583&lng=139.99112
"Yayoigaoka, Tosu-shi 8-1",Hugo Boss,Saga,JP,"{'brand': ['boss'], 'fascia': 'Outlet', 'category': ['menswear', 'womenswear'], 'edit_date': '20250228', 'lat_lon_source': 'website'}",33.4065,130.51165,BOSS Outlet,"{'Outlet': {'Mon': '10:00-19:00', 'Tue': '10:00-19:00', 'Wed': '10:00-19:00', 'Thu': '10:00-19:00', 'Fri': '10:00-19:00', 'Sat': '10:00-19:00', 'Sun': '10:00-19:00'}}",+81 942857608,841-0005,9925493,41,https://www.hugoboss.com/store#lat=33.4065&lng=130.51165
"Hakataeki Chu-ogai, Hakata-ku, Fukuoka-shi 1-1",Hugo Boss,Fukuoka,JP,"{'brand': ['boss', 'boss-green'], 'fascia': 'Shop', 'category': ['menswear'], 'edit_date': '20250228', 'lat_lon_source': 'website'}",33.58997,130.42064,BOSS Menswear Shop,"{'Shop': {'Mon': '10:00-20:00', 'Tue': '10:00-20:00', 'Wed': '10:00-20:00', 'Thu': '10:00-20:00', 'Fri': '10:00-20:00', 'Sat': '10:00-20:00', 'Sun': '10:00-20:00'}}",+81 5036127382,812-0012,9921816,40,https://www.hugoboss.com/store#lat=33.58997&lng=130.42064
"Tenjin, Chuo-ku, Fukuoka-shi 2-5-35",Hugo Boss,Fukuoka,JP,"{'brand': ['boss', 'boss-camel'], 'fascia': 'Shop', 'category': ['menswear'], 'edit_date': '20250228', 'lat_lon_source': 'website'}",33.58892,130.39745,BOSS Menswear Shop,"{'Shop': {'Mon': '10:00-20:00', 'Tue': '10:00-20:00', 'Wed': '10:00-20:00', 'Thu': '10:00-20:00', 'Fri': '10:00-20:00', 'Sat': '10:00-20:00', 'Sun': '10:00-20:00'}}",+81 927712877,810-8680,9923773,40,https://www.hugoboss.com/store#lat=33.58892&lng=130.39745
"Yachiyo, Chuo-ku 1-6-1",Hugo Boss,Niigata City,JP,"{'brand': ['boss'], 'fascia': 'Shop', 'category': ['menswear'], 'edit_date': '20250228', 'lat_lon_source': 'website'}",37.91574,139.05529,BOSS Menswear Shop,"{'Shop': {'Mon': '10:00-19:00', 'Tue': '10:00-19:00', 'Wed': '10:00-19:00', 'Thu': '10:00-19:00', 'Fri': '10:00-19:00', 'Sat': '10:00-19:00', 'Sun': '10:00-19:00'}}",,950-0909,9929485,15,https://www.hugoboss.com/store#lat=37.91574&lng=139.05529
"Ichibancho, Aoba-ku, Sendai-shi 4-8-15",Hugo Boss,Miyagi,JP,"{'brand': ['boss'], 'fascia': 'Shop', 'category': ['menswear'], 'edit_date': '20250228', 'lat_lon_source': 'website'}",38.2652,140.87103,BOSS Menswear Shop,"{'Shop': {'Mon': '10:00-19:30', 'Tue': '10:00-19:30', 'Wed': '10:00-19:30', 'Thu': '10:00-19:30', 'Fri': '10:00-19:30', 'Sat': '10:00-19:30', 'Sun': '10:00-19:30'}}",+81 222169055,980-0811,9923763,45,https://www.hugoboss.com/store#lat=38.2652&lng=140.87103
"147 Gijanghaean-ro Gijang-eup, Gijang-gun",Hugo Boss,Busan,KR,"{'brand': ['boss', 'boss-green'], 'fascia': 'Outlet', 'category': ['menswear'], 'edit_date': '20250228', 'lat_lon_source': 'website'}",35.19245,129.21235,BOSS Outlet,"{'Outlet': {'Mon': '10:30-20:30', 'Tue': '10:30-20:30', 'Wed': '10:30-20:30', 'Thu': '10:30-20:30', 'Fri': '10:30-21:00', 'Sat': '10:30-21:00', 'Sun': '10:30-20:30'}}",+82 519012535,46083,9928644,13,https://www.hugoboss.com/store#lat=35.19245&lng=129.21235
"35 Centum4-ro, Haeundae-gu",Hugo Boss,Busan,KR,"{'brand': ['boss'], 'fascia': 'Travel Store', 'category': ['menswear'], 'edit_date': '20250228', 'lat_lon_source': 'website'}",35.16134,129.18211,BOSS Store,"{'Travel Store': {'Mon': '09:30-20:00', 'Tue': '09:30-20:00', 'Wed': '09:30-20:00', 'Thu': '09:30-20:00', 'Fri': '09:30-20:00', 'Sat': '09:30-20:00', 'Sun': '09:30-20:00'}}",+82 517491462,48058,1026680,12,https://www.hugoboss.com/store#lat=35.16134&lng=129.18211
1133 Jeonggwan-ro,Hugo Boss,"Gijang-gun, Busan",KR,"{'brand': ['boss', 'boss-green', 'boss-camel'], 'fascia': 'Outlet', 'category': ['menswear'], 'edit_date': '20250228', 'lat_lon_source': 'website'}",35.32408,129.23589,BOSS Outlet,"{'Outlet': {'Mon': '10:30-21:00', 'Tue': '10:30-21:00', 'Wed': '10:30-21:00', 'Thu': '10:30-21:00', 'Fri': '10:30-21:00', 'Sat': '10:30-21:00', 'Sun': '10:30-21:00'}}",+82 51 940 1150,10000,9928695,01,https://www.hugoboss.com/store#lat=35.32408&lng=129.23589
"1495 Woo-Dong, Haeundae-Gu",Hugo Boss,Busan,KR,"{'brand': ['boss', 'boss-camel'], 'fascia': 'Shop', 'category': ['menswear'], 'edit_date': '20250228', 'lat_lon_source': 'website'}",35.16907,129.12974,BOSS Menswear Shop,"{'Shop': {'Mon': '11:00-20:00', 'Tue': '11:00-20:00', 'Wed': '11:00-20:00', 'Thu': '11:00-20:00', 'Fri': '11:00-20:30', 'Sat': '11:00-20:30', 'Sun': '11:00-20:00'}}",+82 517452480,48058,9928611,12,https://www.hugoboss.com/store#lat=35.16907&lng=129.12974
1493 Shinsegae Centum DFS,Hugo Boss,Busan,KR,"{'brand': ['boss', 'boss-green'], 'fascia': 'Shop', 'category': ['menswear'], 'edit_date': '20250228', 'lat_lon_source': 'website'}",35.16986,129.12827,BOSS Menswear Shop,"{'Shop': {'Mon': '09:30-20:00', 'Tue': '09:30-20:00', 'Wed': '09:30-20:00', 'Thu': '09:30-20:00', 'Fri': '09:30-20:00', 'Sat': '09:30-20:00', 'Sun': '09:30-20:00'}}",+82 517753259,48058,9928651,13,https://www.hugoboss.com/store#lat=35.16986&lng=129.12827
"772 Bujeon-Dong, Gaya-Daero, Busanji-Gu",Hugo Boss,Busan,KR,"{'brand': ['boss', 'boss-green'], 'fascia': 'Shop', 'category': ['menswear'], 'edit_date': '20250228', 'lat_lon_source': 'website'}",35.15685,129.05665,BOSS Shop,"{'Shop': {'Mon': '09:30-20:00', 'Tue': '09:30-20:00', 'Wed': '09:30-20:00', 'Thu': '09:30-20:00', 'Fri': '09:30-20:00', 'Sat': '09:30-20:00', 'Sun': '09:30-20:00'}}",+82 518102871,47285,9928628,12,https://www.hugoboss.com/store#lat=35.15685&lng=129.05665
"772 Gayadae-ro, Busanjin-Gu",Hugo Boss,Busan,KR,"{'brand': ['boss', 'boss-camel'], 'fascia': 'Shop', 'category': ['menswear'], 'edit_date': '20250228', 'lat_lon_source': 'website'}",35.15994,129.05475,BOSS Menswear Shop,"{'Shop': {'Mon': '10:30-20:00', 'Tue': '10:30-20:00', 'Wed': '10:30-20:00', 'Thu': '10:30-20:00', 'Fri': '10:30-20:30', 'Sat': '10:30-20:30', 'Sun': '10:30-20:00'}}",+82 518104255,47285,9928615,12,https://www.hugoboss.com/store#lat=35.15994&lng=129.05475
"124 Jungang-daero, Seongsan-gu",Hugo Boss,Changwon-si,KR,"{'brand': ['boss', 'boss-camel'], 'fascia': 'Shop', 'category': ['menswear', 'womenswear'], 'edit_date': '20250228', 'lat_lon_source': 'website'}",35.22452,128.68191,BOSS Menswear Shop,"{'Shop': {'Mon': '10:30-20:00', 'Tue': '10:30-20:00', 'Wed': '10:30-20:00', 'Thu': '10:30-20:00', 'Fri': '10:30-20:30', 'Sat': '10:30-20:30', 'Sun': '10:30-20:30'}}",,51494,9926548,11,https://www.hugoboss.com/store#lat=35.22452&lng=128.68191
"149 Dongbu-ro, Dong-gu",Hugo Boss,Daegu,KR,"{'brand': None, 'fascia': 'Shop', 'category': None, 'edit_date': '20250228', 'lat_lon_source': 'website'}",35.8778,128.62844,BOSS Menswear Shop,Not Available,,41229,9928690,10,https://www.hugoboss.com/store#lat=35.8778&lng=128.62844
"200 2Ga Gyesan-Dong, Jung-Gu",Hugo Boss,Daegu,KR,"{'brand': ['boss', 'boss-green', 'boss-camel'], 'fascia': 'Shop', 'category': ['menswear'], 'edit_date': '20250228', 'lat_lon_source': 'website'}",35.86632,128.59075,BOSS Menswear Shop,"{'Shop': {'Mon': '10:30-20:00', 'Tue': '10:30-20:00', 'Wed': '10:30-20:00', 'Thu': '10:30-20:00', 'Fri': '10:30-20:30', 'Sat': '10:30-20:30', 'Sun': '10:30-20:00'}}",+82 532452213,41936,9928614,14,https://www.hugoboss.com/store#lat=35.86632&lng=128.59075
"268 Dongnip-ro, Dong-gu, Gwangju",Hugo Boss,Gwangju,KR,"{'brand': ['boss'], 'fascia': 'Shop', 'category': ['menswear'], 'edit_date': '20250228', 'lat_lon_source': 'website'}",35.15461,126.91222,BOSS Menswear Shop,"{'Shop': {'Mon': '10:30-20:00', 'Tue': '10:30-20:00', 'Wed': '10:30-20:00', 'Thu': '10:30-20:00', 'Fri': '10:30-20:30', 'Sat': '10:30-20:30', 'Sun': '10:30-20:00'}}",+82 622211781,00000,9928656,13,https://www.hugoboss.com/store#lat=35.15461&lng=126.91222
"38 Sinhwayeoksa-ro 304beongil, Andeok-myeon,",Hugo Boss,Jeju,KR,"{'brand': ['boss', 'boss-green'], 'fascia': 'Shop', 'category': ['menswear'], 'edit_date': '20250228', 'lat_lon_source': 'website'}",33.30761,126.31627,BOSS Menswear Shop,Not Available,,63522,9928683,01,https://www.hugoboss.com/store#lat=33.30761&lng=126.31627
1 Expo-ro,Hugo Boss,"Yuseong-gu, Daejeon",KR,"{'brand': ['boss', 'boss-camel'], 'fascia': 'Shop', 'category': ['menswear'], 'edit_date': '20250228', 'lat_lon_source': 'website'}",36.35028,127.43662,BOSS Menswear Shop,"{'Shop': {'Mon': '10:30-20:00', 'Tue': '10:30-20:00', 'Wed': '10:30-20:00', 'Thu': '10:30-20:00', 'Fri': '10:30-20:30', 'Sat': '10:30-20:30', 'Sun': '10:30-20:30'}}",+82 426078208,34126,9928684,01,https://www.hugoboss.com/store#lat=36.35028&lng=127.43662
"123 Techno jungang-ro, Yuseong-gu",Hugo Boss,Daejeon,KR,"{'brand': ['boss', 'boss-green'], 'fascia': 'Outlet', 'category': ['menswear'], 'edit_date': '20250228', 'lat_lon_source': 'website'}",36.4238,127.39396,BOSS Outlet,"{'Outlet': {'Mon': ""['10:30', '12:00']-['12:00', '21:30']"", 'Tue': ""['10:30', '12:00']-['12:00', '21:30']"", 'Wed': ""['10:30', '12:00']-['12:00', '21:30']"", 'Thu': ""['10:30', '12:00']-['12:00', '21:30']"", 'Fri': ""['10:30', '12:00']-['12:00', '21:30']"", 'Sat': ""['10:30', '12:00']-['12:00', '21:30']"", 'Sun': ""['10:30', '12:00']-['12:00', '21:30']""}}",+82 423322449,34030,9928685,15,https://www.hugoboss.com/store#lat=36.4238&lng=127.39396
"308 Jikji-daero, Heungdeok-gu",Hugo Boss,Cheongju-si,KR,"{'brand': ['boss'], 'fascia': 'Shop', 'category': ['menswear'], 'edit_date': '20250228', 'lat_lon_source': 'website'}",36.64607,127.42085,BOSS Menswear Shop,"{'Shop': {'Mon': ""['10:30', '12:00']-['12:00', '21:00']"", 'Tue': ""['10:30', '12:00']-['12:00', '21:00']"", 'Wed': ""['10:30', '12:00']-['12:00', '21:00']"", 'Thu': ""['10:30', '12:00']-['12:00', '21:00']"", 'Fri': ""['10:30', '12:00']-['12:00', '21:00']"", 'Sat': ""['10:30', '12:00']-['12:00', '21:00']"", 'Sun': ""['10:30', '12:00']-['12:00', '21:00']""}}",+82 439094443,28424,9928686,04,https://www.hugoboss.com/store#lat=36.64607&lng=127.42085
"360 Myeongpum-ro, Yeoju-si, Gyeonggi-do",Hugo Boss,Yeoju,KR,"{'brand': ['boss', 'boss-green'], 'fascia': 'Outlet', 'category': ['menswear'], 'edit_date': '20250228', 'lat_lon_source': 'website'}",37.24161,127.61299,BOSS Outlet,"{'Outlet': {'Mon': '10:30-20:30', 'Tue': '10:30-20:30', 'Wed': '10:30-20:30', 'Thu': '10:30-20:30', 'Fri': '10:30-21:00', 'Sat': '10:30-21:00', 'Sun': '10:30-20:30'}}",+82 318801327,12646,9928639,13,https://www.hugoboss.com/store#lat=37.24161&lng=127.61299
"Toyosaki, Tomigusuku-shi 1-188",Hugo Boss,Okinawa,JP,"{'brand': ['boss'], 'fascia': 'Outlet', 'category': ['menswear'], 'edit_date': '20250228', 'lat_lon_source': 'website'}",26.15809,127.65708,BOSS Outlet,"{'Outlet': {'Mon': '10:00-20:30', 'Tue': '10:00-20:30', 'Wed': '10:00-20:30', 'Thu': '10:00-20:30', 'Fri': '10:00-20:30', 'Sat': '10:00-20:30', 'Sun': '10:00-20:30'}}",+815036129727,901-0225,9923618,47,https://www.hugoboss.com/store#lat=26.15809&lng=127.65708
"967-2419 Osan-dong, Hwasung-si, Gyeonggi-do",Hugo Boss,Hwaseong,KR,"{'brand': ['boss'], 'fascia': 'Shop', 'category': ['menswear'], 'edit_date': '20250228', 'lat_lon_source': 'website'}",37.15122,127.07523,BOSS Menswear Shop,"{'Shop': {'Mon': '10:30-20:00', 'Tue': '10:30-20:00', 'Wed': '10:30-20:00', 'Thu': '10:30-20:00', 'Fri': '10:30-20:30', 'Sat': '10:30-20:30', 'Sun': '10:30-20:30'}}",+82 3180363623,18478,9928678,09,https://www.hugoboss.com/store#lat=37.15122&lng=127.07523
"536 Poeun-daero, Suji-gu, Yongin-si",Hugo Boss,Yong-in,KR,"{'brand': ['boss', 'boss-camel'], 'fascia': 'Shop', 'category': ['menswear'], 'edit_date': '20250228', 'lat_lon_source': 'website'}",37.32492,127.10813,BOSS Menswear Shop,"{'Shop': {'Mon': '11:00-20:00', 'Tue': '11:00-20:00', 'Wed': '11:00-20:00', 'Thu': '11:00-20:00', 'Fri': '11:00-20:30', 'Sat': '11:00-20:30', 'Sun': '11:00-20:00'}}",+82 8892136,16896,9928660,09,https://www.hugoboss.com/store#lat=37.32492&lng=127.10813
addr_full,brand,city,country,extras,lat,lon,name,opening_hours,phone,postcode,ref,state,website
"Sunayama-cho, Naka-ku, Hamamatsu-shi 320-2",Hugo Boss,Shizuoka,JP,"{'brand': ['boss'], 'fascia': 'Shop', 'category': ['menswear'], 'edit_date': '20250228', 'lat_lon_source': 'website'}",34.70416,137.73318,BOSS Menswear Shop,"{'Shop': {'Mon': '10:00-19:00', 'Tue': '10:00-19:00', 'Wed': '10:00-19:00', 'Thu': '10:00-19:00', 'Fri': '10:00-19:00', 'Sat': '10:00-19:00', 'Sun': '10:00-19:00'}}",+81534575301,430-8588,9923777,22,https://www.hugoboss.com/store#lat=34.70416&lng=137.73318
"Rinku-Orai Minami, Izumi Sano-shi 3-28",Hugo Boss,Osaka,JP,"{'brand': ['boss'], 'fascia': 'Outlet', 'category': ['menswear', 'womenswear'], 'edit_date': '20250228', 'lat_lon_source': 'website'}",34.40606,135.295,BOSS Outlet,"{'Outlet': {'Mon': '10:00-19:00', 'Tue': '10:00-19:00', 'Wed': '10:00-19:00', 'Thu': '10:00-19:00', 'Fri': '10:00-19:00', 'Sat': '10:00-19:00', 'Sun': '10:00-19:00'}}",+81 724646731,598-8508,9923706,27,https://www.hugoboss.com/store#lat=34.40606&lng=135.295
"Abenosuji, Abeno-ku, Osaka-shi 1-1-43",Hugo Boss,Osaka,JP,"{'brand': ['boss'], 'fascia': 'Shop', 'category': ['menswear'], 'edit_date': '20250228', 'lat_lon_source': 'website'}",34.64597,135.51338,BOSS Menswear Shop,"{'Shop': {'Mon': '10:00-20:00', 'Tue': '10:00-20:00', 'Wed': '10:00-20:00', 'Thu': '10:00-20:00', 'Fri': '10:00-20:00', 'Sat': '10:00-20:00', 'Sun': '10:00-20:00'}}",+81 666266404,545-0052,9923723,27,https://www.hugoboss.com/store#lat=34.64597&lng=135.51338
"Namba, Chuo-ku, Osaka-shi 5-1-5",Hugo Boss,Osaka,JP,"{'brand': ['boss', 'boss-green'], 'fascia': 'Shop', 'category': ['menswear'], 'edit_date': '20250228', 'lat_lon_source': 'website'}",34.6644,135.50192,BOSS Menswear Shop,"{'Shop': {'Mon': '10:00-20:00', 'Tue': '10:00-20:00', 'Wed': '10:00-20:00', 'Thu': '10:00-20:00', 'Fri': '10:00-20:00', 'Sat': '10:00-20:00', 'Sun': '10:00-20:00'}}",+81 666443682,542-0076,9923719,27,https://www.hugoboss.com/store#lat=34.6644&lng=135.50192
"Shinsaibashisuji, Chuo-ku, Osakashi 1-5-23",Hugo Boss,Osaka,JP,"{'brand': ['boss', 'boss-green'], 'fascia': 'Store', 'category': ['menswear'], 'edit_date': '20250228', 'lat_lon_source': 'website'}",34.67266,135.50155,BOSS Store,"{'Store': {'Mon': '11:00-21:00', 'Tue': '11:00-21:00', 'Wed': '11:00-21:00', 'Thu': '11:00-21:00', 'Fri': '11:00-21:00', 'Sat': '11:00-21:00', 'Sun': '11:00-21:00'}}",+815035288406,542-0085,9929255,27,https://www.hugoboss.com/store#lat=34.67266&lng=135.50155
"Matuo-cho, Kadoma 204-3",Hugo Boss,Osaka,JP,"{'brand': ['boss'], 'fascia': 'Outlet', 'category': ['menswear', 'womenswear'], 'edit_date': '20250228', 'lat_lon_source': 'website'}",34.73036,135.58359,BOSS Outlet,"{'Outlet': {'Mon': '10:00-21:00', 'Tue': '10:00-21:00', 'Wed': '10:00-21:00', 'Thu': '10:00-21:00', 'Fri': '10:00-21:00', 'Sat': '10:00-21:00', 'Sun': '10:00-21:00'}}",+81 5033549621,571-8620,9926156,27,https://www.hugoboss.com/store#lat=34.73036&lng=135.58359
"Kakuda-cho, Kita-ku, Osaka-shi 7-10",Hugo Boss,Osaka,JP,"{'brand': ['boss'], 'fascia': 'Shop', 'category': ['menswear'], 'edit_date': '20250228', 'lat_lon_source': 'website'}",34.70346,135.50019,BOSS Menswear Shop,"{'Shop': {'Mon': '10:00-20:00', 'Tue': '10:00-20:00', 'Wed': '10:00-20:00', 'Thu': '10:00-20:00', 'Fri': '10:00-20:00', 'Sat': '10:00-20:00', 'Sun': '10:00-20:00'}}",+81 669488639,530-0017,9923770,27,https://www.hugoboss.com/store#lat=34.70346&lng=135.50019
"Kakuda-Cho, Kita-ku, Osaka-shi 7-10",Hugo Boss,Osaka,JP,"{'brand': ['boss', 'boss-camel'], 'fascia': 'Shop', 'category': ['menswear'], 'edit_date': '20250228', 'lat_lon_source': 'website'}",34.70346,135.50019,BOSS Menswear Shop,"{'Shop': {'Mon': '10:00-20:00', 'Tue': '10:00-20:00', 'Wed': '10:00-20:00', 'Thu': '10:00-20:00', 'Fri': '10:00-20:00', 'Sat': '10:00-20:00', 'Sun': '10:00-20:00'}}",+81 663610597,530-0017,9923722,27,https://www.hugoboss.com/store#lat=34.70346&lng=135.50019
"Kakuda-cho, Kita-ku, Osaka-shi 7-10",Hugo Boss,Osaka,JP,"{'brand': ['boss', 'boss-green'], 'fascia': 'Shop', 'category': ['menswear'], 'edit_date': '20250228', 'lat_lon_source': 'website'}",34.70305,135.49835,BOSS Menswear Shop / Athleisure,"{'Shop': {'Mon': '10:00-20:00', 'Tue': '10:00-20:00', 'Wed': '10:00-20:00', 'Thu': '10:00-20:00', 'Fri': '10:00-20:00', 'Sat': '10:00-20:00', 'Sun': '10:00-20:00'}}",+81 669488639,530-0017,9925235,27,https://www.hugoboss.com/store#lat=34.70305&lng=135.49835
"Kakuda-cho, Kita-ku, Osaka-shi 8-7",Hugo Boss,Osaka,JP,"{'brand': ['boss'], 'fascia': 'Shop', 'category': ['womenswear'], 'edit_date': '20250228', 'lat_lon_source': 'website'}",34.70305,135.49835,BOSS Womenswear Shop,"{'Shop': {'Mon': '10:00-20:00', 'Tue': '10:00-20:00', 'Wed': '10:00-20:00', 'Thu': '10:00-20:00', 'Fri': '10:00-20:00', 'Sat': '10:00-20:00', 'Sun': '10:00-20:00'}}",+81 5036127383,530-8350,9925236,27,https://www.hugoboss.com/store#lat=34.70305&lng=135.49835
"Urayasu, Nagashimacho, Kuwana-shi 368",Hugo Boss,Mie,JP,"{'brand': ['boss'], 'fascia': 'Outlet', 'category': ['menswear'], 'edit_date': '20250228', 'lat_lon_source': 'website'}",35.03323,136.72588,BOSS Outlet,"{'Outlet': {'Mon': '10:00-20:00', 'Tue': '10:00-20:00', 'Wed': '10:00-20:00', 'Thu': '10:00-20:00', 'Fri': '10:00-20:00', 'Sat': '10:00-20:00', 'Sun': '10:00-20:00'}}",+81 594452755,511-1135,9923787,24,https://www.hugoboss.com/store#lat=35.03323&lng=136.72588
"Akashimachi, Chuo-ku, Kobe-shi 40",Hugo Boss,Hyogo,JP,"{'brand': ['boss'], 'fascia': 'Shop', 'category': ['menswear'], 'edit_date': '20250228', 'lat_lon_source': 'website'}",34.68868,135.19045,BOSS Menswear Shop,"{'Shop': {'Mon': '10:00-19:00', 'Tue': '10:00-19:00', 'Wed': '10:00-19:00', 'Thu': '10:00-19:00', 'Fri': '10:00-19:00', 'Sat': '10:00-19:00', 'Sun': '10:00-19:00'}}",+81 783816088,650-0037,9929216,28,https://www.hugoboss.com/store#lat=34.68868&lng=135.19045
"Kaigan-Dori, Tarumi-ku 12-2",Hugo Boss,Hyogo,JP,"{'brand': ['boss'], 'fascia': 'Outlet', 'category': ['menswear'], 'edit_date': '20250228', 'lat_lon_source': 'website'}",34.62604,135.04738,BOSS Outlet,"{'Outlet': {'Mon': '10:00-20:00', 'Tue': '10:00-20:00', 'Wed': '10:00-20:00', 'Thu': '10:00-20:00', 'Fri': '10:00-20:00', 'Sat': '10:00-20:00', 'Sun': '10:00-20:00'}}",+81 50-3612-4880,655-0036,9921700,28,https://www.hugoboss.com/store#lat=34.62604&lng=135.04738
"Kuzushi Sunayama, Ryuo-cho, Gamou-gun 1178-694",Hugo Boss,Shiga,JP,"{'brand': ['boss'], 'fascia': 'Outlet', 'category': ['menswear', 'womenswear'], 'edit_date': '20250228', 'lat_lon_source': 'website'}",35.05869,136.09956,BOSS Outlet,"{'Outlet': {'Mon': '10:00-19:00', 'Tue': '10:00-19:00', 'Wed': '10:00-19:00', 'Thu': '10:00-19:00', 'Fri': '10:00-19:00', 'Sat': '10:00-20:00', 'Sun': '10:00-20:00'}}",+81 748362442,520-2551,9923441,25,https://www.hugoboss.com/store#lat=35.05869&lng=136.09956
"Sakae Naka-ku, Nagoya-shi 3-16-1",Hugo Boss,Aichi,JP,"{'brand': ['boss', 'boss-camel'], 'fascia': 'Shop', 'category': ['menswear'], 'edit_date': '20250228', 'lat_lon_source': 'website'}",35.16515,136.90828,BOSS Menswear Shop,"{'Shop': {'Mon': '10:00-20:00', 'Tue': '10:00-20:00', 'Wed': '10:00-20:00', 'Thu': '10:00-20:00', 'Fri': '10:00-20:00', 'Sat': '10:00-20:00', 'Sun': '10:00-20:00'}}",+81 526845336,460-8430,9923725,23,https://www.hugoboss.com/store#lat=35.16515&lng=136.90828
"Sakae, Naka-ku, Nagoya-shi 3-5-1",Hugo Boss,Aichi,JP,"{'brand': ['boss'], 'fascia': 'Shop', 'category': ['menswear'], 'edit_date': '20250228', 'lat_lon_source': 'website'}",35.16833,136.9077,BOSS Menswear Shop,"{'Shop': {'Mon': '10:00-19:00', 'Tue': '10:00-19:00', 'Wed': '10:00-19:00', 'Thu': '10:00-19:00', 'Fri': '10:00-19:00', 'Sat': '10:00-19:00', 'Sun': '10:00-19:00'}}",+81 522523169,460-0008,9923765,23,https://www.hugoboss.com/store#lat=35.16833&lng=136.9077
"Sakae, Naka-ku, Nagoya-shi 3-5-1",Hugo Boss,Nagoya,JP,"{'brand': ['boss'], 'fascia': 'Shop', 'category': ['womenswear'], 'edit_date': '20250228', 'lat_lon_source': 'website'}",35.16833,136.9077,BOSS Womenswear Shop,"{'Shop': {'Mon': '10:00-20:00', 'Tue': '10:00-20:00', 'Wed': '10:00-20:00', 'Thu': '10:00-20:00', 'Fri': '10:00-20:00', 'Sat': '10:00-20:00', 'Sun': '10:00-20:00'}}",+81 522635668,460-0008,9924721,23,https://www.hugoboss.com/store#lat=35.16833&lng=136.9077
"Meieki, Nakamura-ku, Nagoya-shi 1-1-4",Hugo Boss,Nagoya,JP,"{'brand': ['boss-green'], 'fascia': 'Shop', 'category': ['menswear'], 'edit_date': '20250228', 'lat_lon_source': 'website'}",35.1705,136.88192,BOSS Menswear Shop / Athleisure,"{'Shop': {'Mon': '10:00-20:00', 'Tue': '10:00-20:00', 'Wed': '10:00-20:00', 'Thu': '10:00-20:00', 'Fri': '10:00-20:00', 'Sat': '10:00-20:00', 'Sun': '10:00-20:00'}}",+81 525668636,450-6001,9925212,23,https://www.hugoboss.com/store#lat=35.1705&lng=136.88192
"Meieki, Nakamura-ku, Nagoya-shi 1-1-4",Hugo Boss,Aichi,JP,"{'brand': ['boss', 'boss-green', 'boss-camel'], 'fascia': 'Shop', 'category': ['menswear'], 'edit_date': '20250228', 'lat_lon_source': 'website'}",35.17136,136.88267,BOSS Menswear Shop,"{'Shop': {'Mon': '10:00-20:00', 'Tue': '10:00-20:00', 'Wed': '10:00-20:00', 'Thu': '10:00-20:00', 'Fri': '10:00-20:00', 'Sat': '10:00-20:00', 'Sun': '10:00-20:00'}}",+81 525668109,450-6001,9923718,23,https://www.hugoboss.com/store#lat=35.17136&lng=136.88267
"Meieki, Nakamura-ku, Nagoya 1-1-4",Hugo Boss,Aichi,JP,"{'brand': ['boss'], 'fascia': 'Shop', 'category': ['womenswear'], 'edit_date': '20250228', 'lat_lon_source': 'website'}",35.17136,136.88267,BOSS Womenswear Shop,"{'Shop': {'Mon': '10:00-20:00', 'Tue': '10:00-20:00', 'Wed': '10:00-20:00', 'Thu': '10:00-20:00', 'Fri': '10:00-20:00', 'Sat': '10:00-20:00', 'Sun': '10:00-20:00'}}",+81 52-566-3864,450-6001,9927062,23,https://www.hugoboss.com/store#lat=35.17136&lng=136.88267
"Karasumadori, Shimogyo-ku, Kyoto-shi",Hugo Boss,Kyoto,JP,"{'brand': ['boss'], 'fascia': 'Shop', 'category': ['menswear'], 'edit_date': '20250228', 'lat_lon_source': 'website'}",34.98588,135.75757,BOSS Menswear Shop,"{'Shop': {'Mon': '10:00-19:00', 'Tue': '10:00-19:00', 'Wed': '10:00-19:00', 'Thu': '10:00-19:00', 'Fri': '10:00-19:00', 'Sat': '10:00-19:00', 'Sun': '10:00-19:00'}}",+81 753433343,600-8555,9923796,26,https://www.hugoboss.com/store#lat=34.98588&lng=135.75757
"Nishiirumacho, Shijodori Kawaramachi, Shimogyu-ku, Kyoto-shi 52",Hugo Boss,Kyoto,JP,"{'brand': ['boss', 'boss-camel'], 'fascia': 'Shop', 'category': ['menswear'], 'edit_date': '20250228', 'lat_lon_source': 'website'}",35.00316,135.7683,BOSS Menswear Shop,"{'Shop': {'Mon': '10:00-20:00', 'Tue': '10:00-20:00', 'Wed': '10:00-20:00', 'Thu': '10:00-20:00', 'Fri': '10:00-20:00', 'Sat': '10:00-20:00', 'Sun': '10:00-20:00'}}",+81 752527824,600-8520,9923782,26,https://www.hugoboss.com/store#lat=35.00316&lng=135.7683
"Nishiirumacho, Shijodori Kawaramach",Hugo Boss,Kyoto,JP,"{'brand': ['boss'], 'fascia': 'Shop', 'category': ['menswear'], 'edit_date': '20250228', 'lat_lon_source': 'website'}",35.00348,135.76888,BOSS Kids Shop,"{'Shop': {'Mon': '10:00-20:00', 'Tue': '10:00-20:00', 'Wed': '10:00-20:00', 'Thu': '10:00-20:00', 'Fri': '10:00-20:00', 'Sat': '10:00-20:00', 'Sun': '10:00-20:00'}}",,600-8520,9926340,26,https://www.hugoboss.com/store#lat=35.00348&lng=135.76888
"Takakura Nishiiri, Shijo dori, Shimogyo-ku 79",Hugo Boss,Kyoto,JP,"{'brand': ['boss'], 'fascia': 'Shop', 'category': ['menswear'], 'edit_date': '20250228', 'lat_lon_source': 'website'}",35.00337,135.76049,BOSS Menswear Shop,"{'Shop': {'Mon': '10:00-19:00', 'Tue': '10:00-19:00', 'Wed': '10:00-19:00', 'Thu': '10:00-19:00', 'Fri': '10:00-19:00', 'Sat': '10:00-19:00', 'Sun': '10:00-19:00'}}",+81 752236607,600-8511,9923448,26,https://www.hugoboss.com/store#lat=35.00337&lng=135.76049
"Kouzudai, Kita-ku, Kobe-shi 7-3",Hugo Boss,Hyogo,JP,"{'brand': ['boss'], 'fascia': 'Outlet', 'category': ['menswear', 'womenswear'], 'edit_date': '20250228', 'lat_lon_source': 'website'}",34.86109,135.19177,BOSS Outlet,"{'Outlet': {'Mon': '10:00-19:00', 'Tue': '10:00-19:00', 'Wed': '10:00-19:00', 'Thu': '10:00-19:00', 'Fri': '10:00-19:00', 'Sat': '10:00-19:00', 'Sun': '10:00-19:00'}}",+81 789860597,651-1515,9923785,28,https://www.hugoboss.com/store#lat=34.86109&lng=135.19177
"Tokigaoka, Toki-shi 1-2",Hugo Boss,Gifu,JP,"{'brand': ['boss'], 'fascia': 'Outlet', 'category': ['menswear'], 'edit_date': '20250228', 'lat_lon_source': 'website'}",35.34656,137.18253,BOSS Outlet,"{'Outlet': {'Mon': '10:00-19:00', 'Tue': '10:00-19:00', 'Wed': '10:00-19:00', 'Thu': '10:00-19:00', 'Fri': '10:00-19:00', 'Sat': '10:00-19:00', 'Sun': '10:00-19:00'}}",+81 5036469127,509-5127,9926197,21,https://www.hugoboss.com/store#lat=35.34656&lng=137.18253
"Uchimachi, Takamatsu-shi 7-1",Hugo Boss,Kagawa,JP,"{'brand': ['boss'], 'fascia': 'Shop', 'category': ['menswear'], 'edit_date': '20250228', 'lat_lon_source': 'website'}",34.34647,134.05105,BOSS Menswear Shop,"{'Shop': {'Mon': '10:00-19:00', 'Tue': '10:00-19:00', 'Wed': '10:00-19:00', 'Thu': '10:00-19:00', 'Fri': '10:00-19:00', 'Sat': '10:00-19:00', 'Sun': '10:00-19:00'}}",+81 878517751,760-8639,9923783,39,https://www.hugoboss.com/store#lat=34.34647&lng=134.05105
"Minamimachi, Himeji-shi 1",Hugo Boss,Hyogo,JP,"{'brand': ['boss'], 'fascia': 'Shop', 'category': ['menswear'], 'edit_date': '20250228', 'lat_lon_source': 'website'}",34.82866,134.68975,BOSS Menswear Shop,"{'Shop': {'Mon': '10:00-19:30', 'Tue': '10:00-19:30', 'Wed': '10:00-19:30', 'Thu': '10:00-19:30', 'Fri': '10:00-19:30', 'Sat': '10:00-19:30', 'Sun': '10:00-19:30'}}",+81 5036127385,670-0912,9925234,28,https://www.hugoboss.com/store#lat=34.82866&lng=134.68975
"Fukasawa, Gotemba-shi 1312",Hugo Boss,Shizuoka,JP,"{'brand': ['boss'], 'fascia': 'Outlet', 'category': ['menswear'], 'edit_date': '20250228', 'lat_lon_source': 'website'}",35.30754,138.96462,"BOSS Outlet, Shizuoka, Gotemba","{'Outlet': {'Mon': '10:00-19:00', 'Tue': '10:00-19:00', 'Wed': '10:00-19:00', 'Thu': '10:00-19:00', 'Fri': '10:00-19:00', 'Sat': '10:00-19:00', 'Sun': '10:00-19:00'}}",+81 550701508,412-0023,9923704,22,https://www.hugoboss.com/store#lat=35.30754&lng=138.96462
"Omotecho , Kita-ku  Okayama-shi 2-1-1",Hugo Boss,Okayama,JP,"{'brand': ['boss'], 'fascia': 'Shop', 'category': ['menswear'], 'edit_date': '20250228', 'lat_lon_source': 'website'}",34.66183,133.92888,BOSS Menswear Shop,"{'Shop': {'Mon': '10:00-19:30', 'Tue': '10:00-19:30', 'Wed': '10:00-19:30', 'Thu': '10:00-19:30', 'Fri': '10:00-19:30', 'Sat': '10:00-19:30', 'Sun': '10:00-19:30'}}",+81 862268105,700-8625,9923771,33,https://www.hugoboss.com/store#lat=34.66183&lng=133.92888
"Kotobuki-cho, Kurashiki-shi 12-3",Hugo Boss,Okayama,JP,"{'brand': ['boss'], 'fascia': 'Outlet', 'category': ['menswear'], 'edit_date': '20250228', 'lat_lon_source': 'website'}",34.60373,133.76206,BOSS Outlet,"{'Outlet': {'Mon': '10:00-19:00', 'Tue': '10:00-19:00', 'Wed': '10:00-19:00', 'Thu': '10:00-19:00', 'Fri': '10:00-19:00', 'Sat': '10:00-20:00', 'Sun': '10:00-20:00'}}",+81 864231600,710-0813,9925299,33,https://www.hugoboss.com/store#lat=34.60373&lng=133.76206
"Tsujido Shindai, Fujisawa-shi 1-3-1",Hugo Boss,Kanagawa,JP,"{'brand': ['boss-orange'], 'fascia': 'Store', 'category': ['menswear'], 'edit_date': '20250228', 'lat_lon_source': 'website'}",35.34082,139.44603,BOSS Store / Casual,Not Available,+81 466867216,251-0041,9929104,14,https://www.hugoboss.com/store#lat=35.34082&lng=139.44603
"Shiraho, Kanazawa-ku, Yokohama-shi 5-2",Hugo Boss,Kanagawa,JP,"{'brand': ['boss'], 'fascia': 'Outlet', 'category': ['menswear'], 'edit_date': '20250228', 'lat_lon_source': 'website'}",35.37977,139.64622,BOSS Outlet,"{'Outlet': {'Mon': '10:00-20:00', 'Tue': '10:00-20:00', 'Wed': '10:00-20:00', 'Thu': '10:00-20:00', 'Fri': '10:00-20:00', 'Sat': '10:00-20:00', 'Sun': '10:00-20:00'}}",+81 5038510302,236-0007,9925348,14,https://www.hugoboss.com/store#lat=35.37977&lng=139.64622
"Minato-machi, Matsuyama-shi 5-1-1",Hugo Boss,Ehime,JP,"{'brand': ['boss', 'boss-green'], 'fascia': 'Shop', 'category': ['menswear'], 'edit_date': '20250228', 'lat_lon_source': 'website'}",33.83571,132.76317,BOSS Menswear Shop,"{'Shop': {'Mon': '10:00-19:00', 'Tue': '10:00-19:00', 'Wed': '10:00-19:00', 'Thu': '10:00-19:00', 'Fri': '10:00-19:00', 'Sat': '10:00-19:00', 'Sun': '10:00-19:00'}}",+81 899482840,790-8587,9923720,38,https://www.hugoboss.com/store#lat=33.83571&lng=132.76317
"Minamisaiwai, Nishi-ku, Yokohama-shi 1-6-31",Hugo Boss,Kanagawa,JP,"{'brand': ['boss', 'boss-camel'], 'fascia': 'Shop', 'category': ['menswear'], 'edit_date': '20250228', 'lat_lon_source': 'website'}",35.46578,139.6206,BOSS Menswear Shop,"{'Shop': {'Mon': '10:00-20:00', 'Tue': '10:00-20:00', 'Wed': '10:00-20:00', 'Thu': '10:00-20:00', 'Fri': '10:00-20:00', 'Sat': '10:00-20:00', 'Sun': '10:00-20:00'}}",+81 455348230,220-8601,9923447,14,https://www.hugoboss.com/store#lat=35.46578&lng=139.6206
"Takashima, Nishi-ku, Yokohama-shi 2-18-1",Hugo Boss,Kanagawa,JP,"{'brand': ['boss', 'boss-green'], 'fascia': 'Shop', 'category': ['menswear'], 'edit_date': '20250228', 'lat_lon_source': 'website'}",35.46454,139.62353,BOSS Menswear Shop / Athleisure,"{'Shop': {'Mon': '10:00-20:00', 'Tue': '10:00-20:00', 'Wed': '10:00-20:00', 'Thu': '10:00-20:00', 'Fri': '10:00-20:00', 'Sat': '10:00-20:00', 'Sun': '10:00-20:00'}}",+81 454655390,220-8510,9925315,14,https://www.hugoboss.com/store#lat=35.46454&lng=139.62353
"Takashima, Nishi-ku, Yokohama-shi 2-18-1",Hugo Boss,Kanagawa,JP,"{'brand': ['boss', 'boss-camel'], 'fascia': 'Shop', 'category': ['menswear'], 'edit_date': '20250228', 'lat_lon_source': 'website'}",35.46571,139.6251,BOSS Menswear Shop,"{'Shop': {'Mon': '10:00-20:00', 'Tue': '10:00-20:00', 'Wed': '10:00-20:00', 'Thu': '10:00-20:00', 'Fri': '10:00-20:00', 'Sat': '10:00-20:00', 'Sun': '10:00-20:00'}}",+81 454401128,220-8510,9923768,14,https://www.hugoboss.com/store#lat=35.46571&lng=139.6251
"Kaneda-higashi, Kisarazu-shi 3-1-1",Hugo Boss,Chiba,JP,"{'brand': ['boss'], 'fascia': 'Outlet', 'category': ['menswear', 'womenswear'], 'edit_date': '20250228', 'lat_lon_source': 'website'}",35.43404,139.92394,BOSS Outlet,"{'Outlet': {'Mon': '10:00-20:00', 'Tue': '10:00-20:00', 'Wed': '10:00-20:00', 'Thu': '10:00-20:00', 'Fri': '10:00-20:00', 'Sat': '10:00-20:00', 'Sun': '10:00-20:00'}}",+81 438538232,292-0009,9929696,12,https://www.hugoboss.com/store#lat=35.43404&lng=139.92394
"Tamagawa, Setagaya-ku 3-17-1",Hugo Boss,Tokyo,JP,"{'brand': ['boss'], 'fascia': 'Shop', 'category': ['menswear'], 'edit_date': '20250228', 'lat_lon_source': 'website'}",35.61396,139.62687,BOSS Menswear Shop,"{'Shop': {'Mon': '10:00-20:00', 'Tue': '10:00-20:00', 'Wed': '10:00-20:00', 'Thu': '10:00-20:00', 'Fri': '10:00-20:00', 'Sat': '10:00-20:00', 'Sun': '10:00-20:00'}}",+81 337073329,158-0094,9923757,13,https://www.hugoboss.com/store#lat=35.61396&lng=139.62687
"2F, Izumi-cho, Tachikawa-shi 935-1",Hugo Boss,Tokyo,JP,"{'brand': None, 'fascia': 'Shop', 'category': None, 'edit_date': '20250228', 'lat_lon_source': 'website'}",35.71135,139.42081,BOSS Shop,"{'Shop': {'Mon': '10:00-20:00', 'Tue': '10:00-20:00', 'Wed': '10:00-20:00', 'Thu': '10:00-20:00', 'Fri': '10:00-20:00', 'Sat': '10:00-21:00', 'Sun': '10:00-21:00'}}",+81 5037734983,190-0015,9925631,13,https://www.hugoboss.com/store#lat=35.71135&lng=139.42081
"Minami-Aoyama, Minato-ku 5-2-1",Hugo Boss,Tokyo,JP,"{'brand': None, 'fascia': 'Shop', 'category': None, 'edit_date': '20250228', 'lat_lon_source': 'website'}",35.66437,139.71379,LINE BOSS Official Account - Marketing,Not Available,,107-0062,9921362,01,https://www.hugoboss.com/store#lat=35.66437&lng=139.71379
"Jingumae, Shibuya-ku 5-1-3",Hugo Boss,Tokyo,JP,"{'brand': ['boss'], 'fascia': 'Store', 'category': ['menswear'], 'edit_date': '20250228', 'lat_lon_source': 'website'}",35.66598,139.71034,BOSS Store,"{'Store': {'Mon': '11:00-20:00', 'Tue': '11:00-20:00', 'Wed': '11:00-20:00', 'Thu': '11:00-20:00', 'Fri': '11:00-20:00', 'Sat': '11:00-20:00', 'Sun': '11:00-20:00'}}",+81 364189365,150-0001,9929493,13,https://www.hugoboss.com/store#lat=35.66598&lng=139.71034
"Roppongi, Minato-ku 6-15-1",Hugo Boss,Tokyo,JP,"{'brand': ['boss', 'boss-green', 'boss-camel'], 'fascia': 'Store', 'category': ['menswear', 'womenswear'], 'edit_date': '20250228', 'lat_lon_source': 'website'}",35.65928,139.72803,BOSS Store,"{'Store': {'Mon': '11:00-20:00', 'Tue': '11:00-20:00', 'Wed': '11:00-20:00', 'Thu': '11:00-20:00', 'Fri': '11:00-20:00', 'Sat': '11:00-21:00', 'Sun': '11:00-20:00'}}",+81 357869806,106-0032,9923703,13,https://www.hugoboss.com/store#lat=35.65928&lng=139.72803
Miyadera Iruma City 3169-1,Hugo Boss,Saitama,JP,"{'brand': ['boss'], 'fascia': 'Outlet', 'category': ['menswear', 'womenswear'], 'edit_date': '20250228', 'lat_lon_source': 'website'}",35.81033,139.37942,BOSS Outlet,"{'Outlet': {'Mon': '10:00-20:00', 'Tue': '10:00-20:00', 'Wed': '10:00-20:00', 'Thu': '10:00-20:00', 'Fri': '10:00-20:00', 'Sat': '10:00-20:00', 'Sun': '10:00-20:00'}}",+81429026301,358-8515,9923440,11,https://www.hugoboss.com/store#lat=35.81033&lng=139.37942
Sendagaya Shibuya-ku 5-24-2,Hugo Boss,Tokyo,JP,"{'brand': ['boss'], 'fascia': 'Shop', 'category': ['menswear', 'womenswear'], 'edit_date': '20250228', 'lat_lon_source': 'website'}",35.68772,139.70215,BOSS Kids Shop,"{'Shop': {'Mon': '10:30-19:30', 'Tue': '10:30-19:30', 'Wed': '10:30-19:30', 'Thu': '10:30-19:30', 'Fri': '10:30-19:30', 'Sat': '10:30-19:30', 'Sun': '10:30-19:30'}}",+81 353611981,151-8580,9925636,13,https://www.hugoboss.com/store#lat=35.68772&lng=139.70215
"Nishi-Shinjuku, Shinjuku-ku 1-1-3",Hugo Boss,Tokyo,JP,"{'brand': ['boss'], 'fascia': 'Shop', 'category': ['womenswear'], 'edit_date': '20250228', 'lat_lon_source': 'website'}",35.69133,139.6996,BOSS Womenswear Shop,Not Available,+81 359905415,160-0023,9923468,13,https://www.hugoboss.com/store#lat=35.69133&lng=139.6996
"Shinjuku, Shinjuku-ku 3-14-1",Hugo Boss,Tokyo,JP,"{'brand': ['boss', 'boss-camel'], 'fascia': 'Shop', 'category': ['menswear'], 'edit_date': '20250228', 'lat_lon_source': 'website'}",35.69164,139.70462,BOSS Menswear Shop,"{'Shop': {'Mon': '10:00-20:00', 'Tue': '10:00-20:00', 'Wed': '10:00-20:00', 'Thu': '10:00-20:00', 'Fri': '10:00-20:00', 'Sat': '10:00-20:00', 'Sun': '10:00-20:00'}}",+81363806581,160-0022,9923755,13,https://www.hugoboss.com/store#lat=35.69164&lng=139.70462
"Sendagaya, Shibuya-ku 5-24-2",Hugo Boss,Tokyo,JP,"{'brand': ['boss', 'boss-green', 'boss-camel'], 'fascia': 'Shop', 'category': ['menswear', 'womenswear'], 'edit_date': '20250228', 'lat_lon_source': 'website'}",35.69788,139.70226,BOSS Menswear Shop,"{'Shop': {'Mon': '10:30-19:30', 'Tue': '10:30-19:30', 'Wed': '10:30-19:30', 'Thu': '10:30-19:30', 'Fri': '10:30-19:30', 'Sat': '10:30-19:30', 'Sun': '10:30-19:30'}}",+81 333534773,151-8580,9923702,13,https://www.hugoboss.com/store#lat=35.69788&lng=139.70226
"Ginza, Chuo-ku 5-2-1",Hugo Boss,Tokyo,JP,"{'brand': ['boss', 'boss-green', 'boss-camel'], 'fascia': 'Store', 'category': ['menswear', 'womenswear', 'kidswear'], 'edit_date': '20250228', 'lat_lon_source': 'website'}",35.67224,139.76241,BOSS Store,"{'Store': {'Mon': '11:00-21:00', 'Tue': '11:00-21:00', 'Wed': '11:00-21:00', 'Thu': '11:00-21:00', 'Fri': '11:00-21:00', 'Sat': '11:00-21:00', 'Sun': '11:00-21:00'}}",,104-0061,9924735,13,https://www.hugoboss.com/store#lat=35.67224&lng=139.76241
"Ginza, Chuo-ku 4-6-16",Hugo Boss,Tokyo,JP,"{'brand': ['boss'], 'fascia': 'Shop', 'category': ['menswear'], 'edit_date': '20250228', 'lat_lon_source': 'website'}",35.67132,139.76584,BOSS Menswear Shop,"{'Shop': {'Mon': '10:00-20:00', 'Tue': '10:00-20:00', 'Wed': '10:00-20:00', 'Thu': '10:00-20:00', 'Fri': '10:00-20:00', 'Sat': '10:00-20:00', 'Sun': '10:00-20:00'}}",+81 362630781,104-8212,9924739,13,https://www.hugoboss.com/store#lat=35.67132&lng=139.76584
"Yurakucho, Chiyoda-ku 2-5-1",Hugo Boss,Tokyo,JP,"{'brand': ['boss'], 'fascia': 'Shop', 'category': ['menswear'], 'edit_date': '20250228', 'lat_lon_source': 'website'}",35.67382,139.76242,BOSS Menswear Shop,"{'Shop': {'Mon': '12:00-20:00', 'Tue': '12:00-20:00', 'Wed': '12:00-20:00', 'Thu': '12:00-20:00', 'Fri': '12:00-20:00', 'Sat': '11:00-20:00', 'Sun': '11:00-20:00'}}",+81 362525357,100-8488,9923730,13,https://www.hugoboss.com/store#lat=35.67382&lng=139.76242
"Ginza, Chuo-ku 3-6-1",Hugo Boss,Tokyo,JP,"{'brand': ['boss'], 'fascia': 'Shop', 'category': ['menswear'], 'edit_date': '20250228', 'lat_lon_source': 'website'}",35.67235,139.76666,BOSS Menswear Shop,"{'Shop': {'Mon': '11:00-20:00', 'Tue': '11:00-20:00', 'Wed': '11:00-20:00', 'Thu': '11:00-20:00', 'Fri': '11:00-20:00', 'Sat': '11:00-20:00', 'Sun': '11:00-19:30'}}",+81352506516,104-8130,9923713,13,https://www.hugoboss.com/store#lat=35.67235&lng=139.76666
"Ginza, Chuo-ku 3-6-1",Hugo Boss,Tokyo,JP,"{'brand': ['boss'], 'fascia': 'Shop', 'category': ['womenswear'], 'edit_date': '20250228', 'lat_lon_source': 'website'}",35.67235,139.76666,BOSS Womenswear Shop,"{'Shop': {'Mon': '11:00-20:00', 'Tue': '11:00-20:00', 'Wed': '11:00-20:00', 'Thu': '11:00-20:00', 'Fri': '11:00-20:00', 'Sat': '11:00-20:00', 'Sun': '11:00-19:30'}}",+81335648097,104-8130,9923751,13,https://www.hugoboss.com/store#lat=35.67235&lng=139.76666
"Marunouchi, Chiyoda-ku 1-9-1",Hugo Boss,Tokyo,JP,"{'brand': ['boss', 'boss-green'], 'fascia': 'Shop', 'category': ['menswear'], 'edit_date': '20250228', 'lat_lon_source': 'website'}",35.68296,139.7684,BOSS Menswear Shop,"{'Shop': {'Mon': '10:00-20:00', 'Tue': '10:00-20:00', 'Wed': '10:00-20:00', 'Thu': '10:00-20:00', 'Fri': '10:00-20:00', 'Sat': '10:00-20:00', 'Sun': '10:00-20:00'}}",+81 332012620,100-0005,9923758,13,https://www.hugoboss.com/store#lat=35.68296&lng=139.7684
"Nihonbashi, Chuo-ku 2-4-1",Hugo Boss,Tokyo,JP,"{'brand': ['boss'], 'fascia': 'Shop', 'category': ['womenswear'], 'edit_date': '20250228', 'lat_lon_source': 'website'}",35.68074,139.77369,BOSS Womenswear Shop,"{'Shop': {'Mon': '10:30-19:30', 'Tue': '10:30-19:30', 'Wed': '10:30-19:30', 'Thu': '10:30-19:30', 'Fri': '10:30-19:30', 'Sat': '10:30-19:30', 'Sun': '10:30-19:30'}}",+81 332315218,103-8265,9923734,13,https://www.hugoboss.com/store#lat=35.68074&lng=139.77369
"Nihonbashi, Chuo-ku 2-4-1",Hugo Boss,Tokyo,JP,"{'brand': ['boss'], 'fascia': 'Shop', 'category': ['menswear'], 'edit_date': '20250228', 'lat_lon_source': 'website'}",35.68147,139.77383,BOSS Menswear Shop,"{'Shop': {'Mon': '10:30-19:30', 'Tue': '10:30-19:30', 'Wed': '10:30-19:30', 'Thu': '10:30-19:30', 'Fri': '10:30-19:30', 'Sat': '10:30-19:30', 'Sun': '10:30-19:30'}}",+81332464289,103-8265,9923716,13,https://www.hugoboss.com/store#lat=35.68147&lng=139.77383
"Nihonbashi Muromachi, Chuo-ku 1-4-1",Hugo Boss,Tokyo,JP,"{'brand': ['boss'], 'fascia': 'Shop', 'category': ['womenswear'], 'edit_date': '20250228', 'lat_lon_source': 'website'}",35.68528,139.77333,BOSS Womenswear Shop,"{'Shop': {'Mon': '10:00-19:00', 'Tue': '10:00-19:00', 'Wed': '10:00-19:00', 'Thu': '10:00-19:00', 'Fri': '10:00-19:00', 'Sat': '10:00-19:00', 'Sun': '10:00-19:00'}}",+81 332707740,103-8011,9925311,13,https://www.hugoboss.com/store#lat=35.68528&lng=139.77333
"Nihonbashi Muromachi,  Chuo-ku 1-4-1",Hugo Boss,Tokyo,JP,"{'brand': ['boss', 'boss-green', 'boss-camel'], 'fascia': 'Shop', 'category': ['menswear'], 'edit_date': '20250228', 'lat_lon_source': 'website'}",35.68569,139.77313,BOSS Menswear Shop,"{'Shop': {'Mon': '10:00-19:00', 'Tue': '10:00-19:00', 'Wed': '10:00-19:00', 'Thu': '10:00-19:00', 'Fri': '10:00-19:00', 'Sat': '10:00-19:00', 'Sun': '10:00-19:00'}}",+81 332422339,103-8011,9923762,13,https://www.hugoboss.com/store#lat=35.68569&lng=139.77313
"Nihonbashi Muromachi,  Chuo-ku 1-4-1",Hugo Boss,Tokyo,JP,"{'brand': ['boss'], 'fascia': 'Shop', 'category': ['menswear', 'womenswear'], 'edit_date': '20250228', 'lat_lon_source': 'website'}",35.68564,139.77358,BOSS Kids Shop,"{'Shop': {'Mon': '10:00-19:00', 'Tue': '10:00-19:00', 'Wed': '10:00-19:00', 'Thu': '10:00-19:00', 'Fri': '10:00-19:00', 'Sat': '10:00-19:00', 'Sun': '10:00-19:00'}}",+815035292450,103-8001,9926342,13,https://www.hugoboss.com/store#lat=35.68564&lng=139.77358
"Minami Ikebukuro, Toshima-ku 1-28-1",Hugo Boss,Tokyo,JP,"{'brand': None, 'fascia': 'Shop', 'category': None, 'edit_date': '20250228', 'lat_lon_source': 'website'}",35.72415,139.71059,BOSS Kids Shop,"{'Shop': {'Mon': '10:00-21:00', 'Tue': '10:00-21:00', 'Wed': '10:00-21:00', 'Thu': '10:00-21:00', 'Fri': '10:00-21:00', 'Sat': '10:00-21:00', 'Sun': '10:00-20:00'}}",+81 5036467140,171-0022,9925635,13,https://www.hugoboss.com/store#lat=35.72415&lng=139.71059
"Minami Ikebukuro, Toshima-ku 1-28-1",Hugo Boss,Tokyo,JP,"{'brand': ['boss', 'boss-green'], 'fascia': 'Shop', 'category': ['menswear'], 'edit_date': '20250228', 'lat_lon_source': 'website'}",35.72874,139.71124,BOSS Menswear Shop,"{'Shop': {'Mon': '10:00-20:00', 'Tue': '10:00-20:00', 'Wed': '10:00-20:00', 'Thu': '10:00-20:00', 'Fri': '10:00-20:00', 'Sat': '10:00-20:00', 'Sun': '10:00-20:00'}}",+81 339805262,171-0022,9923714,13,https://www.hugoboss.com/store#lat=35.72874&lng=139.71124
"Yamamuro, Fujimi-shi, 2110-02 1-1313",Hugo Boss,Saitama,JP,"{'brand': ['boss'], 'fascia': 'Shop', 'category': ['menswear', 'womenswear'], 'edit_date': '20250228', 'lat_lon_source': 'website'}",35.85978,139.54858,BOSS Shop,"{'Shop': {'Mon': '10:00-20:00', 'Tue': '10:00-20:00', 'Wed': '10:00-20:00', 'Thu': '10:00-20:00', 'Fri': '10:00-20:00', 'Sat': '10:00-21:00', 'Sun': '10:00-21:00'}}",,354-8560,9925211,11,https://www.hugoboss.com/store#lat=35.85978&lng=139.54858
"Hibino, Mihama-ku, Chiba-shi 2-6-1",Hugo Boss,Chiba,JP,"{'brand': ['boss'], 'fascia': 'Outlet', 'category': ['menswear'], 'edit_date': '20250228', 'lat_lon_source': 'website'}",35.64688,140.04153,BOSS Outlet,"{'Outlet': {'Mon': '10:00-20:00', 'Tue': '10:00-20:00', 'Wed': '10:00-20:00', 'Thu': '10:00-20:00', 'Fri': '10:00-20:00', 'Sat': '10:00-20:00', 'Sun': '10:00-20:00'}}",+81 434457688,261-0021,9925359,12,https://www.hugoboss.com/store#lat=35.64688&lng=140.04153
"Takasago, Urawa-ku, Saitama-shi 1-15-1",Hugo Boss,Saitama City,JP,"{'brand': ['boss'], 'fascia': 'Shop', 'category': ['menswear'], 'edit_date': '20250228', 'lat_lon_source': 'website'}",35.85922,139.65719,BOSS Menswear Shop,"{'Shop': {'Mon': '10:00-19:00', 'Tue': '10:00-19:00', 'Wed': '10:00-19:00', 'Thu': '10:00-19:00', 'Fri': '10:00-19:00', 'Sat': '10:00-19:00', 'Sun': '10:00-19:00'}}",+81 488328106,336-0011,9923775,11,https://www.hugoboss.com/store#lat=35.85922&lng=139.65719
"3-4-1 Tsuruma, Machida-shi 3-4-1",Hugo Boss,Tokyo,JP,"{'brand': ['boss', 'boss-camel'], 'fascia': 'Outlet', 'category': ['menswear'], 'edit_date': '20250228', 'lat_lon_source': 'website'}",35.88036,139.82512,BOSS Outlet,"{'Outlet': {'Mon': '10:00-20:00', 'Tue': '10:00-20:00', 'Wed': '10:00-20:00', 'Thu': '10:00-20:00', 'Fri': '10:00-20:00', 'Sat': '10:00-20:00', 'Sun': '10:00-20:00'}}",+81 5033549620,194-8589,9925360,11,https://www.hugoboss.com/store#lat=35.88036&lng=139.82512
Hiroshima-shi 6-26,Hugo Boss,Hiroshima,JP,"{'brand': ['boss'], 'fascia': 'Shop', 'category': ['menswear'], 'edit_date': '20250228', 'lat_lon_source': 'website'}",34.41026,132.48139,BOSS Menswear Shop,"{'Shop': {'Mon': '10:30-19:30', 'Tue': '10:30-19:30', 'Wed': '10:30-19:30', 'Thu': '10:30-19:30', 'Fri': '10:30-19:30', 'Sat': '10:30-19:30', 'Sun': '10:30-19:30'}}",+81 82-246-6512,730-8548,9924740,34,https://www.hugoboss.com/store#lat=34.41026&lng=132.48139
"Laketown, Koshigaya-shi 4-1-1",Hugo Boss,Saitama,JP,"{'brand': ['boss'], 'fascia': 'Outlet', 'category': ['menswear'], 'edit_date': '20250228', 'lat_lon_source': 'website'}",35.88243,139.82856,BOSS Outlet,"{'Outlet': {'Mon': '10:00-20:00', 'Tue': '10:00-20:00', 'Wed': '10:00-20:00', 'Thu': '10:00-20:00', 'Fri': '10:00-20:00', 'Sat': '10:00-20:00', 'Sun': '10:00-20:00'}}",+815035285780,343-0828,9926593,11,https://www.hugoboss.com/store#lat=35.88243&lng=139.82856
Kuroda Fukaya-shi 169,Hugo Boss,Saitama,JP,"{'brand': ['boss'], 'fascia': 'Outlet', 'category': ['menswear', 'womenswear'], 'edit_date': '20250228', 'lat_lon_source': 'website'}",36.13446,139.25018,BOSS Outlet,"{'Outlet': {'Mon': '10:00-19:00', 'Tue': '10:00-19:00', 'Wed': '10:00-19:00', 'Thu': '10:00-19:00', 'Fri': '10:00-19:00', 'Sat': '10:00-19:00', 'Sun': '10:00-19:00'}}",+81 5036137575,369-1244,9925210,11,https://www.hugoboss.com/store#lat=36.13446&lng=139.25018
"Iizumi, Shisui-machi, Inba-gun 2-4-1",Hugo Boss,Chiba,JP,"{'brand': ['boss'], 'fascia': 'Outlet', 'category': ['menswear'], 'edit_date': '20250228', 'lat_lon_source': 'website'}",35.71399,140.29474,BOSS Outlet,"{'Outlet': {'Mon': '10:00-19:00', 'Tue': '10:00-19:00', 'Wed': '10:00-19:00', 'Thu': '10:00-19:00', 'Fri': '10:00-19:00', 'Sat': '10:00-19:00', 'Sun': '10:00-19:00'}}",+81 432358659,285-0912,9925361,12,https://www.hugoboss.com/store#lat=35.71399&lng=140.29474
"Karuizawa, Karuizawa-machi, Kita Saku-Gun #NE-12",Hugo Boss,Nagano,JP,"{'brand': ['boss'], 'fascia': 'Outlet', 'category': ['menswear', 'womenswear'], 'edit_date': '20250228', 'lat_lon_source': 'website'}",36.37418,138.62886,BOSS Outlet,"{'Outlet': {'Mon': '10:00-19:00', 'Tue': '10:00-19:00', 'Wed': '10:00-19:00', 'Thu': '10:00-19:00', 'Fri': '10:00-19:00', 'Sat': '10:00-19:00', 'Sun': '10:00-19:00'}}",+815036468173,389-0102,9923740,20,https://www.hugoboss.com/store#lat=36.37418&lng=138.62886
"Korinbo, Kanazawa-shi 1-1-1",Hugo Boss,Ishikawa,JP,"{'brand': ['boss'], 'fascia': 'Shop', 'category': ['menswear'], 'edit_date': '20250228', 'lat_lon_source': 'website'}",36.56317,136.65413,BOSS Menswear Shop,"{'Shop': {'Mon': '10:00-19:00', 'Tue': '10:00-19:00', 'Wed': '10:00-19:00', 'Thu': '10:00-19:00', 'Fri': '10:00-19:00', 'Sat': '10:00-19:00', 'Sun': '10:00-19:00'}}",+81762201524,920-8550,9923729,17,https://www.hugoboss.com/store#lat=36.56317&lng=136.65413
"Koenacho, Sano-shi 2058",Hugo Boss,Tochigi,JP,"{'brand': ['boss'], 'fascia': 'Outlet', 'category': ['menswear', 'womenswear'], 'edit_date': '20250228', 'lat_lon_source': 'website'}",36.2924,139.60443,BOSS Outlet,"{'Outlet': {'Mon': '10:00-19:00', 'Tue': '10:00-19:00', 'Wed': '10:00-19:00', 'Thu': '10:00-19:00', 'Fri': '10:00-19:00', 'Sat': '10:00-19:00', 'Sun': '10:00-19:00'}}",+81 283258551,327-0822,9923318,09,https://www.hugoboss.com/store#lat=36.2924&lng=139.60443
"Tetori honcho, Chuo-ku 6-1",Hugo Boss,Kumamoto,JP,"{'brand': ['boss'], 'fascia': 'Shop', 'category': ['menswear'], 'edit_date': '20250228', 'lat_lon_source': 'website'}",32.7989,130.70529,BOSS Menswear Shop,"{'Shop': {'Mon': '10:00-19:00', 'Tue': '10:00-19:00', 'Wed': '10:00-19:00', 'Thu': '10:00-19:00', 'Fri': '10:00-19:30', 'Sat': '10:00-19:30', 'Sun': '10:00-19:00'}}",+81 963225330,860-8586,9923724,43,https://www.hugoboss.com/store#lat=32.7989&lng=130.70529
"Senba-machi, Kokurakita-ku, Kitakyushu-shi 1-1",Hugo Boss,"Kitakyushu City, Fukuoka",JP,"{'brand': ['boss'], 'fascia': 'Shop', 'category': ['menswear'], 'edit_date': '20250228', 'lat_lon_source': 'website'}",33.88444,130.87826,BOSS Menswear Shop,"{'Shop': {'Mon': '10:00-19:00', 'Tue': '10:00-19:00', 'Wed': '10:00-19:00', 'Thu': '10:00-19:00', 'Fri': '10:00-19:00', 'Sat': '10:00-19:00', 'Sun': '10:00-19:00'}}",+81 935222518,802-8511,9923619,40,https://www.hugoboss.com/store#lat=33.88444&lng=130.87826
"Higashida, Yahata Higashi-ku, Kita Kyushu-shi 4-1-101",Hugo Boss,Fukuoka,JP,"{'brand': ['boss'], 'fascia': 'Outlet', 'category': ['menswear'], 'edit_date': '20250228', 'lat_lon_source': 'website'}",33.87389,130.81147,BOSS Outlet,"{'Outlet': {'Mon': '10:00-20:00', 'Tue': '10:00-20:00', 'Wed': '10:00-20:00', 'Thu': '10:00-20:00', 'Fri': '10:00-20:00', 'Sat': '10:00-20:00', 'Sun': '10:00-20:00'}}",+81 5036469131,805-0071,9925275,40,https://www.hugoboss.com/store#lat=33.87389&lng=130.81147
"Shionosaki, Nasu Shiobara-shi 184-7",Hugo Boss,Tochigi,JP,"{'brand': ['boss'], 'fascia': 'Outlet', 'category': ['menswear'], 'edit_date': '20250228', 'lat_lon_source': 'website'}",36.96583,139.99112,BOSS Outlet,"{'Outlet': {'Mon': '10:00-19:00', 'Tue': '10:00-19:00', 'Wed': '10:00-19:00', 'Thu': '10:00-19:00', 'Fri': '10:00-19:00', 'Sat': '10:00-19:00', 'Sun': '10:00-19:00'}}",+81 5035290928,329-3122,9925651,09,https://www.hugoboss.com/store#lat=36.96583&lng=139.99112
"Yayoigaoka, Tosu-shi 8-1",Hugo Boss,Saga,JP,"{'brand': ['boss'], 'fascia': 'Outlet', 'category': ['menswear', 'womenswear'], 'edit_date': '20250228', 'lat_lon_source': 'website'}",33.4065,130.51165,BOSS Outlet,"{'Outlet': {'Mon': '10:00-19:00', 'Tue': '10:00-19:00', 'Wed': '10:00-19:00', 'Thu': '10:00-19:00', 'Fri': '10:00-19:00', 'Sat': '10:00-19:00', 'Sun': '10:00-19:00'}}",+81 942857608,841-0005,9925493,41,https://www.hugoboss.com/store#lat=33.4065&lng=130.51165
"Hakataeki Chu-ogai, Hakata-ku, Fukuoka-shi 1-1",Hugo Boss,Fukuoka,JP,"{'brand': ['boss', 'boss-green'], 'fascia': 'Shop', 'category': ['menswear'], 'edit_date': '20250228', 'lat_lon_source': 'website'}",33.58997,130.42064,BOSS Menswear Shop,"{'Shop': {'Mon': '10:00-20:00', 'Tue': '10:00-20:00', 'Wed': '10:00-20:00', 'Thu': '10:00-20:00', 'Fri': '10:00-20:00', 'Sat': '10:00-20:00', 'Sun': '10:00-20:00'}}",+81 5036127382,812-0012,9921816,40,https://www.hugoboss.com/store#lat=33.58997&lng=130.42064
"Tenjin, Chuo-ku, Fukuoka-shi 2-5-35",Hugo Boss,Fukuoka,JP,"{'brand': ['boss', 'boss-camel'], 'fascia': 'Shop', 'category': ['menswear'], 'edit_date': '20250228', 'lat_lon_source': 'website'}",33.58892,130.39745,BOSS Menswear Shop,"{'Shop': {'Mon': '10:00-20:00', 'Tue': '10:00-20:00', 'Wed': '10:00-20:00', 'Thu': '10:00-20:00', 'Fri': '10:00-20:00', 'Sat': '10:00-20:00', 'Sun': '10:00-20:00'}}",+81 927712877,810-8680,9923773,40,https://www.hugoboss.com/store#lat=33.58892&lng=130.39745
"Yachiyo, Chuo-ku 1-6-1",Hugo Boss,Niigata City,JP,"{'brand': ['boss'], 'fascia': 'Shop', 'category': ['menswear'], 'edit_date': '20250228', 'lat_lon_source': 'website'}",37.91574,139.05529,BOSS Menswear Shop,"{'Shop': {'Mon': '10:00-19:00', 'Tue': '10:00-19:00', 'Wed': '10:00-19:00', 'Thu': '10:00-19:00', 'Fri': '10:00-19:00', 'Sat': '10:00-19:00', 'Sun': '10:00-19:00'}}",,950-0909,9929485,15,https://www.hugoboss.com/store#lat=37.91574&lng=139.05529
"Ichibancho, Aoba-ku, Sendai-shi 4-8-15",Hugo Boss,Miyagi,JP,"{'brand': ['boss'], 'fascia': 'Shop', 'category': ['menswear'], 'edit_date': '20250228', 'lat_lon_source': 'website'}",38.2652,140.87103,BOSS Menswear Shop,"{'Shop': {'Mon': '10:00-19:30', 'Tue': '10:00-19:30', 'Wed': '10:00-19:30', 'Thu': '10:00-19:30', 'Fri': '10:00-19:30', 'Sat': '10:00-19:30', 'Sun': '10:00-19:30'}}",+81 222169055,980-0811,9923763,45,https://www.hugoboss.com/store#lat=38.2652&lng=140.87103
"147 Gijanghaean-ro Gijang-eup, Gijang-gun",Hugo Boss,Busan,KR,"{'brand': ['boss', 'boss-green'], 'fascia': 'Outlet', 'category': ['menswear'], 'edit_date': '20250228', 'lat_lon_source': 'website'}",35.19245,129.21235,BOSS Outlet,"{'Outlet': {'Mon': '10:30-20:30', 'Tue': '10:30-20:30', 'Wed': '10:30-20:30', 'Thu': '10:30-20:30', 'Fri': '10:30-21:00', 'Sat': '10:30-21:00', 'Sun': '10:30-20:30'}}",+82 519012535,46083,9928644,13,https://www.hugoboss.com/store#lat=35.19245&lng=129.21235
"35 Centum4-ro, Haeundae-gu",Hugo Boss,Busan,KR,"{'brand': ['boss'], 'fascia': 'Travel Store', 'category': ['menswear'], 'edit_date': '20250228', 'lat_lon_source': 'website'}",35.16134,129.18211,BOSS Store,"{'Travel Store': {'Mon': '09:30-20:00', 'Tue': '09:30-20:00', 'Wed': '09:30-20:00', 'Thu': '09:30-20:00', 'Fri': '09:30-20:00', 'Sat': '09:30-20:00', 'Sun': '09:30-20:00'}}",+82 517491462,48058,1026680,12,https://www.hugoboss.com/store#lat=35.16134&lng=129.18211
1133 Jeonggwan-ro,Hugo Boss,"Gijang-gun, Busan",KR,"{'brand': ['boss', 'boss-green', 'boss-camel'], 'fascia': 'Outlet', 'category': ['menswear'], 'edit_date': '20250228', 'lat_lon_source': 'website'}",35.32408,129.23589,BOSS Outlet,"{'Outlet': {'Mon': '10:30-21:00', 'Tue': '10:30-21:00', 'Wed': '10:30-21:00', 'Thu': '10:30-21:00', 'Fri': '10:30-21:00', 'Sat': '10:30-21:00', 'Sun': '10:30-21:00'}}",+82 51 940 1150,10000,9928695,01,https://www.hugoboss.com/store#lat=35.32408&lng=129.23589
"1495 Woo-Dong, Haeundae-Gu",Hugo Boss,Busan,KR,"{'brand': ['boss', 'boss-camel'], 'fascia': 'Shop', 'category': ['menswear'], 'edit_date': '20250228', 'lat_lon_source': 'website'}",35.16907,129.12974,BOSS Menswear Shop,"{'Shop': {'Mon': '11:00-20:00', 'Tue': '11:00-20:00', 'Wed': '11:00-20:00', 'Thu': '11:00-20:00', 'Fri': '11:00-20:30', 'Sat': '11:00-20:30', 'Sun': '11:00-20:00'}}",+82 517452480,48058,9928611,12,https://www.hugoboss.com/store#lat=35.16907&lng=129.12974
1493 Shinsegae Centum DFS,Hugo Boss,Busan,KR,"{'brand': ['boss', 'boss-green'], 'fascia': 'Shop', 'category': ['menswear'], 'edit_date': '20250228', 'lat_lon_source': 'website'}",35.16986,129.12827,BOSS Menswear Shop,"{'Shop': {'Mon': '09:30-20:00', 'Tue': '09:30-20:00', 'Wed': '09:30-20:00', 'Thu': '09:30-20:00', 'Fri': '09:30-20:00', 'Sat': '09:30-20:00', 'Sun': '09:30-20:00'}}",+82 517753259,48058,9928651,13,https://www.hugoboss.com/store#lat=35.16986&lng=129.12827
"772 Bujeon-Dong, Gaya-Daero, Busanji-Gu",Hugo Boss,Busan,KR,"{'brand': ['boss', 'boss-green'], 'fascia': 'Shop', 'category': ['menswear'], 'edit_date': '20250228', 'lat_lon_source': 'website'}",35.15685,129.05665,BOSS Shop,"{'Shop': {'Mon': '09:30-20:00', 'Tue': '09:30-20:00', 'Wed': '09:30-20:00', 'Thu': '09:30-20:00', 'Fri': '09:30-20:00', 'Sat': '09:30-20:00', 'Sun': '09:30-20:00'}}",+82 518102871,47285,9928628,12,https://www.hugoboss.com/store#lat=35.15685&lng=129.05665
"772 Gayadae-ro, Busanjin-Gu",Hugo Boss,Busan,KR,"{'brand': ['boss', 'boss-camel'], 'fascia': 'Shop', 'category': ['menswear'], 'edit_date': '20250228', 'lat_lon_source': 'website'}",35.15994,129.05475,BOSS Menswear Shop,"{'Shop': {'Mon': '10:30-20:00', 'Tue': '10:30-20:00', 'Wed': '10:30-20:00', 'Thu': '10:30-20:00', 'Fri': '10:30-20:30', 'Sat': '10:30-20:30', 'Sun': '10:30-20:00'}}",+82 518104255,47285,9928615,12,https://www.hugoboss.com/store#lat=35.15994&lng=129.05475
"124 Jungang-daero, Seongsan-gu",Hugo Boss,Changwon-si,KR,"{'brand': ['boss', 'boss-camel'], 'fascia': 'Shop', 'category': ['menswear', 'womenswear'], 'edit_date': '20250228', 'lat_lon_source': 'website'}",35.22452,128.68191,BOSS Menswear Shop,"{'Shop': {'Mon': '10:30-20:00', 'Tue': '10:30-20:00', 'Wed': '10:30-20:00', 'Thu': '10:30-20:00', 'Fri': '10:30-20:30', 'Sat': '10:30-20:30', 'Sun': '10:30-20:30'}}",,51494,9926548,11,https://www.hugoboss.com/store#lat=35.22452&lng=128.68191
"149 Dongbu-ro, Dong-gu",Hugo Boss,Daegu,KR,"{'brand': None, 'fascia': 'Shop', 'category': None, 'edit_date': '20250228', 'lat_lon_source': 'website'}",35.8778,128.62844,BOSS Menswear Shop,Not Available,,41229,9928690,10,https://www.hugoboss.com/store#lat=35.8778&lng=128.62844
"200 2Ga Gyesan-Dong, Jung-Gu",Hugo Boss,Daegu,KR,"{'brand': ['boss', 'boss-green', 'boss-camel'], 'fascia': 'Shop', 'category': ['menswear'], 'edit_date': '20250228', 'lat_lon_source': 'website'}",35.86632,128.59075,BOSS Menswear Shop,"{'Shop': {'Mon': '10:30-20:00', 'Tue': '10:30-20:00', 'Wed': '10:30-20:00', 'Thu': '10:30-20:00', 'Fri': '10:30-20:30', 'Sat': '10:30-20:30', 'Sun': '10:30-20:00'}}",+82 532452213,41936,9928614,14,https://www.hugoboss.com/store#lat=35.86632&lng=128.59075
"268 Dongnip-ro, Dong-gu, Gwangju",Hugo Boss,Gwangju,KR,"{'brand': ['boss'], 'fascia': 'Shop', 'category': ['menswear'], 'edit_date': '20250228', 'lat_lon_source': 'website'}",35.15461,126.91222,BOSS Menswear Shop,"{'Shop': {'Mon': '10:30-20:00', 'Tue': '10:30-20:00', 'Wed': '10:30-20:00', 'Thu': '10:30-20:00', 'Fri': '10:30-20:30', 'Sat': '10:30-20:30', 'Sun': '10:30-20:00'}}",+82 622211781,00000,9928656,13,https://www.hugoboss.com/store#lat=35.15461&lng=126.91222
"38 Sinhwayeoksa-ro 304beongil, Andeok-myeon,",Hugo Boss,Jeju,KR,"{'brand': ['boss', 'boss-green'], 'fascia': 'Shop', 'category': ['menswear'], 'edit_date': '20250228', 'lat_lon_source': 'website'}",33.30761,126.31627,BOSS Menswear Shop,Not Available,,63522,9928683,01,https://www.hugoboss.com/store#lat=33.30761&lng=126.31627
1 Expo-ro,Hugo Boss,"Yuseong-gu, Daejeon",KR,"{'brand': ['boss', 'boss-camel'], 'fascia': 'Shop', 'category': ['menswear'], 'edit_date': '20250228', 'lat_lon_source': 'website'}",36.35028,127.43662,BOSS Menswear Shop,"{'Shop': {'Mon': '10:30-20:00', 'Tue': '10:30-20:00', 'Wed': '10:30-20:00', 'Thu': '10:30-20:00', 'Fri': '10:30-20:30', 'Sat': '10:30-20:30', 'Sun': '10:30-20:30'}}",+82 426078208,34126,9928684,01,https://www.hugoboss.com/store#lat=36.35028&lng=127.43662
"123 Techno jungang-ro, Yuseong-gu",Hugo Boss,Daejeon,KR,"{'brand': ['boss', 'boss-green'], 'fascia': 'Outlet', 'category': ['menswear'], 'edit_date': '20250228', 'lat_lon_source': 'website'}",36.4238,127.39396,BOSS Outlet,"{'Outlet': {'Mon': ""['10:30', '12:00']-['12:00', '21:30']"", 'Tue': ""['10:30', '12:00']-['12:00', '21:30']"", 'Wed': ""['10:30', '12:00']-['12:00', '21:30']"", 'Thu': ""['10:30', '12:00']-['12:00', '21:30']"", 'Fri': ""['10:30', '12:00']-['12:00', '21:30']"", 'Sat': ""['10:30', '12:00']-['12:00', '21:30']"", 'Sun': ""['10:30', '12:00']-['12:00', '21:30']""}}",+82 423322449,34030,9928685,15,https://www.hugoboss.com/store#lat=36.4238&lng=127.39396
"308 Jikji-daero, Heungdeok-gu",Hugo Boss,Cheongju-si,KR,"{'brand': ['boss'], 'fascia': 'Shop', 'category': ['menswear'], 'edit_date': '20250228', 'lat_lon_source': 'website'}",36.64607,127.42085,BOSS Menswear Shop,"{'Shop': {'Mon': ""['10:30', '12:00']-['12:00', '21:00']"", 'Tue': ""['10:30', '12:00']-['12:00', '21:00']"", 'Wed': ""['10:30', '12:00']-['12:00', '21:00']"", 'Thu': ""['10:30', '12:00']-['12:00', '21:00']"", 'Fri': ""['10:30', '12:00']-['12:00', '21:00']"", 'Sat': ""['10:30', '12:00']-['12:00', '21:00']"", 'Sun': ""['10:30', '12:00']-['12:00', '21:00']""}}",+82 439094443,28424,9928686,04,https://www.hugoboss.com/store#lat=36.64607&lng=127.42085
"360 Myeongpum-ro, Yeoju-si, Gyeonggi-do",Hugo Boss,Yeoju,KR,"{'brand': ['boss', 'boss-green'], 'fascia': 'Outlet', 'category': ['menswear'], 'edit_date': '20250228', 'lat_lon_source': 'website'}",37.24161,127.61299,BOSS Outlet,"{'Outlet': {'Mon': '10:30-20:30', 'Tue': '10:30-20:30', 'Wed': '10:30-20:30', 'Thu': '10:30-20:30', 'Fri': '10:30-21:00', 'Sat': '10:30-21:00', 'Sun': '10:30-20:30'}}",+82 318801327,12646,9928639,13,https://www.hugoboss.com/store#lat=37.24161&lng=127.61299
"Toyosaki, Tomigusuku-shi 1-188",Hugo Boss,Okinawa,JP,"{'brand': ['boss'], 'fascia': 'Outlet', 'category': ['menswear'], 'edit_date': '20250228', 'lat_lon_source': 'website'}",26.15809,127.65708,BOSS Outlet,"{'Outlet': {'Mon': '10:00-20:30', 'Tue': '10:00-20:30', 'Wed': '10:00-20:30', 'Thu': '10:00-20:30', 'Fri': '10:00-20:30', 'Sat': '10:00-20:30', 'Sun': '10:00-20:30'}}",+815036129727,901-0225,9923618,47,https://www.hugoboss.com/store#lat=26.15809&lng=127.65708
"967-2419 Osan-dong, Hwasung-si, Gyeonggi-do",Hugo Boss,Hwaseong,KR,"{'brand': ['boss'], 'fascia': 'Shop', 'category': ['menswear'], 'edit_date': '20250228', 'lat_lon_source': 'website'}",37.15122,127.07523,BOSS Menswear Shop,"{'Shop': {'Mon': '10:30-20:00', 'Tue': '10:30-20:00', 'Wed': '10:30-20:00', 'Thu': '10:30-20:00', 'Fri': '10:30-20:30', 'Sat': '10:30-20:30', 'Sun': '10:30-20:30'}}",+82 3180363623,18478,9928678,09,https://www.hugoboss.com/store#lat=37.15122&lng=127.07523
"536 Poeun-daero, Suji-gu, Yongin-si",Hugo Boss,Yong-in,KR,"{'brand': ['boss', 'boss-camel'], 'fascia': 'Shop', 'category': ['menswear'], 'edit_date': '20250228', 'lat_lon_source': 'website'}",37.32492,127.10813,BOSS Menswear Shop,"{'Shop': {'Mon': '11:00-20:00', 'Tue': '11:00-20:00', 'Wed': '11:00-20:00', 'Thu': '11:00-20:00', 'Fri': '11:00-20:30', 'Sat': '11:00-20:30', 'Sun': '11:00-20:00'}}",+82 8892136,16896,9928660,09,https://www.hugoboss.com/store#lat=37.32492&lng=127.10813
