addr_full,brand,city,country,extras,lat,long,name,opening_hours,phone,postcode,ref,state,website
"3-14-1 1F, Shinjuku-ku, Tokyo, 13 160-0022",Miu Miu,160-0022,JP,"{'brand': 'Miu Miu', 'fascia': 'Miu Miu', 'category': 'Fashion ', 'edit_date': '20250305', 'lat_lon_source': 'thirdparty'}",,,Miu Miu Tokyo Shinjuku Isetan Bags & Acc.,"{'Mon': 'Closed', 'Tue': 'Closed', 'Wed': 'Closed', 'Thu': 'Closed', 'Fri': 'Closed', 'Sat': 'Closed', 'Sun': 'Closed'}",+81353662451,160-0022,S602,,"https://cdn.yextapis.com/v2/accounts/me/search/vertical/query?api_key=61119b3d853ae12bf41e7bd9501a718b&locale=en&v=20220511&limit=50&experienceKey=miumiu-experience&verticalKey=miumiu-locations&retrieveFacets=true&input=&offset=0&location=36.204824,138.252924&locationRadius=5000000"
"3-14-1 3F, Shinjuku-ku, Tokyo, 13 160-0022",Miu Miu,160-0022,JP,"{'brand': 'Miu Miu', 'fascia': 'Miu Miu', 'category': 'Fashion ', 'edit_date': '20250305', 'lat_lon_source': 'thirdparty'}",,,Miu Miu Tokyo Shinjuku Isetan 3F,"{'Mon': 'Closed', 'Tue': 'Closed', 'Wed': 'Closed', 'Thu': 'Closed', 'Fri': 'Closed', 'Sat': 'Closed', 'Sun': 'Closed'}",+81332250145,160-0022,S411,,"https://cdn.yextapis.com/v2/accounts/me/search/vertical/query?api_key=61119b3d853ae12bf41e7bd9501a718b&locale=en&v=20220511&limit=50&experienceKey=miumiu-experience&verticalKey=miumiu-locations&retrieveFacets=true&input=&offset=0&location=36.204824,138.252924&locationRadius=5000000"
"2F Bldg.-B, , 21-1, Udagawa-cho 2F Bldg.-B, Shibuya-ku, Tokyo, 13 150-8330",Miu Miu,150-8330,JP,"{'brand': 'Miu Miu', 'fascia': 'Miu Miu', 'category': 'Fashion ', 'edit_date': '20250305', 'lat_lon_source': 'thirdparty'}",,,Miu Miu Tokyo Shibuya Seibu,"{'Mon': 'Closed', 'Tue': 'Closed', 'Wed': 'Closed', 'Thu': 'Closed', 'Fri': 'Closed', 'Sat': 'Closed', 'Sun': 'Closed'}",+81334643781,150-8330,SB97,,"https://cdn.yextapis.com/v2/accounts/me/search/vertical/query?api_key=61119b3d853ae12bf41e7bd9501a718b&locale=en&v=20220511&limit=50&experienceKey=miumiu-experience&verticalKey=miumiu-locations&retrieveFacets=true&input=&offset=0&location=36.204824,138.252924&locationRadius=5000000"
"3-17-8, Minami-Aoyama , Minato-ku, Tokyo, 13 107-0062",Miu Miu,107-0062,JP,"{'brand': 'Miu Miu', 'fascia': 'Miu Miu', 'category': 'Fashion ', 'edit_date': '20250305', 'lat_lon_source': 'thirdparty'}",,,Miu Miu Tokyo Aoyama Barbison,"{'Mon': 'Closed', 'Tue': 'Closed', 'Wed': 'Closed', 'Thu': 'Closed', 'Fri': 'Closed', 'Sat': 'Closed', 'Sun': 'Closed'}",+81364348591,107-0062,S606,,"https://cdn.yextapis.com/v2/accounts/me/search/vertical/query?api_key=61119b3d853ae12bf41e7bd9501a718b&locale=en&v=20220511&limit=50&experienceKey=miumiu-experience&verticalKey=miumiu-locations&retrieveFacets=true&input=&offset=0&location=36.204824,138.252924&locationRadius=5000000"
"1-9-1, Marunouchi, Chiyoda-ku 2F, , Tokyo, 13 100-6701",Miu Miu,100-6701,JP,"{'brand': 'Miu Miu', 'fascia': 'Miu Miu', 'category': 'Fashion ', 'edit_date': '20250305', 'lat_lon_source': 'thirdparty'}",,,Miu Miu Tokyo Daimaru Station,"{'Mon': 'Closed', 'Tue': 'Closed', 'Wed': 'Closed', 'Thu': 'Closed', 'Fri': 'Closed', 'Sat': 'Closed', 'Sun': 'Closed'}",+81352217432,100-6701,S644,,"https://cdn.yextapis.com/v2/accounts/me/search/vertical/query?api_key=61119b3d853ae12bf41e7bd9501a718b&locale=en&v=20220511&limit=50&experienceKey=miumiu-experience&verticalKey=miumiu-locations&retrieveFacets=true&input=&offset=0&location=36.204824,138.252924&locationRadius=5000000"
"2F, 2-18-1, Takashima Nishi-ku, Kanagawa, Yokohama, 13 220-8510",Miu Miu,220-8510,JP,"{'brand': 'Miu Miu', 'fascia': 'Miu Miu', 'category': 'Fashion ', 'edit_date': '20250305', 'lat_lon_source': 'thirdparty'}",,,Miu Miu Yokohama Sogo,"{'Mon': 'Closed', 'Tue': 'Closed', 'Wed': 'Closed', 'Thu': 'Closed', 'Fri': 'Closed', 'Sat': 'Closed', 'Sun': 'Closed'}",+81454418651,220-8510,S617,,"https://cdn.yextapis.com/v2/accounts/me/search/vertical/query?api_key=61119b3d853ae12bf41e7bd9501a718b&locale=en&v=20220511&limit=50&experienceKey=miumiu-experience&verticalKey=miumiu-locations&retrieveFacets=true&input=&offset=0&location=36.204824,138.252924&locationRadius=5000000"
"2-6-5, Ginza , Chuo-ku, Tokyo, 13 104-0061",Miu Miu,104-0061,JP,"{'brand': 'Miu Miu', 'fascia': 'Miu Miu', 'category': 'Fashion ', 'edit_date': '20250305', 'lat_lon_source': 'thirdparty'}",,,Miu Miu Tokyo Ginza Echigoya,"{'Mon': 'Closed', 'Tue': 'Closed', 'Wed': 'Closed', 'Thu': 'Closed', 'Fri': 'Closed', 'Sat': 'Closed', 'Sun': 'Closed'}",+81335383181,104-0061,S621,,"https://cdn.yextapis.com/v2/accounts/me/search/vertical/query?api_key=61119b3d853ae12bf41e7bd9501a718b&locale=en&v=20220511&limit=50&experienceKey=miumiu-experience&verticalKey=miumiu-locations&retrieveFacets=true&input=&offset=0&location=36.204824,138.252924&locationRadius=5000000"
"2F Main Bldg., 3-16-1, Sakae 2F Main Bldg., Naka-ku, Nagoya, 23 460-8430",Miu Miu,460-8430,JP,"{'brand': 'Miu Miu', 'fascia': 'Miu Miu', 'category': 'Fashion ', 'edit_date': '20250305', 'lat_lon_source': 'thirdparty'}",,,Miu Miu Nagoya Matsuzakaya,"{'Mon': 'Closed', 'Tue': 'Closed', 'Wed': 'Closed', 'Thu': 'Closed', 'Fri': 'Closed', 'Sat': 'Closed', 'Sun': 'Closed'}",+81522513805,460-8430,SE62,,"https://cdn.yextapis.com/v2/accounts/me/search/vertical/query?api_key=61119b3d853ae12bf41e7bd9501a718b&locale=en&v=20220511&limit=50&experienceKey=miumiu-experience&verticalKey=miumiu-locations&retrieveFacets=true&input=&offset=0&location=36.204824,138.252924&locationRadius=5000000"
"2F, 1-1-4, Meieki 2F, Nakamura-ku, Nagoya, 23 450-6001",Miu Miu,450-6001,JP,"{'brand': 'Miu Miu', 'fascia': 'Miu Miu', 'category': 'Fashion ', 'edit_date': '20250305', 'lat_lon_source': 'thirdparty'}",,,Miu Miu Nagoya Takashimaya,"{'Mon': 'Closed', 'Tue': 'Closed', 'Wed': 'Closed', 'Thu': 'Closed', 'Fri': 'Closed', 'Sat': 'Closed', 'Sun': 'Closed'}",+81525713611,450-6001,S636,,"https://cdn.yextapis.com/v2/accounts/me/search/vertical/query?api_key=61119b3d853ae12bf41e7bd9501a718b&locale=en&v=20220511&limit=50&experienceKey=miumiu-experience&verticalKey=miumiu-locations&retrieveFacets=true&input=&offset=0&location=36.204824,138.252924&locationRadius=5000000"
"4F, 1000, Shinmachi 4F, Chuo-ku, Chiba, 12 260-8557",Miu Miu,260-8557,JP,"{'brand': 'Miu Miu', 'fascia': 'Miu Miu', 'category': 'Fashion ', 'edit_date': '20250305', 'lat_lon_source': 'thirdparty'}",,,Miu Miu Chiba Sogo,"{'Mon': 'Closed', 'Tue': 'Closed', 'Wed': 'Closed', 'Thu': 'Closed', 'Fri': 'Closed', 'Sat': 'Closed', 'Sun': 'Closed'}",+81432458064,260-8557,S647,,"https://cdn.yextapis.com/v2/accounts/me/search/vertical/query?api_key=61119b3d853ae12bf41e7bd9501a718b&locale=en&v=20220511&limit=50&experienceKey=miumiu-experience&verticalKey=miumiu-locations&retrieveFacets=true&input=&offset=0&location=36.204824,138.252924&locationRadius=5000000"
"2F, 79, Tachiuri-Nishimachi, Takaura Nishiru, Shijo-dori 2F, Shimogyo-ku, Kyoto, 26 600-8511",Miu Miu,600-8511,JP,"{'brand': 'Miu Miu', 'fascia': 'Miu Miu', 'category': 'Fashion ', 'edit_date': '20250305', 'lat_lon_source': 'thirdparty'}",,,Miu Miu Kyoto Daimaru,"{'Mon': 'Closed', 'Tue': 'Closed', 'Wed': 'Closed', 'Thu': 'Closed', 'Fri': 'Closed', 'Sat': 'Closed', 'Sun': 'Closed'}",+81752555171,600-8511,S616,,"https://cdn.yextapis.com/v2/accounts/me/search/vertical/query?api_key=61119b3d853ae12bf41e7bd9501a718b&locale=en&v=20220511&limit=50&experienceKey=miumiu-experience&verticalKey=miumiu-locations&retrieveFacets=true&input=&offset=0&location=36.204824,138.252924&locationRadius=5000000"
"8-7, Kakuda-cho, Kita-ku 5F, , Osaka, 27 530-8350",Miu Miu,530-8350,JP,"{'brand': 'Miu Miu', 'fascia': 'Miu Miu', 'category': 'Fashion ', 'edit_date': '20250305', 'lat_lon_source': 'thirdparty'}",,,Miu Miu Osaka Umeda Hankyu 5F,"{'Mon': 'Closed', 'Tue': 'Closed', 'Wed': 'Closed', 'Thu': 'Closed', 'Fri': 'Closed', 'Sat': 'Closed', 'Sun': 'Closed'}",+81663137362,530-8350,S448,,"https://cdn.yextapis.com/v2/accounts/me/search/vertical/query?api_key=61119b3d853ae12bf41e7bd9501a718b&locale=en&v=20220511&limit=50&experienceKey=miumiu-experience&verticalKey=miumiu-locations&retrieveFacets=true&input=&offset=0&location=36.204824,138.252924&locationRadius=5000000"
"4F, 8-7, Kakuda-cho 4F, Kita-ku, Osaka, 27 530-8350",Miu Miu,530-8350,JP,"{'brand': 'Miu Miu', 'fascia': 'Miu Miu', 'category': 'Fashion ', 'edit_date': '20250305', 'lat_lon_source': 'thirdparty'}",,,Miu Miu Osaka Umeda Hankyu 4F,"{'Mon': 'Closed', 'Tue': 'Closed', 'Wed': 'Closed', 'Thu': 'Closed', 'Fri': 'Closed', 'Sat': 'Closed', 'Sun': 'Closed'}",+81663139814,530-8350,SD20,,"https://cdn.yextapis.com/v2/accounts/me/search/vertical/query?api_key=61119b3d853ae12bf41e7bd9501a718b&locale=en&v=20220511&limit=50&experienceKey=miumiu-experience&verticalKey=miumiu-locations&retrieveFacets=true&input=&offset=0&location=36.204824,138.252924&locationRadius=5000000"
"2F, 8-7, Kakuda-cho 2F, Kita-ku, Osaka, 27 530-8350",Miu Miu,530-8350,JP,"{'brand': 'Miu Miu', 'fascia': 'Miu Miu', 'category': 'Fashion ', 'edit_date': '20250305', 'lat_lon_source': 'thirdparty'}",,,Miu Miu Osaka Umeda Hankyu Bags & Acc.,"{'Mon': 'Closed', 'Tue': 'Closed', 'Wed': 'Closed', 'Thu': 'Closed', 'Fri': 'Closed', 'Sat': 'Closed', 'Sun': 'Closed'}",+81663130378,530-8350,S642,,"https://cdn.yextapis.com/v2/accounts/me/search/vertical/query?api_key=61119b3d853ae12bf41e7bd9501a718b&locale=en&v=20220511&limit=50&experienceKey=miumiu-experience&verticalKey=miumiu-locations&retrieveFacets=true&input=&offset=0&location=36.204824,138.252924&locationRadius=5000000"
"2F, 3-14-1, Shinjuku 2F, Shinjuku-ku, Tokyo, 13 160-0022",Miu Miu,160-0022,JP,"{'brand': 'Miu Miu', 'fascia': 'Miu Miu', 'category': 'Fashion ', 'edit_date': '20250305', 'lat_lon_source': 'thirdparty'}",,,Miu Miu Tokyo Shinjuku Isetan Shoes,"{'Mon': 'Closed', 'Tue': 'Closed', 'Wed': 'Closed', 'Thu': 'Closed', 'Fri': 'Closed', 'Sat': 'Closed', 'Sun': 'Closed'}",+81353792750,160-0022,S645,,"https://cdn.yextapis.com/v2/accounts/me/search/vertical/query?api_key=61119b3d853ae12bf41e7bd9501a718b&locale=en&v=20220511&limit=50&experienceKey=miumiu-experience&verticalKey=miumiu-locations&retrieveFacets=true&input=&offset=0&location=36.204824,138.252924&locationRadius=5000000"
"Kakuda-cho , Kita-Ku 8-7, , Osaka, 530 530-8350",Miu Miu,530-8350,JP,"{'brand': 'Miu Miu', 'fascia': 'Miu Miu', 'category': 'Fashion ', 'edit_date': '20250305', 'lat_lon_source': 'thirdparty'}",,,Miu Miu Osaka Umeda Hankyu 8F,"{'Mon': 'Closed', 'Tue': 'Closed', 'Wed': 'Closed', 'Thu': 'Closed', 'Fri': 'Closed', 'Sat': 'Closed', 'Sun': 'Closed'}",+81663132050,530-8350,SH44,,"https://cdn.yextapis.com/v2/accounts/me/search/vertical/query?api_key=61119b3d853ae12bf41e7bd9501a718b&locale=en&v=20220511&limit=50&experienceKey=miumiu-experience&verticalKey=miumiu-locations&retrieveFacets=true&input=&offset=0&location=36.204824,138.252924&locationRadius=5000000"
"3F, 3-1-1, Umeda 3F, Kita-ku, Osaka, 27 530-8202",Miu Miu,530-8202,JP,"{'brand': 'Miu Miu', 'fascia': 'Miu Miu', 'category': 'Fashion ', 'edit_date': '20250305', 'lat_lon_source': 'thirdparty'}",,,Miu Miu Osaka Umeda Daimaru,"{'Mon': 'Closed', 'Tue': 'Closed', 'Wed': 'Closed', 'Thu': 'Closed', 'Fri': 'Closed', 'Sat': 'Closed', 'Sun': 'Closed'}",+81663421146,530-8202,S628,,"https://cdn.yextapis.com/v2/accounts/me/search/vertical/query?api_key=61119b3d853ae12bf41e7bd9501a718b&locale=en&v=20220511&limit=50&experienceKey=miumiu-experience&verticalKey=miumiu-locations&retrieveFacets=true&input=&offset=0&location=36.204824,138.252924&locationRadius=5000000"
"大阪市中央区心斎橋筋1-7-1 大丸心斎橋店本館2F , , Osaka, 27 542-8501",Miu Miu,542-8501,JP,"{'brand': 'Miu Miu', 'fascia': 'Miu Miu', 'category': 'Fashion ', 'edit_date': '20250305', 'lat_lon_source': 'thirdparty'}",,,Miu Miu ミュウミュウ 大丸心斎橋店,"{'Mon': 'Closed', 'Tue': 'Closed', 'Wed': 'Closed', 'Thu': 'Closed', 'Fri': 'Closed', 'Sat': 'Closed', 'Sun': 'Closed'}",+81662412961,542-8501,S622,,"https://cdn.yextapis.com/v2/accounts/me/search/vertical/query?api_key=61119b3d853ae12bf41e7bd9501a718b&locale=en&v=20220511&limit=50&experienceKey=miumiu-experience&verticalKey=miumiu-locations&retrieveFacets=true&input=&offset=0&location=36.204824,138.252924&locationRadius=5000000"
"18-1, Akashimachi , Chuo-ku, Kobe, 28 650-0037",Miu Miu,650-0037,JP,"{'brand': 'Miu Miu', 'fascia': 'Miu Miu', 'category': 'Fashion ', 'edit_date': '20250305', 'lat_lon_source': 'thirdparty'}",,,Miu Miu Kobe,"{'Mon': 'Closed', 'Tue': 'Closed', 'Wed': 'Closed', 'Thu': 'Closed', 'Fri': 'Closed', 'Sat': 'Closed', 'Sun': 'Closed'}",+81783347601,650-0037,SB94,,"https://cdn.yextapis.com/v2/accounts/me/search/vertical/query?api_key=61119b3d853ae12bf41e7bd9501a718b&locale=en&v=20220511&limit=50&experienceKey=miumiu-experience&verticalKey=miumiu-locations&retrieveFacets=true&input=&offset=0&location=36.204824,138.252924&locationRadius=5000000"
"福岡市中央区天神2-5-35 岩田屋本店本館1F , , Fukuoka, 40 810-8680",Miu Miu,810-8680,JP,"{'brand': 'Miu Miu', 'fascia': 'Miu Miu', 'category': 'Fashion ', 'edit_date': '20250305', 'lat_lon_source': 'thirdparty'}",,,Miu Miu ミュウミュウ 福岡岩田屋店,"{'Mon': 'Closed', 'Tue': 'Closed', 'Wed': 'Closed', 'Thu': 'Closed', 'Fri': 'Closed', 'Sat': 'Closed', 'Sun': 'Closed'}",+81927338262,810-8680,S427,,"https://cdn.yextapis.com/v2/accounts/me/search/vertical/query?api_key=61119b3d853ae12bf41e7bd9501a718b&locale=en&v=20220511&limit=50&experienceKey=miumiu-experience&verticalKey=miumiu-locations&retrieveFacets=true&input=&offset=0&location=36.204824,138.252924&locationRadius=5000000"
"4-1, Omoromachi , , Naha, 47 900-0006",Miu Miu,900-0006,JP,"{'brand': 'Miu Miu', 'fascia': 'Miu Miu', 'category': 'Fashion ', 'edit_date': '20250305', 'lat_lon_source': 'thirdparty'}",,,Miu Miu Okinawa,"{'Mon': 'Closed', 'Tue': 'Closed', 'Wed': 'Closed', 'Thu': 'Closed', 'Fri': 'Closed', 'Sat': 'Closed', 'Sun': 'Closed'}",+81988621405,900-0006,SG40,,"https://cdn.yextapis.com/v2/accounts/me/search/vertical/query?api_key=61119b3d853ae12bf41e7bd9501a718b&locale=en&v=20220511&limit=50&experienceKey=miumiu-experience&verticalKey=miumiu-locations&retrieveFacets=true&input=&offset=0&location=36.204824,138.252924&locationRadius=5000000"
