addr_full,brand,city,country,extras,lat,lon,name,opening_hours,phone,postcode,ref,state,website
"충청남도 서산시 중앙로 59,",S-market,서산시,South Korea,"{'brand': 'S-market', 'fascia': 'S-market', 'category': 'Retail', 'edit_date': '20250430', 'lat_lon_source': 'Third Party'}",36.7800329050363,126.457369533381,서산점,"{'opening_hours': {'Mon': '10:00 - 22:00', 'Tue': '10:00 - 22:00', 'Wed': '10:00 - 22:00', 'Thu': '10:00 - 22:00', 'Fri': '10:00 - 22:00', 'Sat': '10:00 - 22:00', 'Sun': '10:00 - 22:00'}}",041-681-7260,31981,36.7800329050363-126.457369533381,충남,https://www.smarket.co.kr/board/list.php?page=7&bdId=offline
전라북도 전주시 덕진구 시천로 100,S-market,전주시 덕진구,South Korea,"{'brand': 'S-market', 'fascia': 'S-market', 'category': 'Retail', 'edit_date': '20250430', 'lat_lon_source': 'Third Party'}",35.8680524675438,127.114874644435,전주송천점,"{'opening_hours': {'Mon': '10:00 - 21:30', 'Tue': '10:00 - 21:30', 'Wed': '10:00 - 21:30', 'Thu': '10:00 - 21:30', 'Fri': '10:00 - 21:30', 'Sat': '10:00 - 21:30', 'Sun': '10:00 - 21:30'}}",063-278-9947,54827,35.8680524675438-127.114874644435,전북특별자치도,https://www.smarket.co.kr/board/list.php?page=7&bdId=offline
"전라남도 순천시 신월큰길 10,",S-market,순천시,South Korea,"{'brand': 'S-market', 'fascia': 'S-market', 'category': 'Retail', 'edit_date': '20250430', 'lat_lon_source': 'Third Party'}",34.9612230280669,127.520330469854,순천조례점,"{'opening_hours': {'Mon': '10:00 - 22:30', 'Tue': '10:00 - 22:30', 'Wed': '10:00 - 22:30', 'Thu': '10:00 - 22:30', 'Fri': '10:00 - 22:30', 'Sat': '10:00 - 22:30', 'Sun': '10:00 - 22:30'}}",070-4234-5127,57946,34.9612230280669-127.520330469854,전남,https://www.smarket.co.kr/board/list.php?page=7&bdId=offline
"전라남도 순천시 팔마로 222,",S-market,순천시,South Korea,"{'brand': 'S-market', 'fascia': 'S-market', 'category': 'Retail', 'edit_date': '20250430', 'lat_lon_source': 'Third Party'}",34.9399063085361,127.508760872224,순천풍덕점,"{'opening_hours': {'Mon': '10:00 - 22:30', 'Tue': '10:00 - 22:30', 'Wed': '10:00 - 22:30', 'Thu': '10:00 - 22:30', 'Fri': '10:00 - 22:30', 'Sat': '10:00 - 22:30', 'Sun': '10:00 - 22:30'}}",070-7789-5127,57993,34.9399063085361-127.508760872224,전남,https://www.smarket.co.kr/board/list.php?page=7&bdId=offline
"경기도 평택시 경기대로 977,",S-market,,South Korea,"{'brand': 'S-market', 'fascia': 'S-market', 'category': 'Retail', 'edit_date': '20250430', 'lat_lon_source': 'Third Party'}",37.0377891,127.069764,평택점,"{'opening_hours': {'Mon': '10:30 - 22:00', 'Tue': '10:30 - 22:00', 'Wed': '10:30 - 22:00', 'Thu': '10:30 - 22:00', 'Fri': '10:30 - 22:00', 'Sat': '10:30 - 22:00', 'Sun': '10:30 - 22:00'}}",031-668-8688,,37.0377891-127.069764,,https://www.smarket.co.kr/board/list.php?page=6&bdId=offline
대구광역시 북구 동암로12길 8.,S-market,북구,South Korea,"{'brand': 'S-market', 'fascia': 'S-market', 'category': 'Retail', 'edit_date': '20250430', 'lat_lon_source': 'Third Party'}",35.9449268172911,128.555859679587,HP칠곡점,"{'opening_hours': {'Mon': '10:00 - 22:30', 'Tue': '10:00 - 22:30', 'Wed': '10:00 - 22:30', 'Thu': '10:00 - 22:30', 'Fri': '10:00 - 22:30', 'Sat': '10:00 - 22:30', 'Sun': '10:00 - 22:30'}}",070-5219-3024,41422,35.9449268172911-128.555859679587,대구,https://www.smarket.co.kr/board/list.php?page=3&bdId=offline
"광주광역시 북구 동문대로 200, 1층",S-market,북구,South Korea,"{'brand': 'S-market', 'fascia': 'S-market', 'category': 'Retail', 'edit_date': '20250430', 'lat_lon_source': 'Third Party'}",35.1793416468181,126.930416612572,HP동광주플러스점,"{'opening_hours': {'Mon': '10:00 - 22:00', 'Tue': '10:00 - 22:00', 'Wed': '10:00 - 22:00', 'Thu': '10:00 - 22:00', 'Fri': '10:00 - 22:00', 'Sat': '10:00 - 22:00', 'Sun': '10:00 - 22:00'}}",062-267-6245,61165,35.1793416468181-126.930416612572,광주,https://www.smarket.co.kr/board/list.php?page=2&bdId=offline
"인천광역시 부평구 경원대로 1277,",S-market,부평구,South Korea,"{'brand': 'S-market', 'fascia': 'S-market', 'category': 'Retail', 'edit_date': '20250430', 'lat_lon_source': 'Third Party'}",37.4907874287156,126.710005626732,NC부평점,"{'opening_hours': {'Mon': '10:00 - 21:00', 'Tue': '10:00 - 21:00', 'Wed': '10:00 - 21:00', 'Thu': '10:00 - 21:00', 'Fri': '10:00 - 21:00', 'Sat': '10:00 - 21:00', 'Sun': '10:00 - 21:00'}}",070-5219-2995,21384,37.4907874287156-126.710005626732,인천,https://www.smarket.co.kr/board/list.php?page=4&bdId=offline
"전라남도 광양시 항만11로 70,",S-market,광양시,South Korea,"{'brand': 'S-market', 'fascia': 'S-market', 'category': 'Retail', 'edit_date': '20250430', 'lat_lon_source': 'Third Party'}",34.9285053189819,127.694140701816,광양점,"{'opening_hours': {'Mon': '10:00 - 22:30', 'Tue': '10:00 - 22:30', 'Wed': '10:00 - 22:30', 'Thu': '10:00 - 22:30', 'Fri': '10:00 - 22:30', 'Sat': '10:00 - 22:30', 'Sun': '10:00 - 22:30'}}",070-5219-2998,57793,34.9285053189819-127.694140701816,전남,https://www.smarket.co.kr/board/list.php?page=7&bdId=offline
"경기도 파주시 목동동 927,",S-market,파주시,South Korea,"{'brand': 'S-market', 'fascia': 'S-market', 'category': 'Retail', 'edit_date': '20250430', 'lat_lon_source': 'Third Party'}",37.729526175411,126.736765309998,파주운정점,"{'opening_hours': {'Mon': '10:00 - 22:30', 'Tue': '10:00 - 22:30', 'Wed': '10:00 - 22:30', 'Thu': '10:00 - 22:30', 'Fri': '10:00 - 22:30', 'Sat': '10:00 - 22:30', 'Sun': '10:00 - 22:30'}}",070-4755-5120,10892,37.729526175411-126.736765309998,경기,https://www.smarket.co.kr/board/list.php?page=6&bdId=offline
경상남도 창원시 성산구 동산로 115.,S-market,창원시 성산구,South Korea,"{'brand': 'S-market', 'fascia': 'S-market', 'category': 'Retail', 'edit_date': '20250430', 'lat_lon_source': 'Third Party'}",35.2190579361973,128.687615914182,대동백화점,"{'opening_hours': {'Mon': '10:30 - 20:00', 'Tue': '10:30 - 20:00', 'Wed': '10:30 - 20:00', 'Thu': '10:30 - 20:00', 'Fri': '10:30 - 20:00', 'Sat': '10:30 - 20:00', 'Sun': '10:30 - 20:00'}}",070-5219-2983,51498,35.2190579361973-128.687615914182,경남,https://www.smarket.co.kr/board/list.php?page=3&bdId=offline
"경기도 시흥시 희망공원로 269 홈플러스시화점, 2층 에스마켓",S-market,시흥시,South Korea,"{'brand': 'S-market', 'fascia': 'S-market', 'category': 'Retail', 'edit_date': '20250430', 'lat_lon_source': 'Third Party'}",37.3452489784635,126.725173650337,HP시화점,"{'opening_hours': {'Mon': '10:30 - 21:00', 'Tue': '10:30 - 21:00', 'Wed': '10:30 - 21:00', 'Thu': '10:30 - 21:00', 'Fri': '10:30 - 21:00', 'Sat': '10:30 - 21:00', 'Sun': '10:30 - 21:00'}}",031-432-2336,15081,37.3452489784635-126.725173650337,경기,https://www.smarket.co.kr/board/list.php?page=2&bdId=offline
"인천광역시 남구 소성로 6,",S-market,미추홀구,South Korea,"{'brand': 'S-market', 'fascia': 'S-market', 'category': 'Retail', 'edit_date': '20250430', 'lat_lon_source': 'Third Party'}",37.4472348588633,126.650883177732,인천인하점,"{'opening_hours': {'Mon': '10:00 - 22:30', 'Tue': '10:00 - 22:30', 'Wed': '10:00 - 22:30', 'Thu': '10:00 - 22:30', 'Fri': '10:00 - 22:30', 'Sat': '10:00 - 22:30', 'Sun': '10:00 - 22:30'}}",032-861-0773,22201,37.4472348588633-126.650883177732,인천,https://www.smarket.co.kr/board/list.php?page=4&bdId=offline
대전광역시 중구 중앙로 141 4층,S-market,중구,South Korea,"{'brand': 'S-market', 'fascia': 'S-market', 'category': 'Retail', 'edit_date': '20250430', 'lat_lon_source': 'Third Party'}",36.3288748715537,127.425057716997,NC대전점,"{'opening_hours': {'Mon': '10:30 - 21:00', 'Tue': '10:30 - 21:00', 'Wed': '10:30 - 21:00', 'Thu': '10:30 - 21:00', 'Fri': '10:30 - 21:00', 'Sat': '10:30 - 21:00', 'Sun': '10:30 - 21:00'}}",070-5219-3029,34838,36.3288748715537-127.425057716997,대전,https://www.smarket.co.kr/board/list.php?page=5&bdId=offline
"충청남도 천안시 서북구 공원로 196, 지하 1층 에스마켓",S-market,천안시 서북구,South Korea,"{'brand': 'S-market', 'fascia': 'S-market', 'category': 'Retail', 'edit_date': '20250430', 'lat_lon_source': 'Third Party'}",36.7984279064312,127.101429867826,[충청] 모다천안2호점,"{'Mon': '00:00 - 23:59', 'Tue': '00:00 - 23:59', 'Wed': '00:00 - 23:59', 'Thu': '00:00 - 23:59', 'Fri': '00:00 - 23:59', 'Sat': 'Closed', 'Sun': '10:30 - 21:00'}",041-414-0144,31168,36.7984279064312-127.101429867826,충남,https://www.smarket.co.kr/board/list.php?page=1&bdId=offline
"경상남도 김해시 김해대로 2078,",S-market,김해시,South Korea,"{'brand': 'S-market', 'fascia': 'S-market', 'category': 'Retail', 'edit_date': '20250430', 'lat_lon_source': 'Third Party'}",35.2419040446888,128.870262278148,김해홈플러스점,"{'opening_hours': {'Mon': '10:00 - 22:30', 'Tue': '10:00 - 22:30', 'Wed': '10:00 - 22:30', 'Thu': '10:00 - 22:30', 'Fri': '10:00 - 22:30', 'Sat': '10:00 - 22:30', 'Sun': '10:00 - 22:30'}}",055-338-3204,50943,35.2419040446888-128.870262278148,경남,https://www.smarket.co.kr/board/list.php?page=7&bdId=offline
"경기도 의정부시 청사로 38,",S-market,의정부시,South Korea,"{'brand': 'S-market', 'fascia': 'S-market', 'category': 'Retail', 'edit_date': '20250430', 'lat_lon_source': 'Third Party'}",37.7521637153577,127.071001320782,HP의정부플러스점,"{'opening_hours': {'Mon': '10:00 - 23:00', 'Tue': '10:00 - 23:00', 'Wed': '10:00 - 23:00', 'Thu': '10:00 - 23:00', 'Fri': '10:00 - 23:00', 'Sat': '10:00 - 23:00', 'Sun': '10:00 - 23:00'}}",031-851-7330,11757,37.7521637153577-127.071001320782,경기,https://www.smarket.co.kr/board/list.php?page=6&bdId=offline
"부산 기장군 기장읍 기장해안로 147,",S-market,기장군,South Korea,"{'brand': 'S-market', 'fascia': 'S-market', 'category': 'Retail', 'edit_date': '20250430', 'lat_lon_source': 'Third Party'}",35.1923229796397,129.212495349946,LO동부산점,"{'opening_hours': {'Mon': '10:00 - 20:00', 'Tue': '10:00 - 20:00', 'Wed': '10:00 - 20:00', 'Thu': '10:00 - 20:00', 'Fri': '10:00 - 20:00', 'Sat': '10:00 - 21:00', 'Sun': '10:00 - 21:00'}}",051-901-2150,46084,35.1923229796397-129.212495349946,부산,https://www.smarket.co.kr/board/list.php?page=3&bdId=offline
경기도 구리시 동구릉로136번길 47,S-market,구리시,South Korea,"{'brand': 'S-market', 'fascia': 'S-market', 'category': 'Retail', 'edit_date': '20250430', 'lat_lon_source': 'Third Party'}",37.6118620717256,127.140545179713,LO구리점,"{'opening_hours': {'Mon': '10:30 - 21:00', 'Tue': '10:30 - 21:00', 'Wed': '10:30 - 21:00', 'Thu': '10:30 - 21:00', 'Fri': '10:30 - 21:00', 'Sat': '10:30 - 21:00', 'Sun': '10:30 - 21:00'}}",031-8034-2537,11915,37.6118620717256-127.140545179713,경기,https://www.smarket.co.kr/board/list.php?page=2&bdId=offline
"인천광역시 계양구 오조산공원로 14,",S-market,계양구,South Korea,"{'brand': 'S-market', 'fascia': 'S-market', 'category': 'Retail', 'edit_date': '20250430', 'lat_lon_source': 'Third Party'}",37.53947222987,126.736186863821,HP인천계산점,"{'opening_hours': {'Mon': '10:00 - 22:30', 'Tue': '10:00 - 22:30', 'Wed': '10:00 - 22:30', 'Thu': '10:00 - 22:30', 'Fri': '10:00 - 22:30', 'Sat': '10:00 - 22:30', 'Sun': '10:00 - 22:30'}}",032-555-7737,21060,37.53947222987-126.736186863821,인천,https://www.smarket.co.kr/board/list.php?page=4&bdId=offline
"대전광역시 중구 계백로 1690,",S-market,중구,South Korea,"{'brand': 'S-market', 'fascia': 'S-market', 'category': 'Retail', 'edit_date': '20250430', 'lat_lon_source': 'Third Party'}",36.3202926066275,127.407695880679,대전문화점,"{'opening_hours': {'Mon': '10:00 - 22:30', 'Tue': '10:00 - 22:30', 'Wed': '10:00 - 22:30', 'Thu': '10:00 - 22:30', 'Fri': '10:00 - 22:30', 'Sat': '10:00 - 22:30', 'Sun': '10:00 - 22:30'}}",070-5219-3002,34956,36.3202926066275-127.407695880679,대전,https://www.smarket.co.kr/board/list.php?page=5&bdId=offline
" 서울 중구 남대문로 81, 7층",S-market,중구,South Korea,"{'brand': 'S-market', 'fascia': 'S-market', 'category': 'Retail', 'edit_date': '20250430', 'lat_lon_source': 'Third Party'}",37.5647299033135,126.981730421825,SOW롯데본점,"{'opening_hours': {'Mon': '00:00 - 23:59', 'Tue': '00:00 - 23:59', 'Wed': '00:00 - 23:59', 'Thu': '00:00 - 23:59', 'Fri': '00:00 - 23:59', 'Sat': 'Closed', 'Sun': 'Closed'}}",02-772-3710,04533,37.5647299033135-126.981730421825,서울,https://www.smarket.co.kr/board/list.php?page=1&bdId=offline
강원도 원주시 중평길 2 ,S-market,원주시,South Korea,"{'brand': 'S-market', 'fascia': 'S-market', 'category': 'Retail', 'edit_date': '20250430', 'lat_lon_source': 'Third Party'}",37.3491101400223,127.949839468992,원주중앙점,"{'opening_hours': {'Mon': '10:00 - 21:00', 'Tue': '10:00 - 21:00', 'Wed': '10:00 - 21:00', 'Thu': '10:00 - 21:00', 'Fri': '10:00 - 21:00', 'Sat': '10:00 - 21:00', 'Sun': '10:00 - 21:00'}}",070-5219-2978,26428,37.3491101400223-127.949839468992,강원특별자치도,https://www.smarket.co.kr/board/list.php?page=7&bdId=offline
경기도 용인시 수지구 용구대로 2767,S-market,용인시 수지구,South Korea,"{'brand': 'S-market', 'fascia': 'S-market', 'category': 'Retail', 'edit_date': '20250430', 'lat_lon_source': 'Third Party'}",37.3325177051864,127.108547394752,죽전점,"{'opening_hours': {'Mon': '10:30 - 21:30', 'Tue': '10:30 - 21:30', 'Wed': '10:30 - 21:30', 'Thu': '10:30 - 21:30', 'Fri': '10:30 - 21:30', 'Sat': '10:30 - 21:30', 'Sun': '10:30 - 21:30'}}",031-263-5955,16867,37.3325177051864-127.108547394752,경기,https://www.smarket.co.kr/board/list.php?page=6&bdId=offline
"경기 성남시 분당구 미금일로 154번길 20,",S-market,성남시 분당구,South Korea,"{'brand': 'S-market', 'fascia': 'S-market', 'category': 'Retail', 'edit_date': '20250430', 'lat_lon_source': 'Third Party'}",37.3490834079801,127.107466650924,NC분당점,"{'opening_hours': {'Mon': '10:30 - 22:00', 'Tue': '10:30 - 22:00', 'Wed': '10:30 - 22:00', 'Thu': '10:30 - 22:00', 'Fri': '10:30 - 22:00', 'Sat': '10:30 - 22:00', 'Sun': 'Closed'}}",031-786-2878,13630,37.3490834079801-127.107466650924,경기,https://www.smarket.co.kr/board/list.php?page=3&bdId=offline
서울특별시 송파구 충민로 66 ,S-market,송파구,South Korea,"{'brand': 'S-market', 'fascia': 'S-market', 'category': 'Retail', 'edit_date': '20250430', 'lat_lon_source': 'Third Party'}",37.4776148442516,127.124961768886,NC송파점,"{'opening_hours': {'Mon': '10:30 - 21:00', 'Tue': '10:30 - 21:00', 'Wed': '10:30 - 21:00', 'Thu': '10:30 - 21:00', 'Fri': '10:30 - 21:00', 'Sat': '10:30 - 21:00', 'Sun': '10:30 - 21:00'}}",02-2157-5622,05838,37.4776148442516-127.124961768886,서울,https://www.smarket.co.kr/board/list.php?page=2&bdId=offline
"울산광역시 중구 번영로 475,",S-market,중구,South Korea,"{'brand': 'S-market', 'fascia': 'S-market', 'category': 'Retail', 'edit_date': '20250430', 'lat_lon_source': 'Third Party'}",35.5643863982418,129.334860143614,울산중구2점,"{'opening_hours': {'Mon': '10:00 - 23:00', 'Tue': '10:00 - 23:00', 'Wed': '10:00 - 23:00', 'Thu': '10:00 - 23:00', 'Fri': '10:00 - 23:00', 'Sat': '10:00 - 23:00', 'Sun': '10:00 - 23:00'}}",070-4189-5557,44478,35.5643863982418-129.334860143614,울산,https://www.smarket.co.kr/board/list.php?page=4&bdId=offline
"대전광역시 유성구 대정로 5,",S-market,유성구,South Korea,"{'brand': 'S-market', 'fascia': 'S-market', 'category': 'Retail', 'edit_date': '20250430', 'lat_lon_source': 'Third Party'}",36.3129191901433,127.319577301268,모다대전점,"{'opening_hours': {'Mon': '11:00 - 21:00', 'Tue': '11:00 - 21:00', 'Wed': '11:00 - 21:00', 'Thu': '11:00 - 21:00', 'Fri': '11:00 - 21:00', 'Sat': '11:00 - 21:00', 'Sun': '11:00 - 21:00'}}",042-365-6900,34219,36.3129191901433-127.319577301268,대전,https://www.smarket.co.kr/board/list.php?page=5&bdId=offline
경기도 파주시 문화로 103 1층 에스마켓,S-market,파주시,South Korea,"{'brand': 'S-market', 'fascia': 'S-market', 'category': 'Retail', 'edit_date': '20250430', 'lat_lon_source': 'Third Party'}",37.763310852066,126.77447005283,금촌점,"{'opening_hours': {'Mon': '10:00 - 21:30', 'Tue': '10:00 - 21:30', 'Wed': '10:00 - 21:30', 'Thu': '10:00 - 21:30', 'Fri': '10:00 - 21:30', 'Sat': '10:00 - 21:30', 'Sun': '10:00 - 21:30'}}",031-943-3400,10929,37.763310852066-126.77447005283,경기,https://www.smarket.co.kr/board/list.php?page=1&bdId=offline
"강원도 강릉시 경강로 2120,",S-market,강릉시,South Korea,"{'brand': 'S-market', 'fascia': 'S-market', 'category': 'Retail', 'edit_date': '20250430', 'lat_lon_source': 'Third Party'}",37.7556355181026,128.898598015946,강릉점,"{'opening_hours': {'Mon': '10:00 - 22:00', 'Tue': '10:00 - 22:00', 'Wed': '10:00 - 22:00', 'Thu': '10:00 - 22:00', 'Fri': '10:00 - 22:00', 'Sat': '10:00 - 22:00', 'Sun': '10:00 - 22:00'}}",070-5219-2985,25541,37.7556355181026-128.898598015946,강원특별자치도,https://www.smarket.co.kr/board/list.php?page=7&bdId=offline
"경기도 용인시 기흥구 영덕동 517-1,",S-market,용인시 기흥구,South Korea,"{'brand': 'S-market', 'fascia': 'S-market', 'category': 'Retail', 'edit_date': '20250430', 'lat_lon_source': 'Third Party'}",37.2665636057758,127.07586111493,영통점,"{'opening_hours': {'Mon': '11:00 - 21:00', 'Tue': '11:00 - 21:00', 'Wed': '11:00 - 21:00', 'Thu': '11:00 - 21:00', 'Fri': '11:00 - 21:00', 'Sat': '11:00 - 21:00', 'Sun': '11:00 - 21:00'}}",031-202-6840,16956,37.2665636057758-127.07586111493,경기,https://www.smarket.co.kr/board/list.php?page=6&bdId=offline
경기도 화성시 3.1 만세로 1120 ,S-market,화성시,South Korea,"{'brand': 'S-market', 'fascia': 'S-market', 'category': 'Retail', 'edit_date': '20250430', 'lat_lon_source': 'Third Party'}",37.1331412490738,126.909471751107,발안점,"{'opening_hours': {'Mon': '10:00 - 22:00', 'Tue': '10:00 - 22:00', 'Wed': '10:00 - 22:00', 'Thu': '10:00 - 22:00', 'Fri': '10:00 - 22:00', 'Sat': '10:00 - 22:00', 'Sun': '10:00 - 22:00'}}",031-354-5521,18593,37.1331412490738-126.909471751107,경기,https://www.smarket.co.kr/board/list.php?page=3&bdId=offline
"서울시 광진구 능동로 92,",S-market,광진구,South Korea,"{'brand': 'S-market', 'fascia': 'S-market', 'category': 'Retail', 'edit_date': '20250430', 'lat_lon_source': 'Third Party'}",37.5390373908314,127.071432147214,LD건대스타시티점,"{'opening_hours': {'Mon': '10:30 - 20:00', 'Tue': '10:30 - 20:00', 'Wed': '10:30 - 20:00', 'Thu': '10:30 - 20:00', 'Fri': '10:30 - 20:00', 'Sat': '10:30 - 20:00', 'Sun': '10:30 - 20:00'}}",02-2218-3031,05065,37.5390373908314-127.071432147214,서울,https://www.smarket.co.kr/board/list.php?page=2&bdId=offline
"울산광역시 북구 진장유통로 78-6,",S-market,북구,South Korea,"{'brand': 'S-market', 'fascia': 'S-market', 'category': 'Retail', 'edit_date': '20250430', 'lat_lon_source': 'Third Party'}",35.5770467474648,129.357136235252,모다울산점,"{'opening_hours': {'Mon': '11:00 - 21:00', 'Tue': '11:00 - 21:00', 'Wed': '11:00 - 21:00', 'Thu': '11:00 - 21:00', 'Fri': '11:00 - 21:00', 'Sat': '11:00 - 21:00', 'Sun': '11:00 - 21:00'}}",052-935-3852,44248,35.5770467474648-129.357136235252,울산,https://www.smarket.co.kr/board/list.php?page=4&bdId=offline
"대구광역시 서구 평리로 35길 20,",S-market,서구,South Korea,"{'brand': 'S-market', 'fascia': 'S-market', 'category': 'Retail', 'edit_date': '20250430', 'lat_lon_source': 'Third Party'}",35.8617347348641,128.543674026098,퀸스로드점,"{'opening_hours': {'Mon': '10:00 - 22:00', 'Tue': '10:00 - 22:00', 'Wed': '10:00 - 22:00', 'Thu': '10:00 - 22:00', 'Fri': '10:00 - 22:00', 'Sat': '10:00 - 22:00', 'Sun': '10:00 - 22:00'}}",053-525-3235,41843,35.8617347348641-128.543674026098,대구,https://www.smarket.co.kr/board/list.php?page=5&bdId=offline
서울특별시 송파구 백제고분로 177 1층 SOW잠실캠프점,S-market,송파구,South Korea,"{'brand': 'S-market', 'fascia': 'S-market', 'category': 'Retail', 'edit_date': '20250430', 'lat_lon_source': 'Third Party'}",37.5049855126591,127.086672211704,SOW잠실캠프점,"{'opening_hours': {'Mon': '00:00 - 23:59', 'Tue': '00:00 - 23:59', 'Wed': '00:00 - 23:59', 'Thu': '00:00 - 23:59', 'Fri': '00:00 - 23:59', 'Sat': 'Closed', 'Sun': 'Closed'}}",070-5219-2944,05567,37.5049855126591-127.086672211704,서울,https://www.smarket.co.kr/board/list.php?page=1&bdId=offline
경기도 오산시 오산동 878-3,S-market,오산시,South Korea,"{'brand': 'S-market', 'fascia': 'S-market', 'category': 'Retail', 'edit_date': '20250430', 'lat_lon_source': 'Third Party'}",37.1473482114255,127.06876346153,오산역점,"{'opening_hours': {'Mon': '10:00 - 21:30', 'Tue': '10:00 - 21:30', 'Wed': '10:00 - 21:30', 'Thu': '10:00 - 21:30', 'Fri': '10:00 - 21:30', 'Sat': '10:00 - 21:30', 'Sun': '10:00 - 21:30'}}",031-375-3089,18138,37.1473482114255-127.06876346153,경기,https://www.smarket.co.kr/board/list.php?page=6&bdId=offline
"충청북도 충주시 중원대로 3683,",S-market,충주시,South Korea,"{'brand': 'S-market', 'fascia': 'S-market', 'category': 'Retail', 'edit_date': '20250430', 'lat_lon_source': 'Third Party'}",36.9614816203079,127.898156089973,모다충주점,"{'opening_hours': {'Mon': '11:00 - 21:00', 'Tue': '11:00 - 21:00', 'Wed': '11:00 - 21:00', 'Thu': '11:00 - 21:00', 'Fri': '11:00 - 21:00', 'Sat': '11:00 - 21:00', 'Sun': '11:00 - 21:00'}}",043-724-2615,27476,36.9614816203079-127.898156089973,충북,https://www.smarket.co.kr/board/list.php?page=3&bdId=offline
강원도 춘천시 방송길 77 지하 1층,S-market,춘천시,South Korea,"{'brand': 'S-market', 'fascia': 'S-market', 'category': 'Retail', 'edit_date': '20250430', 'lat_lon_source': 'Third Party'}",37.8694788164144,127.72047703505,모다춘천점,"{'opening_hours': {'Mon': '10:30 - 20:30', 'Tue': '10:30 - 20:30', 'Wed': '10:30 - 20:30', 'Thu': '10:30 - 20:30', 'Fri': '10:30 - 20:30', 'Sat': '10:30 - 20:30', 'Sun': '10:30 - 20:30'}}",033-269-0119,24363,37.8694788164144-127.72047703505,강원특별자치도,https://www.smarket.co.kr/board/list.php?page=2&bdId=offline
"울산광역시 동구 방어진순환도로 637,",S-market,동구,South Korea,"{'brand': 'S-market', 'fascia': 'S-market', 'category': 'Retail', 'edit_date': '20250430', 'lat_lon_source': 'Third Party'}",35.4989722629004,129.427474189539,울산동구점,"{'opening_hours': {'Mon': '10:00 - 23:00', 'Tue': '10:00 - 23:00', 'Wed': '10:00 - 23:00', 'Thu': '10:00 - 23:00', 'Fri': '10:00 - 23:00', 'Sat': '10:00 - 23:00', 'Sun': '10:00 - 23:00'}}",070-4236-5557,44068,35.4989722629004-129.427474189539,울산,https://www.smarket.co.kr/board/list.php?page=4&bdId=offline
"대구광역시 북구 유통단지로14길 22,",S-market,북구,South Korea,"{'brand': 'S-market', 'fascia': 'S-market', 'category': 'Retail', 'edit_date': '20250430', 'lat_lon_source': 'Third Party'}",35.905215918899,128.61036484494,NC엑스코점,"{'opening_hours': {'Mon': '10:30 - 21:00', 'Tue': '10:30 - 21:00', 'Wed': '10:30 - 21:00', 'Thu': '10:30 - 21:00', 'Fri': '10:30 - 21:00', 'Sat': '10:30 - 21:00', 'Sun': '10:30 - 21:00'}}",070-5219-3015,41518,35.905215918899-128.61036484494,대구,https://www.smarket.co.kr/board/list.php?page=5&bdId=offline
경기도 수원시 권선구 세화로 134 롯데백화점수원점 5층,S-market,수원시 권선구,South Korea,"{'brand': 'S-market', 'fascia': 'S-market', 'category': 'Retail', 'edit_date': '20250430', 'lat_lon_source': 'Third Party'}",37.264162726921,126.997385539043,SOW롯데수원점,"{'opening_hours': {'Mon': '00:00 - 23:59', 'Tue': '00:00 - 23:59', 'Wed': '00:00 - 23:59', 'Thu': '00:00 - 23:59', 'Fri': '00:00 - 23:59', 'Sat': 'Closed', 'Sun': 'Closed'}}",031-8066-0556,16621,37.264162726921-126.997385539043,경기,https://www.smarket.co.kr/board/list.php?page=1&bdId=offline
경기도 양주시 평화로 1593 3층,S-market,양주시,South Korea,"{'brand': 'S-market', 'fascia': 'S-market', 'category': 'Retail', 'edit_date': '20250430', 'lat_lon_source': 'Third Party'}",37.8313923302011,127.052291874895,LF스퀘어양주점,"{'opening_hours': {'Mon': '11:00 - 21:00', 'Tue': '11:00 - 21:00', 'Wed': '11:00 - 21:00', 'Thu': '11:00 - 21:00', 'Fri': '11:00 - 21:00', 'Sat': '11:00 - 21:00', 'Sun': '11:00 - 21:00'}}",031-894-2707,11439,37.8313923302011-127.052291874895,경기,https://www.smarket.co.kr/board/list.php?page=6&bdId=offline
"충청북도 청주시 흥덕구 2순환로 1233,",S-market,청주시 흥덕구,South Korea,"{'brand': 'S-market', 'fascia': 'S-market', 'category': 'Retail', 'edit_date': '20250430', 'lat_lon_source': 'Third Party'}",36.6262174870853,127.431132637649,NC청주점,"{'opening_hours': {'Mon': '10:30 - 21:00', 'Tue': '10:30 - 21:00', 'Wed': '10:30 - 21:00', 'Thu': '10:30 - 21:00', 'Fri': '10:30 - 21:00', 'Sat': '10:30 - 21:00', 'Sun': '10:30 - 21:00'}}",043-716-6256,28396,36.6262174870853-127.431132637649,충북,https://www.smarket.co.kr/board/list.php?page=3&bdId=offline
"서울시 은평구 통일로 1050,",S-market,은평구,South Korea,"{'brand': 'S-market', 'fascia': 'S-market', 'category': 'Retail', 'edit_date': '20250430', 'lat_lon_source': 'Third Party'}",37.6375366740938,126.917900261732,LO은평점,"{'opening_hours': {'Mon': '10:30 - 22:00', 'Tue': '10:30 - 22:00', 'Wed': '10:30 - 22:00', 'Thu': '10:30 - 22:00', 'Fri': '10:30 - 22:00', 'Sat': '10:30 - 22:00', 'Sun': '10:30 - 22:00'}}",02-6975-5226,03306,37.6375366740938-126.917900261732,서울,https://www.smarket.co.kr/board/list.php?page=2&bdId=offline
"울산광역시 남구 수암로 148,",S-market,남구,South Korea,"{'brand': 'S-market', 'fascia': 'S-market', 'category': 'Retail', 'edit_date': '20250430', 'lat_lon_source': 'Third Party'}",35.5264303204015,129.322715097391,울산남구2점,"{'opening_hours': {'Mon': '09:30 - 23:00', 'Tue': '09:30 - 23:00', 'Wed': '09:30 - 23:00', 'Thu': '09:30 - 23:00', 'Fri': '09:30 - 23:00', 'Sat': '09:30 - 23:00', 'Sun': '09:30 - 23:00'}}",070-4191-5557,44750,35.5264303204015-129.322715097391,울산,https://www.smarket.co.kr/board/list.php?page=4&bdId=offline
"대구광역시 달서구 이곡동로 24,",S-market,달서구,South Korea,"{'brand': 'S-market', 'fascia': 'S-market', 'category': 'Retail', 'edit_date': '20250430', 'lat_lon_source': 'Third Party'}",35.8533295916132,128.510168417539,EM성서점,"{'opening_hours': {'Mon': '10:00 - 23:00', 'Tue': '10:00 - 23:00', 'Wed': '10:00 - 23:00', 'Thu': '10:00 - 23:00', 'Fri': '10:00 - 23:00', 'Sat': '10:00 - 23:00', 'Sun': '10:00 - 23:00'}}",070-8825-0408,42620,35.8533295916132-128.510168417539,대구,https://www.smarket.co.kr/board/list.php?page=5&bdId=offline
경기도 수원시 영통구 봉영로 1576 홈플러스 수원영통점 3층 에스마켓,S-market,수원시 영통구,South Korea,"{'brand': 'S-market', 'fascia': 'S-market', 'category': 'Retail', 'edit_date': '20250430', 'lat_lon_source': 'Third Party'}",37.2518163005629,127.072602539897,HP영통점,"{'opening_hours': {'Mon': '10:00 - 22:00', 'Tue': '10:00 - 22:00', 'Wed': '10:00 - 22:00', 'Thu': '10:00 - 22:00', 'Fri': '10:00 - 22:00', 'Sat': '10:00 - 22:00', 'Sun': '10:00 - 22:00'}}",031-205-5976,16704,37.2518163005629-127.072602539897,경기,https://www.smarket.co.kr/board/list.php?page=1&bdId=offline
경기도 안산시 단원구 다문화길 18,S-market,안산시 단원구,South Korea,"{'brand': 'S-market', 'fascia': 'S-market', 'category': 'Retail', 'edit_date': '20250430', 'lat_lon_source': 'Third Party'}",37.3296921104081,126.790667147414,안산다문화점,"{'opening_hours': {'Mon': '09:30 - 22:00', 'Tue': '09:30 - 22:00', 'Wed': '09:30 - 22:00', 'Thu': '09:30 - 22:00', 'Fri': '09:30 - 22:00', 'Sat': '09:30 - 22:00', 'Sun': '09:30 - 22:00'}}",031-504-8794,15393,37.3296921104081-126.790667147414,경기,https://www.smarket.co.kr/board/list.php?page=6&bdId=offline
"충청남도 천안시 서북구공원로 196,",S-market,천안시 서북구,South Korea,"{'brand': 'S-market', 'fascia': 'S-market', 'category': 'Retail', 'edit_date': '20250430', 'lat_lon_source': 'Third Party'}",36.7984279064312,127.101429867826,모다천안점,"{'opening_hours': {'Mon': '11:00 - 21:00', 'Tue': '11:00 - 21:00', 'Wed': '11:00 - 21:00', 'Thu': '11:00 - 21:00', 'Fri': '11:00 - 21:00', 'Sat': '11:00 - 21:00', 'Sun': '11:00 - 21:00'}}",041-904-7890,31168,36.7984279064312-127.101429867826,충남,https://www.smarket.co.kr/board/list.php?page=3&bdId=offline
"경기도 용인시 기흥구 동백죽전대로 444,",S-market,용인시 기흥구,South Korea,"{'brand': 'S-market', 'fascia': 'S-market', 'category': 'Retail', 'edit_date': '20250430', 'lat_lon_source': 'Third Party'}",37.2779959612183,127.151598440729,쥬네브동백점,"{'opening_hours': {'Mon': '10:00 - 22:00', 'Tue': '10:00 - 22:00', 'Wed': '10:00 - 22:00', 'Thu': '10:00 - 22:00', 'Fri': '10:00 - 22:00', 'Sat': '10:00 - 22:00', 'Sun': '10:00 - 22:00'}}",031-679-0081,17006,37.2779959612183-127.151598440729,경기,https://www.smarket.co.kr/board/list.php?page=2&bdId=offline
"울산광역시 남구 남중로 48,",S-market,남구,South Korea,"{'brand': 'S-market', 'fascia': 'S-market', 'category': 'Retail', 'edit_date': '20250430', 'lat_lon_source': 'Third Party'}",35.5380173079734,129.348399921457,EM울산점,"{'opening_hours': {'Mon': '10:00 - 23:00', 'Tue': '10:00 - 23:00', 'Wed': '10:00 - 23:00', 'Thu': '10:00 - 23:00', 'Fri': '10:00 - 23:00', 'Sat': '10:00 - 23:00', 'Sun': '10:00 - 23:00'}}",052-227-6967,44716,35.5380173079734-129.348399921457,울산,https://www.smarket.co.kr/board/list.php?page=4&bdId=offline
대구광역시 달서구 성서공단로15길 22,S-market,달서구,South Korea,"{'brand': 'S-market', 'fascia': 'S-market', 'category': 'Retail', 'edit_date': '20250430', 'lat_lon_source': 'Third Party'}",35.836976997985,128.490749540523,모다대구점,"{'opening_hours': {'Mon': '11:00 - 21:00', 'Tue': '11:00 - 21:00', 'Wed': '11:00 - 21:00', 'Thu': '11:00 - 21:00', 'Fri': '11:00 - 21:00', 'Sat': '11:00 - 21:00', 'Sun': '11:00 - 21:00'}}",070-7743-2700,42714,35.836976997985-128.490749540523,대구,https://www.smarket.co.kr/board/list.php?page=5&bdId=offline
경기 김포시 중봉로 14 1층 에스마켓,S-market,김포시,South Korea,"{'brand': 'S-market', 'fascia': 'S-market', 'category': 'Retail', 'edit_date': '20250430', 'lat_lon_source': 'Third Party'}",37.6238474484456,126.698608499582,HP김포점,"{'opening_hours': {'Mon': '10:00 - 22:00', 'Tue': '10:00 - 22:00', 'Wed': '10:00 - 22:00', 'Thu': '10:00 - 22:00', 'Fri': '10:00 - 22:00', 'Sat': '10:00 - 22:00', 'Sun': '10:00 - 22:00'}}",031-997-3667,10102,37.6238474484456-126.698608499582,경기,https://www.smarket.co.kr/board/list.php?page=1&bdId=offline
"경기도 안산시 단원구 광덕대로 194,",S-market,안산시 단원구,South Korea,"{'brand': 'S-market', 'fascia': 'S-market', 'category': 'Retail', 'edit_date': '20250430', 'lat_lon_source': 'Third Party'}",37.3134591033479,126.831015927769,NC고잔점,"{'opening_hours': {'Mon': '10:30 - 21:00', 'Tue': '10:30 - 21:00', 'Wed': '10:30 - 21:00', 'Thu': '10:30 - 21:00', 'Fri': '10:30 - 21:00', 'Sat': '10:30 - 21:00', 'Sun': '10:30 - 21:00'}}",031-436-4565,15462,37.3134591033479-126.831015927769,경기,https://www.smarket.co.kr/board/list.php?page=6&bdId=offline
"충청남도 아산시 둔포면 해위안길 127,",S-market,아산시,South Korea,"{'brand': 'S-market', 'fascia': 'S-market', 'category': 'Retail', 'edit_date': '20250430', 'lat_lon_source': 'Third Party'}",36.8968102078718,127.029061228589,아산퍼스트빌리지점,"{'opening_hours': {'Mon': '10:30 - 20:30', 'Tue': '10:30 - 20:30', 'Wed': '10:30 - 20:30', 'Thu': '10:30 - 20:30', 'Fri': '10:30 - 20:30', 'Sat': '10:30 - 20:30', 'Sun': '10:30 - 20:30'}}",041-536-0650,31421,36.8968102078718-127.029061228589,충남,https://www.smarket.co.kr/board/list.php?page=3&bdId=offline
"세종특별자치시 절재로 154,",S-market,,South Korea,"{'brand': 'S-market', 'fascia': 'S-market', 'category': 'Retail', 'edit_date': '20250430', 'lat_lon_source': 'Third Party'}",36.5073890974751,127.258800928198,HP세종플러스점,"{'opening_hours': {'Mon': '10:00 - 22:30', 'Tue': '10:00 - 22:30', 'Wed': '10:00 - 22:30', 'Thu': '10:00 - 22:30', 'Fri': '10:00 - 22:30', 'Sat': '10:00 - 22:30', 'Sun': '10:00 - 22:30'}}",070-5219-2941,30102,36.5073890974751-127.258800928198,세종특별자치시,https://www.smarket.co.kr/board/list.php?page=2&bdId=offline
"서울특별시 영등포구 당산로 42,",S-market,영등포구,South Korea,"{'brand': 'S-market', 'fascia': 'S-market', 'category': 'Retail', 'edit_date': '20250430', 'lat_lon_source': 'Third Party'}",37.5182396969791,126.895880210522,영등포점,"{'opening_hours': {'Mon': '10:00 - 22:30', 'Tue': '10:00 - 22:30', 'Wed': '10:00 - 22:30', 'Thu': '10:00 - 22:30', 'Fri': '10:00 - 22:30', 'Sat': '10:00 - 22:30', 'Sun': '10:00 - 22:30'}}",02-2633-8320,07297,37.5182396969791-126.895880210522,서울,https://www.smarket.co.kr/board/list.php?page=4&bdId=offline
광주광역시 북구 설죽로 234,S-market,북구,South Korea,"{'brand': 'S-market', 'fascia': 'S-market', 'category': 'Retail', 'edit_date': '20250430', 'lat_lon_source': 'Third Party'}",35.1803825030556,126.898471906445,광주용봉점,"{'opening_hours': {'Mon': '10:00 - 21:00', 'Tue': '10:00 - 21:00', 'Wed': '10:00 - 21:00', 'Thu': '10:00 - 21:00', 'Fri': '10:00 - 21:00', 'Sat': '10:00 - 21:00', 'Sun': '10:00 - 21:00'}}",062-511-3039,61181,35.1803825030556-126.898471906445,광주,https://www.smarket.co.kr/board/list.php?page=5&bdId=offline
인천 서구 중봉대로 587 홈플러스 청라점 1층,S-market,서구,South Korea,"{'brand': 'S-market', 'fascia': 'S-market', 'category': 'Retail', 'edit_date': '20250430', 'lat_lon_source': 'Third Party'}",37.532269200858,126.648753472842,HP청라점,"{'opening_hours': {'Mon': '10:00 - 22:00', 'Tue': '10:00 - 22:00', 'Wed': '10:00 - 22:00', 'Thu': '10:00 - 22:00', 'Fri': '10:00 - 22:00', 'Sat': '10:00 - 22:00', 'Sun': '10:00 - 22:00'}}",032-561-0618,22762,37.532269200858-126.648753472842,인천,https://www.smarket.co.kr/board/list.php?page=1&bdId=offline
경기도 시흥시 중심상가3길 16 ,S-market,시흥시,South Korea,"{'brand': 'S-market', 'fascia': 'S-market', 'category': 'Retail', 'edit_date': '20250430', 'lat_lon_source': 'Third Party'}",37.344773721414,126.736313262217,시화점,"{'opening_hours': {'Mon': '10:00 - 22:30', 'Tue': '10:00 - 22:30', 'Wed': '10:00 - 22:30', 'Thu': '10:00 - 22:30', 'Fri': '10:00 - 22:30', 'Sat': '10:00 - 22:30', 'Sun': '10:00 - 22:30'}}",031-431-8794,15066,37.344773721414-126.736313262217,경기,https://www.smarket.co.kr/board/list.php?page=6&bdId=offline
"충청남도 부여군 규암면 백제문로 387,",S-market,부여군,South Korea,"{'brand': 'S-market', 'fascia': 'S-market', 'category': 'Retail', 'edit_date': '20250430', 'lat_lon_source': 'Third Party'}",36.3071477811308,126.902270362904,LO부여점,"{'opening_hours': {'Mon': '10:00 - 20:30', 'Tue': '10:00 - 20:30', 'Wed': '10:00 - 20:30', 'Thu': '10:00 - 20:30', 'Fri': '10:00 - 20:30', 'Sat': '10:00 - 20:30', 'Sun': '10:00 - 20:30'}}",041-435-2687,33115,36.3071477811308-126.902270362904,충남,https://www.smarket.co.kr/board/list.php?page=3&bdId=offline
"서울시 송파구 백제고분로 177, 1층",S-market,송파구,South Korea,"{'brand': 'S-market', 'fascia': 'S-market', 'category': 'Retail', 'edit_date': '20250430', 'lat_lon_source': 'Third Party'}",37.5049855126591,127.086672211704,잠실점,"{'opening_hours': {'Mon': '10:00 - 20:00', 'Tue': '10:00 - 20:00', 'Wed': '10:00 - 20:00', 'Thu': '10:00 - 20:00', 'Fri': '10:00 - 20:00', 'Sat': '10:00 - 20:00', 'Sun': '10:00 - 20:00'}}",070-5219-2944,05567,37.5049855126591-127.086672211704,서울,https://www.smarket.co.kr/board/list.php?page=2&bdId=offline
"서울특별시 마포구 어울마당로 117,",S-market,마포구,South Korea,"{'brand': 'S-market', 'fascia': 'S-market', 'category': 'Retail', 'edit_date': '20250430', 'lat_lon_source': 'Third Party'}",37.5552929296157,126.923239654608,홍대점,"{'opening_hours': {'Mon': '10:00 - 12:00', 'Tue': '10:00 - 12:00', 'Wed': '10:00 - 12:00', 'Thu': '10:00 - 12:00', 'Fri': '10:00 - 12:00', 'Sat': '10:00 - 12:00', 'Sun': '10:00 - 12:00'}}",02-3143-7611,04050,37.5552929296157-126.923239654608,서울,https://www.smarket.co.kr/board/list.php?page=4&bdId=offline
경상북도 포항시 북구 흥해읍 동해대로,S-market,포항시 북구,South Korea,"{'brand': 'S-market', 'fascia': 'S-market', 'category': 'Retail', 'edit_date': '20250430', 'lat_lon_source': 'Third Party'}",36.1544885912562,129.346850003804,흥해점,"{'opening_hours': {'Mon': '10:00 - 22:00', 'Tue': '10:00 - 22:00', 'Wed': '10:00 - 22:00', 'Thu': '10:00 - 22:00', 'Fri': '10:00 - 22:00', 'Sat': '10:00 - 22:00', 'Sun': '10:00 - 22:00'}}",054-726-2780,,36.1544885912562-129.346850003804,경북,https://www.smarket.co.kr/board/list.php?page=5&bdId=offline
"경기도 수원시 권선구 경수대로 270,",S-market,수원시 권선구,South Korea,"{'brand': 'S-market', 'fascia': 'S-market', 'category': 'Retail', 'edit_date': '20250430', 'lat_lon_source': 'Third Party'}",37.2505144677203,127.019638678088,NC수원터미널점,"{'opening_hours': {'Mon': '10:30 - 21:00', 'Tue': '10:30 - 21:00', 'Wed': '10:30 - 21:00', 'Thu': '10:30 - 21:00', 'Fri': '10:30 - 21:00', 'Sat': '10:30 - 21:00', 'Sun': '10:30 - 21:00'}}",031-8065-3645,16585,37.2505144677203-127.019638678088,경기,https://www.smarket.co.kr/board/list.php?page=6&bdId=offline
충청남도 당진시 신평면 서해안고속도로,S-market,당진시,South Korea,"{'brand': 'S-market', 'fascia': 'S-market', 'category': 'Retail', 'edit_date': '20250430', 'lat_lon_source': 'Third Party'}",36.9002625387628,126.718298755037,모다아울렛행담도점,"{'opening_hours': {'Mon': '10:00 - 20:00', 'Tue': '10:00 - 20:00', 'Wed': '10:00 - 20:00', 'Thu': '10:00 - 20:00', 'Fri': '10:00 - 20:00', 'Sat': '10:00 - 20:00', 'Sun': '10:00 - 20:00'}}",041-970-2990,,36.9002625387628-126.718298755037,충남,https://www.smarket.co.kr/board/list.php?page=3&bdId=offline
"인천 계양구 봉오대로 785, 1층",S-market,계양구,South Korea,"{'brand': 'S-market', 'fascia': 'S-market', 'category': 'Retail', 'edit_date': '20250430', 'lat_lon_source': 'Third Party'}",37.5310380372084,126.736896747731,EM계양점,"{'opening_hours': {'Mon': '10:00 - 22:00', 'Tue': '10:00 - 22:00', 'Wed': '10:00 - 22:00', 'Thu': '10:00 - 22:00', 'Fri': '10:00 - 22:00', 'Sat': '10:00 - 22:00', 'Sun': '10:00 - 22:00'}}",032-283-5200,21080,37.5310380372084-126.736896747731,인천,https://www.smarket.co.kr/board/list.php?page=2&bdId=offline
서울특별시 도봉구 도봉로 678 홈플러스방학점 1층 에스마켓 ,S-market,도봉구,South Korea,"{'brand': 'S-market', 'fascia': 'S-market', 'category': 'Retail', 'edit_date': '20250430', 'lat_lon_source': 'Third Party'}",37.6648108932287,127.04368647954,HP방학점,"{'opening_hours': {'Mon': '10:00 - 22:30', 'Tue': '10:00 - 22:30', 'Wed': '10:00 - 22:30', 'Thu': '10:00 - 22:30', 'Fri': '10:00 - 22:30', 'Sat': '10:00 - 22:30', 'Sun': '10:00 - 22:30'}}",02-3494-0110,01334,37.6648108932287-127.04368647954,서울,https://www.smarket.co.kr/board/list.php?page=4&bdId=offline
"경상북도 안동시 남문로 33, 1층",S-market,안동시,South Korea,"{'brand': 'S-market', 'fascia': 'S-market', 'category': 'Retail', 'edit_date': '20250430', 'lat_lon_source': 'Third Party'}",36.5661660726295,128.730173890295,안동점,"{'opening_hours': {'Mon': '10:00 - 21:00', 'Tue': '10:00 - 21:00', 'Wed': '10:00 - 21:00', 'Thu': '10:00 - 21:00', 'Fri': '10:00 - 21:00', 'Sat': '10:00 - 21:00', 'Sun': '10:00 - 21:00'}}",054-900-9995,36695,36.5661660726295-128.730173890295,경북,https://www.smarket.co.kr/board/list.php?page=5&bdId=offline
"경기도 부천시 송내대로 239,",S-market,부천시 원미구,South Korea,"{'brand': 'S-market', 'fascia': 'S-market', 'category': 'Retail', 'edit_date': '20250430', 'lat_lon_source': 'Third Party'}",37.5041446553817,126.756721807955,부천뉴코아점,"{'opening_hours': {'Mon': '10:00 - 21:00', 'Tue': '10:00 - 21:00', 'Wed': '10:00 - 21:00', 'Thu': '10:00 - 21:00', 'Fri': '10:00 - 21:00', 'Sat': '10:00 - 21:00', 'Sun': '10:00 - 21:00'}}",032-624-7560,14545,37.5041446553817-126.756721807955,경기,https://www.smarket.co.kr/board/list.php?page=6&bdId=offline
충청남도 금산군 금산읍 금산로 1490,S-market,금산군,South Korea,"{'brand': 'S-market', 'fascia': 'S-market', 'category': 'Retail', 'edit_date': '20250430', 'lat_lon_source': 'Third Party'}",36.1066293256579,127.489759874923,금산점,"{'opening_hours': {'Mon': '10:00 - 21:00', 'Tue': '10:00 - 21:00', 'Wed': '10:00 - 21:00', 'Thu': '10:00 - 21:00', 'Fri': '10:00 - 21:00', 'Sat': '10:00 - 21:00', 'Sun': '10:00 - 21:00'}}",041-751-5786,32735,36.1066293256579-127.489759874923,충남,https://www.smarket.co.kr/board/list.php?page=3&bdId=offline
"경상남도 창원시 마산합포구 서성로3, 1층",S-market,창원시 마산합포구,South Korea,"{'brand': 'S-market', 'fascia': 'S-market', 'category': 'Retail', 'edit_date': '20250430', 'lat_lon_source': 'Third Party'}",35.1978842304914,128.569952174106,EM마산점,"{'opening_hours': {'Mon': '10:00 - 22:00', 'Tue': '10:00 - 22:00', 'Wed': '10:00 - 22:00', 'Thu': '10:00 - 22:00', 'Fri': '10:00 - 22:00', 'Sat': '10:00 - 22:00', 'Sun': '10:00 - 22:00'}}",070-5219-2948,51735,35.1978842304914-128.569952174106,경남,https://www.smarket.co.kr/board/list.php?page=2&bdId=offline
"서울특별시 도봉구 노해로65길 4,",S-market,도봉구,South Korea,"{'brand': 'S-market', 'fascia': 'S-market', 'category': 'Retail', 'edit_date': '20250430', 'lat_lon_source': 'Third Party'}",37.651636123068,127.046699282846,EM창동점,"{'opening_hours': {'Mon': '10:00 - 22:00', 'Tue': '10:00 - 22:00', 'Wed': '10:00 - 22:00', 'Thu': '10:00 - 22:00', 'Fri': '10:00 - 22:00', 'Sat': '10:00 - 22:00', 'Sun': '10:00 - 22:00'}}",070-5219-3013,01405,37.651636123068-127.046699282846,서울,https://www.smarket.co.kr/board/list.php?page=4&bdId=offline
"경상북도 김천시 아포읍 아포대로 1417,",S-market,김천시,South Korea,"{'brand': 'S-market', 'fascia': 'S-market', 'category': 'Retail', 'edit_date': '20250430', 'lat_lon_source': 'Third Party'}",36.1546014917893,128.281876353561,모다아울렛김천점,"{'opening_hours': {'Mon': '11:00 - 21:00', 'Tue': '11:00 - 21:00', 'Wed': '11:00 - 21:00', 'Thu': '11:00 - 21:00', 'Fri': '11:00 - 21:00', 'Sat': '11:00 - 21:00', 'Sun': '11:00 - 21:00'}}",054-910-5083,39676,36.1546014917893-128.281876353561,경북,https://www.smarket.co.kr/board/list.php?page=5&bdId=offline
"경기도 김포시 양촌읍 김포대로 1641,",S-market,김포시,South Korea,"{'brand': 'S-market', 'fascia': 'S-market', 'category': 'Retail', 'edit_date': '20250430', 'lat_lon_source': 'Third Party'}",37.6632873599922,126.655656902935,김포모아점,"{'opening_hours': {'Mon': '10:00 - 21:00', 'Tue': '10:00 - 21:00', 'Wed': '10:00 - 21:00', 'Thu': '10:00 - 21:00', 'Fri': '10:00 - 21:00', 'Sat': '10:00 - 21:00', 'Sun': '10:00 - 21:00'}}",031-985-5800,10054,37.6632873599922-126.655656902935,경기,https://www.smarket.co.kr/board/list.php?page=6&bdId=offline
제주특별자치도 제주시 신광로 53,S-market,제주시,South Korea,"{'brand': 'S-market', 'fascia': 'S-market', 'category': 'Retail', 'edit_date': '20250430', 'lat_lon_source': 'Third Party'}",33.4873407318799,126.490250179763,신제주점,"{'opening_hours': {'Mon': '11:00 - 23:00', 'Tue': '11:00 - 23:00', 'Wed': '11:00 - 23:00', 'Thu': '11:00 - 23:00', 'Fri': '11:00 - 23:00', 'Sat': '11:00 - 23:00', 'Sun': '11:00 - 23:00'}}",064-749-7580,63123,33.4873407318799-126.490250179763,제주특별자치도,https://www.smarket.co.kr/board/list.php?page=3&bdId=offline
"대전광역시 서구 둔산북로 41, 2층",S-market,서구,South Korea,"{'brand': 'S-market', 'fascia': 'S-market', 'category': 'Retail', 'edit_date': '20250430', 'lat_lon_source': 'Third Party'}",36.3563797165041,127.377763527367,EM둔산점,"{'opening_hours': {'Mon': '10:00 - 22:00', 'Tue': '10:00 - 22:00', 'Wed': '10:00 - 22:00', 'Thu': '10:00 - 22:00', 'Fri': '10:00 - 22:00', 'Sat': '10:00 - 22:00', 'Sun': '10:00 - 22:00'}}",070-5219-3027,35229,36.3563797165041-127.377763527367,대전,https://www.smarket.co.kr/board/list.php?page=2&bdId=offline
"서울특별시 금천구 가산동 벚꽃로 266,",S-market,금천구,South Korea,"{'brand': 'S-market', 'fascia': 'S-market', 'category': 'Retail', 'edit_date': '20250430', 'lat_lon_source': 'Third Party'}",37.4784775572043,126.885157102201,구로마리오점,"{'opening_hours': {'Mon': '10:00 - 21:00', 'Tue': '10:00 - 21:00', 'Wed': '10:00 - 21:00', 'Thu': '10:00 - 21:00', 'Fri': '10:00 - 21:00', 'Sat': '10:00 - 21:00', 'Sun': '10:00 - 21:00'}}",070-5219-2981,08511,37.4784775572043-126.885157102201,서울,https://www.smarket.co.kr/board/list.php?page=4&bdId=offline
경상북도 구미시 해마루공원로 21,S-market,구미시,South Korea,"{'brand': 'S-market', 'fascia': 'S-market', 'category': 'Retail', 'edit_date': '20250430', 'lat_lon_source': 'Third Party'}",36.1352193218368,128.428241421668,구미해마루점,"{'opening_hours': {'Mon': '10:00 - 22:00', 'Tue': '10:00 - 22:00', 'Wed': '10:00 - 22:00', 'Thu': '10:00 - 22:00', 'Fri': '10:00 - 22:00', 'Sat': '10:00 - 22:00', 'Sun': '10:00 - 22:00'}}",054-481-7054,39421,36.1352193218368-128.428241421668,경북,https://www.smarket.co.kr/board/list.php?page=5&bdId=offline
"경기도 구리시 갈매동 268-3,",S-market,,South Korea,"{'brand': 'S-market', 'fascia': 'S-market', 'category': 'Retail', 'edit_date': '20250430', 'lat_lon_source': 'Third Party'}",37.6310565,127.1168045,모다남양주점,"{'opening_hours': {'Mon': '10:00 - 21:00', 'Tue': '10:00 - 21:00', 'Wed': '10:00 - 21:00', 'Thu': '10:00 - 21:00', 'Fri': '10:00 - 21:00', 'Sat': '10:00 - 21:00', 'Sun': '10:00 - 21:00'}}",031-514-8688,,37.6310565-127.1168045,,https://www.smarket.co.kr/board/list.php?page=6&bdId=offline
제주특별자치도 제주시 관덕로11길 7,S-market,제주시,South Korea,"{'brand': 'S-market', 'fascia': 'S-market', 'category': 'Retail', 'edit_date': '20250430', 'lat_lon_source': 'Third Party'}",33.5137460170367,126.525320202159,제주칠성점,"{'opening_hours': {'Mon': '10:00 - 22:00', 'Tue': '10:00 - 22:00', 'Wed': '10:00 - 22:00', 'Thu': '10:00 - 22:00', 'Fri': '10:00 - 22:00', 'Sat': '10:00 - 22:00', 'Sun': '10:00 - 22:00'}}",064-723-7585,63277,33.5137460170367-126.525320202159,제주특별자치도,https://www.smarket.co.kr/board/list.php?page=3&bdId=offline
"경기도 시흥시 장현능곡로 155,",S-market,시흥시,South Korea,"{'brand': 'S-market', 'fascia': 'S-market', 'category': 'Retail', 'edit_date': '20250430', 'lat_lon_source': 'Third Party'}",37.3710521503438,126.807314112056,모다시흥점,"{'opening_hours': {'Mon': '10:30 - 20:30', 'Tue': '10:30 - 20:30', 'Wed': '10:30 - 20:30', 'Thu': '10:30 - 20:30', 'Fri': '10:30 - 20:30', 'Sat': '10:00 - 21:00', 'Sun': '10:00 - 21:00'}}",031-404-2809,15121,37.3710521503438-126.807314112056,경기,https://www.smarket.co.kr/board/list.php?page=2&bdId=offline
"서울특별시 강서구 양천로 431,",S-market,강서구,South Korea,"{'brand': 'S-market', 'fascia': 'S-market', 'category': 'Retail', 'edit_date': '20250430', 'lat_lon_source': 'Third Party'}",37.5642640468035,126.849960213917,가양점,"{'opening_hours': {'Mon': '10:00 - 22:30', 'Tue': '10:00 - 22:30', 'Wed': '10:00 - 22:30', 'Thu': '10:00 - 22:30', 'Fri': '10:00 - 22:30', 'Sat': '10:00 - 22:30', 'Sun': '10:00 - 22:30'}}",070-5219-2987,07527,37.5642640468035-126.849960213917,서울,https://www.smarket.co.kr/board/list.php?page=4&bdId=offline
경상북도 경주시 천북면 산업로,S-market,경주시,South Korea,"{'brand': 'S-market', 'fascia': 'S-market', 'category': 'Retail', 'edit_date': '20250430', 'lat_lon_source': 'Third Party'}",35.8383437083593,129.236604746014,모다아울렛경주점,"{'opening_hours': {'Mon': '11:00 - 21:00', 'Tue': '11:00 - 21:00', 'Wed': '11:00 - 21:00', 'Thu': '11:00 - 21:00', 'Fri': '11:00 - 21:00', 'Sat': '11:00 - 21:00', 'Sun': '11:00 - 21:00'}}",054-620-7785,,35.8383437083593-129.236604746014,경북,https://www.smarket.co.kr/board/list.php?page=5&bdId=offline
"경기도 광주시 초월읍 경충대로 907,",S-market,광주시,South Korea,"{'brand': 'S-market', 'fascia': 'S-market', 'category': 'Retail', 'edit_date': '20250430', 'lat_lon_source': 'Third Party'}",37.363299976122,127.312588118058,모다곤지암점,"{'opening_hours': {'Mon': '11:00 - 21:00', 'Tue': '11:00 - 21:00', 'Wed': '11:00 - 21:00', 'Thu': '11:00 - 21:00', 'Fri': '11:00 - 21:00', 'Sat': '11:00 - 21:00', 'Sun': '11:00 - 21:00'}}",070-5219-3028,12807,37.363299976122-127.312588118058,경기,https://www.smarket.co.kr/board/list.php?page=6&bdId=offline
제주특별자치도 서귀포시 중정로,S-market,서귀포시,South Korea,"{'brand': 'S-market', 'fascia': 'S-market', 'category': 'Retail', 'edit_date': '20250430', 'lat_lon_source': 'Third Party'}",33.2478453585033,126.563012978337,서귀포점,"{'opening_hours': {'Mon': '10:00 - 22:00', 'Tue': '10:00 - 22:00', 'Wed': '10:00 - 22:00', 'Thu': '10:00 - 22:00', 'Fri': '10:00 - 22:00', 'Sat': '10:00 - 22:00', 'Sun': '10:00 - 22:00'}}",064-732-7580,,33.2478453585033-126.563012978337,제주특별자치도,https://www.smarket.co.kr/board/list.php?page=3&bdId=offline
"경기도 남양주시 화도읍 경춘로 1725,",S-market,남양주시,South Korea,"{'brand': 'S-market', 'fascia': 'S-market', 'category': 'Retail', 'edit_date': '20250430', 'lat_lon_source': 'Third Party'}",37.6565355738538,127.281640380486,한성몰남양주점,"{'opening_hours': {'Mon': '10:30 - 21:00', 'Tue': '10:30 - 21:00', 'Wed': '10:30 - 21:00', 'Thu': '10:30 - 21:00', 'Fri': '10:30 - 21:00', 'Sat': '10:30 - 21:00', 'Sun': '10:30 - 21:00'}}",031-931-1513,12171,37.6565355738538-127.281640380486,경기,https://www.smarket.co.kr/board/list.php?page=2&bdId=offline
"서울특별시 강동구 구천면로 189,",S-market,강동구,South Korea,"{'brand': 'S-market', 'fascia': 'S-market', 'category': 'Retail', 'edit_date': '20250430', 'lat_lon_source': 'Third Party'}",37.5415920129665,127.125536352486,NC천호점,"{'opening_hours': {'Mon': '10:30 - 21:00', 'Tue': '10:30 - 21:00', 'Wed': '10:30 - 21:00', 'Thu': '10:30 - 21:00', 'Fri': '10:30 - 21:00', 'Sat': '10:30 - 21:00', 'Sun': '10:30 - 21:00'}}",02-2224-6440,05327,37.5415920129665-127.125536352486,서울,https://www.smarket.co.kr/board/list.php?page=4&bdId=offline
경상남도 창원시 의창구 창원대로,S-market,창원시 의창구,South Korea,"{'brand': 'S-market', 'fascia': 'S-market', 'category': 'Retail', 'edit_date': '20250430', 'lat_lon_source': 'Third Party'}",35.2164810857151,128.672566018883,NC창원점,"{'opening_hours': {'Mon': '10:30 - 21:00', 'Tue': '10:30 - 21:00', 'Wed': '10:30 - 21:00', 'Thu': '10:30 - 21:00', 'Fri': '10:30 - 21:00', 'Sat': '10:30 - 21:00', 'Sun': '10:30 - 21:00'}}",055-270-3155,,35.2164810857151-128.672566018883,경남,https://www.smarket.co.kr/board/list.php?page=5&bdId=offline
"경기도 광명시 소하로 97,",S-market,광명시,South Korea,"{'brand': 'S-market', 'fascia': 'S-market', 'category': 'Retail', 'edit_date': '20250430', 'lat_lon_source': 'Third Party'}",37.446594050365,126.884553002261,EM광명소하점,"{'opening_hours': {'Mon': '10:00 - 23:00', 'Tue': '10:00 - 23:00', 'Wed': '10:00 - 23:00', 'Thu': '10:00 - 23:00', 'Fri': '10:00 - 23:00', 'Sat': '10:00 - 23:00', 'Sun': '10:00 - 23:00'}}",070-5219-3003,14316,37.446594050365-126.884553002261,경기,https://www.smarket.co.kr/board/list.php?page=6&bdId=offline
"전라북도 전주시 덕진구 백제대로 771,",S-market,전주시 덕진구,South Korea,"{'brand': 'S-market', 'fascia': 'S-market', 'category': 'Retail', 'edit_date': '20250430', 'lat_lon_source': 'Third Party'}",35.8476145093586,127.15284435984,HP전주점,"{'opening_hours': {'Mon': '10:00 - 23:00', 'Tue': '10:00 - 23:00', 'Wed': '10:00 - 23:00', 'Thu': '10:00 - 23:00', 'Fri': '10:00 - 23:00', 'Sat': '10:00 - 23:00', 'Sun': '10:00 - 23:00'}}",070-5219-3007,54909,35.8476145093586-127.15284435984,전북특별자치도,https://www.smarket.co.kr/board/list.php?page=3&bdId=offline
대구광역시 중구 동성로2가 84-5번지,S-market,중구,South Korea,"{'brand': 'S-market', 'fascia': 'S-market', 'category': 'Retail', 'edit_date': '20250430', 'lat_lon_source': 'Third Party'}",35.87017612548,128.595471072694,동성로점,"{'opening_hours': {'Mon': '10:30 - 21:30', 'Tue': '10:30 - 21:30', 'Wed': '10:30 - 21:30', 'Thu': '10:30 - 21:30', 'Fri': '10:30 - 21:30', 'Sat': '10:30 - 21:30', 'Sun': '10:30 - 21:30'}}",070-5219-3017,41937,35.87017612548-128.595471072694,대구,https://www.smarket.co.kr/board/list.php?page=2&bdId=offline
"부산광역시 해운대구 좌동순환로 511,",S-market,해운대구,South Korea,"{'brand': 'S-market', 'fascia': 'S-market', 'category': 'Retail', 'edit_date': '20250430', 'lat_lon_source': 'Third Party'}",35.1660208153462,129.167373764158,EM해운대점,"{'opening_hours': {'Mon': '10:00 - 23:30', 'Tue': '10:00 - 23:30', 'Wed': '10:00 - 23:30', 'Thu': '10:00 - 23:30', 'Fri': '10:00 - 23:30', 'Sat': '10:00 - 23:30', 'Sun': '10:00 - 23:30'}}",070-7749-1909,48096,35.1660208153462-129.167373764158,부산,https://www.smarket.co.kr/board/list.php?page=4&bdId=offline
"경상남도 진주시 정촌면 삼일로95번길 46,",S-market,진주시,South Korea,"{'brand': 'S-market', 'fascia': 'S-market', 'category': 'Retail', 'edit_date': '20250430', 'lat_lon_source': 'Third Party'}",35.1321127774167,128.098462373322,모다진주2호점,"{'opening_hours': {'Mon': '1100:00 - 900:00', 'Tue': '1100:00 - 900:00', 'Wed': '1100:00 - 900:00', 'Thu': '1100:00 - 900:00', 'Fri': '1100:00 - 900:00', 'Sat': '1100:00 - 900:00', 'Sun': '1100:00 - 900:00'}}",070-5219-2990,52845,35.1321127774167-128.098462373322,경남,https://www.smarket.co.kr/board/list.php?page=5&bdId=offline
"경기도 고양시 일산서구 탄중로 94,",S-market,고양시 일산서구,South Korea,"{'brand': 'S-market', 'fascia': 'S-market', 'category': 'Retail', 'edit_date': '20250430', 'lat_lon_source': 'Third Party'}",37.6917285664819,126.755619923715,일산덕이점,"{'opening_hours': {'Mon': '10:00 - 21:00', 'Tue': '10:00 - 21:00', 'Wed': '10:00 - 21:00', 'Thu': '10:00 - 21:00', 'Fri': '10:00 - 21:00', 'Sat': '10:00 - 21:00', 'Sun': '10:00 - 21:00'}}",070-5219-2979,10237,37.6917285664819-126.755619923715,경기,https://www.smarket.co.kr/board/list.php?page=6&bdId=offline
전라북도 남원시 남문로 437,S-market,남원시,South Korea,"{'brand': 'S-market', 'fascia': 'S-market', 'category': 'Retail', 'edit_date': '20250430', 'lat_lon_source': 'Third Party'}",35.4065759660366,127.379290278244,남원점,"{'opening_hours': {'Mon': '10:00 - 22:00', 'Tue': '10:00 - 22:00', 'Wed': '10:00 - 22:00', 'Thu': '10:00 - 22:00', 'Fri': '10:00 - 22:00', 'Sat': '10:00 - 22:00', 'Sun': '10:00 - 22:00'}}",063-635-3001,55763,35.4065759660366-127.379290278244,전북특별자치도,https://www.smarket.co.kr/board/list.php?page=3&bdId=offline
"전라북도 군산시 조촌로 130, 2층",S-market,군산시,South Korea,"{'brand': 'S-market', 'fascia': 'S-market', 'category': 'Retail', 'edit_date': '20250430', 'lat_lon_source': 'Third Party'}",35.9764135493257,126.739141072625,LO군산점,"{'opening_hours': {'Mon': '11:00 - 21:00', 'Tue': '11:00 - 21:00', 'Wed': '11:00 - 21:00', 'Thu': '11:00 - 21:00', 'Fri': '11:00 - 21:00', 'Sat': '11:30 - 22:00', 'Sun': '11:30 - 22:00'}}",063-477-0299,54072,35.9764135493257-126.739141072625,전북특별자치도,https://www.smarket.co.kr/board/list.php?page=2&bdId=offline
"부산광역시 연제구 거제동 1208,",S-market,연제구,South Korea,"{'brand': 'S-market', 'fascia': 'S-market', 'category': 'Retail', 'edit_date': '20250430', 'lat_lon_source': 'Third Party'}",35.1909050227428,129.061419257391,HP아시아드점,"{'opening_hours': {'Mon': '10:00 - 22:30', 'Tue': '10:00 - 22:30', 'Wed': '10:00 - 22:30', 'Thu': '10:00 - 22:30', 'Fri': '10:00 - 22:30', 'Sat': '10:00 - 22:30', 'Sun': '10:00 - 22:30'}}",070-8848-4464,47500,35.1909050227428-129.061419257391,부산,https://www.smarket.co.kr/board/list.php?page=4&bdId=offline
경상남도 진주시 정촌면,S-market,진주시,South Korea,"{'brand': 'S-market', 'fascia': 'S-market', 'category': 'Retail', 'edit_date': '20250430', 'lat_lon_source': 'Third Party'}",35.1312367483292,128.10279442624,모다진주점,"{'opening_hours': {'Mon': '11:00 - 21:00', 'Tue': '11:00 - 21:00', 'Wed': '11:00 - 21:00', 'Thu': '11:00 - 21:00', 'Fri': '11:00 - 21:00', 'Sat': '11:00 - 21:00', 'Sun': '11:00 - 21:00'}}",055-923-1523,,35.1312367483292-128.10279442624,경남,https://www.smarket.co.kr/board/list.php?page=5&bdId=offline
"경기 화성시 동탄중앙로 376,",S-market,화성시,South Korea,"{'brand': 'S-market', 'fascia': 'S-market', 'category': 'Retail', 'edit_date': '20250430', 'lat_lon_source': 'Third Party'}",37.2143761153834,127.079723267988,EM동탄점,"{'opening_hours': {'Mon': '10:00 - 23:00', 'Tue': '10:00 - 23:00', 'Wed': '10:00 - 23:00', 'Thu': '10:00 - 23:00', 'Fri': '10:00 - 23:00', 'Sat': '10:00 - 23:00', 'Sun': '10:00 - 23:00'}}",031-613-8893,18451,37.2143761153834-127.079723267988,경기,https://www.smarket.co.kr/board/list.php?page=6&bdId=offline
"인천광역시 연수구 청능대로 210,",S-market,연수구,South Korea,"{'brand': 'S-market', 'fascia': 'S-market', 'category': 'Retail', 'edit_date': '20250430', 'lat_lon_source': 'Third Party'}",37.4059981630337,126.683622060373,인천연수점,"{'opening_hours': {'Mon': '10:00 - 22:30', 'Tue': '10:00 - 22:30', 'Wed': '10:00 - 22:30', 'Thu': '10:00 - 22:30', 'Fri': '10:00 - 22:30', 'Sat': '10:00 - 22:30', 'Sun': '10:00 - 22:30'}}",070-5219-2988,21975,37.4059981630337-126.683622060373,인천,https://www.smarket.co.kr/board/list.php?page=3&bdId=offline
"전북 김제시 용지면 콩쥐팥쥐로 855,1층",S-market,김제시,South Korea,"{'brand': 'S-market', 'fascia': 'S-market', 'category': 'Retail', 'edit_date': '20250430', 'lat_lon_source': 'Third Party'}",35.8171691171679,126.993224068951,모다전주김제점,"{'opening_hours': {'Mon': '10:30 - 20:30', 'Tue': '10:30 - 20:30', 'Wed': '10:30 - 20:30', 'Thu': '10:30 - 20:30', 'Fri': '10:30 - 20:30', 'Sat': '10:00 - 21:00', 'Sun': '10:00 - 21:00'}}",063-540-9465,54334,35.8171691171679-126.993224068951,전북특별자치도,https://www.smarket.co.kr/board/list.php?page=2&bdId=offline
"부산광역시 사하구 다대로 207,",S-market,사하구,South Korea,"{'brand': 'S-market', 'fascia': 'S-market', 'category': 'Retail', 'edit_date': '20250430', 'lat_lon_source': 'Third Party'}",35.0837285476349,128.977829139842,부산세정점,"{'opening_hours': {'Mon': '10:30 - 20:30', 'Tue': '10:30 - 20:30', 'Wed': '10:30 - 20:30', 'Thu': '10:30 - 20:30', 'Fri': '10:30 - 20:30', 'Sat': '10:30 - 20:30', 'Sun': '10:30 - 20:30'}}",051-262-2040,49462,35.0837285476349-128.977829139842,부산,https://www.smarket.co.kr/board/list.php?page=4&bdId=offline
"경상남도 양산시 중부동 685-2,",S-market,양산시,South Korea,"{'brand': 'S-market', 'fascia': 'S-market', 'category': 'Retail', 'edit_date': '20250430', 'lat_lon_source': 'Third Party'}",35.3390754912246,129.027537982935,모다아울렛양산점,"{'opening_hours': {'Mon': '11:00 - 21:00', 'Tue': '11:00 - 21:00', 'Wed': '11:00 - 21:00', 'Thu': '11:00 - 21:00', 'Fri': '11:00 - 21:00', 'Sat': '11:00 - 21:00', 'Sun': '11:00 - 21:00'}}",055-911-7155,50629,35.3390754912246-129.027537982935,경남,https://www.smarket.co.kr/board/list.php?page=5&bdId=offline
"강원도 원주시 치악로 1489,",S-market,원주시,South Korea,"{'brand': 'S-market', 'fascia': 'S-market', 'category': 'Retail', 'edit_date': '20250430', 'lat_lon_source': 'Third Party'}",37.317720689854,127.967313231294,원주홈플러스점,"{'opening_hours': {'Mon': '10:00 - 22:00', 'Tue': '10:00 - 22:00', 'Wed': '10:00 - 22:00', 'Thu': '10:00 - 22:00', 'Fri': '10:00 - 22:00', 'Sat': '10:00 - 22:00', 'Sun': '10:00 - 22:00'}}",070-5219-2989,26471,37.317720689854-127.967313231294,강원특별자치도,https://www.smarket.co.kr/board/list.php?page=6&bdId=offline
"인천광역시 서구 북항로32번안길 50,",S-market,서구,South Korea,"{'brand': 'S-market', 'fascia': 'S-market', 'category': 'Retail', 'edit_date': '20250430', 'lat_lon_source': 'Third Party'}",37.5099191232844,126.64772504066,모다아울렛인천점,"{'opening_hours': {'Mon': '11:00 - 21:00', 'Tue': '11:00 - 21:00', 'Wed': '11:00 - 21:00', 'Thu': '11:00 - 21:00', 'Fri': '11:00 - 21:00', 'Sat': '11:00 - 21:00', 'Sun': '11:00 - 21:00'}}",032-288-7912,22769,37.5099191232844-126.64772504066,인천,https://www.smarket.co.kr/board/list.php?page=3&bdId=offline
전라남도 순천시 해룡면 상성길 70.,S-market,순천시,South Korea,"{'brand': 'S-market', 'fascia': 'S-market', 'category': 'Retail', 'edit_date': '20250430', 'lat_lon_source': 'Third Party'}",34.9255719191129,127.544429573906,모다순천점,"{'opening_hours': {'Mon': '11:00 - 21:00', 'Tue': '11:00 - 21:00', 'Wed': '11:00 - 21:00', 'Thu': '11:00 - 21:00', 'Fri': '11:00 - 21:00', 'Sat': '11:00 - 21:00', 'Sun': '11:00 - 21:00'}}",070-5219-3040,58005,34.9255719191129-127.544429573906,전남,https://www.smarket.co.kr/board/list.php?page=2&bdId=offline
"부산광역시 사상구 사상로 201,",S-market,사상구,South Korea,"{'brand': 'S-market', 'fascia': 'S-market', 'category': 'Retail', 'edit_date': '20250430', 'lat_lon_source': 'Third Party'}",35.1631461622437,128.98098582427,사상애플점,"{'opening_hours': {'Mon': '10:30 - 22:30', 'Tue': '10:30 - 22:30', 'Wed': '10:30 - 22:30', 'Thu': '10:30 - 22:30', 'Fri': '10:30 - 22:30', 'Sat': '10:30 - 22:30', 'Sun': '10:30 - 22:30'}}",051-559-6360,46969,35.1631461622437-128.98098582427,부산,https://www.smarket.co.kr/board/list.php?page=4&bdId=offline
"경상남도 김해시 장유로 469,",S-market,김해시,South Korea,"{'brand': 'S-market', 'fascia': 'S-market', 'category': 'Retail', 'edit_date': '20250430', 'lat_lon_source': 'Third Party'}",35.1850621204763,128.829596369018,LO김해점,"{'opening_hours': {'Mon': '11:00 - 21:00', 'Tue': '11:00 - 21:00', 'Wed': '11:00 - 21:00', 'Thu': '11:00 - 21:00', 'Fri': '11:00 - 21:00', 'Sat': '11:00 - 21:00', 'Sun': '11:00 - 21:00'}}",055-900-2667,51011,35.1850621204763-128.829596369018,경남,https://www.smarket.co.kr/board/list.php?page=5&bdId=offline
"경상북도 구미시 구미대로 174,",S-market,구미시,South Korea,"{'brand': 'S-market', 'fascia': 'S-market', 'category': 'Retail', 'edit_date': '20250430', 'lat_lon_source': 'Third Party'}",36.10275447283,128.363749610866,HP구미점,"{'opening_hours': {'Mon': '10:00 - 23:00', 'Tue': '10:00 - 23:00', 'Wed': '10:00 - 23:00', 'Thu': '10:00 - 23:00', 'Fri': '10:00 - 23:00', 'Sat': '10:00 - 23:00', 'Sun': '10:00 - 23:00'}}",070-8624-5083,39347,36.10275447283-128.363749610866,경북,https://www.smarket.co.kr/board/list.php?page=6&bdId=offline
"인천광역시 부평구 부평문화로 35,",S-market,부평구,South Korea,"{'brand': 'S-market', 'fascia': 'S-market', 'category': 'Retail', 'edit_date': '20250430', 'lat_lon_source': 'Third Party'}",37.4935400320209,126.71957440222,모다부평점,"{'opening_hours': {'Mon': '10:30 - 20:30', 'Tue': '10:30 - 20:30', 'Wed': '10:30 - 20:30', 'Thu': '10:30 - 20:30', 'Fri': '10:30 - 20:30', 'Sat': '10:30 - 20:30', 'Sun': '10:30 - 20:30'}}",032-452-2100,21387,37.4935400320209-126.71957440222,인천,https://www.smarket.co.kr/board/list.php?page=3&bdId=offline
서울특별시 금천구 시흥대로 201.,S-market,금천구,South Korea,"{'brand': 'S-market', 'fascia': 'S-market', 'category': 'Retail', 'edit_date': '20250430', 'lat_lon_source': 'Third Party'}",37.4519790161758,126.90079038873,HP시흥점,"{'opening_hours': {'Mon': '10:00 - 22:30', 'Tue': '10:00 - 22:30', 'Wed': '10:00 - 22:30', 'Thu': '10:00 - 22:30', 'Fri': '10:00 - 22:30', 'Sat': '10:00 - 22:30', 'Sun': '10:00 - 22:30'}}",070-5219-3014,08632,37.4519790161758-126.90079038873,서울,https://www.smarket.co.kr/board/list.php?page=2&bdId=offline
"부산광역시 금정구 부산대학로63번길 2,",S-market,금정구,South Korea,"{'brand': 'S-market', 'fascia': 'S-market', 'category': 'Retail', 'edit_date': '20250430', 'lat_lon_source': 'Third Party'}",35.2322427971605,129.08382445362,NC부산대점,"{'opening_hours': {'Mon': '10:30 - 21:00', 'Tue': '10:30 - 21:00', 'Wed': '10:30 - 21:00', 'Thu': '10:30 - 21:00', 'Fri': '10:30 - 21:00', 'Sat': '10:30 - 21:00', 'Sun': '10:30 - 21:00'}}",070-8836-4464,46241,35.2322427971605-129.08382445362,부산,https://www.smarket.co.kr/board/list.php?page=4&bdId=offline
"경기도 화성시 향남읍 향남로 402,",S-market,화성시,South Korea,"{'brand': 'S-market', 'fascia': 'S-market', 'category': 'Retail', 'edit_date': '20250430', 'lat_lon_source': 'Third Party'}",37.1307326885845,126.921853434721,향남점,"{'opening_hours': {'Mon': '10:00 - 22:30', 'Tue': '10:00 - 22:30', 'Wed': '10:00 - 22:30', 'Thu': '10:00 - 22:30', 'Fri': '10:00 - 22:30', 'Sat': '10:00 - 22:30', 'Sun': '10:00 - 22:30'}}",070-5219-2984,18600,37.1307326885845-126.921853434721,경기,https://www.smarket.co.kr/board/list.php?page=5&bdId=offline
"경기도 평택시 포승읍 여술로 20,",S-market,평택시,South Korea,"{'brand': 'S-market', 'fascia': 'S-market', 'category': 'Retail', 'edit_date': '20250430', 'lat_lon_source': 'Third Party'}",36.9877168660446,126.844748644396,평택포승점,"{'opening_hours': {'Mon': '10:00 - 21:00', 'Tue': '10:00 - 21:00', 'Wed': '10:00 - 21:00', 'Thu': '10:00 - 21:00', 'Fri': '10:00 - 21:00', 'Sat': '10:00 - 21:00', 'Sun': '10:00 - 21:00'}}",031-683-2413,17955,36.9877168660446-126.844748644396,경기,https://www.smarket.co.kr/board/list.php?page=5&bdId=offline
