address,city,country_code,brand,extras,ref,name,phone,latitude,longitude,opening_hours,postcode,website
"47000, ZAC Agen-Sud AGEN",AGEN,FR,Cultura,"{'brand': 'Cultura', 'fascia': 'Magasin Cultura', 'category': 'Retail', 'edit_date': '20250310', 'lat_lon_source': 'website'}",317,Cultura Agen,05.35.55.60.00,44.181188,0.620896,"{'opening_hours': {'Mon': '09:00-20:00', 'Tue': '09:00-20:00', 'Wed': '09:00-20:00', 'Thu': '09:00-20:00', 'Fri': '09:00-20:00', 'Sat': '09:00-20:00', 'Sun': 'Closed'}}",47000,https://www.cultura.com/les-magasins.html
"20167, Centre Commercial Atrium, Lieu-dit Pernicaggio SARROLA-CARCOPINO",SARROLA-CARCOPINO,FR,Cultura,"{'brand': 'Cultura', 'fascia': 'Magasin Cultura', 'category': 'Retail', 'edit_date': '20250310', 'lat_lon_source': 'website'}",346,Cultura Ajaccio,04 95 23 67 00,41.95304,8.79683,"{'opening_hours': {'Mon': '09:30-19:00', 'Tue': '09:30-19:00', 'Wed': '09:30-19:00', 'Thu': '09:30-19:00', 'Fri': '09:30-19:00', 'Sat': '09:30-19:00', 'Sun': 'Closed'}}",20167,https://www.cultura.com/les-magasins.html
"73200, Zone commerciale du Chiriac ALBERTVILLE",ALBERTVILLE,FR,Cultura,"{'brand': 'Cultura', 'fascia': 'Magasin Cultura', 'category': 'Retail', 'edit_date': '20250310', 'lat_lon_source': 'website'}",337,Cultura Albertville,04.80.81.60.20,45.657876,6.368742,"{'opening_hours': {'Mon': '09:00-19:30', 'Tue': '09:00-19:30', 'Wed': '09:00-19:30', 'Thu': '09:00-19:30', 'Fri': '09:00-19:30', 'Sat': '09:00-19:30', 'Sun': 'Closed'}}",73200,https://www.cultura.com/les-magasins.html
"80000, 150 Avenue de l'Europe AMIENS",AMIENS,FR,Cultura,"{'brand': 'Cultura', 'fascia': 'Magasin Cultura', 'category': 'Retail', 'edit_date': '20250310', 'lat_lon_source': 'website'}",250,Cultura Amiens,03.22.40.32.10,49.9195,2.30634,"{'opening_hours': {'Mon': '09:00-20:00', 'Tue': '09:00-20:00', 'Wed': '09:00-20:00', 'Thu': '09:00-20:00', 'Fri': '09:00-20:00', 'Sat': '09:00-20:00', 'Sun': 'Closed'}}",80000,https://www.cultura.com/les-magasins.html
"49000, Centre commercial Espace ANJOU ANGERS",ANGERS,FR,Cultura,"{'brand': 'Cultura', 'fascia': 'Magasin Cultura', 'category': 'Retail', 'edit_date': '20250310', 'lat_lon_source': 'website'}",348,Cultura Angers-Anjou,02.85.35.60.90,47.46683,-0.521537,"{'opening_hours': {'Mon': '09:00-20:00', 'Tue': '09:00-20:00', 'Wed': '09:00-20:00', 'Thu': '09:00-20:00', 'Fri': '09:00-20:00', 'Sat': '09:00-20:00', 'Sun': 'Closed'}}",49000,https://www.cultura.com/les-magasins.html
"49070, CC Atoll Angers BEAUCOUZÉ",BEAUCOUZÉ,FR,Cultura,"{'brand': 'Cultura', 'fascia': 'Magasin Cultura', 'category': 'Retail', 'edit_date': '20250310', 'lat_lon_source': 'website'}",325,Cultura Angers-Atoll,02.85.35.61.40,47.485996,-0.627567,"{'opening_hours': {'Mon': '09:00-20:00', 'Tue': '09:00-20:00', 'Wed': '09:00-20:00', 'Thu': '09:00-20:00', 'Fri': '09:00-20:00', 'Sat': '09:00-20:00', 'Sun': 'Closed'}}",49070,https://www.cultura.com/les-magasins.html
"64600, Avenue Jean Léon Laporte ANGLET",ANGLET,FR,Cultura,"{'brand': 'Cultura', 'fascia': 'Magasin Cultura', 'category': 'Retail', 'edit_date': '20250310', 'lat_lon_source': 'website'}",292,Cultura Anglet,05.35.45.60.10,43.4867,-1.49887,"{'opening_hours': {'Mon': '09:30-20:00', 'Tue': '09:30-20:00', 'Wed': '09:30-20:00', 'Thu': '09:30-20:00', 'Fri': '09:30-20:00', 'Sat': '09:30-20:00', 'Sun': 'Closed'}}",64600,https://www.cultura.com/les-magasins.html
"13400, Centre Commercial Auchan Barnéoud Aubagne",Aubagne,FR,Cultura,"{'brand': 'Cultura', 'fascia': 'Magasin Cultura', 'category': 'Retail', 'edit_date': '20250310', 'lat_lon_source': 'website'}",196,Cultura Aubagne,04.96.18.20.00,43.2944,5.59582,"{'opening_hours': {'Mon': '09:00-20:00', 'Tue': '09:00-20:00', 'Wed': '09:00-20:00', 'Thu': '09:00-20:00', 'Fri': '09:00-20:00', 'Sat': '09:00-20:00', 'Sun': 'Closed'}}",13400,https://www.cultura.com/les-magasins.html
"63170, CC Plein Sud AUBIERE",AUBIERE,FR,Cultura,"{'brand': 'Cultura', 'fascia': 'Magasin Cultura', 'category': 'Retail', 'edit_date': '20250310', 'lat_lon_source': 'website'}",283,Cultura Aubière,04.43.97.07.30,45.7531,3.13027,"{'opening_hours': {'Mon': '09:00-20:00', 'Tue': '09:00-20:00', 'Wed': '09:00-20:00', 'Thu': '09:00-20:00', 'Fri': '09:00-20:00', 'Sat': '09:00-20:00', 'Sun': 'Closed'}}",63170,https://www.cultura.com/les-magasins.html
"89000, ZAC des Clairions AUXERRE",AUXERRE,FR,Cultura,"{'brand': 'Cultura', 'fascia': 'Magasin Cultura', 'category': 'Retail', 'edit_date': '20250310', 'lat_lon_source': 'website'}",88,Cultura Auxerre,03.86.18.07.20,47.816407,3.5657,"{'opening_hours': {'Mon': '09:00-20:00', 'Tue': '09:00-20:00', 'Wed': '09:00-20:00', 'Thu': '09:00-20:00', 'Fri': '09:00-20:00', 'Sat': '09:00-20:00', 'Sun': 'Closed'}}",89000,https://www.cultura.com/les-magasins.html
"31130, 5 rue de la Tuilerie BALMA",BALMA,FR,Cultura,"{'brand': 'Cultura', 'fascia': 'Magasin Cultura', 'category': 'Retail', 'edit_date': '20250310', 'lat_lon_source': 'website'}",22,Cultura Balma,05.61.12.50.90,43.6292,1.48295,"{'opening_hours': {'Mon': '09:00-20:00', 'Tue': '09:00-20:00', 'Wed': '09:00-20:00', 'Thu': '09:00-20:00', 'Fri': '09:00-20:00', 'Sat': '09:00-20:00', 'Sun': 'Closed'}}",31130,https://www.cultura.com/les-magasins.html
"76360, CC Le Parvis des Senteurs Pissy-Poville",Pissy-Poville,FR,Cultura,"{'brand': 'Cultura', 'fascia': 'Magasin Cultura', 'category': 'Retail', 'edit_date': '20250310', 'lat_lon_source': 'website'}",354,Cultura Barentin,02.35.12.59.00,49.530543,0.975044,"{'opening_hours': {'Mon': '09:00-20:00', 'Tue': '09:00-20:00', 'Wed': '09:00-20:00', 'Thu': '09:00-20:00', 'Fri': '09:00-20:00', 'Sat': '09:00-20:00', 'Sun': 'Closed'}}",76360,https://www.cultura.com/les-magasins.html
"77090, Rue du Général de Gaulle COLLEGIEN",COLLEGIEN,FR,Cultura,"{'brand': 'Cultura', 'fascia': 'Magasin Cultura', 'category': 'Retail', 'edit_date': '20250310', 'lat_lon_source': 'website'}",232,Cultura Bay 2-Collégien,01.64.11.58.40,48.8377,2.66141,"{'opening_hours': {'Mon': '09:30-20:00', 'Tue': '09:30-20:00', 'Wed': '09:30-20:00', 'Thu': '09:30-20:00', 'Fri': '09:30-20:00', 'Sat': '09:30-20:00', 'Sun': 'Closed'}}",77090,https://www.cultura.com/les-magasins.html
"64990, 2-4 avenue du Portou ST PIERRE D'IRUBE",ST PIERRE D'IRUBE,FR,Cultura,"{'brand': 'Cultura', 'fascia': 'Magasin Cultura', 'category': 'Retail', 'edit_date': '20250310', 'lat_lon_source': 'website'}",223,Cultura Bayonne,05.59.01.50.70,43.4809,-1.44485,"{'opening_hours': {'Mon': '09:30-19:30', 'Tue': '09:30-19:30', 'Wed': '09:30-19:30', 'Thu': '09:30-19:30', 'Fri': '09:30-19:30', 'Sat': '09:30-19:30', 'Sun': 'Closed'}}",64990,https://www.cultura.com/les-magasins.html
"60000, 2 avenue Descartes BEAUVAIS",BEAUVAIS,FR,Cultura,"{'brand': 'Cultura', 'fascia': 'Magasin Cultura', 'category': 'Retail', 'edit_date': '20250310', 'lat_lon_source': 'website'}",314,Cultura Beauvais,03.65.65.62.00,49.4085,2.11541,"{'opening_hours': {'Mon': '09:00-20:00', 'Tue': '09:00-20:00', 'Wed': '09:00-20:00', 'Thu': '09:00-20:00', 'Fri': '09:00-20:00', 'Sat': '09:00-20:00', 'Sun': 'Closed'}}",60000,https://www.cultura.com/les-magasins.html
"33130, Rue Denis Papin BEGLES",BEGLES,FR,Cultura,"{'brand': 'Cultura', 'fascia': 'Magasin Cultura', 'category': 'Retail', 'edit_date': '20250310', 'lat_lon_source': 'website'}",308,Cultura Bègles,05.56.30.08.30,44.7918,-0.529287,"{'opening_hours': {'Mon': '09:00-20:00', 'Tue': '09:00-20:00', 'Wed': '09:00-20:00', 'Thu': '09:00-20:00', 'Fri': '09:00-20:00', 'Sat': '09:00-20:00', 'Sun': 'Closed'}}",33130,https://www.cultura.com/les-magasins.html
"94320, Rue du Luxembourg THIAIS",THIAIS,FR,Cultura,"{'brand': 'Cultura', 'fascia': 'Magasin Cultura', 'category': 'Retail', 'edit_date': '20250310', 'lat_lon_source': 'website'}",304,Cultura Belle Epine,01.57.02.14.00,48.7566,2.37199,"{'opening_hours': {'Mon': '10:00-20:30', 'Tue': '10:00-20:30', 'Wed': '10:00-20:30', 'Thu': '10:00-20:30', 'Fri': '10:00-20:30', 'Sat': '10:00-20:30', 'Sun': 'Closed'}}",94320,https://www.cultura.com/les-magasins.html
"25000, ZAC de Châteaufarine - CC Géant Casino BESANÇON",BESANÇON,FR,Cultura,"{'brand': 'Cultura', 'fascia': 'Magasin Cultura', 'category': 'Retail', 'edit_date': '20250310', 'lat_lon_source': 'website'}",169,Cultura Besançon,03.81.51.91.10,47.2179,5.95088,"{'opening_hours': {'Mon': '09:00-20:00', 'Tue': '09:00-20:00', 'Wed': '09:00-20:00', 'Thu': '09:00-20:00', 'Fri': '09:00-20:00', 'Sat': '09:00-20:00', 'Sun': 'Closed'}}",25000,https://www.cultura.com/les-magasins.html
"34500, Polygone Béziers BEZIERS",BEZIERS,FR,Cultura,"{'brand': 'Cultura', 'fascia': 'Magasin Cultura', 'category': 'Retail', 'edit_date': '20250310', 'lat_lon_source': 'website'}",166,Cultura Béziers,04.99.43.29.90,43.3361,3.22508,"{'opening_hours': {'Mon': '09:00-20:00', 'Tue': '09:00-20:00', 'Wed': '09:00-20:00', 'Thu': '09:00-20:00', 'Fri': '09:00-20:00', 'Sat': '09:00-20:00', 'Sun': 'Closed'}}",34500,https://www.cultura.com/les-magasins.html
"31700, CC du Grand Noble Blagnac",Blagnac,FR,Cultura,"{'brand': 'Cultura', 'fascia': 'Magasin Cultura', 'category': 'Retail', 'edit_date': '20250310', 'lat_lon_source': 'website'}",356,Cultura Blagnac,05.62.74.25.58,43.64841,1.368068,"{'opening_hours': {'Mon': '09:00-20:00', 'Tue': '09:00-20:00', 'Wed': '09:00-20:00', 'Thu': '09:00-20:00', 'Fri': '09:00-20:00', 'Sat': '09:00-20:00', 'Sun': 'Closed'}}",31700,https://www.cultura.com/les-magasins.html
"33000, 90 avenue des 40 journaux BORDEAUX",BORDEAUX,FR,Cultura,"{'brand': 'Cultura', 'fascia': 'Magasin Cultura', 'category': 'Retail', 'edit_date': '20250310', 'lat_lon_source': 'website'}",289,Cultura Bordeaux Lac,05.33.89.68.10,44.8786,-0.568895,"{'opening_hours': {'Mon': '09:00-20:00', 'Tue': '09:00-20:00', 'Wed': '09:00-20:00', 'Thu': '09:00-20:00', 'Fri': '09:00-20:00', 'Sat': '09:00-20:00', 'Sun': 'Closed'}}",33000,https://www.cultura.com/les-magasins.html
"01000, Le Carrefour de l'Europe BOURG EN BRESSE",BOURG EN BRESSE,FR,Cultura,"{'brand': 'Cultura', 'fascia': 'Magasin Cultura', 'category': 'Retail', 'edit_date': '20250310', 'lat_lon_source': 'website'}",28,Cultura Bourg En Bresse,04.74.14.16.20,46.2084,5.23617,"{'opening_hours': {'Mon': '09:00-20:00', 'Tue': '09:00-20:00', 'Wed': '09:00-20:00', 'Thu': '09:00-20:00', 'Fri': '09:00-20:00', 'Sat': '09:00-20:00', 'Sun': 'Closed'}}",01000,https://www.cultura.com/les-magasins.html
"38300, ZAC La MALADIERE BOURGOIN JALLIEU",BOURGOIN JALLIEU,FR,Cultura,"{'brand': 'Cultura', 'fascia': 'Magasin Cultura', 'category': 'Retail', 'edit_date': '20250310', 'lat_lon_source': 'website'}",31,Cultura Bourgoin Jallieu,04.37.03.28.70,45.5912,5.25208,"{'opening_hours': {'Mon': '09:00-20:00', 'Tue': '09:00-20:00', 'Wed': '09:00-20:00', 'Thu': '09:00-20:00', 'Fri': '09:00-20:00', 'Sat': '09:00-20:00', 'Sun': 'Closed'}}",38300,https://www.cultura.com/les-magasins.html
"29200, 29 rue de gouesnou BREST",BREST,FR,Cultura,"{'brand': 'Cultura', 'fascia': 'Magasin Cultura', 'category': 'Retail', 'edit_date': '20250310', 'lat_lon_source': 'website'}",208,Cultura Brest,02.29.61.18.20,48.408,-4.46577,"{'opening_hours': {'Mon': '09:00-20:00', 'Tue': '09:00-20:00', 'Wed': '09:00-20:00', 'Thu': '09:00-20:00', 'Fri': '09:00-20:00', 'Sat': '09:00-20:00', 'Sun': 'Closed'}}",29200,https://www.cultura.com/les-magasins.html
"19100, 9 avenue de Paris BRIVE LA GAILLARDE",BRIVE LA GAILLARDE,FR,Cultura,"{'brand': 'Cultura', 'fascia': 'Magasin Cultura', 'category': 'Retail', 'edit_date': '20250310', 'lat_lon_source': 'website'}",211,Cultura Brive Centre,05.55.92.17.53,45.1619,1.53233,"{'opening_hours': {'Mon': '09:30-19:30', 'Tue': '09:30-19:30', 'Wed': '09:30-19:30', 'Thu': '09:30-19:30', 'Fri': '09:30-19:30', 'Sat': '09:30-19:30', 'Sun': 'Closed'}}",19100,https://www.cultura.com/les-magasins.html
"19100, ZAC du Mazaud BRIVE LA GAILLARDE",BRIVE LA GAILLARDE,FR,Cultura,"{'brand': 'Cultura', 'fascia': 'Magasin Cultura', 'category': 'Retail', 'edit_date': '20250310', 'lat_lon_source': 'website'}",342,Cultura Brive La Gaillarde,05.55.74.96.00,45.143,1.47284,"{'opening_hours': {'Mon': '09:00-20:00', 'Tue': '09:00-20:00', 'Wed': '09:00-20:00', 'Thu': '09:00-20:00', 'Fri': '09:00-20:00', 'Sat': '09:00-20:00', 'Sun': 'Closed'}}",19100,https://www.cultura.com/les-magasins.html
"14120, Rue Joseph Jacquard MONDEVILLE",MONDEVILLE,FR,Cultura,"{'brand': 'Cultura', 'fascia': 'Magasin Cultura', 'category': 'Retail', 'edit_date': '20250310', 'lat_lon_source': 'website'}",103,Cultura Caen Mondeville,02.31.78.55.40,49.1614,-0.299866,"{'opening_hours': {'Mon': '09:00-20:00', 'Tue': '09:00-20:00', 'Wed': '09:00-20:00', 'Thu': '09:00-20:00', 'Fri': '09:00-20:00', 'Sat': '09:00-20:00', 'Sun': 'Closed'}}",14120,https://www.cultura.com/les-magasins.html
"11000, 165 A rue Juliette Costeplane CARCASSONNE",CARCASSONNE,FR,Cultura,"{'brand': 'Cultura', 'fascia': 'Magasin Cultura', 'category': 'Retail', 'edit_date': '20250310', 'lat_lon_source': 'website'}",37,Cultura Carcassonne,04.68.26.72.80,43.2038,2.31132,"{'opening_hours': {'Mon': '09:00-20:00', 'Tue': '09:00-20:00', 'Wed': '09:00-20:00', 'Thu': '09:00-20:00', 'Fri': '09:00-20:00', 'Sat': '09:00-20:00', 'Sun': 'Closed'}}",11000,https://www.cultura.com/les-magasins.html
"77127, ZAC du carré LIEUSAINT",LIEUSAINT,FR,Cultura,"{'brand': 'Cultura', 'fascia': 'Magasin Cultura', 'category': 'Retail', 'edit_date': '20250310', 'lat_lon_source': 'website'}",40,Cultura Carré Senart,01.64.88.26.40,48.6185,2.54524,"{'opening_hours': {'Mon': '09:00-20:00', 'Tue': '09:00-20:00', 'Wed': '09:00-20:00', 'Thu': '09:00-20:00', 'Fri': '09:00-20:00', 'Sat': '09:00-20:00', 'Sun': 'Closed'}}",77127,https://www.cultura.com/les-magasins.html
"37170, 3 rue Alexandra David Néel CHAMBRAY LES TOURS",CHAMBRAY LES TOURS,FR,Cultura,"{'brand': 'Cultura', 'fascia': 'Magasin Cultura', 'category': 'Retail', 'edit_date': '20250310', 'lat_lon_source': 'website'}",43,Cultura Chambray Les Tours,02.47.48.42.50,47.3436,0.704503,"{'opening_hours': {'Mon': '09:00-20:00', 'Tue': '09:00-20:00', 'Wed': '09:00-20:00', 'Thu': '09:00-20:00', 'Fri': '09:00-20:00', 'Sat': '09:00-20:00', 'Sun': 'Closed'}}",37170,https://www.cultura.com/les-magasins.html
"69410, 19 Av du General De Gaulle CHAMPAGNE MONT D'OR",CHAMPAGNE MONT D'OR,FR,Cultura,"{'brand': 'Cultura', 'fascia': 'Magasin Cultura', 'category': 'Retail', 'edit_date': '20250310', 'lat_lon_source': 'website'}",13,Cultura Champagne Au Mont d'Or,04.87.65.06.40,45.8041,4.7819,"{'opening_hours': {'Mon': '09:00-20:00', 'Tue': '09:00-20:00', 'Wed': '09:00-20:00', 'Thu': '09:00-20:00', 'Fri': '09:00-20:00', 'Sat': '09:00-20:00', 'Sun': 'Closed'}}",69410,https://www.cultura.com/les-magasins.html
"16430, 163 Allée des commerces CHAMPNIERS",CHAMPNIERS,FR,Cultura,"{'brand': 'Cultura', 'fascia': 'Magasin Cultura', 'category': 'Retail', 'edit_date': '20250310', 'lat_lon_source': 'website'}",217,Cultura Champniers,05.45.97.47.97,45.7149,0.205259,"{'opening_hours': {'Mon': '09:00-20:00', 'Tue': '09:00-20:00', 'Wed': '09:00-20:00', 'Thu': '09:00-20:00', 'Fri': '09:00-20:00', 'Sat': '09:00-20:00', 'Sun': 'Closed'}}",16430,https://www.cultura.com/les-magasins.html
"35135, Allée de Guerledan CHANTEPIE",CHANTEPIE,FR,Cultura,"{'brand': 'Cultura', 'fascia': 'Magasin Cultura', 'category': 'Retail', 'edit_date': '20250310', 'lat_lon_source': 'website'}",46,Cultura Chantepie,02.99.77.02.50,48.084,-1.63292,"{'opening_hours': {'Mon': '09:00-20:00', 'Tue': '09:00-20:00', 'Wed': '09:00-20:00', 'Thu': '09:00-20:00', 'Fri': '09:00-20:00', 'Sat': '09:00-20:00', 'Sun': 'Closed'}}",35135,https://www.cultura.com/les-magasins.html
"86360, 12 Allée du Haut Poitou CHASSENEUIL",CHASSENEUIL,FR,Cultura,"{'brand': 'Cultura', 'fascia': 'Magasin Cultura', 'category': 'Retail', 'edit_date': '20250310', 'lat_lon_source': 'website'}",49,Cultura Chasseneuil Du Poitou,05.49.30.80.90,46.6481,0.360004,"{'opening_hours': {'Mon': '09:00-20:00', 'Tue': '09:00-20:00', 'Wed': '09:00-20:00', 'Thu': '09:00-20:00', 'Fri': '09:00-20:00', 'Sat': '09:00-20:00', 'Sun': 'Closed'}}",86360,https://www.cultura.com/les-magasins.html
"49300, L'Autre Faubourg ZAC de l'Ecuyère CHOLET",CHOLET,FR,Cultura,"{'brand': 'Cultura', 'fascia': 'Magasin Cultura', 'category': 'Retail', 'edit_date': '20250310', 'lat_lon_source': 'website'}",157,Cultura Cholet,02.41.71.48.20,47.0754,-0.839683,"{'opening_hours': {'Mon': '09:00-20:00', 'Tue': '09:00-20:00', 'Wed': '09:00-20:00', 'Thu': '09:00-20:00', 'Fri': '09:00-20:00', 'Sat': '09:00-20:00', 'Sun': 'Closed'}}",49300,https://www.cultura.com/les-magasins.html
"77410, Rue Victor Drouet CLAYE SOUILLY",CLAYE SOUILLY,FR,Cultura,"{'brand': 'Cultura', 'fascia': 'Magasin Cultura', 'category': 'Retail', 'edit_date': '20250310', 'lat_lon_source': 'website'}",52,Cultura Claye Souilly,01.60.07.80.80,48.9464,2.66937,"{'opening_hours': {'Mon': '09:00-20:00', 'Tue': '09:00-20:00', 'Wed': '09:00-20:00', 'Thu': '09:00-20:00', 'Fri': '09:00-20:00', 'Sat': '09:00-20:00', 'Sun': 'Closed'}}",77410,https://www.cultura.com/les-magasins.html
"51350, 6 rue des Laps CORMONTREUIL",CORMONTREUIL,FR,Cultura,"{'brand': 'Cultura', 'fascia': 'Magasin Cultura', 'category': 'Retail', 'edit_date': '20250310', 'lat_lon_source': 'website'}",235,Cultura Cormontreuil,03.26.77.69.30,49.2144,4.04502,"{'opening_hours': {'Mon': '09:00-20:00', 'Tue': '09:00-20:00', 'Wed': '09:00-20:00', 'Thu': '09:00-20:00', 'Fri': '09:00-20:00', 'Sat': '09:00-20:00', 'Sun': 'Closed'}}",51350,https://www.cultura.com/les-magasins.html
"21000, CC Toison d'Or DIJON",DIJON,FR,Cultura,"{'brand': 'Cultura', 'fascia': 'Magasin Cultura', 'category': 'Retail', 'edit_date': '20250310', 'lat_lon_source': 'website'}",55,Cultura Dijon,03.80.78.90.90,47.3579,5.04814,"{'opening_hours': {'Mon': '09:00-20:00', 'Tue': '09:00-20:00', 'Wed': '09:00-20:00', 'Thu': '09:00-20:00', 'Fri': '09:00-20:00', 'Sat': '09:00-20:00', 'Sun': 'Closed'}}",21000,https://www.cultura.com/les-magasins.html
"74330, 120 rue des Peupliers EPAGNY",EPAGNY,FR,Cultura,"{'brand': 'Cultura', 'fascia': 'Magasin Cultura', 'category': 'Retail', 'edit_date': '20250310', 'lat_lon_source': 'website'}",199,Cultura Epagny,04.50.24.69.49,45.9344,6.08169,"{'opening_hours': {'Mon': '09:00-20:00', 'Tue': '09:00-20:00', 'Wed': '09:00-20:00', 'Thu': '09:00-20:00', 'Fri': '09:00-20:00', 'Sat': '09:00-20:00', 'Sun': 'Closed'}}",74330,https://www.cultura.com/les-magasins.html
"88000, ZAC Des Terres St Jean EPINAL",EPINAL,FR,Cultura,"{'brand': 'Cultura', 'fascia': 'Magasin Cultura', 'category': 'Retail', 'edit_date': '20250310', 'lat_lon_source': 'website'}",58,Cultura Epinal,03.29.81.19.80,48.1907,6.47552,"{'opening_hours': {'Mon': '09:00-20:00', 'Tue': '09:00-20:00', 'Wed': '09:00-20:00', 'Thu': '09:00-20:00', 'Fri': '09:00-20:00', 'Sat': '09:00-20:00', 'Sun': 'Closed'}}",88000,https://www.cultura.com/les-magasins.html
"27930, Allée Marcel Reine Le Vieil Evreux",Le Vieil Evreux,FR,Cultura,"{'brand': 'Cultura', 'fascia': 'Magasin Cultura', 'category': 'Retail', 'edit_date': '20250310', 'lat_lon_source': 'website'}",253,Cultura Evreux,02.32.23.50.30,49.0127,1.17831,"{'opening_hours': {'Mon': '09:00-20:00', 'Tue': '09:00-20:00', 'Wed': '09:00-20:00', 'Thu': '09:00-20:00', 'Fri': '09:00-20:00', 'Sat': '09:00-20:00', 'Sun': 'Closed'}}",27930,https://www.cultura.com/les-magasins.html
"31150, RN 20 FENOUILLET",FENOUILLET,FR,Cultura,"{'brand': 'Cultura', 'fascia': 'Magasin Cultura', 'category': 'Retail', 'edit_date': '20250310', 'lat_lon_source': 'website'}",229,Cultura Fenouillet,05.34.27.04.60,43.689,1.4022,"{'opening_hours': {'Mon': '09:00-20:00', 'Tue': '09:00-20:00', 'Wed': '09:00-20:00', 'Thu': '09:00-20:00', 'Fri': '09:00-20:00', 'Sat': '09:00-20:00', 'Sun': 'Closed'}}",31150,https://www.cultura.com/les-magasins.html
"62350, Le Prieuré de St Pry FOUQUIERES LES BETHUNE",FOUQUIERES LES BETHUNE,FR,Cultura,"{'brand': 'Cultura', 'fascia': 'Magasin Cultura', 'category': 'Retail', 'edit_date': '20250310', 'lat_lon_source': 'website'}",280,Cultura Fouquieres Les Bethune,03.66.13.01.20,50.5117,2.62268,"{'opening_hours': {'Mon': '09:00-20:00', 'Tue': '09:00-20:00', 'Wed': '09:00-20:00', 'Thu': '09:00-20:00', 'Fri': '09:00-20:00', 'Sat': '09:00-20:00', 'Sun': 'Closed'}}",62350,https://www.cultura.com/les-magasins.html
"95130, Parc d'Activités PARISIS FRANCONVILLE",FRANCONVILLE,FR,Cultura,"{'brand': 'Cultura', 'fascia': 'Magasin Cultura', 'category': 'Retail', 'edit_date': '20250310', 'lat_lon_source': 'website'}",61,Cultura Franconville,01.30.72.70.70,48.9891,2.20912,"{'opening_hours': {'Mon': '09:00-20:00', 'Tue': '09:00-20:00', 'Wed': '09:00-20:00', 'Thu': '09:00-20:00', 'Fri': '09:00-20:00', 'Sat': '09:00-20:00', 'Sun': 'Closed'}}",95130,https://www.cultura.com/les-magasins.html
"67118, 7 rue du Fort GEISPOLSHEIM",GEISPOLSHEIM,FR,Cultura,"{'brand': 'Cultura', 'fascia': 'Magasin Cultura', 'category': 'Retail', 'edit_date': '20250310', 'lat_lon_source': 'website'}",277,Cultura Geispolsheim,03.68.71.11.90,48.525,7.68116,"{'opening_hours': {'Mon': '09:00-20:00', 'Tue': '09:00-20:00', 'Wed': '09:00-20:00', 'Thu': '09:00-20:00', 'Fri': '09:00-20:00', 'Sat': '09:00-20:00', 'Sun': 'Closed'}}",67118,https://www.cultura.com/les-magasins.html
"92230, Espace commercial Chanteraines GENNEVILLIERS",GENNEVILLIERS,FR,Cultura,"{'brand': 'Cultura', 'fascia': 'Magasin Cultura', 'category': 'Retail', 'edit_date': '20250310', 'lat_lon_source': 'website'}",64,Cultura Gennevilliers,01.41.47.46.46,48.9338,2.31841,"{'opening_hours': {'Mon': '10:00-20:00', 'Tue': '10:00-20:00', 'Wed': '10:00-20:00', 'Thu': '10:00-20:00', 'Fri': '10:00-20:00', 'Sat': '10:00-20:00', 'Sun': 'Closed'}}",92230,https://www.cultura.com/les-magasins.html
"69700, ZC Les 2 Vallées GIVORS",GIVORS,FR,Cultura,"{'brand': 'Cultura', 'fascia': 'Magasin Cultura', 'category': 'Retail', 'edit_date': '20250310', 'lat_lon_source': 'website'}",67,Cultura Givors,04.37.20.19.30,45.5802,4.73868,"{'opening_hours': {'Mon': '09:00-20:00', 'Tue': '09:00-20:00', 'Wed': '09:00-20:00', 'Thu': '09:00-20:00', 'Fri': '09:00-20:00', 'Sat': '09:00-20:00', 'Sun': 'Closed'}}",69700,https://www.cultura.com/les-magasins.html
"62110, ZC Noyelles-Godault HENIN BEAUMONT",HENIN BEAUMONT,FR,Cultura,"{'brand': 'Cultura', 'fascia': 'Magasin Cultura', 'category': 'Retail', 'edit_date': '20250310', 'lat_lon_source': 'website'}",70,Cultura Hénin-Beaumont,03.21.08.01.60,50.4077,2.96873,"{'opening_hours': {'Mon': '09:00-20:00', 'Tue': '09:00-20:00', 'Wed': '09:00-20:00', 'Thu': '09:00-20:00', 'Fri': '09:00-20:00', 'Sat': '09:00-20:00', 'Sun': 'Closed'}}",62110,https://www.cultura.com/les-magasins.html
"92130, 12 promenade Cœur de Ville ISSY-LES-MOULINEAUX",ISSY-LES-MOULINEAUX,FR,Cultura,"{'brand': 'Cultura', 'fascia': 'Magasin Cultura', 'category': 'Retail', 'edit_date': '20250310', 'lat_lon_source': 'website'}",328,Cultura Issy-Les-Moulineaux,01.80.87.37.30,48.826404,2.275005,"{'opening_hours': {'Mon': '09:00-20:00', 'Tue': '09:00-20:00', 'Wed': '09:00-20:00', 'Thu': '09:00-20:00', 'Fri': '09:00-20:00', 'Sat': '09:00-20:00', 'Sun': 'Closed'}}",92130,https://www.cultura.com/les-magasins.html
"95260, Centre Commercial du Col Vert MOURS",MOURS,FR,Cultura,"{'brand': 'Cultura', 'fascia': 'Magasin Cultura', 'category': 'Retail', 'edit_date': '20250310', 'lat_lon_source': 'website'}",358,Cultura L'Isle-Adam,01.34.08.30.00,49.127175,2.249485,"{'opening_hours': {'Mon': '09:00-20:00', 'Tue': '09:00-20:00', 'Wed': '09:00-20:00', 'Thu': '09:00-20:00', 'Fri': '09:00-20:00', 'Sat': '09:00-20:00', 'Sun': 'Closed'}}",95260,https://www.cultura.com/les-magasins.html
"92800, 15 parvis de la défense PUTEAUX",PUTEAUX,FR,Cultura,"{'brand': 'Cultura', 'fascia': 'Magasin Cultura', 'category': 'Retail', 'edit_date': '20250310', 'lat_lon_source': 'website'}",184,Cultura La Défense,01.41.45.66.50,48.8929,2.23692,"{'opening_hours': {'Mon': '09:00-20:30', 'Tue': '09:00-20:30', 'Wed': '09:00-20:30', 'Thu': '09:00-20:30', 'Fri': '09:00-20:30', 'Sat': '09:00-20:30', 'Sun': 'Closed'}}",92800,https://www.cultura.com/les-magasins.html
"33260, 310 avenue de l’Europe LA TESTE-DE-BUCH",LA TESTE-DE-BUCH,FR,Cultura,"{'brand': 'Cultura', 'fascia': 'Magasin Cultura', 'category': 'Retail', 'edit_date': '20250310', 'lat_lon_source': 'website'}",100,Cultura La Teste,05.57.16.21.60,44.6173,-1.11945,"{'opening_hours': {'Mon': '09:00-20:00', 'Tue': '09:00-20:00', 'Wed': '09:00-20:00', 'Thu': '09:00-20:00', 'Fri': '09:00-20:00', 'Sat': '09:00-20:00', 'Sun': 'Closed'}}",33260,https://www.cultura.com/les-magasins.html
"13011, CC des 3 Horloges Traverse de la Montre MARSEILLE",MARSEILLE,FR,Cultura,"{'brand': 'Cultura', 'fascia': 'Magasin Cultura', 'category': 'Retail', 'edit_date': '20250310', 'lat_lon_source': 'website'}",73,Cultura La Valentine,04.91.87.93.10,43.2978,5.47827,"{'opening_hours': {'Mon': '09:00-20:00', 'Tue': '09:00-20:00', 'Wed': '09:00-20:00', 'Thu': '09:00-20:00', 'Fri': '09:00-20:00', 'Sat': '09:00-20:00', 'Sun': 'Closed'}}",13011,https://www.cultura.com/les-magasins.html
"31670, CC Carrefour LABEGE",LABEGE,FR,Cultura,"{'brand': 'Cultura', 'fascia': 'Magasin Cultura', 'category': 'Retail', 'edit_date': '20250310', 'lat_lon_source': 'website'}",76,Cultura Labège,05.61.00.98.98,43.5527,1.50416,"{'opening_hours': {'Mon': '09:00-20:00', 'Tue': '09:00-20:00', 'Wed': '09:00-20:00', 'Thu': '09:00-20:00', 'Fri': '09:00-20:00', 'Sat': '09:00-20:00', 'Sun': 'Closed'}}",31670,https://www.cultura.com/les-magasins.html
"22360, 1 rue Jules Verne LANGUEUX",LANGUEUX,FR,Cultura,"{'brand': 'Cultura', 'fascia': 'Magasin Cultura', 'category': 'Retail', 'edit_date': '20250310', 'lat_lon_source': 'website'}",256,Cultura Langueux,02.90.52.01.80,48.4953,-2.72737,"{'opening_hours': {'Mon': '09:00-20:00', 'Tue': '09:00-20:00', 'Wed': '09:00-20:00', 'Thu': '09:00-20:00', 'Fri': '09:00-20:00', 'Sat': '09:00-20:00', 'Sun': 'Closed'}}",22360,https://www.cultura.com/les-magasins.html
"72000, ZAC de l'ardoise LE MANS",LE MANS,FR,Cultura,"{'brand': 'Cultura', 'fascia': 'Magasin Cultura', 'category': 'Retail', 'edit_date': '20250310', 'lat_lon_source': 'website'}",247,Cultura Le Mans,02.43.20.65.55,48.0322,0.181936,"{'opening_hours': {'Mon': '09:00-20:00', 'Tue': '09:00-20:00', 'Wed': '09:00-20:00', 'Thu': '09:00-20:00', 'Fri': '09:00-20:00', 'Sat': '09:00-20:00', 'Sun': 'Closed'}}",72000,https://www.cultura.com/les-magasins.html
"64230, 180 Bld de l'Europe LESCAR",LESCAR,FR,Cultura,"{'brand': 'Cultura', 'fascia': 'Magasin Cultura', 'category': 'Retail', 'edit_date': '20250310', 'lat_lon_source': 'website'}",79,Cultura Lescar,05.59.77.64.10,43.3182,-0.433075,"{'opening_hours': {'Mon': '10:00-20:00', 'Tue': '10:00-20:00', 'Wed': '10:00-20:00', 'Thu': '10:00-20:00', 'Fri': '10:00-20:00', 'Sat': '10:00-20:00', 'Sun': 'Closed'}}",64230,https://www.cultura.com/les-magasins.html
"87280, Family Village de Limoges LIMOGES",LIMOGES,FR,Cultura,"{'brand': 'Cultura', 'fascia': 'Magasin Cultura', 'category': 'Retail', 'edit_date': '20250310', 'lat_lon_source': 'website'}",163,Cultura Limoges,05.55.57.07.50,45.8956,1.27973,"{'opening_hours': {'Mon': '09:00-20:00', 'Tue': '09:00-20:00', 'Wed': '09:00-20:00', 'Thu': '09:00-20:00', 'Fri': '09:00-20:00', 'Sat': '09:00-20:00', 'Sun': 'Closed'}}",87280,https://www.cultura.com/les-magasins.html
"59160, Rue du Château d'Isenghien Lille",Lille,FR,Cultura,"{'brand': 'Cultura', 'fascia': 'Magasin Cultura', 'category': 'Retail', 'edit_date': '20250310', 'lat_lon_source': 'website'}",355,Cultura Lomme,03.20.19.32.00,50.652932,2.988091,"{'opening_hours': {'Mon': '09:00-20:00', 'Tue': '09:00-20:00', 'Wed': '09:00-20:00', 'Thu': '09:00-20:00', 'Fri': '09:00-20:00', 'Sat': '09:00-20:00', 'Sun': 'Closed'}}",59160,https://www.cultura.com/les-magasins.html
"71000, 89 Rte de Lyon MACON",MACON,FR,Cultura,"{'brand': 'Cultura', 'fascia': 'Magasin Cultura', 'category': 'Retail', 'edit_date': '20250310', 'lat_lon_source': 'website'}",82,Cultura Mâcon,03.85.32.88.60,46.2861,4.809,"{'opening_hours': {'Mon': '09:00-20:00', 'Tue': '09:00-20:00', 'Wed': '09:00-20:00', 'Thu': '09:00-20:00', 'Fri': '09:00-20:00', 'Sat': '09:00-20:00', 'Sun': 'Closed'}}",71000,https://www.cultura.com/les-magasins.html
"06210, ZI de la Canardière MANDELIEU LA NAPOULE",MANDELIEU LA NAPOULE,FR,Cultura,"{'brand': 'Cultura', 'fascia': 'Magasin Cultura', 'category': 'Retail', 'edit_date': '20250310', 'lat_lon_source': 'website'}",85,Cultura Mandelieu,04.92.19.57.90,43.5536,6.94601,"{'opening_hours': {'Mon': '09:00-20:00', 'Tue': '09:00-20:00', 'Wed': '09:00-20:00', 'Thu': '09:00-20:00', 'Fri': '09:00-20:00', 'Sat': '09:00-20:00', 'Sun': 'Closed'}}",06210,https://www.cultura.com/les-magasins.html
"24430, Av. Louis Suder MARSAC SUR l'ISLE",MARSAC SUR l'ISLE,FR,Cultura,"{'brand': 'Cultura', 'fascia': 'Magasin Cultura', 'category': 'Retail', 'edit_date': '20250310', 'lat_lon_source': 'website'}",341,Cultura Marsac,05.53.02.56.25,45.191502,0.660392,"{'opening_hours': {'Mon': '09:00-20:00', 'Tue': '09:00-20:00', 'Wed': '09:00-20:00', 'Thu': '09:00-20:00', 'Fri': '09:00-20:00', 'Sat': '09:00-20:00', 'Sun': 'Closed'}}",24430,https://www.cultura.com/les-magasins.html
"78310, Rue Jean Perrin MAUREPAS",MAUREPAS,FR,Cultura,"{'brand': 'Cultura', 'fascia': 'Magasin Cultura', 'category': 'Retail', 'edit_date': '20250310', 'lat_lon_source': 'website'}",334,Cultura Maurepas,01.80.82.43.00,48.758972,1.917544,"{'opening_hours': {'Mon': '09:00-20:00', 'Tue': '09:00-20:00', 'Wed': '09:00-20:00', 'Thu': '09:00-20:00', 'Fri': '09:00-20:00', 'Sat': '09:00-20:00', 'Sun': 'Closed'}}",78310,https://www.cultura.com/les-magasins.html
"33700, 16 rue Jacques Anquetil MERIGNAC",MERIGNAC,FR,Cultura,"{'brand': 'Cultura', 'fascia': 'Magasin Cultura', 'category': 'Retail', 'edit_date': '20250310', 'lat_lon_source': 'website'}",305,Cultura Mérignac,05.57.92.01.20,44.8305,-0.662281,"{'opening_hours': {'Mon': '09:00-20:00', 'Tue': '09:00-20:00', 'Wed': '09:00-20:00', 'Thu': '09:00-20:00', 'Fri': '09:00-20:00', 'Sat': '09:00-20:00', 'Sun': 'Closed'}}",33700,https://www.cultura.com/les-magasins.html
"57160, 1 rue de la pie grièche MOULINS-LES-METZ",MOULINS-LES-METZ,FR,Cultura,"{'brand': 'Cultura', 'fascia': 'Magasin Cultura', 'category': 'Retail', 'edit_date': '20250310', 'lat_lon_source': 'website'}",193,Cultura Metz,03.87.50.85.90,49.083,6.10441,"{'opening_hours': {'Mon': '09:00-19:30', 'Tue': '09:00-19:30', 'Wed': '09:00-19:30', 'Thu': '09:00-19:30', 'Fri': '09:00-19:30', 'Sat': '09:00-20:00', 'Sun': 'Closed'}}",57160,https://www.cultura.com/les-magasins.html
"82000, ZC du Futuropole MONTAUBAN",MONTAUBAN,FR,Cultura,"{'brand': 'Cultura', 'fascia': 'Magasin Cultura', 'category': 'Retail', 'edit_date': '20250310', 'lat_lon_source': 'website'}",172,Cultura Montauban,05.63.92.62.90,44.0372,1.38669,"{'opening_hours': {'Mon': '09:00-20:00', 'Tue': '09:00-20:00', 'Wed': '09:00-20:00', 'Thu': '09:00-20:00', 'Fri': '09:00-20:00', 'Sat': '09:00-20:00', 'Sun': 'Closed'}}",82000,https://www.cultura.com/les-magasins.html
"77144, ZAC CLOS du CHENE MONTEVRAIN",MONTEVRAIN,FR,Cultura,"{'brand': 'Cultura', 'fascia': 'Magasin Cultura', 'category': 'Retail', 'edit_date': '20250310', 'lat_lon_source': 'website'}",319,Cultura Montevrain,01.80.81.43.10,48.853178,2.754679,"{'opening_hours': {'Mon': '09:00-20:00', 'Tue': '09:00-20:00', 'Wed': '09:00-20:00', 'Thu': '09:00-20:00', 'Fri': '09:00-20:00', 'Sat': '09:00-20:00', 'Sun': 'Closed'}}",77144,https://www.cultura.com/les-magasins.html
"76290, Avenue Maréchal Foch MONTIVILLIERS",MONTIVILLIERS,FR,Cultura,"{'brand': 'Cultura', 'fascia': 'Magasin Cultura', 'category': 'Retail', 'edit_date': '20250310', 'lat_lon_source': 'website'}",271,Cultura Montivilliers,02.78.34.04.30,49.5322,0.189332,"{'opening_hours': {'Mon': '09:00-20:00', 'Tue': '09:00-20:00', 'Wed': '09:00-20:00', 'Thu': '09:00-20:00', 'Fri': '09:00-20:00', 'Sat': '09:00-20:00', 'Sun': 'Closed'}}",76290,https://www.cultura.com/les-magasins.html
"03100, 15 rue Albert Einstein MONTLUÇON",MONTLUÇON,FR,Cultura,"{'brand': 'Cultura', 'fascia': 'Magasin Cultura', 'category': 'Retail', 'edit_date': '20250310', 'lat_lon_source': 'website'}",178,Cultura Montluçon,04.70.02.35.10,46.3489,2.6037,"{'opening_hours': {'Mon': '09:00-19:00', 'Tue': '09:00-19:00', 'Wed': '09:00-19:00', 'Thu': '09:00-19:00', 'Fri': '09:00-19:00', 'Sat': '09:00-19:00', 'Sun': 'Closed'}}",03100,https://www.cultura.com/les-magasins.html
"67116, CULTURA (C1) REICHSTETT",REICHSTETT,FR,Cultura,"{'brand': 'Cultura', 'fascia': 'Magasin Cultura', 'category': 'Retail', 'edit_date': '20250310', 'lat_lon_source': 'website'}",19,Cultura Mundolsheim,03.69.61.53.10,48.6494,7.73153,"{'opening_hours': {'Mon': '09:00-20:00', 'Tue': '09:00-20:00', 'Wed': '09:00-20:00', 'Thu': '09:00-20:00', 'Fri': '09:00-20:00', 'Sat': '09:00-20:00', 'Sun': 'Closed'}}",67116,https://www.cultura.com/les-magasins.html
"11100, ZAC Bonne Source NARBONNE",NARBONNE,FR,Cultura,"{'brand': 'Cultura', 'fascia': 'Magasin Cultura', 'category': 'Retail', 'edit_date': '20250310', 'lat_lon_source': 'website'}",106,Cultura Narbonne,04.68.91.85.38,43.1798,3.03141,"{'opening_hours': {'Mon': '09:00-20:00', 'Tue': '09:00-20:00', 'Wed': '09:00-20:00', 'Thu': '09:00-20:00', 'Fri': '09:00-20:00', 'Sat': '09:00-20:00', 'Sun': 'Closed'}}",11100,https://www.cultura.com/les-magasins.html
"59960, route de Roncq NEUVILLE-EN-FERRAIN",NEUVILLE-EN-FERRAIN,FR,Cultura,"{'brand': 'Cultura', 'fascia': 'Magasin Cultura', 'category': 'Retail', 'edit_date': '20250310', 'lat_lon_source': 'website'}",244,Cultura Neuville-en-Ferrain,03.20.00.44.68,50.744,3.14469,"{'opening_hours': {'Mon': '09:00-20:00', 'Tue': '09:00-20:00', 'Wed': '09:00-20:00', 'Thu': '09:00-20:00', 'Fri': '09:00-20:00', 'Sat': '09:00-20:00', 'Sun': 'Closed'}}",59960,https://www.cultura.com/les-magasins.html
"06200, CC Nice Lingostiere NICE",NICE,FR,Cultura,"{'brand': 'Cultura', 'fascia': 'Magasin Cultura', 'category': 'Retail', 'edit_date': '20250310', 'lat_lon_source': 'website'}",16,Cultura Nice,04.83.93.59.00,43.7304,7.1862,"{'opening_hours': {'Mon': '09:00-20:00', 'Tue': '09:00-20:00', 'Wed': '09:00-20:00', 'Thu': '09:00-20:00', 'Fri': '09:00-20:00', 'Sat': '09:00-20:00', 'Sun': 'Closed'}}",06200,https://www.cultura.com/les-magasins.html
"30900, ZC Carré Sud NIMES",NIMES,FR,Cultura,"{'brand': 'Cultura', 'fascia': 'Magasin Cultura', 'category': 'Retail', 'edit_date': '20250310', 'lat_lon_source': 'website'}",109,Cultura Nîmes,04.66.70.92.70,43.8106,4.36414,"{'opening_hours': {'Mon': '09:00-20:00', 'Tue': '09:00-20:00', 'Wed': '09:00-20:00', 'Thu': '09:00-20:00', 'Fri': '09:00-20:00', 'Sat': '09:00-20:00', 'Sun': 'Closed'}}",30900,https://www.cultura.com/les-magasins.html
"94510, Avenue de l’Hippodrome LA QUEUE EN BRIE",LA QUEUE EN BRIE,FR,Cultura,"{'brand': 'Cultura', 'fascia': 'Magasin Cultura', 'category': 'Retail', 'edit_date': '20250310', 'lat_lon_source': 'website'}",175,Cultura Pince Vent,01.45.93.93.53,48.7924,2.55775,"{'opening_hours': {'Mon': '09:00-20:00', 'Tue': '09:00-20:00', 'Wed': '09:00-20:00', 'Thu': '09:00-20:00', 'Fri': '09:00-20:00', 'Sat': '09:00-20:00', 'Sun': 'Closed'}}",94510,https://www.cultura.com/les-magasins.html
"78340, ZC Alpha Park Les Clayes-sous-Bois",Les Clayes-sous-Bois,FR,Cultura,"{'brand': 'Cultura', 'fascia': 'Magasin Cultura', 'category': 'Retail', 'edit_date': '20250310', 'lat_lon_source': 'website'}",112,Cultura Plaisir / Les Clayes-sous-Bois,01.30.07.61.00,48.8287,1.97117,"{'opening_hours': {'Mon': '09:00-20:00', 'Tue': '09:00-20:00', 'Wed': '09:00-20:00', 'Thu': '09:00-20:00', 'Fri': '09:00-20:00', 'Sat': '09:00-20:00', 'Sun': 'Closed'}}",78340,https://www.cultura.com/les-magasins.html
"13480, ZAC Plan de campagne CABRIES",CABRIES,FR,Cultura,"{'brand': 'Cultura', 'fascia': 'Magasin Cultura', 'category': 'Retail', 'edit_date': '20250310', 'lat_lon_source': 'website'}",91,Cultura Plan De Campagne,04.42.41.33.84,43.4223,5.36346,"{'opening_hours': {'Mon': '09:00-20:00', 'Tue': '09:00-20:00', 'Wed': '09:00-20:00', 'Thu': '09:00-20:00', 'Fri': '09:00-20:00', 'Sat': '09:00-20:00', 'Sun': 'Closed'}}",13480,https://www.cultura.com/les-magasins.html
"31120, 12 Bd de l'Europe PORTET SUR GARONNE",PORTET SUR GARONNE,FR,Cultura,"{'brand': 'Cultura', 'fascia': 'Magasin Cultura', 'category': 'Retail', 'edit_date': '20250310', 'lat_lon_source': 'website'}",115,Cultura Portet Sur Garonne,05.62.87.68.76,43.5314,1.40108,"{'opening_hours': {'Mon': '09:00-20:00', 'Tue': '09:00-20:00', 'Wed': '09:00-20:00', 'Thu': '09:00-20:00', 'Fri': '09:00-20:00', 'Sat': '09:00-20:00', 'Sun': 'Closed'}}",31120,https://www.cultura.com/les-magasins.html
"74500, Rue du Cartheray Publier",Publier,FR,Cultura,"{'brand': 'Cultura', 'fascia': 'Magasin Cultura', 'category': 'Retail', 'edit_date': '20250310', 'lat_lon_source': 'website'}",268,Cultura Publier,04.56.66.06.20,46.3889,6.52239,"{'opening_hours': {'Mon': '09:00-20:00', 'Tue': '09:00-20:00', 'Wed': '09:00-20:00', 'Thu': '09:00-20:00', 'Fri': '09:00-20:00', 'Sat': '09:00-20:00', 'Sun': 'Closed'}}",74500,https://www.cultura.com/les-magasins.html
"83480, Zone d'activités des Salles PUGET SUR ARGENS",PUGET SUR ARGENS,FR,Cultura,"{'brand': 'Cultura', 'fascia': 'Magasin Cultura', 'category': 'Retail', 'edit_date': '20250310', 'lat_lon_source': 'website'}",160,Cultura Puget,04.98.11.09.60,43.4441,6.70245,"{'opening_hours': {'Mon': '09:00-20:00', 'Tue': '09:00-20:00', 'Wed': '09:00-20:00', 'Thu': '09:00-20:00', 'Fri': '09:00-20:00', 'Sat': '09:00-20:00', 'Sun': 'Closed'}}",83480,https://www.cultura.com/les-magasins.html
"17138, 5 rue de Belgique PUILBOREAU",PUILBOREAU,FR,Cultura,"{'brand': 'Cultura', 'fascia': 'Magasin Cultura', 'category': 'Retail', 'edit_date': '20250310', 'lat_lon_source': 'website'}",205,Cultura Puilboreau,05.46.35.50.50,46.1785,-1.1222,"{'opening_hours': {'Mon': '09:00-20:00', 'Tue': '09:00-20:00', 'Wed': '09:00-20:00', 'Thu': '09:00-20:00', 'Fri': '09:00-20:00', 'Sat': '09:00-20:00', 'Sun': 'Closed'}}",17138,https://www.cultura.com/les-magasins.html
"78120, Centre commercial du Bel Air RAMBOUILLET",RAMBOUILLET,FR,Cultura,"{'brand': 'Cultura', 'fascia': 'Magasin Cultura', 'category': 'Retail', 'edit_date': '20250310', 'lat_lon_source': 'website'}",238,Cultura Rambouillet,01.61.39.19.45,48.6293,1.82785,"{'opening_hours': {'Mon': '09:00-20:00', 'Tue': '09:00-20:00', 'Wed': '09:00-20:00', 'Thu': '09:00-20:00', 'Fri': '09:00-20:00', 'Sat': '09:00-20:00', 'Sun': 'Closed'}}",78120,https://www.cultura.com/les-magasins.html
"66600, rue George Méliès RIVESALTES",RIVESALTES,FR,Cultura,"{'brand': 'Cultura', 'fascia': 'Magasin Cultura', 'category': 'Retail', 'edit_date': '20250310', 'lat_lon_source': 'website'}",262,Cultura Rivesaltes,04.11.30.05.60,42.775,2.90881,"{'opening_hours': {'Mon': '09:00-20:00', 'Tue': '09:00-20:00', 'Wed': '09:00-20:00', 'Thu': '09:00-20:00', 'Fri': '09:00-20:00', 'Sat': '09:00-20:00', 'Sun': 'Closed'}}",66600,https://www.cultura.com/les-magasins.html
"34130, 236 Avenue de la ciboulette SAINT AUNES",SAINT AUNES,FR,Cultura,"{'brand': 'Cultura', 'fascia': 'Magasin Cultura', 'category': 'Retail', 'edit_date': '20250310', 'lat_lon_source': 'website'}",202,Cultura Saint Aunès,04.67.40.75.80,43.6482,3.97883,"{'opening_hours': {'Mon': '09:00-20:00', 'Tue': '09:00-20:00', 'Wed': '09:00-20:00', 'Thu': '09:00-20:00', 'Fri': '09:00-20:00', 'Sat': '09:00-20:00', 'Sun': 'Closed'}}",34130,https://www.cultura.com/les-magasins.html
"53940, 66 avenue de Paris SAINT BERTHEVIN",SAINT BERTHEVIN,FR,Cultura,"{'brand': 'Cultura', 'fascia': 'Magasin Cultura', 'category': 'Retail', 'edit_date': '20250310', 'lat_lon_source': 'website'}",97,Cultura Saint Berthevin,02.43.91.45.40,48.0686,-0.806533,"{'opening_hours': {'Mon': '09:00-19:30', 'Tue': '09:00-19:30', 'Wed': '09:00-19:30', 'Thu': '09:00-19:30', 'Fri': '09:00-19:30', 'Sat': '09:00-19:30', 'Sun': 'Closed'}}",53940,https://www.cultura.com/les-magasins.html
"18230, 6 Rue du Clos Blanc SAINT DOULCHARD",SAINT DOULCHARD,FR,Cultura,"{'brand': 'Cultura', 'fascia': 'Magasin Cultura', 'category': 'Retail', 'edit_date': '20250310', 'lat_lon_source': 'website'}",241,Cultura Saint Doulchard,02.48.65.05.66,47.1177,2.37622,"{'opening_hours': {'Mon': '09:00-20:00', 'Tue': '09:00-20:00', 'Wed': '09:00-20:00', 'Thu': '09:00-20:00', 'Fri': '09:00-20:00', 'Sat': '09:00-20:00', 'Sun': 'Closed'}}",18230,https://www.cultura.com/les-magasins.html
"35760, Route de Saint Malo SAINT GREGOIRE",SAINT GREGOIRE,FR,Cultura,"{'brand': 'Cultura', 'fascia': 'Magasin Cultura', 'category': 'Retail', 'edit_date': '20250310', 'lat_lon_source': 'website'}",265,Cultura Saint Grégoire,02.30.21.28.50,48.1361,-1.69346,"{'opening_hours': {'Mon': '09:00-20:00', 'Tue': '09:00-20:00', 'Wed': '09:00-20:00', 'Thu': '09:00-20:00', 'Fri': '09:00-20:00', 'Sat': '09:00-20:00', 'Sun': 'Closed'}}",35760,https://www.cultura.com/les-magasins.html
"35400, CC La Madeleine SAINT MALO",SAINT MALO,FR,Cultura,"{'brand': 'Cultura', 'fascia': 'Magasin Cultura', 'category': 'Retail', 'edit_date': '20250310', 'lat_lon_source': 'website'}",118,Cultura Saint Malo,02.99.21.34.00,48.6237,-1.9965,"{'opening_hours': {'Mon': '09:30-20:00', 'Tue': '09:30-20:00', 'Wed': '09:30-20:00', 'Thu': '09:30-20:00', 'Fri': '09:30-20:00', 'Sat': '09:30-20:00', 'Sun': 'Closed'}}",35400,https://www.cultura.com/les-magasins.html
"36250, ZC Cap Sud SAINT MAUR",SAINT MAUR,FR,Cultura,"{'brand': 'Cultura', 'fascia': 'Magasin Cultura', 'category': 'Retail', 'edit_date': '20250310', 'lat_lon_source': 'website'}",121,Cultura Saint Maur,02.54.08.21.00,46.782355,1.649837,"{'opening_hours': {'Mon': '09:00-20:00', 'Tue': '09:00-20:00', 'Wed': '09:00-20:00', 'Thu': '09:00-20:00', 'Fri': '09:00-20:00', 'Sat': '09:00-20:00', 'Sun': 'Closed'}}",36250,https://www.cultura.com/les-magasins.html
"60740, ZAC du bois des fenêtres SAINT MAXIMIN",SAINT MAXIMIN,FR,Cultura,"{'brand': 'Cultura', 'fascia': 'Magasin Cultura', 'category': 'Retail', 'edit_date': '20250310', 'lat_lon_source': 'website'}",124,Cultura Saint Maximin,03.44.32.08.10,49.2388,2.4669,"{'opening_hours': {'Mon': '09:00-20:00', 'Tue': '09:00-20:00', 'Wed': '09:00-20:00', 'Thu': '09:00-20:00', 'Fri': '09:00-20:00', 'Sat': '09:00-20:00', 'Sun': 'Closed'}}",60740,https://www.cultura.com/les-magasins.html
"69800, CC PORTE DES ALPES ST PRIEST",ST PRIEST,FR,Cultura,"{'brand': 'Cultura', 'fascia': 'Magasin Cultura', 'category': 'Retail', 'edit_date': '20250310', 'lat_lon_source': 'website'}",331,Cultura Saint Priest,04.81.91.24.00,45.72105,4.930946,"{'opening_hours': {'Mon': '09:00-20:00', 'Tue': '09:00-20:00', 'Wed': '09:00-20:00', 'Thu': '09:00-20:00', 'Fri': '09:00-20:00', 'Sat': '09:00-20:00', 'Sun': 'Closed'}}",69800,https://www.cultura.com/les-magasins.html
"02100, CC AUCHAN St Quentin/Fayet FAYET",FAYET,FR,Cultura,"{'brand': 'Cultura', 'fascia': 'Magasin Cultura', 'category': 'Retail', 'edit_date': '20250310', 'lat_lon_source': 'website'}",130,Cultura Saint Quentin Fayet,03.23.07.59.40,49.8612,3.26034,"{'opening_hours': {'Mon': '09:00-20:00', 'Tue': '09:00-20:00', 'Wed': '09:00-20:00', 'Thu': '09:00-20:00', 'Fri': '09:00-20:00', 'Sat': '09:00-20:00', 'Sun': 'Closed'}}",02100,https://www.cultura.com/les-magasins.html
"91700, 20 - 22 avenue de la Croix Blanche SAINTE GENEVIEVE DES BOIS",SAINTE GENEVIEVE DES BOIS,FR,Cultura,"{'brand': 'Cultura', 'fascia': 'Magasin Cultura', 'category': 'Retail', 'edit_date': '20250310', 'lat_lon_source': 'website'}",338,Cultura Sainte Geneviève Des Bois,01.69.46.57.10,48.621331,2.348879,"{'opening_hours': {'Mon': '09:00-20:00', 'Tue': '09:00-20:00', 'Wed': '09:00-20:00', 'Thu': '09:00-20:00', 'Fri': '09:00-20:00', 'Sat': '09:00-20:00', 'Sun': 'Closed'}}",91700,https://www.cultura.com/les-magasins.html
"38150, 415 Avenue Plein Sud SALAISE SUR SANNE",SALAISE SUR SANNE,FR,Cultura,"{'brand': 'Cultura', 'fascia': 'Magasin Cultura', 'category': 'Retail', 'edit_date': '20250310', 'lat_lon_source': 'website'}",322,Cultura Salaise,04.82.62.60.20,45.330598,4.804453,"{'opening_hours': {'Mon': '09:00-19:30', 'Tue': '09:00-19:30', 'Wed': '09:00-19:30', 'Thu': '09:00-19:30', 'Fri': '09:00-19:30', 'Sat': '09:00-19:30', 'Sun': 'Closed'}}",38150,https://www.cultura.com/les-magasins.html
"45770, Parc d'Activités Ciale de SARAN SARAN",SARAN,FR,Cultura,"{'brand': 'Cultura', 'fascia': 'Magasin Cultura', 'category': 'Retail', 'edit_date': '20250310', 'lat_lon_source': 'website'}",274,Cultura Saran,02.45.40.04.90,47.9621,1.88504,"{'opening_hours': {'Mon': '09:00-20:00', 'Tue': '09:00-20:00', 'Wed': '09:00-20:00', 'Thu': '09:00-20:00', 'Fri': '09:00-20:00', 'Sat': '09:00-20:00', 'Sun': 'Closed'}}",45770,https://www.cultura.com/les-magasins.html
"57400, ZA les terrasses de la Sarres Sarrebourg",Sarrebourg,FR,Cultura,"{'brand': 'Cultura', 'fascia': 'Magasin Cultura', 'category': 'Retail', 'edit_date': '20250310', 'lat_lon_source': 'website'}",357,Cultura Sarrebourg,03.87.25.64.72,48.717434,7.0444,"{'opening_hours': {'Mon': '09:30-19:00', 'Tue': '09:30-19:00', 'Wed': '09:30-19:00', 'Thu': '09:30-19:00', 'Fri': '09:30-19:00', 'Sat': '09:30-19:00', 'Sun': 'Closed'}}",57400,https://www.cultura.com/les-magasins.html
"67590, 10 Place du Geisselbronn SCHWEIGHOUSE-SUR-MODER (Haguenau)",SCHWEIGHOUSE-SUR-MODER (Haguenau),FR,Cultura,"{'brand': 'Cultura', 'fascia': 'Magasin Cultura', 'category': 'Retail', 'edit_date': '20250310', 'lat_lon_source': 'website'}",351,Cultura Schweighouse-sur-Moder,03.67.17.60.00,48.831003,7.740761,"{'opening_hours': {'Mon': '09:00-20:00', 'Tue': '09:00-20:00', 'Wed': '09:00-20:00', 'Thu': '09:00-20:00', 'Fri': '09:00-20:00', 'Sat': '09:00-20:00', 'Sun': 'Closed'}}",67590,https://www.cultura.com/les-magasins.html
"84700, CC Avignon Nord SORGUES",SORGUES,FR,Cultura,"{'brand': 'Cultura', 'fascia': 'Magasin Cultura', 'category': 'Retail', 'edit_date': '20250310', 'lat_lon_source': 'website'}",136,Cultura Sorgues,04.90.03.09.70,43.986,4.88189,"{'opening_hours': {'Mon': '09:00-20:00', 'Tue': '09:00-20:00', 'Wed': '09:00-20:00', 'Thu': '09:00-20:00', 'Fri': '09:00-20:00', 'Sat': '09:00-20:00', 'Sun': 'Closed'}}",84700,https://www.cultura.com/les-magasins.html
"57180, CC LECLERC TERVILLE",TERVILLE,FR,Cultura,"{'brand': 'Cultura', 'fascia': 'Magasin Cultura', 'category': 'Retail', 'edit_date': '20250310', 'lat_lon_source': 'website'}",139,Cultura Terville,03.82.59.69.50,49.353,6.13463,"{'opening_hours': {'Mon': '09:00-20:00', 'Tue': '09:00-20:00', 'Wed': '09:00-20:00', 'Thu': '09:00-20:00', 'Fri': '09:00-20:00', 'Sat': '09:00-20:00', 'Sun': 'Closed'}}",57180,https://www.cultura.com/les-magasins.html
"83130, 1215 Chemin des Plantades LA GARDE",LA GARDE,FR,Cultura,"{'brand': 'Cultura', 'fascia': 'Magasin Cultura', 'category': 'Retail', 'edit_date': '20250310', 'lat_lon_source': 'website'}",259,Cultura Toulon,04.83.69.14.00,43.1397,6.02093,"{'opening_hours': {'Mon': '09:00-20:00', 'Tue': '09:00-20:00', 'Wed': '09:00-20:00', 'Thu': '09:00-20:00', 'Fri': '09:00-20:00', 'Sat': '09:00-20:00', 'Sun': 'Closed'}}",83130,https://www.cultura.com/les-magasins.html
"37100, place Copernic TOURS",TOURS,FR,Cultura,"{'brand': 'Cultura', 'fascia': 'Magasin Cultura', 'category': 'Retail', 'edit_date': '20250310', 'lat_lon_source': 'website'}",94,Cultura Tours,02.47.46.48.60,47.4272,0.702546,"{'opening_hours': {'Mon': '09:00-20:00', 'Tue': '09:00-20:00', 'Wed': '09:00-20:00', 'Thu': '09:00-20:00', 'Fri': '09:00-20:00', 'Sat': '09:00-20:00', 'Sun': 'Closed'}}",37100,https://www.cultura.com/les-magasins.html
"44570, CC AUCHAN TRIGNAC",TRIGNAC,FR,Cultura,"{'brand': 'Cultura', 'fascia': 'Magasin Cultura', 'category': 'Retail', 'edit_date': '20250310', 'lat_lon_source': 'website'}",142,Cultura Trignac,02.51.10.53.00,47.2998,-2.20733,"{'opening_hours': {'Mon': '09:00-20:00', 'Tue': '09:00-20:00', 'Wed': '09:00-20:00', 'Thu': '09:00-20:00', 'Fri': '09:00-20:00', 'Sat': '09:00-20:00', 'Sun': 'Closed'}}",44570,https://www.cultura.com/les-magasins.html
"10410, 6 rue des Perrières SAINT PARRES AUX TERTRES",SAINT PARRES AUX TERTRES,FR,Cultura,"{'brand': 'Cultura', 'fascia': 'Magasin Cultura', 'category': 'Retail', 'edit_date': '20250310', 'lat_lon_source': 'website'}",127,Cultura Troyes - St Parres,03.25.45.90.20,48.294,4.13338,"{'opening_hours': {'Mon': '09:00-20:00', 'Tue': '09:00-20:00', 'Wed': '09:00-20:00', 'Thu': '09:00-20:00', 'Fri': '09:00-20:00', 'Sat': '09:00-20:00', 'Sun': 'Closed'}}",10410,https://www.cultura.com/les-magasins.html
"26000, ZC le Plateau des Couleures VALENCE",VALENCE,FR,Cultura,"{'brand': 'Cultura', 'fascia': 'Magasin Cultura', 'category': 'Retail', 'edit_date': '20250310', 'lat_lon_source': 'website'}",145,Cultura Valence,04.75.86.17.30,44.9521,4.93329,"{'opening_hours': {'Mon': '09:00-20:00', 'Tue': '09:00-20:00', 'Wed': '09:00-20:00', 'Thu': '09:00-20:00', 'Fri': '09:00-20:00', 'Sat': '09:00-20:00', 'Sun': 'Closed'}}",26000,https://www.cultura.com/les-magasins.html
"60200, ZAC de Jaux de Venette VENETTE",VENETTE,FR,Cultura,"{'brand': 'Cultura', 'fascia': 'Magasin Cultura', 'category': 'Retail', 'edit_date': '20250310', 'lat_lon_source': 'website'}",148,Cultura Venette,03.44.83.80.20,49.4086,2.77949,"{'opening_hours': {'Mon': '09:00-20:00', 'Tue': '09:00-20:00', 'Wed': '09:00-20:00', 'Thu': '09:00-20:00', 'Fri': '09:00-20:00', 'Sat': '09:00-20:00', 'Sun': 'Closed'}}",60200,https://www.cultura.com/les-magasins.html
"74100, 6 rue de Montréal VILLE-LA-GRAND",VILLE-LA-GRAND,FR,Cultura,"{'brand': 'Cultura', 'fascia': 'Magasin Cultura', 'category': 'Retail', 'edit_date': '20250310', 'lat_lon_source': 'website'}",190,Cultura Ville-la-Grand,04.50.84.58.16,46.2027,6.27811,"{'opening_hours': {'Mon': '09:00-20:00', 'Tue': '09:00-20:00', 'Wed': '09:00-20:00', 'Thu': '09:00-20:00', 'Fri': '09:00-20:00', 'Sat': '09:00-20:00', 'Sun': 'Closed'}}",74100,https://www.cultura.com/les-magasins.html
"69400, 1820 route de Frans VILLEFRANCHE SUR SAÔNE",VILLEFRANCHE SUR SAÔNE,FR,Cultura,"{'brand': 'Cultura', 'fascia': 'Magasin Cultura', 'category': 'Retail', 'edit_date': '20250310', 'lat_lon_source': 'website'}",181,Cultura Villefranche,04.37.55.21.36,45.9842,4.745,"{'opening_hours': {'Mon': '09:00-20:00', 'Tue': '09:00-20:00', 'Wed': '09:00-20:00', 'Thu': '09:00-20:00', 'Fri': '09:00-20:00', 'Sat': '09:00-20:00', 'Sun': 'Closed'}}",69400,https://www.cultura.com/les-magasins.html
"59260, CC Héron Parc LEZENNES",LEZENNES,FR,Cultura,"{'brand': 'Cultura', 'fascia': 'Magasin Cultura', 'category': 'Retail', 'edit_date': '20250310', 'lat_lon_source': 'website'}",154,Cultura Villeneuve D'Ascq,03.20.67.65.90,50.6158,3.12288,"{'opening_hours': {'Mon': '09:00-20:00', 'Tue': '09:00-20:00', 'Wed': '09:00-20:00', 'Thu': '09:00-20:00', 'Fri': '09:00-20:00', 'Sat': '09:00-20:00', 'Sun': 'Closed'}}",59260,https://www.cultura.com/les-magasins.html
"78670, Centre Commercial White Park VILLENNES SUR SEINE / ORGEVAL",VILLENNES SUR SEINE / ORGEVAL,FR,Cultura,"{'brand': 'Cultura', 'fascia': 'Magasin Cultura', 'category': 'Retail', 'edit_date': '20250310', 'lat_lon_source': 'website'}",187,Cultura Villennes Sur Seine / Orgeval,01.34.01.14.00,48.9285,1.986,"{'opening_hours': {'Mon': '09:00-20:00', 'Tue': '09:00-20:00', 'Wed': '09:00-20:00', 'Thu': '09:00-20:00', 'Fri': '09:00-20:00', 'Sat': '09:00-20:00', 'Sun': 'Closed'}}",78670,https://www.cultura.com/les-magasins.html
"68270, Rue des mines WITTENHEIM",WITTENHEIM,FR,Cultura,"{'brand': 'Cultura', 'fascia': 'Magasin Cultura', 'category': 'Retail', 'edit_date': '20250310', 'lat_lon_source': 'website'}",226,Cultura Wittenheim,03.89.31.83.60,47.7965,7.30658,"{'opening_hours': {'Mon': '09:00-20:00', 'Tue': '09:00-20:00', 'Wed': '09:00-20:00', 'Thu': '09:00-20:00', 'Fri': '09:00-20:00', 'Sat': '09:00-20:00', 'Sun': 'Closed'}}",68270,https://www.cultura.com/les-magasins.html
