addr_full,brand,city,country,extras,lat,lon,name,opening_hours,phone,postcode,ref,state,website
大阪府大阪市阿倍野区王子町4-1-56,Lifecorp,,Japan,"{'brand': 'Lifecorp', 'fascia': 'Lifecorp', 'category': 'Store', 'edit_date': '2025-04-21', 'lat_lon_source': 'website'}",34.62631308000000000000,135.50939270000000000000,セントラルスクエアキタバタケテン,"{'opening_hour': {'Sun': '09:30:00-24:00:00', 'Mon': '09:30:00-24:00:00', 'Tue': '09:30:00-24:00:00', 'Wed': '09:30:00-24:00:00', 'Thur': '09:30:00-24:00:00', 'Fri': '09:30:00-24:00:00', 'Sat': '09:30:00-24:00:00'}}",06-6627-1131,545-0023,99406,,https://store.lifecorp.jp/
大阪府大阪市浪速区湊町1-2-3,Lifecorp,,Japan,"{'brand': 'Lifecorp', 'fascia': 'Lifecorp', 'category': 'Store', 'edit_date': '2025-04-21', 'lat_lon_source': 'website'}",34.66660718000000000000,135.49609790000000000000,セントラルスクエアナンバテン,"{'opening_hour': {'Sun': '09:00:00-24:00:00', 'Mon': '09:00:00-24:00:00', 'Tue': '09:00:00-24:00:00', 'Wed': '09:00:00-24:00:00', 'Thur': '09:00:00-24:00:00', 'Fri': '09:00:00-24:00:00', 'Sat': '09:00:00-24:00:00'}}",06-6634-0300,556-0017,99394,,https://store.lifecorp.jp/
京都府京都市下京区西七条掛越町61,Lifecorp,,Japan,"{'brand': 'Lifecorp', 'fascia': 'Lifecorp', 'category': 'Store', 'edit_date': '2025-04-21', 'lat_lon_source': 'website'}",34.99313765000000000000,135.73262350000000000000,セントラルスクエアニシオオジハナヤチョウテン,"{'opening_hour': {'Sun': '09:30:00-24:00:00', 'Mon': '09:30:00-24:00:00', 'Tue': '09:30:00-24:00:00', 'Wed': '09:30:00-24:00:00', 'Thur': '09:30:00-24:00:00', 'Fri': '09:30:00-24:00:00', 'Sat': '09:30:00-24:00:00'}}",075-315-2221,600-8881,99337,,https://store.lifecorp.jp/
大阪府大阪市淀川区西宮原2-2-22,Lifecorp,,Japan,"{'brand': 'Lifecorp', 'fascia': 'Lifecorp', 'category': 'Store', 'edit_date': '2025-04-21', 'lat_lon_source': 'website'}",34.73539203000000000000,135.49314990000000000000,セントラルスクエアニシミヤハラテン,"{'opening_hour': {'Sun': '09:30:00-24:00:00', 'Mon': '09:30:00-24:00:00', 'Tue': '09:30:00-24:00:00', 'Wed': '09:30:00-24:00:00', 'Thur': '09:30:00-24:00:00', 'Fri': '09:30:00-24:00:00', 'Sat': '09:30:00-24:00:00'}}",06-6350-1161,532-0004,99331,,https://store.lifecorp.jp/
大阪府大阪市中央区森ノ宮中央2-1-30,Lifecorp,,Japan,"{'brand': 'Lifecorp', 'fascia': 'Lifecorp', 'category': 'Store', 'edit_date': '2025-04-21', 'lat_lon_source': 'website'}",34.68017505000000000000,135.53039470000000000000,セントラルスクエアモリノミヤテン,"{'opening_hour': {'Sun': '09:30:00-24:00:00', 'Mon': '09:30:00-24:00:00', 'Tue': '09:30:00-24:00:00', 'Wed': '09:30:00-24:00:00', 'Thur': '09:30:00-24:00:00', 'Fri': '09:30:00-24:00:00', 'Sat': '09:30:00-24:00:00'}}",06-6910-7071,540-0003,99320,,https://store.lifecorp.jp/
大阪府門真市松生町1-11 ららぽーと門真 1階,Lifecorp,,Japan,"{'brand': 'Lifecorp', 'fascia': 'Lifecorp', 'category': 'Store', 'edit_date': '2025-04-21', 'lat_lon_source': 'website'}",34.73323787000000000000,135.58443500000000000000,セントラルスクエアララポートカドマテン,"{'opening_hour': {'Mon': '10:00:00-21:00:00', 'Tue': '10:00:00-21:00:00', 'Wed': '10:00:00-21:00:00', 'Thur': '10:00:00-21:00:00', 'Fri': '10:00:00-21:00:00', 'Sat': '10:00:00-21:00:00', 'Sun': '10:00:00-21:00:00'}}",06-6900-1130,571-8620,99411,,https://store.lifecorp.jp/
東京都江東区有明2丁目1-8,Lifecorp,,Japan,"{'brand': 'Lifecorp', 'fascia': 'Lifecorp', 'category': 'Store', 'edit_date': '2025-04-21', 'lat_lon_source': 'website'}",35.63850946000000000000,139.79299820000000000000,ビオラルアリアケガーデンテン,"{'opening_hour': {'Sun': '10:00:00-21:00:00', 'Mon': '10:00:00-21:00:00', 'Tue': '10:00:00-21:00:00', 'Wed': '10:00:00-21:00:00', 'Thur': '10:00:00-21:00:00', 'Fri': '10:00:00-21:00:00', 'Sat': '10:00:00-21:00:00'}}",03-6380-7351,135-0063,99463,,https://store.lifecorp.jp/
大阪府大阪市西区靱本町3-5-18,Lifecorp,,Japan,"{'brand': 'Lifecorp', 'fascia': 'Lifecorp', 'category': 'Store', 'edit_date': '2025-04-21', 'lat_lon_source': 'website'}",34.68333061000000000000,135.48770780000000000000,ビオラルウツボテン,"{'opening_hour': {'Sun': '10:00:00-22:00:00', 'Mon': '10:00:00-22:00:00', 'Tue': '10:00:00-22:00:00', 'Wed': '10:00:00-22:00:00', 'Thur': '10:00:00-22:00:00', 'Fri': '10:00:00-22:00:00', 'Sat': '10:00:00-22:00:00'}}",06-6447-5511,550-0004,99421,,https://store.lifecorp.jp/
大阪府大阪市北区大深町5-54 グラングリーン大阪南館地下1階,Lifecorp,,Japan,"{'brand': 'Lifecorp', 'fascia': 'Lifecorp', 'category': 'Store', 'edit_date': '2025-04-21', 'lat_lon_source': 'website'}",34.70236650000000000000,135.49255850000000000000,ビオラルウメキタテン,"{'opening_hour': {'Mon': '10:00:00-22:00:00', 'Tue': '10:00:00-22:00:00', 'Wed': '10:00:00-22:00:00', 'Thur': '10:00:00-22:00:00', 'Fri': '10:00:00-22:00:00', 'Sat': '10:00:00-22:00:00', 'Sun': '10:00:00-22:00:00'}}",06-6376-6661,530-0011,110967,,https://store.lifecorp.jp/
大阪府大阪市北区梅田3-1-1 エキマルシェ大阪 1階,Lifecorp,,Japan,"{'brand': 'Lifecorp', 'fascia': 'Lifecorp', 'category': 'Store', 'edit_date': '2025-04-21', 'lat_lon_source': 'website'}",34.70190790000000000000,135.49525680000000000000,ビオラルエキマルシェオオサカテン,"{'opening_hour': {'Sun': '09:00:00-22:00:00', 'Mon': '09:00:00-22:00:00', 'Tue': '09:00:00-22:00:00', 'Wed': '09:00:00-22:00:00', 'Thur': '09:00:00-22:00:00', 'Fri': '09:00:00-22:00:00', 'Sat': '09:00:00-22:00:00'}}",06-6342-0171,530-0001,99354,,https://store.lifecorp.jp/
東京都武蔵野市吉祥寺南町1丁目7-1吉祥寺ﾏﾙｲ 1F,Lifecorp,,Japan,"{'brand': 'Lifecorp', 'fascia': 'Lifecorp', 'category': 'Store', 'edit_date': '2025-04-21', 'lat_lon_source': 'website'}",35.70190184000000000000,139.57916980000000000000,ビオラルキチジョウジマルイテン,"{'opening_hour': {'Sun': '10:30:00-20:00:00', 'Mon': '10:30:00-20:00:00', 'Tue': '10:30:00-20:00:00', 'Wed': '10:30:00-20:00:00', 'Thur': '10:30:00-20:00:00', 'Fri': '10:30:00-20:00:00', 'Sat': '10:30:00-20:00:00'}}",0422-46-3780,180-0003,99526,,https://store.lifecorp.jp/
東京都国立市中1-1-52 nonowa国立SOUTH,Lifecorp,,Japan,"{'brand': 'Lifecorp', 'fascia': 'Lifecorp', 'category': 'Store', 'edit_date': '2025-04-21', 'lat_lon_source': 'website'}",35.69904403000000000000,139.44608740000000000000,ビオラルコクリツエキマエテン,"{'opening_hour': {'Sun': '10:00:00-21:00:00', 'Mon': '10:00:00-21:00:00', 'Tue': '10:00:00-21:00:00', 'Wed': '10:00:00-21:00:00', 'Thur': '10:00:00-21:00:00', 'Fri': '10:00:00-21:00:00', 'Sat': '10:00:00-21:00:00'}}",042-505-4192,186-0004,99583,,https://store.lifecorp.jp/
兵庫県神戸市中央区三宮町1-10-1 さんちか1番街　地下1階,Lifecorp,,Japan,"{'brand': 'Lifecorp', 'fascia': 'Lifecorp', 'category': 'Store', 'edit_date': '2025-04-21', 'lat_lon_source': 'website'}",34.69346430000000000000,135.19419490000000000000,ビオラルサンチカテン,"{'opening_hour': {'Mon': '09:00:00-21:00:00', 'Tue': '09:00:00-21:00:00', 'Wed': '09:00:00-21:00:00', 'Thur': '09:00:00-21:00:00', 'Fri': '09:00:00-21:00:00', 'Sat': '09:00:00-21:00:00', 'Sun': '09:00:00-21:00:00'}}",078-333-5551,650-0021,110968,,https://store.lifecorp.jp/
東京都世田谷区北沢2丁目21-22｢tefu｣lounge1階,Lifecorp,,Japan,"{'brand': 'Lifecorp', 'fascia': 'Lifecorp', 'category': 'Store', 'edit_date': '2025-04-21', 'lat_lon_source': 'website'}",35.66071344000000000000,139.66658600000000000000,ビオラルシモキタザワエキマエテン,"{'opening_hour': {'Sun': '10:00:00-22:00:00', 'Mon': '10:00:00-22:00:00', 'Tue': '10:00:00-22:00:00', 'Wed': '10:00:00-22:00:00', 'Thur': '10:00:00-22:00:00', 'Fri': '10:00:00-22:00:00', 'Sat': '10:00:00-22:00:00'}}",03-3421-5531,155-0031,99555,,https://store.lifecorp.jp/
東京都新宿区西新宿1-1-4 京王百貨店新宿店 地下1階,Lifecorp,,Japan,"{'brand': 'Lifecorp', 'fascia': 'Lifecorp', 'category': 'Store', 'edit_date': '2025-04-21', 'lat_lon_source': 'website'}",35.68971890000000000000,139.69927430000000000000,ビオラルシンジュクケイオウヒャッカテン,"{'opening_hour': {'Sun': '10:00:00-20:00:00', 'Mon': '10:00:00-20:30:00', 'Tue': '10:00:00-20:30:00', 'Wed': '10:00:00-20:30:00', 'Thur': '10:00:00-20:30:00', 'Fri': '10:00:00-20:30:00', 'Sat': '10:00:00-20:30:00'}}",0570-022-810,160-0023,113121,,https://store.lifecorp.jp/
東京都新宿区新宿3丁目30-13,Lifecorp,,Japan,"{'brand': 'Lifecorp', 'fascia': 'Lifecorp', 'category': 'Store', 'edit_date': '2025-04-21', 'lat_lon_source': 'website'}",35.69093861000000000000,139.70406890000000000000,ビオラルシンジュクマルイテン,"{'opening_hour': {'Sun': '11:00:00-21:00:00', 'Mon': '11:00:00-21:00:00', 'Tue': '11:00:00-21:00:00', 'Wed': '11:00:00-21:00:00', 'Thur': '11:00:00-21:00:00', 'Fri': '11:00:00-21:00:00', 'Sat': '11:00:00-21:00:00'}}",03-3354-8131,160-0022,99562,,https://store.lifecorp.jp/
東京都台東区上野3丁目24ｰ6 PARCO_ya上野 地下一階,Lifecorp,,Japan,"{'brand': 'Lifecorp', 'fascia': 'Lifecorp', 'category': 'Store', 'edit_date': '2025-04-21', 'lat_lon_source': 'website'}",35.70682133000000000000,139.77311670000000000000,ビオラルパルコヤウエノテン,"{'opening_hour': {'Sun': '10:00:00-20:00:00', 'Mon': '10:00:00-20:00:00', 'Tue': '10:00:00-20:00:00', 'Wed': '10:00:00-20:00:00', 'Thur': '10:00:00-20:00:00', 'Fri': '10:00:00-20:00:00', 'Sat': '10:00:00-20:00:00'}}",03-3837-5130,110-0005,99514,,https://store.lifecorp.jp/
大阪府箕面市西宿1-14-14 みのおキューズモールSTATION1棟2F,Lifecorp,,Japan,"{'brand': 'Lifecorp', 'fascia': 'Lifecorp', 'category': 'Store', 'edit_date': '2025-04-21', 'lat_lon_source': 'website'}",34.83232830000000000000,135.48932680000000000000,ビオラルミノオキューズモールテン,"{'opening_hour': {'Sun': '10:00:00-21:00:00', 'Mon': '10:00:00-21:00:00', 'Tue': '10:00:00-21:00:00', 'Wed': '10:00:00-21:00:00', 'Thur': '10:00:00-21:00:00', 'Fri': '10:00:00-21:00:00', 'Sat': '10:00:00-21:00:00'}}",072-726-7711,562-0034,99579,,https://store.lifecorp.jp/
大阪府大阪市西区西本町2-2-11,Lifecorp,,Japan,"{'brand': 'Lifecorp', 'fascia': 'Lifecorp', 'category': 'Store', 'edit_date': '2025-04-21', 'lat_lon_source': 'website'}",34.68204200000000000000,135.49211090000000000000,ミニエルニシホンマチテン,"{'opening_hour': {'Sun': '10:00:00-22:00:00', 'Mon': '08:00:00-22:00:00', 'Tue': '08:00:00-22:00:00', 'Wed': '08:00:00-22:00:00', 'Thur': '08:00:00-22:00:00', 'Fri': '08:00:00-22:00:00', 'Sat': '10:00:00-22:00:00'}}",06-6539-1070,550-0005,99375,,https://store.lifecorp.jp/
神奈川県横浜市青葉区しらとり台50-3,Lifecorp,,Japan,"{'brand': 'Lifecorp', 'fascia': 'Lifecorp', 'category': 'Store', 'edit_date': '2025-04-21', 'lat_lon_source': 'website'}",35.53366340000000000000,139.51706450000000000000,ライフアオバシラトリダイテン,"{'opening_hour': {'Sun': '09:00:00-22:00:00', 'Mon': '09:00:00-22:00:00', 'Tue': '09:00:00-22:00:00', 'Wed': '09:00:00-22:00:00', 'Thur': '09:00:00-22:00:00', 'Fri': '09:00:00-22:00:00', 'Sat': '09:00:00-22:00:00'}}",045-985-2070,227-0054,99481,,https://store.lifecorp.jp/
東京都板橋区赤塚1-16-12,Lifecorp,,Japan,"{'brand': 'Lifecorp', 'fascia': 'Lifecorp', 'category': 'Store', 'edit_date': '2025-04-21', 'lat_lon_source': 'website'}",35.77040489000000000000,139.64905110000000000000,ライフアカツカテン,"{'opening_hour': {'Sun': '09:30:00-22:00:00', 'Mon': '09:30:00-22:00:00', 'Tue': '09:30:00-22:00:00', 'Wed': '09:30:00-22:00:00', 'Thur': '09:30:00-22:00:00', 'Fri': '09:30:00-22:00:00', 'Sat': '09:30:00-22:00:00'}}",03-3979-5061,175-0092,99472,,https://store.lifecorp.jp/
東京都北区赤羽北2丁目31-22,Lifecorp,,Japan,"{'brand': 'Lifecorp', 'fascia': 'Lifecorp', 'category': 'Store', 'edit_date': '2025-04-21', 'lat_lon_source': 'website'}",35.78612281000000000000,139.70904540000000000000,ライフアクトピアキタアカバネテン,"{'opening_hour': {'Sun': '09:30:00-22:00:00', 'Mon': '09:30:00-22:00:00', 'Tue': '09:30:00-22:00:00', 'Wed': '09:30:00-22:00:00', 'Thur': '09:30:00-22:00:00', 'Fri': '09:30:00-22:00:00', 'Sat': '09:30:00-22:00:00'}}",03-5993-3171,115-0052,99510,,https://store.lifecorp.jp/
東京都台東区西浅草3丁目18-17,Lifecorp,,Japan,"{'brand': 'Lifecorp', 'fascia': 'Lifecorp', 'category': 'Store', 'edit_date': '2025-04-21', 'lat_lon_source': 'website'}",35.71582078000000000000,139.79238630000000000000,ライフアサクサテン,"{'opening_hour': {'Sun': '09:30:00-22:00:00', 'Mon': '09:30:00-22:00:00', 'Tue': '09:30:00-22:00:00', 'Wed': '09:30:00-22:00:00', 'Thur': '09:30:00-22:00:00', 'Fri': '09:30:00-22:00:00', 'Sat': '09:30:00-22:00:00'}}",03-3841-8531,111-0035,99429,,https://store.lifecorp.jp/
大阪府大阪市港区夕凪2-18-49,Lifecorp,,Japan,"{'brand': 'Lifecorp', 'fascia': 'Lifecorp', 'category': 'Store', 'edit_date': '2025-04-21', 'lat_lon_source': 'website'}",34.66142898000000000000,135.44975310000000000000,ライフアサシオバシエキマエテン,"{'opening_hour': {'Sun': '09:30:00-24:00:00', 'Mon': '09:30:00-24:00:00', 'Tue': '09:30:00-24:00:00', 'Wed': '09:30:00-24:00:00', 'Thur': '09:30:00-24:00:00', 'Fri': '09:30:00-24:00:00', 'Sat': '09:30:00-24:00:00'}}",06-6576-1500,552-0004,99304,,https://store.lifecorp.jp/
大阪府大阪市旭区大宮4-14-10,Lifecorp,,Japan,"{'brand': 'Lifecorp', 'fascia': 'Lifecorp', 'category': 'Store', 'edit_date': '2025-04-21', 'lat_lon_source': 'website'}",34.72874885000000000000,135.54774940000000000000,ライフアサヒオオミヤテン,"{'opening_hour': {'Sun': '09:30:00-24:00:00', 'Mon': '09:30:00-24:00:00', 'Tue': '09:30:00-24:00:00', 'Wed': '09:30:00-24:00:00', 'Thur': '09:30:00-24:00:00', 'Fri': '09:30:00-24:00:00', 'Sat': '09:30:00-24:00:00'}}",06-6955-3221,535-0002,99291,,https://store.lifecorp.jp/
兵庫県芦屋市呉川町12-21,Lifecorp,,Japan,"{'brand': 'Lifecorp', 'fascia': 'Lifecorp', 'category': 'Store', 'edit_date': '2025-04-21', 'lat_lon_source': 'website'}",34.72537220000000000000,135.31255280000000000000,ライフアシヤクレカワチョウテン,"{'opening_hour': {'Mon': '09:30:00-21:00:00', 'Tue': '09:30:00-21:00:00', 'Wed': '09:30:00-21:00:00', 'Thur': '09:30:00-21:00:00', 'Fri': '09:30:00-21:00:00', 'Sat': '09:30:00-21:00:00', 'Sun': '09:30:00-21:00:00'}}",0797-23-2080,659-0051,99580,,https://store.lifecorp.jp/
大阪府大阪市住吉区我孫子東1-11-1,Lifecorp,,Japan,"{'brand': 'Lifecorp', 'fascia': 'Lifecorp', 'category': 'Store', 'edit_date': '2025-04-21', 'lat_lon_source': 'website'}",34.60229100000000000000,135.51240830000000000000,ライフアビコテン,"{'opening_hour': {'Sun': '09:30:00-24:00:00', 'Mon': '09:30:00-24:00:00', 'Tue': '09:30:00-24:00:00', 'Wed': '09:30:00-24:00:00', 'Thur': '09:30:00-24:00:00', 'Fri': '09:30:00-24:00:00', 'Sat': '09:30:00-24:00:00'}}",06-6608-0500,558-0013,99448,,https://store.lifecorp.jp/
兵庫県尼崎市大西町3-3-13,Lifecorp,,Japan,"{'brand': 'Lifecorp', 'fascia': 'Lifecorp', 'category': 'Store', 'edit_date': '2025-04-21', 'lat_lon_source': 'website'}",34.74146928000000000000,135.41152440000000000000,ライフアマガサキオオニシテン,"{'opening_hour': {'Sun': '09:00:00-21:00:00', 'Mon': '09:00:00-21:00:00', 'Tue': '09:00:00-21:00:00', 'Wed': '09:00:00-21:00:00', 'Thur': '09:00:00-21:00:00', 'Fri': '09:00:00-21:00:00', 'Sat': '09:00:00-21:00:00'}}",06-6429-9781,661-0023,99308,,https://store.lifecorp.jp/
神奈川県川崎市宮前区有馬5丁目21-15,Lifecorp,,Japan,"{'brand': 'Lifecorp', 'fascia': 'Lifecorp', 'category': 'Store', 'edit_date': '2025-04-21', 'lat_lon_source': 'website'}",35.57203039000000000000,139.58156070000000000000,ライフアリマゴチョウメテン,"{'opening_hour': {'Sun': '09:00:00-22:00:00', 'Mon': '09:00:00-22:00:00', 'Tue': '09:00:00-22:00:00', 'Wed': '09:00:00-22:00:00', 'Thur': '09:00:00-22:00:00', 'Fri': '09:00:00-22:00:00', 'Sat': '09:00:00-22:00:00'}}",044-861-5221,216-0003,99547,,https://store.lifecorp.jp/
大阪府大阪市西区西本町3-1-33,Lifecorp,,Japan,"{'brand': 'Lifecorp', 'fascia': 'Lifecorp', 'category': 'Store', 'edit_date': '2025-04-21', 'lat_lon_source': 'website'}",34.68195390000000000000,135.48661000000000000000,ライフアワザエキマエテン,"{'opening_hour': {'Sun': '09:30:00-24:00:00', 'Mon': '09:30:00-24:00:00', 'Tue': '09:30:00-24:00:00', 'Wed': '09:30:00-24:00:00', 'Thur': '09:30:00-24:00:00', 'Fri': '09:30:00-24:00:00', 'Sat': '09:30:00-24:00:00'}}",06-6534-1810,550-0005,99359,,https://store.lifecorp.jp/
大阪府大阪市生野区林寺5-10-18,Lifecorp,,Japan,"{'brand': 'Lifecorp', 'fascia': 'Lifecorp', 'category': 'Store', 'edit_date': '2025-04-21', 'lat_lon_source': 'website'}",34.64459709000000000000,135.53908180000000000000,ライフイクノハヤシジテン,"{'opening_hour': {'Sun': '09:00:00-21:00:00', 'Mon': '09:00:00-21:00:00', 'Tue': '09:00:00-21:00:00', 'Wed': '09:00:00-21:00:00', 'Thur': '09:00:00-21:00:00', 'Fri': '09:00:00-21:00:00', 'Sat': '09:00:00-21:00:00'}}",06-6716-6811,544-0023,99293,,https://store.lifecorp.jp/
東京都豊島区池袋3丁目1-1 101,Lifecorp,,Japan,"{'brand': 'Lifecorp', 'fascia': 'Lifecorp', 'category': 'Store', 'edit_date': '2025-04-21', 'lat_lon_source': 'website'}",35.73308128000000000000,139.70254910000000000000,ライフイケブクロサンチョウメテン,"{'opening_hour': {'Sun': '09:30:00-24:00:00', 'Mon': '09:30:00-24:00:00', 'Tue': '09:30:00-24:00:00', 'Wed': '09:30:00-24:00:00', 'Thur': '09:30:00-24:00:00', 'Fri': '09:30:00-24:00:00', 'Sat': '09:30:00-24:00:00'}}",03-3981-3555,171-0014,99449,,https://store.lifecorp.jp/
大阪府堺市堺区石津北町90-1,Lifecorp,,Japan,"{'brand': 'Lifecorp', 'fascia': 'Lifecorp', 'category': 'Store', 'edit_date': '2025-04-21', 'lat_lon_source': 'website'}",34.55629831000000000000,135.46718000000000000000,ライフイシヅテン,"{'opening_hour': {'Sun': '09:00:00-22:00:00', 'Mon': '09:00:00-22:00:00', 'Tue': '09:00:00-22:00:00', 'Wed': '09:00:00-22:00:00', 'Thur': '09:00:00-22:00:00', 'Fri': '09:00:00-22:00:00', 'Sat': '09:00:00-22:00:00'}}",072-243-1400,590-0823,99275,,https://store.lifecorp.jp/
大阪府大阪市大正区泉尾5-8-17,Lifecorp,,Japan,"{'brand': 'Lifecorp', 'fascia': 'Lifecorp', 'category': 'Store', 'edit_date': '2025-04-21', 'lat_lon_source': 'website'}",34.65332688000000000000,135.47037670000000000000,ライフイズオテン,"{'opening_hour': {'Sun': '09:00:00-24:00:00', 'Mon': '09:00:00-24:00:00', 'Tue': '09:00:00-24:00:00', 'Wed': '09:00:00-24:00:00', 'Thur': '09:00:00-24:00:00', 'Fri': '09:00:00-24:00:00', 'Sat': '09:00:00-24:00:00'}}",06-6555-1381,551-0031,99407,,https://store.lifecorp.jp/
大阪府岸和田市上野町東8-8,Lifecorp,,Japan,"{'brand': 'Lifecorp', 'fascia': 'Lifecorp', 'category': 'Store', 'edit_date': '2025-04-21', 'lat_lon_source': 'website'}",34.46775531000000000000,135.38334960000000000000,ライフイズミオオミヤテン,"{'opening_hour': {'Sun': '09:00:00-21:00:00', 'Mon': '09:00:00-21:00:00', 'Tue': '09:00:00-21:00:00', 'Wed': '09:00:00-21:00:00', 'Thur': '09:00:00-21:00:00', 'Fri': '09:00:00-21:00:00', 'Sat': '09:00:00-21:00:00'}}",072-423-5551,596-0047,99305,,https://store.lifecorp.jp/
東京都板橋区板橋4丁目6-1,Lifecorp,,Japan,"{'brand': 'Lifecorp', 'fascia': 'Lifecorp', 'category': 'Store', 'edit_date': '2025-04-21', 'lat_lon_source': 'website'}",35.74941809000000000000,139.71831500000000000000,ライフイタバシテン,"{'opening_hour': {'Sun': '09:30:00-22:00:00', 'Mon': '09:30:00-22:00:00', 'Tue': '09:30:00-22:00:00', 'Wed': '09:30:00-22:00:00', 'Thur': '09:30:00-22:00:00', 'Fri': '09:30:00-22:00:00', 'Sat': '09:30:00-22:00:00'}}",03-3964-0812,173-0004,99560,,https://store.lifecorp.jp/
千葉県市川市国分2丁目13-16,Lifecorp,,Japan,"{'brand': 'Lifecorp', 'fascia': 'Lifecorp', 'category': 'Store', 'edit_date': '2025-04-21', 'lat_lon_source': 'website'}",35.74178339000000000000,139.91784680000000000000,ライフイチカワコクブテン,"{'opening_hour': {'Sun': '09:00:00-21:00:00', 'Mon': '09:00:00-21:00:00', 'Tue': '09:00:00-21:00:00', 'Wed': '09:00:00-21:00:00', 'Thur': '09:00:00-21:00:00', 'Fri': '09:00:00-21:00:00', 'Sat': '09:00:00-21:00:00'}}",047-320-8121,272-0834,99509,,https://store.lifecorp.jp/
東京都新宿区市谷薬王寺町3番3号,Lifecorp,,Japan,"{'brand': 'Lifecorp', 'fascia': 'Lifecorp', 'category': 'Store', 'edit_date': '2025-04-21', 'lat_lon_source': 'website'}",35.69633454000000000000,139.72630240000000000000,ライフイチガヤヤクオウジテン,"{'opening_hour': {'Sun': '09:30:00-24:00:00', 'Mon': '09:30:00-24:00:00', 'Tue': '09:30:00-24:00:00', 'Wed': '09:30:00-24:00:00', 'Thur': '09:30:00-24:00:00', 'Fri': '09:30:00-24:00:00', 'Sat': '09:30:00-24:00:00'}}",03-3268-6700,162-0063,99524,,https://store.lifecorp.jp/
大阪府大阪市東成区大今里西2-15-17,Lifecorp,,Japan,"{'brand': 'Lifecorp', 'fascia': 'Lifecorp', 'category': 'Store', 'edit_date': '2025-04-21', 'lat_lon_source': 'website'}",34.66840348000000000000,135.53972830000000000000,ライフイマザトテン,"{'opening_hour': {'Sun': '09:00:00-24:00:00', 'Mon': '09:00:00-24:00:00', 'Tue': '09:00:00-24:00:00', 'Wed': '09:00:00-24:00:00', 'Thur': '09:00:00-24:00:00', 'Fri': '09:00:00-24:00:00', 'Sat': '09:00:00-24:00:00'}}",06-6977-6001,537-0014,99374,,https://store.lifecorp.jp/
兵庫県西宮市今津曙町1-1,Lifecorp,,Japan,"{'brand': 'Lifecorp', 'fascia': 'Lifecorp', 'category': 'Store', 'edit_date': '2025-04-21', 'lat_lon_source': 'website'}",34.73089489000000000000,135.35192840000000000000,ライフイマヅエキマエテン,"{'opening_hour': {'Sun': '09:00:00-24:00:00', 'Mon': '09:00:00-24:00:00', 'Tue': '09:00:00-24:00:00', 'Wed': '09:00:00-24:00:00', 'Thur': '09:00:00-24:00:00', 'Fri': '09:00:00-24:00:00', 'Sat': '09:00:00-24:00:00'}}",0798-26-1211,663-8214,99361,,https://store.lifecorp.jp/
東京都世田谷区桜新町2丁目28-8,Lifecorp,,Japan,"{'brand': 'Lifecorp', 'fascia': 'Lifecorp', 'category': 'Store', 'edit_date': '2025-04-21', 'lat_lon_source': 'website'}",35.63173814000000000000,139.63923220000000000000,ライフイーシーサクラシンマチテン,"{'opening_hour': {'Sun': '09:30:00-20:00:00', 'Mon': '09:30:00-20:00:00', 'Tue': '09:30:00-20:00:00', 'Wed': '09:30:00-20:00:00', 'Thur': '09:30:00-20:00:00', 'Fri': '09:30:00-20:00:00', 'Sat': '09:30:00-20:00:00'}}",03-3425-2210,154-0015,103675,,https://store.lifecorp.jp/
京都府京都市右京区太秦安井池田町6,Lifecorp,,Japan,"{'brand': 'Lifecorp', 'fascia': 'Lifecorp', 'category': 'Store', 'edit_date': '2025-04-21', 'lat_lon_source': 'website'}",35.01509838000000000000,135.71672100000000000000,ライフウズマサテン,"{'opening_hour': {'Sun': '09:00:00-21:00:00', 'Mon': '09:00:00-21:00:00', 'Tue': '09:00:00-21:00:00', 'Wed': '09:00:00-21:00:00', 'Thur': '09:00:00-21:00:00', 'Fri': '09:00:00-21:00:00', 'Sat': '09:00:00-21:00:00'}}",075-802-5961,616-8081,99372,,https://store.lifecorp.jp/
大阪府大阪市西淀川区歌島2-6-13,Lifecorp,,Japan,"{'brand': 'Lifecorp', 'fascia': 'Lifecorp', 'category': 'Store', 'edit_date': '2025-04-21', 'lat_lon_source': 'website'}",34.71453307000000000000,135.46299250000000000000,ライフウタジマテン,"{'opening_hour': {'Sun': '09:30:00-24:00:00', 'Mon': '09:30:00-24:00:00', 'Tue': '09:30:00-24:00:00', 'Wed': '09:30:00-24:00:00', 'Thur': '09:30:00-24:00:00', 'Fri': '09:30:00-24:00:00', 'Sat': '09:30:00-24:00:00'}}",06-4808-0971,555-0021,99409,,https://store.lifecorp.jp/
東京都大田区鵜の木3丁目24-2,Lifecorp,,Japan,"{'brand': 'Lifecorp', 'fascia': 'Lifecorp', 'category': 'Store', 'edit_date': '2025-04-21', 'lat_lon_source': 'website'}",35.57658996000000000000,139.67770680000000000000,ライフウノキテン,"{'opening_hour': {'Sun': '09:30:00-22:00:00', 'Mon': '09:30:00-22:00:00', 'Tue': '09:30:00-22:00:00', 'Wed': '09:30:00-22:00:00', 'Thur': '09:30:00-22:00:00', 'Fri': '09:30:00-22:00:00', 'Sat': '09:30:00-22:00:00'}}",03-3759-3750,146-0091,99496,,https://store.lifecorp.jp/
東京都足立区梅島1丁目13-12,Lifecorp,,Japan,"{'brand': 'Lifecorp', 'fascia': 'Lifecorp', 'category': 'Store', 'edit_date': '2025-04-21', 'lat_lon_source': 'website'}",35.77315195000000000000,139.79767200000000000000,ライフウメジマエキマエテン,"{'opening_hour': {'Sun': '09:30:00-24:00:00', 'Mon': '09:30:00-24:00:00', 'Tue': '09:30:00-24:00:00', 'Wed': '09:30:00-24:00:00', 'Thur': '09:30:00-24:00:00', 'Fri': '09:30:00-24:00:00', 'Sat': '09:30:00-24:00:00'}}",03-3852-5030,121-0816,99447,,https://store.lifecorp.jp/
京都府京都市右京区梅津南広町50-1,Lifecorp,,Japan,"{'brand': 'Lifecorp', 'fascia': 'Lifecorp', 'category': 'Store', 'edit_date': '2025-04-21', 'lat_lon_source': 'website'}",35.00222095000000000000,135.71328100000000000000,ライフウメヅテン,"{'opening_hour': {'Sun': '09:00:00-21:00:00', 'Mon': '09:00:00-21:00:00', 'Tue': '09:00:00-21:00:00', 'Wed': '09:00:00-21:00:00', 'Thur': '09:00:00-21:00:00', 'Fri': '09:00:00-21:00:00', 'Sat': '09:00:00-21:00:00'}}",075-862-8131,615-0901,99283,,https://store.lifecorp.jp/
大阪府羽曳野市恵我之荘3-1-7,Lifecorp,,Japan,"{'brand': 'Lifecorp', 'fascia': 'Lifecorp', 'category': 'Store', 'edit_date': '2025-04-21', 'lat_lon_source': 'website'}",34.57692460000000000000,135.57296700000000000000,ライフエガノショウテン,"{'opening_hour': {'Sun': '09:00:00-21:00:00', 'Mon': '09:00:00-21:00:00', 'Tue': '09:00:00-21:00:00', 'Wed': '09:00:00-21:00:00', 'Thur': '09:00:00-21:00:00', 'Fri': '09:00:00-21:00:00', 'Sat': '09:00:00-21:00:00'}}",072-955-3563,583-0886,99368,,https://store.lifecorp.jp/
大阪府大阪市東淀川区瑞光4-12-23,Lifecorp,,Japan,"{'brand': 'Lifecorp', 'fascia': 'Lifecorp', 'category': 'Store', 'edit_date': '2025-04-21', 'lat_lon_source': 'website'}",34.75407122000000000000,135.54978910000000000000,ライフエグチテン,"{'opening_hour': {'Sun': '09:00:00-21:00:00', 'Mon': '09:00:00-21:00:00', 'Tue': '09:00:00-21:00:00', 'Wed': '09:00:00-21:00:00', 'Thur': '09:00:00-21:00:00', 'Fri': '09:00:00-21:00:00', 'Sat': '09:00:00-21:00:00'}}",06-6379-0371,533-0005,99326,,https://store.lifecorp.jp/
東京都足立区扇2-26-1,Lifecorp,,Japan,"{'brand': 'Lifecorp', 'fascia': 'Lifecorp', 'category': 'Store', 'edit_date': '2025-04-21', 'lat_lon_source': 'website'}",35.76449235000000000000,139.77012630000000000000,ライフオウギオオハシエキマエテン,"{'opening_hour': {'Sun': '09:30:00-24:00:00', 'Mon': '09:30:00-24:00:00', 'Tue': '09:30:00-24:00:00', 'Wed': '09:30:00-24:00:00', 'Thur': '09:30:00-24:00:00', 'Fri': '09:30:00-24:00:00', 'Sat': '09:30:00-24:00:00'}}",03-3856-2923,123-0873,99410,,https://store.lifecorp.jp/
東京都練馬区東大泉5丁目43-1,Lifecorp,,Japan,"{'brand': 'Lifecorp', 'fascia': 'Lifecorp', 'category': 'Store', 'edit_date': '2025-04-21', 'lat_lon_source': 'website'}",35.74896192000000000000,139.58575750000000000000,ライフオオイズミガクエンエキマエテン,"{'opening_hour': {'Sun': '09:30:00-24:00:00', 'Mon': '09:30:00-24:00:00', 'Tue': '09:30:00-24:00:00', 'Wed': '09:30:00-24:00:00', 'Thur': '09:30:00-24:00:00', 'Fri': '09:30:00-24:00:00', 'Sat': '09:30:00-24:00:00'}}",03-5387-0036,178-0063,99401,,https://store.lifecorp.jp/
神奈川県横浜市神奈川区神之木町7-5,Lifecorp,,Japan,"{'brand': 'Lifecorp', 'fascia': 'Lifecorp', 'category': 'Store', 'edit_date': '2025-04-21', 'lat_lon_source': 'website'}",35.49429641000000000000,139.64842550000000000000,ライフオオクチテン,"{'opening_hour': {'Sun': '09:30:00-24:00:00', 'Mon': '09:30:00-24:00:00', 'Tue': '09:30:00-24:00:00', 'Wed': '09:30:00-24:00:00', 'Thur': '09:30:00-24:00:00', 'Fri': '09:30:00-24:00:00', 'Sat': '09:30:00-24:00:00'}}",045-431-6212,221-0015,99531,,https://store.lifecorp.jp/
神奈川県横浜市港北区大倉山5丁目24-14,Lifecorp,,Japan,"{'brand': 'Lifecorp', 'fascia': 'Lifecorp', 'category': 'Store', 'edit_date': '2025-04-21', 'lat_lon_source': 'website'}",35.52461890000000000000,139.62371380000000000000,ライフオオクラヤマテン,"{'opening_hour': {'Sun': '09:00:00-22:00:00', 'Mon': '09:00:00-22:00:00', 'Tue': '09:00:00-22:00:00', 'Wed': '09:00:00-22:00:00', 'Thur': '09:00:00-22:00:00', 'Fri': '09:00:00-22:00:00', 'Sat': '09:00:00-22:00:00'}}",045-532-2461,222-0037,99557,,https://store.lifecorp.jp/
東京都品川区大崎1丁目6-4 5号館,Lifecorp,,Japan,"{'brand': 'Lifecorp', 'fascia': 'Lifecorp', 'category': 'Store', 'edit_date': '2025-04-21', 'lat_lon_source': 'website'}",35.62025218000000000000,139.72915120000000000000,ライフオオサキニューシティテン,"{'opening_hour': {'Sun': '09:30:00-23:00:00', 'Mon': '09:30:00-23:00:00', 'Tue': '09:30:00-23:00:00', 'Wed': '09:30:00-23:00:00', 'Thur': '09:30:00-23:00:00', 'Fri': '09:30:00-23:00:00', 'Sat': '09:30:00-23:00:00'}}",03-5434-3202,141-0032,99470,,https://store.lifecorp.jp/
東京都品川区大崎4丁目13-2,Lifecorp,,Japan,"{'brand': 'Lifecorp', 'fascia': 'Lifecorp', 'category': 'Store', 'edit_date': '2025-04-21', 'lat_lon_source': 'website'}",35.61814399000000000000,139.71902200000000000000,ライフオオサキヒャクタンドオリテン,"{'opening_hour': {'Sun': '09:30:00-24:00:00', 'Mon': '09:30:00-24:00:00', 'Tue': '09:30:00-24:00:00', 'Wed': '09:30:00-24:00:00', 'Thur': '09:30:00-24:00:00', 'Fri': '09:30:00-24:00:00', 'Sat': '09:30:00-24:00:00'}}",03-5436-5601,141-0032,99493,,https://store.lifecorp.jp/
東京都足立区大谷田5丁目18-11,Lifecorp,,Japan,"{'brand': 'Lifecorp', 'fascia': 'Lifecorp', 'category': 'Store', 'edit_date': '2025-04-21', 'lat_lon_source': 'website'}",35.78329445000000000000,139.84163240000000000000,ライフオオタニダテン,"{'opening_hour': {'Sun': '09:00:00-22:00:00', 'Mon': '09:30:00-22:00:00', 'Tue': '09:30:00-22:00:00', 'Wed': '09:30:00-22:00:00', 'Thur': '09:30:00-22:00:00', 'Fri': '09:30:00-22:00:00', 'Sat': '09:00:00-22:00:00'}}",03-3620-0980,120-0001,99568,,https://store.lifecorp.jp/
東京都大田区大森中1丁目21-7,Lifecorp,,Japan,"{'brand': 'Lifecorp', 'fascia': 'Lifecorp', 'category': 'Store', 'edit_date': '2025-04-21', 'lat_lon_source': 'website'}",35.56911264000000000000,139.73482910000000000000,ライフオオモリナカテン,"{'opening_hour': {'Sun': '09:30:00-24:00:00', 'Mon': '09:30:00-24:00:00', 'Tue': '09:30:00-24:00:00', 'Wed': '09:30:00-24:00:00', 'Thur': '09:30:00-24:00:00', 'Fri': '09:30:00-24:00:00', 'Sat': '09:30:00-24:00:00'}}",03-3764-8197,143-0014,99405,,https://store.lifecorp.jp/
東京都大田区大森南2丁目15-4,Lifecorp,,Japan,"{'brand': 'Lifecorp', 'fascia': 'Lifecorp', 'category': 'Store', 'edit_date': '2025-04-21', 'lat_lon_source': 'website'}",35.56258627000000000000,139.74074990000000000000,ライフオオモリミナミテン,"{'opening_hour': {'Sun': '09:00:00-21:30:00', 'Mon': '09:00:00-21:30:00', 'Tue': '09:00:00-21:30:00', 'Wed': '09:00:00-21:30:00', 'Thur': '09:00:00-21:30:00', 'Fri': '09:00:00-21:30:00', 'Sat': '09:00:00-21:30:00'}}",03-5705-8201,143-0013,99546,,https://store.lifecorp.jp/
奈良県吉野郡大淀町土田243-1,Lifecorp,,Japan,"{'brand': 'Lifecorp', 'fascia': 'Lifecorp', 'category': 'Store', 'edit_date': '2025-04-21', 'lat_lon_source': 'website'}",34.38878464000000000000,135.79738790000000000000,ライフオオヨドテン,"{'opening_hour': {'Sun': '09:00:00-21:00:00', 'Mon': '09:00:00-21:00:00', 'Tue': '09:00:00-21:00:00', 'Wed': '09:00:00-21:00:00', 'Thur': '09:00:00-21:00:00', 'Fri': '09:00:00-21:00:00', 'Sat': '09:00:00-21:00:00'}}",0747-52-7271,638-0811,99387,,https://store.lifecorp.jp/
大阪府大阪市北区大淀中3-18-22,Lifecorp,,Japan,"{'brand': 'Lifecorp', 'fascia': 'Lifecorp', 'category': 'Store', 'edit_date': '2025-04-21', 'lat_lon_source': 'website'}",34.70643098000000000000,135.48594340000000000000,ライフオオヨドナカテン,"{'opening_hour': {'Sun': '09:30:00-24:00:00', 'Mon': '09:30:00-24:00:00', 'Tue': '09:30:00-24:00:00', 'Wed': '09:30:00-24:00:00', 'Thur': '09:30:00-24:00:00', 'Fri': '09:30:00-24:00:00', 'Sat': '09:30:00-24:00:00'}}",06-6345-0121,531-0076,99392,,https://store.lifecorp.jp/
大阪府豊中市中桜塚2-2-5,Lifecorp,,Japan,"{'brand': 'Lifecorp', 'fascia': 'Lifecorp', 'category': 'Store', 'edit_date': '2025-04-21', 'lat_lon_source': 'website'}",34.78004410000000000000,135.46728160000000000000,ライフオカマチテン,"{'opening_hour': {'Sun': '09:00:00-21:00:00', 'Mon': '09:00:00-21:00:00', 'Tue': '09:00:00-21:00:00', 'Wed': '09:00:00-21:00:00', 'Thur': '09:00:00-21:00:00', 'Fri': '09:00:00-21:00:00', 'Sat': '09:00:00-21:00:00'}}",06-6853-0274,561-0881,99444,,https://store.lifecorp.jp/
東京都葛飾区奥戸2-14-25,Lifecorp,,Japan,"{'brand': 'Lifecorp', 'fascia': 'Lifecorp', 'category': 'Store', 'edit_date': '2025-04-21', 'lat_lon_source': 'website'}",35.73613105000000000000,139.85694090000000000000,ライフオクドカイドウテン,"{'opening_hour': {'Sun': '09:30:00-21:00:00', 'Mon': '09:30:00-21:00:00', 'Tue': '09:30:00-21:00:00', 'Wed': '09:30:00-21:00:00', 'Thur': '09:30:00-21:00:00', 'Fri': '09:30:00-21:00:00', 'Sat': '09:30:00-21:00:00'}}",03-5670-1170,124-0022,99534,,https://store.lifecorp.jp/
東京都葛飾区奥戸3丁目23-19,Lifecorp,,Japan,"{'brand': 'Lifecorp', 'fascia': 'Lifecorp', 'category': 'Store', 'edit_date': '2025-04-21', 'lat_lon_source': 'website'}",35.73082071000000000000,139.86292140000000000000,ライフオクドテン,"{'opening_hour': {'Sun': '09:30:00-24:00:00', 'Mon': '09:30:00-24:00:00', 'Tue': '09:30:00-24:00:00', 'Wed': '09:30:00-24:00:00', 'Thur': '09:30:00-24:00:00', 'Fri': '09:30:00-24:00:00', 'Sat': '09:30:00-24:00:00'}}",03-5698-3181,124-0022,99424,,https://store.lifecorp.jp/
東京都豊島区南長崎4-5-20,Lifecorp,,Japan,"{'brand': 'Lifecorp', 'fascia': 'Lifecorp', 'category': 'Store', 'edit_date': '2025-04-21', 'lat_lon_source': 'website'}",35.72434441000000000000,139.68264090000000000000,ライフオチアイミナミナガサキエキマエテン,"{'opening_hour': {'Sun': '09:30:00-24:00:00', 'Mon': '09:30:00-24:00:00', 'Tue': '09:30:00-24:00:00', 'Wed': '09:30:00-24:00:00', 'Thur': '09:30:00-24:00:00', 'Fri': '09:30:00-24:00:00', 'Sat': '09:30:00-24:00:00'}}",03-3565-3261,171-0052,99567,,https://store.lifecorp.jp/
京都府八幡市男山吉井2-4,Lifecorp,,Japan,"{'brand': 'Lifecorp', 'fascia': 'Lifecorp', 'category': 'Store', 'edit_date': '2025-04-21', 'lat_lon_source': 'website'}",34.86199120000000000000,135.69962840000000000000,ライフオトコヤマテン,"{'opening_hour': {'Sun': '09:30:00-20:00:00', 'Mon': '09:30:00-20:00:00', 'Tue': '09:30:00-20:00:00', 'Wed': '09:30:00-20:00:00', 'Thur': '09:30:00-20:00:00', 'Fri': '09:30:00-20:00:00', 'Sat': '09:30:00-20:00:00'}}",075-983-5201,614-8363,99284,,https://store.lifecorp.jp/
大阪府大阪市住之江区中加賀屋4-6-28,Lifecorp,,Japan,"{'brand': 'Lifecorp', 'fascia': 'Lifecorp', 'category': 'Store', 'edit_date': '2025-04-21', 'lat_lon_source': 'website'}",34.61478664000000000000,135.47989190000000000000,ライフカガヤテン,"{'opening_hour': {'Sun': '09:00:00-24:00:00', 'Mon': '09:00:00-24:00:00', 'Tue': '09:00:00-24:00:00', 'Wed': '09:00:00-24:00:00', 'Thur': '09:00:00-24:00:00', 'Fri': '09:00:00-24:00:00', 'Sat': '09:00:00-24:00:00'}}",06-6686-5501,559-0017,99334,,https://store.lifecorp.jp/
兵庫県神戸市中央区北本町通1-1-23,Lifecorp,,Japan,"{'brand': 'Lifecorp', 'fascia': 'Lifecorp', 'category': 'Store', 'edit_date': '2025-04-21', 'lat_lon_source': 'website'}",34.69858635000000000000,135.20835520000000000000,ライフカスガノミチテン,"{'opening_hour': {'Sun': '09:30:00-24:00:00', 'Mon': '09:30:00-24:00:00', 'Tue': '09:30:00-24:00:00', 'Wed': '09:30:00-24:00:00', 'Thur': '09:30:00-24:00:00', 'Fri': '09:30:00-24:00:00', 'Sat': '09:30:00-24:00:00'}}",078-222-4101,651-0075,99271,,https://store.lifecorp.jp/
東京都中央区勝どき4丁目6,Lifecorp,,Japan,"{'brand': 'Lifecorp', 'fascia': 'Lifecorp', 'category': 'Store', 'edit_date': '2025-04-21', 'lat_lon_source': 'website'}",35.65716475000000000000,139.77771280000000000000,ライフカチドキミッドテン,"{'opening_hour': {'Sun': '09:30:00-23:00:00', 'Mon': '09:30:00-23:00:00', 'Tue': '09:30:00-23:00:00', 'Wed': '09:30:00-23:00:00', 'Thur': '09:30:00-23:00:00', 'Fri': '09:30:00-23:00:00', 'Sat': '09:30:00-23:00:00'}}",03-5166-7851,104-0054,99572,,https://store.lifecorp.jp/
東京都葛飾区鎌倉1-14-7,Lifecorp,,Japan,"{'brand': 'Lifecorp', 'fascia': 'Lifecorp', 'category': 'Store', 'edit_date': '2025-04-21', 'lat_lon_source': 'website'}",35.74179264000000000000,139.87801170000000000000,ライフカツシカカマクラテン,"{'opening_hour': {'Sun': '09:00:00-22:00:00', 'Mon': '09:00:00-22:00:00', 'Tue': '09:00:00-22:00:00', 'Wed': '09:00:00-22:00:00', 'Thur': '09:00:00-22:00:00', 'Fri': '09:00:00-22:00:00', 'Sat': '09:00:00-22:00:00'}}",03-5668-1730,125-0053,99540,,https://store.lifecorp.jp/
東京都葛飾区白鳥3丁目27-8,Lifecorp,,Japan,"{'brand': 'Lifecorp', 'fascia': 'Lifecorp', 'category': 'Store', 'edit_date': '2025-04-21', 'lat_lon_source': 'website'}",35.75351162000000000000,139.84455590000000000000,ライフカツシカシロトリテン,"{'opening_hour': {'Sun': '09:30:00-22:00:00', 'Mon': '09:30:00-22:00:00', 'Tue': '09:30:00-22:00:00', 'Wed': '09:30:00-22:00:00', 'Thur': '09:30:00-22:00:00', 'Fri': '09:30:00-22:00:00', 'Sat': '09:30:00-22:00:00'}}",03-5680-5831,125-0063,99542,,https://store.lifecorp.jp/
大阪府門真市島頭3-4-1,Lifecorp,,Japan,"{'brand': 'Lifecorp', 'fascia': 'Lifecorp', 'category': 'Store', 'edit_date': '2025-04-21', 'lat_lon_source': 'website'}",34.73112427000000000000,135.60806030000000000000,ライフカドマテン,"{'opening_hour': {'Sun': '09:00:00-21:00:00', 'Mon': '09:00:00-21:00:00', 'Tue': '09:00:00-21:00:00', 'Wed': '09:00:00-21:00:00', 'Thur': '09:00:00-21:00:00', 'Fri': '09:00:00-21:00:00', 'Sat': '09:00:00-21:00:00'}}",072-885-8221,571-0016,99362,,https://store.lifecorp.jp/
神奈川県鎌倉市岡本1188-1,Lifecorp,,Japan,"{'brand': 'Lifecorp', 'fascia': 'Lifecorp', 'category': 'Store', 'edit_date': '2025-04-21', 'lat_lon_source': 'website'}",35.34722217000000000000,139.51686400000000000000,ライフカマクラオオフナモールテン,"{'opening_hour': {'Sun': '09:00:00-22:00:00', 'Mon': '09:00:00-22:00:00', 'Tue': '09:00:00-22:00:00', 'Wed': '09:00:00-22:00:00', 'Thur': '09:00:00-22:00:00', 'Fri': '09:00:00-22:00:00', 'Sat': '09:00:00-22:00:00'}}",0467-48-6130,247-0072,99538,,https://store.lifecorp.jp/
東京都大田区上池台4-40-5,Lifecorp,,Japan,"{'brand': 'Lifecorp', 'fascia': 'Lifecorp', 'category': 'Store', 'edit_date': '2025-04-21', 'lat_lon_source': 'website'}",35.59502553000000000000,139.70025990000000000000,ライフカミイケダイテン,"{'opening_hour': {'Sun': '09:00:00-22:00:00', 'Mon': '09:30:00-22:00:00', 'Tue': '09:30:00-22:00:00', 'Wed': '09:30:00-22:00:00', 'Thur': '09:30:00-22:00:00', 'Fri': '09:30:00-22:00:00', 'Sat': '09:00:00-22:00:00'}}",03-3727-3051,145-0064,99515,,https://store.lifecorp.jp/
神奈川県相模原市南区上鶴間1丁目16-2,Lifecorp,,Japan,"{'brand': 'Lifecorp', 'fascia': 'Lifecorp', 'category': 'Store', 'edit_date': '2025-04-21', 'lat_lon_source': 'website'}",35.52501928000000000000,139.44583960000000000000,ライフカミツルマテン,"{'opening_hour': {'Sun': '09:00:00-22:00:00', 'Mon': '09:00:00-22:00:00', 'Tue': '09:00:00-22:00:00', 'Wed': '09:00:00-22:00:00', 'Thur': '09:00:00-22:00:00', 'Fri': '09:00:00-22:00:00', 'Sat': '09:00:00-22:00:00'}}",042-747-7720,252-0302,99527,,https://store.lifecorp.jp/
東京都江東区亀戸6丁目31-6ｶﾒｲﾄﾞｸﾛｯｸ地下 1階,Lifecorp,,Japan,"{'brand': 'Lifecorp', 'fascia': 'Lifecorp', 'category': 'Store', 'edit_date': '2025-04-21', 'lat_lon_source': 'website'}",35.69533511000000000000,139.82922490000000000000,ライフカメイドクロックテン,"{'opening_hour': {'Sun': '09:30:00-24:00:00', 'Mon': '09:30:00-24:00:00', 'Tue': '09:30:00-24:00:00', 'Wed': '09:30:00-24:00:00', 'Thur': '09:30:00-24:00:00', 'Fri': '09:30:00-24:00:00', 'Sat': '09:30:00-24:00:00'}}",03-5626-2001,136-0071,99483,,https://store.lifecorp.jp/
東京都江東区亀戸9-24-17,Lifecorp,,Japan,"{'brand': 'Lifecorp', 'fascia': 'Lifecorp', 'category': 'Store', 'edit_date': '2025-04-21', 'lat_lon_source': 'website'}",35.69776676000000000000,139.84116610000000000000,ライフカメイドテン,"{'opening_hour': {'Sun': '09:00:00-22:00:00', 'Mon': '09:00:00-22:00:00', 'Tue': '09:00:00-22:00:00', 'Wed': '09:00:00-22:00:00', 'Thur': '09:00:00-22:00:00', 'Fri': '09:00:00-22:00:00', 'Sat': '09:00:00-22:00:00'}}",03-5609-6160,136-0071,99544,,https://store.lifecorp.jp/
大阪府大阪市中央区谷町6-14-24,Lifecorp,,Japan,"{'brand': 'Lifecorp', 'fascia': 'Lifecorp', 'category': 'Store', 'edit_date': '2025-04-21', 'lat_lon_source': 'website'}",34.67422878000000000000,135.51406440000000000000,ライフカラホリテン,"{'opening_hour': {'Sun': '09:30:00-24:00:00', 'Mon': '09:30:00-24:00:00', 'Tue': '09:30:00-24:00:00', 'Wed': '09:30:00-24:00:00', 'Thur': '09:30:00-24:00:00', 'Fri': '09:30:00-24:00:00', 'Sat': '09:30:00-24:00:00'}}",06-6765-8061,542-0012,99386,,https://store.lifecorp.jp/
神奈川県川崎市川崎区大島4-3-1,Lifecorp,,Japan,"{'brand': 'Lifecorp', 'fascia': 'Lifecorp', 'category': 'Store', 'edit_date': '2025-04-21', 'lat_lon_source': 'website'}",35.52397344000000000000,139.71373130000000000000,ライフカワサキオオシマテン,"{'opening_hour': {'Sun': '09:00:00-24:00:00', 'Mon': '09:00:00-24:00:00', 'Tue': '09:00:00-24:00:00', 'Wed': '09:00:00-24:00:00', 'Thur': '09:00:00-24:00:00', 'Fri': '09:00:00-24:00:00', 'Sat': '09:00:00-24:00:00'}}",044-222-2772,210-0834,99569,,https://store.lifecorp.jp/
神奈川県川崎市川崎区京町3丁目21-1,Lifecorp,,Japan,"{'brand': 'Lifecorp', 'fascia': 'Lifecorp', 'category': 'Store', 'edit_date': '2025-04-21', 'lat_lon_source': 'website'}",35.50788145000000000000,139.69802970000000000000,ライフカワサキキョウマチテン,"{'opening_hour': {'Sun': '09:00:00-22:00:00', 'Mon': '09:00:00-22:00:00', 'Tue': '09:00:00-22:00:00', 'Wed': '09:00:00-22:00:00', 'Thur': '09:00:00-22:00:00', 'Fri': '09:00:00-22:00:00', 'Sat': '09:00:00-22:00:00'}}",044-322-3170,210-0848,99475,,https://store.lifecorp.jp/
神奈川県川崎市川崎区桜本2-16-1,Lifecorp,,Japan,"{'brand': 'Lifecorp', 'fascia': 'Lifecorp', 'category': 'Store', 'edit_date': '2025-04-21', 'lat_lon_source': 'website'}",35.52118352000000000000,139.72352500000000000000,ライフカワサキサクラホンテン,"{'opening_hour': {'Sun': '09:00:00-21:30:00', 'Mon': '09:00:00-21:30:00', 'Tue': '09:00:00-21:30:00', 'Wed': '09:00:00-21:30:00', 'Thur': '09:00:00-21:30:00', 'Fri': '09:00:00-21:30:00', 'Sat': '09:00:00-21:30:00'}}",044-287-8801,210-0833,99521,,https://store.lifecorp.jp/
神奈川県川崎市幸区塚越4-298-1,Lifecorp,,Japan,"{'brand': 'Lifecorp', 'fascia': 'Lifecorp', 'category': 'Store', 'edit_date': '2025-04-21', 'lat_lon_source': 'website'}",35.54230599000000000000,139.68380020000000000000,ライフカワサキツカゴシテン,"{'opening_hour': {'Sun': '09:00:00-22:00:00', 'Mon': '09:00:00-22:00:00', 'Tue': '09:00:00-22:00:00', 'Wed': '09:00:00-22:00:00', 'Thur': '09:00:00-22:00:00', 'Fri': '09:00:00-22:00:00', 'Sat': '09:00:00-22:00:00'}}",044-544-3721,2120024,99519,,https://store.lifecorp.jp/
神奈川県川崎市幸区小向西町4丁目93,Lifecorp,,Japan,"{'brand': 'Lifecorp', 'fascia': 'Lifecorp', 'category': 'Store', 'edit_date': '2025-04-21', 'lat_lon_source': 'website'}",35.54708680000000000000,139.68671310000000000000,ライフカワサキミユキテン,"{'opening_hour': {'Sun': '09:00:00-22:00:00', 'Mon': '09:00:00-22:00:00', 'Tue': '09:00:00-22:00:00', 'Wed': '09:00:00-22:00:00', 'Thur': '09:00:00-22:00:00', 'Fri': '09:00:00-22:00:00', 'Sat': '09:00:00-22:00:00'}}",044-511-1301,212-0004,99495,,https://store.lifecorp.jp/
神奈川県川崎市川崎区日進町1-11 川崎ﾙﾌﾛﾝ 1F,Lifecorp,,Japan,"{'brand': 'Lifecorp', 'fascia': 'Lifecorp', 'category': 'Store', 'edit_date': '2025-04-21', 'lat_lon_source': 'website'}",35.52968199000000000000,139.69643730000000000000,ライフカワサキルフロンテン,"{'opening_hour': {'Sun': '09:00:00-24:00:00', 'Mon': '09:00:00-24:00:00', 'Tue': '09:00:00-24:00:00', 'Wed': '09:00:00-24:00:00', 'Thur': '09:00:00-24:00:00', 'Fri': '09:00:00-24:00:00', 'Sat': '09:00:00-24:00:00'}}",044-245-4600,210-0024,99453,,https://store.lifecorp.jp/
京都府京都市左京区吉田河原町1番1,Lifecorp,,Japan,"{'brand': 'Lifecorp', 'fascia': 'Lifecorp', 'category': 'Store', 'edit_date': '2025-04-21', 'lat_lon_source': 'website'}",35.02549411000000000000,135.77318660000000000000,ライフカワバタヒガシイチジョウテン,"{'opening_hour': {'Sun': '09:30:00-22:00:00', 'Mon': '09:30:00-22:00:00', 'Tue': '09:30:00-22:00:00', 'Wed': '09:30:00-22:00:00', 'Thur': '09:30:00-22:00:00', 'Fri': '09:30:00-22:00:00', 'Sat': '09:30:00-22:00:00'}}",075-771-1320,606-8305,99420,,https://store.lifecorp.jp/
東京都千代田区神田和泉町2-13,Lifecorp,,Japan,"{'brand': 'Lifecorp', 'fascia': 'Lifecorp', 'category': 'Store', 'edit_date': '2025-04-21', 'lat_lon_source': 'website'}",35.69986940000000000000,139.78015930000000000000,ライフカンダイズミチョウテン,"{'opening_hour': {'Sun': '09:30:00-24:00:00', 'Mon': '09:30:00-24:00:00', 'Tue': '09:30:00-24:00:00', 'Wed': '09:30:00-24:00:00', 'Thur': '09:30:00-24:00:00', 'Fri': '09:30:00-24:00:00', 'Sat': '09:30:00-24:00:00'}}",03-3863-1321,101-0024,99500,,https://store.lifecorp.jp/
東京都墨田区菊川1丁目18-5,Lifecorp,,Japan,"{'brand': 'Lifecorp', 'fascia': 'Lifecorp', 'category': 'Store', 'edit_date': '2025-04-21', 'lat_lon_source': 'website'}",35.69005710000000000000,139.80214300000000000000,ライフキクガワテン,"{'opening_hour': {'Sun': '09:30:00-24:00:00', 'Mon': '09:30:00-24:00:00', 'Tue': '09:30:00-24:00:00', 'Wed': '09:30:00-24:00:00', 'Thur': '09:30:00-24:00:00', 'Fri': '09:30:00-24:00:00', 'Sat': '09:30:00-24:00:00'}}",03-3846-8171,130-0024,99530,,https://store.lifecorp.jp/
大阪府吹田市原町4-21-58,Lifecorp,,Japan,"{'brand': 'Lifecorp', 'fascia': 'Lifecorp', 'category': 'Store', 'edit_date': '2025-04-21', 'lat_lon_source': 'website'}",34.77639404000000000000,135.53166400000000000000,ライフキシベテン,"{'opening_hour': {'Sun': '09:30:00-24:00:00', 'Mon': '09:30:00-24:00:00', 'Tue': '09:30:00-24:00:00', 'Wed': '09:30:00-24:00:00', 'Thur': '09:30:00-24:00:00', 'Fri': '09:30:00-24:00:00', 'Sat': '09:30:00-24:00:00'}}",06-6330-0101,564-0004,99412,,https://store.lifecorp.jp/
東京都北区浮間3丁目2-9,Lifecorp,,Japan,"{'brand': 'Lifecorp', 'fascia': 'Lifecorp', 'category': 'Store', 'edit_date': '2025-04-21', 'lat_lon_source': 'website'}",35.78788947000000000000,139.70446080000000000000,ライフキタアカバネテン,"{'opening_hour': {'Sun': '09:30:00-24:00:00', 'Mon': '09:30:00-24:00:00', 'Tue': '09:30:00-24:00:00', 'Wed': '09:30:00-24:00:00', 'Thur': '09:30:00-24:00:00', 'Fri': '09:30:00-24:00:00', 'Sat': '09:30:00-24:00:00'}}",03-5392-5751,115-0051,99501,,https://store.lifecorp.jp/
埼玉県越谷市北越谷2丁目38-8,Lifecorp,,Japan,"{'brand': 'Lifecorp', 'fascia': 'Lifecorp', 'category': 'Store', 'edit_date': '2025-04-21', 'lat_lon_source': 'website'}",35.89990430000000000000,139.77532250000000000000,ライフキタコシガヤテン,"{'opening_hour': {'Sun': '09:30:00-21:30:00', 'Mon': '09:30:00-21:30:00', 'Tue': '09:30:00-21:30:00', 'Wed': '09:30:00-21:30:00', 'Thur': '09:30:00-21:30:00', 'Fri': '09:30:00-21:30:00', 'Sat': '09:30:00-21:30:00'}}",048-977-1231,343-0026,99576,,https://store.lifecorp.jp/
京都府京都市左京区一乗寺塚本町111,Lifecorp,,Japan,"{'brand': 'Lifecorp', 'fascia': 'Lifecorp', 'category': 'Store', 'edit_date': '2025-04-21', 'lat_lon_source': 'website'}",35.03796672000000000000,135.79155170000000000000,ライフキタシラカワテン,"{'opening_hour': {'Sun': '09:00:00-21:30:00', 'Mon': '09:00:00-21:30:00', 'Tue': '09:00:00-21:30:00', 'Wed': '09:00:00-21:30:00', 'Thur': '09:00:00-21:30:00', 'Fri': '09:00:00-21:30:00', 'Sat': '09:00:00-21:30:00'}}",075-706-7800,606-8176,99322,,https://store.lifecorp.jp/
大阪府堺市東区北野田15-1,Lifecorp,,Japan,"{'brand': 'Lifecorp', 'fascia': 'Lifecorp', 'category': 'Store', 'edit_date': '2025-04-21', 'lat_lon_source': 'website'}",34.52323980000000000000,135.54375290000000000000,ライフキタノダテン,"{'opening_hour': {'Sun': '09:00:00-21:00:00', 'Mon': '09:00:00-21:00:00', 'Tue': '09:00:00-21:00:00', 'Wed': '09:00:00-21:00:00', 'Thur': '09:00:00-21:00:00', 'Fri': '09:00:00-21:00:00', 'Sat': '09:00:00-21:00:00'}}",072-236-3688,599-8123,99380,,https://store.lifecorp.jp/
東京都武蔵野市吉祥寺南町二丁目3-15,Lifecorp,,Japan,"{'brand': 'Lifecorp', 'fascia': 'Lifecorp', 'category': 'Store', 'edit_date': '2025-04-21', 'lat_lon_source': 'website'}",35.70268335000000000000,139.58083110000000000000,ライフキチジョウジテン,"{'opening_hour': {'Sun': '10:00:00-24:00:00', 'Mon': '10:00:00-24:00:00', 'Tue': '10:00:00-24:00:00', 'Wed': '10:00:00-24:00:00', 'Thur': '10:00:00-24:00:00', 'Fri': '10:00:00-24:00:00', 'Sat': '10:00:00-24:00:00'}}",0422-47-8830,1800003,103665,,https://store.lifecorp.jp/
東京都調布市菊野台1丁目33-3,Lifecorp,,Japan,"{'brand': 'Lifecorp', 'fascia': 'Lifecorp', 'category': 'Store', 'edit_date': '2025-04-21', 'lat_lon_source': 'website'}",35.65720005000000000000,139.56796870000000000000,ライフキテラタウンチョウフテン,"{'opening_hour': {'Sun': '09:30:00-23:00:00', 'Mon': '09:30:00-23:00:00', 'Tue': '09:30:00-23:00:00', 'Wed': '09:30:00-23:00:00', 'Thur': '09:30:00-23:00:00', 'Fri': '09:30:00-23:00:00', 'Sat': '09:30:00-23:00:00'}}",042-486-7211,182-0007,99432,,https://store.lifecorp.jp/
神奈川県横浜市旭区中希望が丘177-1,Lifecorp,,Japan,"{'brand': 'Lifecorp', 'fascia': 'Lifecorp', 'category': 'Store', 'edit_date': '2025-04-21', 'lat_lon_source': 'website'}",35.46023312000000000000,139.50994570000000000000,ライフキボウガオカテン,"{'opening_hour': {'Sun': '09:00:00-22:00:00', 'Mon': '09:00:00-22:00:00', 'Tue': '09:00:00-22:00:00', 'Wed': '09:00:00-22:00:00', 'Thur': '09:00:00-22:00:00', 'Fri': '09:00:00-22:00:00', 'Sat': '09:00:00-22:00:00'}}",045-366-4660,241-0825,99532,,https://store.lifecorp.jp/
大阪府八尾市龍華町1-4-3,Lifecorp,,Japan,"{'brand': 'Lifecorp', 'fascia': 'Lifecorp', 'category': 'Store', 'edit_date': '2025-04-21', 'lat_lon_source': 'website'}",34.62110075000000000000,135.58463510000000000000,ライフキュウホウジエキマエテン,"{'opening_hour': {'Sun': '09:30:00-24:00:00', 'Mon': '09:30:00-24:00:00', 'Tue': '09:30:00-24:00:00', 'Wed': '09:30:00-24:00:00', 'Thur': '09:30:00-24:00:00', 'Fri': '09:30:00-24:00:00', 'Sat': '09:30:00-24:00:00'}}",072-991-0300,581-0069,99408,,https://store.lifecorp.jp/
東京都世田谷区経堂5丁目32-6,Lifecorp,,Japan,"{'brand': 'Lifecorp', 'fascia': 'Lifecorp', 'category': 'Store', 'edit_date': '2025-04-21', 'lat_lon_source': 'website'}",35.64803750000000000000,139.63232750000000000000,ライフキョウドウテン,"{'opening_hour': {'Sun': '09:00:00-24:00:00', 'Mon': '09:30:00-24:00:00', 'Tue': '09:30:00-24:00:00', 'Wed': '09:30:00-24:00:00', 'Thur': '09:30:00-24:00:00', 'Fri': '09:30:00-24:00:00', 'Sat': '09:00:00-24:00:00'}}",03-3706-2011,156-0052,99478,,https://store.lifecorp.jp/
大阪府大阪市城東区蒲生1-9-10,Lifecorp,,Japan,"{'brand': 'Lifecorp', 'fascia': 'Lifecorp', 'category': 'Store', 'edit_date': '2025-04-21', 'lat_lon_source': 'website'}",34.69919620000000000000,135.53718380000000000000,ライフキョウバシテン,"{'opening_hour': {'Sat': '09:30:00-24:00:00', 'Sun': '09:30:00-24:00:00', 'Mon': '09:30:00-24:00:00', 'Tue': '09:30:00-24:00:00', 'Wed': '09:30:00-24:00:00', 'Thur': '09:30:00-24:00:00', 'Fri': '09:30:00-24:00:00'}}",06-6931-2611,536-0016,99339,,https://store.lifecorp.jp/
大阪府大阪市平野区喜連西6-2-34,Lifecorp,,Japan,"{'brand': 'Lifecorp', 'fascia': 'Lifecorp', 'category': 'Store', 'edit_date': '2025-04-21', 'lat_lon_source': 'website'}",34.60959355000000000000,135.54867370000000000000,ライフキレウリワリテン,"{'opening_hour': {'Sun': '09:00:00-24:00:00', 'Mon': '09:00:00-24:00:00', 'Tue': '09:00:00-24:00:00', 'Wed': '09:00:00-24:00:00', 'Thur': '09:00:00-24:00:00', 'Fri': '09:00:00-24:00:00', 'Sat': '09:00:00-24:00:00'}}",06-6705-3701,547-0026,99474,,https://store.lifecorp.jp/
東京都墨田区錦糸2丁目2-1ｱﾙｶｷｯﾄ錦糸町 地下1階,Lifecorp,,Japan,"{'brand': 'Lifecorp', 'fascia': 'Lifecorp', 'category': 'Store', 'edit_date': '2025-04-21', 'lat_lon_source': 'website'}",35.69731436000000000000,139.81242720000000000000,ライフキンシチョウエキマエテン,"{'opening_hour': {'Sun': '09:30:00-23:00:00', 'Mon': '09:30:00-23:00:00', 'Tue': '09:30:00-23:00:00', 'Wed': '09:30:00-23:00:00', 'Thur': '09:30:00-23:00:00', 'Fri': '09:30:00-23:00:00', 'Sat': '09:30:00-23:00:00'}}",03-5608-8251,130-0013,99548,,https://store.lifecorp.jp/
大阪府大阪市東住吉区杭全5-11-7,Lifecorp,,Japan,"{'brand': 'Lifecorp', 'fascia': 'Lifecorp', 'category': 'Store', 'edit_date': '2025-04-21', 'lat_lon_source': 'website'}",34.63323050000000000000,135.53746870000000000000,ライフクマタテン,"{'opening_hour': {'Sun': '09:00:00-24:00:00', 'Mon': '09:00:00-24:00:00', 'Tue': '09:00:00-24:00:00', 'Wed': '09:00:00-24:00:00', 'Thur': '09:00:00-24:00:00', 'Fri': '09:00:00-24:00:00', 'Sat': '09:00:00-24:00:00'}}",06-6713-0601,546-0002,99492,,https://store.lifecorp.jp/
神奈川県横浜市栄区笠間2丁目2-1ｸﾞﾗﾝｼｯﾌﾟ B1F,Lifecorp,,Japan,"{'brand': 'Lifecorp', 'fascia': 'Lifecorp', 'category': 'Store', 'edit_date': '2025-04-21', 'lat_lon_source': 'website'}",35.35511241000000000000,139.53325150000000000000,ライフグランシップオオフナエキマエテン,"{'opening_hour': {'Sun': '09:30:00-23:00:00', 'Mon': '09:30:00-23:00:00', 'Tue': '09:30:00-23:00:00', 'Wed': '09:30:00-23:00:00', 'Thur': '09:30:00-23:00:00', 'Fri': '09:30:00-23:00:00', 'Sat': '09:30:00-23:00:00'}}",045-895-2510,247-0006,99573,,https://store.lifecorp.jp/
東京都大田区蒲田4丁目10-14あすとｳｨｽﾞ1階-2階,Lifecorp,,Japan,"{'brand': 'Lifecorp', 'fascia': 'Lifecorp', 'category': 'Store', 'edit_date': '2025-04-21', 'lat_lon_source': 'website'}",35.56151529000000000000,139.72366780000000000000,ライフケイキュウカマタエキマエテン,"{'opening_hour': {'Sun': '09:30:00-24:00:00', 'Mon': '09:30:00-24:00:00', 'Tue': '09:30:00-24:00:00', 'Wed': '09:30:00-24:00:00', 'Thur': '09:30:00-24:00:00', 'Fri': '09:30:00-24:00:00', 'Sat': '09:30:00-24:00:00'}}",03-3733-5611,144-0052,99536,,https://store.lifecorp.jp/
大阪府大阪市都島区毛馬町2-2-8,Lifecorp,,Japan,"{'brand': 'Lifecorp', 'fascia': 'Lifecorp', 'category': 'Store', 'edit_date': '2025-04-21', 'lat_lon_source': 'website'}",34.72084252000000000000,135.52472850000000000000,ライフケマテン,"{'opening_hour': {'Sun': '09:30:00-24:00:00', 'Mon': '09:30:00-24:00:00', 'Tue': '09:30:00-24:00:00', 'Wed': '09:30:00-24:00:00', 'Thur': '09:30:00-24:00:00', 'Fri': '09:30:00-24:00:00', 'Sat': '09:30:00-24:00:00'}}",06-6927-1101,534-0001,99490,,https://store.lifecorp.jp/
兵庫県西宮市甲子園口3-15-16,Lifecorp,,Japan,"{'brand': 'Lifecorp', 'fascia': 'Lifecorp', 'category': 'Store', 'edit_date': '2025-04-21', 'lat_lon_source': 'website'}",34.73687520000000000000,135.37356400000000000000,ライフコウシエンテン,"{'opening_hour': {'Sun': '09:00:00-21:45:00', 'Mon': '09:00:00-21:45:00', 'Tue': '09:00:00-21:45:00', 'Wed': '09:00:00-21:45:00', 'Thur': '09:00:00-21:45:00', 'Fri': '09:00:00-21:45:00', 'Sat': '09:00:00-21:45:00'}}",0798-66-1800,663-8113,99365,,https://store.lifecorp.jp/
兵庫県神戸市中央区中町通3-2-15,Lifecorp,,Japan,"{'brand': 'Lifecorp', 'fascia': 'Lifecorp', 'category': 'Store', 'edit_date': '2025-04-21', 'lat_lon_source': 'website'}",34.67918895000000000000,135.17495210000000000000,ライフコウベエキマエテン,"{'opening_hour': {'Sun': '09:30:00-24:00:00', 'Mon': '09:30:00-24:00:00', 'Tue': '09:30:00-24:00:00', 'Wed': '09:30:00-24:00:00', 'Thur': '09:30:00-24:00:00', 'Fri': '09:30:00-24:00:00', 'Sat': '09:30:00-24:00:00'}}",078-371-6511,650-0027,99366,,https://store.lifecorp.jp/
東京都足立区西新井本町2丁目31-20,Lifecorp,,Japan,"{'brand': 'Lifecorp', 'fascia': 'Lifecorp', 'category': 'Store', 'edit_date': '2025-04-21', 'lat_lon_source': 'website'}",35.77454598000000000000,139.77123980000000000000,ライフコウホクエキマエテン,"{'opening_hour': {'Sun': '09:30:00-24:00:00', 'Mon': '09:30:00-24:00:00', 'Tue': '09:30:00-24:00:00', 'Wed': '09:30:00-24:00:00', 'Thur': '09:30:00-24:00:00', 'Fri': '09:30:00-24:00:00', 'Sat': '09:30:00-24:00:00'}}",03-3898-8631,123-0845,99469,,https://store.lifecorp.jp/
大阪府寝屋川市香里新町28-3-1,Lifecorp,,Japan,"{'brand': 'Lifecorp', 'fascia': 'Lifecorp', 'category': 'Store', 'edit_date': '2025-04-21', 'lat_lon_source': 'website'}",34.78573694000000000000,135.63013760000000000000,ライフコウリエンテン,"{'opening_hour': {'Sun': '09:00:00-24:00:00', 'Mon': '09:00:00-24:00:00', 'Tue': '09:00:00-24:00:00', 'Wed': '09:00:00-24:00:00', 'Thur': '09:00:00-24:00:00', 'Fri': '09:00:00-24:00:00', 'Sat': '09:00:00-24:00:00'}}",072-802-2481,572-0085,99312,,https://store.lifecorp.jp/
大阪府柏原市国分本町1-1,Lifecorp,,Japan,"{'brand': 'Lifecorp', 'fascia': 'Lifecorp', 'category': 'Store', 'edit_date': '2025-04-21', 'lat_lon_source': 'website'}",34.56688790000000000000,135.63603690000000000000,ライフコクブテン,"{'opening_hour': {'Sun': '09:00:00-24:00:00', 'Mon': '09:00:00-24:00:00', 'Tue': '09:00:00-24:00:00', 'Wed': '09:00:00-24:00:00', 'Thur': '09:00:00-24:00:00', 'Fri': '09:00:00-24:00:00', 'Sat': '09:00:00-24:00:00'}}",072-977-8551,582-0021,99288,,https://store.lifecorp.jp/
東京都練馬区練馬1丁目17-1,Lifecorp,,Japan,"{'brand': 'Lifecorp', 'fascia': 'Lifecorp', 'category': 'Store', 'edit_date': '2025-04-21', 'lat_lon_source': 'website'}",35.73819145000000000000,139.65331730000000000000,ライフココネリネリマエキマエテン,"{'opening_hour': {'Sun': '09:00:00-24:00:00', 'Mon': '09:00:00-24:00:00', 'Tue': '09:00:00-24:00:00', 'Wed': '09:00:00-24:00:00', 'Thur': '09:00:00-24:00:00', 'Fri': '09:00:00-24:00:00', 'Sat': '09:00:00-24:00:00'}}",03-3993-1251,176-0001,99541,,https://store.lifecorp.jp/
大阪府大阪市此花区伝法5-1-53,Lifecorp,,Japan,"{'brand': 'Lifecorp', 'fascia': 'Lifecorp', 'category': 'Store', 'edit_date': '2025-04-21', 'lat_lon_source': 'website'}",34.68763330000000000000,135.45052580000000000000,ライフコノハナデンポウテン,"{'opening_hour': {'Sun': '09:00:00-24:00:00', 'Mon': '09:00:00-24:00:00', 'Tue': '09:00:00-24:00:00', 'Wed': '09:00:00-24:00:00', 'Thur': '09:00:00-24:00:00', 'Fri': '09:00:00-24:00:00', 'Sat': '09:00:00-24:00:00'}}",06-6462-2481,554-0002,99297,,https://store.lifecorp.jp/
東京都新宿区四谷1丁目6-1CO.MO.RE Mall 地下1階,Lifecorp,,Japan,"{'brand': 'Lifecorp', 'fascia': 'Lifecorp', 'category': 'Store', 'edit_date': '2025-04-21', 'lat_lon_source': 'website'}",35.68640913000000000000,139.72936560000000000000,ライフコモレヨツヤテン,"{'opening_hour': {'Sun': '09:30:00-24:00:00', 'Mon': '08:00:00-24:00:00', 'Tue': '08:00:00-24:00:00', 'Wed': '08:00:00-24:00:00', 'Thur': '08:00:00-24:00:00', 'Fri': '08:00:00-24:00:00', 'Sat': '09:30:00-24:00:00'}}",03-3358-5060,160-0004,99571,,https://store.lifecorp.jp/
奈良県御所市東松本30,Lifecorp,,Japan,"{'brand': 'Lifecorp', 'fascia': 'Lifecorp', 'category': 'Store', 'edit_date': '2025-04-21', 'lat_lon_source': 'website'}",34.46472880000000000000,135.73087900000000000000,ライフゴセテン,"{'opening_hour': {'Sun': '09:00:00-20:00:00', 'Mon': '09:00:00-20:00:00', 'Tue': '09:00:00-20:00:00', 'Wed': '09:00:00-20:00:00', 'Thur': '09:00:00-20:00:00', 'Fri': '09:00:00-20:00:00', 'Sat': '09:00:00-20:00:00'}}",0745-65-1101,639-2302,99379,,https://store.lifecorp.jp/
大阪府枚方市渚西2-27-20,Lifecorp,,Japan,"{'brand': 'Lifecorp', 'fascia': 'Lifecorp', 'category': 'Store', 'edit_date': '2025-04-21', 'lat_lon_source': 'website'}",34.83175527000000000000,135.65472180000000000000,ライフゴテンヤマテン,"{'opening_hour': {'Sun': '09:30:00-24:00:00', 'Mon': '09:30:00-24:00:00', 'Tue': '09:30:00-24:00:00', 'Wed': '09:30:00-24:00:00', 'Thur': '09:30:00-24:00:00', 'Fri': '09:30:00-24:00:00', 'Sat': '09:30:00-24:00:00'}}",072-898-8211,573-1178,99456,,https://store.lifecorp.jp/
神奈川県藤沢市藤沢555,Lifecorp,,Japan,"{'brand': 'Lifecorp', 'fascia': 'Lifecorp', 'category': 'Store', 'edit_date': '2025-04-21', 'lat_lon_source': 'website'}",35.33981621000000000000,139.48710430000000000000,ライフサイカヤフジサワテン,"{'opening_hour': {'Sun': '09:30:00-22:00:00', 'Mon': '09:30:00-22:00:00', 'Tue': '09:30:00-22:00:00', 'Wed': '09:30:00-22:00:00', 'Thur': '09:30:00-22:00:00', 'Fri': '09:30:00-22:00:00', 'Sat': '09:30:00-22:00:00'}}",0466-50-0150,251-0052,104566,,https://store.lifecorp.jp/
埼玉県さいたま市大宮区吉敷町4丁目267-2ｺｸｰﾝｼﾃｨｺｸｰﾝ 1 北館 1階,Lifecorp,,Japan,"{'brand': 'Lifecorp', 'fascia': 'Lifecorp', 'category': 'Store', 'edit_date': '2025-04-21', 'lat_lon_source': 'website'}",35.89479003000000000000,139.63656760000000000000,ライフサイタマシントシンテン,"{'opening_hour': {'Sun': '09:30:00-22:00:00', 'Mon': '09:30:00-22:00:00', 'Tue': '09:30:00-22:00:00', 'Wed': '09:30:00-22:00:00', 'Thur': '09:30:00-22:00:00', 'Fri': '09:30:00-22:00:00', 'Sat': '09:30:00-22:00:00'}}",048-601-5333,330-0843,99488,,https://store.lifecorp.jp/
大阪府堺市堺区戎島町2-62-7,Lifecorp,,Japan,"{'brand': 'Lifecorp', 'fascia': 'Lifecorp', 'category': 'Store', 'edit_date': '2025-04-21', 'lat_lon_source': 'website'}",34.58282929000000000000,135.47173220000000000000,ライフサカイエキマエテン,"{'opening_hour': {'Sun': '09:00:00-22:00:00', 'Mon': '09:00:00-22:00:00', 'Tue': '09:00:00-22:00:00', 'Wed': '09:00:00-22:00:00', 'Thur': '09:00:00-22:00:00', 'Fri': '09:00:00-22:00:00', 'Sat': '09:00:00-22:00:00'}}",072-232-3010,590-0985,99485,,https://store.lifecorp.jp/
大阪府大阪市中央区久太郎町1-7-5,Lifecorp,,Japan,"{'brand': 'Lifecorp', 'fascia': 'Lifecorp', 'category': 'Store', 'edit_date': '2025-04-21', 'lat_lon_source': 'website'}",34.68057830000000000000,135.50752770000000000000,ライフサカイスジホンマチテン,"{'opening_hour': {'Sun': '09:00:00-24:00:00', 'Sat': '09:00:00-24:00:00', 'Mon': '09:00:00-24:00:00', 'Tue': '09:00:00-24:00:00', 'Wed': '09:00:00-24:00:00', 'Thur': '09:00:00-24:00:00', 'Fri': '09:00:00-24:00:00'}}",06-6261-1801,541-0056,99325,,https://store.lifecorp.jp/
神奈川県相模原市南区相模大野3丁目2-1,Lifecorp,,Japan,"{'brand': 'Lifecorp', 'fascia': 'Lifecorp', 'category': 'Store', 'edit_date': '2025-04-21', 'lat_lon_source': 'website'}",35.53124791000000000000,139.43519660000000000000,ライフサガミオオノエキマエテン,"{'opening_hour': {'Sun': '09:00:00-24:00:00', 'Mon': '09:00:00-24:00:00', 'Tue': '09:00:00-24:00:00', 'Wed': '09:00:00-24:00:00', 'Thur': '09:00:00-24:00:00', 'Fri': '09:00:00-24:00:00', 'Sat': '09:00:00-24:00:00'}}",042-748-7400,252-0303,99403,,https://store.lifecorp.jp/
神奈川県相模原市中央区相模原1丁目1-3 1F,Lifecorp,,Japan,"{'brand': 'Lifecorp', 'fascia': 'Lifecorp', 'category': 'Store', 'edit_date': '2025-04-21', 'lat_lon_source': 'website'}",35.58092255000000000000,139.37117070000000000000,ライフサガミハラエキビルテン,"{'opening_hour': {'Sun': '09:00:00-24:00:00', 'Mon': '09:00:00-24:00:00', 'Tue': '09:00:00-24:00:00', 'Wed': '09:00:00-24:00:00', 'Thur': '09:00:00-24:00:00', 'Fri': '09:00:00-24:00:00', 'Sat': '09:00:00-24:00:00'}}",042-759-1320,252-0231,99397,,https://store.lifecorp.jp/
神奈川県相模原市中央区小山3丁目37-1,Lifecorp,,Japan,"{'brand': 'Lifecorp', 'fascia': 'Lifecorp', 'category': 'Store', 'edit_date': '2025-04-21', 'lat_lon_source': 'website'}",35.58269634000000000000,139.35653390000000000000,ライフサガミハラモールテン,"{'opening_hour': {'Sun': '09:00:00-22:00:00', 'Mon': '09:00:00-22:00:00', 'Tue': '09:00:00-22:00:00', 'Wed': '09:00:00-22:00:00', 'Thur': '09:00:00-22:00:00', 'Fri': '09:00:00-22:00:00', 'Sat': '09:00:00-22:00:00'}}",042-775-0881,252-0205,99446,,https://store.lifecorp.jp/
神奈川県相模原市南区若松5丁目19-5,Lifecorp,,Japan,"{'brand': 'Lifecorp', 'fascia': 'Lifecorp', 'category': 'Store', 'edit_date': '2025-04-21', 'lat_lon_source': 'website'}",35.53731427000000000000,139.42379960000000000000,ライフサガミハラワカマツテン,"{'opening_hour': {'Sun': '09:00:00-24:00:00', 'Mon': '09:00:00-24:00:00', 'Tue': '09:00:00-24:00:00', 'Wed': '09:00:00-24:00:00', 'Thur': '09:00:00-24:00:00', 'Fri': '09:00:00-24:00:00', 'Sat': '09:00:00-24:00:00'}}",042-749-9021,252-0334,99578,,https://store.lifecorp.jp/
東京都世田谷区桜新町2丁目23-1,Lifecorp,,Japan,"{'brand': 'Lifecorp', 'fascia': 'Lifecorp', 'category': 'Store', 'edit_date': '2025-04-21', 'lat_lon_source': 'website'}",35.63257819000000000000,139.63979680000000000000,ライフサクラシンマチテン,"{'opening_hour': {'Sun': '09:30:00-24:00:00', 'Mon': '09:30:00-24:00:00', 'Tue': '09:30:00-24:00:00', 'Wed': '09:30:00-24:00:00', 'Thur': '09:30:00-24:00:00', 'Fri': '09:30:00-24:00:00', 'Sat': '09:30:00-24:00:00'}}",03-3429-1770,154-0015,99427,,https://store.lifecorp.jp/
千葉県佐倉市大崎台1-18-4,Lifecorp,,Japan,"{'brand': 'Lifecorp', 'fascia': 'Lifecorp', 'category': 'Store', 'edit_date': '2025-04-21', 'lat_lon_source': 'website'}",35.70834380000000000000,140.22392030000000000000,ライフサクラテン,"{'opening_hour': {'Sun': '09:00:00-21:00:00', 'Mon': '09:00:00-21:00:00', 'Tue': '09:00:00-21:00:00', 'Wed': '09:00:00-21:00:00', 'Thur': '09:00:00-21:00:00', 'Fri': '09:00:00-21:00:00', 'Sat': '09:00:00-21:00:00'}}",043-486-6177,285-0817,99551,,https://store.lifecorp.jp/
大阪府大阪市都島区都島中通1-9-3,Lifecorp,,Japan,"{'brand': 'Lifecorp', 'fascia': 'Lifecorp', 'category': 'Store', 'edit_date': '2025-04-21', 'lat_lon_source': 'website'}",34.70525890000000000000,135.52821110000000000000,ライフサクラノミヤテン,"{'opening_hour': {'Sun': '09:30:00-24:00:00', 'Mon': '09:30:00-24:00:00', 'Tue': '09:30:00-24:00:00', 'Wed': '09:30:00-24:00:00', 'Thur': '09:30:00-24:00:00', 'Fri': '09:30:00-24:00:00', 'Sat': '09:30:00-24:00:00'}}",06-4253-0801,534-0022,99294,,https://store.lifecorp.jp/
東京都渋谷区笹塚1-57-10,Lifecorp,,Japan,"{'brand': 'Lifecorp', 'fascia': 'Lifecorp', 'category': 'Store', 'edit_date': '2025-04-21', 'lat_lon_source': 'website'}",35.67400214000000000000,139.66694970000000000000,ライフササヅカテン,"{'opening_hour': {'Sun': '09:30:00-24:00:00', 'Mon': '09:30:00-24:00:00', 'Tue': '09:30:00-24:00:00', 'Wed': '09:30:00-24:00:00', 'Thur': '09:30:00-24:00:00', 'Fri': '09:30:00-24:00:00', 'Sat': '09:30:00-24:00:00'}}",03-3374-2294,151-0073,99552,,https://store.lifecorp.jp/
埼玉県さいたま市西区指扇領別所355-1,Lifecorp,,Japan,"{'brand': 'Lifecorp', 'fascia': 'Lifecorp', 'category': 'Store', 'edit_date': '2025-04-21', 'lat_lon_source': 'website'}",35.92000259000000000000,139.56611560000000000000,ライフサシオウギテン,"{'opening_hour': {'Sun': '09:30:00-21:00:00', 'Mon': '09:30:00-21:00:00', 'Tue': '09:30:00-21:00:00', 'Wed': '09:30:00-21:00:00', 'Thur': '09:30:00-21:00:00', 'Fri': '09:30:00-21:00:00', 'Sat': '09:30:00-21:00:00'}}",048-622-4554,331-0073,99523,,https://store.lifecorp.jp/
大阪府大阪市浪速区塩草3-1-1,Lifecorp,,Japan,"{'brand': 'Lifecorp', 'fascia': 'Lifecorp', 'category': 'Store', 'edit_date': '2025-04-21', 'lat_lon_source': 'website'}",34.66287348000000000000,135.49012070000000000000,ライフシオクサテン,"{'opening_hour': {'Sun': '09:30:00-24:00:00', 'Mon': '09:30:00-24:00:00', 'Tue': '09:30:00-24:00:00', 'Wed': '09:30:00-24:00:00', 'Thur': '09:30:00-24:00:00', 'Fri': '09:30:00-24:00:00', 'Sat': '09:30:00-24:00:00'}}",06-6562-1000,556-0024,99329,,https://store.lifecorp.jp/
大阪府八尾市志紀町1-88,Lifecorp,,Japan,"{'brand': 'Lifecorp', 'fascia': 'Lifecorp', 'category': 'Store', 'edit_date': '2025-04-21', 'lat_lon_source': 'website'}",34.60223560000000000000,135.61315700000000000000,ライフシキテン,"{'opening_hour': {'Sun': '09:00:00-24:00:00', 'Mon': '09:00:00-24:00:00', 'Tue': '09:00:00-24:00:00', 'Wed': '09:00:00-24:00:00', 'Thur': '09:00:00-24:00:00', 'Fri': '09:00:00-24:00:00', 'Sat': '09:00:00-24:00:00'}}",072-948-5301,581-0031,99318,,https://store.lifecorp.jp/
東京都江戸川区鹿骨1丁目42-3,Lifecorp,,Japan,"{'brand': 'Lifecorp', 'fascia': 'Lifecorp', 'category': 'Store', 'edit_date': '2025-04-21', 'lat_lon_source': 'website'}",35.70647451000000000000,139.88921190000000000000,ライフシシボネテン,"{'opening_hour': {'Sun': '09:30:00-22:00:00', 'Mon': '09:30:00-22:00:00', 'Tue': '09:30:00-22:00:00', 'Wed': '09:30:00-22:00:00', 'Thur': '09:30:00-22:00:00', 'Fri': '09:30:00-22:00:00', 'Sat': '09:30:00-22:00:00'}}",03-3676-8682,133-0073,99559,,https://store.lifecorp.jp/
京都府京都市中京区壬生賀陽御所町73-1,Lifecorp,,Japan,"{'brand': 'Lifecorp', 'fascia': 'Lifecorp', 'category': 'Store', 'edit_date': '2025-04-21', 'lat_lon_source': 'website'}",35.00335790000000000000,135.74536710000000000000,ライフシジョウオオミヤテン,"{'opening_hour': {'Sun': '09:30:00-24:00:00', 'Mon': '09:30:00-24:00:00', 'Tue': '09:30:00-24:00:00', 'Wed': '09:30:00-24:00:00', 'Thur': '09:30:00-24:00:00', 'Fri': '09:30:00-24:00:00', 'Sat': '09:30:00-24:00:00'}}",075-811-2000,604-8811,99295,,https://store.lifecorp.jp/
京都府京都市下京区四条通油小路東入傘鉾町50,Lifecorp,,Japan,"{'brand': 'Lifecorp', 'fascia': 'Lifecorp', 'category': 'Store', 'edit_date': '2025-04-21', 'lat_lon_source': 'website'}",35.00391440000000000000,135.75411260000000000000,ライフシジョウカラスマテン,"{'opening_hour': {'Sun': '09:30:00-24:00:00', 'Mon': '09:30:00-24:00:00', 'Tue': '09:30:00-24:00:00', 'Wed': '09:30:00-24:00:00', 'Thur': '09:30:00-24:00:00', 'Fri': '09:30:00-24:00:00', 'Sat': '09:30:00-24:00:00'}}",075-223-5621,600-8494,99355,,https://store.lifecorp.jp/
大阪府大阪市天王寺区四天王寺1-5-38,Lifecorp,,Japan,"{'brand': 'Lifecorp', 'fascia': 'Lifecorp', 'category': 'Store', 'edit_date': '2025-04-21', 'lat_lon_source': 'website'}",34.65687004000000000000,135.51570640000000000000,ライフシテンノウジテン,"{'opening_hour': {'Sun': '09:30:00-22:00:00', 'Mon': '09:30:00-22:00:00', 'Tue': '09:30:00-22:00:00', 'Wed': '09:30:00-22:00:00', 'Thur': '09:30:00-22:00:00', 'Fri': '09:30:00-22:00:00', 'Sat': '09:30:00-22:00:00'}}",06-6774-3471,543-0051,99330,,https://store.lifecorp.jp/
東京都江戸川区篠崎町7丁目27-1,Lifecorp,,Japan,"{'brand': 'Lifecorp', 'fascia': 'Lifecorp', 'category': 'Store', 'edit_date': '2025-04-21', 'lat_lon_source': 'website'}",35.70603897000000000000,139.90376220000000000000,ライフシノザキテン,"{'opening_hour': {'Sun': '09:30:00-24:00:00', 'Mon': '09:30:00-24:00:00', 'Tue': '09:30:00-24:00:00', 'Wed': '09:30:00-24:00:00', 'Thur': '09:30:00-24:00:00', 'Fri': '09:30:00-24:00:00', 'Sat': '09:30:00-24:00:00'}}",03-3698-7761,133-0061,99455,,https://store.lifecorp.jp/
東京都渋谷区東1-26-22,Lifecorp,,Japan,"{'brand': 'Lifecorp', 'fascia': 'Lifecorp', 'category': 'Store', 'edit_date': '2025-04-21', 'lat_lon_source': 'website'}",35.65483448000000000000,139.70756330000000000000,ライフシブヤヒガシテン,"{'opening_hour': {'Sun': '09:30:00-24:00:00', 'Mon': '09:30:00-24:00:00', 'Tue': '09:30:00-24:00:00', 'Wed': '09:30:00-24:00:00', 'Thur': '09:30:00-24:00:00', 'Fri': '09:30:00-24:00:00', 'Sat': '09:30:00-24:00:00'}}",03-3409-0351,150-0011,99434,,https://store.lifecorp.jp/
神奈川県川崎市高津区子母口字旭田２８４,Lifecorp,,Japan,"{'brand': 'Lifecorp', 'fascia': 'Lifecorp', 'category': 'Store', 'edit_date': '2025-04-21', 'lat_lon_source': 'website'}",35.57142590000000000000,139.63008810000000000000,ライフシボクチテン,"{'opening_hour': {'Sun': '09:30:00-24:00:00', 'Mon': '09:30:00-24:00:00', 'Tue': '09:30:00-24:00:00', 'Wed': '09:30:00-24:00:00', 'Thur': '09:30:00-24:00:00', 'Fri': '09:30:00-24:00:00', 'Sat': '09:30:00-24:00:00'}}",044-798-0575,213-0023,99512,,https://store.lifecorp.jp/
大阪府大阪市天王寺区清水谷町5-23,Lifecorp,,Japan,"{'brand': 'Lifecorp', 'fascia': 'Lifecorp', 'category': 'Store', 'edit_date': '2025-04-21', 'lat_lon_source': 'website'}",34.67551095000000000000,135.52188070000000000000,ライフシミズダニテン,"{'opening_hour': {'Sun': '09:30:00-24:00:00', 'Mon': '09:30:00-24:00:00', 'Tue': '09:30:00-24:00:00', 'Wed': '09:30:00-24:00:00', 'Thur': '09:30:00-24:00:00', 'Fri': '09:30:00-24:00:00', 'Sat': '09:30:00-24:00:00'}}",06-6768-1201,543-0011,99273,,https://store.lifecorp.jp/
大阪府大阪市浪速区下寺2-8-12,Lifecorp,,Japan,"{'brand': 'Lifecorp', 'fascia': 'Lifecorp', 'category': 'Store', 'edit_date': '2025-04-21', 'lat_lon_source': 'website'}",34.65853350000000000000,135.50961450000000000000,ライフシモデラテン,"{'opening_hour': {'Sun': '09:30:00-24:00:00', 'Mon': '09:30:00-24:00:00', 'Tue': '09:30:00-24:00:00', 'Wed': '09:30:00-24:00:00', 'Thur': '09:30:00-24:00:00', 'Fri': '09:30:00-24:00:00', 'Sat': '09:30:00-24:00:00'}}",06-6647-1400,556-0001,99287,,https://store.lifecorp.jp/
東京都目黒区下目黒5-19-13 1階,Lifecorp,,Japan,"{'brand': 'Lifecorp', 'fascia': 'Lifecorp', 'category': 'Store', 'edit_date': '2025-04-21', 'lat_lon_source': 'website'}",35.63032733000000000000,139.70144080000000000000,ライフシモメグロテン,"{'opening_hour': {'Sun': '09:30:00-22:00:00', 'Mon': '09:30:00-22:00:00', 'Tue': '09:30:00-22:00:00', 'Wed': '09:30:00-22:00:00', 'Thur': '09:30:00-22:00:00', 'Fri': '09:30:00-22:00:00', 'Sat': '09:30:00-22:00:00'}}",03-3711-4600,153-0064,99533,,https://store.lifecorp.jp/
兵庫県神戸市中央区下山手通7-1-7,Lifecorp,,Japan,"{'brand': 'Lifecorp', 'fascia': 'Lifecorp', 'category': 'Store', 'edit_date': '2025-04-21', 'lat_lon_source': 'website'}",34.68764487000000000000,135.17889600000000000000,ライフシモヤマテ,"{'opening_hour': {'Sun': '09:30:00-21:50:00', 'Mon': '09:30:00-21:50:00', 'Tue': '09:30:00-21:50:00', 'Wed': '09:30:00-21:50:00', 'Thur': '09:30:00-21:50:00', 'Fri': '09:30:00-21:50:00', 'Sat': '09:30:00-21:50:00'}}",078-371-5131,650-0011,99301,,https://store.lifecorp.jp/
東京都練馬区石神井町4丁目3-2,Lifecorp,,Japan,"{'brand': 'Lifecorp', 'fascia': 'Lifecorp', 'category': 'Store', 'edit_date': '2025-04-21', 'lat_lon_source': 'website'}",35.74476382000000000000,139.60415670000000000000,ライフシャクジイコウエンテン,"{'opening_hour': {'Sun': '09:30:00-24:00:00', 'Mon': '09:30:00-24:00:00', 'Tue': '09:30:00-24:00:00', 'Wed': '09:30:00-24:00:00', 'Thur': '09:30:00-24:00:00', 'Fri': '09:30:00-24:00:00', 'Sat': '09:30:00-24:00:00'}}",03-3904-3481,177-0041,99525,,https://store.lifecorp.jp/
東京都練馬区石神井台2-6-8,Lifecorp,,Japan,"{'brand': 'Lifecorp', 'fascia': 'Lifecorp', 'category': 'Store', 'edit_date': '2025-04-21', 'lat_lon_source': 'website'}",35.73382474000000000000,139.59015810000000000000,ライフシャクジイダイテン,"{'opening_hour': {'Sun': '09:30:00-22:00:00', 'Mon': '09:30:00-22:00:00', 'Tue': '09:30:00-22:00:00', 'Wed': '09:30:00-22:00:00', 'Thur': '09:30:00-22:00:00', 'Fri': '09:30:00-22:00:00', 'Sat': '09:30:00-22:00:00'}}",03-5372-2960,177-0045,99462,,https://store.lifecorp.jp/
兵庫県西宮市御茶家所町5-14,Lifecorp,,Japan,"{'brand': 'Lifecorp', 'fascia': 'Lifecorp', 'category': 'Store', 'edit_date': '2025-04-21', 'lat_lon_source': 'website'}",34.73688012000000000000,135.32520340000000000000,ライフシュクガワテン,"{'opening_hour': {'Sun': '09:30:00-24:00:00', 'Mon': '09:30:00-24:00:00', 'Tue': '09:30:00-24:00:00', 'Wed': '09:30:00-24:00:00', 'Thur': '09:30:00-24:00:00', 'Fri': '09:30:00-24:00:00', 'Sat': '09:30:00-24:00:00'}}",0798-36-2820,662-0961,99430,,https://store.lifecorp.jp/
神奈川県川崎市多摩区宿河原1丁目22-37,Lifecorp,,Japan,"{'brand': 'Lifecorp', 'fascia': 'Lifecorp', 'category': 'Store', 'edit_date': '2025-04-21', 'lat_lon_source': 'website'}",35.61743401000000000000,139.57624780000000000000,ライフシュクガワラテン,"{'opening_hour': {'Sun': '09:00:00-24:00:00', 'Mon': '09:00:00-24:00:00', 'Tue': '09:00:00-24:00:00', 'Wed': '09:00:00-24:00:00', 'Thur': '09:00:00-24:00:00', 'Fri': '09:00:00-24:00:00', 'Sat': '09:00:00-24:00:00'}}",044-911-0768,214-0021,99423,,https://store.lifecorp.jp/
大阪府摂津市正雀本町1-1-39,Lifecorp,,Japan,"{'brand': 'Lifecorp', 'fascia': 'Lifecorp', 'category': 'Store', 'edit_date': '2025-04-21', 'lat_lon_source': 'website'}",34.77564555000000000000,135.55024370000000000000,ライフショウジャクテン,"{'opening_hour': {'Sun': '09:30:00-24:00:00', 'Mon': '09:30:00-24:00:00', 'Tue': '09:30:00-24:00:00', 'Wed': '09:30:00-24:00:00', 'Thur': '09:30:00-24:00:00', 'Fri': '09:30:00-24:00:00', 'Sat': '09:30:00-24:00:00'}}",06-6381-4931,566-0024,99428,,https://store.lifecorp.jp/
大阪府豊中市庄内栄町5-5-10,Lifecorp,,Japan,"{'brand': 'Lifecorp', 'fascia': 'Lifecorp', 'category': 'Store', 'edit_date': '2025-04-21', 'lat_lon_source': 'website'}",34.74343462000000000000,135.46711800000000000000,ライフショウナイテン,"{'opening_hour': {'Sun': '09:00:00-21:00:00', 'Mon': '09:00:00-21:00:00', 'Tue': '09:00:00-21:00:00', 'Wed': '09:00:00-21:00:00', 'Thur': '09:00:00-21:00:00', 'Fri': '09:00:00-21:00:00', 'Sat': '09:00:00-21:00:00'}}",06-6336-7751,561-0834,99340,,https://store.lifecorp.jp/
大阪府大阪市阿倍野区昭和町1-15-25,Lifecorp,,Japan,"{'brand': 'Lifecorp', 'fascia': 'Lifecorp', 'category': 'Store', 'edit_date': '2025-04-21', 'lat_lon_source': 'website'}",34.63360128000000000000,135.51729090000000000000,ライフショウワチョウエキマエテン,"{'opening_hour': {'Sun': '09:30:00-24:00:00', 'Mon': '09:30:00-24:00:00', 'Tue': '09:30:00-24:00:00', 'Wed': '09:30:00-24:00:00', 'Thur': '09:30:00-24:00:00', 'Fri': '09:30:00-24:00:00', 'Sat': '09:30:00-24:00:00'}}",06-6622-3015,545-0011,99319,,https://store.lifecorp.jp/
大阪府堺市南区城山台2-2-14,Lifecorp,,Japan,"{'brand': 'Lifecorp', 'fascia': 'Lifecorp', 'category': 'Store', 'edit_date': '2025-04-21', 'lat_lon_source': 'website'}",34.46809200000000000000,135.48694520000000000000,ライフシロヤマダイテン,"{'opening_hour': {'Sun': '09:00:00-21:00:00', 'Mon': '09:00:00-21:00:00', 'Tue': '09:00:00-21:00:00', 'Wed': '09:00:00-21:00:00', 'Thur': '09:00:00-21:00:00', 'Fri': '09:00:00-21:00:00', 'Sat': '09:00:00-21:00:00'}}",072-298-4888,590-0137,99457,,https://store.lifecorp.jp/
大阪府東大阪市弥生町16-12,Lifecorp,,Japan,"{'brand': 'Lifecorp', 'fascia': 'Lifecorp', 'category': 'Store', 'edit_date': '2025-04-21', 'lat_lon_source': 'website'}",34.67911647000000000000,135.63687240000000000000,ライフシンイシキリテン,"{'opening_hour': {'Sun': '09:00:00-24:00:00', 'Mon': '09:00:00-24:00:00', 'Tue': '09:00:00-24:00:00', 'Wed': '09:00:00-24:00:00', 'Thur': '09:00:00-24:00:00', 'Fri': '09:00:00-24:00:00', 'Sat': '09:00:00-24:00:00'}}",072-980-6131,579-8026,99357,,https://store.lifecorp.jp/
東京都豊島区南大塚2丁目3-15,Lifecorp,,Japan,"{'brand': 'Lifecorp', 'fascia': 'Lifecorp', 'category': 'Store', 'edit_date': '2025-04-21', 'lat_lon_source': 'website'}",35.72645375000000000000,139.73432910000000000000,ライフシンオオツカテン,"{'opening_hour': {'Sun': '09:30:00-24:00:00', 'Mon': '09:30:00-24:00:00', 'Tue': '09:30:00-24:00:00', 'Wed': '09:30:00-24:00:00', 'Thur': '09:30:00-24:00:00', 'Fri': '09:30:00-24:00:00', 'Sat': '09:30:00-24:00:00'}}",03-3945-7831,170-0005,99437,,https://store.lifecorp.jp/
東京都台東区小島2-8-7,Lifecorp,,Japan,"{'brand': 'Lifecorp', 'fascia': 'Lifecorp', 'category': 'Store', 'edit_date': '2025-04-21', 'lat_lon_source': 'website'}",35.70602373000000000000,139.78477000000000000000,ライフシンオカチマチテン,"{'opening_hour': {'Sun': '09:30:00-24:00:00', 'Mon': '09:30:00-24:00:00', 'Tue': '09:30:00-24:00:00', 'Wed': '09:30:00-24:00:00', 'Thur': '09:30:00-24:00:00', 'Fri': '09:30:00-24:00:00', 'Sat': '09:30:00-24:00:00'}}",03-3863-3535,111-0056,99556,,https://store.lifecorp.jp/
大阪府大阪市住之江区新北島2-2-52,Lifecorp,,Japan,"{'brand': 'Lifecorp', 'fascia': 'Lifecorp', 'category': 'Store', 'edit_date': '2025-04-21', 'lat_lon_source': 'website'}",34.60447410000000000000,135.47142880000000000000,ライフシンキタジマテン,"{'opening_hour': {'Sun': '09:00:00-24:00:00', 'Mon': '09:00:00-24:00:00', 'Tue': '09:00:00-24:00:00', 'Wed': '09:00:00-24:00:00', 'Thur': '09:00:00-24:00:00', 'Fri': '09:00:00-24:00:00', 'Sat': '09:00:00-24:00:00'}}",06-6686-0911,559-0024,99315,,https://store.lifecorp.jp/
東京都練馬区栄町46-11,Lifecorp,,Japan,"{'brand': 'Lifecorp', 'fascia': 'Lifecorp', 'category': 'Store', 'edit_date': '2025-04-21', 'lat_lon_source': 'website'}",35.74091558000000000000,139.66883000000000000000,ライフシンサクラダイエキマエテン,"{'opening_hour': {'Sun': '09:30:00-24:00:00', 'Mon': '09:30:00-24:00:00', 'Tue': '09:30:00-24:00:00', 'Wed': '09:30:00-24:00:00', 'Thur': '09:30:00-24:00:00', 'Fri': '09:30:00-24:00:00', 'Sat': '09:30:00-24:00:00'}}",03-3993-1261,176-0006,99564,,https://store.lifecorp.jp/
大阪府大阪市東成区神路4-7-19,Lifecorp,,Japan,"{'brand': 'Lifecorp', 'fascia': 'Lifecorp', 'category': 'Store', 'edit_date': '2025-04-21', 'lat_lon_source': 'website'}",34.66902732000000000000,135.55311080000000000000,ライフシンフカエテン,"{'opening_hour': {'Sun': '09:00:00-21:00:00', 'Mon': '09:00:00-21:00:00', 'Tue': '09:00:00-21:00:00', 'Wed': '09:00:00-21:00:00', 'Thur': '09:00:00-21:00:00', 'Fri': '09:00:00-21:00:00', 'Sat': '09:00:00-21:00:00'}}",06-6974-4301,537-0003,99377,,https://store.lifecorp.jp/
大阪府大阪市淀川区木川東2-11-8,Lifecorp,,Japan,"{'brand': 'Lifecorp', 'fascia': 'Lifecorp', 'category': 'Store', 'edit_date': '2025-04-21', 'lat_lon_source': 'website'}",34.72351254000000000000,135.49189050000000000000,ライフジュウソウヒガシテン,"{'opening_hour': {'Sun': '09:30:00-24:00:00', 'Mon': '09:30:00-24:00:00', 'Tue': '09:30:00-24:00:00', 'Wed': '09:30:00-24:00:00', 'Thur': '09:30:00-24:00:00', 'Fri': '09:30:00-24:00:00', 'Sat': '09:30:00-24:00:00'}}",06-6390-1831,532-0012,99344,,https://store.lifecorp.jp/
東京都葛飾区水元2丁目11-5,Lifecorp,,Japan,"{'brand': 'Lifecorp', 'fascia': 'Lifecorp', 'category': 'Store', 'edit_date': '2025-04-21', 'lat_lon_source': 'website'}",35.78732305000000000000,139.85672570000000000000,ライフスイゲンテン,"{'opening_hour': {'Sun': '09:00:00-22:00:00', 'Mon': '09:30:00-22:00:00', 'Tue': '09:30:00-22:00:00', 'Wed': '09:30:00-22:00:00', 'Thur': '09:30:00-22:00:00', 'Fri': '09:30:00-22:00:00', 'Sat': '09:00:00-22:00:00'}}",03-3609-9711,125-0032,99577,,https://store.lifecorp.jp/
大阪府吹田市泉町1-22-38,Lifecorp,,Japan,"{'brand': 'Lifecorp', 'fascia': 'Lifecorp', 'category': 'Store', 'edit_date': '2025-04-21', 'lat_lon_source': 'website'}",34.75715865000000000000,135.51435210000000000000,ライフスイタイズミチョウテン,"{'opening_hour': {'Sun': '09:30:00-24:00:00', 'Mon': '09:30:00-24:00:00', 'Tue': '09:30:00-24:00:00', 'Wed': '09:30:00-24:00:00', 'Thur': '09:30:00-24:00:00', 'Fri': '09:30:00-24:00:00', 'Sat': '09:30:00-24:00:00'}}",06-6369-4101,564-0041,99350,,https://store.lifecorp.jp/
兵庫県神戸市須磨区大池町3-1-32,Lifecorp,,Japan,"{'brand': 'Lifecorp', 'fascia': 'Lifecorp', 'category': 'Store', 'edit_date': '2025-04-21', 'lat_lon_source': 'website'}",34.65638980000000000000,135.13725520000000000000,ライフスマタカトリテン,"{'opening_hour': {'Sun': '09:30:00-24:00:00', 'Mon': '09:30:00-24:00:00', 'Tue': '09:30:00-24:00:00', 'Wed': '09:30:00-24:00:00', 'Thur': '09:30:00-24:00:00', 'Fri': '09:30:00-24:00:00', 'Sat': '09:30:00-24:00:00'}}",078-731-1512,654-0026,99289,,https://store.lifecorp.jp/
大阪府大阪市住吉区万代4-13-3,Lifecorp,,Japan,"{'brand': 'Lifecorp', 'fascia': 'Lifecorp', 'category': 'Store', 'edit_date': '2025-04-21', 'lat_lon_source': 'website'}",34.61754349000000000000,135.50373830000000000000,ライフスミヨシテン,"{'opening_hour': {'Sun': '09:30:00-24:00:00', 'Mon': '09:30:00-24:00:00', 'Tue': '09:30:00-24:00:00', 'Wed': '09:30:00-24:00:00', 'Thur': '09:30:00-24:00:00', 'Fri': '09:30:00-24:00:00', 'Sat': '09:30:00-24:00:00'}}",06-6672-4311,558-0055,99345,,https://store.lifecorp.jp/
大阪府大阪市住吉区山之内1-10-15,Lifecorp,,Japan,"{'brand': 'Lifecorp', 'fascia': 'Lifecorp', 'category': 'Store', 'edit_date': '2025-04-21', 'lat_lon_source': 'website'}",34.60036744000000000000,135.50331600000000000000,ライフスミヨシヤマノウチテン,"{'opening_hour': {'Sun': '09:30:00-24:00:00', 'Mon': '09:30:00-24:00:00', 'Tue': '09:30:00-24:00:00', 'Wed': '09:30:00-24:00:00', 'Thur': '09:30:00-24:00:00', 'Fri': '09:30:00-24:00:00', 'Sat': '09:30:00-24:00:00'}}",06-6609-7701,558-0023,99388,,https://store.lifecorp.jp/
大阪府大阪市城東区関目1-5-3,Lifecorp,,Japan,"{'brand': 'Lifecorp', 'fascia': 'Lifecorp', 'category': 'Store', 'edit_date': '2025-04-21', 'lat_lon_source': 'website'}",34.70868920000000000000,135.54673670000000000000,ライフセキメテン,"{'opening_hour': {'Sun': '09:30:00-24:00:00', 'Mon': '09:30:00-24:00:00', 'Tue': '09:30:00-24:00:00', 'Wed': '09:30:00-24:00:00', 'Thur': '09:30:00-24:00:00', 'Fri': '09:30:00-24:00:00', 'Sat': '09:30:00-24:00:00'}}",06-6936-9311,536-0008,99431,,https://store.lifecorp.jp/
大阪府松原市天美東3-500 セブンパーク天美 1階,Lifecorp,,Japan,"{'brand': 'Lifecorp', 'fascia': 'Lifecorp', 'category': 'Store', 'edit_date': '2025-04-21', 'lat_lon_source': 'website'}",34.59041872000000000000,135.54336660000000000000,ライフセブンパークアマミテン,"{'opening_hour': {'Sun': '09:30:00-21:00:00', 'Mon': '09:30:00-21:00:00', 'Tue': '09:30:00-21:00:00', 'Wed': '09:30:00-21:00:00', 'Thur': '09:30:00-21:00:00', 'Fri': '09:30:00-21:00:00', 'Sat': '09:30:00-21:00:00'}}",072-336-0121,580-0032,99417,,https://store.lifecorp.jp/
東京都豊島区要町3丁目45-4,Lifecorp,,Japan,"{'brand': 'Lifecorp', 'fascia': 'Lifecorp', 'category': 'Store', 'edit_date': '2025-04-21', 'lat_lon_source': 'website'}",35.73953130000000000000,139.68833860000000000000,ライフセンカワエキマエテン,"{'opening_hour': {'Sun': '09:30:00-24:00:00', 'Mon': '09:30:00-24:00:00', 'Tue': '09:30:00-24:00:00', 'Wed': '09:30:00-24:00:00', 'Thur': '09:30:00-24:00:00', 'Fri': '09:30:00-24:00:00', 'Sat': '09:30:00-24:00:00'}}",03-3974-2301,171-0043,99479,,https://store.lifecorp.jp/
東京都渋谷区恵比寿4丁目20-7恵比寿ｶﾞｰﾃﾞﾝﾌﾟﾚｲｽ ｾﾝﾀｰﾌﾟﾗｻﾞB2,Lifecorp,,Japan,"{'brand': 'Lifecorp', 'fascia': 'Lifecorp', 'category': 'Store', 'edit_date': '2025-04-21', 'lat_lon_source': 'website'}",35.64250062000000000000,139.71383420000000000000,ライフセントラルスクエアエビスガーデンプレイステン,"{'opening_hour': {'Sun': '09:30:00-22:30:00', 'Mon': '09:30:00-22:30:00', 'Tue': '09:30:00-22:30:00', 'Wed': '09:30:00-22:30:00', 'Thur': '09:30:00-22:30:00', 'Fri': '09:30:00-22:30:00', 'Sat': '09:30:00-22:30:00'}}",03-3445-1090,150-0013,99565,,https://store.lifecorp.jp/
東京都墨田区押上1丁目10-3,Lifecorp,,Japan,"{'brand': 'Lifecorp', 'fascia': 'Lifecorp', 'category': 'Store', 'edit_date': '2025-04-21', 'lat_lon_source': 'website'}",35.71024830000000000000,139.81375900000000000000,ライフセントラルスクエアオシアゲエキマエテン,"{'opening_hour': {'Sun': '09:30:00-24:00:00', 'Mon': '09:30:00-24:00:00', 'Tue': '09:30:00-24:00:00', 'Wed': '09:30:00-24:00:00', 'Thur': '09:30:00-24:00:00', 'Fri': '09:30:00-24:00:00', 'Sat': '09:30:00-24:00:00'}}",03-3622-2320,131-0045,99558,,https://store.lifecorp.jp/
大阪府大阪市東淀川区東中島6-2-17,Lifecorp,,Japan,"{'brand': 'Lifecorp', 'fascia': 'Lifecorp', 'category': 'Store', 'edit_date': '2025-04-21', 'lat_lon_source': 'website'}",34.73275420000000000000,135.51076270000000000000,ライフソウゼンジテン,"{'opening_hour': {'Sun': '09:30:00-24:00:00', 'Mon': '09:30:00-24:00:00', 'Tue': '09:30:00-24:00:00', 'Wed': '09:30:00-24:00:00', 'Thur': '09:30:00-24:00:00', 'Fri': '09:30:00-24:00:00', 'Sat': '09:30:00-24:00:00'}}",06-4809-0021,533-0033,99282,,https://store.lifecorp.jp/
埼玉県所沢市北秋津592ｿｺﾗ所沢 1F,Lifecorp,,Japan,"{'brand': 'Lifecorp', 'fascia': 'Lifecorp', 'category': 'Store', 'edit_date': '2025-04-21', 'lat_lon_source': 'website'}",35.78448686000000000000,139.48244760000000000000,ライフソコラトコロザワテン,"{'opening_hour': {'Sun': '09:00:00-21:30:00', 'Mon': '09:00:00-21:30:00', 'Tue': '09:00:00-21:30:00', 'Wed': '09:00:00-21:30:00', 'Thur': '09:00:00-21:30:00', 'Fri': '09:00:00-21:30:00', 'Sat': '09:00:00-21:30:00'}}",04-2992-8455,359-0038,99487,,https://store.lifecorp.jp/
大阪府東大阪市太平寺2-10-19,Lifecorp,,Japan,"{'brand': 'Lifecorp', 'fascia': 'Lifecorp', 'category': 'Store', 'edit_date': '2025-04-21', 'lat_lon_source': 'website'}",34.65286652000000000000,135.56795950000000000000,ライフタイヘイジテン,"{'opening_hour': {'Sun': '09:30:00-24:00:00', 'Mon': '09:30:00-24:00:00', 'Tue': '09:30:00-24:00:00', 'Wed': '09:30:00-24:00:00', 'Thur': '09:30:00-24:00:00', 'Fri': '09:30:00-24:00:00', 'Sat': '09:30:00-24:00:00'}}",06-6720-0300,577-0844,99404,,https://store.lifecorp.jp/
大阪府大阪市北区野崎町8-1,Lifecorp,,Japan,"{'brand': 'Lifecorp', 'fascia': 'Lifecorp', 'category': 'Store', 'edit_date': '2025-04-21', 'lat_lon_source': 'website'}",34.70133361000000000000,135.50611890000000000000,ライフタイユウジテン,"{'opening_hour': {'Sun': '09:00:00-24:00:00', 'Mon': '08:00:00-24:00:00', 'Tue': '08:00:00-24:00:00', 'Wed': '08:00:00-24:00:00', 'Thur': '08:00:00-24:00:00', 'Fri': '08:00:00-24:00:00', 'Sat': '09:00:00-24:00:00'}}",06-6367-0011,530-0055,99426,,https://store.lifecorp.jp/
大阪府高石市高師浜3-20-20,Lifecorp,,Japan,"{'brand': 'Lifecorp', 'fascia': 'Lifecorp', 'category': 'Store', 'edit_date': '2025-04-21', 'lat_lon_source': 'website'}",34.52340130000000000000,135.43467610000000000000,ライフタカイシテン,"{'opening_hour': {'Sun': '09:00:00-21:00:00', 'Mon': '09:00:00-21:00:00', 'Tue': '09:00:00-21:00:00', 'Wed': '09:00:00-21:00:00', 'Thur': '09:00:00-21:00:00', 'Fri': '09:00:00-21:00:00', 'Sat': '09:00:00-21:00:00'}}",072-265-1520,592-0004,99415,,https://store.lifecorp.jp/
大阪府東大阪市高井田西6-1-1,Lifecorp,,Japan,"{'brand': 'Lifecorp', 'fascia': 'Lifecorp', 'category': 'Store', 'edit_date': '2025-04-21', 'lat_lon_source': 'website'}",34.67875360000000000000,135.56656520000000000000,ライフタカイダテン,"{'opening_hour': {'Sun': '09:00:00-24:00:00', 'Mon': '09:00:00-24:00:00', 'Tue': '09:00:00-24:00:00', 'Wed': '09:00:00-24:00:00', 'Thur': '09:00:00-24:00:00', 'Fri': '09:00:00-24:00:00', 'Sat': '09:00:00-24:00:00'}}",06-6784-7481,577-0067,99385,,https://store.lifecorp.jp/
大阪府高槻市城西町6-28,Lifecorp,,Japan,"{'brand': 'Lifecorp', 'fascia': 'Lifecorp', 'category': 'Store', 'edit_date': '2025-04-21', 'lat_lon_source': 'website'}",34.84197851000000000000,135.61633370000000000000,ライフタカツキジョウサイテン,"{'opening_hour': {'Sun': '09:00:00-21:00:00', 'Mon': '09:00:00-21:00:00', 'Tue': '09:00:00-21:00:00', 'Wed': '09:00:00-21:00:00', 'Thur': '09:00:00-21:00:00', 'Fri': '09:00:00-21:00:00', 'Sat': '09:00:00-21:00:00'}}",072-662-3161,569-0065,99452,,https://store.lifecorp.jp/
神奈川県川崎市高津区新作5丁目4-28,Lifecorp,,Japan,"{'brand': 'Lifecorp', 'fascia': 'Lifecorp', 'category': 'Store', 'edit_date': '2025-04-21', 'lat_lon_source': 'website'}",35.58686889000000000000,139.62238190000000000000,ライフタカツシンサクテン,"{'opening_hour': {'Sun': '09:30:00-22:00:00', 'Mon': '09:30:00-22:00:00', 'Tue': '09:30:00-22:00:00', 'Wed': '09:30:00-22:00:00', 'Thur': '09:30:00-22:00:00', 'Fri': '09:30:00-22:00:00', 'Sat': '09:30:00-22:00:00'}}",044-852-7900,213-0014,99466,,https://store.lifecorp.jp/
大阪府大阪市旭区高殿5-10-14,Lifecorp,,Japan,"{'brand': 'Lifecorp', 'fascia': 'Lifecorp', 'category': 'Store', 'edit_date': '2025-04-21', 'lat_lon_source': 'website'}",34.71929522000000000000,135.53855990000000000000,ライフタカドノテン,"{'opening_hour': {'Sun': '09:30:00-24:00:00', 'Mon': '09:30:00-24:00:00', 'Tue': '09:30:00-24:00:00', 'Wed': '09:30:00-24:00:00', 'Thur': '09:30:00-24:00:00', 'Fri': '09:30:00-24:00:00', 'Sat': '09:30:00-24:00:00'}}",06-6955-2011,535-0031,99346,,https://store.lifecorp.jp/
京都府京都市左京区岩倉東五田町64,Lifecorp,,Japan,"{'brand': 'Lifecorp', 'fascia': 'Lifecorp', 'category': 'Store', 'edit_date': '2025-04-21', 'lat_lon_source': 'website'}",35.06451213000000000000,135.78058430000000000000,ライフタカラガイケテン,"{'opening_hour': {'Sun': '09:30:00-20:00:00', 'Mon': '09:30:00-20:00:00', 'Tue': '09:30:00-20:00:00', 'Wed': '09:30:00-20:00:00', 'Thur': '09:30:00-20:00:00', 'Fri': '09:30:00-20:00:00', 'Sat': '09:30:00-20:00:00'}}",075-722-0981,606-0007,99342,,https://store.lifecorp.jp/
兵庫県宝塚市中筋5-10-27,Lifecorp,,Japan,"{'brand': 'Lifecorp', 'fascia': 'Lifecorp', 'category': 'Store', 'edit_date': '2025-04-21', 'lat_lon_source': 'website'}",34.81580453000000000000,135.37422180000000000000,ライフタカラヅカナカヤマデラテン,"{'opening_hour': {'Sun': '09:30:00-21:00:00', 'Mon': '09:30:00-21:00:00', 'Tue': '09:30:00-21:00:00', 'Wed': '09:30:00-21:00:00', 'Thur': '09:30:00-21:00:00', 'Fri': '09:30:00-21:00:00', 'Sat': '09:30:00-21:00:00'}}",0797-88-2222,665-0874,99270,,https://store.lifecorp.jp/
大阪府富田林市須賀2-14-6,Lifecorp,,Japan,"{'brand': 'Lifecorp', 'fascia': 'Lifecorp', 'category': 'Store', 'edit_date': '2025-04-21', 'lat_lon_source': 'website'}",34.47692599000000000000,135.56422940000000000000,ライフタキタニテン,"{'opening_hour': {'Sun': '09:00:00-21:00:00', 'Mon': '09:00:00-21:00:00', 'Tue': '09:00:00-21:00:00', 'Wed': '09:00:00-21:00:00', 'Thur': '09:00:00-21:00:00', 'Fri': '09:00:00-21:00:00', 'Sat': '09:00:00-21:00:00'}}",0721-54-3491,584-0062,99389,,https://store.lifecorp.jp/
東京都足立区西伊興4丁目1-22,Lifecorp,,Japan,"{'brand': 'Lifecorp', 'fascia': 'Lifecorp', 'category': 'Store', 'edit_date': '2025-04-21', 'lat_lon_source': 'website'}",35.80139122000000000000,139.78333860000000000000,ライフタケノツカテン,"{'opening_hour': {'Sun': '09:30:00-21:30:00', 'Mon': '09:30:00-21:30:00', 'Tue': '09:30:00-21:30:00', 'Wed': '09:30:00-21:30:00', 'Thur': '09:30:00-21:30:00', 'Fri': '09:30:00-21:30:00', 'Sat': '09:30:00-21:30:00'}}",03-3853-0081,121-0824,99422,,https://store.lifecorp.jp/
大阪府生野区巽中1-22-2,Lifecorp,,Japan,"{'brand': 'Lifecorp', 'fascia': 'Lifecorp', 'category': 'Store', 'edit_date': '2025-04-21', 'lat_lon_source': 'website'}",34.65117176000000000000,135.55424080000000000000,ライフタツミテン,"{'opening_hour': {'Sun': '09:00:00-24:00:00', 'Mon': '09:00:00-24:00:00', 'Tue': '09:00:00-24:00:00', 'Wed': '09:00:00-24:00:00', 'Thur': '09:00:00-24:00:00', 'Fri': '09:00:00-24:00:00', 'Sat': '09:00:00-24:00:00'}}",06-6753-6161,544-0013,99352,,https://store.lifecorp.jp/
大阪府東大阪市玉串町東1-6-20,Lifecorp,,Japan,"{'brand': 'Lifecorp', 'fascia': 'Lifecorp', 'category': 'Store', 'edit_date': '2025-04-21', 'lat_lon_source': 'website'}",34.65571083000000000000,135.62434660000000000000,ライフタマグシテン,"{'opening_hour': {'Sun': '09:00:00-24:00:00', 'Mon': '09:00:00-24:00:00', 'Tue': '09:00:00-24:00:00', 'Wed': '09:00:00-24:00:00', 'Thur': '09:00:00-24:00:00', 'Fri': '09:00:00-24:00:00', 'Sat': '09:00:00-24:00:00'}}",072-967-1251,578-0932,99311,,https://store.lifecorp.jp/
大阪府大阪市東成区中道3-12-8,Lifecorp,,Japan,"{'brand': 'Lifecorp', 'fascia': 'Lifecorp', 'category': 'Store', 'edit_date': '2025-04-21', 'lat_lon_source': 'website'}",34.67528654000000000000,135.53598410000000000000,ライフタマツクリテン,"{'opening_hour': {'Sun': '09:30:00-24:00:00', 'Mon': '09:30:00-24:00:00', 'Tue': '09:30:00-24:00:00', 'Wed': '09:30:00-24:00:00', 'Thur': '09:30:00-24:00:00', 'Fri': '09:30:00-24:00:00', 'Sat': '09:30:00-24:00:00'}}",06-6977-7701,537-0025,99347,,https://store.lifecorp.jp/
大阪府大阪市西成区玉出東2-9-40,Lifecorp,,Japan,"{'brand': 'Lifecorp', 'fascia': 'Lifecorp', 'category': 'Store', 'edit_date': '2025-04-21', 'lat_lon_source': 'website'}",34.62427808000000000000,135.49511240000000000000,ライフタマデヒガシテン,"{'opening_hour': {'Sun': '09:30:00-24:00:00', 'Mon': '09:30:00-24:00:00', 'Tue': '09:30:00-24:00:00', 'Wed': '09:30:00-24:00:00', 'Thur': '09:30:00-24:00:00', 'Fri': '09:30:00-24:00:00', 'Sat': '09:30:00-24:00:00'}}",06-6661-1215,557-0043,99436,,https://store.lifecorp.jp/
大阪府大阪市浪速区敷津西1-4-1,Lifecorp,,Japan,"{'brand': 'Lifecorp', 'fascia': 'Lifecorp', 'category': 'Store', 'edit_date': '2025-04-21', 'lat_lon_source': 'website'}",34.65801550000000000000,135.49636300000000000000,ライフダイコクチョウテン,"{'opening_hour': {'Sun': '09:30:00-24:00:00', 'Mon': '09:30:00-24:00:00', 'Tue': '09:30:00-24:00:00', 'Wed': '09:30:00-24:00:00', 'Thur': '09:30:00-24:00:00', 'Fri': '09:30:00-24:00:00', 'Sat': '09:30:00-24:00:00'}}",06-6631-0210,556-0015,99400,,https://store.lifecorp.jp/
大阪府堺市堺区大仙西町6-184-1,Lifecorp,,Japan,"{'brand': 'Lifecorp', 'fascia': 'Lifecorp', 'category': 'Store', 'edit_date': '2025-04-21', 'lat_lon_source': 'website'}",34.56360097000000000000,135.47514240000000000000,ライフダイセンテン,"{'opening_hour': {'Sun': '09:00:00-22:00:00', 'Mon': '09:00:00-22:00:00', 'Tue': '09:00:00-22:00:00', 'Wed': '09:00:00-22:00:00', 'Thur': '09:00:00-22:00:00', 'Fri': '09:00:00-22:00:00', 'Sat': '09:00:00-22:00:00'}}",072-280-1051,590-0821,99286,,https://store.lifecorp.jp/
京都府京都市上京区大宮通寺之内一丁下る西入伊佐町212-3,Lifecorp,,Japan,"{'brand': 'Lifecorp', 'fascia': 'Lifecorp', 'category': 'Store', 'edit_date': '2025-04-21', 'lat_lon_source': 'website'}",35.03313478000000000000,135.74739610000000000000,ライフチエコウインテン,"{'opening_hour': {'Sun': '09:00:00-21:00:00', 'Mon': '09:00:00-21:00:00', 'Tue': '09:00:00-21:00:00', 'Wed': '09:00:00-21:00:00', 'Thur': '09:00:00-21:00:00', 'Fri': '09:00:00-21:00:00', 'Sat': '09:00:00-21:00:00'}}",075-441-2350,602-8407,99358,,https://store.lifecorp.jp/
東京都世田谷区南烏山5-32-1,Lifecorp,,Japan,"{'brand': 'Lifecorp', 'fascia': 'Lifecorp', 'category': 'Store', 'edit_date': '2025-04-21', 'lat_lon_source': 'website'}",35.66690076000000000000,139.60088280000000000000,ライフチトセカラスヤマテン,"{'opening_hour': {'Sun': '09:30:00-24:00:00', 'Mon': '09:30:00-24:00:00', 'Tue': '09:30:00-24:00:00', 'Wed': '09:30:00-24:00:00', 'Thur': '09:30:00-24:00:00', 'Fri': '09:30:00-24:00:00', 'Sat': '09:30:00-24:00:00'}}",03-3300-2151,157-0062,99511,,https://store.lifecorp.jp/
大阪府大阪市西淀川区柏里2-7-32,Lifecorp,,Japan,"{'brand': 'Lifecorp', 'fascia': 'Lifecorp', 'category': 'Store', 'edit_date': '2025-04-21', 'lat_lon_source': 'website'}",34.71118510000000000000,135.46694310000000000000,ライフツカモトテン,"{'opening_hour': {'Sun': '09:00:00-21:00:00', 'Mon': '09:00:00-21:00:00', 'Tue': '09:00:00-21:00:00', 'Wed': '09:00:00-21:00:00', 'Thur': '09:00:00-21:00:00', 'Fri': '09:00:00-21:00:00', 'Sat': '09:00:00-21:00:00'}}",06-6471-9895,555-0022,99363,,https://store.lifecorp.jp/
大阪府大阪市鶴見区今津北3-8-22,Lifecorp,,Japan,"{'brand': 'Lifecorp', 'fascia': 'Lifecorp', 'category': 'Store', 'edit_date': '2025-04-21', 'lat_lon_source': 'website'}",34.69356406000000000000,135.57447290000000000000,ライフツルミイマヅキタテン,"{'opening_hour': {'Sun': '09:30:00-24:00:00', 'Mon': '09:30:00-24:00:00', 'Tue': '09:30:00-24:00:00', 'Wed': '09:30:00-24:00:00', 'Thur': '09:30:00-24:00:00', 'Fri': '09:30:00-24:00:00', 'Sat': '09:30:00-24:00:00'}}",06-6963-7601,538-0041,99384,,https://store.lifecorp.jp/
神奈川県横浜市鶴見区下野谷町1丁目27,Lifecorp,,Japan,"{'brand': 'Lifecorp', 'fascia': 'Lifecorp', 'category': 'Store', 'edit_date': '2025-04-21', 'lat_lon_source': 'website'}",35.50081110000000000000,139.67929740000000000000,ライフツルミシタノヤチョウテン,"{'opening_hour': {'Sun': '09:30:00-22:00:00', 'Mon': '09:30:00-22:00:00', 'Tue': '09:30:00-22:00:00', 'Wed': '09:30:00-22:00:00', 'Thur': '09:30:00-22:00:00', 'Fri': '09:30:00-22:00:00', 'Sat': '09:30:00-22:00:00'}}",045-502-2281,230-0047,99554,,https://store.lifecorp.jp/
神奈川県横浜市鶴見区北寺尾2-19,Lifecorp,,Japan,"{'brand': 'Lifecorp', 'fascia': 'Lifecorp', 'category': 'Store', 'edit_date': '2025-04-21', 'lat_lon_source': 'website'}",35.51552911000000000000,139.66510590000000000000,ライフツルミテン,"{'opening_hour': {'Sun': '09:00:00-22:00:00', 'Mon': '09:00:00-22:00:00', 'Tue': '09:00:00-22:00:00', 'Wed': '09:00:00-22:00:00', 'Thur': '09:00:00-22:00:00', 'Fri': '09:00:00-22:00:00', 'Sat': '09:00:00-22:00:00'}}",045-573-2120,230-0074,99505,,https://store.lifecorp.jp/
大阪府大阪市天王寺区国分町20-26,Lifecorp,,Japan,"{'brand': 'Lifecorp', 'fascia': 'Lifecorp', 'category': 'Store', 'edit_date': '2025-04-21', 'lat_lon_source': 'website'}",34.65058575000000000000,135.52485610000000000000,ライフテラダチョウエキマエテン,"{'opening_hour': {'Sun': '09:30:00-24:00:00', 'Mon': '09:30:00-24:00:00', 'Tue': '09:30:00-24:00:00', 'Wed': '09:30:00-24:00:00', 'Thur': '09:30:00-24:00:00', 'Fri': '09:30:00-24:00:00', 'Sat': '09:30:00-24:00:00'}}",06-6773-8021,543-0044,99381,,https://store.lifecorp.jp/
京都府城陽市寺田樋尻32,Lifecorp,,Japan,"{'brand': 'Lifecorp', 'fascia': 'Lifecorp', 'category': 'Store', 'edit_date': '2025-04-21', 'lat_lon_source': 'website'}",34.85244700000000000000,135.77258080000000000000,ライフテラダテン,"{'opening_hour': {'Sun': '09:00:00-21:00:00', 'Mon': '09:00:00-21:00:00', 'Tue': '09:00:00-21:00:00', 'Wed': '09:00:00-21:00:00', 'Thur': '09:00:00-21:00:00', 'Fri': '09:00:00-21:00:00', 'Sat': '09:00:00-21:00:00'}}",0774-54-3232,610-0121,99442,,https://store.lifecorp.jp/
大阪府大阪市中央区島町2-3-3,Lifecorp,,Japan,"{'brand': 'Lifecorp', 'fascia': 'Lifecorp', 'category': 'Store', 'edit_date': '2025-04-21', 'lat_lon_source': 'website'}",34.68892568000000000000,135.51192720000000000000,ライフテンジンバシテン,"{'opening_hour': {'Sun': '09:30:00-24:00:00', 'Mon': '09:30:00-24:00:00', 'Tue': '09:30:00-24:00:00', 'Wed': '09:30:00-24:00:00', 'Thur': '09:30:00-24:00:00', 'Fri': '09:30:00-24:00:00', 'Sat': '09:30:00-24:00:00'}}",06-6910-0020,540-0034,99393,,https://store.lifecorp.jp/
大阪府大阪市西淀川区出来島1-5-12,Lifecorp,,Japan,"{'brand': 'Lifecorp', 'fascia': 'Lifecorp', 'category': 'Store', 'edit_date': '2025-04-21', 'lat_lon_source': 'website'}",34.70680130000000000000,135.43856390000000000000,ライフデキジマテン,"{'opening_hour': {'Sun': '09:30:00-21:00:00', 'Mon': '09:30:00-21:00:00', 'Tue': '09:30:00-21:00:00', 'Wed': '09:30:00-21:00:00', 'Thur': '09:30:00-21:00:00', 'Fri': '09:30:00-21:00:00', 'Sat': '09:30:00-21:00:00'}}",06-6475-7071,555-0031,99272,,https://store.lifecorp.jp/
大阪府枚方市甲斐田新町8-1,Lifecorp,,Japan,"{'brand': 'Lifecorp', 'fascia': 'Lifecorp', 'category': 'Store', 'edit_date': '2025-04-21', 'lat_lon_source': 'website'}",34.82172365000000000000,135.67718240000000000000,ライフデヤシキテン,"{'opening_hour': {'Sun': '09:30:00-24:00:00', 'Mon': '09:30:00-24:00:00', 'Tue': '09:30:00-24:00:00', 'Wed': '09:30:00-24:00:00', 'Thur': '09:30:00-24:00:00', 'Fri': '09:30:00-24:00:00', 'Sat': '09:30:00-24:00:00'}}",072-847-0012,573-1163,99390,,https://store.lifecorp.jp/
大阪府大阪市西区土佐堀1-5-25,Lifecorp,,Japan,"{'brand': 'Lifecorp', 'fascia': 'Lifecorp', 'category': 'Store', 'edit_date': '2025-04-21', 'lat_lon_source': 'website'}",34.68927361000000000000,135.49135040000000000000,ライフトサボリテン,"{'opening_hour': {'Sun': '09:30:00-24:00:00', 'Mon': '09:30:00-24:00:00', 'Tue': '09:30:00-24:00:00', 'Wed': '09:30:00-24:00:00', 'Thur': '09:30:00-24:00:00', 'Fri': '09:30:00-24:00:00', 'Sat': '09:30:00-24:00:00'}}",06-6445-0061,550-0001,99303,,https://store.lifecorp.jp/
神奈川県横浜市戸塚区汲沢町1158-1,Lifecorp,,Japan,"{'brand': 'Lifecorp', 'fascia': 'Lifecorp', 'category': 'Store', 'edit_date': '2025-04-21', 'lat_lon_source': 'website'}",35.39072729000000000000,139.52091670000000000000,ライフトツカグミザワテン,"{'opening_hour': {'Sun': '09:00:00-22:00:00', 'Mon': '09:00:00-22:00:00', 'Tue': '09:00:00-22:00:00', 'Wed': '09:00:00-22:00:00', 'Thur': '09:00:00-22:00:00', 'Fri': '09:00:00-22:00:00', 'Sat': '09:00:00-22:00:00'}}",045-861-3951,245-0062,99435,,https://store.lifecorp.jp/
奈良県大和高田市幸町3-18,Lifecorp,,Japan,"{'brand': 'Lifecorp', 'fascia': 'Lifecorp', 'category': 'Store', 'edit_date': '2025-04-21', 'lat_lon_source': 'website'}",34.51890251000000000000,135.74425430000000000000,ライフトナリエヤマトタカダテン,"{'opening_hour': {'Sun': '09:00:00-22:00:00', 'Mon': '09:00:00-22:00:00', 'Tue': '09:00:00-22:00:00', 'Wed': '09:00:00-22:00:00', 'Thur': '09:00:00-22:00:00', 'Fri': '09:00:00-22:00:00', 'Sat': '09:00:00-22:00:00'}}",0745-52-1181,635-0015,99290,,https://store.lifecorp.jp/
大阪府大阪市東淀川区豊里4-7-27,Lifecorp,,Japan,"{'brand': 'Lifecorp', 'fascia': 'Lifecorp', 'category': 'Store', 'edit_date': '2025-04-21', 'lat_lon_source': 'website'}",34.73935450000000000000,135.53985000000000000000,ライフトヨサトテン,"{'opening_hour': {'Sun': '09:00:00-21:00:00', 'Mon': '09:00:00-21:00:00', 'Tue': '09:00:00-21:00:00', 'Wed': '09:00:00-21:00:00', 'Thur': '09:00:00-21:00:00', 'Fri': '09:00:00-21:00:00', 'Sat': '09:00:00-21:00:00'}}",06-6326-5231,533-0013,99367,,https://store.lifecorp.jp/
東京都江東区豊洲4丁目11-6,Lifecorp,,Japan,"{'brand': 'Lifecorp', 'fascia': 'Lifecorp', 'category': 'Store', 'edit_date': '2025-04-21', 'lat_lon_source': 'website'}",35.65196643000000000000,139.79990670000000000000,ライフトヨステン,"{'opening_hour': {'Sun': '09:30:00-24:00:00', 'Mon': '09:30:00-24:00:00', 'Tue': '09:30:00-24:00:00', 'Wed': '09:30:00-24:00:00', 'Thur': '09:30:00-24:00:00', 'Fri': '09:30:00-24:00:00', 'Sat': '09:30:00-24:00:00'}}",03-3536-5800,135-0061,99574,,https://store.lifecorp.jp/
大阪府吹田市出口町26-29,Lifecorp,,Japan,"{'brand': 'Lifecorp', 'fascia': 'Lifecorp', 'category': 'Store', 'edit_date': '2025-04-21', 'lat_lon_source': 'website'}",34.76426487000000000000,135.51183500000000000000,ライフトヨツテン,"{'opening_hour': {'Sun': '09:30:00-24:00:00', 'Mon': '09:30:00-24:00:00', 'Tue': '09:30:00-24:00:00', 'Wed': '09:30:00-24:00:00', 'Thur': '09:30:00-24:00:00', 'Fri': '09:30:00-24:00:00', 'Sat': '09:30:00-24:00:00'}}",06-6380-1691,564-0072,99376,,https://store.lifecorp.jp/
大阪府豊中市本町5-2-7,Lifecorp,,Japan,"{'brand': 'Lifecorp', 'fascia': 'Lifecorp', 'category': 'Store', 'edit_date': '2025-04-21', 'lat_lon_source': 'website'}",34.78978050000000000000,135.46593410000000000000,ライフトヨナカテン,"{'opening_hour': {'Sun': '09:30:00-21:00:00', 'Mon': '09:30:00-21:00:00', 'Tue': '09:30:00-21:00:00', 'Wed': '09:30:00-21:00:00', 'Thur': '09:30:00-21:00:00', 'Fri': '09:30:00-21:00:00', 'Sat': '09:30:00-21:00:00'}}",06-6853-2025,560-0021,99341,,https://store.lifecorp.jp/
大阪府大阪市福島区福島3-2-16,Lifecorp,,Japan,"{'brand': 'Lifecorp', 'fascia': 'Lifecorp', 'category': 'Store', 'edit_date': '2025-04-21', 'lat_lon_source': 'website'}",34.69110836000000000000,135.48440930000000000000,ライフドウジマオオハシテン,"{'opening_hour': {'Sun': '09:30:00-24:00:00', 'Mon': '09:30:00-24:00:00', 'Tue': '09:30:00-24:00:00', 'Wed': '09:30:00-24:00:00', 'Thur': '09:30:00-24:00:00', 'Fri': '09:30:00-24:00:00', 'Sat': '09:30:00-24:00:00'}}",06-6454-8861,553-0003,99332,,https://store.lifecorp.jp/
東京都練馬区土支田2-30-14,Lifecorp,,Japan,"{'brand': 'Lifecorp', 'fascia': 'Lifecorp', 'category': 'Store', 'edit_date': '2025-04-21', 'lat_lon_source': 'website'}",35.76450928000000000000,139.61208480000000000000,ライフドシダテン,"{'opening_hour': {'Sun': '09:00:00-21:30:00', 'Mon': '09:00:00-21:30:00', 'Tue': '09:00:00-21:30:00', 'Wed': '09:00:00-21:30:00', 'Thur': '09:00:00-21:30:00', 'Fri': '09:00:00-21:30:00', 'Sat': '09:00:00-21:30:00'}}",03-5387-1320,179-0076,99465,,https://store.lifecorp.jp/
東京都品川区北品川5丁目4-1,Lifecorp,,Japan,"{'brand': 'Lifecorp', 'fascia': 'Lifecorp', 'category': 'Store', 'edit_date': '2025-04-21', 'lat_lon_source': 'website'}",35.62163333000000000000,139.73158080000000000000,ライフドラッグプラスシナガワゴテンヤマテン,"{'opening_hour': {'Sun': '09:30:00-22:00:00', 'Mon': '08:00:00-22:00:00', 'Tue': '08:00:00-22:00:00', 'Wed': '08:00:00-22:00:00', 'Thur': '08:00:00-22:00:00', 'Fri': '08:00:00-22:00:00', 'Sat': '09:30:00-22:00:00'}}",03-3445-0306,141-0001,99440,,https://store.lifecorp.jp/
大阪府大阪市北区万歳町2-15,Lifecorp,,Japan,"{'brand': 'Lifecorp', 'fascia': 'Lifecorp', 'category': 'Store', 'edit_date': '2025-04-21', 'lat_lon_source': 'website'}",34.70542305000000000000,135.50488400000000000000,ライフナカザキチョウエキマエテン,"{'opening_hour': {'Sun': '09:30:00-24:00:00', 'Mon': '09:30:00-24:00:00', 'Tue': '09:30:00-24:00:00', 'Wed': '09:30:00-24:00:00', 'Thur': '09:30:00-24:00:00', 'Fri': '09:30:00-24:00:00', 'Sat': '09:30:00-24:00:00'}}",06-6365-1022,530-0028,99317,,https://store.lifecorp.jp/
東京都板橋区 仲宿47-11,Lifecorp,,Japan,"{'brand': 'Lifecorp', 'fascia': 'Lifecorp', 'category': 'Store', 'edit_date': '2025-04-21', 'lat_lon_source': 'website'}",35.75548749000000000000,139.70918620000000000000,ライフナカジュクテン,"{'opening_hour': {'Sun': '09:30:00-24:00:00', 'Mon': '09:30:00-24:00:00', 'Tue': '09:30:00-24:00:00', 'Wed': '09:30:00-24:00:00', 'Thur': '09:30:00-24:00:00', 'Fri': '09:30:00-24:00:00', 'Sat': '09:30:00-24:00:00'}}",03-3964-5411,173-0005,99450,,https://store.lifecorp.jp/
東京都中野区新井3-8-12,Lifecorp,,Japan,"{'brand': 'Lifecorp', 'fascia': 'Lifecorp', 'category': 'Store', 'edit_date': '2025-04-21', 'lat_lon_source': 'website'}",35.71549415000000000000,139.66487970000000000000,ライフナカノアライテン,"{'opening_hour': {'Sun': '09:30:00-22:00:00', 'Mon': '09:30:00-22:00:00', 'Tue': '09:30:00-22:00:00', 'Wed': '09:30:00-22:00:00', 'Thur': '09:30:00-22:00:00', 'Fri': '09:30:00-22:00:00', 'Sat': '09:30:00-22:00:00'}}",03-3386-3371,165-0026,99486,,https://store.lifecorp.jp/
東京都中野区中野5丁目33-13,Lifecorp,,Japan,"{'brand': 'Lifecorp', 'fascia': 'Lifecorp', 'category': 'Store', 'edit_date': '2025-04-21', 'lat_lon_source': 'website'}",35.70683516000000000000,139.66713140000000000000,ライフナカノエキマエテン,"{'opening_hour': {'Sun': '09:30:00-24:00:00', 'Mon': '09:30:00-24:00:00', 'Tue': '09:30:00-24:00:00', 'Wed': '09:30:00-24:00:00', 'Thur': '09:30:00-24:00:00', 'Fri': '09:30:00-24:00:00', 'Sat': '09:30:00-24:00:00'}}",03-5343-8861,164-0001,99535,,https://store.lifecorp.jp/
東京都中野区中央1-36-3,Lifecorp,,Japan,"{'brand': 'Lifecorp', 'fascia': 'Lifecorp', 'category': 'Store', 'edit_date': '2025-04-21', 'lat_lon_source': 'website'}",35.69702942000000000000,139.68440740000000000000,ライフナカノサカウエテン,"{'opening_hour': {'Sun': '09:30:00-24:00:00', 'Mon': '09:30:00-24:00:00', 'Tue': '09:30:00-24:00:00', 'Wed': '09:30:00-24:00:00', 'Thur': '09:30:00-24:00:00', 'Fri': '09:30:00-24:00:00', 'Sat': '09:30:00-24:00:00'}}",03-5389-2571,164-0011,99570,,https://store.lifecorp.jp/
神奈川県川崎市中原区井田1丁目33-16,Lifecorp,,Japan,"{'brand': 'Lifecorp', 'fascia': 'Lifecorp', 'category': 'Store', 'edit_date': '2025-04-21', 'lat_lon_source': 'website'}",35.56476080000000000000,139.64119230000000000000,ライフナカハライダテン,"{'opening_hour': {'Sun': '09:30:00-22:00:00', 'Mon': '09:30:00-22:00:00', 'Tue': '09:30:00-22:00:00', 'Wed': '09:30:00-22:00:00', 'Thur': '09:30:00-22:00:00', 'Fri': '09:30:00-22:00:00', 'Sat': '09:30:00-22:00:00'}}",044-740-6771,211-0035,99522,,https://store.lifecorp.jp/
東京都目黒区上目黒3丁目8-7,Lifecorp,,Japan,"{'brand': 'Lifecorp', 'fascia': 'Lifecorp', 'category': 'Store', 'edit_date': '2025-04-21', 'lat_lon_source': 'website'}",35.64439901000000000000,139.69787150000000000000,ライフナカメグロテン,"{'opening_hour': {'Sun': '09:30:00-21:00:00', 'Mon': '09:30:00-21:00:00', 'Tue': '09:30:00-21:00:00', 'Wed': '09:30:00-21:00:00', 'Thur': '09:30:00-21:00:00', 'Fri': '09:30:00-21:00:00', 'Sat': '09:30:00-21:00:00'}}",03-3715-3151,153-0051,99498,,https://store.lifecorp.jp/
大阪府堺市北区長曾根町3081-17,Lifecorp,,Japan,"{'brand': 'Lifecorp', 'fascia': 'Lifecorp', 'category': 'Store', 'edit_date': '2025-04-21', 'lat_lon_source': 'website'}",34.55802641000000000000,135.50891600000000000000,ライフナカモズテン,"{'opening_hour': {'Sun': '09:00:00-23:00:00', 'Mon': '09:00:00-23:00:00', 'Tue': '09:00:00-23:00:00', 'Wed': '09:00:00-23:00:00', 'Thur': '09:00:00-23:00:00', 'Fri': '09:00:00-23:00:00', 'Sat': '09:00:00-23:00:00'}}",072-252-2651,591-8025,99398,,https://store.lifecorp.jp/
大阪府大阪市住吉区長居東3-1-1,Lifecorp,,Japan,"{'brand': 'Lifecorp', 'fascia': 'Lifecorp', 'category': 'Store', 'edit_date': '2025-04-21', 'lat_lon_source': 'website'}",34.60902033000000000000,135.51707240000000000000,ライフナガイテン,"{'opening_hour': {'Sun': '09:30:00-24:00:00', 'Mon': '09:30:00-24:00:00', 'Tue': '09:30:00-24:00:00', 'Wed': '09:30:00-24:00:00', 'Thur': '09:30:00-24:00:00', 'Fri': '09:30:00-24:00:00', 'Sat': '09:30:00-24:00:00'}}",06-6697-3011,558-0004,99338,,https://store.lifecorp.jp/
兵庫県神戸市長田区北町1-4,Lifecorp,,Japan,"{'brand': 'Lifecorp', 'fascia': 'Lifecorp', 'category': 'Store', 'edit_date': '2025-04-21', 'lat_lon_source': 'website'}",34.66654195000000000000,135.15320020000000000000,ライフナガタテン,"{'opening_hour': {'Sun': '09:30:00-24:00:00', 'Mon': '09:30:00-24:00:00', 'Tue': '09:30:00-24:00:00', 'Wed': '09:30:00-24:00:00', 'Thur': '09:30:00-24:00:00', 'Fri': '09:30:00-24:00:00', 'Sat': '09:30:00-24:00:00'}}",078-578-0251,653-0016,99277,,https://store.lifecorp.jp/
埼玉県新座市栗原4丁目12-25,Lifecorp,,Japan,"{'brand': 'Lifecorp', 'fascia': 'Lifecorp', 'category': 'Store', 'edit_date': '2025-04-21', 'lat_lon_source': 'website'}",35.75556768000000000000,139.55094130000000000000,ライフニイザテン,"{'opening_hour': {'Sun': '09:00:00-24:00:00', 'Mon': '09:30:00-24:00:00', 'Tue': '09:30:00-24:00:00', 'Wed': '09:30:00-24:00:00', 'Thur': '09:30:00-24:00:00', 'Fri': '09:30:00-24:00:00', 'Sat': '09:00:00-24:00:00'}}",042-424-9211,352-0035,99566,,https://store.lifecorp.jp/
大阪府大阪市東淀川区西淡路6-3-2,Lifecorp,,Japan,"{'brand': 'Lifecorp', 'fascia': 'Lifecorp', 'category': 'Store', 'edit_date': '2025-04-21', 'lat_lon_source': 'website'}",34.74465945000000000000,135.51253630000000000000,ライフニシアワジテン,"{'opening_hour': {'Sun': '09:30:00-24:00:00', 'Mon': '09:30:00-24:00:00', 'Tue': '09:30:00-24:00:00', 'Wed': '09:30:00-24:00:00', 'Thur': '09:30:00-24:00:00', 'Fri': '09:30:00-24:00:00', 'Sat': '09:30:00-24:00:00'}}",06-6320-3105,533-0031,99402,,https://store.lifecorp.jp/
東京都練馬区西大泉3-16-20,Lifecorp,,Japan,"{'brand': 'Lifecorp', 'fascia': 'Lifecorp', 'category': 'Store', 'edit_date': '2025-04-21', 'lat_lon_source': 'website'}",35.75636227000000000000,139.57934870000000000000,ライフニシオオイズミテン,"{'opening_hour': {'Sun': '09:00:00-21:30:00', 'Mon': '09:30:00-21:30:00', 'Tue': '09:30:00-21:30:00', 'Wed': '09:30:00-21:30:00', 'Thur': '09:30:00-21:30:00', 'Fri': '09:30:00-21:30:00', 'Sat': '09:00:00-21:30:00'}}",03-3922-0874,178-0065,99414,,https://store.lifecorp.jp/
大阪府大阪市西区新町2-9-17,Lifecorp,,Japan,"{'brand': 'Lifecorp', 'fascia': 'Lifecorp', 'category': 'Store', 'edit_date': '2025-04-21', 'lat_lon_source': 'website'}",34.67640760000000000000,135.49186300000000000000,ライフニシオオハシテン,"{'opening_hour': {'Sun': '09:30:00-24:00:00', 'Mon': '09:30:00-24:00:00', 'Tue': '09:30:00-24:00:00', 'Wed': '09:30:00-24:00:00', 'Thur': '09:30:00-24:00:00', 'Fri': '09:30:00-24:00:00', 'Sat': '09:30:00-24:00:00'}}",06-6531-0891,550-0013,99276,,https://store.lifecorp.jp/
東京都杉並区西荻北5丁目8-22,Lifecorp,,Japan,"{'brand': 'Lifecorp', 'fascia': 'Lifecorp', 'category': 'Store', 'edit_date': '2025-04-21', 'lat_lon_source': 'website'}",35.70909278000000000000,139.60165490000000000000,ライフニシオギクボテン,"{'opening_hour': {'Sun': '09:30:00-24:00:00', 'Mon': '09:30:00-24:00:00', 'Tue': '09:30:00-24:00:00', 'Wed': '09:30:00-24:00:00', 'Thur': '09:30:00-24:00:00', 'Fri': '09:30:00-24:00:00', 'Sat': '09:30:00-24:00:00'}}",03-3395-1670,167-0042,99516,,https://store.lifecorp.jp/
東京都大田区西蒲田7-51-15,Lifecorp,,Japan,"{'brand': 'Lifecorp', 'fascia': 'Lifecorp', 'category': 'Store', 'edit_date': '2025-04-21', 'lat_lon_source': 'website'}",35.56236725000000000000,139.71068210000000000000,ライフニシカマタテン,"{'opening_hour': {'Sun': '09:00:00-24:00:00', 'Mon': '09:30:00-24:00:00', 'Tue': '09:30:00-24:00:00', 'Wed': '09:30:00-24:00:00', 'Thur': '09:30:00-24:00:00', 'Fri': '09:30:00-24:00:00', 'Sat': '09:30:00-24:00:00'}}",03-3731-2851,144-0051,99537,,https://store.lifecorp.jp/
京都府京都市右京区西京極畔勝町71-1,Lifecorp,,Japan,"{'brand': 'Lifecorp', 'fascia': 'Lifecorp', 'category': 'Store', 'edit_date': '2025-04-21', 'lat_lon_source': 'website'}",34.99347774000000000000,135.72156540000000000000,ライフニシキョウゴクテン,"{'opening_hour': {'Sun': '09:00:00-21:00:00', 'Mon': '09:00:00-21:00:00', 'Tue': '09:00:00-21:00:00', 'Wed': '09:00:00-21:00:00', 'Thur': '09:00:00-21:00:00', 'Fri': '09:00:00-21:00:00', 'Sat': '09:00:00-21:00:00'}}",075-315-4251,615-0806,99296,,https://store.lifecorp.jp/
大阪府大阪市此花区西九条6-1-132,Lifecorp,,Japan,"{'brand': 'Lifecorp', 'fascia': 'Lifecorp', 'category': 'Store', 'edit_date': '2025-04-21', 'lat_lon_source': 'website'}",34.68311363000000000000,135.46416260000000000000,ライフニシクジョウテン,"{'opening_hour': {'Sun': '09:30:00-24:00:00', 'Mon': '09:30:00-24:00:00', 'Tue': '09:30:00-24:00:00', 'Wed': '09:30:00-24:00:00', 'Thur': '09:30:00-24:00:00', 'Fri': '09:30:00-24:00:00', 'Sat': '09:30:00-24:00:00'}}",06-6462-0200,554-0012,99360,,https://store.lifecorp.jp/
東京都江戸川区西小岩3-35-20,Lifecorp,,Japan,"{'brand': 'Lifecorp', 'fascia': 'Lifecorp', 'category': 'Store', 'edit_date': '2025-04-21', 'lat_lon_source': 'website'}",35.73712901000000000000,139.87922700000000000000,ライフニシコイワテン,"{'opening_hour': {'Sun': '09:30:00-24:00:00', 'Mon': '09:30:00-24:00:00', 'Tue': '09:30:00-24:00:00', 'Wed': '09:30:00-24:00:00', 'Thur': '09:30:00-24:00:00', 'Fri': '09:30:00-24:00:00', 'Sat': '09:30:00-24:00:00'}}",03-3659-2211,133-0057,99508,,https://store.lifecorp.jp/
京都府京都市下京区西七条北衣田町40-1,Lifecorp,,Japan,"{'brand': 'Lifecorp', 'fascia': 'Lifecorp', 'category': 'Store', 'edit_date': '2025-04-21', 'lat_lon_source': 'website'}",34.98972584000000000000,135.73190500000000000000,ライフニシシチジョウテン,"{'opening_hour': {'Sun': '09:00:00-21:00:00', 'Mon': '09:00:00-21:00:00', 'Tue': '09:00:00-21:00:00', 'Wed': '09:00:00-21:00:00', 'Thur': '09:00:00-21:00:00', 'Fri': '09:00:00-21:00:00', 'Sat': '09:00:00-21:00:00'}}",075-322-1331,600-8883,99378,,https://store.lifecorp.jp/
京都府京都市上京区中立売通松屋町西入新白水丸町462,Lifecorp,,Japan,"{'brand': 'Lifecorp', 'fascia': 'Lifecorp', 'category': 'Store', 'edit_date': '2025-04-21', 'lat_lon_source': 'website'}",35.02529672000000000000,135.74766840000000000000,ライフニシジンテン,"{'opening_hour': {'Sun': '09:00:00-21:00:00', 'Mon': '09:00:00-21:00:00', 'Tue': '09:00:00-21:00:00', 'Wed': '09:00:00-21:00:00', 'Thur': '09:00:00-21:00:00', 'Fri': '09:00:00-21:00:00', 'Sat': '09:00:00-21:00:00'}}",075-451-1222,602-8205,99438,,https://store.lifecorp.jp/
大阪府大阪市阿倍野区西田辺町1-9-9,Lifecorp,,Japan,"{'brand': 'Lifecorp', 'fascia': 'Lifecorp', 'category': 'Store', 'edit_date': '2025-04-21', 'lat_lon_source': 'website'}",34.62004581000000000000,135.51691640000000000000,ライフニシタナベテン,"{'opening_hour': {'Sun': '09:30:00-24:00:00', 'Mon': '09:30:00-24:00:00', 'Tue': '09:30:00-24:00:00', 'Wed': '09:30:00-24:00:00', 'Thur': '09:30:00-24:00:00', 'Fri': '09:30:00-24:00:00', 'Sat': '09:30:00-24:00:00'}}",06-6695-1010,545-0014,99382,,https://store.lifecorp.jp/
兵庫県神戸市長田区御屋敷通3-1-47,Lifecorp,,Japan,"{'brand': 'Lifecorp', 'fascia': 'Lifecorp', 'category': 'Store', 'edit_date': '2025-04-21', 'lat_lon_source': 'website'}",34.66096910000000000000,135.14224200000000000000,ライフニシダイテン,"{'opening_hour': {'Sun': '09:30:00-22:00:00', 'Mon': '09:30:00-22:00:00', 'Tue': '09:30:00-22:00:00', 'Wed': '09:30:00-22:00:00', 'Thur': '09:30:00-22:00:00', 'Fri': '09:30:00-22:00:00', 'Sat': '09:30:00-22:00:00'}}",078-611-3101,653-0843,99327,,https://store.lifecorp.jp/
大阪府大阪市西成区梅南2-5-23,Lifecorp,,Japan,"{'brand': 'Lifecorp', 'fascia': 'Lifecorp', 'category': 'Store', 'edit_date': '2025-04-21', 'lat_lon_source': 'website'}",34.64241934000000000000,135.49041240000000000000,ライフニシテンガチャヤテン,"{'opening_hour': {'Sun': '09:00:00-24:00:00', 'Mon': '09:00:00-24:00:00', 'Tue': '09:00:00-24:00:00', 'Wed': '09:00:00-24:00:00', 'Thur': '09:00:00-24:00:00', 'Fri': '09:00:00-24:00:00', 'Sat': '09:00:00-24:00:00'}}",06-6659-7721,557-0033,99299,,https://store.lifecorp.jp/
兵庫県西宮市芦原町8-10,Lifecorp,,Japan,"{'brand': 'Lifecorp', 'fascia': 'Lifecorp', 'category': 'Store', 'edit_date': '2025-04-21', 'lat_lon_source': 'website'}",34.74207575000000000000,135.35272930000000000000,ライフニシノミヤキタグチテン,"{'opening_hour': {'Sun': '09:30:00-24:00:00', 'Mon': '09:30:00-24:00:00', 'Tue': '09:30:00-24:00:00', 'Wed': '09:30:00-24:00:00', 'Thur': '09:30:00-24:00:00', 'Fri': '09:30:00-24:00:00', 'Sat': '09:30:00-24:00:00'}}",0798-63-6512,662-0842,99307,,https://store.lifecorp.jp/
京都府京都市中京区西ノ京星池町248,Lifecorp,,Japan,"{'brand': 'Lifecorp', 'fascia': 'Lifecorp', 'category': 'Store', 'edit_date': '2025-04-21', 'lat_lon_source': 'website'}",35.01318265000000000000,135.74230530000000000000,ライフニジョウエキマエテン,"{'opening_hour': {'Sun': '09:00:00-24:00:00', 'Mon': '09:00:00-24:00:00', 'Tue': '09:00:00-24:00:00', 'Wed': '09:00:00-24:00:00', 'Thur': '09:00:00-24:00:00', 'Fri': '09:00:00-24:00:00', 'Sat': '09:00:00-24:00:00'}}",075-821-1110,604-8416,99278,,https://store.lifecorp.jp/
大阪府寝屋川市黒原新町9-8,Lifecorp,,Japan,"{'brand': 'Lifecorp', 'fascia': 'Lifecorp', 'category': 'Store', 'edit_date': '2025-04-21', 'lat_lon_source': 'website'}",34.75836330000000000000,135.59747440000000000000,ライフネヤガワクロハラテン,"{'opening_hour': {'Sun': '09:00:00-21:00:00', 'Mon': '09:00:00-21:00:00', 'Tue': '09:00:00-21:00:00', 'Wed': '09:00:00-21:00:00', 'Thur': '09:00:00-21:00:00', 'Fri': '09:00:00-21:00:00', 'Sat': '09:00:00-21:00:00'}}",072-827-0020,572-0059,99314,,https://store.lifecorp.jp/
大阪府寝屋川市昭栄町18-1,Lifecorp,,Japan,"{'brand': 'Lifecorp', 'fascia': 'Lifecorp', 'category': 'Store', 'edit_date': '2025-04-21', 'lat_lon_source': 'website'}",34.75859774000000000000,135.62611880000000000000,ライフネヤガワテン,"{'opening_hour': {'Sun': '09:30:00-21:00:00', 'Mon': '09:30:00-21:00:00', 'Tue': '09:30:00-21:00:00', 'Wed': '09:30:00-21:00:00', 'Thur': '09:30:00-21:00:00', 'Fri': '09:30:00-21:00:00', 'Sat': '09:30:00-21:00:00'}}",072-811-0801,572-0834,99348,,https://store.lifecorp.jp/
東京都練馬区中村北2丁目3-3,Lifecorp,,Japan,"{'brand': 'Lifecorp', 'fascia': 'Lifecorp', 'category': 'Store', 'edit_date': '2025-04-21', 'lat_lon_source': 'website'}",35.73635372000000000000,139.64450430000000000000,ライフネリマナカムラキタテン,"{'opening_hour': {'Sun': '09:30:00-24:00:00', 'Mon': '09:30:00-24:00:00', 'Tue': '09:30:00-24:00:00', 'Wed': '09:30:00-24:00:00', 'Thur': '09:30:00-24:00:00', 'Fri': '09:30:00-24:00:00', 'Sat': '09:30:00-24:00:00'}}",03-3577-7900,176-0023,99468,,https://store.lifecorp.jp/
大阪府大阪市福島区吉野4-29-25,Lifecorp,,Japan,"{'brand': 'Lifecorp', 'fascia': 'Lifecorp', 'category': 'Store', 'edit_date': '2025-04-21', 'lat_lon_source': 'website'}",34.68986200000000000000,135.47009220000000000000,ライフノダテン,"{'opening_hour': {'Sun': '09:00:00-24:00:00', 'Mon': '09:00:00-24:00:00', 'Tue': '09:00:00-24:00:00', 'Wed': '09:00:00-24:00:00', 'Thur': '09:00:00-24:00:00', 'Fri': '09:00:00-24:00:00', 'Sat': '09:00:00-24:00:00'}}",06-6465-4011,553-0006,99370,,https://store.lifecorp.jp/
東京都渋谷区幡ｹ谷2丁目17-1,Lifecorp,,Japan,"{'brand': 'Lifecorp', 'fascia': 'Lifecorp', 'category': 'Store', 'edit_date': '2025-04-21', 'lat_lon_source': 'website'}",35.67719049000000000000,139.67538970000000000000,ライフハタガヤテン,"{'opening_hour': {'Sun': '09:30:00-24:00:00', 'Mon': '09:30:00-24:00:00', 'Tue': '09:30:00-24:00:00', 'Wed': '09:30:00-24:00:00', 'Thur': '09:30:00-24:00:00', 'Fri': '09:30:00-24:00:00', 'Sat': '09:30:00-24:00:00'}}",03-3375-3021,151-0072,99416,,https://store.lifecorp.jp/
大阪府豊中市服部西町1-6-5,Lifecorp,,Japan,"{'brand': 'Lifecorp', 'fascia': 'Lifecorp', 'category': 'Store', 'edit_date': '2025-04-21', 'lat_lon_source': 'website'}",34.76244652000000000000,135.47394830000000000000,ライフハットリテン,"{'opening_hour': {'Sun': '09:30:00-24:00:00', 'Mon': '09:30:00-24:00:00', 'Tue': '09:30:00-24:00:00', 'Wed': '09:30:00-24:00:00', 'Thur': '09:30:00-24:00:00', 'Fri': '09:30:00-24:00:00', 'Sat': '09:30:00-24:00:00'}}",06-6868-4581,561-0858,99473,,https://store.lifecorp.jp/
大阪府堺市東区日置荘西町1-11-4,Lifecorp,,Japan,"{'brand': 'Lifecorp', 'fascia': 'Lifecorp', 'category': 'Store', 'edit_date': '2025-04-21', 'lat_lon_source': 'website'}",34.54332470000000000000,135.52558760000000000000,ライフハツシバテン,"{'opening_hour': {'Sun': '09:00:00-21:00:00', 'Mon': '09:00:00-21:00:00', 'Tue': '09:00:00-21:00:00', 'Wed': '09:00:00-21:00:00', 'Thur': '09:00:00-21:00:00', 'Fri': '09:00:00-21:00:00', 'Sat': '09:00:00-21:00:00'}}",072-286-2861,599-8114,99281,,https://store.lifecorp.jp/
大阪府東大阪市松原南1-1-25,Lifecorp,,Japan,"{'brand': 'Lifecorp', 'fascia': 'Lifecorp', 'category': 'Store', 'edit_date': '2025-04-21', 'lat_lon_source': 'website'}",34.67127360000000000000,135.62739220000000000000,ライフハナゾノチュウオウコウエンテン,"{'opening_hour': {'Sun': '09:30:00-22:00:00', 'Mon': '09:30:00-22:00:00', 'Tue': '09:30:00-22:00:00', 'Wed': '09:30:00-22:00:00', 'Thur': '09:30:00-22:00:00', 'Fri': '09:30:00-22:00:00', 'Sat': '09:30:00-22:00:00'}}",072-966-6155,578-0923,99335,,https://store.lifecorp.jp/
大阪府羽曳野市西浦1541-1,Lifecorp,,Japan,"{'brand': 'Lifecorp', 'fascia': 'Lifecorp', 'category': 'Store', 'edit_date': '2025-04-21', 'lat_lon_source': 'website'}",34.54103635000000000000,135.60538230000000000000,ライフハビキノニシウラテン,"{'opening_hour': {'Sun': '09:00:00-21:00:00', 'Mon': '09:00:00-21:00:00', 'Tue': '09:00:00-21:00:00', 'Wed': '09:00:00-21:00:00', 'Thur': '09:00:00-21:00:00', 'Fri': '09:00:00-21:00:00', 'Sat': '09:00:00-21:00:00'}}",072-957-2641,583-0861,99433,,https://store.lifecorp.jp/
兵庫県西宮市甲子園九番町11-62,Lifecorp,,Japan,"{'brand': 'Lifecorp', 'fascia': 'Lifecorp', 'category': 'Store', 'edit_date': '2025-04-21', 'lat_lon_source': 'website'}",34.71377720000000000000,135.36307760000000000000,ライフハマコウシエンテン,"{'opening_hour': {'Sun': '09:00:00-24:00:00', 'Mon': '09:00:00-24:00:00', 'Tue': '09:00:00-24:00:00', 'Wed': '09:00:00-24:00:00', 'Thur': '09:00:00-24:00:00', 'Fri': '09:00:00-24:00:00', 'Sat': '09:00:00-24:00:00'}}",0798-43-3611,663-8179,99471,,https://store.lifecorp.jp/
兵庫県神戸市東灘区深江本町1-14-17,Lifecorp,,Japan,"{'brand': 'Lifecorp', 'fascia': 'Lifecorp', 'category': 'Store', 'edit_date': '2025-04-21', 'lat_lon_source': 'website'}",34.72572686000000000000,135.29972940000000000000,ライフハンシンアシヤテン,"{'opening_hour': {'Sun': '09:30:00-21:00:00', 'Mon': '09:30:00-21:00:00', 'Tue': '09:30:00-21:00:00', 'Wed': '09:30:00-21:00:00', 'Thur': '09:30:00-21:00:00', 'Fri': '09:30:00-21:00:00', 'Sat': '09:30:00-21:00:00'}}",078-452-3600,658-0021,99581,,https://store.lifecorp.jp/
兵庫県西宮市里中町3-13-40,Lifecorp,,Japan,"{'brand': 'Lifecorp', 'fascia': 'Lifecorp', 'category': 'Store', 'edit_date': '2025-04-21', 'lat_lon_source': 'website'}",34.71995371000000000000,135.37020970000000000000,ライフハンシンナルオテン,"{'opening_hour': {'Sun': '09:00:00-24:00:00', 'Mon': '09:00:00-24:00:00', 'Tue': '09:00:00-24:00:00', 'Wed': '09:00:00-24:00:00', 'Thur': '09:00:00-24:00:00', 'Fri': '09:00:00-24:00:00', 'Sat': '09:00:00-24:00:00'}}",0798-40-6111,663-8183,99460,,https://store.lifecorp.jp/
東京都練馬区氷川台3丁目8-15,Lifecorp,,Japan,"{'brand': 'Lifecorp', 'fascia': 'Lifecorp', 'category': 'Store', 'edit_date': '2025-04-21', 'lat_lon_source': 'website'}",35.75107067000000000000,139.66969450000000000000,ライフヒカワダイテン,"{'opening_hour': {'Sun': '09:30:00-22:00:00', 'Mon': '09:30:00-22:00:00', 'Tue': '09:30:00-22:00:00', 'Wed': '09:30:00-22:00:00', 'Thur': '09:30:00-22:00:00', 'Fri': '09:30:00-22:00:00', 'Sat': '09:30:00-22:00:00'}}",03-5399-3325,179-0084,99494,,https://store.lifecorp.jp/
神奈川県川崎市宮前区東有馬2丁目2-28,Lifecorp,,Japan,"{'brand': 'Lifecorp', 'fascia': 'Lifecorp', 'category': 'Store', 'edit_date': '2025-04-21', 'lat_lon_source': 'website'}",35.57832899000000000000,139.59240670000000000000,ライフヒガシアリマテン,"{'opening_hour': {'Sun': '09:00:00-22:00:00', 'Mon': '09:00:00-22:00:00', 'Tue': '09:00:00-22:00:00', 'Wed': '09:00:00-22:00:00', 'Thur': '09:00:00-22:00:00', 'Fri': '09:00:00-22:00:00', 'Sat': '09:00:00-22:00:00'}}",044-853-3113,216-0002,99464,,https://store.lifecorp.jp/
大阪府大阪市東淀川区東淡路5-8-35,Lifecorp,,Japan,"{'brand': 'Lifecorp', 'fascia': 'Lifecorp', 'category': 'Store', 'edit_date': '2025-04-21', 'lat_lon_source': 'website'}",34.73690594000000000000,135.52222750000000000000,ライフヒガシアワジテン,"{'opening_hour': {'Sun': '09:00:00-24:00:00', 'Mon': '09:00:00-24:00:00', 'Tue': '09:00:00-24:00:00', 'Wed': '09:00:00-24:00:00', 'Thur': '09:00:00-24:00:00', 'Fri': '09:00:00-24:00:00', 'Sat': '09:00:00-24:00:00'}}",06-6323-5240,533-0023,99349,,https://store.lifecorp.jp/
大阪府東大阪市長田中2-5-23,Lifecorp,,Japan,"{'brand': 'Lifecorp', 'fascia': 'Lifecorp', 'category': 'Store', 'edit_date': '2025-04-21', 'lat_lon_source': 'website'}",34.67932728000000000000,135.59105180000000000000,ライフヒガシオオサカナガタテン,"{'opening_hour': {'Sun': '09:30:00-24:00:00', 'Mon': '09:30:00-24:00:00', 'Tue': '09:30:00-24:00:00', 'Wed': '09:30:00-24:00:00', 'Thur': '09:30:00-24:00:00', 'Fri': '09:30:00-24:00:00', 'Sat': '09:30:00-24:00:00'}}",06-6746-1110,577-0013,99443,,https://store.lifecorp.jp/
東京都荒川区東尾久6丁目18-10,Lifecorp,,Japan,"{'brand': 'Lifecorp', 'fascia': 'Lifecorp', 'category': 'Store', 'edit_date': '2025-04-21', 'lat_lon_source': 'website'}",35.74918955000000000000,139.77542940000000000000,ライフヒガシオグテン,"{'opening_hour': {'Sun': '09:30:00-21:30:00', 'Mon': '09:30:00-21:30:00', 'Tue': '09:30:00-21:30:00', 'Wed': '09:30:00-21:30:00', 'Thur': '09:30:00-21:30:00', 'Fri': '09:30:00-21:30:00', 'Sat': '09:30:00-21:30:00'}}",03-3809-5160,116-0012,99502,,https://store.lifecorp.jp/
東京都品川区東五反田2丁目19-6,Lifecorp,,Japan,"{'brand': 'Lifecorp', 'fascia': 'Lifecorp', 'category': 'Store', 'edit_date': '2025-04-21', 'lat_lon_source': 'website'}",35.62494450000000000000,139.72972270000000000000,ライフヒガシゴタンダテン,"{'opening_hour': {'Sun': '09:30:00-24:00:00', 'Mon': '09:30:00-24:00:00', 'Tue': '09:30:00-24:00:00', 'Wed': '09:30:00-24:00:00', 'Thur': '09:30:00-24:00:00', 'Fri': '09:30:00-24:00:00', 'Sat': '09:30:00-24:00:00'}}",03-5420-8851,141-0022,111148,,https://store.lifecorp.jp/
東京都江東区東砂2丁目12-31,Lifecorp,,Japan,"{'brand': 'Lifecorp', 'fascia': 'Lifecorp', 'category': 'Store', 'edit_date': '2025-04-21', 'lat_lon_source': 'website'}",35.68450541000000000000,139.84398810000000000000,ライフヒガシスナテン,"{'opening_hour': {'Sun': '09:00:00-21:30:00', 'Mon': '09:00:00-21:30:00', 'Tue': '09:00:00-21:30:00', 'Wed': '09:00:00-21:30:00', 'Thur': '09:00:00-21:30:00', 'Fri': '09:00:00-21:30:00', 'Sat': '09:00:00-21:30:00'}}",03-3647-5517,136-0074,99506,,https://store.lifecorp.jp/
大阪府大阪市北区東天満1-8-14,Lifecorp,,Japan,"{'brand': 'Lifecorp', 'fascia': 'Lifecorp', 'category': 'Store', 'edit_date': '2025-04-21', 'lat_lon_source': 'website'}",34.69641045000000000000,135.51528930000000000000,ライフヒガシテンマ,"{'opening_hour': {'Mon': '09:30:00-24:00:00', 'Tue': '09:30:00-24:00:00', 'Wed': '09:30:00-24:00:00', 'Thur': '09:30:00-24:00:00', 'Fri': '09:30:00-24:00:00', 'Sat': '09:30:00-24:00:00', 'Sun': '09:30:00-24:00:00'}}",06-6357-1100,530-0044,105813,,https://store.lifecorp.jp/
東京都中野区東中野3丁目9-7,Lifecorp,,Japan,"{'brand': 'Lifecorp', 'fascia': 'Lifecorp', 'category': 'Store', 'edit_date': '2025-04-21', 'lat_lon_source': 'website'}",35.70778421000000000000,139.68254720000000000000,ライフヒガシナカノテン,"{'opening_hour': {'Sun': '09:00:00-24:00:00', 'Mon': '09:00:00-24:00:00', 'Tue': '09:00:00-24:00:00', 'Wed': '09:00:00-24:00:00', 'Thur': '09:00:00-24:00:00', 'Fri': '09:00:00-24:00:00', 'Sat': '09:00:00-24:00:00'}}",03-5386-6181,164-0003,99459,,https://store.lifecorp.jp/
東京都荒川区東日暮里4丁目36-20,Lifecorp,,Japan,"{'brand': 'Lifecorp', 'fascia': 'Lifecorp', 'category': 'Store', 'edit_date': '2025-04-21', 'lat_lon_source': 'website'}",35.72519925000000000000,139.77952280000000000000,ライフヒガシニッポリテン,"{'opening_hour': {'Sun': '09:30:00-24:00:00', 'Mon': '09:30:00-24:00:00', 'Tue': '09:30:00-24:00:00', 'Wed': '09:30:00-24:00:00', 'Thur': '09:30:00-24:00:00', 'Fri': '09:30:00-24:00:00', 'Sat': '09:30:00-24:00:00'}}",03-3801-5051,116-0014,99439,,https://store.lifecorp.jp/
東京都府中市若松町2丁目1-10,Lifecorp,,Japan,"{'brand': 'Lifecorp', 'fascia': 'Lifecorp', 'category': 'Store', 'edit_date': '2025-04-21', 'lat_lon_source': 'website'}",35.67060796000000000000,139.49512930000000000000,ライフヒガシフチュウテン,"{'opening_hour': {'Sun': '09:00:00-24:00:00', 'Mon': '09:00:00-24:00:00', 'Tue': '09:00:00-24:00:00', 'Wed': '09:00:00-24:00:00', 'Thur': '09:00:00-24:00:00', 'Fri': '09:00:00-24:00:00', 'Sat': '09:00:00-24:00:00'}}",042-360-3011,183-0005,99507,,https://store.lifecorp.jp/
東京都大田区東馬込2丁目16-4,Lifecorp,,Japan,"{'brand': 'Lifecorp', 'fascia': 'Lifecorp', 'category': 'Store', 'edit_date': '2025-04-21', 'lat_lon_source': 'website'}",35.59318942000000000000,139.71674750000000000000,ライフヒガシマゴメテン,"{'opening_hour': {'Sun': '09:00:00-24:00:00', 'Mon': '09:00:00-24:00:00', 'Tue': '09:00:00-24:00:00', 'Wed': '09:00:00-24:00:00', 'Thur': '09:00:00-24:00:00', 'Fri': '09:00:00-24:00:00', 'Sat': '09:00:00-24:00:00'}}",03-3777-2080,143-0022,99419,,https://store.lifecorp.jp/
東京都墨田区東向島4-3-7,Lifecorp,,Japan,"{'brand': 'Lifecorp', 'fascia': 'Lifecorp', 'category': 'Store', 'edit_date': '2025-04-21', 'lat_lon_source': 'website'}",35.72757982000000000000,139.81518750000000000000,ライフヒガシムコウジマテン,"{'opening_hour': {'Sun': '09:30:00-22:00:00', 'Mon': '09:30:00-22:00:00', 'Tue': '09:30:00-22:00:00', 'Wed': '09:30:00-22:00:00', 'Thur': '09:30:00-22:00:00', 'Fri': '09:30:00-22:00:00', 'Sat': '09:30:00-22:00:00'}}",03-3612-7611,131-0032,99491,,https://store.lifecorp.jp/
大阪府東大阪市中野南1-71,Lifecorp,,Japan,"{'brand': 'Lifecorp', 'fascia': 'Lifecorp', 'category': 'Store', 'edit_date': '2025-04-21', 'lat_lon_source': 'website'}",34.67715981000000000000,135.60914310000000000000,ライフヒシエテン,"{'opening_hour': {'Sun': '09:00:00-21:00:00', 'Sat': '09:00:00-21:00:00', 'Mon': '09:00:00-21:00:00', 'Tue': '09:00:00-21:00:00', 'Wed': '09:00:00-21:00:00', 'Thur': '09:00:00-21:00:00', 'Fri': '09:00:00-21:00:00'}}",072-967-0701,578-0985,99298,,https://store.lifecorp.jp/
大阪府枚方市伊加賀緑町3-1,Lifecorp,,Japan,"{'brand': 'Lifecorp', 'fascia': 'Lifecorp', 'category': 'Store', 'edit_date': '2025-04-21', 'lat_lon_source': 'website'}",34.80659800000000000000,135.63302720000000000000,ライフヒラカタオオハシテン,"{'opening_hour': {'Mon': '09:30:00-21:00:00', 'Tue': '09:30:00-21:00:00', 'Wed': '09:30:00-21:00:00', 'Thur': '09:30:00-21:00:00', 'Fri': '09:30:00-21:00:00', 'Sat': '09:30:00-21:00:00', 'Sun': '09:30:00-21:00:00'}}",072-843-6311,573-0067,109429,,https://store.lifecorp.jp/
大阪府枚方市岡東町12-2,Lifecorp,,Japan,"{'brand': 'Lifecorp', 'fascia': 'Lifecorp', 'category': 'Store', 'edit_date': '2025-04-21', 'lat_lon_source': 'website'}",34.81584460000000000000,135.64983520000000000000,ライフヒラカタティーサイトテン,"{'opening_hour': {'Sun': '09:30:00-23:00:00', 'Mon': '09:30:00-23:00:00', 'Tue': '09:30:00-23:00:00', 'Wed': '09:30:00-23:00:00', 'Thur': '09:30:00-23:00:00', 'Fri': '09:30:00-23:00:00', 'Sat': '09:30:00-23:00:00'}}",072-844-3701,573-0032,99300,,https://store.lifecorp.jp/
大阪府大阪市平野区西脇4-7-6,Lifecorp,,Japan,"{'brand': 'Lifecorp', 'fascia': 'Lifecorp', 'category': 'Store', 'edit_date': '2025-04-21', 'lat_lon_source': 'website'}",34.62634303000000000000,135.54847170000000000000,ライフヒラノニシワキテン,"{'opening_hour': {'Sun': '09:00:00-22:00:00', 'Mon': '09:00:00-22:00:00', 'Tue': '09:00:00-22:00:00', 'Wed': '09:00:00-22:00:00', 'Thur': '09:00:00-22:00:00', 'Fri': '09:00:00-22:00:00', 'Sat': '09:00:00-22:00:00'}}",06-6704-8771,547-0035,99413,,https://store.lifecorp.jp/
神奈川県横浜市南区花之木町3-48-1,Lifecorp,,Japan,"{'brand': 'Lifecorp', 'fascia': 'Lifecorp', 'category': 'Store', 'edit_date': '2025-04-21', 'lat_lon_source': 'website'}",35.43134904000000000000,139.60882080000000000000,ライフビエラマイタテン,"{'opening_hour': {'Sun': '09:30:00-24:00:00', 'Mon': '09:30:00-24:00:00', 'Tue': '09:30:00-24:00:00', 'Wed': '09:30:00-24:00:00', 'Thur': '09:30:00-24:00:00', 'Fri': '09:30:00-24:00:00', 'Sat': '09:30:00-24:00:00'}}",045-742-1075,232-0018,99561,,https://store.lifecorp.jp/
大阪府大阪市城東区永田3-13-8,Lifecorp,,Japan,"{'brand': 'Lifecorp', 'fascia': 'Lifecorp', 'category': 'Store', 'edit_date': '2025-04-21', 'lat_lon_source': 'website'}",34.68305828000000000000,135.55811850000000000000,ライフフカエバシテン,"{'opening_hour': {'Sun': '09:00:00-24:00:00', 'Mon': '09:00:00-24:00:00', 'Tue': '09:00:00-24:00:00', 'Wed': '09:00:00-24:00:00', 'Thur': '09:00:00-24:00:00', 'Fri': '09:00:00-24:00:00', 'Sat': '09:00:00-24:00:00'}}",06-6968-9971,536-0022,99356,,https://store.lifecorp.jp/
東京都江東区猿江2丁目16-8,Lifecorp,,Japan,"{'brand': 'Lifecorp', 'fascia': 'Lifecorp', 'category': 'Store', 'edit_date': '2025-04-21', 'lat_lon_source': 'website'}",35.68591030000000000000,139.81622310000000000000,ライフフカガワサルエテン,"{'opening_hour': {'Sun': '09:30:00-24:00:00', 'Mon': '09:30:00-24:00:00', 'Tue': '09:30:00-24:00:00', 'Wed': '09:30:00-24:00:00', 'Thur': '09:30:00-24:00:00', 'Fri': '09:30:00-24:00:00', 'Sat': '09:30:00-24:00:00'}}",03-5600-3380,135-0003,99497,,https://store.lifecorp.jp/
大阪府堺市西区上444-1,Lifecorp,,Japan,"{'brand': 'Lifecorp', 'fascia': 'Lifecorp', 'category': 'Store', 'edit_date': '2025-04-21', 'lat_lon_source': 'website'}",34.52441411000000000000,135.46262330000000000000,ライフフクイズミテン,"{'opening_hour': {'Sun': '09:00:00-21:00:00', 'Mon': '09:00:00-21:00:00', 'Tue': '09:00:00-21:00:00', 'Wed': '09:00:00-21:00:00', 'Thur': '09:00:00-21:00:00', 'Fri': '09:00:00-21:00:00', 'Sat': '09:00:00-21:00:00'}}",072-275-0761,593-8311,99364,,https://store.lifecorp.jp/
兵庫県神崎郡福崎町西田原1706,Lifecorp,,Japan,"{'brand': 'Lifecorp', 'fascia': 'Lifecorp', 'category': 'Store', 'edit_date': '2025-04-21', 'lat_lon_source': 'website'}",34.95067347000000000000,134.76485880000000000000,ライフフクサキテン,"{'opening_hour': {'Sun': '09:00:00-20:00:00', 'Mon': '09:00:00-20:00:00', 'Tue': '09:00:00-20:00:00', 'Wed': '09:00:00-20:00:00', 'Thur': '09:00:00-20:00:00', 'Fri': '09:00:00-20:00:00', 'Sat': '09:00:00-20:00:00'}}",0790-22-7731,679-2204,99383,,https://store.lifecorp.jp/
京都府京都市伏見区深草平田町7,Lifecorp,,Japan,"{'brand': 'Lifecorp', 'fascia': 'Lifecorp', 'category': 'Store', 'edit_date': '2025-04-21', 'lat_lon_source': 'website'}",34.96866740000000000000,135.76526970000000000000,ライフフシミフカクサテン,"{'opening_hour': {'Sun': '09:30:00-21:00:00', 'Mon': '09:30:00-21:00:00', 'Tue': '09:30:00-21:00:00', 'Wed': '09:30:00-21:00:00', 'Thur': '09:30:00-21:00:00', 'Fri': '09:30:00-21:00:00', 'Sat': '09:30:00-21:00:00'}}",075-643-6051,612-0019,99333,,https://store.lifecorp.jp/
東京都府中市住吉町1丁目84-1,Lifecorp,,Japan,"{'brand': 'Lifecorp', 'fascia': 'Lifecorp', 'category': 'Store', 'edit_date': '2025-04-21', 'lat_lon_source': 'website'}",35.65999107000000000000,139.45842030000000000000,ライフフチュウナカガワラテン,"{'opening_hour': {'Sun': '09:00:00-24:00:00', 'Mon': '09:00:00-24:00:00', 'Tue': '09:00:00-24:00:00', 'Wed': '09:00:00-24:00:00', 'Thur': '09:00:00-24:00:00', 'Fri': '09:00:00-24:00:00', 'Sat': '09:00:00-24:00:00'}}",042-351-4500,183-0034,99503,,https://store.lifecorp.jp/
東京都江戸川区船堀7丁目20-22,Lifecorp,,Japan,"{'brand': 'Lifecorp', 'fascia': 'Lifecorp', 'category': 'Store', 'edit_date': '2025-04-21', 'lat_lon_source': 'website'}",35.67936001000000000000,139.87263360000000000000,ライフフナボリテン,"{'opening_hour': {'Sun': '09:00:00-21:30:00', 'Mon': '09:00:00-21:30:00', 'Tue': '09:00:00-21:30:00', 'Wed': '09:00:00-21:30:00', 'Thur': '09:00:00-21:30:00', 'Fri': '09:00:00-21:30:00', 'Sat': '09:00:00-21:30:00'}}",03-5676-2031,134-0091,99517,,https://store.lifecorp.jp/
東京都練馬区北町6丁目10-1,Lifecorp,,Japan,"{'brand': 'Lifecorp', 'fascia': 'Lifecorp', 'category': 'Store', 'edit_date': '2025-04-21', 'lat_lon_source': 'website'}",35.75868677000000000000,139.65342770000000000000,ライフヘイワダイテン,"{'opening_hour': {'Sun': '09:30:00-24:00:00', 'Mon': '09:30:00-24:00:00', 'Tue': '09:30:00-24:00:00', 'Wed': '09:30:00-24:00:00', 'Thur': '09:30:00-24:00:00', 'Fri': '09:30:00-24:00:00', 'Sat': '09:30:00-24:00:00'}}",03-3935-2151,179-0081,99520,,https://store.lifecorp.jp/
大阪府大阪市港区磯路1-9-25,Lifecorp,,Japan,"{'brand': 'Lifecorp', 'fascia': 'Lifecorp', 'category': 'Store', 'edit_date': '2025-04-21', 'lat_lon_source': 'website'}",34.66755229000000000000,135.46103980000000000000,ライフベンテンチョウテン,"{'opening_hour': {'Sun': '09:30:00-24:00:00', 'Mon': '09:30:00-24:00:00', 'Tue': '09:30:00-24:00:00', 'Wed': '09:30:00-24:00:00', 'Thur': '09:30:00-24:00:00', 'Fri': '09:30:00-24:00:00', 'Sat': '09:30:00-24:00:00'}}",06-6577-5151,552-0003,99369,,https://store.lifecorp.jp/
京都府京都市北区紫竹東桃ノ本町32-1,Lifecorp,,Japan,"{'brand': 'Lifecorp', 'fascia': 'Lifecorp', 'category': 'Store', 'edit_date': '2025-04-21', 'lat_lon_source': 'website'}",35.04795379000000000000,135.75172750000000000000,ライフホリカワキタヤマテン,"{'opening_hour': {'Sun': '09:00:00-21:00:00', 'Mon': '09:00:00-21:00:00', 'Tue': '09:00:00-21:00:00', 'Wed': '09:00:00-21:00:00', 'Thur': '09:00:00-21:00:00', 'Fri': '09:00:00-21:00:00', 'Sat': '09:00:00-21:00:00'}}",075-495-5551,603-8202,99373,,https://store.lifecorp.jp/
東京都江戸川区本一色1丁目26-4,Lifecorp,,Japan,"{'brand': 'Lifecorp', 'fascia': 'Lifecorp', 'category': 'Store', 'edit_date': '2025-04-21', 'lat_lon_source': 'website'}",35.71654817000000000000,139.86954740000000000000,ライフホンイッシキテン,"{'opening_hour': {'Sun': '09:30:00-21:00:00', 'Mon': '09:30:00-21:00:00', 'Tue': '09:30:00-21:00:00', 'Wed': '09:30:00-21:00:00', 'Thur': '09:30:00-21:00:00', 'Fri': '09:30:00-21:00:00', 'Sat': '09:30:00-21:00:00'}}",03-3655-0411,133-0044,99504,,https://store.lifecorp.jp/
東京都文京区本郷4-37-12,Lifecorp,,Japan,"{'brand': 'Lifecorp', 'fascia': 'Lifecorp', 'category': 'Store', 'edit_date': '2025-04-21', 'lat_lon_source': 'website'}",35.70809529000000000000,139.76033800000000000000,ライフホンゴウサンチョウメエキマエテン,"{'opening_hour': {'Sun': '09:30:00-23:00:00', 'Mon': '08:00:00-23:00:00', 'Tue': '08:00:00-23:00:00', 'Wed': '08:00:00-23:00:00', 'Thur': '08:00:00-23:00:00', 'Fri': '08:00:00-23:00:00', 'Sat': '09:30:00-23:00:00'}}",03-3816-5201,113-0033,99529,,https://store.lifecorp.jp/
大阪府大阪市北区本庄東2-3-35,Lifecorp,,Japan,"{'brand': 'Lifecorp', 'fascia': 'Lifecorp', 'category': 'Store', 'edit_date': '2025-04-21', 'lat_lon_source': 'website'}",34.71455630000000000000,135.50795590000000000000,ライフホンジョウテン,"{'opening_hour': {'Sun': '09:30:00-24:00:00', 'Mon': '09:30:00-24:00:00', 'Tue': '09:30:00-24:00:00', 'Wed': '09:30:00-24:00:00', 'Thur': '09:30:00-24:00:00', 'Fri': '09:30:00-24:00:00', 'Sat': '09:30:00-24:00:00'}}",06-4802-0801,531-0074,99313,,https://store.lifecorp.jp/
東京都足立区千住橋戸町1-13,Lifecorp,,Japan,"{'brand': 'Lifecorp', 'fascia': 'Lifecorp', 'category': 'Store', 'edit_date': '2025-04-21', 'lat_lon_source': 'website'}",35.74251334000000000000,139.79515780000000000000,ライフポンテポルタセンジュテン,"{'opening_hour': {'Sun': '09:30:00-22:00:00', 'Mon': '09:30:00-22:00:00', 'Tue': '09:30:00-22:00:00', 'Wed': '09:30:00-22:00:00', 'Thur': '09:30:00-22:00:00', 'Fri': '09:30:00-22:00:00', 'Sat': '09:30:00-22:00:00'}}",03-3882-1631,120-0038,99399,,https://store.lifecorp.jp/
東京都板橋区前野町1丁目20-18,Lifecorp,,Japan,"{'brand': 'Lifecorp', 'fascia': 'Lifecorp', 'category': 'Store', 'edit_date': '2025-04-21', 'lat_lon_source': 'website'}",35.76545679000000000000,139.69528870000000000000,ライフマエノチョウテン,"{'opening_hour': {'Sun': '09:30:00-23:30:00', 'Mon': '09:30:00-23:30:00', 'Tue': '09:30:00-23:30:00', 'Wed': '09:30:00-23:30:00', 'Thur': '09:30:00-23:30:00', 'Fri': '09:30:00-23:30:00', 'Sat': '09:30:00-23:30:00'}}",03-5392-3601,174-0063,99539,,https://store.lifecorp.jp/
大阪府枚方市牧野阪1-18-1,Lifecorp,,Japan,"{'brand': 'Lifecorp', 'fascia': 'Lifecorp', 'category': 'Store', 'edit_date': '2025-04-21', 'lat_lon_source': 'website'}",34.84447627000000000000,135.66514300000000000000,ライフマキノテン,"{'opening_hour': {'Sun': '09:30:00-24:00:00', 'Mon': '09:30:00-24:00:00', 'Tue': '09:30:00-24:00:00', 'Wed': '09:30:00-24:00:00', 'Thur': '09:30:00-24:00:00', 'Fri': '09:30:00-24:00:00', 'Sat': '09:30:00-24:00:00'}}",072-857-9631,573-1146,99324,,https://store.lifecorp.jp/
千葉県柏市増尾台3丁目5-15,Lifecorp,,Japan,"{'brand': 'Lifecorp', 'fascia': 'Lifecorp', 'category': 'Store', 'edit_date': '2025-04-21', 'lat_lon_source': 'website'}",35.82623356000000000000,139.97540400000000000000,ライフマスオテン,"{'opening_hour': {'Sun': '09:00:00-21:00:00', 'Mon': '09:00:00-21:00:00', 'Tue': '09:00:00-21:00:00', 'Wed': '09:00:00-21:00:00', 'Thur': '09:00:00-21:00:00', 'Fri': '09:00:00-21:00:00', 'Sat': '09:00:00-21:00:00'}}",04-7176-5000,277-0052,99480,,https://store.lifecorp.jp/
東京都大田区大森西3丁目1-38,Lifecorp,,Japan,"{'brand': 'Lifecorp', 'fascia': 'Lifecorp', 'category': 'Store', 'edit_date': '2025-04-21', 'lat_lon_source': 'website'}",35.57491763000000000000,139.72625610000000000000,ライフマチノマオオモリテン,"{'opening_hour': {'Sun': '09:00:00-24:00:00', 'Mon': '09:00:00-24:00:00', 'Tue': '09:00:00-24:00:00', 'Wed': '09:00:00-24:00:00', 'Thur': '09:00:00-24:00:00', 'Fri': '09:00:00-24:00:00', 'Sat': '09:00:00-24:00:00'}}",03-3762-5512,143-0015,99476,,https://store.lifecorp.jp/
京都府京都市左京区松ケ崎壱町田町5,Lifecorp,,Japan,"{'brand': 'Lifecorp', 'fascia': 'Lifecorp', 'category': 'Store', 'edit_date': '2025-04-21', 'lat_lon_source': 'website'}",35.05148598000000000000,135.77813620000000000000,ライフマツガサキテン,"{'opening_hour': {'Sun': '09:30:00-21:00:00', 'Mon': '09:30:00-21:00:00', 'Tue': '09:30:00-21:00:00', 'Wed': '09:30:00-21:00:00', 'Thur': '09:30:00-21:00:00', 'Fri': '09:30:00-21:00:00', 'Sat': '09:30:00-21:00:00'}}",075-721-3111,606-0954,99274,,https://store.lifecorp.jp/
千葉県松戸市二十世紀が丘中松町97,Lifecorp,,Japan,"{'brand': 'Lifecorp', 'fascia': 'Lifecorp', 'category': 'Store', 'edit_date': '2025-04-21', 'lat_lon_source': 'website'}",35.77112721000000000000,139.91207870000000000000,ライフマツドニジッセイキガオカテン,"{'opening_hour': {'Sun': '09:00:00-21:30:00', 'Mon': '09:30:00-21:30:00', 'Tue': '09:30:00-21:30:00', 'Wed': '09:30:00-21:30:00', 'Thur': '09:30:00-21:30:00', 'Fri': '09:30:00-21:30:00', 'Sat': '09:00:00-21:30:00'}}",047-392-2331,271-0085,99418,,https://store.lifecorp.jp/
兵庫県神戸市東灘区御影2-9-3,Lifecorp,,Japan,"{'brand': 'Lifecorp', 'fascia': 'Lifecorp', 'category': 'Store', 'edit_date': '2025-04-21', 'lat_lon_source': 'website'}",34.72182188000000000000,135.25299600000000000000,ライフミカゲテン,"{'opening_hour': {'Sun': '09:30:00-21:00:00', 'Mon': '09:30:00-21:00:00', 'Tue': '09:30:00-21:00:00', 'Wed': '09:30:00-21:00:00', 'Thur': '09:30:00-21:00:00', 'Fri': '09:30:00-21:00:00', 'Sat': '09:30:00-21:00:00'}}",078-856-7361,658-0047,99395,,https://store.lifecorp.jp/
大阪府豊中市日出町2-2-18,Lifecorp,,Japan,"{'brand': 'Lifecorp', 'fascia': 'Lifecorp', 'category': 'Store', 'edit_date': '2025-04-21', 'lat_lon_source': 'website'}",34.74110715000000000000,135.47898500000000000000,ライフミクニバシテン,"{'opening_hour': {'Sun': '09:00:00-24:00:00', 'Mon': '09:00:00-24:00:00', 'Tue': '09:00:00-24:00:00', 'Wed': '09:00:00-24:00:00', 'Thur': '09:00:00-24:00:00', 'Fri': '09:00:00-24:00:00', 'Sat': '09:00:00-24:00:00'}}",06-6334-1200,561-0821,99351,,https://store.lifecorp.jp/
大阪府大阪市住之江区御崎5-18-15,Lifecorp,,Japan,"{'brand': 'Lifecorp', 'fascia': 'Lifecorp', 'category': 'Store', 'edit_date': '2025-04-21', 'lat_lon_source': 'website'}",34.60633994000000000000,135.48088430000000000000,ライフミサキテン,"{'opening_hour': {'Sun': '09:30:00-21:00:00', 'Mon': '09:30:00-21:00:00', 'Tue': '09:30:00-21:00:00', 'Wed': '09:30:00-21:00:00', 'Thur': '09:30:00-21:00:00', 'Fri': '09:30:00-21:00:00', 'Sat': '09:30:00-21:00:00'}}",06-6683-9981,559-0013,99310,,https://store.lifecorp.jp/
東京都江戸川区瑞江２丁目２−１,Lifecorp,,Japan,"{'brand': 'Lifecorp', 'fascia': 'Lifecorp', 'category': 'Store', 'edit_date': '2025-04-21', 'lat_lon_source': 'website'}",35.69329775000000000000,139.89768680000000000000,ライフミズエテン,"{'opening_hour': {'Sun': '09:30:00-24:00:00', 'Mon': '09:30:00-24:00:00', 'Tue': '09:30:00-24:00:00', 'Wed': '09:30:00-24:00:00', 'Thur': '09:30:00-24:00:00', 'Fri': '09:30:00-24:00:00', 'Sat': '09:30:00-24:00:00'}}",03-3698-3711,132-0011,99458,,https://store.lifecorp.jp/
神奈川県川崎市高津区溝口5丁目24-8,Lifecorp,,Japan,"{'brand': 'Lifecorp', 'fascia': 'Lifecorp', 'category': 'Store', 'edit_date': '2025-04-21', 'lat_lon_source': 'website'}",35.60628966000000000000,139.61117650000000000000,ライフミゾクチテン,"{'opening_hour': {'Sun': '09:30:00-24:00:00', 'Mon': '09:30:00-24:00:00', 'Tue': '09:30:00-24:00:00', 'Wed': '09:30:00-24:00:00', 'Thur': '09:30:00-24:00:00', 'Fri': '09:30:00-24:00:00', 'Sat': '09:30:00-24:00:00'}}",044-822-0420,213-0001,99518,,https://store.lifecorp.jp/
大阪府大阪市淀川区三津屋中3-8-38,Lifecorp,,Japan,"{'brand': 'Lifecorp', 'fascia': 'Lifecorp', 'category': 'Store', 'edit_date': '2025-04-21', 'lat_lon_source': 'website'}",34.72707340000000000000,135.46527410000000000000,ライフミツヤテン,"{'opening_hour': {'Sun': '09:30:00-24:00:00', 'Mon': '09:30:00-24:00:00', 'Tue': '09:30:00-24:00:00', 'Wed': '09:30:00-24:00:00', 'Thur': '09:30:00-24:00:00', 'Fri': '09:30:00-24:00:00', 'Sat': '09:30:00-24:00:00'}}",06-6885-3100,532-0036,99285,,https://store.lifecorp.jp/
大阪府大阪市西淀川区御幣島2-9-19,Lifecorp,,Japan,"{'brand': 'Lifecorp', 'fascia': 'Lifecorp', 'category': 'Store', 'edit_date': '2025-04-21', 'lat_lon_source': 'website'}",34.71270976000000000000,135.45230490000000000000,ライフミテジマテン,"{'opening_hour': {'Sun': '09:00:00-24:00:00', 'Mon': '09:00:00-24:00:00', 'Tue': '09:00:00-24:00:00', 'Wed': '09:00:00-24:00:00', 'Thur': '09:00:00-24:00:00', 'Fri': '09:00:00-24:00:00', 'Sat': '09:00:00-24:00:00'}}",06-6475-2211,555-0012,99279,,https://store.lifecorp.jp/
大阪府大阪市東成区東中本2-8-20,Lifecorp,,Japan,"{'brand': 'Lifecorp', 'fascia': 'Lifecorp', 'category': 'Store', 'edit_date': '2025-04-21', 'lat_lon_source': 'website'}",34.67890330000000000000,135.54470640000000000000,ライフミドリバシテン,"{'opening_hour': {'Sun': '09:00:00-24:00:00', 'Mon': '09:00:00-24:00:00', 'Tue': '09:00:00-24:00:00', 'Wed': '09:00:00-24:00:00', 'Thur': '09:00:00-24:00:00', 'Fri': '09:00:00-24:00:00', 'Sat': '09:00:00-24:00:00'}}",06-6973-5811,537-0021,99371,,https://store.lifecorp.jp/
神奈川県相模原市南区南台3-1-30　Minanoba 相模原 1 階,Lifecorp,,Japan,"{'brand': 'Lifecorp', 'fascia': 'Lifecorp', 'category': 'Store', 'edit_date': '2025-04-21', 'lat_lon_source': 'website'}",35.52140900000000000000,139.42233800000000000000,ライフミナノバサガミハラテン,"{'opening_hour': {'Sun': '09:00:00-22:00:00', 'Mon': '09:00:00-22:00:00', 'Tue': '09:00:00-22:00:00', 'Wed': '09:00:00-22:00:00', 'Thur': '09:00:00-22:00:00', 'Fri': '09:00:00-22:00:00', 'Sat': '09:00:00-22:00:00'}}",042-765-0230,252-0314,111123,,https://store.lifecorp.jp/
東京都荒川区南千住6丁目43-13,Lifecorp,,Japan,"{'brand': 'Lifecorp', 'fascia': 'Lifecorp', 'category': 'Store', 'edit_date': '2025-04-21', 'lat_lon_source': 'website'}",35.73683901000000000000,139.79357060000000000000,ライフミナミセンジュテン,"{'opening_hour': {'Sun': '09:30:00-22:00:00', 'Mon': '09:30:00-22:00:00', 'Tue': '09:30:00-22:00:00', 'Wed': '09:30:00-22:00:00', 'Thur': '09:30:00-22:00:00', 'Fri': '09:30:00-22:00:00', 'Sat': '09:30:00-22:00:00'}}",03-5811-6740,116-0003,99425,,https://store.lifecorp.jp/
東京都中野区南台2-51-7,Lifecorp,,Japan,"{'brand': 'Lifecorp', 'fascia': 'Lifecorp', 'category': 'Store', 'edit_date': '2025-04-21', 'lat_lon_source': 'website'}",35.68503828000000000000,139.66933970000000000000,ライフミナミダイテン,"{'opening_hour': {'Sun': '09:30:00-24:00:00', 'Mon': '09:30:00-24:00:00', 'Tue': '09:30:00-24:00:00', 'Wed': '09:30:00-24:00:00', 'Thur': '09:30:00-24:00:00', 'Fri': '09:30:00-24:00:00', 'Sat': '09:30:00-24:00:00'}}",03-3384-8581,164-0014,99477,,https://store.lifecorp.jp/
大阪府大阪市西成区南津守6-1-75,Lifecorp,,Japan,"{'brand': 'Lifecorp', 'fascia': 'Lifecorp', 'category': 'Store', 'edit_date': '2025-04-21', 'lat_lon_source': 'website'}",34.62769506000000000000,135.48307590000000000000,ライフミナミツモリテン,"{'opening_hour': {'Sun': '09:00:00-21:00:00', 'Mon': '09:00:00-21:00:00', 'Tue': '09:00:00-21:00:00', 'Wed': '09:00:00-21:00:00', 'Thur': '09:00:00-21:00:00', 'Fri': '09:00:00-21:00:00', 'Sat': '09:00:00-21:00:00'}}",06-6656-0351,557-0063,99309,,https://store.lifecorp.jp/
大阪府箕面市桜ケ丘1-3-25,Lifecorp,,Japan,"{'brand': 'Lifecorp', 'fascia': 'Lifecorp', 'category': 'Store', 'edit_date': '2025-04-21', 'lat_lon_source': 'website'}",34.82441270000000000000,135.45472640000000000000,ライフミノオサクラガオカテン,"{'opening_hour': {'Sun': '09:00:00-21:00:00', 'Mon': '09:00:00-21:00:00', 'Tue': '09:00:00-21:00:00', 'Wed': '09:00:00-21:00:00', 'Thur': '09:00:00-21:00:00', 'Fri': '09:00:00-21:00:00', 'Sat': '09:00:00-21:00:00'}}",072-723-3350,562-0046,99353,,https://store.lifecorp.jp/
大阪府箕面市稲1-10-13-2,Lifecorp,,Japan,"{'brand': 'Lifecorp', 'fascia': 'Lifecorp', 'category': 'Store', 'edit_date': '2025-04-21', 'lat_lon_source': 'website'}",34.82638374000000000000,135.47525560000000000000,ライフミノオテン,"{'opening_hour': {'Sun': '09:00:00-21:00:00', 'Mon': '09:00:00-21:00:00', 'Tue': '09:00:00-21:00:00', 'Wed': '09:00:00-21:00:00', 'Thur': '09:00:00-21:00:00', 'Fri': '09:00:00-21:00:00', 'Sat': '09:00:00-21:00:00'}}",072-725-0131,562-0015,99306,,https://store.lifecorp.jp/
京都府京都市中京区壬生西檜町23,Lifecorp,,Japan,"{'brand': 'Lifecorp', 'fascia': 'Lifecorp', 'category': 'Store', 'edit_date': '2025-04-21', 'lat_lon_source': 'website'}",34.99971245000000000000,135.73377130000000000000,ライフミブテン,"{'opening_hour': {'Sun': '09:00:00-23:00:00', 'Mon': '09:00:00-23:00:00', 'Tue': '09:00:00-23:00:00', 'Wed': '09:00:00-23:00:00', 'Thur': '09:00:00-23:00:00', 'Fri': '09:00:00-23:00:00', 'Sat': '09:00:00-23:00:00'}}",075-323-2501,604-8846,99323,,https://store.lifecorp.jp/
神奈川県川崎市中原区宮内2-1-1,Lifecorp,,Japan,"{'brand': 'Lifecorp', 'fascia': 'Lifecorp', 'category': 'Store', 'edit_date': '2025-04-21', 'lat_lon_source': 'website'}",35.58722681000000000000,139.64099290000000000000,ライフミヤウチニチョウメテン,"{'opening_hour': {'Sun': '09:30:00-24:00:00', 'Mon': '09:30:00-24:00:00', 'Tue': '09:30:00-24:00:00', 'Wed': '09:30:00-24:00:00', 'Thur': '09:30:00-24:00:00', 'Fri': '09:30:00-24:00:00', 'Sat': '09:30:00-24:00:00'}}",044-766-3311,211-0051,99513,,https://store.lifecorp.jp/
大阪府大阪市都島区高倉町1-7-8,Lifecorp,,Japan,"{'brand': 'Lifecorp', 'fascia': 'Lifecorp', 'category': 'Store', 'edit_date': '2025-04-21', 'lat_lon_source': 'website'}",34.71402171000000000000,135.53012440000000000000,ライフミヤコジマタカクラテン,"{'opening_hour': {'Sun': '09:30:00-24:00:00', 'Mon': '09:30:00-24:00:00', 'Tue': '09:30:00-24:00:00', 'Wed': '09:30:00-24:00:00', 'Thur': '09:30:00-24:00:00', 'Fri': '09:30:00-24:00:00', 'Sat': '09:30:00-24:00:00'}}",06-6923-4451,534-0011,99292,,https://store.lifecorp.jp/
神奈川県川崎市宮前区宮崎2-3-8,Lifecorp,,Japan,"{'brand': 'Lifecorp', 'fascia': 'Lifecorp', 'category': 'Store', 'edit_date': '2025-04-21', 'lat_lon_source': 'website'}",35.58877971000000000000,139.59267510000000000000,ライフミヤザキダイテン,"{'opening_hour': {'Sun': '09:00:00-24:00:00', 'Mon': '09:00:00-24:00:00', 'Tue': '09:00:00-24:00:00', 'Wed': '09:00:00-24:00:00', 'Thur': '09:00:00-24:00:00', 'Fri': '09:00:00-24:00:00', 'Sat': '09:00:00-24:00:00'}}",044-888-5870,216-0033,99550,,https://store.lifecorp.jp/
千葉県千葉市花見川区畑町585-1,Lifecorp,,Japan,"{'brand': 'Lifecorp', 'fascia': 'Lifecorp', 'category': 'Store', 'edit_date': '2025-04-21', 'lat_lon_source': 'website'}",35.65978360000000000000,140.08983480000000000000,ライフミヤノギテン,"{'opening_hour': {'Sun': '09:00:00-21:00:00', 'Mon': '09:00:00-21:00:00', 'Tue': '09:00:00-21:00:00', 'Wed': '09:00:00-21:00:00', 'Thur': '09:00:00-21:00:00', 'Fri': '09:00:00-21:00:00', 'Sat': '09:00:00-21:00:00'}}",043-271-8488,262-0018,99549,,https://store.lifecorp.jp/
神奈川県川崎市多摩区登戸2735,Lifecorp,,Japan,"{'brand': 'Lifecorp', 'fascia': 'Lifecorp', 'category': 'Store', 'edit_date': '2025-04-21', 'lat_lon_source': 'website'}",35.61617449000000000000,139.56469950000000000000,ライフムコウガオカユウエンテン,"{'opening_hour': {'Sun': '09:30:00-24:00:00', 'Mon': '09:30:00-24:00:00', 'Tue': '09:30:00-24:00:00', 'Wed': '09:30:00-24:00:00', 'Thur': '09:30:00-24:00:00', 'Fri': '09:30:00-24:00:00', 'Sat': '09:30:00-24:00:00'}}",044-933-9361,214-0014,99528,,https://store.lifecorp.jp/
兵庫県尼崎市武庫川町2-53,Lifecorp,,Japan,"{'brand': 'Lifecorp', 'fascia': 'Lifecorp', 'category': 'Store', 'edit_date': '2025-04-21', 'lat_lon_source': 'website'}",34.71461830000000000000,135.38676340000000000000,ライフムコガワテン,"{'opening_hour': {'Sun': '09:30:00-22:00:00', 'Mon': '09:30:00-22:00:00', 'Tue': '09:30:00-22:00:00', 'Wed': '09:30:00-22:00:00', 'Thur': '09:30:00-22:00:00', 'Fri': '09:30:00-22:00:00', 'Sat': '09:30:00-22:00:00'}}",06-6419-2290,660-0084,99316,,https://store.lifecorp.jp/
東京都品川区小山2丁目7-14,Lifecorp,,Japan,"{'brand': 'Lifecorp', 'fascia': 'Lifecorp', 'category': 'Store', 'edit_date': '2025-04-21', 'lat_lon_source': 'website'}",35.62073990000000000000,139.70798860000000000000,ライフムサシコヤマテン,"{'opening_hour': {'Sun': '09:30:00-24:00:00', 'Mon': '09:30:00-24:00:00', 'Tue': '09:30:00-24:00:00', 'Wed': '09:30:00-24:00:00', 'Thur': '09:30:00-24:00:00', 'Fri': '09:30:00-24:00:00', 'Sat': '09:30:00-24:00:00'}}",03-5749-2251,142-0062,99454,,https://store.lifecorp.jp/
東京都港区芝浦3丁目1-21msb Tamachi 田町ｽﾃｰｼｮﾝﾀﾜｰS棟 1階,Lifecorp,,Japan,"{'brand': 'Lifecorp', 'fascia': 'Lifecorp', 'category': 'Store', 'edit_date': '2025-04-21', 'lat_lon_source': 'website'}",35.64476433000000000000,139.74933180000000000000,ライフムスブタマチテン,"{'opening_hour': {'Sun': '09:30:00-24:00:00', 'Mon': '08:00:00-24:00:00', 'Tue': '08:00:00-24:00:00', 'Wed': '08:00:00-24:00:00', 'Thur': '08:00:00-24:00:00', 'Fri': '08:00:00-24:00:00', 'Sat': '09:30:00-24:00:00'}}",03-3453-3811,105-0023,99575,,https://store.lifecorp.jp/
東京都目黒区大橋1-5-1,Lifecorp,,Japan,"{'brand': 'Lifecorp', 'fascia': 'Lifecorp', 'category': 'Store', 'edit_date': '2025-04-21', 'lat_lon_source': 'website'}",35.65146409000000000000,139.68842890000000000000,ライフメグロオオハシテン,"{'opening_hour': {'Sun': '09:30:00-24:00:00', 'Mon': '09:30:00-24:00:00', 'Tue': '09:30:00-24:00:00', 'Wed': '09:30:00-24:00:00', 'Thur': '09:30:00-24:00:00', 'Fri': '09:30:00-24:00:00', 'Sat': '09:30:00-24:00:00'}}",03-3770-3580,153-0044,99445,,https://store.lifecorp.jp/
東京都目黒区八雲3-12-13,Lifecorp,,Japan,"{'brand': 'Lifecorp', 'fascia': 'Lifecorp', 'category': 'Store', 'edit_date': '2025-04-21', 'lat_lon_source': 'website'}",35.61420434000000000000,139.66693910000000000000,ライフメグロヤクモテン,"{'opening_hour': {'Sun': '09:30:00-22:00:00', 'Mon': '09:30:00-22:00:00', 'Tue': '09:30:00-22:00:00', 'Wed': '09:30:00-22:00:00', 'Thur': '09:30:00-22:00:00', 'Fri': '09:30:00-22:00:00', 'Sat': '09:30:00-22:00:00'}}",03-3718-7751,152-0023,99482,,https://store.lifecorp.jp/
大阪府堺市北区百舌鳥赤畑町2-91-1,Lifecorp,,Japan,"{'brand': 'Lifecorp', 'fascia': 'Lifecorp', 'category': 'Store', 'edit_date': '2025-04-21', 'lat_lon_source': 'website'}",34.56097437000000000000,135.49062390000000000000,ライフモズテン,"{'opening_hour': {'Sun': '09:00:00-22:00:00', 'Mon': '09:00:00-22:00:00', 'Tue': '09:00:00-22:00:00', 'Wed': '09:00:00-22:00:00', 'Thur': '09:00:00-22:00:00', 'Fri': '09:00:00-22:00:00', 'Sat': '09:00:00-22:00:00'}}",072-252-7501,591-8037,99343,,https://store.lifecorp.jp/
兵庫県神戸市東灘区本山南町6-10-28,Lifecorp,,Japan,"{'brand': 'Lifecorp', 'fascia': 'Lifecorp', 'category': 'Store', 'edit_date': '2025-04-21', 'lat_lon_source': 'website'}",34.72636379000000000000,135.28764060000000000000,ライフモトヤマテン,"{'opening_hour': {'Sun': '09:30:00-24:00:00', 'Mon': '09:30:00-24:00:00', 'Tue': '09:30:00-24:00:00', 'Wed': '09:30:00-24:00:00', 'Thur': '09:30:00-24:00:00', 'Fri': '09:30:00-24:00:00', 'Sat': '09:30:00-24:00:00'}}",078-411-2811,658-0015,99391,,https://store.lifecorp.jp/
大阪府吹田市桃山台2-5-1,Lifecorp,,Japan,"{'brand': 'Lifecorp', 'fascia': 'Lifecorp', 'category': 'Store', 'edit_date': '2025-04-21', 'lat_lon_source': 'website'}",34.79260930000000000000,135.50166460000000000000,ライフモモヤマダイテン,"{'opening_hour': {'Sun': '09:30:00-20:30:00', 'Mon': '09:30:00-20:30:00', 'Tue': '09:30:00-20:30:00', 'Wed': '09:30:00-20:30:00', 'Thur': '09:30:00-20:30:00', 'Fri': '09:30:00-20:30:00', 'Sat': '09:30:00-20:30:00'}}",06-6871-1001,565-0854,99489,,https://store.lifecorp.jp/
大阪府守口市文園町9-27,Lifecorp,,Japan,"{'brand': 'Lifecorp', 'fascia': 'Lifecorp', 'category': 'Store', 'edit_date': '2025-04-21', 'lat_lon_source': 'website'}",34.72922153000000000000,135.55678720000000000000,ライフモリグチタキイテン,"{'opening_hour': {'Sun': '09:30:00-23:00:00', 'Mon': '09:30:00-23:00:00', 'Tue': '09:30:00-23:00:00', 'Wed': '09:30:00-23:00:00', 'Thur': '09:30:00-23:00:00', 'Fri': '09:30:00-23:00:00', 'Sat': '09:30:00-23:00:00'}}",06-6992-2777,570-0074,99336,,https://store.lifecorp.jp/
大阪府守口市寺方本通2-11-15,Lifecorp,,Japan,"{'brand': 'Lifecorp', 'fascia': 'Lifecorp', 'category': 'Store', 'edit_date': '2025-04-21', 'lat_lon_source': 'website'}",34.72417320000000000000,135.57659430000000000000,ライフモリグチテラカタテン,"{'opening_hour': {'Sun': '09:30:00-21:00:00', 'Mon': '09:30:00-21:00:00', 'Tue': '09:30:00-21:00:00', 'Wed': '09:30:00-21:00:00', 'Thur': '09:30:00-21:00:00', 'Fri': '09:30:00-21:00:00', 'Sat': '09:30:00-21:00:00'}}",06-6993-9511,570-0048,99467,,https://store.lifecorp.jp/
大阪府東大阪市下小阪5-2-2,Lifecorp,,Japan,"{'brand': 'Lifecorp', 'fascia': 'Lifecorp', 'category': 'Store', 'edit_date': '2025-04-21', 'lat_lon_source': 'website'}",34.66277293000000000000,135.58934640000000000000,ライフヤエノサトテン,"{'opening_hour': {'Sun': '09:30:00-24:00:00', 'Mon': '09:30:00-24:00:00', 'Tue': '09:30:00-24:00:00', 'Wed': '09:30:00-24:00:00', 'Thur': '09:30:00-24:00:00', 'Fri': '09:30:00-24:00:00', 'Sat': '09:30:00-24:00:00'}}",06-6726-3061,577-0803,99451,,https://store.lifecorp.jp/
大阪府八尾市竹渕西3-123,Lifecorp,,Japan,"{'brand': 'Lifecorp', 'fascia': 'Lifecorp', 'category': 'Store', 'edit_date': '2025-04-21', 'lat_lon_source': 'website'}",34.61852811000000000000,135.56214220000000000000,ライフヤオタケフチテン,"{'opening_hour': {'Sun': '09:30:00-21:00:00', 'Mon': '09:30:00-21:00:00', 'Tue': '09:30:00-21:00:00', 'Wed': '09:30:00-21:00:00', 'Thur': '09:30:00-21:00:00', 'Fri': '09:30:00-21:00:00', 'Sat': '09:30:00-21:00:00'}}",06-6701-4481,581-0051,99499,,https://store.lifecorp.jp/
大阪府八尾市南本町1-10-10,Lifecorp,,Japan,"{'brand': 'Lifecorp', 'fascia': 'Lifecorp', 'category': 'Store', 'edit_date': '2025-04-21', 'lat_lon_source': 'website'}",34.62541510000000000000,135.60659630000000000000,ライフヤオテン,"{'opening_hour': {'Sun': '09:00:00-24:00:00', 'Mon': '09:00:00-24:00:00', 'Tue': '09:00:00-24:00:00', 'Wed': '09:00:00-24:00:00', 'Thur': '09:00:00-24:00:00', 'Fri': '09:00:00-24:00:00', 'Sat': '09:00:00-24:00:00'}}",072-925-1331,581-0081,99321,,https://store.lifecorp.jp/
大阪府大阪市鶴見区安田1-1-10,Lifecorp,,Japan,"{'brand': 'Lifecorp', 'fascia': 'Lifecorp', 'category': 'Store', 'edit_date': '2025-04-21', 'lat_lon_source': 'website'}",34.70273526000000000000,135.58591470000000000000,ライフヤスダモロクチテン,"{'opening_hour': {'Sun': '09:30:00-24:00:00', 'Mon': '09:30:00-24:00:00', 'Tue': '09:30:00-24:00:00', 'Wed': '09:30:00-24:00:00', 'Thur': '09:30:00-24:00:00', 'Fri': '09:30:00-24:00:00', 'Sat': '09:30:00-24:00:00'}}",06-6913-7310,538-0032,99302,,https://store.lifecorp.jp/
大阪府大阪市鶴見区横堤3-6-45,Lifecorp,,Japan,"{'brand': 'Lifecorp', 'fascia': 'Lifecorp', 'category': 'Store', 'edit_date': '2025-04-21', 'lat_lon_source': 'website'}",34.70040832000000000000,135.57394700000000000000,ライフヨコヅツミテン,"{'opening_hour': {'Sun': '09:00:00-24:00:00', 'Mon': '09:00:00-24:00:00', 'Tue': '09:00:00-24:00:00', 'Wed': '09:00:00-24:00:00', 'Thur': '09:00:00-24:00:00', 'Fri': '09:00:00-24:00:00', 'Sat': '09:00:00-24:00:00'}}",06-6915-9201,538-0052,99441,,https://store.lifecorp.jp/
埼玉県吉川市保1丁目13-3,Lifecorp,,Japan,"{'brand': 'Lifecorp', 'fascia': 'Lifecorp', 'category': 'Store', 'edit_date': '2025-04-21', 'lat_lon_source': 'website'}",35.87784119000000000000,139.84405770000000000000,ライフヨシカワエキマエテン,"{'opening_hour': {'Sun': '09:30:00-24:00:00', 'Mon': '09:30:00-24:00:00', 'Tue': '09:30:00-24:00:00', 'Wed': '09:30:00-24:00:00', 'Thur': '09:30:00-24:00:00', 'Fri': '09:30:00-24:00:00', 'Sat': '09:30:00-24:00:00'}}",048-981-8611,342-0041,99545,,https://store.lifecorp.jp/
埼玉県吉川市栄町797-1,Lifecorp,,Japan,"{'brand': 'Lifecorp', 'fascia': 'Lifecorp', 'category': 'Store', 'edit_date': '2025-04-21', 'lat_lon_source': 'website'}",35.88525753000000000000,139.85154500000000000000,ライフヨシカワサカエマチテン,"{'opening_hour': {'Sun': '09:30:00-22:00:00', 'Mon': '09:30:00-22:00:00', 'Tue': '09:30:00-22:00:00', 'Wed': '09:30:00-22:00:00', 'Thur': '09:30:00-22:00:00', 'Fri': '09:30:00-22:00:00', 'Sat': '09:30:00-22:00:00'}}",048-983-7800,342-0050,99553,,https://store.lifecorp.jp/
東京都足立区六町4丁目3-1,Lifecorp,,Japan,"{'brand': 'Lifecorp', 'fascia': 'Lifecorp', 'category': 'Store', 'edit_date': '2025-04-21', 'lat_lon_source': 'website'}",35.78562721000000000000,139.82216460000000000000,ライフロクチョウエキマエテン,"{'opening_hour': {'Sun': '09:30:00-24:00:00', 'Mon': '09:30:00-24:00:00', 'Tue': '09:30:00-24:00:00', 'Wed': '09:30:00-24:00:00', 'Thur': '09:30:00-24:00:00', 'Fri': '09:30:00-24:00:00', 'Sat': '09:30:00-24:00:00'}}",03-3884-7271,121-0073,99543,,https://store.lifecorp.jp/
東京都新宿区若松町28-5,Lifecorp,,Japan,"{'brand': 'Lifecorp', 'fascia': 'Lifecorp', 'category': 'Store', 'edit_date': '2025-04-21', 'lat_lon_source': 'website'}",35.69986901000000000000,139.71884510000000000000,ライフワカマツカワダエキマエテン,"{'opening_hour': {'Sun': '09:30:00-24:00:00', 'Mon': '09:30:00-24:00:00', 'Tue': '09:30:00-24:00:00', 'Wed': '09:30:00-24:00:00', 'Thur': '09:30:00-24:00:00', 'Fri': '09:30:00-24:00:00', 'Sat': '09:30:00-24:00:00'}}",03-3204-1261,162-0056,99461,,https://store.lifecorp.jp/
埼玉県蕨市塚越1丁目7-9,Lifecorp,,Japan,"{'brand': 'Lifecorp', 'fascia': 'Lifecorp', 'category': 'Store', 'edit_date': '2025-04-21', 'lat_lon_source': 'website'}",35.82696178000000000000,139.69267130000000000000,ライフワラビエキマエテン,"{'opening_hour': {'Sun': '09:30:00-24:00:00', 'Mon': '09:30:00-24:00:00', 'Tue': '09:30:00-24:00:00', 'Wed': '09:30:00-24:00:00', 'Thur': '09:30:00-24:00:00', 'Fri': '09:30:00-24:00:00', 'Sat': '09:30:00-24:00:00'}}",048-446-1570,335-0002,99484,,https://store.lifecorp.jp/
