addr_full,brand,city,country,extras,lat,lon,name,opening_hours,phone,postcode,ref,state,website
"100 CHEMIN DU PONT BLANC, VEDENE",Ikea,VEDENE,France,"{'brand': 'Ikea', 'fascia': 'IKEA STORE', 'category': 'Retail', 'edit_date': '2025-03-13', 'lat_lon_source': 'website'}",43.97830544461172,4.891127345993009,IKEA Avignon,"{'opening_hours': {'MON': '10:00-19:30', 'TUE': '10:00-19:30', 'WED': '10:00-19:30', 'THU': '10:00-19:30', 'FRI': '10:00-19:30', 'SAT': '10:00-19:30'}}",,84270,018,FRPAC,https://www.ikea.com/fr/fr/stores/avignon/
"2-4 Avenue du Portou, SAINT PIERRE D'IRUBE",Ikea,SAINT PIERRE D'IRUBE,France,"{'brand': 'Ikea', 'fascia': 'IKEA STORE', 'category': 'Retail', 'edit_date': '2025-03-13', 'lat_lon_source': 'website'}",43.480561971611664,-1.4449194303340758,IKEA Bayonne,"{'opening_hours': {'MON': '10:00-19:30', 'TUE': '10:00-19:30', 'WED': '10:00-19:30', 'THU': '10:00-19:30', 'FRI': '10:00-19:30', 'SAT': '10:00-19:30'}}",,64990,310,FRNAQ,https://www.ikea.com/fr/fr/stores/bayonne-ametzondo/
"AVENUE DES 40 JOURNAUX, BORDEAUX-LAC",Ikea,BORDEAUX-LAC,France,"{'brand': 'Ikea', 'fascia': 'IKEA STORE', 'category': 'Retail', 'edit_date': '2025-03-13', 'lat_lon_source': 'website'}",44.8851,-0.5658,IKEA Bordeaux,"{'opening_hours': {'MON': '10:00-20:00', 'TUE': '10:00-20:00', 'WED': '10:00-20:00', 'THU': '10:00-20:00', 'FRI': '10:00-20:00', 'SAT': '10:00-20:00'}}",,33300,134,FRNAQ,https://www.ikea.com/fr/fr/stores/bordeaux/
"LES CHAMPS DE COATAUDON - LE FROUTVEN, GUIPAVAS",Ikea,GUIPAVAS,France,"{'brand': 'Ikea', 'fascia': 'IKEA STORE', 'category': 'Retail', 'edit_date': '2025-03-13', 'lat_lon_source': 'website'}",48.4178,-4.4413,IKEA Brest,"{'opening_hours': {'MON': '10:00-20:00', 'TUE': '10:00-20:00', 'WED': '10:00-20:00', 'THU': '10:00-20:00', 'FRI': '10:00-20:00', 'SAT': '10:00-20:00'}}",,29490,060,FRBRE,https://www.ikea.com/fr/fr/stores/brest/
"970 avenue de Suisse Normande, FLEURY SUR ORNE",Ikea,FLEURY SUR ORNE,France,"{'brand': 'Ikea', 'fascia': 'IKEA STORE', 'category': 'Retail', 'edit_date': '2025-03-13', 'lat_lon_source': 'website'}",49.145819724429145,-0.3640724300306005,IKEA Caen,"{'opening_hours': {'MON': '10:00-20:00', 'TUE': '10:00-20:00', 'WED': '10:00-20:00', 'THU': '10:00-20:00', 'FRI': '10:00-20:00', 'SAT': '10:00-20:00'}}",,14123,199,FRNOR,https://www.ikea.com/fr/fr/stores/caen-fleury-sur-orne/
"19 Boulevard Louis Chartoire, CLERMONT FERRAND",Ikea,CLERMONT FERRAND,France,"{'brand': 'Ikea', 'fascia': 'IKEA STORE', 'category': 'Retail', 'edit_date': '2025-03-13', 'lat_lon_source': 'website'}",45.8038,3.1388,IKEA Clermont - Ferrand,"{'opening_hours': {'MON': '10:00-19:00', 'TUE': '10:00-19:00', 'WED': '10:00-19:00', 'THU': '10:00-19:00', 'FRI': '10:00-19:00', 'SAT': '10:00-19:00'}}",,63100,345,FRARA,https://www.ikea.com/fr/fr/stores/clermont-ferrand/
"1 RUE DE CRACOVIE, DIJON",Ikea,DIJON,France,"{'brand': 'Ikea', 'fascia': 'IKEA STORE', 'category': 'Retail', 'edit_date': '2025-03-13', 'lat_lon_source': 'website'}",47.3408339951798,5.064184712334835,IKEA Dijon,"{'opening_hours': {'MON': '10:00-19:30', 'TUE': '10:00-19:30', 'WED': '10:00-19:30', 'THU': '10:00-19:30', 'FRI': '10:00-19:30', 'SAT': '10:00-19:30'}}",,21000,086,FRBFC,https://www.ikea.com/fr/fr/stores/dijon/
"1 RUE DU CLOS AUX POIS - LISSE, EVRY",Ikea,EVRY,France,"{'brand': 'Ikea', 'fascia': 'IKEA STORE', 'category': 'Retail', 'edit_date': '2025-03-13', 'lat_lon_source': 'website'}",48.59669576528127,2.439204012938318,IKEA Paris - Evry,"{'opening_hours': {'MON': '10:00-20:00', 'TUE': '10:00-20:00', 'WED': '10:00-20:00', 'THU': '10:00-20:00', 'FRI': '10:00-20:00', 'SAT': '10:00-20:00', 'SUN': '10:00-20:00'}}",,91090,082,FRIDF,https://www.ikea.com/fr/fr/stores/evry/
"337/339 RUE DU GENERAL LECLERC, FRANCONVILLE",Ikea,FRANCONVILLE,France,"{'brand': 'Ikea', 'fascia': 'IKEA STORE', 'category': 'Retail', 'edit_date': '2025-03-13', 'lat_lon_source': 'website'}",48.9867,2.2147,IKEA Paris - Franconville,"{'opening_hours': {'MON': '10:00-20:00', 'TUE': '10:00-20:00', 'WED': '10:00-20:00', 'THU': '10:00-20:00', 'FRI': '10:00-20:00', 'SAT': '10:00-20:00', 'SUN': '10:00-20:00'}}",,95130,389,FRIDF,https://www.ikea.com/fr/fr/stores/paris-franconville/
"150 AV GABRIEL PERI, SAINT MARTIN D'HERES",Ikea,SAINT MARTIN D'HERES,France,"{'brand': 'Ikea', 'fascia': 'IKEA STORE', 'category': 'Retail', 'edit_date': '2025-03-13', 'lat_lon_source': 'website'}",45.181343511477905,5.775836400587793,IKEA Grenoble,"{'opening_hours': {'MON': '10:00-20:00', 'TUE': '10:00-20:00', 'WED': '10:00-20:00', 'THU': '10:00-20:00', 'FRI': '10:00-20:00', 'SAT': '10:00-20:00'}}",,38400,435,FRARA,https://www.ikea.com/fr/fr/stores/grenoble/
"BD OLOF PALME, HENIN BEAUMONT",Ikea,HENIN BEAUMONT,France,"{'brand': 'Ikea', 'fascia': 'IKEA STORE', 'category': 'Retail', 'edit_date': '2025-03-13', 'lat_lon_source': 'website'}",50.3921,2.9775,IKEA Lens - Hénin-Beaumont,"{'opening_hours': {'MON': '10:00-19:30', 'TUE': '10:00-19:30', 'WED': '10:00-19:30', 'THU': '10:00-19:30', 'FRI': '10:00-20:00', 'SAT': '10:00-20:00'}}",,62110,051,FRHDF,https://www.ikea.com/fr/fr/stores/henin-beaumont/
"3 RUE DU PETIT CLAMART, VELIZY VILLACOUBLAY",Ikea,VELIZY VILLACOUBLAY,France,"{'brand': 'Ikea', 'fascia': 'IKEA SMALL STORE', 'category': 'Retail', 'edit_date': '2025-03-13', 'lat_lon_source': 'website'}",48.7835,2.2242,Ikea Velizy,"{'opening_hours': {'MON': '10:00-20:00', 'TUE': '10:00-20:00', 'WED': '10:00-20:00', 'THU': '10:00-20:00', 'FRI': '10:00-20:00', 'SAT': '10:00-20:00', 'SUN': '10:00-20:00'}}",,78140,285,FRIDF,https://www.ikea.com/fr/fr/stores/velizy/
"30 Av. d'Italie (centre commercial Italie Deux), Paris",Ikea,Paris,France,"{'brand': 'Ikea', 'fascia': 'IKEA SMALL STORE', 'category': 'Retail', 'edit_date': '2025-03-13', 'lat_lon_source': 'website'}",48.830385638900374,2.354864903742871,IKEA Paris Italie Deux,"{'opening_hours': {'MON': '10:00-20:00', 'TUE': '10:00-20:00', 'WED': '10:00-20:00', 'THU': '10:00-20:00', 'FRI': '10:00-20:00', 'SAT': '10:00-20:00', 'SUN': '11:00-19:00'}}",,75013,719,FRIDF,https://www.ikea.com/fr/fr/stores/paris-italie-deux/
"ZAC LA VALENTINE - LA RAVELLE, MARSEILLE",Ikea,MARSEILLE,France,"{'brand': 'Ikea', 'fascia': 'IKEA STORE', 'category': 'Retail', 'edit_date': '2025-03-13', 'lat_lon_source': 'website'}",43.29317920469646,5.481076826113443,IKEA Marseille - La Valentine,"{'opening_hours': {'MON': '10:00-20:00', 'TUE': '10:00-20:00', 'WED': '10:00-20:00', 'THU': '10:00-20:00', 'FRI': '10:00-20:00', 'SAT': '10:00-20:00'}}",,13011,433,FRPAC,https://www.ikea.com/fr/fr/stores/marseille-la-valentine/
"130 RUE GRAND BUT, LOMME",Ikea,LOMME,France,"{'brand': 'Ikea', 'fascia': 'IKEA STORE', 'category': 'Retail', 'edit_date': '2025-03-13', 'lat_lon_source': 'website'}",50.649828962865364,2.9777361431978626,IKEA Lille - Lomme,"{'opening_hours': {'MON': '10:00-19:30', 'TUE': '10:00-19:30', 'WED': '10:00-19:30', 'THU': '10:00-19:30', 'FRI': '10:00-20:00', 'SAT': '10:00-20:00'}}",,59160,133,FRHDF,https://www.ikea.com/fr/fr/stores/lille/
"9 rue Simone VEIL, VENISSIEUX",Ikea,VENISSIEUX,France,"{'brand': 'Ikea', 'fascia': 'IKEA STORE', 'category': 'Retail', 'edit_date': '2025-03-13', 'lat_lon_source': 'website'}",45.718609733846,4.881498981564166,IKEA Lyon - Grand Parilly,"{'opening_hours': {'MON': '10:00-20:00', 'TUE': '10:00-20:00', 'WED': '10:00-20:00', 'THU': '10:00-20:00', 'FRI': '10:00-20:00', 'SAT': '09:00-20:00'}}",,69200,562,FRARA,https://www.ikea.com/fr/fr/stores/grand-parilly/
"RUE DU TROU AUX SERPENTS, LA MAXE",Ikea,LA MAXE,France,"{'brand': 'Ikea', 'fascia': 'IKEA STORE', 'category': 'Retail', 'edit_date': '2025-03-13', 'lat_lon_source': 'website'}",49.15007792189972,6.188146083592657,IKEA Metz - La Maxe,"{'opening_hours': {'MON': '10:00-20:00', 'TUE': '10:00-20:00', 'WED': '10:00-20:00', 'THU': '10:00-20:00', 'FRI': '10:00-20:00', 'SAT': '10:00-20:00'}}",,57140,260,FRGES,https://www.ikea.com/fr/fr/stores/metz/
"1 Place de Troie, MONTPELLIER",Ikea,MONTPELLIER,France,"{'brand': 'Ikea', 'fascia': 'IKEA STORE', 'category': 'Retail', 'edit_date': '2025-03-13', 'lat_lon_source': 'website'}",43.6042,3.9244,IKEA Montpellier,"{'opening_hours': {'MON': '10:00-20:00', 'TUE': '10:00-20:00', 'WED': '10:00-20:00', 'THU': '10:00-20:00', 'FRI': '10:00-20:00', 'SAT': '10:00-20:00'}}",,34000,402,FROCC,https://www.ikea.com/fr/fr/stores/montpellier/
"Place Du Renne, Morschwiller-le-bas",Ikea,Morschwiller-le-bas,France,"{'brand': 'Ikea', 'fascia': 'IKEA STORE', 'category': 'Retail', 'edit_date': '2025-03-13', 'lat_lon_source': 'website'}",47.73246437811007,7.2828611105020915,IKEA Mulhouse,"{'opening_hours': {'MON': '10:00-20:00', 'TUE': '10:00-20:00', 'WED': '10:00-20:00', 'THU': '10:00-20:00', 'FRI': '10:00-20:00', 'SAT': '10:00-20:00'}}",,68790,444,FRGES,https://www.ikea.com/fr/fr/stores/mulhouse/
"BOULEVARD SALVADOR ALLENDE - POLE ATLANTIS - BP 137, SAINT HERBLAIN CEDEX",Ikea,SAINT HERBLAIN CEDEX,France,"{'brand': 'Ikea', 'fascia': 'IKEA STORE', 'category': 'Retail', 'edit_date': '2025-03-13', 'lat_lon_source': 'website'}",47.222448649966275,-1.6318846318518032,IKEA Nantes,"{'opening_hours': {'MON': '10:00-20:00', 'TUE': '10:00-20:00', 'WED': '10:00-20:00', 'THU': '10:00-20:00', 'FRI': '10:00-20:00', 'SAT': '09:30-20:00'}}",,44800,316,FRPDL,https://www.ikea.com/fr/fr/stores/nantes/
"20 Rue ALain Mimoun, NICE",Ikea,NICE,France,"{'brand': 'Ikea', 'fascia': 'IKEA STORE', 'category': 'Retail', 'edit_date': '2025-03-13', 'lat_lon_source': 'website'}",43.7057453324836,7.195417710302401,IKEA Nice - St. Isidore,"{'opening_hours': {'MON': '10:00-20:00', 'TUE': '10:00-20:00', 'WED': '10:00-20:00', 'THU': '10:00-20:00', 'FRI': '10:00-20:00', 'SAT': '10:00-20:00'}}",,06200,518,FRPAC,https://www.ikea.com/fr/fr/stores/nice-saint-isidore/
"RUE HONORÉ DE BALZAC - ZAC DE LIMERE- RD POINT DE SOLOGNE -, ARDON",Ikea,ARDON,France,"{'brand': 'Ikea', 'fascia': 'IKEA STORE', 'category': 'Retail', 'edit_date': '2025-03-13', 'lat_lon_source': 'website'}",47.82759342153324,1.9188728123597907,IKEA Orléans,"{'opening_hours': {'MON': '10:00-19:30', 'TUE': '10:00-19:30', 'WED': '10:00-19:30', 'THU': '10:00-19:30', 'FRI': '10:00-20:00', 'SAT': '10:00-20:00'}}",,45160,487,FRCVL,https://www.ikea.com/fr/fr/stores/orleans-ardon/
"176 AVENUE DE LA PLAINE DE FRANCE, ROISSY CHARLES DE G",Ikea,ROISSY CHARLES DE G,France,"{'brand': 'Ikea', 'fascia': 'IKEA STORE', 'category': 'Retail', 'edit_date': '2025-03-13', 'lat_lon_source': 'website'}",48.9751,2.4945,IKEA Paris - Nord,"{'opening_hours': {'MON': '10:00-20:00', 'TUE': '10:00-20:00', 'WED': '10:00-20:00', 'THU': '10:00-20:00', 'FRI': '10:00-20:00', 'SAT': '10:00-20:00', 'SUN': '10:00-20:00'}}",,95500,131,FRIDF,https://www.ikea.com/fr/fr/stores/paris-nord-roissy/
"202 RUE HENRI BARBUSSE, PLAISIR",Ikea,PLAISIR,France,"{'brand': 'Ikea', 'fascia': 'IKEA STORE', 'category': 'Retail', 'edit_date': '2025-03-13', 'lat_lon_source': 'website'}",48.82962043902274,1.9680016277564276,IKEA Paris - Plaisir,"{'opening_hours': {'MON': '10:00-20:00', 'TUE': '10:00-20:00', 'WED': '10:00-20:00', 'THU': '10:00-20:00', 'FRI': '10:00-20:00', 'SAT': '10:00-20:00', 'SUN': '10:00-20:00'}}",,78370,083,FRIDF,https://www.ikea.com/fr/fr/stores/plaisir/
"ZAC NORD THILLOIS, THILLOIS",Ikea,THILLOIS,France,"{'brand': 'Ikea', 'fascia': 'IKEA STORE', 'category': 'Retail', 'edit_date': '2025-03-13', 'lat_lon_source': 'website'}",49.25817095433124,3.9643556161401636,IKEA Reims,"{'opening_hours': {'MON': '10:00-20:00', 'TUE': '10:00-20:00', 'WED': '10:00-20:00', 'THU': '10:00-20:00', 'FRI': '10:00-20:00', 'SAT': '10:00-20:00'}}",,51370,198,FRGES,https://www.ikea.com/fr/fr/stores/reims/
"RIVE OUEST - 14 AVENUE DES TOUCHES, PACE",Ikea,PACE,France,"{'brand': 'Ikea', 'fascia': 'IKEA STORE', 'category': 'Retail', 'edit_date': '2025-03-13', 'lat_lon_source': 'website'}",48.137727043458845,-1.7634751876241634,IKEA Rennes,"{'opening_hours': {'MON': '10:00-20:00', 'TUE': '10:00-20:00', 'WED': '10:00-20:00', 'THU': '10:00-20:00', 'FRI': '10:00-20:00', 'SAT': '10:00-20:00'}}",,35740,177,FRBRE,https://www.ikea.com/fr/fr/navigation/stores/177.html
"144 RUE DE RIVOLI, PARIS",Ikea,PARIS,France,"{'brand': 'Ikea', 'fascia': 'IKEA SHOP', 'category': 'Retail', 'edit_date': '2025-03-13', 'lat_lon_source': 'website'}",48.860577631039334,2.342574597069094,IKEA Paris - Rivoli,"{'opening_hours': {'MON': '10:00-20:00', 'TUE': '10:00-20:00', 'WED': '10:00-20:00', 'THU': '10:00-20:00', 'FRI': '10:00-20:00', 'SAT': '10:00-20:00', 'SUN': '11:00-20:00'}}",,75001,645,,https://www.ikea.com/fr/fr/stores/paris-rivoli/
"AVENUE GUSTAVE PICARD, TOURVILLE LA RIVIERE",Ikea,TOURVILLE LA RIVIERE,France,"{'brand': 'Ikea', 'fascia': 'IKEA STORE', 'category': 'Retail', 'edit_date': '2025-03-13', 'lat_lon_source': 'website'}",49.33258909155832,1.0977066812276535,IKEA Rouen,"{'opening_hours': {'MON': '10:00-20:00', 'TUE': '10:00-20:00', 'WED': '10:00-20:00', 'THU': '10:00-20:00', 'FRI': '10:00-20:00', 'SAT': '10:00-20:00'}}",,76410,163,FRNOR,https://www.ikea.com/fr/fr/stores/rouen/
"47 RUE JEAN HUSS, SAINT ETIENNE",Ikea,SAINT ETIENNE,France,"{'brand': 'Ikea', 'fascia': 'IKEA STORE', 'category': 'Retail', 'edit_date': '2025-03-13', 'lat_lon_source': 'website'}",45.449160617013696,4.41912126991202,IKEA Saint-Étienne,"{'opening_hours': {'MON': '10:00-20:00', 'TUE': '10:00-20:00', 'WED': '10:00-20:00', 'THU': '10:00-20:00', 'FRI': '10:00-20:00', 'SAT': '10:00-20:00'}}",,42000,431,FRARA,https://www.ikea.com/fr/fr/stores/saint-etienne/
"26 PLACE DE L'ABATTOIR, STRASBOURG",Ikea,STRASBOURG,France,"{'brand': 'Ikea', 'fascia': 'IKEA STORE', 'category': 'Retail', 'edit_date': '2025-03-13', 'lat_lon_source': 'website'}",48.60045362535256,7.730440231219902,IKEA Strasbourg,"{'opening_hours': {'MON': '10:00-20:00', 'TUE': '10:00-20:00', 'WED': '10:00-20:00', 'THU': '10:00-20:00', 'FRI': '10:00-20:00', 'SAT': '09:00-20:00'}}",,67000,239,FRGES,https://www.ikea.com/fr/fr/stores/strasbourg/
"3 RUE DE LA RESISTANCE, THIAIS",Ikea,THIAIS,France,"{'brand': 'Ikea', 'fascia': 'IKEA STORE', 'category': 'Retail', 'edit_date': '2025-03-13', 'lat_lon_source': 'website'}",48.75945082056943,2.385285298699516,IKEA Paris - Thiais,"{'opening_hours': {'MON': '10:00-20:00', 'TUE': '10:00-20:00', 'WED': '10:00-20:00', 'THU': '10:00-20:00', 'FRI': '10:00-20:00', 'SAT': '10:00-20:00', 'SUN': '10:00-20:00'}}",,94320,432,FRIDF,https://www.ikea.com/fr/fr/stores/paris-sud-thiais/
"ZAC DE VALGORA - BP 515, TOULON",Ikea,TOULON,France,"{'brand': 'Ikea', 'fascia': 'IKEA STORE', 'category': 'Retail', 'edit_date': '2025-03-13', 'lat_lon_source': 'website'}",43.1418,6.0111,IKEA Toulon - La Valette-du-Var,"{'opening_hours': {'MON': '10:00-20:00', 'TUE': '10:00-20:00', 'WED': '10:00-20:00', 'THU': '10:00-20:00', 'FRI': '10:00-20:00', 'SAT': '10:00-20:00'}}",,83160,315,FRPAC,https://www.ikea.com/fr/fr/stores/toulon/
"9 ALLEE DE FRAIXINET, Roques SUR GARONNE",Ikea,Roques SUR GARONNE,France,"{'brand': 'Ikea', 'fascia': 'IKEA STORE', 'category': 'Retail', 'edit_date': '2025-03-13', 'lat_lon_source': 'website'}",43.5171,1.3766,IKEA Toulouse - Roques,"{'opening_hours': {'MON': '10:00-20:00', 'TUE': '10:00-20:00', 'WED': '10:00-20:00', 'THU': '10:00-20:00', 'FRI': '10:00-20:00', 'SAT': '10:00-20:00'}}",,31120,242,FROCC,https://www.ikea.com/fr/fr/stores/toulouse/
"RUE DESIRE LECOMTE, TOURS",Ikea,TOURS,France,"{'brand': 'Ikea', 'fascia': 'IKEA STORE', 'category': 'Retail', 'edit_date': '2025-03-13', 'lat_lon_source': 'website'}",47.3761,0.718,IKEA Tours,"{'opening_hours': {'MON': '10:00-20:00', 'TUE': '10:00-20:00', 'WED': '10:00-20:00', 'THU': '10:00-20:00', 'FRI': '10:00-20:00', 'SAT': '10:00-20:00'}}",,37000,434,FRCVL,https://www.ikea.com/fr/fr/stores/tours/
"33,35 RUE JEAN JAURES, VILLIERS SUR MARNE",Ikea,VILLIERS SUR MARNE,France,"{'brand': 'Ikea', 'fascia': 'IKEA STORE', 'category': 'Retail', 'edit_date': '2025-03-13', 'lat_lon_source': 'website'}",48.82824105605143,2.5300976547396212,IKEA Paris - Villiers,"{'opening_hours': {'MON': '10:00-20:00', 'TUE': '10:00-20:00', 'WED': '10:00-20:00', 'THU': '10:00-20:00', 'FRI': '10:00-20:00', 'SAT': '10:00-20:00', 'SUN': '10:00-20:00'}}",,94350,240,FRIDF,https://www.ikea.com/fr/fr/stores/paris-villiers/
"CHEMIN DE LA BASTIDE BLANCHE, VITROLLES",Ikea,VITROLLES,France,"{'brand': 'Ikea', 'fascia': 'IKEA STORE', 'category': 'Retail', 'edit_date': '2025-03-13', 'lat_lon_source': 'website'}",43.42949830249604,5.267922527486527,IKEA Marseille - Vitrolles,"{'opening_hours': {'MON': '10:00-20:00', 'TUE': '10:00-20:00', 'WED': '10:00-20:00', 'THU': '10:00-20:00', 'FRI': '10:00-20:00', 'SAT': '10:00-20:00'}}",,13127,130,FRPAC,https://www.ikea.com/fr/fr/stores/marseille-vitrolles/
