addr_full,city,country,brand,extras,lat,lon,opening_hours,phone,ref,postcode,name,state,website
"25 AV. NORTE, NO.712 COLONIA MEDICA, SAN SALVADOR, FRENTE HOS. PROFAMILIA",SAN SALVADOR,El Salvador,Farmacias San Nicolás,"{'brand': 'Farmacias San Nicolás', 'fascia': 'Farmacias San Nicolás', 'category': 'Pharmacy', 'edit_date': '20250422', 'lat_lon_source': 'google'}",13.705991000000000,-89.204118000000000,"{'opening_hours': {'Sun': '09:00-19:00', 'Mon': '07:45-20:00', 'Tue': '07:45-20:00', 'Wed': '07:45-20:00', 'Thu': '07:45-20:00', 'Fri': '09:00-20:00', 'Sat': '07:45-20:00'}}",,SC3678,,Farmacias San Nicolás 25 AV NORTE,,https://www.farmaciasannicolas.com/sucursales
29 Calle Poniente . y 1 Ave. Norte # 216,SAN SALVADOR,El Salvador,Farmacias San Nicolás,"{'brand': 'Farmacias San Nicolás', 'fascia': 'Farmacias San Nicolás', 'category': 'Pharmacy', 'edit_date': '20250422', 'lat_lon_source': 'google'}",13.713429000000000,-89.191023000000000,"{'opening_hours': {'Sun': '08:30-18:00', 'Mon': '07:45-21:00', 'Tue': '07:45-21:00', 'Wed': '07:45-21:00', 'Thu': '07:45-21:00', 'Fri': '07:45-21:00', 'Sat': '07:45-21:00'}}",,SC4408,,Farmacias San Nicolás 29 CALLE,,https://www.farmaciasannicolas.com/sucursales
Pro. Alameda Juan PabloII y 75. Av. N CC Escalón II Lc 1-1&1-2,SAN SALVADOR,El Salvador,Farmacias San Nicolás,"{'brand': 'Farmacias San Nicolás', 'fascia': 'Farmacias San Nicolás', 'category': 'Pharmacy', 'edit_date': '20250422', 'lat_lon_source': 'google'}",13.710434000000000,-89.231872000000000,"{'opening_hours': {'Sun': '09:00-21:30', 'Mon': '07:45-21:30', 'Tue': '07:45-21:30', 'Wed': '07:45-21:30', 'Thu': '07:45-21:30', 'Fri': '07:45-21:30', 'Sat': '08:00-21:30'}}",,SC3310,,Farmacias San Nicolás 75 AVENIDA NORTE,,https://www.farmaciasannicolas.com/sucursales
"Barrio El Centro, Calle . Central #6",SAN SALVADOR,El Salvador,Farmacias San Nicolás,"{'brand': 'Farmacias San Nicolás', 'fascia': 'Farmacias San Nicolás', 'category': 'Pharmacy', 'edit_date': '20250422', 'lat_lon_source': 'google'}",13.957475000000000,-89.186776000000000,"{'opening_hours': {'Sun': '07:30-17:00', 'Mon': '07:00-18:30', 'Tue': '07:00-18:30', 'Wed': '07:00-18:30', 'Thu': '07:00-18:30', 'Fri': '07:00-18:30', 'Sat': '07:00-18:30'}}",,SC2074,,Farmacias San Nicolás AGUILARES,,https://www.farmaciasannicolas.com/sucursales
"Avenida Francisco Menendez Norte # 1-5, Ciudad de Ahuachapan,",AHUACHAPÁN,El Salvador,Farmacias San Nicolás,"{'brand': 'Farmacias San Nicolás', 'fascia': 'Farmacias San Nicolás', 'category': 'Pharmacy', 'edit_date': '20250422', 'lat_lon_source': 'google'}",13.921586000000000,-89.846852000000000,"{'opening_hours': {'Sun': '07:30-13:00', 'Mon': '07:30-18:00', 'Tue': '07:30-18:00', 'Wed': '07:30-18:00', 'Thu': '07:30-18:00', 'Fri': '07:30-18:00', 'Sat': '07:30-18:00'}}",,SC3164,,Farmacias San Nicolás AHUACHAPAN,,https://www.farmaciasannicolas.com/sucursales
"Centro Comercial Maquilishuat,. local #4 Antiguo Cuscatlán",LA LIBERTAD,El Salvador,Farmacias San Nicolás,"{'brand': 'Farmacias San Nicolás', 'fascia': 'Farmacias San Nicolás', 'category': 'Pharmacy', 'edit_date': '20250422', 'lat_lon_source': 'google'}",13.672251000000000,-89.239956000000000,"{'opening_hours': {'Sun': '08:30-22:00', 'Mon': '07:45-22:00', 'Tue': '07:45-22:00', 'Wed': '07:45-22:00', 'Thu': '07:45-22:00', 'Fri': '07:45-22:00', 'Sat': '07:45-22:00'}}",,SC4629,,Farmacias San Nicolás ANTIGUO,,https://www.farmaciasannicolas.com/sucursales
Av. Aquilino Chávez #12 Apopa.,SAN SALVADOR,El Salvador,Farmacias San Nicolás,"{'brand': 'Farmacias San Nicolás', 'fascia': 'Farmacias San Nicolás', 'category': 'Pharmacy', 'edit_date': '20250422', 'lat_lon_source': 'google'}",13.800057000000000,-89.178809000000000,"{'opening_hours': {'Sun': '07:30-18:00', 'Mon': '07:30-19:00', 'Tue': '07:30-19:00', 'Wed': '07:30-19:00', 'Thu': '07:30-19:00', 'Fri': '07:30-19:00', 'Sat': '07:30-19:00'}}",,SC3806,,Farmacias San Nicolás APOPA,,https://www.farmaciasannicolas.com/sucursales
Gasolinera UNO Arboledas. kilometro 24 1/2 Carr. sta ana,LA LIBERTAD,El Salvador,Farmacias San Nicolás,"{'brand': 'Farmacias San Nicolás', 'fascia': 'Farmacias San Nicolás', 'category': 'Pharmacy', 'edit_date': '20250422', 'lat_lon_source': 'google'}",13.738283000000000,-89.361229000000000,"{'opening_hours': {'Sun': '07:45-22:00', 'Mon': '07:45-22:00', 'Tue': '07:45-22:00', 'Wed': '07:45-22:00', 'Thu': '07:45-22:00', 'Fri': '07:45-22:00', 'Sat': '07:45-22:00'}}",,SC464,,Farmacias San Nicolás ARBOLEDAS,,https://www.farmaciasannicolas.com/sucursales
"Calle Arce, 7a. Av Nte.  #480.",SAN SALVADOR,El Salvador,Farmacias San Nicolás,"{'brand': 'Farmacias San Nicolás', 'fascia': 'Farmacias San Nicolás', 'category': 'Pharmacy', 'edit_date': '20250422', 'lat_lon_source': 'google'}",13.699458000000000,-89.194914000000000,"{'opening_hours': {'Sun': '08:00-18:00', 'Mon': '07:30-20:00', 'Tue': '07:30-20:00', 'Wed': '07:30-20:00', 'Thu': '07:30-20:00', 'Fri': '07:30-20:00', 'Sat': '07:30-20:00'}}",,SC4508,,Farmacias San Nicolás ARCE,,https://www.farmaciasannicolas.com/sucursales
Gasolinera UNO Atlacatl (Calle 5 noviembre y ctra. Troncal del norte San Salvador),SAN SALVADOR,El Salvador,Farmacias San Nicolás,"{'brand': 'Farmacias San Nicolás', 'fascia': 'Farmacias San Nicolás', 'category': 'Pharmacy', 'edit_date': '20250422', 'lat_lon_source': 'google'}",13.709149000000000,-89.177224000000000,"{'opening_hours': {'Sun': '08:00-20:00', 'Mon': '07:45-21:00', 'Tue': '07:45-21:00', 'Wed': '07:45-21:00', 'Thu': '07:45-21:00', 'Fri': '07:45-21:00', 'Sat': '07:45-21:00'}}",,SC2419,,Farmacias San Nicolás ATLACATL,,https://www.farmaciasannicolas.com/sucursales
Col. Jardines de Monserrat . Av. Altamira Autopista sur #3,SAN SALVADOR,El Salvador,Farmacias San Nicolás,"{'brand': 'Farmacias San Nicolás', 'fascia': 'Farmacias San Nicolás', 'category': 'Pharmacy', 'edit_date': '20250422', 'lat_lon_source': 'google'}",13.684470000000000,-89.221595000000000,"{'opening_hours': {'Sun': '09:00-21:00', 'Mon': '07:45-22:00', 'Tue': '07:45-22:00', 'Wed': '07:45-22:00', 'Thu': '07:45-22:00', 'Fri': '07:45-22:00', 'Sat': '07:45-22:00'}}",,SC3522,,Farmacias San Nicolás AUTOPISTA SUR,,https://www.farmaciasannicolas.com/sucursales
"C.C. LAS AZALEAS, INTERSECCIÓN AV. LAS AZALEAS Y CLL. LA MASCOTA COL. MAQUILISHUAT , SS",SAN SALVADOR,El Salvador,Farmacias San Nicolás,"{'brand': 'Farmacias San Nicolás', 'fascia': 'Farmacias San Nicolás', 'category': 'Pharmacy', 'edit_date': '20250422', 'lat_lon_source': 'google'}",13.697444320000000,-89.245653950000000,"{'opening_hours': {'Sun': '09:00-21:00', 'Mon': '08:00-21:00', 'Tue': '08:00-21:00', 'Wed': '08:00-21:00', 'Thu': '08:00-21:00', 'Fri': '08:00-21:00', 'Sat': '08:00-21:00'}}",,SC1483,,Farmacias San Nicolás AZALEAS,,https://www.farmaciasannicolas.com/sucursales
"1ra Calle Oriente, Casa #18 Canton Cara Sucia , San Francisco Menendez, Ahuachapan",AHUACHAPÁN,El Salvador,Farmacias San Nicolás,"{'brand': 'Farmacias San Nicolás', 'fascia': 'Farmacias San Nicolás', 'category': 'Pharmacy', 'edit_date': '20250422', 'lat_lon_source': 'google'}",13.776895440000000,-90.032779450000000,"{'opening_hours': {'Sun': '07:30-13:00', 'Mon': '07:30-17:30', 'Tue': '07:30-05:30', 'Wed': '07:30-17:30', 'Thu': '07:30-17:30', 'Fri': '07:30-17:30', 'Sat': '07:30-17:30'}}",,SC4569,,Farmacias San Nicolás CARA SUCIA,,https://www.farmaciasannicolas.com/sucursales
"CARR, DE ORO KM. 7 1/2, TIENDA. DE CONVENIENCIA ""PRONTO"",S.S.",SAN SALVADOR,El Salvador,Farmacias San Nicolás,"{'brand': 'Farmacias San Nicolás', 'fascia': 'Farmacias San Nicolás', 'category': 'Pharmacy', 'edit_date': '20250422', 'lat_lon_source': 'google'}",13.720206000000000,-89.093177000000000,"{'opening_hours': {'Sun': '07:45-20:00', 'Mon': '07:45-21:00', 'Tue': '07:45-21:00', 'Wed': '07:45-21:00', 'Thu': '07:45-21:00', 'Fri': '07:45-21:00', 'Sat': '07:45-20:00'}}",,SC3316,,Farmacias San Nicolás CARRETERA DE ORO,,https://www.farmaciasannicolas.com/sucursales
Gasolinera Uno Carrousel Av. Roosevelt y 6 cl pte Sn Miguel,SAN MIGUEL,El Salvador,Farmacias San Nicolás,"{'brand': 'Farmacias San Nicolás', 'fascia': 'Farmacias San Nicolás', 'category': 'Pharmacy', 'edit_date': '20250422', 'lat_lon_source': 'google'}",13.483482000000000,-88.185085000000000,"{'opening_hours': {'Sun': '09:00-21:00', 'Mon': '07:45-23:00', 'Tue': '07:45-23:00', 'Wed': '07:45-23:00', 'Thu': '07:45-23:00', 'Fri': '07:45-23:00', 'Sat': '07:45-23:00'}}",,SC4482,,Farmacias San Nicolás CARROUSEL,,https://www.farmaciasannicolas.com/sucursales
"2da. Ave. Sur #225 Plaza . Gerardo Barrios, Edif Colon",SAN SALVADOR,El Salvador,Farmacias San Nicolás,"{'brand': 'Farmacias San Nicolás', 'fascia': 'Farmacias San Nicolás', 'category': 'Pharmacy', 'edit_date': '20250422', 'lat_lon_source': 'google'}",13.697419000000000,-89.190722000000000,"{'opening_hours': {'Sun': '08:00-18:00', 'Mon': '07:45-21:00', 'Tue': '07:45-21:00', 'Wed': '07:45-21:00', 'Thu': '07:45-21:00', 'Fri': '07:45-21:00', 'Sat': '07:45-21:00'}}",,SC4211,,Farmacias San Nicolás CATEDRAL,,https://www.farmaciasannicolas.com/sucursales
"Gasolinera UNO Centroamerica: Blvd San Antonio Abad, Col. El Roble, San Salvador",SAN SALVADOR,El Salvador,Farmacias San Nicolás,"{'brand': 'Farmacias San Nicolás', 'fascia': 'Farmacias San Nicolás', 'category': 'Pharmacy', 'edit_date': '20250422', 'lat_lon_source': 'google'}",13.714446000000000,-89.208818000000000,"{'opening_hours': {'Sun': '08:00-20:00', 'Mon': '07:45-20:00', 'Tue': '07:45-20:00', 'Wed': '07:45-20:00', 'Thu': '07:45-20:00', 'Fri': '07:45-20:00', 'Sat': '07:45-20:00'}}",,SC3741,,Farmacias San Nicolás CENTRO AMERICA,,https://www.farmaciasannicolas.com/sucursales
"CALLE MORAZÁN, NÚMERO QUINCE, BARRIO EL CALVARIO, CIUDAD Y DPTO. DE CHALATENANGO",CHALATENANGO,El Salvador,Farmacias San Nicolás,"{'brand': 'Farmacias San Nicolás', 'fascia': 'Farmacias San Nicolás', 'category': 'Pharmacy', 'edit_date': '20250422', 'lat_lon_source': 'google'}",14.042460000000000,-88.937000000000000,"{'opening_hours': {'Sun': '07:45-14:00', 'Mon': '07:45-17:00', 'Tue': '07:45-17:00', 'Wed': '07:45-17:00', 'Thu': '07:45-17:00', 'Fri': '07:45-17:00', 'Sat': '07:45-17:00'}}",,SC1836,,Farmacias San Nicolás CHALATENANGO,,https://www.farmaciasannicolas.com/sucursales
Urb. Jardines del Volcán Call .  Chiltiupan Polg. E-1  #28,LA LIBERTAD,El Salvador,Farmacias San Nicolás,"{'brand': 'Farmacias San Nicolás', 'fascia': 'Farmacias San Nicolás', 'category': 'Pharmacy', 'edit_date': '20250422', 'lat_lon_source': 'google'}",13.679082000000000,-89.269555000000000,"{'opening_hours': {'Sun': '09:00-22:00', 'Mon': '07:30-22:30', 'Tue': '07:30-22:30', 'Wed': '07:30-22:30', 'Thu': '07:30-22:30', 'Fri': '07:30-22:30', 'Sat': '07:30-22:30'}}",,SC536,,Farmacias San Nicolás CHILTIUPAN,,https://www.farmaciasannicolas.com/sucursales
"San Sebastián Salitrillo, Santa Ana, ""PLAZA ALEMANA, CIUDAD REAL"", “Local E”",SANTA ANA,El Salvador,Farmacias San Nicolás,"{'brand': 'Farmacias San Nicolás', 'fascia': 'Farmacias San Nicolás', 'category': 'Pharmacy', 'edit_date': '20250422', 'lat_lon_source': 'google'}",13.988371000000000,-89.643574000000000,"{'opening_hours': {'Sun': '07:45-19:00', 'Mon': '07:45-21:00', 'Tue': '07:45-21:00', 'Wed': '07:45-21:00', 'Thu': '07:45-21:00', 'Fri': '07:45-21:00', 'Sat': '07:45-21:00'}}",,SC2038,,Farmacias San Nicolás CIUDAD REAL,,https://www.farmaciasannicolas.com/sucursales
Edif. Club de leones . 1° Diagonal Dr Arturo R.,SAN SALVADOR,El Salvador,Farmacias San Nicolás,"{'brand': 'Farmacias San Nicolás', 'fascia': 'Farmacias San Nicolás', 'category': 'Pharmacy', 'edit_date': '20250422', 'lat_lon_source': 'google'}",13.709045000000000,-89.202895000000000,"{'opening_hours': {'Mon': '07:45-20:00', 'Tue': '07:45-20:00', 'Wed': '07:45-20:00', 'Thu': '07:45-20:00', 'Fri': '07:45-20:00', 'Sat': '07:45-19:00'}}",,SC1012,,Farmacias San Nicolás CLUB DE LEONES (MEDICA 3),,https://www.farmaciasannicolas.com/sucursales
"Segunda calle Poniente número 2, frente al Banco Agrícola, Cojutepeque, Departamento de Cuscatlan",CUSCATLAN,El Salvador,Farmacias San Nicolás,"{'brand': 'Farmacias San Nicolás', 'fascia': 'Farmacias San Nicolás', 'category': 'Pharmacy', 'edit_date': '20250422', 'lat_lon_source': 'google'}",13.721833000000000,-88.935125000000000,"{'opening_hours': {'Sun': '08:00-14:00', 'Mon': '07:00-19:00', 'Tue': '07:00-19:00', 'Wed': '07:00-19:00', 'Thu': '07:00-19:00', 'Fri': '07:00-19:00', 'Sat': '07:00-19:00'}}",,SC3955,,Farmacias San Nicolás COJUTEPEQUE,,https://www.farmaciasannicolas.com/sucursales
"2a AV. SUR , Local TRES-B,  COJUTEPEQUE, CUSCATLAN",CUSCATLAN,El Salvador,Farmacias San Nicolás,"{'brand': 'Farmacias San Nicolás', 'fascia': 'Farmacias San Nicolás', 'category': 'Pharmacy', 'edit_date': '20250422', 'lat_lon_source': 'google'}",13.721630000000000,-88.934422000000000,"{'opening_hours': {'Sun': '08:00-17:00', 'Mon': '07:00-19:00', 'Tue': '07:00-19:00', 'Wed': '07:00-19:00', 'Thu': '07:00-19:00', 'Fri': '07:00-19:00', 'Sat': '07:00-19:00'}}",,SC3597,,Farmacias San Nicolás COJUTEPEQUE II,,https://www.farmaciasannicolas.com/sucursales
Blvd. Constitución y Calle El . Algodón,SAN SALVADOR,El Salvador,Farmacias San Nicolás,"{'brand': 'Farmacias San Nicolás', 'fascia': 'Farmacias San Nicolás', 'category': 'Pharmacy', 'edit_date': '20250422', 'lat_lon_source': 'google'}",13.719351000000000,-89.222369000000000,"{'opening_hours': {'Sun': '08:00-22:00', 'Mon': '07:00-23:00', 'Tue': '07:00-23:00', 'Wed': '07:00-23:00', 'Thu': '07:00-23:00', 'Fri': '07:00-23:00', 'Sat': '07:00-23:00'}}",,SC1017,,Farmacias San Nicolás CONSTITUCIÓN,,https://www.farmaciasannicolas.com/sucursales
"Blvd Constitucion, Cton San Antonio Abad, #475, S.S.",SAN SALVADOR,El Salvador,Farmacias San Nicolás,"{'brand': 'Farmacias San Nicolás', 'fascia': 'Farmacias San Nicolás', 'category': 'Pharmacy', 'edit_date': '20250422', 'lat_lon_source': 'google'}",13.713780000000000,-89.223989000000000,"{'opening_hours': {'Sun': '09:00-22:00', 'Mon': '08:00-23:00', 'Tue': '08:00-23:00', 'Wed': '08:00-23:00', 'Thu': '08:00-23:00', 'Fri': '08:00-23:00', 'Sat': '08:00-23:00'}}",,SC1118,,Farmacias San Nicolás CONSTITUCION EXPRESS,,https://www.farmaciasannicolas.com/sucursales
"Carretera Panamericana KM 24.5  Centro Comercial El Encuentro Local L-12, Lourdes Colón, La Libertad",LA LIBERTAD,El Salvador,Farmacias San Nicolás,"{'brand': 'Farmacias San Nicolás', 'fascia': 'Farmacias San Nicolás', 'category': 'Pharmacy', 'edit_date': '20250422', 'lat_lon_source': 'google'}",13.736218000000000,-89.359183000000000,"{'opening_hours': {'Sun': '07:45-21:00', 'Mon': '07:45-21:00', 'Tue': '07:45-21:00', 'Wed': '07:45-21:00', 'Thu': '07:45-21:00', 'Fri': '07:45-21:00', 'Sat': '07:45-21:00'}}",,SC1108,,Farmacias San Nicolás EL ENCUENTRO,,https://www.farmaciasannicolas.com/sucursales
"CC. EL ENCUENTRO AGUILARES, LOCAL 42, AGUILARES, SAN SALVADOR",SAN SALVADOR,El Salvador,Farmacias San Nicolás,"{'brand': 'Farmacias San Nicolás', 'fascia': 'Farmacias San Nicolás', 'category': 'Pharmacy', 'edit_date': '20250422', 'lat_lon_source': 'google'}",13.959723000000000,-89.183285000000000,"{'opening_hours': {'Sun': '09:00-21:00', 'Mon': '09:00-21:00', 'Tue': '09:00-21:00', 'Wed': '09:00-21:00', 'Thu': '09:00-21:00', 'Fri': '09:00-21:00', 'Sat': '09:00-21:00'}}",,SC1890,,Farmacias San Nicolás EL ENCUENTRO AGUILARES,,https://www.farmaciasannicolas.com/sucursales
77 Ave. Sur #3939  Paseo Gral.. Escalon,SAN SALVADOR,El Salvador,Farmacias San Nicolás,"{'brand': 'Farmacias San Nicolás', 'fascia': 'Farmacias San Nicolás', 'category': 'Pharmacy', 'edit_date': '20250422', 'lat_lon_source': 'google'}",13.701936000000000,-89.233577000000000,"{'opening_hours': {'Sun': '09:00-18:00', 'Mon': '07:45-22:00', 'Tue': '07:45-22:00', 'Wed': '07:45-22:00', 'Thu': '07:45-22:00', 'Fri': '07:45-22:00', 'Sat': '07:45-21:00'}}",,SC1655,,Farmacias San Nicolás FUENTES DE BEETHOVEN,,https://www.farmaciasannicolas.com/sucursales
Blvd. Los Heroes. Centro Comer. Los Heroes Local #8,SAN SALVADOR,El Salvador,Farmacias San Nicolás,"{'brand': 'Farmacias San Nicolás', 'fascia': 'Farmacias San Nicolás', 'category': 'Pharmacy', 'edit_date': '20250422', 'lat_lon_source': 'google'}",13.706003000000000,-89.215245000000000,"{'opening_hours': {'Sun': '09:00-19:00', 'Mon': '07:45-20:00', 'Tue': '07:45-20:00', 'Wed': '07:45-20:00', 'Thu': '07:45-20:00', 'Fri': '07:45-20:00', 'Sat': '08:00-20:00'}}",,SC2061,,Farmacias San Nicolás HEROES,,https://www.farmaciasannicolas.com/sucursales
"Paseo Gnal Escalon 99 Av Norte. 1-8,9 Plza Villavicensio",SAN SALVADOR,El Salvador,Farmacias San Nicolás,"{'brand': 'Farmacias San Nicolás', 'fascia': 'Farmacias San Nicolás', 'category': 'Pharmacy', 'edit_date': '20250422', 'lat_lon_source': 'google'}",13.703619000000000,-89.247338000000000,"{'opening_hours': {'Sun': '09:00-21:00', 'Mon': '07:00-22:00', 'Tue': '07:00-22:00', 'Wed': '07:00-22:00', 'Thu': '07:00-22:00', 'Fri': '07:00-22:00', 'Sat': '07:00-22:00'}}",,SC3504,,"Farmacias San Nicolás HOSPITAL DE DIAGNOSTICO
 ( ESCALON )",,https://www.farmaciasannicolas.com/sucursales
"81 Av. Sur y calle Juan Jose. Cañas #123-A, S.S.",SAN SALVADOR,El Salvador,Farmacias San Nicolás,"{'brand': 'Farmacias San Nicolás', 'fascia': 'Farmacias San Nicolás', 'category': 'Pharmacy', 'edit_date': '20250422', 'lat_lon_source': 'google'}",13.701765000000000,-89.237306000000000,"{'opening_hours': {'Sun': '09:00-14:00', 'Mon': '07:45-21:00', 'Tue': '07:45-21:00', 'Wed': '07:45-21:00', 'Thu': '07:45-21:00', 'Fri': '07:45-21:00', 'Sat': '07:45-21:00'}}",,SC2420,,Farmacias San Nicolás HOSPITAL DE LA MUJER,,https://www.farmaciasannicolas.com/sucursales
"Cl San Jose y Av Bernal, Col Santa Teresa, #68",SAN SALVADOR,El Salvador,Farmacias San Nicolás,"{'brand': 'Farmacias San Nicolás', 'fascia': 'Farmacias San Nicolás', 'category': 'Pharmacy', 'edit_date': '20250422', 'lat_lon_source': 'google'}",13.718931000000000,-89.216737000000000,"{'opening_hours': {'Sun': '09:00-19:00', 'Mon': '07:45-21:00', 'Tue': '07:45-21:00', 'Wed': '07:45-21:00', 'Thu': '07:45-21:00', 'Fri': '07:45-21:00', 'Sat': '07:45-21:00'}}",,SC4594,,Farmacias San Nicolás HOSPITAL MILITAR,,https://www.farmaciasannicolas.com/sucursales
1 AV. SUR # 115 Frente a parqu. Hula Hula,SAN SALVADOR,El Salvador,Farmacias San Nicolás,"{'brand': 'Farmacias San Nicolás', 'fascia': 'Farmacias San Nicolás', 'category': 'Pharmacy', 'edit_date': '20250422', 'lat_lon_source': 'google'}",13.698671000000000,-89.192599000000000,"{'opening_hours': {'Sun': '08:00-15:00', 'Mon': '07:00-20:00', 'Tue': '07:00-20:00', 'Wed': '07:00-20:00', 'Thu': '07:00-20:00', 'Fri': '07:00-20:00', 'Sat': '07:00-20:00'}}",,SC2917,,Farmacias San Nicolás HULA HULA,,https://www.farmaciasannicolas.com/sucursales
63 av nte almd. Roosvelt . CC  La Campana local 2,SAN SALVADOR,El Salvador,Farmacias San Nicolás,"{'brand': 'Farmacias San Nicolás', 'fascia': 'Farmacias San Nicolás', 'category': 'Pharmacy', 'edit_date': '20250422', 'lat_lon_source': 'google'}",13.700765000000000,-89.221920000000000,"{'opening_hours': {'Sun': '09:00-18:00', 'Mon': '07:30-19:00', 'Tue': '07:30-19:00', 'Wed': '07:30-19:00', 'Thu': '07:30-19:00', 'Fri': '07:30-19:00', 'Sat': '07:30-19:00'}}",,SC4725,,Farmacias San Nicolás LA CAMPANA,,https://www.farmaciasannicolas.com/sucursales
"C. COMERCIAL LA JOYA MARQUET. PLACE, LOCAL # 49, KM L.L.",LA LIBERTAD,El Salvador,Farmacias San Nicolás,"{'brand': 'Farmacias San Nicolás', 'fascia': 'Farmacias San Nicolás', 'category': 'Pharmacy', 'edit_date': '20250422', 'lat_lon_source': 'google'}",13.656333000000000,-89.278911000000000,"{'opening_hours': {'Sun': '09:00-20:00', 'Mon': '07:45-22:00', 'Tue': '07:45-22:00', 'Wed': '07:45-22:00', 'Thu': '07:45-22:00', 'Fri': '07:45-22:00', 'Sat': '07:45-22:00'}}",,SC2353,,Farmacias San Nicolás LA JOYA,,https://www.farmaciasannicolas.com/sucursales
"AV. JERUSALEM, LOCAL 110. CENTRO COMERCIAL LAS CASCADAS",LA LIBERTAD,El Salvador,Farmacias San Nicolás,"{'brand': 'Farmacias San Nicolás', 'fascia': 'Farmacias San Nicolás', 'category': 'Pharmacy', 'edit_date': '20250422', 'lat_lon_source': 'google'}",13.678438000000000,-89.251564000000000,"{'opening_hours': {'Sun': '09:00-21:00', 'Mon': '08:30-21:00', 'Tue': '08:30-21:00', 'Wed': '08:30-21:00', 'Thu': '08:30-21:00', 'Fri': '08:30-22:00', 'Sat': '08:30-22:00'}}",,SC460,,Farmacias San Nicolás LAS CASCADAS,,https://www.farmaciasannicolas.com/sucursales
CC Las Palmas km 12 1/2. local # 14 Ctera Puerto de Lib,LA LIBERTAD,El Salvador,Farmacias San Nicolás,"{'brand': 'Farmacias San Nicolás', 'fascia': 'Farmacias San Nicolás', 'category': 'Pharmacy', 'edit_date': '20250422', 'lat_lon_source': 'google'}",13.654192000000000,-89.280734000000000,"{'opening_hours': {'Sun': '09:00-20:00', 'Mon': '07:45-21:30', 'Tue': '07:45-21:30', 'Wed': '07:45-21:30', 'Thu': '07:45-21:30', 'Fri': '07:45-21:30', 'Sat': '07:45-21:30'}}",,SC2327,,Farmacias San Nicolás LAS PALMAS,,https://www.farmaciasannicolas.com/sucursales
Res Loma Linda Calle . Antigua a Huizucar,SAN SALVADOR,El Salvador,Farmacias San Nicolás,"{'brand': 'Farmacias San Nicolás', 'fascia': 'Farmacias San Nicolás', 'category': 'Pharmacy', 'edit_date': '20250422', 'lat_lon_source': 'google'}",13.677999000000000,-89.225890000000000,"{'opening_hours': {'Sun': '09:00-21:00', 'Mon': '07:00-23:00', 'Tue': '07:00-23:00', 'Wed': '07:00-23:00', 'Thu': '07:00-23:00', 'Fri': '07:00-23:00', 'Sat': '09:00-23:00'}}",,SC4314,,Farmacias San Nicolás LOMA LINDA,,https://www.farmaciasannicolas.com/sucursales
"Res. Loma Linda, Calle Circunv. #52 B-1 Zona 14 S.S",SAN SALVADOR,El Salvador,Farmacias San Nicolás,"{'brand': 'Farmacias San Nicolás', 'fascia': 'Farmacias San Nicolás', 'category': 'Pharmacy', 'edit_date': '20250422', 'lat_lon_source': 'google'}",13.672972000000000,-89.228981000000000,"{'opening_hours': {'Sun': '09:00-21:00', 'Mon': '07:45-22:00', 'Tue': '07:45-22:00', 'Wed': '07:45-22:00', 'Thu': '07:45-22:00', 'Fri': '07:45-22:00', 'Sat': '07:45-22:00'}}",,SC2006,,Farmacias San Nicolás LOMAS DE SAN FRANCISCO,,https://www.farmaciasannicolas.com/sucursales
2 Calle Oriente y 4Ave Norte. Centro Comercial Cantón Lourde,LA LIBERTAD,El Salvador,Farmacias San Nicolás,"{'brand': 'Farmacias San Nicolás', 'fascia': 'Farmacias San Nicolás', 'category': 'Pharmacy', 'edit_date': '20250422', 'lat_lon_source': 'google'}",13.723439000000000,-89.368494000000000,"{'opening_hours': {'Sun': '07:45-16:00', 'Mon': '07:45-19:20', 'Tue': '07:45-19:20', 'Wed': '07:45-19:20', 'Thu': '07:45-19:20', 'Fri': '07:45-19:20', 'Sat': '07:45-19:20'}}",,SC218,,Farmacias San Nicolás LOURDES,,https://www.farmaciasannicolas.com/sucursales
"Av Masferrer Nte, C. El Mirado. Av Fral Alemania #162-b ed pu",SAN SALVADOR,El Salvador,Farmacias San Nicolás,"{'brand': 'Farmacias San Nicolás', 'fascia': 'Farmacias San Nicolás', 'category': 'Pharmacy', 'edit_date': '20250422', 'lat_lon_source': 'google'}",13.711843000000000,-89.248218000000000,"{'opening_hours': {'Sun': '09:00-21:00', 'Mon': '07:00-23:00', 'Tue': '07:00-23:00', 'Wed': '07:00-23:00', 'Thu': '07:00-23:00', 'Fri': '07:00-23:00', 'Sat': '07:00-23:00'}}",,SC341,,Farmacias San Nicolás LUCEIRO,,https://www.farmaciasannicolas.com/sucursales
"MALL MARSELLA, San Juan Opico, La Libertad, local #15 Y #16 correspondiente a la etapa PONIENTE.",LA LIBERTAD,El Salvador,Farmacias San Nicolás,"{'brand': 'Farmacias San Nicolás', 'fascia': 'Farmacias San Nicolás', 'category': 'Pharmacy', 'edit_date': '20250422', 'lat_lon_source': 'google'}",13.794525000000000,-89.345923000000000,"{'opening_hours': {'Sun': '09:00-20:00', 'Mon': '08:30-20:30', 'Tue': '08:30-20:30', 'Wed': '08:30-20:30', 'Thu': '08:30-20:30', 'Fri': '08:30-20:30', 'Sat': '08:00-21:30'}}",,SC4752,,Farmacias San Nicolás MARSELLA,,https://www.farmaciasannicolas.com/sucursales
2da. Diagonal y 23 calle pte. . edf. Zavaleta Lcal#7 col medic,SAN SALVADOR,El Salvador,Farmacias San Nicolás,"{'brand': 'Farmacias San Nicolás', 'fascia': 'Farmacias San Nicolás', 'category': 'Pharmacy', 'edit_date': '20250422', 'lat_lon_source': 'google'}",13.710748000000000,-89.202491000000000,"{'opening_hours': {'Sun': '08:00-17:00', 'Mon': '07:45-20:00', 'Tue': '07:45-20:00', 'Wed': '07:45-20:00', 'Thu': '07:45-20:00', 'Fri': '07:45-20:00', 'Sat': '07:45-18:00'}}",,SC4944,,Farmacias San Nicolás MEDICA 1,,https://www.farmaciasannicolas.com/sucursales
"COLONIA MÉDICA,CONDOMINIO EDIFICIO DIAGONAL, DE LA JURISDICCIÓN Y DEPARTAMENTO DE SAN SALVADOR",SAN SALVADOR,El Salvador,Farmacias San Nicolás,"{'brand': 'Farmacias San Nicolás', 'fascia': 'Farmacias San Nicolás', 'category': 'Pharmacy', 'edit_date': '20250422', 'lat_lon_source': 'google'}",13.710311620000000,-89.202242990000000,"{'opening_hours': {'Sun': '08:00-17:00', 'Mon': '07:45-20:00', 'Tue': '07:45-20:00', 'Wed': '07:45-20:00', 'Thu': '07:45-20:00', 'Fri': '07:45-20:00', 'Sat': '07:45-15:00'}}",,SC2948,,Farmacias San Nicolás MÉDICA 4,,https://www.farmaciasannicolas.com/sucursales
Diagonal Dr. Luis Edmundo Vásq. Ef. Cnica de Dtico #301 Lcl1y2,SAN SALVADOR,El Salvador,Farmacias San Nicolás,"{'brand': 'Farmacias San Nicolás', 'fascia': 'Farmacias San Nicolás', 'category': 'Pharmacy', 'edit_date': '20250422', 'lat_lon_source': 'google'}",13.708938000000000,-89.201884000000000,"{'opening_hours': {'Sun': '09:00-17:00', 'Mon': '07:45-22:00', 'Tue': '07:45-22:00', 'Wed': '07:45-22:00', 'Thu': '07:45-22:00', 'Fri': '07:45-22:00', 'Sat': '08:00-22:00'}}",,SC1072,,Farmacias San Nicolás MEDICA II,,https://www.farmaciasannicolas.com/sucursales
Medicentro La Esperanza Edif. J # 115 Colonia Layco,SAN SALVADOR,El Salvador,Farmacias San Nicolás,"{'brand': 'Farmacias San Nicolás', 'fascia': 'Farmacias San Nicolás', 'category': 'Pharmacy', 'edit_date': '20250422', 'lat_lon_source': 'google'}",13.712416000000000,-89.204515000000000,"{'opening_hours': {'Mon': '07:45-19:00', 'Tue': '07:45-19:00', 'Wed': '07:45-19:00', 'Thu': '08:00-19:00', 'Fri': '07:45-19:00', 'Sat': '07:45-14:00'}}",,SC1892,,Farmacias San Nicolás MEDICENTRO,,https://www.farmaciasannicolas.com/sucursales
"CC Mall Mediterraneo, Local LC3 Y LC2, Residencial ECO-TERRA HACIENDA, Chipilapa, Ahuachapan",AHUACHAPÁN,El Salvador,Farmacias San Nicolás,"{'brand': 'Farmacias San Nicolás', 'fascia': 'Farmacias San Nicolás', 'category': 'Pharmacy', 'edit_date': '20250422', 'lat_lon_source': 'google'}",13.955312060000000,-89.793595020000000,"{'opening_hours': {'Sun': '09:00-20:00', 'Mon': '09:00-20:00', 'Tue': '09:00-20:00', 'Wed': '09:00-20:00', 'Thu': '09:00-20:00', 'Fri': '09:00-20:00', 'Sat': '09:00-20:00'}}",,SC1057,,Farmacias San Nicolás MEDITERRANEO,,https://www.farmaciasannicolas.com/sucursales
2da Calle Poniente.,SAN SALVADOR,El Salvador,Farmacias San Nicolás,"{'brand': 'Farmacias San Nicolás', 'fascia': 'Farmacias San Nicolás', 'category': 'Pharmacy', 'edit_date': '20250422', 'lat_lon_source': 'google'}",13.722493000000000,-89.188860000000000,"{'opening_hours': {'Sun': '08:00-18:00', 'Mon': '07:00-19:00', 'Tue': '07:00-19:00', 'Wed': '07:00-19:00', 'Thu': '07:00-19:00', 'Fri': '07:00-19:00', 'Sat': '07:00-19:00'}}",,SC3692,,Farmacias San Nicolás MEJICANOS,,https://www.farmaciasannicolas.com/sucursales
Bvd. Merliot y C La Cañada Zon. Comal 3 Jardines de hacienda,LA LIBERTAD,El Salvador,Farmacias San Nicolás,"{'brand': 'Farmacias San Nicolás', 'fascia': 'Farmacias San Nicolás', 'category': 'Pharmacy', 'edit_date': '20250422', 'lat_lon_source': 'google'}",13.680540000000000,-89.263000000000000,"{'opening_hours': {'Sun': '09:00-21:00', 'Mon': '07:45-22:00', 'Tue': '07:45-22:00', 'Wed': '07:45-22:00', 'Thu': '07:45-22:00', 'Fri': '07:45-22:00', 'Sat': '07:45-22:00'}}",,SC2587,,Farmacias San Nicolás MERLIOT,,https://www.farmaciasannicolas.com/sucursales
"C. 15 DE SEPTIEMBRE, FRENTE A MERCADO MUNICIPAL, BARRIO SAN PEDRO, METAPÁN, DPTO. DE SANTA ANA",SANTA ANA,El Salvador,Farmacias San Nicolás,"{'brand': 'Farmacias San Nicolás', 'fascia': 'Farmacias San Nicolás', 'category': 'Pharmacy', 'edit_date': '20250422', 'lat_lon_source': 'google'}",14.330986000000000,-89.444890000000000,"{'opening_hours': {'Sun': '07:30-13:00', 'Mon': '07:00-18:00', 'Tue': '07:00-18:00', 'Wed': '07:00-18:00', 'Thu': '07:00-18:00', 'Fri': '07:00-18:00', 'Sat': '07:00-18:00'}}",,SC4604,,Farmacias San Nicolás METAPAN 2,,https://www.farmaciasannicolas.com/sucursales
"Calle 15 de Septiembre, Avenida Menéndez, Metapán",SANTA ANA,El Salvador,Farmacias San Nicolás,"{'brand': 'Farmacias San Nicolás', 'fascia': 'Farmacias San Nicolás', 'category': 'Pharmacy', 'edit_date': '20250422', 'lat_lon_source': 'google'}",14.331137000000000,-89.446640000000000,"{'opening_hours': {'Sun': '07:45-13:00', 'Mon': '07:45-18:00', 'Tue': '07:45-18:00', 'Wed': '07:45-18:00', 'Thu': '07:45-18:00', 'Fri': '07:45-18:00', 'Sat': '07:45-18:00'}}",,SC1498,,Farmacias San Nicolás METAPAN,,https://www.farmaciasannicolas.com/sucursales
CC Santa Ana Local 131-B.,SANTA ANA,El Salvador,Farmacias San Nicolás,"{'brand': 'Farmacias San Nicolás', 'fascia': 'Farmacias San Nicolás', 'category': 'Pharmacy', 'edit_date': '20250422', 'lat_lon_source': 'google'}",13.977767000000000,-89.561940000000000,"{'opening_hours': {'Sun': '08:00-20:00', 'Mon': '08:00-20:00', 'Tue': '08:00-20:00', 'Wed': '08:00-20:00', 'Thu': '08:00-20:00', 'Fri': '08:00-20:00', 'Sat': '08:00-20:00'}}",,SC4926,,Farmacias San Nicolás METRO - SANTA ANA,,https://www.farmaciasannicolas.com/sucursales
Metrocentro local 35-A . contiguo a TIGO y de Bco Agric,SONSONATE,El Salvador,Farmacias San Nicolás,"{'brand': 'Farmacias San Nicolás', 'fascia': 'Farmacias San Nicolás', 'category': 'Pharmacy', 'edit_date': '20250422', 'lat_lon_source': 'google'}",13.712827000000000,-89.725000000000000,"{'opening_hours': {'Sun': '08:00-19:00', 'Mon': '08:00-20:00', 'Tue': '08:00-20:00', 'Wed': '08:00-20:00', 'Thu': '08:00-20:00', 'Fri': '08:00-20:00', 'Sat': '08:00-20:00'}}",,SC3137,,Farmacias San Nicolás METRO - SONSONATE,,https://www.farmaciasannicolas.com/sucursales
CC Metrocentro 10a etapa. 2° Nivel local # 182- f,SAN SALVADOR,El Salvador,Farmacias San Nicolás,"{'brand': 'Farmacias San Nicolás', 'fascia': 'Farmacias San Nicolás', 'category': 'Pharmacy', 'edit_date': '20250422', 'lat_lon_source': 'google'}",13.707114000000000,-89.212061000000000,"{'opening_hours': {'Sun': '09:00-19:00', 'Mon': '08:00-20:00', 'Tue': '08:00-20:00', 'Wed': '08:00-20:00', 'Thu': '08:00-20:00', 'Fri': '08:00-20:00', 'Sat': '08:00-20:00'}}",,SC1892,,Farmacias San Nicolás METROCENTRO,,https://www.farmaciasannicolas.com/sucursales
Metrocentro 8a Etapa. Segundo Nivel Local 282,SAN SALVADOR,El Salvador,Farmacias San Nicolás,"{'brand': 'Farmacias San Nicolás', 'fascia': 'Farmacias San Nicolás', 'category': 'Pharmacy', 'edit_date': '20250422', 'lat_lon_source': 'google'}",13.705249000000000,-89.209740000000000,"{'opening_hours': {'Sun': '09:00-19:00', 'Mon': '08:00-20:00', 'Tue': '08:00-20:00', 'Wed': '08:00-20:00', 'Thu': '08:00-20:00', 'Fri': '08:00-20:00', 'Sat': '08:00-20:00'}}",,SC3256,,Farmacias San Nicolás METROCENTRO 8,,https://www.farmaciasannicolas.com/sucursales
"C.C Metrocentro San Miguel, Carretera Panamericana y 30 Av Sur,Local E-DIECISEIS,  San Miguel.",SAN MIGUEL,El Salvador,Farmacias San Nicolás,"{'brand': 'Farmacias San Nicolás', 'fascia': 'Farmacias San Nicolás', 'category': 'Pharmacy', 'edit_date': '20250422', 'lat_lon_source': 'google'}",13.461704000000000,-88.165501000000000,"{'opening_hours': {'Sun': '09:00-20:00', 'Mon': '08:00-20:00', 'Tue': '08:00-20:00', 'Wed': '08:00-20:00', 'Thu': '08:00-20:00', 'Fri': '08:00-20:00', 'Sat': '08:00-20:00'}}",,SC2619,,Farmacias San Nicolás METROCENTRO SAN MIGUEL,,https://www.farmaciasannicolas.com/sucursales
"CC Metro sur local 17 2ª Plant. del cuerpo C, cerca  de Anda",SAN SALVADOR,El Salvador,Farmacias San Nicolás,"{'brand': 'Farmacias San Nicolás', 'fascia': 'Farmacias San Nicolás', 'category': 'Pharmacy', 'edit_date': '20250422', 'lat_lon_source': 'google'}",13.704352000000000,-89.214861000000000,"{'opening_hours': {'Sun': '09:00-18:00', 'Mon': '08:00-20:00', 'Tue': '08:00-20:00', 'Wed': '08:00-20:00', 'Thu': '08:00-20:00', 'Fri': '08:00-20:00', 'Sat': '08:00-20:00'}}",,SC141,,Farmacias San Nicolás METROSUR,,https://www.farmaciasannicolas.com/sucursales
"Kl. 142, carretera Panamerican. Salida a la Unión.",SAN MIGUEL,El Salvador,Farmacias San Nicolás,"{'brand': 'Farmacias San Nicolás', 'fascia': 'Farmacias San Nicolás', 'category': 'Pharmacy', 'edit_date': '20250422', 'lat_lon_source': 'google'}",13.460464000000000,-88.160103000000000,"{'opening_hours': {'Sun': '09:00-21:00', 'Mon': '07:45-23:00', 'Tue': '07:45-23:00', 'Wed': '07:45-23:00', 'Thu': '07:45-23:00', 'Fri': '07:45-23:00', 'Sat': '07:45-23:00'}}",,SC3129,,Farmacias San Nicolás PALO BLANCO,,https://www.farmaciasannicolas.com/sucursales
"San Miguel, Municipio de San Miguel,, local 6 y 7, Centro Comercial Mall Panamericana",SAN MIGUEL,El Salvador,Farmacias San Nicolás,"{'brand': 'Farmacias San Nicolás', 'fascia': 'Farmacias San Nicolás', 'category': 'Pharmacy', 'edit_date': '20250422', 'lat_lon_source': 'google'}",13.443743000000000,-88.126937000000000,"{'opening_hours': {'Sun': '09:00-20:00', 'Mon': '09:00-21:00', 'Tue': '09:00-21:00', 'Wed': '09:00-21:00', 'Thu': '09:00-21:00', 'Fri': '09:00-21:00', 'Sat': '09:00-21:00'}}",,SC1386,,Farmacias San Nicolás PANAMERICANA,,https://www.farmaciasannicolas.com/sucursales
"EDIFICIO BELEN, PASEO GENERAL ESCALON # 4715, SAN SALVADOR",SAN SALVADOR,El Salvador,Farmacias San Nicolás,"{'brand': 'Farmacias San Nicolás', 'fascia': 'Farmacias San Nicolás', 'category': 'Pharmacy', 'edit_date': '20250422', 'lat_lon_source': 'google'}",13.703043540000000,-89.244517480000000,"{'opening_hours': {'Sun': '09:00-21:00', 'Mon': '07:45-22:00', 'Tue': '07:45-22:00', 'Wed': '07:45-22:00', 'Thu': '07:45-22:00', 'Fri': '07:45-22:00', 'Sat': '07:45-22:00'}}",,SC3862,,Farmacias San Nicolás PASEO,,https://www.farmaciasannicolas.com/sucursales
C La Mascota y Av. Los Almend. CC Plaza La Mascota ColSan Ben,SAN SALVADOR,El Salvador,Farmacias San Nicolás,"{'brand': 'Farmacias San Nicolás', 'fascia': 'Farmacias San Nicolás', 'category': 'Pharmacy', 'edit_date': '20250422', 'lat_lon_source': 'google'}",13.697762000000000,-89.241611000000000,"{'opening_hours': {'Sun': '09:00-21:00', 'Mon': '07:00-23:00', 'Tue': '07:00-23:00', 'Wed': '07:00-23:00', 'Thu': '07:00-23:00', 'Fri': '07:00-23:00', 'Sat': '07:00-23:00'}}",,SC3933,,Farmacias San Nicolás PLAZA LA MASCOTA,,https://www.farmaciasannicolas.com/sucursales
"C.C Plaza Madero Local L-17  Blvr. Santa Elena, entre calle Alegria Pte , Urb. Santa Elena.",LA LIBERTAD,El Salvador,Farmacias San Nicolás,"{'brand': 'Farmacias San Nicolás', 'fascia': 'Farmacias San Nicolás', 'category': 'Pharmacy', 'edit_date': '20250422', 'lat_lon_source': 'google'}",13.670342000000000,-89.255422000000000,"{'opening_hours': {'Sun': '09:00-21:00', 'Mon': '07:45-22:00', 'Tue': '07:45-22:00', 'Wed': '07:45-22:00', 'Thu': '07:45-22:00', 'Fri': '07:45-22:00', 'Sat': '07:45-22:00'}}",,SC4047,,Farmacias San Nicolás PLAZA MADERO,,https://www.farmaciasannicolas.com/sucursales
1a. Calle Oriente #217. San Salvador,SAN SALVADOR,El Salvador,Farmacias San Nicolás,"{'brand': 'Farmacias San Nicolás', 'fascia': 'Farmacias San Nicolás', 'category': 'Pharmacy', 'edit_date': '20250422', 'lat_lon_source': 'google'}",13.699719000000000,-89.189948000000000,"{'opening_hours': {'Sun': '08:00-18:00', 'Mon': '07:45-20:00', 'Tue': '07:45-20:00', 'Wed': '07:45-20:00', 'Thu': '07:45-20:00', 'Fri': '07:45-20:00', 'Sat': '07:45-20:00'}}",,SC1644,,Farmacias San Nicolás PLAZA MORAZAN,,https://www.farmaciasannicolas.com/sucursales
"CARR. TRONCAL DEL NORTE KM. 12 Local. 01 - 013 , CTRO. COM. P",SAN SALVADOR,El Salvador,Farmacias San Nicolás,"{'brand': 'Farmacias San Nicolás', 'fascia': 'Farmacias San Nicolás', 'category': 'Pharmacy', 'edit_date': '20250422', 'lat_lon_source': 'google'}",13.790540000000000,-89.175704000000000,"{'opening_hours': {'Sun': '09:00-20:00', 'Mon': '08:00-20:00', 'Tue': '08:00-20:00', 'Wed': '08:00-20:00', 'Thu': '08:00-20:00', 'Fri': '08:00-20:00', 'Sat': '08:00-20:00'}}",,SC1510,,Farmacias San Nicolás PLAZA MUNDO APOPA,,https://www.farmaciasannicolas.com/sucursales
Centro Comercial Plaza Mundo 2. nivel Local #24 Soyapango,SAN SALVADOR,El Salvador,Farmacias San Nicolás,"{'brand': 'Farmacias San Nicolás', 'fascia': 'Farmacias San Nicolás', 'category': 'Pharmacy', 'edit_date': '20250422', 'lat_lon_source': 'google'}",13.698113000000000,-89.150724000000000,"{'opening_hours': {'Sun': '09:00-20:00', 'Mon': '08:30-20:00', 'Tue': '08:30-20:00', 'Wed': '08:30-20:00', 'Thu': '08:30-20:00', 'Fri': '08:30-20:00', 'Sat': '08:30-20:00'}}",,SC2381,,Farmacias San Nicolás PLAZA MUNDO I,,https://www.farmaciasannicolas.com/sucursales
Centro Comercial Plaza mundo. nivel 2 Soyapango,SAN SALVADOR,El Salvador,Farmacias San Nicolás,"{'brand': 'Farmacias San Nicolás', 'fascia': 'Farmacias San Nicolás', 'category': 'Pharmacy', 'edit_date': '20250422', 'lat_lon_source': 'google'}",13.698575000000000,-89.152321000000000,"{'opening_hours': {'Sun': '09:00-20:00', 'Mon': '08:30-20:00', 'Tue': '08:30-20:00', 'Wed': '08:30-20:00', 'Thu': '08:30-20:00', 'Fri': '08:30-20:00', 'Sat': '08:30-20:00'}}",,SC2070,,Farmacias San Nicolás PLAZA MUNDO II,,https://www.farmaciasannicolas.com/sucursales
"C.C Plaza Mundo Usulutan km 119 Carr. Litoral CA-2 y Ruta Nacional catorce, Usulután, Local 6 y 7",USULUTAN,El Salvador,Farmacias San Nicolás,"{'brand': 'Farmacias San Nicolás', 'fascia': 'Farmacias San Nicolás', 'category': 'Pharmacy', 'edit_date': '20250422', 'lat_lon_source': 'google'}",13.343733560000000,-88.465644330000000,"{'opening_hours': {'Sun': '10:00-21:00', 'Mon': '09:00-20:00', 'Tue': '09:00-20:00', 'Wed': '09:00-20:00', 'Thu': '09:00-20:00', 'Fri': '09:00-20:00', 'Sat': '09:00-20:00'}}",,SC448,,Farmacias San Nicolás PLAZA MUNDO USULUTAN,,https://www.farmaciasannicolas.com/sucursales
"COL LAS MERCEDES #13, BLVD DE LOS PROCERES, ENTRE MI BANCO Y LOS CEBOLLINES",SAN SALVADOR,El Salvador,Farmacias San Nicolás,"{'brand': 'Farmacias San Nicolás', 'fascia': 'Farmacias San Nicolás', 'category': 'Pharmacy', 'edit_date': '20250422', 'lat_lon_source': 'google'}",13.683354000000000,-89.229217000000000,"{'opening_hours': {'Sun': '09:00-21:00', 'Mon': '07:00-23:00', 'Tue': '07:00-23:00', 'Wed': '07:00-23:00', 'Thu': '07:00-23:00', 'Fri': '07:00-23:00', 'Sat': '07:00-23:00'}}",,SC3996,,Farmacias San Nicolás PROCERES EXPRESS,,https://www.farmaciasannicolas.com/sucursales
Calle el Progreso.  Centro Comercial El Rosal,SAN SALVADOR,El Salvador,Farmacias San Nicolás,"{'brand': 'Farmacias San Nicolás', 'fascia': 'Farmacias San Nicolás', 'category': 'Pharmacy', 'edit_date': '20250422', 'lat_lon_source': 'google'}",13.696849000000000,-89.221082000000000,"{'opening_hours': {'Sun': '08:00-19:00', 'Mon': '07:30-21:00', 'Tue': '07:30-21:00', 'Wed': '07:30-21:00', 'Thu': '07:30-21:00', 'Fri': '07:30-21:00', 'Sat': '07:30-21:00'}}",,SC1862,,Farmacias San Nicolás PROGRESO,,https://www.farmaciasannicolas.com/sucursales
"CC. LAS RAMBLAS, LOCAL 3, CARRETERA HACIA CHALCHUAPA, FRENTE A REDONDEL SANTA MARIA, SANTA ANA",SANTA ANA,El Salvador,Farmacias San Nicolás,"{'brand': 'Farmacias San Nicolás', 'fascia': 'Farmacias San Nicolás', 'category': 'Pharmacy', 'edit_date': '20250422', 'lat_lon_source': 'google'}",13.987351000000000,-89.595343000000000,"{'opening_hours': {'Sun': '07:45-21:00', 'Mon': '07:45-21:00', 'Tue': '07:45-21:00', 'Wed': '07:45-21:00', 'Thu': '07:45-21:00', 'Fri': '07:45-21:00', 'Sat': '07:45-21:00'}}",,SC1546,,Farmacias San Nicolás RAMBLAS SANTA ANA,,https://www.farmaciasannicolas.com/sucursales
"CENTRO COMERCIAL LAS RAMBLAS, LOCAL 146, CARRETERA PANAMERICANA, SANTA TECLA",LA LIBERTAD,El Salvador,Farmacias San Nicolás,"{'brand': 'Farmacias San Nicolás', 'fascia': 'Farmacias San Nicolás', 'category': 'Pharmacy', 'edit_date': '20250422', 'lat_lon_source': 'google'}",13.671713000000000,-89.268485000000000,"{'opening_hours': {'Sun': '09:00-21:00', 'Mon': '09:00-21:00', 'Tue': '09:00-21:00', 'Wed': '09:00-21:00', 'Thu': '09:00-21:00', 'Fri': '09:00-21:00', 'Sat': '09:00-21:00'}}",,SC4531,,Farmacias San Nicolás RAMBLAS SANTA TECLA,,https://www.farmaciasannicolas.com/sucursales
"Km 19 sobre la nueva autopista que conecta al Boulevard Constitución , San Salvador, Local L-K",SAN SALVADOR,El Salvador,Farmacias San Nicolás,"{'brand': 'Farmacias San Nicolás', 'fascia': 'Farmacias San Nicolás', 'category': 'Pharmacy', 'edit_date': '20250422', 'lat_lon_source': 'google'}",13.794156000000000,-89.224870000000000,"{'opening_hours': {'Sun': '09:00-21:00', 'Mon': '09:00-21:00', 'Tue': '09:00-21:00', 'Wed': '09:00-21:00', 'Thu': '09:00-21:00', 'Fri': '09:00-22:00', 'Sat': '09:00-22:00'}}",,SC117,,Farmacias San Nicolás SAN GABRIEL,,https://www.farmaciasannicolas.com/sucursales
CC San Luis Local 1-C.,SAN SALVADOR,El Salvador,Farmacias San Nicolás,"{'brand': 'Farmacias San Nicolás', 'fascia': 'Farmacias San Nicolás', 'category': 'Pharmacy', 'edit_date': '20250422', 'lat_lon_source': 'google'}",13.715743000000000,-89.213731000000000,"{'opening_hours': {'Sun': '09:00-21:00', 'Mon': '07:30-22:00', 'Tue': '07:30-22:00', 'Wed': '07:30-22:00', 'Thu': '07:30-22:00', 'Fri': '07:30-22:00', 'Sat': '07:30-22:00'}}",,SC587,,Farmacias San Nicolás SAN LUIS,,https://www.farmaciasannicolas.com/sucursales
Av. Morazan #15 BIS.,SAN SALVADOR,El Salvador,Farmacias San Nicolás,"{'brand': 'Farmacias San Nicolás', 'fascia': 'Farmacias San Nicolás', 'category': 'Pharmacy', 'edit_date': '20250422', 'lat_lon_source': 'google'}",13.738081000000000,-89.055460000000000,"{'opening_hours': {'Sun': '07:00-17:30', 'Mon': '07:00-19:00', 'Tue': '07:00-19:00', 'Wed': '07:00-19:00', 'Thu': '07:00-19:00', 'Fri': '07:00-19:00', 'Sat': '07:00-19:00'}}",,SC4008,,Farmacias San Nicolás SAN MARTIN,,https://www.farmaciasannicolas.com/sucursales
Av. Roosevelt Sur #212 . San Miguel,SAN MIGUEL,El Salvador,Farmacias San Nicolás,"{'brand': 'Farmacias San Nicolás', 'fascia': 'Farmacias San Nicolás', 'category': 'Pharmacy', 'edit_date': '20250422', 'lat_lon_source': 'google'}",13.476751000000000,-88.184489000000000,"{'opening_hours': {'Sun': '12:00-21:00', 'Mon': '07:45-21:00', 'Tue': '07:45-21:00', 'Wed': '07:45-21:00', 'Thu': '07:45-21:00', 'Fri': '07:45-21:00', 'Sat': '07:45-21:00'}}",,SC671,,Farmacias San Nicolás SAN MIGUEL,,https://www.farmaciasannicolas.com/sucursales
"CALLE QUIÑONES DE OSORIO, BARRIO EL CALVARIO, SAN VICENTE",SAN VICENTE,El Salvador,Farmacias San Nicolás,"{'brand': 'Farmacias San Nicolás', 'fascia': 'Farmacias San Nicolás', 'category': 'Pharmacy', 'edit_date': '20250422', 'lat_lon_source': 'google'}",13.644343850000000,-88.786184790000000,"{'opening_hours': {'Sun': '08:00-17:00', 'Mon': '07:00-18:00', 'Tue': '07:00-18:00', 'Wed': '07:00-18:00', 'Thu': '07:00-18:00', 'Fri': '07:00-18:00', 'Sat': '07:00-18:00'}}",,SC1555,,Farmacias San Nicolás SAN VICENTE 1,,https://www.farmaciasannicolas.com/sucursales
"2ª AV. SUR, BARRIO SAN FRANCISCO, CASA # 21, SAN VICENTE",SAN VICENTE,El Salvador,Farmacias San Nicolás,"{'brand': 'Farmacias San Nicolás', 'fascia': 'Farmacias San Nicolás', 'category': 'Pharmacy', 'edit_date': '20250422', 'lat_lon_source': 'google'}",13.642301000000000,-88.784245000000000,"{'opening_hours': {'Sun': '08:00-17:00', 'Mon': '07:45-20:00', 'Tue': '07:45-20:00', 'Wed': '07:45-20:00', 'Thu': '07:45-20:00', 'Fri': '07:45-20:00', 'Sat': '07:45-20:00'}}",,SC645,,Farmacias San Nicolás SAN VICENTE 2,,https://www.farmaciasannicolas.com/sucursales
Av. Independencia y 35 Calle. Pte. Local #1,SANTA ANA,El Salvador,Farmacias San Nicolás,"{'brand': 'Farmacias San Nicolás', 'fascia': 'Farmacias San Nicolás', 'category': 'Pharmacy', 'edit_date': '20250422', 'lat_lon_source': 'google'}",13.978368000000000,-89.560630000000000,"{'opening_hours': {'Sun': '09:00-18:00', 'Mon': '07:45-21:00', 'Tue': '07:45-21:00', 'Wed': '07:45-21:00', 'Thu': '07:45-21:00', 'Fri': '07:45-21:00', 'Sat': '07:00-21:00'}}",,SC1885,,Farmacias San Nicolás SANTA ANA 1,,https://www.farmaciasannicolas.com/sucursales
Final Boulevard Orden de Malta. y Carretera al Puerto,LA LIBERTAD,El Salvador,Farmacias San Nicolás,"{'brand': 'Farmacias San Nicolás', 'fascia': 'Farmacias San Nicolás', 'category': 'Pharmacy', 'edit_date': '20250422', 'lat_lon_source': 'google'}",13.667472000000000,-89.269997000000000,"{'opening_hours': {'Sun': '00:00-23:59', 'Mon': '00:00-23:59', 'Tue': '00:00-23:59', 'Wed': '00:00-23:59', 'Thu': '00:00-23:59', 'Fri': '00:00-23:59', 'Sat': '00:00-23:59'}}",,SC4527,,Farmacias San Nicolás SANTA ELENA,,https://www.farmaciasannicolas.com/sucursales
"Gasolinera UNO Santa Elena . El Pepeto Sur, Calle llama",LA LIBERTAD,El Salvador,Farmacias San Nicolás,"{'brand': 'Farmacias San Nicolás', 'fascia': 'Farmacias San Nicolás', 'category': 'Pharmacy', 'edit_date': '20250422', 'lat_lon_source': 'google'}",13.661523000000000,-89.249563000000000,"{'opening_hours': {'Sun': '09:00-22:00', 'Mon': '07:45-22:00', 'Tue': '07:45-22:00', 'Wed': '07:45-22:00', 'Thu': '07:45-22:00', 'Fri': '07:45-22:00', 'Sat': '07:45-22:00'}}",,SC1543,,Farmacias San Nicolás SANTA ELENA 2,,https://www.farmaciasannicolas.com/sucursales
9º Cl. Pte. y Cl. Real . Bldv. Monseñor Romero #45 y 46,LA LIBERTAD,El Salvador,Farmacias San Nicolás,"{'brand': 'Farmacias San Nicolás', 'fascia': 'Farmacias San Nicolás', 'category': 'Pharmacy', 'edit_date': '20250422', 'lat_lon_source': 'google'}",13.678455000000000,-89.300505000000000,"{'opening_hours': {'Sun': '08:00-21:00', 'Mon': '07:45-23:00', 'Tue': '07:45-23:00', 'Wed': '07:45-23:00', 'Thu': '07:45-23:00', 'Fri': '07:45-23:00', 'Sat': '07:45-23:00'}}",,SC2505,,Farmacias San Nicolás SANTA ROSA,,https://www.farmaciasannicolas.com/sucursales
"Av. General Larios, Barrio El calvario Santa Rosa de Lima.",LA UNIÓN,El Salvador,Farmacias San Nicolás,"{'brand': 'Farmacias San Nicolás', 'fascia': 'Farmacias San Nicolás', 'category': 'Pharmacy', 'edit_date': '20250422', 'lat_lon_source': 'google'}",13.626136000000000,-87.891891000000000,"{'opening_hours': {'Sun': '07:00-13:00', 'Mon': '07:00-17:00', 'Tue': '07:00-17:00', 'Wed': '07:00-17:00', 'Thu': '07:00-17:00', 'Fri': '07:00-17:00', 'Sat': '07:00-17:00'}}",,SC3477,,Farmacias San Nicolás SANTA ROSA DE LIMA,,https://www.farmaciasannicolas.com/sucursales
2° Calle Pte. #L-1-13.,LA LIBERTAD,El Salvador,Farmacias San Nicolás,"{'brand': 'Farmacias San Nicolás', 'fascia': 'Farmacias San Nicolás', 'category': 'Pharmacy', 'edit_date': '20250422', 'lat_lon_source': 'google'}",13.673112000000000,-89.288982000000000,"{'opening_hours': {'Sun': '08:00-17:00', 'Mon': '07:00-19:00', 'Tue': '07:00-19:00', 'Wed': '07:00-19:00', 'Thu': '07:00-19:00', 'Fri': '07:00-19:00', 'Sat': '07:00-19:00'}}",,SC2859,,Farmacias San Nicolás SANTA TECLA,,https://www.farmaciasannicolas.com/sucursales
"Km 9 1/2 Carretera a Comalapa. En Gasolinera UNO, SS",SAN SALVADOR,El Salvador,Farmacias San Nicolás,"{'brand': 'Farmacias San Nicolás', 'fascia': 'Farmacias San Nicolás', 'category': 'Pharmacy', 'edit_date': '20250422', 'lat_lon_source': 'google'}",13.660890000000000,-89.189853000000000,"{'opening_hours': {'Sun': '07:45-21:00', 'Mon': '07:00-23:00', 'Tue': '07:00-23:00', 'Wed': '07:00-23:00', 'Thu': '07:00-23:00', 'Fri': '07:00-23:00', 'Sat': '07:00-23:00'}}",,SC1831,,Farmacias San Nicolás SANTORINI,,https://www.farmaciasannicolas.com/sucursales
4° Ave. Sur Calle Obispo. Marroquin # H2-10 Sonsonate,SONSONATE,El Salvador,Farmacias San Nicolás,"{'brand': 'Farmacias San Nicolás', 'fascia': 'Farmacias San Nicolás', 'category': 'Pharmacy', 'edit_date': '20250422', 'lat_lon_source': 'google'}",13.719413000000000,-89.726468000000000,"{'opening_hours': {'Sun': '08:00-13:00', 'Mon': '07:45-18:30', 'Tue': '07:45-18:30', 'Wed': '07:45-18:30', 'Thu': '07:45-18:30', 'Fri': '07:45-18:30', 'Sat': '07:45-18:30'}}",,SC2681,,Farmacias San Nicolás SONSONATE,,https://www.farmaciasannicolas.com/sucursales
Calle Roosevelt Oriente. y 2 Ave Sur # 114,SAN SALVADOR,El Salvador,Farmacias San Nicolás,"{'brand': 'Farmacias San Nicolás', 'fascia': 'Farmacias San Nicolás', 'category': 'Pharmacy', 'edit_date': '20250422', 'lat_lon_source': 'google'}",13.703434000000000,-89.149619000000000,"{'opening_hours': {'Sun': '07:45-17:30', 'Mon': '07:45-19:00', 'Tue': '07:45-19:00', 'Wed': '07:45-19:00', 'Thu': '07:45-19:00', 'Fri': '07:45-19:00', 'Sat': '07:45-18:00'}}",,SC2455,,Farmacias San Nicolás SOYAPANGO CENTRO,,https://www.farmaciasannicolas.com/sucursales
Plaza Soyapango #2  Local . L-11,SAN SALVADOR,El Salvador,Farmacias San Nicolás,"{'brand': 'Farmacias San Nicolás', 'fascia': 'Farmacias San Nicolás', 'category': 'Pharmacy', 'edit_date': '20250422', 'lat_lon_source': 'google'}",13.699656000000000,-89.152217000000000,"{'opening_hours': {'Sun': '08:00-21:00', 'Mon': '07:45-22:00', 'Tue': '07:45-22:00', 'Wed': '07:45-22:00', 'Thu': '07:45-22:00', 'Fri': '07:45-22:00', 'Sat': '07:45-22:00'}}",,SC1166,,Farmacias San Nicolás SOYAPANGO PLAZA,,https://www.farmaciasannicolas.com/sucursales
"Kilómetro 12 y 1/2, carretera . Troncal del Norte",SAN SALVADOR,El Salvador,Farmacias San Nicolás,"{'brand': 'Farmacias San Nicolás', 'fascia': 'Farmacias San Nicolás', 'category': 'Pharmacy', 'edit_date': '20250422', 'lat_lon_source': 'google'}",13.791345000000000,-89.175410000000000,"{'opening_hours': {'Sun': '07:45-19:30', 'Mon': '07:45-20:00', 'Tue': '07:45-20:00', 'Wed': '07:45-20:00', 'Thu': '07:45-19:30', 'Fri': '07:45-20:00', 'Sat': '07:45-20:00'}}",,SC259,,Farmacias San Nicolás TRONCAL DEL NORTE,,https://www.farmaciasannicolas.com/sucursales
"Gasolinera UNO Tuscania: Km 17 1/2 Carretería al puerto de la Libertad, Zaragoza, La Libertad",LA LIBERTAD,El Salvador,Farmacias San Nicolás,"{'brand': 'Farmacias San Nicolás', 'fascia': 'Farmacias San Nicolás', 'category': 'Pharmacy', 'edit_date': '20250422', 'lat_lon_source': 'google'}",13.612190000000000,-89.285695000000000,"{'opening_hours': {'Sun': '08:00-20:00', 'Mon': '08:00-21:00', 'Tue': '08:00-21:00', 'Wed': '08:00-21:00', 'Thu': '08:00-21:00', 'Fri': '08:00-21:00', 'Sat': '08:00-21:00'}}",,SC4542,,Farmacias San Nicolás TUSCANIA,,https://www.farmaciasannicolas.com/sucursales
"Centro Comercial Altavista, Local C-18, Ilopango, San Salvador",SAN SALVADOR,El Salvador,Farmacias San Nicolás,"{'brand': 'Farmacias San Nicolás', 'fascia': 'Farmacias San Nicolás', 'category': 'Pharmacy', 'edit_date': '20250422', 'lat_lon_source': 'google'}",13.716213000000000,-89.097132000000000,"{'opening_hours': {'Sun': '07:45-20:00', 'Mon': '07:45-20:00', 'Tue': '07:45-20:00', 'Wed': '07:45-20:00', 'Thu': '07:45-20:00', 'Fri': '07:45-20:00', 'Sat': '07:45-20:00'}}",,SC4890,,Farmacias San Nicolás UNICENTRO ALTA VISTA,,https://www.farmaciasannicolas.com/sucursales
Km. 24 ½ carretera a Santa Ana.  CC lourdes local 9-i,LA LIBERTAD,El Salvador,Farmacias San Nicolás,"{'brand': 'Farmacias San Nicolás', 'fascia': 'Farmacias San Nicolás', 'category': 'Pharmacy', 'edit_date': '20250422', 'lat_lon_source': 'google'}",13.728344000000000,-89.359606000000000,"{'opening_hours': {'Sun': '08:00-20:30', 'Mon': '08:00-20:30', 'Tue': '08:00-20:30', 'Wed': '08:00-20:30', 'Thu': '08:00-20:30', 'Fri': '08:00-20:30', 'Sat': '08:00-20:30'}}",,SC2790,,Farmacias San Nicolás UNICENTRO LOURDES,,https://www.farmaciasannicolas.com/sucursales
"Calle Zacamil, CC Unicentro  Metropolis, L#9-10, Mejicanos",SAN SALVADOR,El Salvador,Farmacias San Nicolás,"{'brand': 'Farmacias San Nicolás', 'fascia': 'Farmacias San Nicolás', 'category': 'Pharmacy', 'edit_date': '20250422', 'lat_lon_source': 'google'}",13.729880000000000,-89.210579000000000,"{'opening_hours': {'Sun': '09:00-19:00', 'Mon': '08:00-20:00', 'Tue': '08:00-20:00', 'Wed': '08:00-20:00', 'Thu': '08:00-20:00', 'Fri': '08:00-20:00', 'Sat': '08:00-20:00'}}",,SC4735,,Farmacias San Nicolás UNICENTRO METROPOLIS,,https://www.farmaciasannicolas.com/sucursales
"Gasolinera UNO: Calle a Tonacatepeque frente a Unicentro Soyapango, Soyapango",SAN SALVADOR,El Salvador,Farmacias San Nicolás,"{'brand': 'Farmacias San Nicolás', 'fascia': 'Farmacias San Nicolás', 'category': 'Pharmacy', 'edit_date': '20250422', 'lat_lon_source': 'google'}",13.714785000000000,-89.142209000000000,"{'opening_hours': {'Sun': '07:45-20:00', 'Mon': '07:45-21:00', 'Tue': '07:45-21:00', 'Wed': '07:45-21:00', 'Thu': '07:45-21:00', 'Fri': '07:45-21:00', 'Sat': '07:45-21:00'}}",,SC1259,,Farmacias San Nicolás UNICENTRO SOYAPANGO,,https://www.farmaciasannicolas.com/sucursales
Calle Grimaldi # 14A  Usulutan.,USULUTAN,El Salvador,Farmacias San Nicolás,"{'brand': 'Farmacias San Nicolás', 'fascia': 'Farmacias San Nicolás', 'category': 'Pharmacy', 'edit_date': '20250422', 'lat_lon_source': 'google'}",13.344192000000000,-88.438149000000000,"{'opening_hours': {'Sun': '08:00-13:00', 'Mon': '07:00-19:00', 'Tue': '07:00-19:00', 'Wed': '07:00-19:00', 'Thu': '07:00-19:00', 'Fri': '07:00-19:00', 'Sat': '07:00-19:00'}}",,SC1353,,Farmacias San Nicolás USULUTAN,,https://www.farmaciasannicolas.com/sucursales
"CC. EL ENCUENTRO, VALLE DULCE, LOCAL 11, PROL. BOULEVARD CONSTITUCION Y CALLE A MARIONA",SAN SALVADOR,El Salvador,Farmacias San Nicolás,"{'brand': 'Farmacias San Nicolás', 'fascia': 'Farmacias San Nicolás', 'category': 'Pharmacy', 'edit_date': '20250422', 'lat_lon_source': 'google'}",13.785802000000000,-89.195283000000000,"{'opening_hours': {'Sun': '09:00-21:00', 'Mon': '09:00-21:00', 'Tue': '09:00-21:00', 'Wed': '09:00-21:00', 'Thu': '09:00-21:00', 'Fri': '09:00-21:00', 'Sat': '09:00-21:00'}}",,SC1066,,Farmacias San Nicolás VALLE DULCE,,https://www.farmaciasannicolas.com/sucursales
"PLAZA COMERCIAL ALEMANA PRIMERA ETAPA, LOCAL L-B VERSAILLES, SAN JUAN OPICO, LA LIBERTAD",LA LIBERTAD,El Salvador,Farmacias San Nicolás,"{'brand': 'Farmacias San Nicolás', 'fascia': 'Farmacias San Nicolás', 'category': 'Pharmacy', 'edit_date': '20250422', 'lat_lon_source': 'google'}",13.788628000000000,-89.358642000000000,"{'opening_hours': {'Sun': '07:45-21:00', 'Mon': '07:45-21:00', 'Tue': '07:45-21:00', 'Wed': '07:45-21:00', 'Thu': '07:45-21:00', 'Fri': '07:45-21:00', 'Sat': '07:45-21:00'}}",,SC3403,,Farmacias San Nicolás VERSAILLES,,https://www.farmaciasannicolas.com/sucursales
"29 Av. Norte y Calle al Volcan. #2127, Col Zacamil",SAN SALVADOR,El Salvador,Farmacias San Nicolás,"{'brand': 'Farmacias San Nicolás', 'fascia': 'Farmacias San Nicolás', 'category': 'Pharmacy', 'edit_date': '20250422', 'lat_lon_source': 'google'}",13.731051000000000,-89.202109000000000,"{'opening_hours': {'Sun': '09:00-21:00', 'Mon': '07:45-21:00', 'Tue': '07:45-21:00', 'Wed': '07:45-21:00', 'Thu': '07:45-21:00', 'Fri': '07:45-21:00', 'Sat': '07:45-21:00'}}",,SC4170,,Farmacias San Nicolás ZACAMIL,,https://www.farmaciasannicolas.com/sucursales
"Centro Comercial San Antonio #23 y 24 en Barrio Los Remedios, crr litoral en el KL 57",LA PAZ,El Salvador,Farmacias San Nicolás,"{'brand': 'Farmacias San Nicolás', 'fascia': 'Farmacias San Nicolás', 'category': 'Pharmacy', 'edit_date': '20250422', 'lat_lon_source': 'google'}",13.503079400000000,-88.872489900000000,"{'opening_hours': {'Sun': '08:00-18:00', 'Mon': '07:45-20:00', 'Tue': '07:45-20:00', 'Wed': '07:45-20:00', 'Thu': '07:45-20:00', 'Fri': '07:45-20:00', 'Sat': '07:45-20:00'}}",,SC721,,Farmacias San Nicolás ZACATECOLUCA,,https://www.farmaciasannicolas.com/sucursales
"CC distrito zaragoza”, local #17, km20, carretera al puerto de la libertad Zaragoza, La libertad.",LA LIBERTAD,El Salvador,Farmacias San Nicolás,"{'brand': 'Farmacias San Nicolás', 'fascia': 'Farmacias San Nicolás', 'category': 'Pharmacy', 'edit_date': '20250422', 'lat_lon_source': 'google'}",13.591918950000000,-89.286625120000000,"{'opening_hours': {'Sun': '09:00-21:00', 'Mon': '09:00-21:00', 'Tue': '09:00-21:00', 'Wed': '09:00-21:00', 'Thu': '09:00-21:00', 'Fri': '09:00-21:00', 'Sat': '09:00-21:00'}}",,SC1383,,Farmacias San Nicolás ZARAGOZA,,https://www.farmaciasannicolas.com/sucursales
"C.C ZARZAMORA, LOCAL 13A .SANTA ANA. ENTRE CALLE VALPARAISO y CALLE CAPITAN GUZMAN.",SANTA ANA,El Salvador,Farmacias San Nicolás,"{'brand': 'Farmacias San Nicolás', 'fascia': 'Farmacias San Nicolás', 'category': 'Pharmacy', 'edit_date': '20250422', 'lat_lon_source': 'google'}",13.980355990000000,-89.554306680000000,"{'opening_hours': {'Sun': '07:45-20:00', 'Mon': '08:00-19:00', 'Tue': '08:00-19:00', 'Wed': '08:00-19:00', 'Thu': '08:00-19:00', 'Fri': '08:00-19:00', 'Sat': '08:00-20:00'}}",,SC4314,,Farmacias San Nicolás ZARZAMORA,,https://www.farmaciasannicolas.com/sucursales
Blvd. Del Hipódromo . CC  Basilea Local  14,SAN SALVADOR,El Salvador,Farmacias San Nicolás,"{'brand': 'Farmacias San Nicolás', 'fascia': 'Farmacias San Nicolás', 'category': 'Pharmacy', 'edit_date': '20250422', 'lat_lon_source': 'google'}",13.692886000000000,-89.236706000000000,"{'opening_hours': {'Sun': '09:00-21:30', 'Mon': '07:45-22:00', 'Tue': '07:45-22:00', 'Wed': '07:45-22:00', 'Thu': '07:45-22:00', 'Fri': '07:45-23:00', 'Sat': '07:45-23:00'}}",,SC371,,Farmacias San Nicolás ZONA ROSA,,https://www.farmaciasannicolas.com/sucursales
