address,city,postcode,country,extras,lat,long,name,ref,state,phone,website,opening_hours
Rue du Vermois,Laxou,54520,FR,"{'Brand': 'Jardiland', 'fascia': 'Jardiland', 'category': 'Sports', 'edit_date': '20250311', 'lat_lon_source': 'Third Party'}",48.69125689,6.12971125,Jardiland,3681919,Grand Est,+33 3 83 67 60 99,https://www.jardiland.com/magasins/magasin-laxou-nancy,"{'opening_hours': {'Mon': '09:30-12:00, 14:00-19:00', 'Tue': '09:30-12:00, 14:00-19:00', 'Wed': '09:30-12:00, 14:00-19:00', 'Thu': '09:30-12:00, 14:00-19:00', 'Fri': '09:30-12:00, 14:00-19:00', 'Sat': '09:30-19:00', 'Sun': '10:00-12:30, 14:30-18:30'}}"
Rue de Marchienne 104,Gozée,6534,BE,"{'Brand': 'Jardiland', 'fascia': 'Jardiland', 'category': 'Sports', 'edit_date': '20250311', 'lat_lon_source': 'Third Party'}",50.34257209,4.35849225,Jardiland,3681911,Région Wallonne,+32 71 51 88 60,https://www.jardiland.com/magasins/magasin-gozee,"{'opening_hours': {'Mon': '09:00-18:30', 'Tue': '09:00-18:30', 'Wed': '09:00-18:30', 'Thu': '09:00-18:30', 'Fri': '09:00-18:30', 'Sat': '09:00-18:30', 'Sun': '09:00-13:00'}}"
Avenue de la Vallée du Breuchin,Froideconche,70300,FR,"{'Brand': 'Jardiland', 'fascia': 'Jardiland', 'category': 'Sports', 'edit_date': '20250311', 'lat_lon_source': 'Third Party'}",47.8178985,6.3970747,Jardiland,3681904,Bourgogne-Franche-Comté,+33 3 84 40 40 12,https://www.jardiland.com/magasins/magasin-luxeuil-les-bains-froideconche,"{'opening_hours': {'Mon': '09:00-12:00, 14:00-19:00', 'Tue': '09:00-12:00, 14:00-19:00', 'Wed': '09:00-12:00, 14:00-19:00', 'Thu': '09:00-12:00, 14:00-19:00', 'Fri': '09:00-12:00, 14:00-19:00', 'Sat': '09:00-19:00', 'Sun': '10:00-12:30, 14:30-18:00'}}"
Rue des Sources,École-Valentin,25480,FR,"{'Brand': 'Jardiland', 'fascia': 'Jardiland', 'category': 'Sports', 'edit_date': '20250311', 'lat_lon_source': 'Third Party'}",47.27840699,5.99503107,Jardiland,3681914,Bourgogne-Franche-Comté,+33 3 81 85 01 12,https://www.jardiland.com/magasins/magasin-besancon-ecole-valentin,"{'opening_hours': {'Mon': '09:30-12:00, 14:00-19:00', 'Tue': '09:30-12:00, 14:00-19:00', 'Wed': '09:30-12:00, 14:00-19:00', 'Thu': '09:30-12:00, 14:00-19:00', 'Fri': '09:30-12:00, 14:00-19:00', 'Sat': '09:30-12:00, 14:00-19:00', 'Sun': 'Closed'}}"
Allée du Beniet,Drumettaz Clarafond,73420,FR,"{'Brand': 'Jardiland', 'fascia': 'Jardiland', 'category': 'Sports', 'edit_date': '20250311', 'lat_lon_source': 'Third Party'}",45.65587923,5.91048896,Jardiland,3681916,Auvergne-Rhône-Alpes,+33 4 79 88 52 00,https://www.jardiland.com/magasins/magasin-drumettaz-clarafond-aix-les-bains,"{'opening_hours': {'Mon': '09:30-12:30, 14:00-19:00', 'Tue': '09:30-12:30, 14:00-19:00', 'Wed': '09:30-12:30, 14:00-19:00', 'Thu': '09:30-12:30, 14:00-19:00', 'Fri': '09:30-12:30, 14:00-19:00', 'Sat': '09:00-19:00', 'Sun': '09:30-12:30, 14:30-18:00'}}"
10 D910,Barjouville,28630,FR,"{'Brand': 'Jardiland', 'fascia': 'Jardiland', 'category': 'Sports', 'edit_date': '20250311', 'lat_lon_source': 'Third Party'}",48.41145833,1.46087769,Jardiland,3681923,Centre-Val de Loire,+33 2 37 25 67 10,https://www.jardiland.com/magasins/magasin-chartres-barjouville,"{'opening_hours': {'Mon': '09:30-19:00', 'Tue': '09:30-19:00', 'Wed': '09:30-19:00', 'Thu': '09:30-19:00', 'Fri': '09:30-19:00', 'Sat': '09:30-19:00', 'Sun': '10:00-13:00, 14:00-18:30'}}"
La Ferme Neuve,Rémalard-en-Perche,61110,FR,"{'Brand': 'Jardiland', 'fascia': 'Jardiland', 'category': 'Sports', 'edit_date': '20250311', 'lat_lon_source': 'Third Party'}",48.42681205,0.78763604,Jardiland,3681912,Normandie,+33 2 33 73 76 06,https://www.jardiland.com/magasins/magasin-dorceau,"{'opening_hours': {'Mon': '09:00-12:30, 14:30-19:00', 'Tue': '09:00-12:30, 14:30-19:00', 'Wed': '09:00-12:30, 14:30-19:00', 'Thu': '09:00-12:30, 14:30-19:00', 'Fri': '09:00-12:30, 14:30-19:00', 'Sat': '09:00-12:30, 14:30-19:00', 'Sun': '09:30-12:30'}}"
64 Avenue de l'Europe,Lempdes,63370,FR,"{'Brand': 'Jardiland', 'fascia': 'Jardiland', 'category': 'Sports', 'edit_date': '20250311', 'lat_lon_source': 'Third Party'}",45.7767364,3.18556965,Jardiland,3681913,Auvergne-Rhône-Alpes,+33 4 73 61 61 00,https://www.jardiland.com/magasins/magasin-lempdes-clermont-ferrand,"{'opening_hours': {'Mon': '09:30-12:00, 14:00-19:00', 'Tue': '09:30-12:00, 14:00-19:00', 'Wed': '09:30-12:00, 14:00-19:00', 'Thu': '09:30-12:00, 14:00-19:00', 'Fri': '09:30-12:00, 14:00-19:00', 'Sat': '09:30-12:00, 14:00-19:00', 'Sun': '09:30-12:00, 14:00-19:00'}}"
Rue du Commandant J Y Cousteau,Bléré,37150,FR,"{'Brand': 'Jardiland', 'fascia': 'Jardiland', 'category': 'Sports', 'edit_date': '20250311', 'lat_lon_source': 'Third Party'}",47.32413602,1.01921796,Jardiland,3681909,Centre-Val de Loire,+33 2 47 57 96 01,https://www.jardiland.com/magasins/magasin-blere,"{'opening_hours': {'Mon': '10:00-12:00, 14:30-19:00', 'Tue': '09:00-12:00, 14:30-19:00', 'Wed': '09:00-12:00, 14:30-19:00', 'Thu': '09:00-12:00, 14:30-19:00', 'Fri': '09:00-12:00, 14:30-19:00', 'Sat': '09:00-12:15, 14:30-19:00', 'Sun': '10:00-12:15'}}"
N138,Saint-Saturnin,72650,FR,"{'Brand': 'Jardiland', 'fascia': 'Jardiland', 'category': 'Sports', 'edit_date': '20250311', 'lat_lon_source': 'Third Party'}",48.04963706,0.1688554,Jardiland,3681905,Pays de la Loire,+33 2 43 25 68 00,https://www.jardiland.com/magasins/magasin-le-mans-saint-saturnin,"{'opening_hours': {'Mon': '09:30-12:30, 14:00-19:00', 'Tue': '09:30-12:30, 14:00-19:00', 'Wed': '09:30-12:30, 14:00-19:00', 'Thu': '09:30-12:30, 14:00-19:00', 'Fri': '09:30-12:30, 14:00-19:00', 'Sat': '09:30-19:00', 'Sun': '09:30-12:30, 14:00-18:30'}}"
121 Chemin des Pommiers,Alès,30100,FR,"{'Brand': 'Jardiland', 'fascia': 'Jardiland', 'category': 'Sports', 'edit_date': '20250311', 'lat_lon_source': 'Third Party'}",44.11614842,4.11019447,Jardiland,3681910,Occitanie,+33 4 66 55 81 81,https://www.jardiland.com/magasins/magasin-ales,"{'opening_hours': {'Mon': '09:30-12:30, 14:00-19:00', 'Tue': '09:30-12:30, 14:00-19:00', 'Wed': '09:30-12:30, 14:00-19:00', 'Thu': '09:30-12:30, 14:00-19:00', 'Fri': '09:30-12:30, 14:00-19:00', 'Sat': '09:30-19:00', 'Sun': '10:00-12:30, 14:30-19:00'}}"
Rue de Niort,Bressuire,79300,FR,"{'Brand': 'Jardiland', 'fascia': 'Jardiland', 'category': 'Sports', 'edit_date': '20250311', 'lat_lon_source': 'Third Party'}",46.82986695,-0.49565708,Jardiland,3681918,Nouvelle-Aquitaine,+33 5 49 81 87 33,https://www.jardiland.com/magasins/magasin-bressuire,"{'opening_hours': {'Mon': '09:30-12:30, 14:00-19:00', 'Tue': '09:30-12:30, 14:00-19:00', 'Wed': '09:30-12:30, 14:00-19:00', 'Thu': '09:30-12:30, 14:00-19:00', 'Fri': '09:30-12:30, 14:00-19:00', 'Sat': '09:30-19:00', 'Sun': '10:00-12:30, 14:30-18:30'}}"
70 Boulevard Ampère,Chauray,79180,FR,"{'Brand': 'Jardiland', 'fascia': 'Jardiland', 'category': 'Sports', 'edit_date': '20250311', 'lat_lon_source': 'Third Party'}",46.34052169,-0.38736736,Jardiland,3681920,Nouvelle-Aquitaine,+33 5 49 08 70 00,https://www.jardiland.com/magasins/magasin-chauray,"{'opening_hours': {'Mon': '09:30-12:30, 14:00-19:00', 'Tue': '09:30-12:30, 14:00-19:00', 'Wed': '09:30-12:30, 14:00-19:00', 'Thu': '09:30-12:30, 14:00-19:00', 'Fri': '09:30-12:30, 14:00-19:00', 'Sat': '09:30-19:00', 'Sun': '10:00-12:30, 14:30-18:30'}}"
Rue Marcel Carné,Lattes,34970,FR,"{'Brand': 'Jardiland', 'fascia': 'Jardiland', 'category': 'Sports', 'edit_date': '20250311', 'lat_lon_source': 'Third Party'}",43.58395694,3.93216414,Jardiland,3681915,Occitanie,+33 4 67 15 60 60,https://www.jardiland.com/magasins/magasin-montpellier-lattes,"{'opening_hours': {'Mon': '09:30-19:00', 'Tue': '09:30-19:00', 'Wed': '09:30-19:00', 'Thu': '09:30-19:00', 'Fri': '09:30-19:00', 'Sat': '09:30-19:00', 'Sun': '10:00-12:30, 14:00-19:00'}}"
12 Route de la Rochelle,Niort,79000,FR,"{'Brand': 'Jardiland', 'fascia': 'Jardiland', 'category': 'Sports', 'edit_date': '20250311', 'lat_lon_source': 'Third Party'}",46.30595792,-0.48885405,Jardiland,3681921,Nouvelle-Aquitaine,+33 5 49 77 26 77,https://www.jardiland.com/magasins/magasin-niort-bessines,"{'opening_hours': {'Mon': '09:30-12:30, 14:00-19:00', 'Tue': '09:30-12:30, 14:00-19:00', 'Wed': '09:30-12:30, 14:00-19:00', 'Thu': '09:30-12:30, 14:00-19:00', 'Fri': '09:30-12:30, 14:00-19:00', 'Sat': '09:30-12:30, 14:00-19:00', 'Sun': '10:00-12:30, 14:30-19:00'}}"
Av. Michel Grandou,Trélissac,24750,FR,"{'Brand': 'Jardiland', 'fascia': 'Jardiland', 'category': 'Sports', 'edit_date': '20250311', 'lat_lon_source': 'Third Party'}",45.19111945,0.76659617,Jardiland,3681906,Nouvelle-Aquitaine,+33 5 53 02 43 70,https://www.jardiland.com/magasins/magasin-perigueux-trelissac,"{'opening_hours': {'Mon': '09:30-12:30, 14:00-19:00', 'Tue': '09:30-12:30, 14:00-19:00', 'Wed': '09:30-12:30, 14:00-19:00', 'Thu': '09:30-12:30, 14:00-19:00', 'Fri': '09:30-12:30, 14:00-19:00', 'Sat': '09:30-12:30, 14:00-19:00', 'Sun': '10:00-12:30, 14:30-19:00'}}"
ZA du Parc,Muzillac,56190,FR,"{'Brand': 'Jardiland', 'fascia': 'Jardiland', 'category': 'Sports', 'edit_date': '20250311', 'lat_lon_source': 'Third Party'}",47.55995023,-2.50056831,Jardiland,3681922,Bretagne,+33 2 97 41 68 48,https://www.jardiland.com/magasins/magasin-muzillac,"{'opening_hours': {'Mon': '09:30-12:30, 14:00-19:00', 'Tue': '09:30-12:30, 14:00-19:00', 'Wed': '09:30-12:30, 14:00-19:00', 'Thu': '09:30-12:30, 14:00-19:00', 'Fri': '09:30-12:30, 14:00-19:00', 'Sat': '09:30-19:00', 'Sun': '10:00-12:30, 14:30-18:30'}}"
74 Rue Albert de Mun,Pontivy,56300,FR,"{'Brand': 'Jardiland', 'fascia': 'Jardiland', 'category': 'Sports', 'edit_date': '20250311', 'lat_lon_source': 'Third Party'}",48.04893582,-2.95806626,Jardiland,3681908,Bretagne,+33 2 97 25 46 17,https://www.jardiland.com/magasins/magasin-pontivy,"{'opening_hours': {'Mon': '09:00-12:30, 14:00-19:00', 'Tue': '09:00-12:30, 14:00-19:00', 'Wed': '09:00-12:30, 14:00-19:00', 'Thu': '09:00-12:30, 14:00-19:00', 'Fri': '09:00-12:30, 14:00-19:00', 'Sat': '09:00-12:30, 14:00-19:00', 'Sun': '10:00-12:30, 14:00-18:30'}}"
Route du Nord,Montauban,82000,FR,"{'Brand': 'Jardiland', 'fascia': 'Jardiland', 'category': 'Sports', 'edit_date': '20250311', 'lat_lon_source': 'Third Party'}",44.04267893,1.38305962,Jardiland,3681917,Occitanie,+33 5 63 20 88 88,https://www.jardiland.com/magasins/magasin-montauban-nord,"{'opening_hours': {'Mon': '09:30-19:00', 'Tue': '09:30-19:00', 'Wed': '09:30-19:00', 'Thu': '09:30-19:00', 'Fri': '09:30-19:00', 'Sat': '09:30-19:00', 'Sun': '10:00-12:30, 14:00-18:30'}}"
Route d'Elne,Perpignan,66000,FR,"{'Brand': 'Jardiland', 'fascia': 'Jardiland', 'category': 'Sports', 'edit_date': '20250311', 'lat_lon_source': 'Third Party'}",42.66513622,2.91548216,Jardiland,3681903,Occitanie,+33 4 68 85 43 63,https://www.jardiland.com/magasins/magasin-perpignan,"{'opening_hours': {'Mon': '09:30-19:00', 'Tue': '09:30-19:00', 'Wed': '09:30-19:00', 'Thu': '09:30-19:00', 'Fri': '09:30-19:00', 'Sat': '09:30-19:00', 'Sun': '10:00-19:00'}}"
Actisud Saint-Jean,Jouy-aux-Arches,57130,FR,"{'Brand': 'Jardiland', 'fascia': 'Jardiland', 'category': 'Sports', 'edit_date': '20250311', 'lat_lon_source': 'Third Party'}",49.07860645,6.09941939,Jardiland,3681939,Grand Est,+33 3 87 38 35 25,https://www.jardiland.com/magasins/magasin-jouy-aux-arches-metz,"{'opening_hours': {'Mon': '09:30-19:00', 'Tue': '09:30-19:00', 'Wed': '09:30-19:00', 'Thu': '09:30-19:00', 'Fri': '09:30-19:00', 'Sat': '09:30-19:00', 'Sun': 'Closed'}}"
24 Rue des Tarbes,Essey-lès-Nancy,54270,FR,"{'Brand': 'Jardiland', 'fascia': 'Jardiland', 'category': 'Sports', 'edit_date': '20250311', 'lat_lon_source': 'Third Party'}",48.71026841,6.24937449,Jardiland,3681934,Grand Est,+33 3 83 21 00 80,https://www.jardiland.com/magasins/magasin-essey-les-nancy,"{'opening_hours': {'Mon': '09:30-12:00, 14:00-19:00', 'Tue': '09:30-12:00, 14:00-19:00', 'Wed': '09:30-12:00, 14:00-19:00', 'Thu': '09:30-12:00, 14:00-19:00', 'Fri': '09:30-12:00, 14:00-19:00', 'Sat': '09:30-19:00', 'Sun': '10:00-12:30, 14:30-18:30'}}"
Rue Louis - Charles Vernin,Dammarie-les-Lys,77190,FR,"{'Brand': 'Jardiland', 'fascia': 'Jardiland', 'category': 'Sports', 'edit_date': '20250311', 'lat_lon_source': 'Third Party'}",48.51054703,2.60591359,Jardiland,3681935,Île-de-France,+33 1 64 37 49 97,https://www.jardiland.com/magasins/magasin-dammarie-les-lys,"{'opening_hours': {'Mon': '10:00-19:00', 'Tue': '10:00-19:00', 'Wed': '10:00-19:00', 'Thu': '10:00-19:00', 'Fri': '10:00-19:00', 'Sat': '10:00-19:00', 'Sun': '10:00-13:00, 14:30-18:30'}}"
Rue Jean Jaurès,Vernouillet,78540,FR,"{'Brand': 'Jardiland', 'fascia': 'Jardiland', 'category': 'Sports', 'edit_date': '20250311', 'lat_lon_source': 'Third Party'}",48.97624113,1.99332557,Jardiland,3681941,Île-de-France,+33 1 39 28 17 10,https://www.jardiland.com/magasins/magasin-vernouillet,"{'opening_hours': {'Mon': '10:00-19:00', 'Tue': '10:00-19:00', 'Wed': '10:00-19:00', 'Thu': '10:00-19:00', 'Fri': '10:00-19:00', 'Sat': '10:00-19:00', 'Sun': '10:00-19:00'}}"
Chemin des Garennes,Châteaudun,28200,FR,"{'Brand': 'Jardiland', 'fascia': 'Jardiland', 'category': 'Sports', 'edit_date': '20250311', 'lat_lon_source': 'Third Party'}",48.08671084,1.33595555,Jardiland,3681944,Centre-Val de Loire,+33 2 37 94 05 10,https://www.jardiland.com/magasins/magasin-chateaudun,"{'opening_hours': {'Mon': '09:30-12:30, 14:00-19:00', 'Tue': '09:30-12:30, 14:00-19:00', 'Wed': '09:30-12:30, 14:00-19:00', 'Thu': '09:30-12:30, 14:00-19:00', 'Fri': '09:30-12:30, 14:00-19:00', 'Sat': '09:30-12:30, 14:00-19:00', 'Sun': '09:30-12:30, 14:00-18:30'}}"
Route de la Châtre,Le Poinconnet,36330,FR,"{'Brand': 'Jardiland', 'fascia': 'Jardiland', 'category': 'Sports', 'edit_date': '20250311', 'lat_lon_source': 'Third Party'}",46.79390199,1.73467206,Jardiland,3681929,Centre-Val de Loire,+33 2 54 08 21 10,https://www.jardiland.com/magasins/magasin-chateauroux-le-poinconnet,"{'opening_hours': {'Mon': '09:30-12:30, 14:00-19:00', 'Tue': '09:30-12:30, 14:00-19:00', 'Wed': '09:30-12:30, 14:00-19:00', 'Thu': '09:30-12:30, 14:00-19:00', 'Fri': '09:30-12:30, 14:00-19:00', 'Sat': '09:30-19:00', 'Sun': '10:00-12:30, 14:30-18:30'}}"
4-6 Boulevard Vincent Auriol,Clermont-Ferrand,63100,FR,"{'Brand': 'Jardiland', 'fascia': 'Jardiland', 'category': 'Sports', 'edit_date': '20250311', 'lat_lon_source': 'Third Party'}",45.79198416,3.11989653,Jardiland,3681927,Auvergne-Rhône-Alpes,+33 4 73 23 60 20,https://www.jardiland.com/magasins/magasin-clermont-ferrand,"{'opening_hours': {'Mon': '09:30-19:00', 'Tue': '09:30-19:00', 'Wed': '09:30-19:00', 'Thu': '09:30-19:00', 'Fri': '09:30-19:00', 'Sat': '09:30-19:00', 'Sun': '09:30-12:30, 14:00-19:00'}}"
Rue du Levant,La Flèche,72200,FR,"{'Brand': 'Jardiland', 'fascia': 'Jardiland', 'category': 'Sports', 'edit_date': '20250311', 'lat_lon_source': 'Third Party'}",47.70474438,-0.05005132,Jardiland,3681924,Pays de la Loire,+33 2 43 48 95 99,https://www.jardiland.com/magasins/magasin-la-fleche,"{'opening_hours': {'Mon': '09:30-12:30, 14:00-19:00', 'Tue': '09:30-12:30, 14:00-19:00', 'Wed': '09:30-12:30, 14:00-19:00', 'Thu': '09:30-12:30, 14:00-19:00', 'Fri': '09:30-12:30, 14:00-19:00', 'Sat': '09:30-12:30, 14:00-19:00', 'Sun': 'Closed'}}"
Boulevard Louis Armand,Saint-Berthevin,53940,FR,"{'Brand': 'Jardiland', 'fascia': 'Jardiland', 'category': 'Sports', 'edit_date': '20250311', 'lat_lon_source': 'Third Party'}",48.0668321,-0.80446143,Jardiland,3681936,Pays de la Loire,+33 2 43 91 46 10,https://www.jardiland.com/magasins/magasin-laval-saint-berthevin,"{'opening_hours': {'Mon': '09:30-12:30, 14:00-19:00', 'Tue': '09:30-12:30, 14:00-19:00', 'Wed': '09:30-12:30, 14:00-19:00', 'Thu': '09:30-12:30, 14:00-19:00', 'Fri': '09:30-12:30, 14:00-19:00', 'Sat': '09:30-19:00', 'Sun': '10:00-12:30, 14:00-18:30'}}"
Allée Henri Faris,Beaucouzé,49070,FR,"{'Brand': 'Jardiland', 'fascia': 'Jardiland', 'category': 'Sports', 'edit_date': '20250311', 'lat_lon_source': 'Third Party'}",47.46875684,-0.61870805,Jardiland,3681937,Pays de la Loire,+33 2 41 72 14 00,https://www.jardiland.com/magasins/magasin-angers-beaucouze,"{'opening_hours': {'Mon': '09:30-12:30, 14:00-19:00', 'Tue': '09:30-12:30, 14:00-19:00', 'Wed': '09:30-12:30, 14:00-19:00', 'Thu': '09:30-12:30, 14:00-19:00', 'Fri': '09:30-12:30, 14:00-19:00', 'Sat': '09:30-19:00', 'Sun': '10:00-12:30, 14:30-19:00'}}"
53 Avenue du 11 Novembre,Poitiers,86000,FR,"{'Brand': 'Jardiland', 'fascia': 'Jardiland', 'category': 'Sports', 'edit_date': '20250311', 'lat_lon_source': 'Third Party'}",46.56538901,0.36306081,Jardiland,3681928,Nouvelle-Aquitaine,+33 5 49 38 03 00,https://www.jardiland.com/magasins/magasin-poitiers-grand-large,"{'opening_hours': {'Mon': '09:30-19:00', 'Tue': '09:30-19:00', 'Wed': '09:30-19:00', 'Thu': '09:30-19:00', 'Fri': '09:30-19:00', 'Sat': '09:30-19:00', 'Sun': '10:00-13:00, 14:30-18:30'}}"
21 Avenue des Peupliers,Cesson-Sévigné,35510,FR,"{'Brand': 'Jardiland', 'fascia': 'Jardiland', 'category': 'Sports', 'edit_date': '20250311', 'lat_lon_source': 'Third Party'}",48.11197868,-1.60896971,Jardiland,3681942,Bretagne,+33 2 99 83 17 17,https://www.jardiland.com/magasins/magasin-rennes-cesson-sevigne,"{'opening_hours': {'Mon': '09:30-12:30, 14:00-19:00', 'Tue': '09:30-12:30, 14:00-19:00', 'Wed': '09:30-12:30, 14:00-19:00', 'Thu': '09:30-12:30, 14:00-19:00', 'Fri': '09:30-12:30, 14:00-19:00', 'Sat': '09:30-19:00', 'Sun': '10:00-13:00, 14:30-19:00'}}"
67 Rue Cristino Garcia,Nimes,30000,FR,"{'Brand': 'Jardiland', 'fascia': 'Jardiland', 'category': 'Sports', 'edit_date': '20250311', 'lat_lon_source': 'Third Party'}",43.83046836,4.38277081,Jardiland,3681940,Occitanie,+33 4 66 02 00 30,https://www.jardiland.com/magasins/magasin-nimes,"{'opening_hours': {'Mon': '09:30-12:30, 14:00-19:00', 'Tue': '09:30-12:30, 14:00-19:00', 'Wed': '09:30-12:30, 14:00-19:00', 'Thu': '09:30-12:30, 14:00-19:00', 'Fri': '09:30-12:30, 14:00-19:00', 'Sat': '09:30-19:00', 'Sun': '10:00-12:30, 14:30-19:00'}}"
256 Avenue du Général de Gaulle,Soyaux,16800,FR,"{'Brand': 'Jardiland', 'fascia': 'Jardiland', 'category': 'Sports', 'edit_date': '20250311', 'lat_lon_source': 'Third Party'}",45.63709329,0.20731531,Jardiland,3681933,Nouvelle-Aquitaine,+33 5 45 37 52 00,https://www.jardiland.com/magasins/magasin-angouleme-soyaux,"{'opening_hours': {'Mon': '09:30-12:30, 14:00-19:00', 'Tue': '09:30-12:30, 14:00-19:00', 'Wed': '09:30-12:30, 14:00-19:00', 'Thu': '09:30-12:30, 14:00-19:00', 'Fri': '09:30-12:30, 14:00-19:00', 'Sat': '09:30-12:30, 14:00-19:00', 'Sun': '10:00-12:30, 14:30-19:00'}}"
Rue Ginsheim Gustavsburg,Bouguenais,44340,FR,"{'Brand': 'Jardiland', 'fascia': 'Jardiland', 'category': 'Sports', 'edit_date': '20250311', 'lat_lon_source': 'Third Party'}",47.1750603,-1.60943883,Jardiland,3681938,Pays de la Loire,+33 2 28 00 12 10,https://www.jardiland.com/magasins/magasin-nantes-bouguenais,"{'opening_hours': {'Mon': '09:30-12:30, 14:00-19:00', 'Tue': '09:30-12:30, 14:00-19:00', 'Wed': '09:30-12:30, 14:00-19:00', 'Thu': '09:30-12:30, 14:00-19:00', 'Fri': '09:30-12:30, 14:00-19:00', 'Sat': '09:30-19:00', 'Sun': '09:30-12:30, 14:00-19:00'}}"
Rue Jean Monnet,Carcassonne,11000,FR,"{'Brand': 'Jardiland', 'fascia': 'Jardiland', 'category': 'Sports', 'edit_date': '20250311', 'lat_lon_source': 'Third Party'}",43.20798889,2.38418332,Jardiland,3681932,Occitanie,+33 4 68 11 96 66,https://www.jardiland.com/magasins/magasin-carcassonne,"{'opening_hours': {'Mon': '09:30-12:30, 14:00-19:00', 'Tue': '09:30-12:30, 14:00-19:00', 'Wed': '09:30-12:30, 14:00-19:00', 'Thu': '09:30-12:30, 14:00-19:00', 'Fri': '09:30-12:30, 14:00-19:00', 'Sat': '09:30-12:30, 14:00-19:00', 'Sun': '10:00-12:30, 14:00-18:30'}}"
26-34 Avenue de l'Île de France,Artigues-près-Bordeaux,33370,FR,"{'Brand': 'Jardiland', 'fascia': 'Jardiland', 'category': 'Sports', 'edit_date': '20250311', 'lat_lon_source': 'Third Party'}",44.8442966,-0.49754122,Jardiland,3681925,Nouvelle-Aquitaine,+33 5 57 77 71 80,https://www.jardiland.com/magasins/magasin-bordeaux-artigues-pres-bordeaux,"{'opening_hours': {'Mon': '09:00-19:00', 'Tue': '09:00-19:00', 'Wed': '09:00-19:00', 'Thu': '09:00-19:00', 'Fri': '09:00-19:00', 'Sat': '09:00-19:00', 'Sun': '09:30-12:30, 14:30-18:30'}}"
Rue Lucien Servanty,Toulouse,31400,FR,"{'Brand': 'Jardiland', 'fascia': 'Jardiland', 'category': 'Sports', 'edit_date': '20250311', 'lat_lon_source': 'Third Party'}",43.56961996,1.49944402,Jardiland,3681931,Occitanie,+33 5 61 54 29 60,https://www.jardiland.com/magasins/magasin-toulouse-montaudran,"{'opening_hours': {'Mon': '09:30-12:30, 14:00-19:00', 'Tue': '09:30-12:30, 14:00-19:00', 'Wed': '09:30-12:30, 14:00-19:00', 'Thu': '09:30-12:30, 14:00-19:00', 'Fri': '09:30-19:00', 'Sat': '09:30-19:00', 'Sun': '09:30-13:00, 14:00-18:30'}}"
10-18 Route du Médoc,Le Bouscat,33110,FR,"{'Brand': 'Jardiland', 'fascia': 'Jardiland', 'category': 'Sports', 'edit_date': '20250311', 'lat_lon_source': 'Third Party'}",44.87137463,-0.61550516,Jardiland,3681943,Nouvelle-Aquitaine,+33 5 56 16 09 94,https://www.jardiland.com/magasins/magasin-bordeaux-le-bouscat,"{'opening_hours': {'Mon': '09:00-12:30, 14:00-19:00', 'Tue': '09:00-12:30, 14:00-19:00', 'Wed': '09:00-12:30, 14:00-19:00', 'Thu': '09:00-12:30, 14:00-19:00', 'Fri': '09:00-12:30, 14:00-19:00', 'Sat': '09:00-12:30, 14:00-19:00', 'Sun': '09:30-12:30, 14:30-18:30'}}"
42 Avenue Alfred Nobel,Pau,64000,FR,"{'Brand': 'Jardiland', 'fascia': 'Jardiland', 'category': 'Sports', 'edit_date': '20250311', 'lat_lon_source': 'Third Party'}",43.3082071,-0.3281963,Jardiland,3681926,Nouvelle-Aquitaine,+33 5 59 84 55 25,https://www.jardiland.com/magasins/magasin-pau,"{'opening_hours': {'Mon': '09:30-12:30, 14:00-19:00', 'Tue': '09:30-12:30, 14:00-19:00', 'Wed': '09:30-12:30, 14:00-19:00', 'Thu': '09:30-12:30, 14:00-19:00', 'Fri': '09:30-12:30, 14:00-19:00', 'Sat': '09:30-12:30, 14:00-19:00', 'Sun': '10:00-12:30, 14:00-18:30'}}"
Rue Hubert Bastin 7,Charleroi,6040,BE,"{'Brand': 'Jardiland', 'fascia': 'Jardiland', 'category': 'Sports', 'edit_date': '20250311', 'lat_lon_source': 'Third Party'}",50.45318791,4.42882512,Jardiland,3682039,Région Wallonne,+32 71 51 88 60,https://www.jardiland.com/magasins/magasin-charleroi-jumet,"{'opening_hours': {'Mon': '09:00-18:00', 'Tue': '09:00-18:00', 'Wed': '09:00-18:00', 'Thu': '09:00-18:00', 'Fri': '09:00-18:00', 'Sat': '09:00-18:00', 'Sun': '00:00-24:00'}}"
Rue André Joseph,Francheville,08000,FR,"{'Brand': 'Jardiland', 'fascia': 'Jardiland', 'category': 'Sports', 'edit_date': '20250311', 'lat_lon_source': 'Third Party'}",49.73550587,4.70975518,Jardiland,3682023,Grand Est,+33 3 52 62 00 25,https://www.jardiland.com/magasins/magasin-charleville-mezieres-la-francheville,"{'opening_hours': {'Mon': '09:30-12:00, 14:00-19:00', 'Tue': '09:30-12:00, 14:00-19:00', 'Wed': '09:30-12:00, 14:00-19:00', 'Thu': '09:30-12:00, 14:00-19:00', 'Fri': '09:30-12:00, 14:00-19:00', 'Sat': '09:30-19:00', 'Sun': '10:00-12:30, 14:30-18:30'}}"
Chaussée de Mons 327,Soignies,7060,BE,"{'Brand': 'Jardiland', 'fascia': 'Jardiland', 'category': 'Sports', 'edit_date': '20250311', 'lat_lon_source': 'Third Party'}",50.54836836,4.04807031,Jardiland,3682051,Région Wallonne,+32 67 33 42 01,https://www.jardiland.com/magasins/magasin-soignies,"{'opening_hours': {'Mon': 'Closed', 'Tue': '09:30-18:00', 'Wed': '09:30-18:00', 'Thu': '09:30-18:00', 'Fri': '09:30-18:00', 'Sat': '09:30-18:00', 'Sun': '10:00-12:00'}}"
Allée des Platanes,Soissons,02200,FR,"{'Brand': 'Jardiland', 'fascia': 'Jardiland', 'category': 'Sports', 'edit_date': '20250311', 'lat_lon_source': 'Third Party'}",49.35921819,3.31772187,Jardiland,3682020,Hauts-de-France,+33 3 23 75 37 50,https://www.jardiland.com/magasins/magasin-soissons,"{'opening_hours': {'Mon': '09:30-12:00, 14:00-19:00', 'Tue': '09:30-12:00, 14:00-19:00', 'Wed': '09:30-12:00, 14:00-19:00', 'Thu': '09:30-12:00, 14:00-19:00', 'Fri': '09:30-12:00, 14:00-19:00', 'Sat': '09:30-19:00', 'Sun': '10:00-12:30, 14:30-18:30'}}"
3 Route nationale,Blesmes,02400,FR,"{'Brand': 'Jardiland', 'fascia': 'Jardiland', 'category': 'Sports', 'edit_date': '20250311', 'lat_lon_source': 'Third Party'}",49.04033616,3.44934122,Jardiland,3682019,Hauts-de-France,+33 3 23 85 34 40,https://www.jardiland.com/magasins/magasin-chateau-thierry-blesmes,"{'opening_hours': {'Mon': '09:30-12:00, 14:00-19:00', 'Tue': '09:30-12:00, 14:00-19:00', 'Wed': '09:30-12:00, 14:00-19:00', 'Thu': '09:30-12:00, 14:00-19:00', 'Fri': '09:30-12:00, 14:00-19:00', 'Sat': '09:30-12:30, 14:00-19:00', 'Sun': '10:00-12:30, 14:30-18:30'}}"
13 Rue Jean Monnet,Claye-Souilly,77410,FR,"{'Brand': 'Jardiland', 'fascia': 'Jardiland', 'category': 'Sports', 'edit_date': '20250311', 'lat_lon_source': 'Third Party'}",48.95089553,2.66209663,Jardiland,3682021,Île-de-France,+33 1 60 27 26 36,https://www.jardiland.com/magasins/magasin-claye-souilly,"{'opening_hours': {'Mon': '10:00-19:00', 'Tue': '10:00-19:00', 'Wed': '10:00-19:00', 'Thu': '10:00-19:00', 'Fri': '10:00-19:00', 'Sat': '09:30-19:00', 'Sun': '10:00-19:00'}}"
110 Rue de Perruet,Ornex,01210,FR,"{'Brand': 'Jardiland', 'fascia': 'Jardiland', 'category': 'Sports', 'edit_date': '20250311', 'lat_lon_source': 'Third Party'}",46.28174523,6.09022915,Jardiland,3682022,Auvergne-Rhône-Alpes,+33 4 50 28 42 00,https://www.jardiland.com/magasins/magasin-annecy-ornex,"{'opening_hours': {'Mon': '09:30-19:00', 'Tue': '09:30-19:00', 'Wed': '09:30-19:00', 'Thu': '09:30-19:00', 'Fri': '09:30-19:00', 'Sat': '09:30-19:00', 'Sun': '09:30-13:00, 14:00-18:00'}}"
Route de Saint-Pourçain,Charmeil,03110,FR,"{'Brand': 'Jardiland', 'fascia': 'Jardiland', 'category': 'Sports', 'edit_date': '20250311', 'lat_lon_source': 'Third Party'}",46.15911295,3.3919056,Jardiland,3682028,Auvergne-Rhône-Alpes,+33 4 70 58 89 80,https://www.jardiland.com/magasins/magasin-vichy-charmeil,"{'opening_hours': {'Mon': '09:30-12:00, 14:00-19:00', 'Tue': '09:30-12:00, 14:00-19:00', 'Wed': '09:30-12:00, 14:00-19:00', 'Thu': '09:30-12:00, 14:00-19:00', 'Fri': '09:30-12:00, 14:00-19:00', 'Sat': '09:30-12:30, 14:00-19:00', 'Sun': '10:00-12:00, 14:30-19:00'}}"
24 Boulevard d'Orient,Gap,05000,FR,"{'Brand': 'Jardiland', 'fascia': 'Jardiland', 'category': 'Sports', 'edit_date': '20250311', 'lat_lon_source': 'Third Party'}",44.57022538,6.10654131,Jardiland,3682025,Provence-Alpes-Côte d'Azur,+33 4 92 52 21 51,https://www.jardiland.com/magasins/magasin-gap,"{'opening_hours': {'Mon': '09:30-12:30, 14:00-19:00', 'Tue': '09:30-12:30, 14:00-19:00', 'Wed': '09:30-12:30, 14:00-19:00', 'Thu': '09:30-12:30, 14:00-19:00', 'Fri': '09:30-12:30, 14:00-19:00', 'Sat': '09:30-19:00', 'Sun': '09:30-12:30, 14:00-18:30'}}"
Rue de la Chevêche,Domérat,03410,FR,"{'Brand': 'Jardiland', 'fascia': 'Jardiland', 'category': 'Sports', 'edit_date': '20250311', 'lat_lon_source': 'Third Party'}",46.3674236,2.56501794,Jardiland,3682024,Auvergne-Rhône-Alpes,+33 4 70 08 70 10,https://www.jardiland.com/magasins/magasin-montlucon-domerat,"{'opening_hours': {'Mon': '09:30-12:00, 14:00-19:00', 'Tue': '09:30-12:00, 14:00-19:00', 'Wed': '09:30-12:00, 14:00-19:00', 'Thu': '09:30-12:00, 14:00-19:00', 'Fri': '09:30-12:00, 14:00-19:00', 'Sat': '09:30-12:30, 14:00-19:00', 'Sun': '10:00-12:30, 14:30-18:30'}}"
Rue du Linkling,Terville,57180,FR,"{'Brand': 'Jardiland', 'fascia': 'Jardiland', 'category': 'Sports', 'edit_date': '20250311', 'lat_lon_source': 'Third Party'}",49.35170988,6.14248349,Jardiland,3681950,Grand Est,+33 3 82 82 47 39,https://www.jardiland.com/magasins/magasin-thionville-terville,"{'opening_hours': {'Mon': '09:30-19:00', 'Tue': '09:30-19:00', 'Wed': '09:30-19:00', 'Thu': '09:30-19:00', 'Fri': '09:30-19:00', 'Sat': '09:30-19:00', 'Sun': 'Closed'}}"
3 Rue des Dinandiers,Metz,57070,FR,"{'Brand': 'Jardiland', 'fascia': 'Jardiland', 'category': 'Sports', 'edit_date': '20250311', 'lat_lon_source': 'Third Party'}",49.10881651,6.22816403,Jardiland,3681959,Grand Est,+33 3 87 21 11 60,https://www.jardiland.com/magasins/magasin-metz,"{'opening_hours': {'Mon': '09:30-12:00, 14:00-19:00', 'Tue': '09:30-12:00, 14:00-19:00', 'Wed': '09:30-12:00, 14:00-19:00', 'Thu': '09:30-12:00, 14:00-19:00', 'Fri': '09:30-19:00', 'Sat': '09:30-19:00', 'Sun': 'Closed'}}"
Rue du Cheval Blanc,Marcq-en-Barœul,59700,FR,"{'Brand': 'Jardiland', 'fascia': 'Jardiland', 'category': 'Sports', 'edit_date': '20250311', 'lat_lon_source': 'Third Party'}",50.68282606,3.08803886,Jardiland,3681958,Hauts-de-France,+33 3 28 09 90 10,https://www.jardiland.com/magasins/magasin-lille-marcq-en-baroeul,"{'opening_hours': {'Mon': '09:30-19:00', 'Tue': '09:30-19:00', 'Wed': '09:30-19:00', 'Thu': '09:30-19:00', 'Fri': '09:30-19:00', 'Sat': '09:30-19:00', 'Sun': '09:30-19:00'}}"
14 Rue Augustin Fresnel,Châlons-en-Champagne,51000,FR,"{'Brand': 'Jardiland', 'fascia': 'Jardiland', 'category': 'Sports', 'edit_date': '20250311', 'lat_lon_source': 'Third Party'}",48.94206297,4.3957694,Jardiland,3681949,Grand Est,+33 3 26 21 96 62,https://www.jardiland.com/magasins/magasin-chalons-en-champagne,"{'opening_hours': {'Mon': '09:30-12:00, 14:00-19:00', 'Tue': '09:30-12:00, 14:00-19:00', 'Wed': '09:30-12:00, 14:00-19:00', 'Thu': '09:30-12:00, 14:00-19:00', 'Fri': '09:30-12:00, 14:00-19:00', 'Sat': '09:30-19:00', 'Sun': '10:00-12:30, 14:30-18:30'}}"
Chemin Vert,Calais,62100,FR,"{'Brand': 'Jardiland', 'fascia': 'Jardiland', 'category': 'Sports', 'edit_date': '20250311', 'lat_lon_source': 'Third Party'}",50.94233625,1.83654078,Jardiland,3681960,Hauts-de-France,+33 3 21 19 78 10,https://www.jardiland.com/magasins/magasin-calais,"{'opening_hours': {'Mon': '09:30-12:30, 14:00-19:00', 'Tue': '09:30-12:30, 14:00-19:00', 'Wed': '09:30-12:30, 14:00-19:00', 'Thu': '09:30-12:30, 14:00-19:00', 'Fri': '09:30-12:30, 14:00-19:00', 'Sat': '09:30-19:00', 'Sun': '09:30-12:30, 14:00-19:00'}}"
Rue de Longvic,Chenôve,21300,FR,"{'Brand': 'Jardiland', 'fascia': 'Jardiland', 'category': 'Sports', 'edit_date': '20250311', 'lat_lon_source': 'Third Party'}",47.28510901,5.0240052,Jardiland,3681963,Bourgogne-Franche-Comté,+33 3 80 54 98 60,https://www.jardiland.com/magasins/magasin-dijon-chenove,"{'opening_hours': {'Mon': '09:30-19:00', 'Tue': '09:30-19:00', 'Wed': '09:30-19:00', 'Thu': '09:30-19:00', 'Fri': '09:30-19:00', 'Sat': '09:30-19:00', 'Sun': '09:30-12:30, 14:00-19:00'}}"
742 Boulevard du Mercantour,Nice,06200,FR,"{'Brand': 'Jardiland', 'fascia': 'Jardiland', 'category': 'Sports', 'edit_date': '20250311', 'lat_lon_source': 'Third Party'}",43.74314157,7.18611463,Jardiland,3682027,Provence-Alpes-Côte d'Azur,+33 4 93 29 87 78,https://www.jardiland.com/magasins/magasin-nice,"{'opening_hours': {'Mon': '09:00-19:00', 'Tue': '09:00-19:00', 'Wed': '09:00-19:00', 'Thu': '09:00-19:00', 'Fri': '09:00-19:00', 'Sat': '09:00-19:00', 'Sun': '09:00-13:00, 15:00-19:00'}}"
Rue des 5 Chemins,Saint-Lô,50000,FR,"{'Brand': 'Jardiland', 'fascia': 'Jardiland', 'category': 'Sports', 'edit_date': '20250311', 'lat_lon_source': 'Third Party'}",49.09862384,-1.07979962,Jardiland,3693833,Normandie,+33 2 33 57 69 19,https://www.jardiland.com/magasins/magasin-saint-lo,"{'opening_hours': {'Mon': '09:30-12:30, 14:00-19:00', 'Tue': '09:30-12:30, 14:00-19:00', 'Wed': '09:30-12:30, 14:00-19:00', 'Thu': '09:30-12:30, 14:00-19:00', 'Fri': '09:30-12:30, 14:00-19:00', 'Sat': '09:30-13:00, 14:00-19:00', 'Sun': '10:00-12:30, 14:00-18:30'}}"
210 Route de Villedieu,Granville,50400,FR,"{'Brand': 'Jardiland', 'fascia': 'Jardiland', 'category': 'Sports', 'edit_date': '20250311', 'lat_lon_source': 'Third Party'}",48.8371763,-1.5584049,Jardiland,3693837,Normandie,+33 2 33 90 13 33,https://www.jardiland.com/magasins/magasin-granville-yquelon,"{'opening_hours': {'Mon': '09:30-12:30, 14:00-19:00', 'Tue': '09:30-12:30, 14:00-19:00', 'Wed': '09:30-12:30, 14:00-19:00', 'Thu': '09:30-12:30, 14:00-19:00', 'Fri': '09:30-12:30, 14:00-19:00', 'Sat': '09:30-13:00, 14:00-19:00', 'Sun': '10:00-12:30, 14:00-18:30'}}"
Carretera de Rubí,Sant Cugat del Vallès,08174,ES,"{'Brand': 'Jardiland', 'fascia': 'Jardiland', 'category': 'Sports', 'edit_date': '20250311', 'lat_lon_source': 'Third Party'}",41.47935488,2.05819933,Jardiland,3682046,Barcelona,+34 936 75 04 52,https://www.jardiland.com/magasins/magasin-barcelona-sant-cugat,"{'opening_hours': {'Mon': '10:00-20:30', 'Tue': '10:00-20:30', 'Wed': '10:00-20:30', 'Thu': '10:00-20:30', 'Fri': '10:00-20:30', 'Sat': '10:00-20:30', 'Sun': '10:00-20:30'}}"
Carrer Cardener,Gavà,08850,ES,"{'Brand': 'Jardiland', 'fascia': 'Jardiland', 'category': 'Sports', 'edit_date': '20250311', 'lat_lon_source': 'Third Party'}",41.28844095,2.00986299,Jardiland,3682042,Barcelona,+34 936 62 20 50,https://www.jardiland.com/magasins/magasin-barcelona-gava,"{'opening_hours': {'Mon': '10:00-20:30', 'Tue': '10:00-20:30', 'Wed': '10:00-20:30', 'Thu': '10:00-20:30', 'Fri': '10:00-20:30', 'Sat': '10:00-20:30', 'Sun': '10:00-20:30'}}"
C-31,Cubelles,08880,ES,"{'Brand': 'Jardiland', 'fascia': 'Jardiland', 'category': 'Sports', 'edit_date': '20250311', 'lat_lon_source': 'Third Party'}",41.20664413,1.66721479,Jardiland,3682026,Barcelona,+34 938 95 25 29,https://www.jardiland.com/magasins/magasin-barcelona-cubelles,"{'opening_hours': {'Mon': '10:00-20:30', 'Tue': '10:00-20:30', 'Wed': '10:00-20:30', 'Thu': '10:00-20:30', 'Fri': '10:00-20:30', 'Sat': '10:00-20:30', 'Sun': '10:00-20:30'}}"
Carr. de Tarragona,Lleida,25198,ES,"{'Brand': 'Jardiland', 'fascia': 'Jardiland', 'category': 'Sports', 'edit_date': '20250311', 'lat_lon_source': 'Third Party'}",41.64475639,0.56745414,Jardiland,3682041,Lleida,+34 973 23 29 10,https://www.jardiland.com/magasins/magasin-lleida,"{'opening_hours': {'Mon': '10:00-14:00, 16:00-20:00', 'Tue': '10:00-14:00, 16:00-20:00', 'Wed': '10:00-14:00, 16:00-20:00', 'Thu': '10:00-14:00, 16:00-20:00', 'Fri': '10:00-14:00, 16:00-20:00', 'Sat': '10:00-20:30', 'Sun': '10:00-20:00'}}"
Carrer dels Matalassers,Reus,43204,ES,"{'Brand': 'Jardiland', 'fascia': 'Jardiland', 'category': 'Sports', 'edit_date': '20250311', 'lat_lon_source': 'Third Party'}",41.1206822,1.1573161,Jardiland,3682045,Tarragona,+34 977 39 57 87,https://www.jardiland.com/magasins/magasin-tarragona-reus,"{'opening_hours': {'Mon': '10:00-20:30', 'Tue': '10:00-20:30', 'Wed': '10:00-20:30', 'Thu': '10:00-20:30', 'Fri': '10:00-20:30', 'Sat': '10:00-20:30', 'Sun': '10:00-20:30'}}"
Avenida de Dom Mendo,Maia,4470-009,PT,"{'Brand': 'Jardiland', 'fascia': 'Jardiland', 'category': 'Sports', 'edit_date': '20250311', 'lat_lon_source': 'Third Party'}",41.22687941,-8.63588895,Jardiland,3682043,Porto,+351 22 947 1300,https://www.jardiland.com/magasins/magasin-porto-maia,"{'opening_hours': {'Mon': '10:00-20:00', 'Tue': '10:00-20:00', 'Wed': '10:00-20:00', 'Thu': '10:00-20:00', 'Fri': '10:00-20:00', 'Sat': '10:00-20:00', 'Sun': '10:00-20:00'}}"
2 Rue Armand Peugeot,La Queue-en-Brie,94510,FR,"{'Brand': 'Jardiland', 'fascia': 'Jardiland', 'category': 'Sports', 'edit_date': '20250311', 'lat_lon_source': 'Third Party'}",48.78255819,2.57086449,Jardiland,3681946,Île-de-France,+33 1 45 94 81 82,https://www.jardiland.com/magasins/magasin-la-queue-en-brie,"{'opening_hours': {'Mon': '10:00-19:00', 'Tue': '10:00-19:00', 'Wed': '10:00-19:00', 'Thu': '10:00-19:00', 'Fri': '10:00-19:00', 'Sat': '09:30-19:00', 'Sun': '09:30-19:00'}}"
2 Avenue des Vingt-Huit Arpents,Bonneuil-sur-Marne,94380,FR,"{'Brand': 'Jardiland', 'fascia': 'Jardiland', 'category': 'Sports', 'edit_date': '20250311', 'lat_lon_source': 'Third Party'}",48.76432687,2.47885372,Jardiland,3681962,Île-de-France,+33 1 56 71 24 10,https://www.jardiland.com/magasins/magasin-bonneuil-sur-marne,"{'opening_hours': {'Mon': '09:30-19:30', 'Tue': '09:30-19:30', 'Wed': '09:30-19:30', 'Thu': '09:30-19:30', 'Fri': '09:30-19:30', 'Sat': '09:30-19:30', 'Sun': '09:30-19:30'}}"
1 Allée de l'air du Temps,Lieusaint,77127,FR,"{'Brand': 'Jardiland', 'fascia': 'Jardiland', 'category': 'Sports', 'edit_date': '20250311', 'lat_lon_source': 'Third Party'}",48.61797381,2.5513267,Jardiland,3681964,Île-de-France,+33 1 60 60 84 48,https://www.jardiland.com/magasins/magasin-lieusaint-carre-senart,"{'opening_hours': {'Mon': '09:30-19:00', 'Tue': '09:30-19:00', 'Wed': '09:30-19:00', 'Thu': '09:30-19:00', 'Fri': '09:30-19:00', 'Sat': '09:30-19:00', 'Sun': '09:30-19:00'}}"
44 Rue de la Plaine,Villabé,91100,FR,"{'Brand': 'Jardiland', 'fascia': 'Jardiland', 'category': 'Sports', 'edit_date': '20250311', 'lat_lon_source': 'Third Party'}",48.58621744,2.44596004,Jardiland,3681948,Île-de-France,+33 1 64 98 20 40,https://www.jardiland.com/magasins/magasin-villabe,"{'opening_hours': {'Mon': '10:00-19:00', 'Tue': '10:00-19:00', 'Wed': '10:00-19:00', 'Thu': '10:00-19:00', 'Fri': '10:00-19:00', 'Sat': '10:00-19:00', 'Sun': '10:00-19:00'}}"
Rue Passe Debout,Saran,45770,FR,"{'Brand': 'Jardiland', 'fascia': 'Jardiland', 'category': 'Sports', 'edit_date': '20250311', 'lat_lon_source': 'Third Party'}",47.93821499,1.89141301,Jardiland,3681954,Centre-Val de Loire,+33 2 38 72 46 10,https://www.jardiland.com/magasins/magasin-saran-orleans-nord,"{'opening_hours': {'Mon': '09:30-12:30, 14:00-19:00', 'Tue': '09:30-12:30, 14:00-19:00', 'Wed': '09:30-12:30, 14:00-19:00', 'Thu': '09:30-12:30, 14:00-19:00', 'Fri': '09:30-12:30, 14:00-19:00', 'Sat': '09:30-19:00', 'Sun': '09:30-12:30, 14:00-18:30'}}"
Chemin du Varaique,Épron,14610,FR,"{'Brand': 'Jardiland', 'fascia': 'Jardiland', 'category': 'Sports', 'edit_date': '20250311', 'lat_lon_source': 'Third Party'}",49.21930219,-0.36468008,Jardiland,3681945,Normandie,+33 2 31 53 12 10,https://www.jardiland.com/magasins/magasin-caen-epron,"{'opening_hours': {'Mon': '09:30-12:30, 14:00-19:00', 'Tue': '09:30-12:30, 14:00-19:00', 'Wed': '09:30-12:30, 14:00-19:00', 'Thu': '09:30-12:30, 14:00-19:00', 'Fri': '09:30-12:30, 14:00-19:00', 'Sat': '09:30-19:00', 'Sun': '10:00-12:30, 14:00-18:30'}}"
45 Rue Védrines,Tours,37100,FR,"{'Brand': 'Jardiland', 'fascia': 'Jardiland', 'category': 'Sports', 'edit_date': '20250311', 'lat_lon_source': 'Third Party'}",47.42665978,0.70605384,Jardiland,3681947,Centre-Val de Loire,+33 2 47 49 24 46,https://www.jardiland.com/magasins/magasin-tours-nord,"{'opening_hours': {'Mon': '09:30-19:00', 'Tue': '09:30-19:00', 'Wed': '09:30-19:00', 'Thu': '09:30-19:00', 'Fri': '09:30-19:00', 'Sat': '09:30-19:00', 'Sun': '10:00-12:30, 14:30-19:00'}}"
8 Rue Eric Tabarly,Guéret,23000,FR,"{'Brand': 'Jardiland', 'fascia': 'Jardiland', 'category': 'Sports', 'edit_date': '20250311', 'lat_lon_source': 'Third Party'}",46.18312968,1.88620359,Jardiland,3681965,Nouvelle-Aquitaine,+33 5 55 52 33 00,https://www.jardiland.com/magasins/magasin-gueret,"{'opening_hours': {'Mon': '09:30-12:30, 14:00-19:00', 'Tue': '09:30-12:30, 14:00-19:00', 'Wed': '09:30-12:30, 14:00-19:00', 'Thu': '09:30-12:30, 14:00-19:00', 'Fri': '09:30-12:30, 14:00-19:00', 'Sat': '09:30-19:00', 'Sun': '10:00-12:30, 14:30-18:30'}}"
Rue Georges Lécques 209,Noumea,98800,NC,"{'Brand': 'Jardiland', 'fascia': 'Jardiland', 'category': 'Sports', 'edit_date': '20250311', 'lat_lon_source': 'Third Party'}",-22.22427511,166.48590849,Jardiland,3686481,Province Sud,+687 43.15.30,https://www.jardiland.com/magasins/magasin-noumea-nouvelle-caledonie,"{'opening_hours': {'Mon': '08:00-18:00', 'Tue': '08:00-16:00', 'Wed': 'Closed', 'Thu': '08:00-18:00', 'Fri': '08:00-18:00', 'Sat': '08:00-18:00', 'Sun': '08:00-12:00'}}"
Rue des Marettes,Cherbourg-en-Cotentin,50470,FR,"{'Brand': 'Jardiland', 'fascia': 'Jardiland', 'category': 'Sports', 'edit_date': '20250311', 'lat_lon_source': 'Third Party'}",49.60433248,-1.59769057,Jardiland,3681952,Normandy,+33 2 33 88 50 10,https://www.jardiland.com/magasins/magasin-cherbourg-la-glacerie,"{'opening_hours': {'Mon': '09:30-12:30, 14:00-19:00', 'Tue': '09:30-12:30, 14:00-19:00', 'Wed': '09:30-12:30, 14:00-19:00', 'Thu': '09:30-12:30, 14:00-19:00', 'Fri': '09:30-12:30, 14:00-19:00', 'Sat': '09:30-19:00', 'Sun': '10:00-12:30, 14:00-19:00'}}"
Avenue du Midi,Agen,47000,FR,"{'Brand': 'Jardiland', 'fascia': 'Jardiland', 'category': 'Sports', 'edit_date': '20250311', 'lat_lon_source': 'Third Party'}",44.1798285,0.61917175,Jardiland,3681961,Nouvelle-Aquitaine,+33 5 53 77 72 22,https://www.jardiland.com/magasins/magasin-agen,"{'opening_hours': {'Mon': '09:30-19:00', 'Tue': '09:30-19:00', 'Wed': '09:30-19:00', 'Thu': '09:30-19:00', 'Fri': '09:30-19:00', 'Sat': '09:30-19:00', 'Sun': '09:30-12:30, 14:00-18:30'}}"
295 Route d'Espagne,Toulouse,31100,FR,"{'Brand': 'Jardiland', 'fascia': 'Jardiland', 'category': 'Sports', 'edit_date': '20250311', 'lat_lon_source': 'Third Party'}",43.54586649,1.41981356,Jardiland,3681957,Occitanie,+33 5 62 87 15 87,https://www.jardiland.com/magasins/magasin-toulouse-portet,"{'opening_hours': {'Mon': '09:30-19:00', 'Tue': '09:30-19:00', 'Wed': '09:30-19:00', 'Thu': '09:30-19:00', 'Fri': '09:30-19:00', 'Sat': '09:30-19:00', 'Sun': '09:30-12:30, 14:00-18:30'}}"
16 Avenue Pierre Mendès-France,Mérignac,33700,FR,"{'Brand': 'Jardiland', 'fascia': 'Jardiland', 'category': 'Sports', 'edit_date': '20250311', 'lat_lon_source': 'Third Party'}",44.8345151,-0.63853146,Jardiland,3681956,Nouvelle-Aquitaine,+33 5 56 12 46 40,https://www.jardiland.com/magasins/magasin-merignac,"{'opening_hours': {'Mon': '09:00-12:30, 14:00-19:00', 'Tue': '09:00-12:30, 14:00-19:00', 'Wed': '09:00-12:30, 14:00-19:00', 'Thu': '09:00-12:30, 14:00-19:00', 'Fri': '09:00-12:30, 14:00-19:00', 'Sat': '09:00-12:30, 14:00-19:00', 'Sun': '09:30-12:30, 14:30-18:30'}}"
6 Route de Pau,Tarbes,65000,FR,"{'Brand': 'Jardiland', 'fascia': 'Jardiland', 'category': 'Sports', 'edit_date': '20250311', 'lat_lon_source': 'Third Party'}",43.2383732,0.04717937,Jardiland,3681951,Occitanie,+33 5 62 44 39 30,https://www.jardiland.com/magasins/magasin-tarbes,"{'opening_hours': {'Mon': '09:30-19:00', 'Tue': '09:30-19:00', 'Wed': '09:30-19:00', 'Thu': '09:30-19:00', 'Fri': '09:30-19:00', 'Sat': '09:30-19:00', 'Sun': '10:00-12:30, 14:00-18:30'}}"
Av. de Bayonne,Bidart,64210,FR,"{'Brand': 'Jardiland', 'fascia': 'Jardiland', 'category': 'Sports', 'edit_date': '20250311', 'lat_lon_source': 'Third Party'}",43.44661294,-1.57494604,Jardiland,3681953,Nouvelle-Aquitaine,+33 5 59 54 70 54,https://www.jardiland.com/magasins/magasin-bidart,"{'opening_hours': {'Mon': '09:30-12:30, 14:00-19:00', 'Tue': '09:30-12:30, 14:00-19:00', 'Wed': '09:30-12:30, 14:00-19:00', 'Thu': '09:30-12:30, 14:00-19:00', 'Fri': '09:30-12:30, 14:00-19:00', 'Sat': '09:30-12:30, 14:00-19:00', 'Sun': '10:00-12:30, 14:30-18:30'}}"
4 Route de Neuilly,Rantigny,60290,FR,"{'Brand': 'Jardiland', 'fascia': 'Jardiland', 'category': 'Sports', 'edit_date': '20250311', 'lat_lon_source': 'Third Party'}",49.3406968,2.43219439,Jardiland,3693887,Hauts-de-France,+33 3 44 73 05 95,https://www.jardiland.com/magasins/magasin-rantigny,"{'opening_hours': {'Mon': '10:00-12:30, 14:00-19:00', 'Tue': '10:00-12:30, 14:00-19:00', 'Wed': '10:00-12:30, 14:00-19:00', 'Thu': '10:00-12:30, 14:00-19:00', 'Fri': '10:00-12:30, 14:00-19:00', 'Sat': '10:00-12:30, 14:00-19:00', 'Sun': '10:00-12:30, 14:00-18:00'}}"
1 BIS Avenue Jean Jaurès,Neuilly-sur-Marne,93330,FR,"{'Brand': 'Jardiland', 'fascia': 'Jardiland', 'category': 'Sports', 'edit_date': '20250311', 'lat_lon_source': 'Third Party'}",48.8623276,2.5432759,Jardiland,4751258,Île-de-France,+33 1 43 08 10 30,https://www.jardiland.com/magasins/magasin-neuilly-sur-marne,"{'opening_hours': {'Mon': '09:30-19:00', 'Tue': '09:30-19:00', 'Wed': '09:30-19:00', 'Thu': '09:30-19:00', 'Fri': '09:30-19:00', 'Sat': '09:30-19:00', 'Sun': '10:00-18:01'}}"
Boulevard du Parisis,Cormeilles-en-Parisis,95240,FR,"{'Brand': 'Jardiland', 'fascia': 'Jardiland', 'category': 'Sports', 'edit_date': '20250311', 'lat_lon_source': 'Third Party'}",48.952881,2.197264,Jardiland,4227178,Île-de-France,+33 1 34 28 44 00,https://www.jardiland.com/magasins/magasin-cormeilles-en-parisis,"{'opening_hours': {'Mon': '09:30-19:00', 'Tue': '09:30-19:00', 'Wed': '09:30-19:00', 'Thu': '09:30-19:00', 'Fri': '09:30-19:00', 'Sat': '09:30-19:00', 'Sun': '09:30-19:00'}}"
2045 Avenue de Chambéry,La Ravoire,73490,FR,"{'Brand': 'Jardiland', 'fascia': 'Jardiland', 'category': 'Sports', 'edit_date': '20250311', 'lat_lon_source': 'Third Party'}",45.562454,5.971089,Jardiland,3693883,Auvergne-Rhône-Alpes,+33 4 79 69 54 03,https://www.jardiland.com/magasins/magasin-chambery-la-ravoire,"{'opening_hours': {'Mon': '09:00-12:00, 14:00-19:00', 'Tue': '09:00-12:00, 14:00-19:00', 'Wed': '09:00-12:00, 14:00-19:00', 'Thu': '09:00-12:00, 14:00-19:00', 'Fri': '09:00-12:00, 14:00-19:00', 'Sat': '09:00-19:00', 'Sun': '09:30-12:15, 14:30-18:00'}}"
2 Rue de la Glacière,Coutances,50200,FR,"{'Brand': 'Jardiland', 'fascia': 'Jardiland', 'category': 'Sports', 'edit_date': '20250311', 'lat_lon_source': 'Third Party'}",49.0698113,-1.4291331,Jardiland,3693874,Normandie,,,
2045 Avenue de Chambéry,La Ravoire,73490,FR,"{'Brand': 'Jardiland', 'fascia': 'Jardiland', 'category': 'Sports', 'edit_date': '20250311', 'lat_lon_source': 'Third Party'}",45.562454,5.971089,Jardiland,3693883,Auvergne-Rhône-Alpes,,,
4 Route de Neuilly,Rantigny,60290,FR,"{'Brand': 'Jardiland', 'fascia': 'Jardiland', 'category': 'Sports', 'edit_date': '20250311', 'lat_lon_source': 'Third Party'}",49.3406968,2.43219439,Jardiland,3693887,Hauts-de-France,,,
Impasse du Grain d'Or,La Chaussée-Saint-Victor,41260,FR,"{'Brand': 'Jardiland', 'fascia': 'Jardiland', 'category': 'Sports', 'edit_date': '20250311', 'lat_lon_source': 'Third Party'}",47.61933923,1.36686242,Jardiland,3699273,Centre-Val de Loire,,,
Carrer Número 8,La Pobla de Vallbona,46185,ES,"{'Brand': 'Jardiland', 'fascia': 'Jardiland', 'category': 'Sports', 'edit_date': '20250311', 'lat_lon_source': 'Third Party'}",39.60752972,-0.55528271,Jardiland,3879860,Valencia,,,
Boulevard du Parisis,Cormeilles-en-Parisis,95240,FR,"{'Brand': 'Jardiland', 'fascia': 'Jardiland', 'category': 'Sports', 'edit_date': '20250311', 'lat_lon_source': 'Third Party'}",48.952881,2.197264,Jardiland,4227178,Île-de-France,,,
1 BIS Avenue Jean Jaurès,Neuilly-sur-Marne,93330,FR,"{'Brand': 'Jardiland', 'fascia': 'Jardiland', 'category': 'Sports', 'edit_date': '20250311', 'lat_lon_source': 'Third Party'}",48.8623276,2.5432759,Jardiland,4751258,Île-de-France,,,
Rue des Vignes,La Sentinelle,59174,FR,"{'Brand': 'Jardiland', 'fascia': 'Jardiland', 'category': 'Sports', 'edit_date': '20250311', 'lat_lon_source': 'Third Party'}",50.34532419,3.48914032,Jardiland,3681980,Hauts-de-France,+33 3 27 21 66 10,https://www.jardiland.com/magasins/magasin-valenciennes-la-sentinelle,"{'opening_hours': {'Mon': '09:30-19:00', 'Tue': '09:30-19:00', 'Wed': '09:30-19:00', 'Thu': '09:30-19:00', 'Fri': '09:30-19:00', 'Sat': '09:30-19:00', 'Sun': '10:00-12:30, 14:00-19:00'}}"
Route nationale,Thillois,51370,FR,"{'Brand': 'Jardiland', 'fascia': 'Jardiland', 'category': 'Sports', 'edit_date': '20250311', 'lat_lon_source': 'Third Party'}",49.25435656,3.96983035,Jardiland,3681968,Grand Est,+33 3 26 35 01 01,https://www.jardiland.com/magasins/magasin-reims-thillois,"{'opening_hours': {'Mon': '09:30-12:00, 14:00-19:00', 'Tue': '09:30-12:00, 14:00-19:00', 'Wed': '09:30-12:00, 14:00-19:00', 'Thu': '09:30-12:00, 14:00-19:00', 'Fri': '09:30-12:00, 14:00-19:00', 'Sat': '09:30-19:00', 'Sun': '10:00-12:30, 14:30-18:30'}}"
Avenue du Bord des Eaux,Hénin-Beaumont,62110,FR,"{'Brand': 'Jardiland', 'fascia': 'Jardiland', 'category': 'Sports', 'edit_date': '20250311', 'lat_lon_source': 'Third Party'}",50.40823753,2.96740279,Jardiland,3681975,Hauts-de-France,+33 3 21 08 08 10,https://www.jardiland.com/magasins/magasin-henin-beaumont,"{'opening_hours': {'Mon': '10:00-12:30, 14:00-19:00', 'Tue': '10:00-12:30, 14:00-19:00', 'Wed': '10:00-12:30, 14:00-19:00', 'Thu': '10:00-12:30, 14:00-19:00', 'Fri': '10:00-12:30, 14:00-19:00', 'Sat': '10:00-12:30, 14:00-19:00', 'Sun': '10:00-12:30, 14:00-19:00'}}"
Boulevard Pierre Mendès France,Grande-Synthe,59760,FR,"{'Brand': 'Jardiland', 'fascia': 'Jardiland', 'category': 'Sports', 'edit_date': '20250311', 'lat_lon_source': 'Third Party'}",51.01457239,2.31712694,Jardiland,3681977,Hauts-de-France,+33 3 28 24 57 10,https://www.jardiland.com/magasins/magasin-dunkerque-grande-synthe,"{'opening_hours': {'Mon': '09:30-12:30, 14:00-19:00', 'Tue': '09:30-12:30, 14:00-19:00', 'Wed': '09:30-12:30, 14:00-19:00', 'Thu': '09:30-12:30, 14:00-19:00', 'Fri': '09:30-12:30, 14:00-19:00', 'Sat': '09:30-19:00', 'Sun': '09:30-12:30, 14:00-19:00'}}"
Rue de Sarcelles,Groslay,95410,FR,"{'Brand': 'Jardiland', 'fascia': 'Jardiland', 'category': 'Sports', 'edit_date': '20250311', 'lat_lon_source': 'Third Party'}",48.98384508,2.36577999,Jardiland,3681969,Île-de-France,+33 1 30 10 11 10,https://www.jardiland.com/magasins/magasin-groslay,"{'opening_hours': {'Mon': '09:30-19:00', 'Tue': '09:30-19:00', 'Wed': '09:30-19:00', 'Thu': '09:30-19:00', 'Fri': '09:30-19:00', 'Sat': '09:30-19:00', 'Sun': '09:30-19:00'}}"
2060 Avenue de l'Europe,Anse,69480,FR,"{'Brand': 'Jardiland', 'fascia': 'Jardiland', 'category': 'Sports', 'edit_date': '20250311', 'lat_lon_source': 'Third Party'}",45.94897077,4.71393175,Jardiland,3681985,Auvergne-Rhône-Alpes,+33 4 74 09 95 10,https://www.jardiland.com/magasins/magasin-anse-villefranche-sur-saone,"{'opening_hours': {'Mon': '09:30-12:30, 14:00-19:00', 'Tue': '09:30-12:30, 14:00-19:00', 'Wed': '09:30-12:30, 14:00-19:00', 'Thu': '09:30-12:30, 14:00-19:00', 'Fri': '09:30-12:30, 14:00-19:00', 'Sat': '09:30-12:30, 14:00-19:00', 'Sun': '09:30-12:30, 14:00-19:00'}}"
La Terrasse,Saint-Priest-en-Jarez,42270,FR,"{'Brand': 'Jardiland', 'fascia': 'Jardiland', 'category': 'Sports', 'edit_date': '20250311', 'lat_lon_source': 'Third Party'}",45.46707964,4.37109361,Jardiland,3681982,Auvergne-Rhône-Alpes,+33 4 77 92 26 30,https://www.jardiland.com/magasins/magasin-saint-etienne-saint-priest,"{'opening_hours': {'Mon': '09:30-12:00, 14:00-19:00', 'Tue': '09:30-12:00, 14:00-19:00', 'Wed': '09:30-12:00, 14:00-19:00', 'Thu': '09:30-12:00, 14:00-19:00', 'Fri': '09:30-12:00, 14:00-19:00', 'Sat': '09:30-12:00, 14:00-19:00', 'Sun': '09:30-12:30, 14:30-18:30'}}"
9 Rue Gutenberg,Joué-lès-Tours,37300,FR,"{'Brand': 'Jardiland', 'fascia': 'Jardiland', 'category': 'Sports', 'edit_date': '20250311', 'lat_lon_source': 'Third Party'}",47.34931428,0.64728591,Jardiland,3681981,Centre-Val de Loire,+33 2 47 80 00 34,https://www.jardiland.com/magasins/magasin-joue-les-tours,"{'opening_hours': {'Mon': '09:30-19:00', 'Tue': '09:30-19:00', 'Wed': '09:30-19:00', 'Thu': '09:30-19:00', 'Fri': '09:30-19:00', 'Sat': '09:30-19:00', 'Sun': '10:00-12:30, 14:30-19:00'}}"
2 Rue Pierre Augustin Dangeard,Châtellerault,86100,FR,"{'Brand': 'Jardiland', 'fascia': 'Jardiland', 'category': 'Sports', 'edit_date': '20250311', 'lat_lon_source': 'Third Party'}",46.83603567,0.54437228,Jardiland,3681984,Nouvelle-Aquitaine,+33 5 49 93 22 39,https://www.jardiland.com/magasins/magasin-chatellerault,"{'opening_hours': {'Mon': '09:30-12:30, 14:00-19:00', 'Tue': '09:30-12:30, 14:00-19:00', 'Wed': '09:30-12:30, 14:00-19:00', 'Thu': '09:30-12:30, 14:00-19:00', 'Fri': '09:30-12:30, 14:00-19:00', 'Sat': '09:30-12:30, 14:00-19:00', 'Sun': '09:30-12:30, 14:30-18:30'}}"
Rond-Point Giratoire Champs Blanchard,Distré,49400,FR,"{'Brand': 'Jardiland', 'fascia': 'Jardiland', 'category': 'Sports', 'edit_date': '20250311', 'lat_lon_source': 'Third Party'}",47.22998103,-0.12424056,Jardiland,3681973,Pays de la Loire,+33 2 41 53 74 74,https://www.jardiland.com/magasins/magasin-saumur-distre,"{'opening_hours': {'Mon': '09:30-12:30, 14:00-19:00', 'Tue': '09:30-12:30, 14:00-19:00', 'Wed': '09:30-12:30, 14:00-19:00', 'Thu': '09:30-12:30, 14:00-19:00', 'Fri': '09:30-12:30, 14:00-19:00', 'Sat': '09:30-12:30, 14:00-19:00', 'Sun': '10:00-12:30, 14:30-19:00'}}"
237 Avenue Charles Valente,Avignon,84140,FR,"{'Brand': 'Jardiland', 'fascia': 'Jardiland', 'category': 'Sports', 'edit_date': '20250311', 'lat_lon_source': 'Third Party'}",43.91802343,4.87317901,Jardiland,3681983,Provence-Alpes-Côte d'Azur,+33 4 90 13 20 10,https://www.jardiland.com/magasins/magasin-avignon-montfavet,"{'opening_hours': {'Mon': '09:30-12:30, 14:00-19:00', 'Tue': '09:30-12:30, 14:00-19:00', 'Wed': '09:30-12:30, 14:00-19:00', 'Thu': '09:30-12:30, 14:00-19:00', 'Fri': '09:30-12:30, 14:00-19:00', 'Sat': '09:30-19:00', 'Sun': '09:30-12:30, 14:00-18:30'}}"
Avenue du Phare du Grand Jardin,La Mézière,35520,FR,"{'Brand': 'Jardiland', 'fascia': 'Jardiland', 'category': 'Sports', 'edit_date': '20250311', 'lat_lon_source': 'Third Party'}",48.20053642,-1.72888756,Jardiland,3681986,Bretagne,+33 2 99 13 29 10,https://www.jardiland.com/magasins/magasin-rennes-cap-malo,"{'opening_hours': {'Mon': '09:30-12:30, 14:00-19:00', 'Tue': '09:30-12:30, 14:00-19:00', 'Wed': '09:30-12:30, 14:00-19:00', 'Thu': '09:30-12:30, 14:00-19:00', 'Fri': '09:30-12:30, 14:00-19:00', 'Sat': '09:30-19:00', 'Sun': '09:30-13:00, 14:00-18:30'}}"
Route de Clisson,Basse-Goulaine,44115,FR,"{'Brand': 'Jardiland', 'fascia': 'Jardiland', 'category': 'Sports', 'edit_date': '20250311', 'lat_lon_source': 'Third Party'}",47.1872546,-1.47307728,Jardiland,3681967,Pays de la Loire,+33 2 40 34 02 44,https://www.jardiland.com/magasins/magasin-nantes-basse-goulaine,"{'opening_hours': {'Mon': '09:30-19:00', 'Tue': '09:30-19:00', 'Wed': '09:30-19:00', 'Thu': '09:30-19:00', 'Fri': '09:30-19:00', 'Sat': '09:30-19:00', 'Sun': '09:30-12:30, 14:00-18:30'}}"
Rue Hélène Boucher,Orvault,44700,FR,"{'Brand': 'Jardiland', 'fascia': 'Jardiland', 'category': 'Sports', 'edit_date': '20250311', 'lat_lon_source': 'Third Party'}",47.25289167,-1.62018836,Jardiland,3681972,Pays de la Loire,+33 2 28 01 75 75,https://www.jardiland.com/magasins/magasin-nantes-orvault,"{'opening_hours': {'Mon': '09:30-19:00', 'Tue': '09:30-19:00', 'Wed': '09:30-19:00', 'Thu': '09:30-19:00', 'Fri': '09:30-19:00', 'Sat': '09:30-19:00', 'Sun': '09:30-12:30, 14:30-18:30'}}"
30 Route de Ribérac,Chancelade,24650,FR,"{'Brand': 'Jardiland', 'fascia': 'Jardiland', 'category': 'Sports', 'edit_date': '20250311', 'lat_lon_source': 'Third Party'}",45.19898723,0.65988014,Jardiland,3681974,Nouvelle-Aquitaine,+33 5 53 05 68 68,https://www.jardiland.com/magasins/magasin-perigueux-chancelade,"{'opening_hours': {'Mon': '09:30-12:30, 14:00-19:00', 'Tue': '09:30-12:30, 14:00-19:00', 'Wed': '09:30-12:30, 14:00-19:00', 'Thu': '09:30-12:30, 14:00-19:00', 'Fri': '09:30-12:30, 14:00-19:00', 'Sat': '09:30-12:30, 14:00-19:00', 'Sun': '10:00-12:30, 14:30-19:00'}}"
2 Avenue des Métiers d'art,Béziers,34500,FR,"{'Brand': 'Jardiland', 'fascia': 'Jardiland', 'category': 'Sports', 'edit_date': '20250311', 'lat_lon_source': 'Third Party'}",43.35026337,3.25741916,Jardiland,3681971,Occitanie,+33 4 67 35 84 40,https://www.jardiland.com/magasins/magasin-beziers,"{'opening_hours': {'Mon': '09:30-19:00', 'Tue': '09:30-19:00', 'Wed': '09:30-19:00', 'Thu': '09:30-19:00', 'Fri': '09:30-19:00', 'Sat': '09:30-19:00', 'Sun': '10:00-12:30, 14:00-19:00'}}"
Rue des Capucins,Saintes,17100,FR,"{'Brand': 'Jardiland', 'fascia': 'Jardiland', 'category': 'Sports', 'edit_date': '20250311', 'lat_lon_source': 'Third Party'}",45.74175921,-0.65913542,Jardiland,3681976,Nouvelle-Aquitaine,+33 5 46 90 30 30,https://www.jardiland.com/magasins/magasin-saintes,"{'opening_hours': {'Mon': '09:30-19:00', 'Tue': '09:30-19:00', 'Wed': '09:30-19:00', 'Thu': '09:30-19:00', 'Fri': '09:30-19:00', 'Sat': '09:30-19:00', 'Sun': '10:00-12:30, 14:30-19:00'}}"
Rue Marcellin Berthelot,Vannes,56000,FR,"{'Brand': 'Jardiland', 'fascia': 'Jardiland', 'category': 'Sports', 'edit_date': '20250311', 'lat_lon_source': 'Third Party'}",47.66347445,-2.79318268,Jardiland,3681966,Bretagne,+33 2 97 62 06 06,https://www.jardiland.com/magasins/magasin-vannes,"{'opening_hours': {'Mon': '09:30-19:00', 'Tue': '09:30-19:00', 'Wed': '09:30-19:00', 'Thu': '09:30-19:00', 'Fri': '09:30-19:00', 'Sat': '09:30-19:00', 'Sun': '10:00-12:30, 14:30-18:30'}}"
300 Route de Kerviec,Lanester,56600,FR,"{'Brand': 'Jardiland', 'fascia': 'Jardiland', 'category': 'Sports', 'edit_date': '20250311', 'lat_lon_source': 'Third Party'}",47.7793702,-3.35260929,Jardiland,3681979,Bretagne,+33 2 97 89 36 36,https://www.jardiland.com/magasins/magasin-lanester-caudan,"{'opening_hours': {'Mon': '09:30-19:00', 'Tue': '09:30-19:00', 'Wed': '09:30-19:00', 'Thu': '09:30-19:00', 'Fri': '09:30-19:00', 'Sat': '09:30-19:00', 'Sun': '10:00-12:30, 14:00-18:30'}}"
Route de Cambo,Bassussarry,64200,FR,"{'Brand': 'Jardiland', 'fascia': 'Jardiland', 'category': 'Sports', 'edit_date': '20250311', 'lat_lon_source': 'Third Party'}",43.44489268,-1.48815817,Jardiland,3681978,Nouvelle-Aquitaine,+33 5 59 70 41 00,https://www.jardiland.com/magasins/magasin-bassussarry,"{'opening_hours': {'Mon': '09:30-19:00', 'Tue': '09:30-19:00', 'Wed': '09:30-19:00', 'Thu': '09:30-19:00', 'Fri': '09:30-19:00', 'Sat': '09:30-19:00', 'Sun': '10:00-12:30, 14:30-19:00'}}"
81 Rue de la Carrière,Lexy,54720,FR,"{'Brand': 'Jardiland', 'fascia': 'Jardiland', 'category': 'Sports', 'edit_date': '20250311', 'lat_lon_source': 'Third Party'}",49.51587035,5.74286544,Jardiland,3681877,Grand Est,+33 3 82 25 99 44,https://www.jardiland.com/magasins/magasin-longwy-lexy,"{'opening_hours': {'Mon': '09:30-12:00, 14:00-19:00', 'Tue': '09:30-12:00, 14:00-19:00', 'Wed': '09:30-12:00, 14:00-19:00', 'Thu': '09:30-12:00, 14:00-19:00', 'Fri': '09:30-19:00', 'Sat': '09:30-19:00', 'Sun': '09:30-12:30, 14:30-18:00'}}"
23 Avenue de Verdun,Saint-Dié-des-Vosges,88100,FR,"{'Brand': 'Jardiland', 'fascia': 'Jardiland', 'category': 'Sports', 'edit_date': '20250311', 'lat_lon_source': 'Third Party'}",48.29495179,6.93737703,Jardiland,3681898,Grand Est,+33 3 29 55 39 58,https://www.jardiland.com/magasins/magasin-saint-die-des-vosges,"{'opening_hours': {'Mon': '09:30-12:00, 14:00-19:00', 'Tue': '09:00-12:00, 14:00-19:00', 'Wed': '09:00-12:00, 14:00-19:00', 'Thu': '09:00-12:00, 14:00-19:00', 'Fri': '09:00-12:00, 14:00-19:00', 'Sat': '09:00-12:00, 14:00-19:00', 'Sun': '09:30-12:00, 14:30-18:00'}}"
33 Rue des Laps,Cormontreuil,51350,FR,"{'Brand': 'Jardiland', 'fascia': 'Jardiland', 'category': 'Sports', 'edit_date': '20250311', 'lat_lon_source': 'Third Party'}",49.21718632,4.04502126,Jardiland,3681883,Grand Est,+33 3 26 85 49 34,https://www.jardiland.com/magasins/magasin-cormontreuil,"{'opening_hours': {'Mon': '09:30-12:00, 14:00-19:00', 'Tue': '09:30-12:00, 14:00-19:00', 'Wed': '09:30-12:00, 14:00-19:00', 'Thu': '09:30-12:00, 14:00-19:00', 'Fri': '09:30-12:00, 14:00-19:00', 'Sat': '09:30-19:00', 'Sun': '10:00-12:30, 14:30-18:30'}}"
161 Route de Dole,Besançon,25000,FR,"{'Brand': 'Jardiland', 'fascia': 'Jardiland', 'category': 'Sports', 'edit_date': '20250311', 'lat_lon_source': 'Third Party'}",47.21951051,5.95427916,Jardiland,3681880,Bourgogne-Franche-Comté,+33 3 81 41 64 64,https://www.jardiland.com/magasins/magasin-besancon,"{'opening_hours': {'Mon': '09:30-19:00', 'Tue': '09:30-19:00', 'Wed': '09:30-19:00', 'Thu': '09:30-19:00', 'Fri': '09:30-19:00', 'Sat': '09:30-19:00', 'Sun': '09:30-12:00, 14:00-19:00'}}"
87 Rue de Salins,Pontarlier,25300,FR,"{'Brand': 'Jardiland', 'fascia': 'Jardiland', 'category': 'Sports', 'edit_date': '20250311', 'lat_lon_source': 'Third Party'}",46.90812855,6.33943102,Jardiland,3681889,Bourgogne-Franche-Comté,+33 3 81 46 54 72,https://www.jardiland.com/magasins/magasin-pontarlier,"{'opening_hours': {'Mon': '09:30-12:00, 14:00-19:00', 'Tue': '09:30-12:00, 14:00-19:00', 'Wed': '09:30-12:00, 14:00-19:00', 'Thu': '09:30-12:00, 14:00-19:00', 'Fri': '09:30-12:00, 14:00-19:00', 'Sat': '09:00-12:30, 13:30-19:00', 'Sun': 'Closed'}}"
664 Avenue Jean Moulin,Jaux,60880,FR,"{'Brand': 'Jardiland', 'fascia': 'Jardiland', 'category': 'Sports', 'edit_date': '20250311', 'lat_lon_source': 'Third Party'}",49.40845695,2.77396899,Jardiland,3681879,Hauts-de-France,+33 3 44 90 42 00,https://www.jardiland.com/magasins/magasin-compiegne,"{'opening_hours': {'Mon': '09:30-12:30, 14:00-19:00', 'Tue': '09:30-12:30, 14:00-19:00', 'Wed': '09:30-12:30, 14:00-19:00', 'Thu': '09:30-12:30, 14:00-19:00', 'Fri': '09:30-12:30, 14:00-19:00', 'Sat': '09:30-19:00', 'Sun': '09:30-12:30, 14:00-18:30'}}"
Avenue du Général Charles de Gaulle,Châtenoy-le-Royal,71880,FR,"{'Brand': 'Jardiland', 'fascia': 'Jardiland', 'category': 'Sports', 'edit_date': '20250311', 'lat_lon_source': 'Third Party'}",46.79547741,4.81427037,Jardiland,3681882,Bourgogne-Franche-Comté,+33 3 85 98 98 00,https://www.jardiland.com/magasins/magasin-chatenoy-le-royal,"{'opening_hours': {'Mon': '09:30-12:00, 14:00-19:00', 'Tue': '09:30-12:00, 14:00-19:00', 'Wed': '09:30-12:00, 14:00-19:00', 'Thu': '09:30-12:00, 14:00-19:00', 'Fri': '09:30-12:00, 14:00-19:00', 'Sat': '09:30-19:00', 'Sun': '09:30-12:30, 14:30-18:30'}}"
Avenue André Gautier,Étampes,91150,FR,"{'Brand': 'Jardiland', 'fascia': 'Jardiland', 'category': 'Sports', 'edit_date': '20250311', 'lat_lon_source': 'Third Party'}",48.42964213,2.1550095,Jardiland,3681901,Île-de-France,+33 1 60 80 02 02,https://www.jardiland.com/magasins/magasin-etampes,"{'opening_hours': {'Mon': '09:30-12:30, 14:00-19:00', 'Tue': '09:30-12:30, 14:00-19:00', 'Wed': '09:30-12:30, 14:00-19:00', 'Thu': '09:30-12:30, 14:00-19:00', 'Fri': '09:30-12:30, 14:00-19:00', 'Sat': '09:30-19:00', 'Sun': '09:30-13:00, 14:30-19:00'}}"
Route de Paris,Le Vieil-Évreux,27930,FR,"{'Brand': 'Jardiland', 'fascia': 'Jardiland', 'category': 'Sports', 'edit_date': '20250311', 'lat_lon_source': 'Third Party'}",49.01447744,1.19318012,Jardiland,3681895,Normandie,+33 2 32 62 27 10,https://www.jardiland.com/magasins/magasin-le-vieil-evreux,"{'opening_hours': {'Mon': '10:00-12:30, 14:00-19:00', 'Tue': '10:00-12:30, 14:00-19:00', 'Wed': '10:00-12:30, 14:00-19:00', 'Thu': '10:00-12:30, 14:00-19:00', 'Fri': '10:00-12:30, 14:00-19:00', 'Sat': '10:00-12:30, 14:00-19:00', 'Sun': '10:00-12:30, 14:00-18:30'}}"
5 Rue des Terres Noires,Saint-Maur,36250,FR,"{'Brand': 'Jardiland', 'fascia': 'Jardiland', 'category': 'Sports', 'edit_date': '20250311', 'lat_lon_source': 'Third Party'}",46.78245575,1.65196717,Jardiland,3681894,Centre-Val de Loire,+33 2 54 61 10 00,https://www.jardiland.com/magasins/magasin-chateauroux-saint-maur,"{'opening_hours': {'Mon': '09:30-12:30, 14:00-19:00', 'Tue': '09:30-12:30, 14:00-19:00', 'Wed': '09:30-12:30, 14:00-19:00', 'Thu': '09:30-12:30, 14:00-19:00', 'Fri': '09:30-12:30, 14:00-19:00', 'Sat': '09:30-19:00', 'Sun': '10:00-12:30, 14:30-18:30'}}"
Rue Emile Galle,Forbach,57600,FR,"{'Brand': 'Jardiland', 'fascia': 'Jardiland', 'category': 'Sports', 'edit_date': '20250311', 'lat_lon_source': 'Third Party'}",49.17615991,6.87959734,Jardiland,3681864,Grand Est,+33 3 87 85 06 77,https://www.jardiland.com/magasins/magasin-forbach,"{'opening_hours': {'Mon': '09:30-12:00, 14:00-19:00', 'Tue': '09:30-12:00, 14:00-19:00', 'Wed': '09:30-12:00, 14:00-19:00', 'Thu': '09:30-12:00, 14:00-19:00', 'Fri': '09:30-12:00, 14:00-19:00', 'Sat': '09:30-12:00, 14:00-19:00', 'Sun': 'Closed'}}"
50 Rue de la Gare,Geispolsheim,67118,FR,"{'Brand': 'Jardiland', 'fascia': 'Jardiland', 'category': 'Sports', 'edit_date': '20250311', 'lat_lon_source': 'Third Party'}",48.51734176,7.67143626,Jardiland,3681860,Grand Est,+33 3 88 55 41 50,https://www.jardiland.com/magasins/magasin-strasbourg-geispolsheim,"{'opening_hours': {'Mon': '09:00-12:00, 14:00-18:30', 'Tue': '09:00-12:00, 14:00-18:30', 'Wed': '09:00-12:00, 14:00-18:30', 'Thu': '09:00-12:00, 14:00-18:30', 'Fri': '09:00-12:00, 14:00-18:30', 'Sat': '09:00-18:00', 'Sun': 'Closed'}}"
30 Rue Louis Lepitre,Langres,52200,FR,"{'Brand': 'Jardiland', 'fascia': 'Jardiland', 'category': 'Sports', 'edit_date': '20250311', 'lat_lon_source': 'Third Party'}",47.8446142,5.33012176,Jardiland,3681874,Grand Est,+33 3 25 87 01 45,https://www.jardiland.com/magasins/magasin-langres,"{'opening_hours': {'Mon': '09:30-12:00, 14:00-19:00', 'Tue': '09:30-12:00, 14:00-19:00', 'Wed': '09:30-12:00, 14:00-19:00', 'Thu': '09:30-12:00, 14:00-19:00', 'Fri': '09:30-12:00, 14:00-19:00', 'Sat': '09:30-12:00, 14:00-19:00', 'Sun': 'Closed'}}"
597 Avenue des Alliés,Audruicq,62370,FR,"{'Brand': 'Jardiland', 'fascia': 'Jardiland', 'category': 'Sports', 'edit_date': '20250311', 'lat_lon_source': 'Third Party'}",50.87055252,2.07150155,Jardiland,3681857,Hauts-de-France,+33 3 21 85 70 80,https://www.jardiland.com/magasins/magasin-audruicq,"{'opening_hours': {'Mon': '09:30-12:00, 14:00-19:00', 'Tue': '09:30-12:00, 14:00-19:00', 'Wed': '09:30-12:00, 14:00-19:00', 'Thu': '09:30-12:00, 14:00-19:00', 'Fri': '09:30-12:00, 14:00-19:00', 'Sat': '09:30-12:00, 14:00-19:00', 'Sun': '09:30-12:30, 14:30-18:00'}}"
81 Avenue Général de Gaulle,Saint-Parres-aux-Tertres,10410,FR,"{'Brand': 'Jardiland', 'fascia': 'Jardiland', 'category': 'Sports', 'edit_date': '20250311', 'lat_lon_source': 'Third Party'}",48.29797236,4.12400671,Jardiland,3616027,Grand Est,+33 3 25 80 99 99,https://www.jardiland.com/magasins/magasin-troyes-saint-parres-aux-tertres,"{'opening_hours': {'Mon': '09:30-12:00, 14:00-19:00', 'Tue': '09:30-12:00, 14:00-19:00', 'Wed': '09:30-12:00, 14:00-19:00', 'Thu': '09:30-12:00, 14:00-19:00', 'Fri': '09:30-12:00, 14:00-19:00', 'Sat': '09:30-19:00', 'Sun': '10:00-12:30, 14:30-18:30'}}"
150 Avenue de l'Europe,Amiens,80080,FR,"{'Brand': 'Jardiland', 'fascia': 'Jardiland', 'category': 'Sports', 'edit_date': '20250311', 'lat_lon_source': 'Third Party'}",49.92440237,2.30648759,Jardiland,3681862,Hauts-de-France,+33 3 22 22 68 70,https://www.jardiland.com/magasins/magasin-amiens,"{'opening_hours': {'Mon': '09:30-19:00', 'Tue': '09:30-19:00', 'Wed': '09:30-19:00', 'Thu': '09:30-19:00', 'Fri': '09:30-19:00', 'Sat': '09:30-19:00', 'Sun': '10:00-12:30, 14:30-18:30'}}"
Rue Sainte-Colombe,Saint-Clément,89100,FR,"{'Brand': 'Jardiland', 'fascia': 'Jardiland', 'category': 'Sports', 'edit_date': '20250311', 'lat_lon_source': 'Third Party'}",48.2239468,3.283692,Jardiland,3681870,Bourgogne-Franche-Comté,+33 3 86 64 37 64,https://www.jardiland.com/magasins/magasin-saint-clement,"{'opening_hours': {'Mon': '09:30-12:00, 14:00-19:00', 'Tue': '09:30-12:00, 14:00-19:00', 'Wed': '09:30-12:00, 14:00-19:00', 'Thu': '09:30-12:00, 14:00-19:00', 'Fri': '09:30-12:00, 14:00-19:00', 'Sat': '09:30-19:00', 'Sun': '09:30-12:30, 14:30-18:30'}}"
Rond-Point Porte du Gâtinais,Dadonville,45300,FR,"{'Brand': 'Jardiland', 'fascia': 'Jardiland', 'category': 'Sports', 'edit_date': '20250311', 'lat_lon_source': 'Third Party'}",48.16263674,2.2546151,Jardiland,3681869,Centre-Val de Loire,+33 2 38 33 04 44,https://www.jardiland.com/magasins/magasin-dadonville,"{'opening_hours': {'Mon': '09:30-12:30, 14:00-19:00', 'Tue': '09:30-12:30, 14:00-19:00', 'Wed': '09:30-12:30, 14:00-19:00', 'Thu': '09:30-12:30, 14:00-19:00', 'Fri': '09:30-12:30, 14:00-19:00', 'Sat': '09:30-19:00', 'Sun': '10:00-12:30, 14:00-18:30'}}"
13 Rue Claude Lewy,Orléans,45100,FR,"{'Brand': 'Jardiland', 'fascia': 'Jardiland', 'category': 'Sports', 'edit_date': '20250311', 'lat_lon_source': 'Third Party'}",47.8850739,1.8984822,Jardiland,3616014,Centre-Val de Loire,+33 2 38 22 62 10,https://www.jardiland.com/magasins/magasin-orleans-sud,"{'opening_hours': {'Mon': '09:30-12:30, 14:00-19:00', 'Tue': '09:30-12:30, 14:00-19:00', 'Wed': '09:30-12:30, 14:00-19:00', 'Thu': '09:30-12:30, 14:00-19:00', 'Fri': '09:30-12:30, 14:00-19:00', 'Sat': '09:30-19:00', 'Sun': '09:30-12:30, 14:00-18:30'}}"
1 Impasse des Marcassins,Bessoncourt,90160,FR,"{'Brand': 'Jardiland', 'fascia': 'Jardiland', 'category': 'Sports', 'edit_date': '20250311', 'lat_lon_source': 'Third Party'}",47.64189269,6.91124552,Jardiland,3682001,Bourgogne-Franche-Comté,+33 3 84 30 50 30,https://www.jardiland.com/magasins/magasin-belfort-bessoncourt,"{'opening_hours': {'Mon': '09:00-12:00, 14:00-19:00', 'Tue': '09:00-12:00, 14:00-19:00', 'Wed': '09:00-12:00, 14:00-19:00', 'Thu': '09:00-12:00, 14:00-19:00', 'Fri': '09:00-12:00, 14:00-19:00', 'Sat': '09:00-12:00, 14:00-19:00', 'Sun': '09:30-12:00, 14:30-18:00'}}"
134 Avenue Pierre Mendès France,Laon,02000,FR,"{'Brand': 'Jardiland', 'fascia': 'Jardiland', 'category': 'Sports', 'edit_date': '20250311', 'lat_lon_source': 'Third Party'}",49.58116323,3.64468139,Jardiland,3682018,Hauts-de-France,+33 3 23 79 04 48,https://www.jardiland.com/magasins/magasin-laon,"{'opening_hours': {'Mon': '09:30-12:00, 14:00-19:00', 'Tue': '09:30-12:00, 14:00-19:00', 'Wed': '09:30-12:00, 14:00-19:00', 'Thu': '09:30-12:00, 14:00-19:00', 'Fri': '09:30-12:00, 14:00-19:00', 'Sat': '09:30-19:00', 'Sun': '10:00-12:30, 14:30-18:30'}}"
D14,Flins-sur-Seine,78410,FR,"{'Brand': 'Jardiland', 'fascia': 'Jardiland', 'category': 'Sports', 'edit_date': '20250311', 'lat_lon_source': 'Third Party'}",48.96848877,1.86836693,Jardiland,3682000,Île-de-France,+33 1 30 95 18 19,https://www.jardiland.com/magasins/magasin-flins-sur-seine,"{'opening_hours': {'Mon': '10:00-19:00', 'Tue': '10:00-19:00', 'Wed': '10:00-19:00', 'Thu': '10:00-19:00', 'Fri': '10:00-19:00', 'Sat': '09:30-19:00', 'Sun': '10:00-19:00'}}"
1 Rue du Fromenteau,Gometz-le-Châtel,91940,FR,"{'Brand': 'Jardiland', 'fascia': 'Jardiland', 'category': 'Sports', 'edit_date': '20250311', 'lat_lon_source': 'Third Party'}",48.67869231,2.13330078,Jardiland,3681995,Île-de-France,+33 1 60 12 75 75,https://www.jardiland.com/magasins/magasin-gometz-le-chatel,"{'opening_hours': {'Mon': '10:00-19:00', 'Tue': '10:00-19:00', 'Wed': '10:00-19:00', 'Thu': '10:00-19:00', 'Fri': '10:00-19:00', 'Sat': '10:00-19:00', 'Sun': '10:00-18:30'}}"
55 Route de Paris,Saint-Aubin-sur-Scie,76550,FR,"{'Brand': 'Jardiland', 'fascia': 'Jardiland', 'category': 'Sports', 'edit_date': '20250311', 'lat_lon_source': 'Third Party'}",49.89395361,1.07821047,Jardiland,3682004,Normandie,+33 2 35 06 83 10,https://www.jardiland.com/magasins/magasin-dieppe-saint-aubin-sur-scie,"{'opening_hours': {'Mon': '09:30-12:30, 14:00-19:00', 'Tue': '09:30-12:30, 14:00-19:00', 'Wed': '09:30-12:30, 14:00-19:00', 'Thu': '09:30-12:30, 14:00-19:00', 'Fri': '09:30-12:30, 14:00-19:00', 'Sat': '09:30-19:00', 'Sun': '10:00-13:00, 14:00-19:00'}}"
851 Route de Paris,Viriat,01440,FR,"{'Brand': 'Jardiland', 'fascia': 'Jardiland', 'category': 'Sports', 'edit_date': '20250311', 'lat_lon_source': 'Third Party'}",46.22112233,5.20707048,Jardiland,3682017,Auvergne-Rhône-Alpes,+33 4 74 50 65 40,https://www.jardiland.com/magasins/magasin-viriat-bourg-en-bresse,"{'opening_hours': {'Mon': '09:30-12:30, 14:00-19:00', 'Tue': '09:30-12:30, 14:00-19:00', 'Wed': '09:30-12:30, 14:00-19:00', 'Thu': '09:30-12:30, 14:00-19:00', 'Fri': '09:30-12:30, 14:00-19:00', 'Sat': '09:30-12:30, 14:00-19:00', 'Sun': '09:30-12:30, 14:00-19:00'}}"
6 Route de Vendome,Villebarou,41000,FR,"{'Brand': 'Jardiland', 'fascia': 'Jardiland', 'category': 'Sports', 'edit_date': '20250311', 'lat_lon_source': 'Third Party'}",47.62100114,1.2986921,Jardiland,3681993,Centre-Val de Loire,+33 2 54 33 50 30,https://www.jardiland.com/magasins/magasin-blois-villebarou,"{'opening_hours': {'Mon': '09:30-12:30, 14:00-19:00', 'Tue': '09:30-12:30, 14:00-19:00', 'Wed': '09:30-12:30, 14:00-19:00', 'Thu': '09:30-12:30, 14:00-19:00', 'Fri': '09:30-12:30, 14:00-19:00', 'Sat': '09:30-19:00', 'Sun': '09:30-12:30, 14:00-18:30'}}"
Rte d'Arnage,Ruaudin,72230,FR,"{'Brand': 'Jardiland', 'fascia': 'Jardiland', 'category': 'Sports', 'edit_date': '20250311', 'lat_lon_source': 'Third Party'}",47.94381504,0.23536412,Jardiland,3681987,Pays de la Loire,+33 2 43 50 54 00,https://www.jardiland.com/magasins/magasin-le-mans-ruaudin,"{'opening_hours': {'Mon': '10:00-19:30', 'Tue': '10:00-19:30', 'Wed': '10:00-19:30', 'Thu': '10:00-19:30', 'Fri': '10:00-19:30', 'Sat': '10:00-19:30', 'Sun': '10:00-12:30, 14:00-18:30'}}"
1586 Avenue Jean Lachenaud,Fréjus,83600,FR,"{'Brand': 'Jardiland', 'fascia': 'Jardiland', 'category': 'Sports', 'edit_date': '20250311', 'lat_lon_source': 'Third Party'}",43.47024049,6.73816502,Jardiland,3681990,Provence-Alpes-Côte d'Azur,+33 4 98 12 14 10,https://www.jardiland.com/magasins/magasin-frejus,"{'opening_hours': {'Mon': '09:30-19:00', 'Tue': '09:30-19:00', 'Wed': '09:30-19:00', 'Thu': '09:30-19:00', 'Fri': '09:30-19:00', 'Sat': '09:30-19:00', 'Sun': '09:30-19:00'}}"
Parc de la Baie,Avranches,50300,FR,"{'Brand': 'Jardiland', 'fascia': 'Jardiland', 'category': 'Sports', 'edit_date': '20250311', 'lat_lon_source': 'Third Party'}",48.65494889,-1.35157992,Jardiland,3681875,Normandie,+33 2 33 79 43 43,https://www.jardiland.com/magasins/magasin-avranches-saint-martin-des-champs,"{'opening_hours': {'Mon': '09:30-12:30, 14:00-19:00', 'Tue': '09:30-12:30, 14:00-19:00', 'Wed': '09:30-12:30, 14:00-19:00', 'Thu': '09:30-12:30, 14:00-19:00', 'Fri': '09:30-12:30, 14:00-19:00', 'Sat': '09:30-13:00, 14:00-19:00', 'Sun': '10:00-12:30, 14:00-18:30'}}"
8 Rue Eugène Brémond,Cholet,49300,FR,"{'Brand': 'Jardiland', 'fascia': 'Jardiland', 'category': 'Sports', 'edit_date': '20250311', 'lat_lon_source': 'Third Party'}",47.07061286,-0.9029317,Jardiland,3681881,Pays de la Loire,+33 2 41 56 22 97,https://www.jardiland.com/magasins/magasin-cholet,"{'opening_hours': {'Mon': '09:30-12:30, 14:00-19:00', 'Tue': '09:30-12:30, 14:00-19:00', 'Wed': '09:30-12:30, 14:00-19:00', 'Thu': '09:30-12:30, 14:00-19:00', 'Fri': '09:30-12:30, 14:00-19:00', 'Sat': '09:30-19:00', 'Sun': '10:00-12:30, 14:00-18:30'}}"
Route de Paris,Carquefou,44470,FR,"{'Brand': 'Jardiland', 'fascia': 'Jardiland', 'category': 'Sports', 'edit_date': '20250311', 'lat_lon_source': 'Third Party'}",47.2676368,-1.48572233,Jardiland,3681902,Pays de la Loire,+33 2 40 30 16 96,https://www.jardiland.com/magasins/magasin-nantes-carquefou,"{'opening_hours': {'Mon': '09:30-13:00, 14:00-19:00', 'Tue': '09:30-13:00, 14:00-19:00', 'Wed': '09:30-13:00, 14:00-19:00', 'Thu': '09:30-13:00, 14:00-19:00', 'Fri': '09:30-13:00, 14:00-19:00', 'Sat': '09:30-19:00', 'Sun': '10:00-12:30, 14:30-18:30'}}"
Rue des Aigrettes,Trignac,44570,FR,"{'Brand': 'Jardiland', 'fascia': 'Jardiland', 'category': 'Sports', 'edit_date': '20250311', 'lat_lon_source': 'Third Party'}",47.29719566,-2.20843254,Jardiland,3681890,Pays de la Loire,+33 2 40 90 30 95,https://www.jardiland.com/magasins/magasin-saint-nazaire-trignac,"{'opening_hours': {'Mon': '09:30-12:30, 14:00-19:00', 'Tue': '09:30-12:30, 14:00-19:00', 'Wed': '09:30-12:30, 14:00-19:00', 'Thu': '09:30-12:30, 14:00-19:00', 'Fri': '09:30-12:30, 14:00-19:00', 'Sat': '09:30-19:00', 'Sun': '10:00-12:30, 14:30-18:30'}}"
75 Rue de Poul Palud,Trégastel,22730,FR,"{'Brand': 'Jardiland', 'fascia': 'Jardiland', 'category': 'Sports', 'edit_date': '20250311', 'lat_lon_source': 'Third Party'}",48.82373325,-3.49814365,Jardiland,3681897,Bretagne,+33 2 96 15 34 26,https://www.jardiland.com/magasins/magasin-tregastel,"{'opening_hours': {'Mon': '09:30-12:30, 14:30-19:00', 'Tue': '09:30-12:30, 14:30-19:00', 'Wed': '09:30-12:30, 14:30-19:00', 'Thu': '09:30-12:30, 14:30-19:00', 'Fri': '09:30-12:30, 14:30-19:00', 'Sat': '09:30-12:30, 14:30-19:00', 'Sun': '10:00-12:30'}}"
2 Allée de Port-Vendres,L'Union,31240,FR,"{'Brand': 'Jardiland', 'fascia': 'Jardiland', 'category': 'Sports', 'edit_date': '20250311', 'lat_lon_source': 'Third Party'}",43.64914051,1.47217485,Jardiland,3681892,Occitanie,+33 5 62 89 30 20,https://www.jardiland.com/magasins/magasin-toulouse-l-union,"{'opening_hours': {'Mon': '09:30-12:30, 14:00-19:00', 'Tue': '09:30-12:30, 14:00-19:00', 'Wed': '09:30-12:30, 14:00-19:00', 'Thu': '09:30-12:30, 14:00-19:00', 'Fri': '09:30-12:30, 14:00-19:00', 'Sat': '09:30-12:30, 14:00-19:00', 'Sun': '10:00-12:30, 14:30-19:00'}}"
2-16 Avenue des Pyrénées,Villenave-d'Ornon,33140,FR,"{'Brand': 'Jardiland', 'fascia': 'Jardiland', 'category': 'Sports', 'edit_date': '20250311', 'lat_lon_source': 'Third Party'}",44.77668771,-0.56052104,Jardiland,3681884,Nouvelle-Aquitaine,+33 5 57 99 52 00,https://www.jardiland.com/magasins/magasin-villenave-d-ornon-bordeaux,"{'opening_hours': {'Mon': '09:00-19:00', 'Tue': '09:00-19:00', 'Wed': '09:00-19:00', 'Thu': '09:00-19:00', 'Fri': '09:00-19:00', 'Sat': '09:00-19:00', 'Sun': '09:30-12:30, 14:30-18:30'}}"
327 Rue du Val de la Couture,Bernay,27300,FR,"{'Brand': 'Jardiland', 'fascia': 'Jardiland', 'category': 'Sports', 'edit_date': '20250311', 'lat_lon_source': 'Third Party'}",49.08508384,0.60091221,Jardiland,3681872,Normandie,+33 2 32 43 50 71,https://www.jardiland.com/magasins/magasin-bernay,"{'opening_hours': {'Mon': '09:30-12:00, 14:00-19:00', 'Tue': '09:30-12:00, 14:00-19:00', 'Wed': '09:30-12:00, 14:00-19:00', 'Thu': '09:30-12:00, 14:00-19:00', 'Fri': '09:30-12:00, 14:00-19:00', 'Sat': '09:30-13:00, 14:00-19:00', 'Sun': '10:00-12:30, 14:30-18:30'}}"
Route de la Charité,Saint-Germain-du-Puy,18390,FR,"{'Brand': 'Jardiland', 'fascia': 'Jardiland', 'category': 'Sports', 'edit_date': '20250311', 'lat_lon_source': 'Third Party'}",47.09520311,2.45435536,Jardiland,3616028,Centre-Val de Loire,+33 2 48 23 12 10,https://www.jardiland.com/magasins/magasin-bourges-saint-germain-du-puy,"{'opening_hours': {'Mon': '09:30-19:00', 'Tue': '09:30-19:00', 'Wed': '09:30-19:00', 'Thu': '09:30-19:00', 'Fri': '09:30-19:00', 'Sat': '09:30-19:00', 'Sun': '09:30-12:30, 14:30-19:00'}}"
46 Avenue Georges Duval,Glos,14100,FR,"{'Brand': 'Jardiland', 'fascia': 'Jardiland', 'category': 'Sports', 'edit_date': '20250311', 'lat_lon_source': 'Third Party'}",49.145942,0.2790048,Jardiland,3681856,Normandie,+33 2 31 31 88 00,https://www.jardiland.com/magasins/magasin-lisieux-glos,"{'opening_hours': {'Mon': '09:30-19:00', 'Tue': '09:30-19:00', 'Wed': '09:30-19:00', 'Thu': '09:30-19:00', 'Fri': '09:30-19:00', 'Sat': '09:30-19:00', 'Sun': '10:00-12:30, 14:30-18:30'}}"
59 Avenue de Provence,Fréjus,83600,FR,"{'Brand': 'Jardiland', 'fascia': 'Jardiland', 'category': 'Sports', 'edit_date': '20250311', 'lat_lon_source': 'Third Party'}",43.4289584,6.7381093,Jardiland,3681859,Provence-Alpes-Côte d'Azur,+33 4 94 19 77 86,https://www.jardiland.com/magasins/magasin-frejus-centre,"{'opening_hours': {'Mon': '09:00-19:00', 'Tue': '09:00-19:00', 'Wed': '09:00-19:00', 'Thu': '09:00-19:00', 'Fri': '09:00-19:00', 'Sat': '09:00-19:00', 'Sun': '09:00-19:00'}}"
Rue du Pigeon Blanc,Lécousse,35133,FR,"{'Brand': 'Jardiland', 'fascia': 'Jardiland', 'category': 'Sports', 'edit_date': '20250311', 'lat_lon_source': 'Third Party'}",48.35328372,-1.22760379,Jardiland,3681871,Bretagne,+33 2 99 99 20 46,https://www.jardiland.com/magasins/magasin-fougere-lecousse,"{'opening_hours': {'Mon': '09:30-12:00, 14:00-19:00', 'Tue': '09:30-12:00, 14:00-19:00', 'Wed': '09:30-12:00, 14:00-19:00', 'Thu': '09:30-12:00, 14:00-19:00', 'Fri': '09:30-12:00, 14:00-19:00', 'Sat': '09:30-12:30, 14:00-19:00', 'Sun': '10:00-12:30, 14:00-18:30'}}"
D559,La Londe-les-Maures,83250,FR,"{'Brand': 'Jardiland', 'fascia': 'Jardiland', 'category': 'Sports', 'edit_date': '20250311', 'lat_lon_source': 'Third Party'}",43.12785621,6.21297157,Jardiland,3681866,Provence-Alpes-Côte d'Azur,+33 4 94 00 41 00,https://www.jardiland.com/magasins/magasin-Lalonde,"{'opening_hours': {'Mon': '09:00-12:30, 14:00-19:00', 'Tue': '09:00-12:30, 14:00-19:00', 'Wed': '09:00-12:30, 14:00-19:00', 'Thu': '09:00-12:30, 14:00-19:00', 'Fri': '09:00-12:30, 14:00-19:00', 'Sat': '09:00-12:30, 14:00-19:00', 'Sun': '09:30-12:30, 14:00-19:00'}}"
1 Rue du Général Patton,Châteaubriant,44110,FR,"{'Brand': 'Jardiland', 'fascia': 'Jardiland', 'category': 'Sports', 'edit_date': '20250311', 'lat_lon_source': 'Third Party'}",47.70410635,-1.38788792,Jardiland,3681858,Pays de la Loire,+33 2 40 81 05 21,https://www.jardiland.com/magasins/magasin-chateaubriant,"{'opening_hours': {'Mon': '09:30-19:00', 'Tue': '09:30-19:00', 'Wed': '09:30-19:00', 'Thu': '09:30-19:00', 'Fri': '09:30-19:00', 'Sat': '09:30-19:00', 'Sun': '10:00-12:30'}}"
Rue Charles Guieu,Brive-la-Gaillarde,19100,FR,"{'Brand': 'Jardiland', 'fascia': 'Jardiland', 'category': 'Sports', 'edit_date': '20250311', 'lat_lon_source': 'Third Party'}",45.1671793,1.5446225,Jardiland,3616016,Nouvelle-Aquitaine,+33 5 55 17 60 60,https://www.jardiland.com/magasins/magasin-brive-la-gaillarde,"{'opening_hours': {'Mon': '09:30-12:30, 14:00-19:00', 'Tue': '09:30-12:30, 14:00-19:00', 'Wed': '09:30-12:30, 14:00-19:00', 'Thu': '09:30-12:30, 14:00-19:00', 'Fri': '09:30-12:30, 14:00-19:00', 'Sat': '09:30-19:00', 'Sun': '09:30-12:30, 14:00-19:00'}}"
Rue de l'Auvent,Champniers,16430,FR,"{'Brand': 'Jardiland', 'fascia': 'Jardiland', 'category': 'Sports', 'edit_date': '20250311', 'lat_lon_source': 'Third Party'}",45.69257103,0.18541077,Jardiland,3616017,Nouvelle-Aquitaine,+33 5 45 69 38 29,https://www.jardiland.com/magasins/magasin-champniers-angouleme,"{'opening_hours': {'Mon': '09:30-12:30, 14:00-19:00', 'Tue': '09:30-12:30, 14:00-19:00', 'Wed': '09:30-12:30, 14:00-19:00', 'Thu': '09:30-12:30, 14:00-19:00', 'Fri': '09:30-12:30, 14:00-19:00', 'Sat': '09:30-12:30, 14:00-19:00', 'Sun': '10:00-12:30, 14:30-19:00'}}"
Rue Claude Chappe,La Roche-sur-Yon,85000,FR,"{'Brand': 'Jardiland', 'fascia': 'Jardiland', 'category': 'Sports', 'edit_date': '20250311', 'lat_lon_source': 'Third Party'}",46.70512168,-1.43186363,Jardiland,3616018,Pays de la Loire,+33 2 51 37 41 83,https://www.jardiland.com/magasins/magasin-la-roche-sur-yon,"{'opening_hours': {'Mon': '09:30-12:30, 14:00-19:00', 'Tue': '09:30-12:30, 14:00-19:00', 'Wed': '09:30-12:30, 14:00-19:00', 'Thu': '09:30-12:30, 14:00-19:00', 'Fri': '09:30-12:30, 14:00-19:00', 'Sat': '09:30-19:00', 'Sun': '10:00-12:30, 14:30-18:30'}}"
160 Rue de Nexon,Limoges,87000,FR,"{'Brand': 'Jardiland', 'fascia': 'Jardiland', 'category': 'Sports', 'edit_date': '20250311', 'lat_lon_source': 'Third Party'}",45.8126935,1.25328362,Jardiland,3681994,Nouvelle-Aquitaine,+33 5 55 75 45 00,https://www.jardiland.com/magasins/magasin-limoges-sud,"{'opening_hours': {'Mon': '09:30-19:00', 'Tue': '09:30-19:00', 'Wed': '09:30-19:00', 'Thu': '09:30-19:00', 'Fri': '09:30-19:00', 'Sat': '09:30-19:00', 'Sun': '09:30-12:30, 14:30-19:00'}}"
La Croix Desilles,Saint-Malo,35400,FR,"{'Brand': 'Jardiland', 'fascia': 'Jardiland', 'category': 'Sports', 'edit_date': '20250311', 'lat_lon_source': 'Third Party'}",48.65954825,-1.96773386,Jardiland,3681988,Bretagne,+33 2 99 82 47 64,https://www.jardiland.com/magasins/magasin-saint-malo,"{'opening_hours': {'Mon': '09:30-12:30, 14:00-19:00', 'Tue': '09:30-12:30, 14:00-19:00', 'Wed': '09:30-12:30, 14:00-19:00', 'Thu': '09:30-12:30, 14:00-19:00', 'Fri': '09:30-12:30, 14:00-19:00', 'Sat': '09:30-19:00', 'Sun': '10:00-13:00, 14:30-19:00'}}"
232 Allée des 4 Chemins,La Garde,83130,FR,"{'Brand': 'Jardiland', 'fascia': 'Jardiland', 'category': 'Sports', 'edit_date': '20250311', 'lat_lon_source': 'Third Party'}",43.13579705,6.02424127,Jardiland,3681997,Provence-Alpes-Côte d'Azur,+33 4 94 08 55 65,https://www.jardiland.com/magasins/magasin-toulon-la-garde,"{'opening_hours': {'Mon': '09:00-19:00', 'Tue': '09:00-19:00', 'Wed': '09:00-19:00', 'Thu': '09:00-19:00', 'Fri': '09:00-19:00', 'Sat': '09:00-19:00', 'Sun': '09:30-12:30, 14:00-19:00'}}"
Zone Industrielle du Coutal,Terrasson-Lavilledieu,24120,FR,"{'Brand': 'Jardiland', 'fascia': 'Jardiland', 'category': 'Sports', 'edit_date': '20250311', 'lat_lon_source': 'Third Party'}",45.12998828,1.32772028,Jardiland,3682007,Nouvelle-Aquitaine,+33 5 53 50 00 00,https://www.jardiland.com/magasins/magasin-terrasson-lavilledieu-brive,"{'opening_hours': {'Mon': '09:30-12:00, 14:00-19:00', 'Tue': '09:30-12:00, 14:00-19:00', 'Wed': '09:30-12:00, 14:00-19:00', 'Thu': '09:30-12:00, 14:00-19:00', 'Fri': '09:30-12:00, 14:00-19:00', 'Sat': '09:30-12:30, 14:00-19:00', 'Sun': '10:00-12:30, 14:30-18:30'}}"
2 Rue Tastavin Llopis,Pézenas,34120,FR,"{'Brand': 'Jardiland', 'fascia': 'Jardiland', 'category': 'Sports', 'edit_date': '20250311', 'lat_lon_source': 'Third Party'}",43.46290096,3.41639936,Jardiland,3682006,Occitanie,+33 4 67 98 14 23,https://www.jardiland.com/magasins/magasin-pezenas,"{'opening_hours': {'Mon': '09:00-12:30, 14:00-19:00', 'Tue': '09:00-12:30, 14:00-19:00', 'Wed': '09:00-12:30, 14:00-19:00', 'Thu': '09:00-12:30, 14:00-19:00', 'Fri': '09:00-12:30, 14:00-19:00', 'Sat': '09:00-12:30, 14:00-19:00', 'Sun': '09:00-12:30, 14:30-19:00'}}"
Rue du Traité de Lisbonne,Pornic,44210,FR,"{'Brand': 'Jardiland', 'fascia': 'Jardiland', 'category': 'Sports', 'edit_date': '20250311', 'lat_lon_source': 'Third Party'}",47.12804562,-2.12562382,Jardiland,3681999,Pays de la Loire,+33 2 40 64 09 40,https://www.jardiland.com/magasins/magasin-pornic,"{'opening_hours': {'Mon': '09:30-12:30, 14:00-19:00', 'Tue': '09:30-12:30, 14:00-19:00', 'Wed': '09:30-12:30, 14:00-19:00', 'Thu': '09:30-12:30, 14:00-19:00', 'Fri': '09:30-12:30, 14:00-19:00', 'Sat': '09:30-19:00', 'Sun': '10:00-12:30, 14:30-18:30'}}"
Avenue des Ormeaux,Angoulins,17690,FR,"{'Brand': 'Jardiland', 'fascia': 'Jardiland', 'category': 'Sports', 'edit_date': '20250311', 'lat_lon_source': 'Third Party'}",46.10227109,-1.09793719,Jardiland,3681989,Nouvelle-Aquitaine,+33 5 46 51 34 00,https://www.jardiland.com/magasins/magasin-angoulins-sur-mer-la-rochelle,"{'opening_hours': {'Mon': '09:30-19:00', 'Tue': '09:30-19:00', 'Wed': '09:30-19:00', 'Thu': '09:30-19:00', 'Fri': '09:30-19:00', 'Sat': '09:30-19:00', 'Sun': '10:00-12:30, 14:30-19:00'}}"
Rue de Brehany,Guérande,44350,FR,"{'Brand': 'Jardiland', 'fascia': 'Jardiland', 'category': 'Sports', 'edit_date': '20250311', 'lat_lon_source': 'Third Party'}",47.32235772,-2.41114636,Jardiland,3682003,Pays de la Loire,+33 2 40 11 25 70,https://www.jardiland.com/magasins/magasin-guerande,"{'opening_hours': {'Mon': '09:30-12:30, 14:00-19:00', 'Tue': '09:30-12:30, 14:00-19:00', 'Wed': '09:30-12:30, 14:00-19:00', 'Thu': '09:30-12:30, 14:00-19:00', 'Fri': '09:30-12:30, 14:00-19:00', 'Sat': '09:30-19:00', 'Sun': '10:00-12:30, 14:30-18:30'}}"
1849 Avenue de l'Europe,Montauban,82000,FR,"{'Brand': 'Jardiland', 'fascia': 'Jardiland', 'category': 'Sports', 'edit_date': '20250311', 'lat_lon_source': 'Third Party'}",43.98332596,1.3320909,Jardiland,3681996,Occitanie,+33 5 63 20 24 00,https://www.jardiland.com/magasins/magasin-montauban-sud-albasud,"{'opening_hours': {'Mon': '09:30-19:00', 'Tue': '09:30-19:00', 'Wed': '09:30-19:00', 'Thu': '09:30-19:00', 'Fri': '09:30-19:00', 'Sat': '09:30-19:00', 'Sun': '10:00-12:30, 14:00-18:30'}}"
Rue Pierre Jakez Helias,Guipavas,29490,FR,"{'Brand': 'Jardiland', 'fascia': 'Jardiland', 'category': 'Sports', 'edit_date': '20250311', 'lat_lon_source': 'Third Party'}",48.41774469,-4.43660975,Jardiland,3681896,Bretagne,+33 2 98 41 81 80,https://www.jardiland.com/magasins/magasin-brest-guipavas,"{'opening_hours': {'Mon': '09:30-19:00', 'Tue': '09:30-19:00', 'Wed': '09:30-19:00', 'Thu': '09:30-19:00', 'Fri': '09:30-19:00', 'Sat': '09:30-19:00', 'Sun': '10:00-12:30, 14:00-19:00'}}"
650 Avenue de l'Europe,La Teste-de-Buch,33260,FR,"{'Brand': 'Jardiland', 'fascia': 'Jardiland', 'category': 'Sports', 'edit_date': '20250311', 'lat_lon_source': 'Third Party'}",44.61648812,-1.11849819,Jardiland,3681887,Nouvelle-Aquitaine,+33 5 57 52 74 44,https://www.jardiland.com/magasins/magasin-arcachon-la-teste-de-buch,"{'opening_hours': {'Mon': '09:00-12:30, 14:00-19:00', 'Tue': '09:00-12:30, 14:00-19:00', 'Wed': '09:00-12:30, 14:00-19:00', 'Thu': '09:00-12:30, 14:00-19:00', 'Fri': '09:00-12:30, 14:00-19:00', 'Sat': '09:00-12:30, 14:00-19:00', 'Sun': '09:30-12:30, 14:30-18:30'}}"
Avenida das Mariñas 10,Oleiros,15171,ES,"{'Brand': 'Jardiland', 'fascia': 'Jardiland', 'category': 'Sports', 'edit_date': '20250311', 'lat_lon_source': 'Third Party'}",43.32031619,-8.30445754,Jardiland,3681885,A Coruña,+34 981 64 82 66,https://www.jardiland.com/magasins/magasin-a-coruna-oleiros,"{'opening_hours': {'Mon': '10:00-20:30', 'Tue': '10:00-20:30', 'Wed': '10:00-20:30', 'Thu': '10:00-20:30', 'Fri': '10:00-20:30', 'Sat': '10:00-20:30', 'Sun': '10:00-20:30'}}"
Route d'Agen,Bergerac,24100,FR,"{'Brand': 'Jardiland', 'fascia': 'Jardiland', 'category': 'Sports', 'edit_date': '20250311', 'lat_lon_source': 'Third Party'}",44.82991609,0.50122935,Jardiland,3616026,Nouvelle-Aquitaine,+33 5 53 63 54 70,https://www.jardiland.com/magasins/magasin-bergerac,"{'opening_hours': {'Mon': '09:30-19:00', 'Tue': '09:30-19:00', 'Wed': '09:30-19:00', 'Thu': '09:30-19:00', 'Fri': '09:30-19:00', 'Sat': '09:30-19:00', 'Sun': '10:00-19:00'}}"
1671 Avenue du Président John Kennedy,Saint-Pierre-du-Mont,40280,FR,"{'Brand': 'Jardiland', 'fascia': 'Jardiland', 'category': 'Sports', 'edit_date': '20250311', 'lat_lon_source': 'Third Party'}",43.87333006,-0.49074952,Jardiland,3681991,Nouvelle-Aquitaine,+33 5 58 46 22 61,https://www.jardiland.com/magasins/magasin-saint-pierre-du-mont,"{'opening_hours': {'Mon': '09:00-12:30, 14:00-19:00', 'Tue': '09:00-12:30, 14:00-19:00', 'Wed': '09:00-12:30, 14:00-19:00', 'Thu': '09:00-12:30, 14:00-19:00', 'Fri': '09:00-12:30, 14:00-19:00', 'Sat': '09:00-19:00', 'Sun': '09:00-12:30, 14:00-18:00'}}"
"Centre Commercial, Jardi-Village",Baie-Mahault,97122,FR,"{'Brand': 'Jardiland', 'fascia': 'Jardiland', 'category': 'Sports', 'edit_date': '20250311', 'lat_lon_source': 'Third Party'}",16.24006648,-61.58956516,Jardiland,3681998,Basse-Terre,+590 590 60 67 00,https://www.jardiland.com/magasins/magasin-baie-mahault-guadeloupe,{'opening_hours': {}}
