addr_full,brand,city,country,extras,lat,long,name,opening_hours,phone,postcode,ref,state,website
"中央区 南一条西 3-3 2F, 札幌市, 北海道, 0608502, Japan",margarethowell,札幌市,Japan,"{'brand': 'margarethowell', 'fascia': 'HOKKAIDO / TOHOKU', 'category': 'MHL. WOMEN, MHL. MEN', 'edit_date': '20250228', 'lat_lon_source': 'thirdparty'}",43.0587581,141.3476818,MHL. SAPPORO PARCO,"{'Mon': '10:00-20:00\u3000不定休', 'Tue': '10:00-20:00\u3000不定休', 'Wed': '10:00-20:00\u3000不定休', 'Thu': '10:00-20:00\u3000不定休', 'Fri': '10:00-20:00\u3000不定休', 'Sat': '10:00-20:00\u3000不定休', 'Sun': '10:00-20:00\u3000不定休'}",0112511651,0608502,01JJWYQ4E79CQR5Y6E2TPQVGW7,,https://t.yapp.li/v1/cyan/margarethowell/shops/data?limit=1000&customorder=custom
"中央区 南一条西 3-8 2F, 札幌市, 北海道, 0600061, Japan",margarethowell,札幌市,Japan,"{'brand': 'margarethowell', 'fascia': 'HOKKAIDO / TOHOKU', 'category': 'WOMEN, HOUSEHOLD GOODS, MHL. WOMEN', 'edit_date': '20250228', 'lat_lon_source': 'thirdparty'}",43.0592494,141.3510429,MARGARET HOWELL SAPPORO MITSUKOSHI,"{'Mon': '10:00-19:00\u3000不定休', 'Tue': '10:00-19:00\u3000不定休', 'Wed': '10:00-19:00\u3000不定休', 'Thu': '10:00-19:00\u3000不定休', 'Fri': '10:00-19:00\u3000不定休', 'Sat': '10:00-19:00\u3000不定休', 'Sun': '10:00-19:00\u3000不定休'}",0112133527,0600061,01JJWYQ3AP5N1QQ1NFYSXXT74E,,https://t.yapp.li/v1/cyan/margarethowell/shops/data?limit=1000&customorder=custom
"中央区 北五条西 2 ステラプレイスイースト 3F, 札幌市, 北海道, 0600005, Japan",margarethowell,札幌市,Japan,"{'brand': 'margarethowell', 'fascia': 'HOKKAIDO / TOHOKU', 'category': 'WOMEN, MEN, HOUSEHOLD GOODS, MHL. WOMEN, MHL. MEN', 'edit_date': '20250228', 'lat_lon_source': 'thirdparty'}",43.0679681,141.3501113,MARGARET HOWELL SAPPORO STELLAR PLACE,"{'Mon': '10:00-21:00\u3000不定休', 'Tue': '10:00-21:00\u3000不定休', 'Wed': '10:00-21:00\u3000不定休', 'Thu': '10:00-21:00\u3000不定休', 'Fri': '10:00-21:00\u3000不定休', 'Sat': '10:00-21:00\u3000不定休', 'Sun': '10:00-21:00\u3000不定休'}",0112095260,0600005,01JJWYQ27N01M1VA0TXTAZ9YQG,,https://t.yapp.li/v1/cyan/margarethowell/shops/data?limit=1000&customorder=custom
"駅前町 9 1F, 弘前市, 青森県, 0368003, Japan",margarethowell,弘前市,Japan,"{'brand': 'margarethowell', 'fascia': 'HOKKAIDO / TOHOKU', 'category': 'WOMEN, MEN, HOUSEHOLD GOODS, MHL. WOMEN, MHL. MEN', 'edit_date': '20250228', 'lat_lon_source': 'thirdparty'}",40.5968921,140.4795304,MARGARET HOWELL HIROSAKI HIRORO,"{'Mon': '10:00-20:00\u3000不定休', 'Tue': '10:00-20:00\u3000不定休', 'Wed': '10:00-20:00\u3000不定休', 'Thu': '10:00-20:00\u3000不定休', 'Fri': '10:00-20:00\u3000不定休', 'Sat': '10:00-20:00\u3000不定休', 'Sun': '10:00-20:00\u3000不定休'}",0172371476,0368003,01JJWYQ135KM2G472B1KWW6D3J,,https://t.yapp.li/v1/cyan/margarethowell/shops/data?limit=1000&customorder=custom
"青葉区 中央 1-1-1 東館 3F, 仙台市, 宮城県, 9808477, Japan",margarethowell,仙台市,Japan,"{'brand': 'margarethowell', 'fascia': 'HOKKAIDO / TOHOKU', 'category': 'MHL. WOMEN, MHL. MEN', 'edit_date': '20250228', 'lat_lon_source': 'thirdparty'}",38.2593499,140.8807986,MHL. SENDAI S-PAL,"{'Mon': '10:00-21:00\u3000不定休', 'Tue': '10:00-21:00\u3000不定休', 'Wed': '10:00-21:00\u3000不定休', 'Thu': '10:00-21:00\u3000不定休', 'Fri': '10:00-21:00\u3000不定休', 'Sat': '10:00-21:00\u3000不定休', 'Sun': '10:00-21:00\u3000不定休'}",0227927891,9808477,01JJWYPYWTD9ZRRZK00ABRR90H,,https://t.yapp.li/v1/cyan/margarethowell/shops/data?limit=1000&customorder=custom
"大宮区 桜木町 1-6-2 3F, さいたま市, 埼玉県, 3309530, Japan",margarethowell,さいたま市,Japan,"{'brand': 'margarethowell', 'fascia': 'KANTO', 'category': 'WOMEN, HOUSEHOLD GOODS, MHL. WOMEN', 'edit_date': '20250228', 'lat_lon_source': 'thirdparty'}",35.9049886,139.6199482,MARGARET HOWELL OMIYA SOGO,"{'Mon': '10:00-20:00\u3000不定休', 'Tue': '10:00-20:00\u3000不定休', 'Wed': '10:00-20:00\u3000不定休', 'Thu': '10:00-20:00\u3000不定休', 'Fri': '10:00-20:00\u3000不定休', 'Sat': '10:00-20:00\u3000不定休', 'Sun': '10:00-20:00\u3000不定休'}",0486462320,3309530,01JJWYPXS9KF3WWSDVGYX2543G,,https://t.yapp.li/v1/cyan/margarethowell/shops/data?limit=1000&customorder=custom
"浦和区 高砂 1-15-1 3F, さいたま市, 埼玉県, 3300063, Japan",margarethowell,さいたま市,Japan,"{'brand': 'margarethowell', 'fascia': 'KANTO', 'category': 'WOMEN, HOUSEHOLD GOODS, MHL. WOMEN', 'edit_date': '20250228', 'lat_lon_source': 'thirdparty'}",35.8583892,139.65527,MARGARET HOWELL URAWA ISETAN,"{'Mon': '10:00-19:00\u3000不定休', 'Tue': '10:00-19:00\u3000不定休', 'Wed': '10:00-19:00\u3000不定休', 'Thu': '10:00-19:00\u3000不定休', 'Fri': '10:00-19:00\u3000不定休', 'Sat': '10:00-19:00\u3000不定休', 'Sun': '10:00-19:00\u3000不定休'}",0488250578,3300063,01JJWYPWNG908QGMB66EHTENE8,,https://t.yapp.li/v1/cyan/margarethowell/shops/data?limit=1000&customorder=custom
"大宮区 錦町 630 ルミネ2 1F, さいたま市, 埼玉県, 3300853, Japan",margarethowell,さいたま市,Japan,"{'brand': 'margarethowell', 'fascia': 'KANTO', 'category': 'MHL. WOMEN, MHL. MEN', 'edit_date': '20250228', 'lat_lon_source': 'thirdparty'}",35.9068655,139.6227289,MHL. OMIYA LUMINE,"{'Mon': '10:00-21:00\u3000日曜日 10:00-20:30\u3000不定休', 'Tue': '10:00-21:00\u3000日曜日 10:00-20:30\u3000不定休', 'Wed': '10:00-21:00\u3000日曜日 10:00-20:30\u3000不定休', 'Thu': '10:00-21:00\u3000日曜日 10:00-20:30\u3000不定休', 'Fri': '10:00-21:00\u3000日曜日 10:00-20:30\u3000不定休', 'Sat': '10:00-21:00\u3000日曜日 10:00-20:30\u3000不定休', 'Sun': '10:00-21:00\u3000日曜日 10:00-20:30\u3000不定休'}",0486456789,3300853,01JJWYPVJDBF2MC4SP5ND1KX8H,,https://t.yapp.li/v1/cyan/margarethowell/shops/data?limit=1000&customorder=custom
"中央区 新町 1000 2F, 千葉市, 千葉県, 2608557, Japan",margarethowell,千葉市,Japan,"{'brand': 'margarethowell', 'fascia': 'KANTO', 'category': 'WOMEN, HOUSEHOLD GOODS, MHL. WOMEN', 'edit_date': '20250228', 'lat_lon_source': 'thirdparty'}",35.6108697,140.1113481,MARGARET HOWELL CHIBA SOGO,"{'Mon': '10:00-20:00\u3000不定休', 'Tue': '10:00-20:00\u3000不定休', 'Wed': '10:00-20:00\u3000不定休', 'Thu': '10:00-20:00\u3000不定休', 'Fri': '10:00-20:00\u3000不定休', 'Sat': '10:00-20:00\u3000不定休', 'Sun': '10:00-20:00\u3000不定休'}",0432386177,2608557,01JJWYPTEJC8VFQD1DJQHWA49T,,https://t.yapp.li/v1/cyan/margarethowell/shops/data?limit=1000&customorder=custom
"末広町 1-1 S館 専門店 4F, 柏市, 千葉県, 2778550, Japan",margarethowell,柏市,Japan,"{'brand': 'margarethowell', 'fascia': 'KANTO', 'category': 'WOMEN, MEN, HOUSEHOLD GOODS, MHL. WOMEN, MHL. MEN', 'edit_date': '20250228', 'lat_lon_source': 'thirdparty'}",35.8624389,139.9685035,MARGARET HOWELL KASHIWA TAKASHIMAYA STATION MALL,"{'Mon': '10:00-20:00\u3000不定休', 'Tue': '10:00-20:00\u3000不定休', 'Wed': '10:00-20:00\u3000不定休', 'Thu': '10:00-20:00\u3000不定休', 'Fri': '10:00-20:00\u3000不定休', 'Sat': '10:00-20:00\u3000不定休', 'Sun': '10:00-20:00\u3000不定休'}",0471482349,2778550,01JJWYPSB2JK72WMM2Y6HYS0YJ,,https://t.yapp.li/v1/cyan/margarethowell/shops/data?limit=1000&customorder=custom
"本町 7-1-1 3F, 船橋市, 千葉県, 2738567, Japan",margarethowell,船橋市,Japan,"{'brand': 'margarethowell', 'fascia': 'KANTO', 'category': 'WOMEN, HOUSEHOLD GOODS, MHL. WOMEN', 'edit_date': '20250228', 'lat_lon_source': 'thirdparty'}",35.7020576,139.9828864,MARGARET HOWELL FUNABASHI TOBU,"{'Mon': '10:00-19:00\u3000不定休', 'Tue': '10:00-19:00\u3000不定休', 'Wed': '10:00-19:00\u3000不定休', 'Thu': '10:00-19:00\u3000不定休', 'Fri': '10:00-19:00\u3000不定休', 'Sat': '10:00-19:00\u3000不定休', 'Sun': '10:00-19:00\u3000不定休'}",0474117660,2738567,01JJWYPR81W1820FRJJR2NZGN1,,https://t.yapp.li/v1/cyan/margarethowell/shops/data?limit=1000&customorder=custom
"西区 高島 2-18-1 4F, 横浜市, 神奈川県, 2208510 , Japan",margarethowell,横浜市,Japan,"{'brand': 'margarethowell', 'fascia': 'KANTO', 'category': 'WOMEN, MHL. WOMEN', 'edit_date': '20250228', 'lat_lon_source': 'thirdparty'}",35.4652458,139.6224853,MARGARET HOWELL YOKOHAMA SOGO,"{'Mon': '10:00-20:00\u3000不定休', 'Tue': '10:00-20:00\u3000不定休', 'Wed': '10:00-20:00\u3000不定休', 'Thu': '10:00-20:00\u3000不定休', 'Fri': '10:00-20:00\u3000不定休', 'Sat': '10:00-20:00\u3000不定休', 'Sun': '10:00-20:00\u3000不定休'}",0454612708,2208510 ,01JJWYPQ3ZFF28Q187RT46T8YH,,https://t.yapp.li/v1/cyan/margarethowell/shops/data?limit=1000&customorder=custom
"西区 高島 2-16-1 5F, 横浜市, 神奈川県, 2200011 , Japan",margarethowell,横浜市,Japan,"{'brand': 'margarethowell', 'fascia': 'KANTO', 'category': 'MHL. WOMEN, MHL. MEN', 'edit_date': '20250228', 'lat_lon_source': 'thirdparty'}",35.4652458,139.6216036,MHL. YOKOHAMA LUMINE,"{'Mon': '10:00-21:00\u3000土･日･祝日 10:00-20:30\u3000不定休', 'Tue': '10:00-21:00\u3000土･日･祝日 10:00-20:30\u3000不定休', 'Wed': '10:00-21:00\u3000土･日･祝日 10:00-20:30\u3000不定休', 'Thu': '10:00-21:00\u3000土･日･祝日 10:00-20:30\u3000不定休', 'Fri': '10:00-21:00\u3000土･日･祝日 10:00-20:30\u3000不定休', 'Sat': '10:00-21:00\u3000土･日･祝日 10:00-20:30\u3000不定休', 'Sun': '10:00-21:00\u3000土･日･祝日 10:00-20:30\u3000不定休'}",0454537010,2200011 ,01JJWYPNZTTJ4NWK0HEM6JQX1C,,https://t.yapp.li/v1/cyan/margarethowell/shops/data?limit=1000&customorder=custom
"西区 南幸 1-1-1 4F, 横浜市, 神奈川県, 2200005, Japan",margarethowell,横浜市,Japan,"{'brand': 'margarethowell', 'fascia': 'KANTO', 'category': 'WOMEN, MEN, HOUSEHOLD GOODS, MHL. WOMEN, MHL. MEN', 'edit_date': '20250228', 'lat_lon_source': 'thirdparty'}",,,MARGARET HOWELL YOKOHAMA NEWoMan,"{'Mon': '11:00-20:00\u3000土･日･祝日 10:00-20:00\u3000不定休', 'Tue': '11:00-20:00\u3000土･日･祝日 10:00-20:00\u3000不定休', 'Wed': '11:00-20:00\u3000土･日･祝日 10:00-20:00\u3000不定休', 'Thu': '11:00-20:00\u3000土･日･祝日 10:00-20:00\u3000不定休', 'Fri': '11:00-20:00\u3000土･日･祝日 10:00-20:00\u3000不定休', 'Sat': '11:00-20:00\u3000土･日･祝日 10:00-20:00\u3000不定休', 'Sun': '11:00-20:00\u3000土･日･祝日 10:00-20:00\u3000不定休'}",0456200851,2200005,01JJWYPMWQ6GDR49A7G1580VHC,,https://t.yapp.li/v1/cyan/margarethowell/shops/data?limit=1000&customorder=custom
"丸の内 1-5-1 3F, 千代田区, 東京都, 1006503, Japan",margarethowell,千代田区,Japan,"{'brand': 'margarethowell', 'fascia': 'TOKYO', 'category': 'WOMEN, MEN, HOUSEHOLD GOODS, MHL. WOMEN, MHL. MEN', 'edit_date': '20250228', 'lat_lon_source': 'thirdparty'}",35.6825931,139.7624585,MARGARET HOWELL MARUNOUCHI,"{'Mon': '11:00-21:00\u3000日･祝日 11:00-20:00\u3000不定休', 'Tue': '11:00-21:00\u3000日･祝日 11:00-20:00\u3000不定休', 'Wed': '11:00-21:00\u3000日･祝日 11:00-20:00\u3000不定休', 'Thu': '11:00-21:00\u3000日･祝日 11:00-20:00\u3000不定休', 'Fri': '11:00-21:00\u3000日･祝日 11:00-20:00\u3000不定休', 'Sat': '11:00-21:00\u3000日･祝日 11:00-20:00\u3000不定休', 'Sun': '11:00-21:00\u3000日･祝日 11:00-20:00\u3000不定休'}",0332870510,1006503,01JJWYPKS6JG45YSAQTX218NXE,,https://t.yapp.li/v1/cyan/margarethowell/shops/data?limit=1000&customorder=custom
"丸の内 1-9-1 4F, 千代田区, 東京都, 1006701, Japan",margarethowell,千代田区,Japan,"{'brand': 'margarethowell', 'fascia': 'TOKYO', 'category': 'WOMEN, HOUSEHOLD GOODS, MHL. WOMEN', 'edit_date': '20250228', 'lat_lon_source': 'thirdparty'}",35.6814569,139.7666805,MARGARET HOWELL TOKYO DAIMARU,"{'Mon': '10:00-20:00\u3000不定休', 'Tue': '10:00-20:00\u3000不定休', 'Wed': '10:00-20:00\u3000不定休', 'Thu': '10:00-20:00\u3000不定休', 'Fri': '10:00-20:00\u3000不定休', 'Sat': '10:00-20:00\u3000不定休', 'Sun': '10:00-20:00\u3000不定休'}",0368952157,1006701,01JJWYPJNEFH1DKPJ11K0SW5DQ,,https://t.yapp.li/v1/cyan/margarethowell/shops/data?limit=1000&customorder=custom
"銀座 3-6-1 5F, 中央区, 東京都, 1048130 , Japan",margarethowell,中央区,Japan,"{'brand': 'margarethowell', 'fascia': 'TOKYO', 'category': 'WOMEN, MEN, HOUSEHOLD GOODS, MHL. WOMEN, MHL. MEN', 'edit_date': '20250228', 'lat_lon_source': 'thirdparty'}",35.6720409,139.7642186,MARGARET HOWELL GINZA MATSUYA,"{'Mon': '11:00-20:00\u3000不定休', 'Tue': '11:00-20:00\u3000不定休', 'Wed': '11:00-20:00\u3000不定休', 'Thu': '11:00-20:00\u3000不定休', 'Fri': '11:00-20:00\u3000不定休', 'Sat': '11:00-20:00\u3000不定休', 'Sun': '11:00-20:00\u3000不定休'}",0335358566,1048130 ,01JJWYPHJFBX808WA86QNRT1SZ,,https://t.yapp.li/v1/cyan/margarethowell/shops/data?limit=1000&customorder=custom
"SIX 4F, GINZA, 東京都中央区銀座6-10-1, 1040061, Japan",margarethowell,GINZA,Japan,"{'brand': 'margarethowell', 'fascia': 'TOKYO', 'category': 'WOMEN, MEN, MHL. WOMEN, MHL. MEN', 'edit_date': '20250228', 'lat_lon_source': 'thirdparty'}",,,MARGARET HOWELL GINZA SIX,"{'Mon': '10:30-20:30\u3000不定休', 'Tue': '10:30-20:30\u3000不定休', 'Wed': '10:30-20:30\u3000不定休', 'Thu': '10:30-20:30\u3000不定休', 'Fri': '10:30-20:30\u3000不定休', 'Sat': '10:30-20:30\u3000不定休', 'Sun': '10:30-20:30\u3000不定休'}",0362645217,1040061,01JJWYPGF2BT7T35MGDDW9QFZP,,https://t.yapp.li/v1/cyan/margarethowell/shops/data?limit=1000&customorder=custom
"猿楽町 24-1 1F, 渋谷区, 東京都, 1500033, Japan",margarethowell,渋谷区,Japan,"{'brand': 'margarethowell', 'fascia': 'TOKYO', 'category': 'MHL. WOMEN, MHL. MEN', 'edit_date': '20250228', 'lat_lon_source': 'thirdparty'}",35.6485714,139.6994007,MHL. DAIKANYAMA,"{'Mon': '11:00-20:00\u3000不定休', 'Tue': '11:00-20:00\u3000不定休', 'Wed': '11:00-20:00\u3000不定休', 'Thu': '11:00-20:00\u3000不定休', 'Fri': '11:00-20:00\u3000不定休', 'Sat': '11:00-20:00\u3000不定休', 'Sun': '11:00-20:00\u3000不定休'}",0354895781,1500033,01JJWYPFBPYH9T98WHCASMC4HR,,https://t.yapp.li/v1/cyan/margarethowell/shops/data?limit=1000&customorder=custom
"神南 1-13-8 1F, 渋谷区, 東京都, 1500041, Japan",margarethowell,渋谷区,Japan,"{'brand': 'margarethowell', 'fascia': 'TOKYO', 'category': 'WOMEN, MEN, HOUSEHOLD GOODS, MHL. WOMEN, MHL. MEN', 'edit_date': '20250228', 'lat_lon_source': 'thirdparty'}",35.6637199,139.6983458,MARGARET HOWELL JINNAN,"{'Mon': '11:00-20:00\u3000不定休', 'Tue': '11:00-20:00\u3000不定休', 'Wed': '11:00-20:00\u3000不定休', 'Thu': '11:00-20:00\u3000不定休', 'Fri': '11:00-20:00\u3000不定休', 'Sat': '11:00-20:00\u3000不定休', 'Sun': '11:00-20:00\u3000不定休'}",0354593723,1500041,01JJWYPE8Q3RZ38M4X2ZAP2PW6,,https://t.yapp.li/v1/cyan/margarethowell/shops/data?limit=1000&customorder=custom
"渋谷 2-21-1 4F, 渋谷区, 東京都, 1508509, Japan",margarethowell,渋谷区,Japan,"{'brand': 'margarethowell', 'fascia': 'TOKYO', 'category': 'WOMEN, HOUSEHOLD GOODS, MHL. WOMEN', 'edit_date': '20250228', 'lat_lon_source': 'thirdparty'}",35.6589882,139.7016484,MARGARET HOWELL SHIBUYA HIKARIE ShinQs,"{'Mon': '11:00-21:00\u3000不定休', 'Tue': '11:00-21:00\u3000不定休', 'Wed': '11:00-21:00\u3000不定休', 'Thu': '11:00-21:00\u3000不定休', 'Fri': '11:00-21:00\u3000不定休', 'Sat': '11:00-21:00\u3000不定休', 'Sun': '11:00-21:00\u3000不定休'}",0364341662,1508509,01JJWYPD5BRNVVDCDMTANVPM7V,,https://t.yapp.li/v1/cyan/margarethowell/shops/data?limit=1000&customorder=custom
"新宿 3-14-1 本館 2F, 新宿区, 東京都, 1600022, Japan",margarethowell,新宿区,Japan,"{'brand': 'margarethowell', 'fascia': 'TOKYO', 'category': 'WOMEN, HOUSEHOLD GOODS, MHL. WOMEN', 'edit_date': '20250228', 'lat_lon_source': 'thirdparty'}",35.6915847,139.7026187,MARGARET HOWELL SHINJUKU ISETAN,"{'Mon': '10:00-20:00\u3000不定休', 'Tue': '10:00-20:00\u3000不定休', 'Wed': '10:00-20:00\u3000不定休', 'Thu': '10:00-20:00\u3000不定休', 'Fri': '10:00-20:00\u3000不定休', 'Sat': '10:00-20:00\u3000不定休', 'Sun': '10:00-20:00\u3000不定休'}",0333578730,1600022,01JJWYPC1XGQHCG0RYSXCDQTYD,,https://t.yapp.li/v1/cyan/margarethowell/shops/data?limit=1000&customorder=custom
"新宿 3-14-1 メンズ館7階 メンズオーセンティック, 新宿区, 東京都, 1600022, Japan",margarethowell,新宿区,Japan,"{'brand': 'margarethowell', 'fascia': 'TOKYO', 'category': 'MEN, MHL. MEN', 'edit_date': '20250228', 'lat_lon_source': 'thirdparty'}",,,MARGARET HOWELL SHINJUKU ISETAN,"{'Mon': '10:00-20:00\u3000不定休', 'Tue': '10:00-20:00\u3000不定休', 'Wed': '10:00-20:00\u3000不定休', 'Thu': '10:00-20:00\u3000不定休', 'Fri': '10:00-20:00\u3000不定休', 'Sat': '10:00-20:00\u3000不定休', 'Sun': '10:00-20:00\u3000不定休'}",0333502273,1600022,01JJWYPAYVXGJWZ5TS2TD2DYK4,,https://t.yapp.li/v1/cyan/margarethowell/shops/data?limit=1000&customorder=custom
"西新宿1丁目1-5 ルミネ1 5F, 新宿区, 東京都, 1600023, Japan",margarethowell,新宿区,Japan,"{'brand': 'margarethowell', 'fascia': 'TOKYO', 'category': 'MHL. WOMEN, MHL. MEN', 'edit_date': '20250228', 'lat_lon_source': 'thirdparty'}",,,MHL. SHINJUKU LUMINE,"{'Mon': '11:00-21:00\u3000不定休', 'Tue': '11:00-21:00\u3000不定休', 'Wed': '11:00-21:00\u3000不定休', 'Thu': '11:00-21:00\u3000不定休', 'Fri': '11:00-21:00\u3000不定休', 'Sat': '11:00-21:00\u3000不定休', 'Sun': '11:00-21:00\u3000不定休'}",0353252023,1600023,01JJWYP9SKZ74NAE59TAXM974B,,https://t.yapp.li/v1/cyan/margarethowell/shops/data?limit=1000&customorder=custom
"西池袋 1-11-1 6F, 豊島区, 東京都, 1710021, Japan",margarethowell,豊島区,Japan,"{'brand': 'margarethowell', 'fascia': 'TOKYO', 'category': 'MHL. WOMEN, MHL. MEN', 'edit_date': '20250228', 'lat_lon_source': 'thirdparty'}",35.7290443,139.7089991,MHL. IKEBUKURO LUMINE,"{'Mon': '11:00-21:00\u3000不定休', 'Tue': '11:00-21:00\u3000不定休', 'Wed': '11:00-21:00\u3000不定休', 'Thu': '11:00-21:00\u3000不定休', 'Fri': '11:00-21:00\u3000不定休', 'Sat': '11:00-21:00\u3000不定休', 'Sun': '11:00-21:00\u3000不定休'}",0369071144,1710021,01JJWYP8NC04NXNCR5NXV3J02T,,https://t.yapp.li/v1/cyan/margarethowell/shops/data?limit=1000&customorder=custom
"西池袋 1-1-25 3F 4番地, 豊島区, 東京都, 1710021, Japan",margarethowell,豊島区,Japan,"{'brand': 'margarethowell', 'fascia': 'TOKYO', 'category': 'WOMEN, HOUSEHOLD GOODS, MHL. WOMEN', 'edit_date': '20250228', 'lat_lon_source': 'thirdparty'}",35.7297898,139.7081043,MARGARET HOWELL IKEBUKURO TOBU,"{'Mon': '10:00-20:00\u3000不定休', 'Tue': '10:00-20:00\u3000不定休', 'Wed': '10:00-20:00\u3000不定休', 'Thu': '10:00-20:00\u3000不定休', 'Fri': '10:00-20:00\u3000不定休', 'Sat': '10:00-20:00\u3000不定休', 'Sun': '10:00-20:00\u3000不定休'}",0359527855,1710021,01JJWYP7G9H494H7Z0DK5FWJTQ,,https://t.yapp.li/v1/cyan/margarethowell/shops/data?limit=1000&customorder=custom
"西池袋 1-1-25 5F, 豊島区, 東京都, 1710021, Japan",margarethowell,豊島区,Japan,"{'brand': 'margarethowell', 'fascia': 'TOKYO', 'category': 'MEN, MHL. MEN', 'edit_date': '20250228', 'lat_lon_source': 'thirdparty'}",35.7294331,139.7079655,MARGARET HOWELL IKEBUKURO TOBU,"{'Mon': '10:00-19:00\u3000不定休', 'Tue': '10:00-19:00\u3000不定休', 'Wed': '10:00-19:00\u3000不定休', 'Thu': '10:00-19:00\u3000不定休', 'Fri': '10:00-19:00\u3000不定休', 'Sat': '10:00-19:00\u3000不定休', 'Sun': '10:00-19:00\u3000不定休'}",0359527766,1710021,01JJWYP6CB3GZX13NJ8KRGCSEZ,,https://t.yapp.li/v1/cyan/margarethowell/shops/data?limit=1000&customorder=custom
"吉祥寺本町2-3-1 吉祥寺東急2F, 武蔵野市, 東京都, 1808519 , Japan",margarethowell,武蔵野市,Japan,"{'brand': 'margarethowell', 'fascia': 'TOKYO', 'category': 'WOMEN, MEN, HOUSEHOLD GOODS, MHL. WOMEN, MHL. MEN', 'edit_date': '20250228', 'lat_lon_source': 'thirdparty'}",35.7047643,139.5756332,MARGARET HOWELL KICHIJOJI TOKYU,"{'Mon': '10:00-20:00\u3000不定休', 'Tue': '10:00-20:00\u3000不定休', 'Wed': '10:00-20:00\u3000不定休', 'Thu': '10:00-20:00\u3000不定休', 'Fri': '10:00-20:00\u3000不定休', 'Sat': '10:00-20:00\u3000不定休', 'Sun': '10:00-20:00\u3000不定休'}",0422220850,1808519 ,01JJWYP57NMG9CF316WWH1GB3F,,https://t.yapp.li/v1/cyan/margarethowell/shops/data?limit=1000&customorder=custom
"玉川 2-21-1 タウンフロント 二子玉川ライズ ショッピングセンター・タウンフロント2F, 世田谷区, 東京都, 1580094, Japan",margarethowell,世田谷区,Japan,"{'brand': 'margarethowell', 'fascia': 'TOKYO', 'category': 'WOMEN, MEN, HOUSEHOLD GOODS, MHL. WOMEN, MHL. MEN', 'edit_date': '20250228', 'lat_lon_source': 'thirdparty'}",35.6122612,139.6275368,MARGARET HOWELL SHOP ＆ CAFE FUTAKOTAMAGAWA RISE,"{'Mon': 'CAFE TEL. 0337070217', 'Tue': 'CAFE TEL. 0337070217', 'Wed': 'CAFE TEL. 0337070217', 'Thu': 'CAFE TEL. 0337070217', 'Fri': 'CAFE TEL. 0337070217', 'Sat': 'CAFE TEL. 0337070217', 'Sun': 'CAFE TEL. 0337070217'}",0337001810,1580094,01JJWYP2TZKN2C74TYV47FR1RX,,https://t.yapp.li/v1/cyan/margarethowell/shops/data?limit=1000&customorder=custom
"吉祥寺本町 3-7-14, 武蔵野市, 東京都, 1800004 , Japan",margarethowell,武蔵野市,Japan,"{'brand': 'margarethowell', 'fascia': 'TOKYO', 'category': 'WOMEN, HOUSEHOLD GOODS, MHL. WOMEN', 'edit_date': '20250228', 'lat_lon_source': 'thirdparty'}",35.7051235,139.5723407,MARGARET HOWELL SHOP ＆ CAFE KICHIJOJI,"{'Mon': 'CAFE TEL. 0422233490', 'Tue': 'CAFE TEL. 0422233490', 'Wed': 'CAFE TEL. 0422233490', 'Thu': 'CAFE TEL. 0422233490', 'Fri': 'CAFE TEL. 0422233490', 'Sat': 'CAFE TEL. 0422233490', 'Sun': 'CAFE TEL. 0422233490'}",0422233491,1800004 ,01JJWYP1R0CAZ1096EJACT3SJE,,https://t.yapp.li/v1/cyan/margarethowell/shops/data?limit=1000&customorder=custom
"有楽町 2-5-1 ルミネ2 4F, 千代田区, 東京都, 1000006, Japan",margarethowell,千代田区,Japan,"{'brand': 'margarethowell', 'fascia': 'TOKYO', 'category': 'MHL. WOMEN, MHL. MEN', 'edit_date': '20250228', 'lat_lon_source': 'thirdparty'}",35.6734479,139.7608422,MHL. YURAKUCHO LUMINE,"{'Mon': '11:00-21:00\u3000不定休', 'Tue': '11:00-21:00\u3000不定休', 'Wed': '11:00-21:00\u3000不定休', 'Thu': '11:00-21:00\u3000不定休', 'Fri': '11:00-21:00\u3000不定休', 'Sat': '11:00-21:00\u3000不定休', 'Sun': '11:00-21:00\u3000不定休'}",0362136322,1000006,01JJWYP0MAEVN9B4M2JR3DM6A7,,https://t.yapp.li/v1/cyan/margarethowell/shops/data?limit=1000&customorder=custom
"新宿 4-1-6 ニュウマン4F, 新宿区, 東京都, 1600022, Japan",margarethowell,新宿区,Japan,"{'brand': 'margarethowell', 'fascia': 'TOKYO', 'category': 'WOMEN, MEN, HOUSEHOLD GOODS, MHL. WOMEN, MHL. MEN', 'edit_date': '20250228', 'lat_lon_source': 'thirdparty'}",35.6885141,139.7014554,MARGARET HOWELL SHINJUKU NEWoMan,"{'Mon': '11:00-20:30\u3000日･祝11:00-20:00\u3000不定休', 'Tue': '11:00-20:30\u3000日･祝11:00-20:00\u3000不定休', 'Wed': '11:00-20:30\u3000日･祝11:00-20:00\u3000不定休', 'Thu': '11:00-20:30\u3000日･祝11:00-20:00\u3000不定休', 'Fri': '11:00-20:30\u3000日･祝11:00-20:00\u3000不定休', 'Sat': '11:00-20:30\u3000日･祝11:00-20:00\u3000不定休', 'Sun': '11:00-20:30\u3000日･祝11:00-20:00\u3000不定休'}",0333531125,1600022,01JJWYNZH43PRS4MGWQ16Q9T5Q,,https://t.yapp.li/v1/cyan/margarethowell/shops/data?limit=1000&customorder=custom
"3F, 6-12-20, 東京都町田市原町田, 1948550, Japan",margarethowell,6-12-20,Japan,"{'brand': 'margarethowell', 'fascia': 'TOKYO', 'category': 'WOMEN, MHL. WOMEN, HOUSEHOLD GOODS', 'edit_date': '20250228', 'lat_lon_source': 'thirdparty'}",35.5436121,139.4471891,MARGARET HOWELL MACHIDA ODAKYU,"{'Mon': '10:00-20:30\u3000不定休', 'Tue': '10:00-20:30\u3000不定休', 'Wed': '10:00-20:30\u3000不定休', 'Thu': '10:00-20:30\u3000不定休', 'Fri': '10:00-20:30\u3000不定休', 'Sat': '10:00-20:30\u3000不定休', 'Sun': '10:00-20:30\u3000不定休'}",0428607262,1948550,01JJWYNYDWXC6FXC8HACKTPKFC,,https://t.yapp.li/v1/cyan/margarethowell/shops/data?limit=1000&customorder=custom
"総曲輪 3-8-6 2F, 富山市, 富山県, 9308505, Japan",margarethowell,富山市,Japan,"{'brand': 'margarethowell', 'fascia': 'HOKURIKU / KOSHINETSU', 'category': 'WOMEN, HOUSEHOLD GOODS, MHL. WOMEN', 'edit_date': '20250228', 'lat_lon_source': 'thirdparty'}",36.6888583,137.2121283,MARGARET HOWELL TOYAMA DAIWA,"{'Mon': '10:00-19:00\u3000不定休', 'Tue': '10:00-19:00\u3000不定休', 'Wed': '10:00-19:00\u3000不定休', 'Thu': '10:00-19:00\u3000不定休', 'Fri': '10:00-19:00\u3000不定休', 'Sat': '10:00-19:00\u3000不定休', 'Sun': '10:00-19:00\u3000不定休'}",0764076728,9308505,01JJWYNXAQDNTS2V32CAG27R6N,,https://t.yapp.li/v1/cyan/margarethowell/shops/data?limit=1000&customorder=custom
"香林坊 1-1-1 2F, 金沢市, 石川県, 9208550, Japan",margarethowell,金沢市,Japan,"{'brand': 'margarethowell', 'fascia': 'HOKURIKU / KOSHINETSU', 'category': 'WOMEN, HOUSEHOLD GOODS, MHL. WOMEN', 'edit_date': '20250228', 'lat_lon_source': 'thirdparty'}",36.5629186,136.6532037,MARGARET HOWELL KANAZAWA DAIWA,"{'Mon': '10:00-19:00\u3000不定休', 'Tue': '10:00-19:00\u3000不定休', 'Wed': '10:00-19:00\u3000不定休', 'Thu': '10:00-19:00\u3000不定休', 'Fri': '10:00-19:00\u3000不定休', 'Sat': '10:00-19:00\u3000不定休', 'Sun': '10:00-19:00\u3000不定休'}",0762201195,9208550,01JJWYNW7HEKS8K8TV2W3KW5D4,,https://t.yapp.li/v1/cyan/margarethowell/shops/data?limit=1000&customorder=custom
"堀川新町 3-1 2F, 金沢市, 石川県, 9200849, Japan",margarethowell,金沢市,Japan,"{'brand': 'margarethowell', 'fascia': 'HOKURIKU / KOSHINETSU', 'category': 'MHL. WOMEN, MHL. MEN', 'edit_date': '20250228', 'lat_lon_source': 'thirdparty'}",36.579348,136.6478634,MHL. KANAZAWA FORUS,"{'Mon': '10:00-20:00\u3000不定休', 'Tue': '10:00-20:00\u3000不定休', 'Wed': '10:00-20:00\u3000不定休', 'Thu': '10:00-20:00\u3000不定休', 'Fri': '10:00-20:00\u3000不定休', 'Sat': '10:00-20:00\u3000不定休', 'Sun': '10:00-20:00\u3000不定休'}",0762908724,9200849,01JJWYNV1S2TYD94DG4EFPEDCG,,https://t.yapp.li/v1/cyan/margarethowell/shops/data?limit=1000&customorder=custom
"中央区 八千代 1-6-1 2F, 新潟市, 新潟県, 9508589, Japan",margarethowell,新潟市,Japan,"{'brand': 'margarethowell', 'fascia': 'HOKURIKU / KOSHINETSU', 'category': 'WOMEN, MEN, HOUSEHOLD GOODS, MHL. WOMEN, MHL. MEN', 'edit_date': '20250228', 'lat_lon_source': 'thirdparty'}",37.9158533,139.0527732,MARGARET HOWELL NIIGATA ISETAN,"{'Mon': '10:00-19:00\u3000不定休', 'Tue': '10:00-19:00\u3000不定休', 'Wed': '10:00-19:00\u3000不定休', 'Thu': '10:00-19:00\u3000不定休', 'Fri': '10:00-19:00\u3000不定休', 'Sat': '10:00-19:00\u3000不定休', 'Sun': '10:00-19:00\u3000不定休'}",0252827898,9508589,01JJWYNRVXTYPKVCA73AYA6V2D,,https://t.yapp.li/v1/cyan/margarethowell/shops/data?limit=1000&customorder=custom
"中区 栄 3-6-1 名古屋ラシック3F, 名古屋市, 愛知県, 4600008, Japan",margarethowell,名古屋市,Japan,"{'brand': 'margarethowell', 'fascia': 'TOKAI', 'category': 'WOMEN, MEN, HOUSEHOLD GOODS, MHL. WOMEN, MHL. MEN', 'edit_date': '20250228', 'lat_lon_source': 'thirdparty'}",35.1676654,136.9062246,MARGARET HOWELL NAGOYA LACHIC,"{'Mon': '11:00-21:00\u3000不定休', 'Tue': '11:00-21:00\u3000不定休', 'Wed': '11:00-21:00\u3000不定休', 'Thu': '11:00-21:00\u3000不定休', 'Fri': '11:00-21:00\u3000不定休', 'Sat': '11:00-21:00\u3000不定休', 'Sun': '11:00-21:00\u3000不定休'}",0522596356,4600008,01JJWYNPMENWY926SSY4YEM9RR,,https://t.yapp.li/v1/cyan/margarethowell/shops/data?limit=1000&customorder=custom
"中村区 名駅 1-1-4 5F, 名古屋市, 愛知県, 4506001, Japan",margarethowell,名古屋市,Japan,"{'brand': 'margarethowell', 'fascia': 'TOKAI', 'category': 'WOMEN, HOUSEHOLD GOODS, MHL. WOMEN', 'edit_date': '20250228', 'lat_lon_source': 'thirdparty'}",35.1709544,136.881097,MARGARET HOWELL NAGOYA TAKASHIMAYA,"{'Mon': '10:00-20:00\u3000不定休', 'Tue': '10:00-20:00\u3000不定休', 'Wed': '10:00-20:00\u3000不定休', 'Thu': '10:00-20:00\u3000不定休', 'Fri': '10:00-20:00\u3000不定休', 'Sat': '10:00-20:00\u3000不定休', 'Sun': '10:00-20:00\u3000不定休'}",0525668217,4506001,01JJWYNNH5D0W8ZRVW6JJ7A22F,,https://t.yapp.li/v1/cyan/margarethowell/shops/data?limit=1000&customorder=custom
"中区 栄 3-6-1 4F, 名古屋市, 愛知県, 4600008, Japan",margarethowell,名古屋市,Japan,"{'brand': 'margarethowell', 'fascia': 'TOKAI', 'category': 'MHL. WOMEN, MHL. MEN', 'edit_date': '20250228', 'lat_lon_source': 'thirdparty'}",35.1674187,136.9072082,MHL. NAGOYA LACHIC,"{'Mon': '11:00-21:00\u3000不定休', 'Tue': '11:00-21:00\u3000不定休', 'Wed': '11:00-21:00\u3000不定休', 'Thu': '11:00-21:00\u3000不定休', 'Fri': '11:00-21:00\u3000不定休', 'Sat': '11:00-21:00\u3000不定休', 'Sun': '11:00-21:00\u3000不定休'}",0522596472,4600008,01JJWYNME83RZ3ED1YG92P4GB4,,https://t.yapp.li/v1/cyan/margarethowell/shops/data?limit=1000&customorder=custom
"中村区 名駅 1-1-3 6F, 名古屋市, 愛知県, 4506606, Japan",margarethowell,名古屋市,Japan,"{'brand': 'margarethowell', 'fascia': 'TOKAI', 'category': 'MHL. WOMEN, MHL. MEN', 'edit_date': '20250228', 'lat_lon_source': 'thirdparty'}",35.1708553,136.882778,MHL. NAGOYA TAKASHIMAYA GATE TOWER MALL,"{'Mon': '10:00-21:00\u3000不定休', 'Tue': '10:00-21:00\u3000不定休', 'Wed': '10:00-21:00\u3000不定休', 'Thu': '10:00-21:00\u3000不定休', 'Fri': '10:00-21:00\u3000不定休', 'Sat': '10:00-21:00\u3000不定休', 'Sun': '10:00-21:00\u3000不定休'}",0525666618,4506606,01JJWYNKBA1SXGF85ZZX31HHWG,,https://t.yapp.li/v1/cyan/margarethowell/shops/data?limit=1000&customorder=custom
"下京区 四条高倉西入立売西町 79 3F, 京都市, 京都府, 6008511, Japan",margarethowell,京都市,Japan,"{'brand': 'margarethowell', 'fascia': 'KINKI', 'category': 'WOMEN, HOUSEHOLD GOODS, MHL. WOMEN', 'edit_date': '20250228', 'lat_lon_source': 'thirdparty'}",35.0043536,135.7612072,MARGARET HOWELL KYOTO DAIMARU,"{'Mon': '10:00-19:00\u3000不定休', 'Tue': '10:00-19:00\u3000不定休', 'Wed': '10:00-19:00\u3000不定休', 'Thu': '10:00-19:00\u3000不定休', 'Fri': '10:00-19:00\u3000不定休', 'Sat': '10:00-19:00\u3000不定休', 'Sun': '10:00-19:00\u3000不定休'}",0752314400,6008511,01JJWYNJ7Q42ZANZ0KFF98MD3Z,,https://t.yapp.li/v1/cyan/margarethowell/shops/data?limit=1000&customorder=custom
"下京区 烏丸通塩小路町下ル東塩小路町 5F, 京都市, 京都府, 6008555, Japan",margarethowell,京都市,Japan,"{'brand': 'margarethowell', 'fascia': 'KINKI', 'category': 'WOMEN, HOUSEHOLD GOODS, MHL. WOMEN', 'edit_date': '20250228', 'lat_lon_source': 'thirdparty'}",34.9858192,135.7568452,MARGARET HOWELL KYOTO ISETAN,"{'Mon': '10:00-20:00\u3000不定休', 'Tue': '10:00-20:00\u3000不定休', 'Wed': '10:00-20:00\u3000不定休', 'Thu': '10:00-20:00\u3000不定休', 'Fri': '10:00-20:00\u3000不定休', 'Sat': '10:00-20:00\u3000不定休', 'Sun': '10:00-20:00\u3000不定休'}",0753657775,6008555,01JJWYNH4C8BQ7JY9TJQHQ693W,,https://t.yapp.li/v1/cyan/margarethowell/shops/data?limit=1000&customorder=custom
"下京区 烏丸通塩小路町下ル東塩小路町 6F, 京都市, 京都府, 6008555, Japan",margarethowell,京都市,Japan,"{'brand': 'margarethowell', 'fascia': 'KINKI', 'category': 'MEN, MHL. MEN', 'edit_date': '20250228', 'lat_lon_source': 'thirdparty'}",34.9858192,135.7568452,MARGARET HOWELL KYOTO ISETAN,"{'Mon': '10:00-20:00\u3000不定休', 'Tue': '10:00-20:00\u3000不定休', 'Wed': '10:00-20:00\u3000不定休', 'Thu': '10:00-20:00\u3000不定休', 'Fri': '10:00-20:00\u3000不定休', 'Sat': '10:00-20:00\u3000不定休', 'Sun': '10:00-20:00\u3000不定休'}",0753611703,6008555,01JJWYNFY6BQ2FYPRG90YZF965,,https://t.yapp.li/v1/cyan/margarethowell/shops/data?limit=1000&customorder=custom
"下京区 寺町通四条下ル貞安前之町 605 2F, 京都市, 京都府, 6008031, Japan",margarethowell,京都市,Japan,"{'brand': 'margarethowell', 'fascia': 'KINKI', 'category': 'MHL. WOMEN, MHL. MEN', 'edit_date': '20250228', 'lat_lon_source': 'thirdparty'}",35.0032629,135.7655099,MHL. FUJII DAIMARU,"{'Mon': '10:30-20:00\u3000不定休', 'Tue': '10:30-20:00\u3000不定休', 'Wed': '10:30-20:00\u3000不定休', 'Thu': '10:30-20:00\u3000不定休', 'Fri': '10:30-20:00\u3000不定休', 'Sat': '10:30-20:00\u3000不定休', 'Sun': '10:30-20:00\u3000不定休'}",0752115537,6008031,01JJWYNEQFC531KAE8T9H9D57J,,https://t.yapp.li/v1/cyan/margarethowell/shops/data?limit=1000&customorder=custom
"北区 大深町 4－20 南館2F, 大阪市, 大阪府, 5300011, Japan",margarethowell,大阪市,Japan,"{'brand': 'margarethowell', 'fascia': 'KINKI', 'category': 'WOMEN, MEN, HOUSEHOLD GOODS, MHL. WOMEN, MHL. MEN', 'edit_date': '20250228', 'lat_lon_source': 'thirdparty'}",,,MARGARET HOWELL OSAKA GRAND FRONT,"{'Mon': '11:00-21:00\u3000不定休', 'Tue': '11:00-21:00\u3000不定休', 'Wed': '11:00-21:00\u3000不定休', 'Thu': '11:00-21:00\u3000不定休', 'Fri': '11:00-21:00\u3000不定休', 'Sat': '11:00-21:00\u3000不定休', 'Sun': '11:00-21:00\u3000不定休'}",0663727323,5300011,01JJWYNDM3W161P1QFFPCMXPBB,,https://t.yapp.li/v1/cyan/margarethowell/shops/data?limit=1000&customorder=custom
"北区 大深町 4－20 南館3F, 大阪市, 大阪府, 5300011, Japan",margarethowell,大阪市,Japan,"{'brand': 'margarethowell', 'fascia': 'KINKI', 'category': 'MHL. WOMEN, MHL. MEN', 'edit_date': '20250228', 'lat_lon_source': 'thirdparty'}",,,MHL. OSAKA GRAND FRONT,"{'Mon': '11:00-21:00\u3000不定休', 'Tue': '11:00-21:00\u3000不定休', 'Wed': '11:00-21:00\u3000不定休', 'Thu': '11:00-21:00\u3000不定休', 'Fri': '11:00-21:00\u3000不定休', 'Sat': '11:00-21:00\u3000不定休', 'Sun': '11:00-21:00\u3000不定休'}",0661475955,5300011,01JJWYNCH3B9KC2GKADDGR8TB2,,https://t.yapp.li/v1/cyan/margarethowell/shops/data?limit=1000&customorder=custom
"中央区 難波 5-1-5 3F, 大阪市, 大阪府, 5428510, Japan",margarethowell,大阪市,Japan,"{'brand': 'margarethowell', 'fascia': 'KINKI', 'category': 'WOMEN, HOUSEHOLD GOODS, MHL. WOMEN', 'edit_date': '20250228', 'lat_lon_source': 'thirdparty'}",34.6646309,135.4987989,MARGARET HOWELL OSAKA TAKASHIMAYA,"{'Mon': '10:00-20:00\u3000不定休', 'Tue': '10:00-20:00\u3000不定休', 'Wed': '10:00-20:00\u3000不定休', 'Thu': '10:00-20:00\u3000不定休', 'Fri': '10:00-20:00\u3000不定休', 'Sat': '10:00-20:00\u3000不定休', 'Sun': '10:00-20:00\u3000不定休'}",0666430380,5428510,01JJWYNBATGWVAVYKNZ9DMSJ4A,,https://t.yapp.li/v1/cyan/margarethowell/shops/data?limit=1000&customorder=custom
"中央区 難波 5-1-5 3F, 大阪市, 大阪府, 5428510, Japan",margarethowell,大阪市,Japan,"{'brand': 'margarethowell', 'fascia': 'KINKI', 'category': 'MEN, MHL. MEN', 'edit_date': '20250228', 'lat_lon_source': 'thirdparty'}",34.6645411,135.4988603,MARGARET HOWELL OSAKA TAKASHIMAYA,"{'Mon': '10:00-20:00\u3000不定休', 'Tue': '10:00-20:00\u3000不定休', 'Wed': '10:00-20:00\u3000不定休', 'Thu': '10:00-20:00\u3000不定休', 'Fri': '10:00-20:00\u3000不定休', 'Sat': '10:00-20:00\u3000不定休', 'Sun': '10:00-20:00\u3000不定休'}",0666329812,5428510,01JJWYNA47YXDJBEK8RAA8PW9V,,https://t.yapp.li/v1/cyan/margarethowell/shops/data?limit=1000&customorder=custom
"北区 角田町 8-7 6F, 大阪市, 大阪府, 5308350 , Japan",margarethowell,大阪市,Japan,"{'brand': 'margarethowell', 'fascia': 'KINKI', 'category': 'WOMEN, HOUSEHOLD GOODS, MHL. WOMEN', 'edit_date': '20250228', 'lat_lon_source': 'thirdparty'}",,,MARGARET HOWELL UMEDA HANKYU,"{'Mon': '10:00-20:00\u3000金･土曜日 10:00-21:00\u3000不定休', 'Tue': '10:00-20:00\u3000金･土曜日 10:00-21:00\u3000不定休', 'Wed': '10:00-20:00\u3000金･土曜日 10:00-21:00\u3000不定休', 'Thu': '10:00-20:00\u3000金･土曜日 10:00-21:00\u3000不定休', 'Fri': '10:00-20:00\u3000金･土曜日 10:00-21:00\u3000不定休', 'Sat': '10:00-20:00\u3000金･土曜日 10:00-21:00\u3000不定休', 'Sun': '10:00-20:00\u3000金･土曜日 10:00-21:00\u3000不定休'}",0663137282,5308350 ,01JJWYN910YHN1C8CJPHPK3SR3,,https://t.yapp.li/v1/cyan/margarethowell/shops/data?limit=1000&customorder=custom
"北区角田町7-10 阪急メンズ大阪 B1F, 大阪市, 大阪府, 5300017 , Japan",margarethowell,大阪市,Japan,"{'brand': 'margarethowell', 'fascia': 'KINKI', 'category': 'MEN, MHL. MEN', 'edit_date': '20250228', 'lat_lon_source': 'thirdparty'}",,,MARGARET HOWELL UMEDA HANKYU,"{'Mon': '11:00-20:00\u3000金･土曜日 10:00-20:00\u3000不定休', 'Tue': '11:00-20:00\u3000金･土曜日 10:00-20:00\u3000不定休', 'Wed': '11:00-20:00\u3000金･土曜日 10:00-20:00\u3000不定休', 'Thu': '11:00-20:00\u3000金･土曜日 10:00-20:00\u3000不定休', 'Fri': '11:00-20:00\u3000金･土曜日 10:00-20:00\u3000不定休', 'Sat': '11:00-20:00\u3000金･土曜日 10:00-20:00\u3000不定休', 'Sun': '11:00-20:00\u3000金･土曜日 10:00-20:00\u3000不定休'}",0668677866,5300017 ,01JJWYN7X7RJ2Y75BKJBR4DBXC,,https://t.yapp.li/v1/cyan/margarethowell/shops/data?limit=1000&customorder=custom
"浪速区 難波中 2-10-70 3F, 大阪市, 大阪府, 5560011 , Japan",margarethowell,大阪市,Japan,"{'brand': 'margarethowell', 'fascia': 'KINKI', 'category': 'MHL. WOMEN, MHL. MEN', 'edit_date': '20250228', 'lat_lon_source': 'thirdparty'}",34.6621034,135.4996,MHL. NAMBA PARKS,"{'Mon': '11:00-21:00\u3000不定休', 'Tue': '11:00-21:00\u3000不定休', 'Wed': '11:00-21:00\u3000不定休', 'Thu': '11:00-21:00\u3000不定休', 'Fri': '11:00-21:00\u3000不定休', 'Sat': '11:00-21:00\u3000不定休', 'Sun': '11:00-21:00\u3000不定休'}",0666345880,5560011 ,01JJWYN6T8WA8Z4SC93XNAMRKF,,https://t.yapp.li/v1/cyan/margarethowell/shops/data?limit=1000&customorder=custom
"阿倍野区 阿倍野筋 1-1-43 3F, 大阪市, 大阪府, 5456003, Japan",margarethowell,大阪市,Japan,"{'brand': 'margarethowell', 'fascia': 'KINKI', 'category': 'WOMEN, HOUSEHOLD GOODS, MHL. WOMEN', 'edit_date': '20250228', 'lat_lon_source': 'thirdparty'}",34.6460072,135.5114747,MARGARET HOWELL ABENO HARUKAS,"{'Mon': '10:00-20:30\u3000不定休', 'Tue': '10:00-20:30\u3000不定休', 'Wed': '10:00-20:30\u3000不定休', 'Thu': '10:00-20:30\u3000不定休', 'Fri': '10:00-20:30\u3000不定休', 'Sat': '10:00-20:30\u3000不定休', 'Sun': '10:00-20:30\u3000不定休'}",0666252774,5456003,01JJWYN5PMBYNVZV2W79W2GAC2,,https://t.yapp.li/v1/cyan/margarethowell/shops/data?limit=1000&customorder=custom
"中央区 明石町 40 4F, 神戸市, 兵庫県, 6500037, Japan",margarethowell,神戸市,Japan,"{'brand': 'margarethowell', 'fascia': 'KINKI', 'category': 'WOMEN, HOUSEHOLD GOODS, MHL. WOMEN', 'edit_date': '20250228', 'lat_lon_source': 'thirdparty'}",34.6888518,135.1881577,MARGARET HOWELL KOBE DAIMARU,"{'Mon': '10:00-19:00\u3000不定休', 'Tue': '10:00-19:00\u3000不定休', 'Wed': '10:00-19:00\u3000不定休', 'Thu': '10:00-19:00\u3000不定休', 'Fri': '10:00-19:00\u3000不定休', 'Sat': '10:00-19:00\u3000不定休', 'Sun': '10:00-19:00\u3000不定休'}",0789587756,6500037,01JJWYN4KVNGV986J2ABG2QA38,,https://t.yapp.li/v1/cyan/margarethowell/shops/data?limit=1000&customorder=custom
"中央区 明石町 40 6F, 神戸市, 兵庫県, 6500037, Japan",margarethowell,神戸市,Japan,"{'brand': 'margarethowell', 'fascia': 'KINKI', 'category': 'MEN, MHL. MEN', 'edit_date': '20250228', 'lat_lon_source': 'thirdparty'}",34.6888187,135.1883508,MARGARET HOWELL KOBE DAIMARU,"{'Mon': '10:00-19:00\u3000不定休', 'Tue': '10:00-19:00\u3000不定休', 'Wed': '10:00-19:00\u3000不定休', 'Thu': '10:00-19:00\u3000不定休', 'Fri': '10:00-19:00\u3000不定休', 'Sat': '10:00-19:00\u3000不定休', 'Sun': '10:00-19:00\u3000不定休'}",0785959293,6500037,01JJWYN3FW0528P6510099JFZF,,https://t.yapp.li/v1/cyan/margarethowell/shops/data?limit=1000&customorder=custom
"雲井通7-1-1 ミント神戸4F, 神戸市中央区, 兵庫県, 6510096, Japan",margarethowell,神戸市中央区,Japan,"{'brand': 'margarethowell', 'fascia': 'KINKI', 'category': 'MHL. WOMEN, MHL. MEN', 'edit_date': '20250228', 'lat_lon_source': 'thirdparty'}",,,MHL. KOBE MINT,"{'Mon': '11:00-20:00', 'Tue': '11:00-20:00', 'Wed': '11:00-20:00', 'Thu': '11:00-20:00', 'Fri': '11:00-20:00', 'Sat': '11:00-20:00', 'Sun': '11:00-20:00'}",0788559669,6510096,01JJWYN2D270TN4AWXCGTMGMWJ,,https://t.yapp.li/v1/cyan/margarethowell/shops/data?limit=1000&customorder=custom
"高松町 14-1 2F, 西宮市, 兵庫県, 6638204, Japan",margarethowell,西宮市,Japan,"{'brand': 'margarethowell', 'fascia': 'KINKI', 'category': 'WOMEN, HOUSEHOLD GOODS, MHL. WOMEN', 'edit_date': '20250228', 'lat_lon_source': 'thirdparty'}",34.743378,135.3569706,MARGARET HOWELL NISHINOMIYA HANKYU,"{'Mon': '10:00-20:00\u3000不定休', 'Tue': '10:00-20:00\u3000不定休', 'Wed': '10:00-20:00\u3000不定休', 'Thu': '10:00-20:00\u3000不定休', 'Fri': '10:00-20:00\u3000不定休', 'Sat': '10:00-20:00\u3000不定休', 'Sun': '10:00-20:00\u3000不定休'}",0798627513,6638204,01JJWYN19P071N1MEW1XQEETYB,,https://t.yapp.li/v1/cyan/margarethowell/shops/data?limit=1000&customorder=custom
"北区 表町 2-1-1 2F, 岡山市, 岡山県, 7008625, Japan",margarethowell,岡山市,Japan,"{'brand': 'margarethowell', 'fascia': 'CHUGOKU / SHIKOKU', 'category': 'WOMEN, HOUSEHOLD GOODS, MHL. WOMEN', 'edit_date': '20250228', 'lat_lon_source': 'thirdparty'}",34.6618669,133.9279687,MARGARET HOWELL OKAYAMA TENMAYA,"{'Mon': '10:00-19:30\u3000不定休', 'Tue': '10:00-19:30\u3000不定休', 'Wed': '10:00-19:30\u3000不定休', 'Thu': '10:00-19:30\u3000不定休', 'Fri': '10:00-19:30\u3000不定休', 'Sat': '10:00-19:30\u3000不定休', 'Sun': '10:00-19:30\u3000不定休'}",0862317814,7008625,01JJWYN06E4680Y7WPWZ3BJ4ZP,,https://t.yapp.li/v1/cyan/margarethowell/shops/data?limit=1000&customorder=custom
"中区 新天地 2-1 新館 1F, 広島市, 広島県, 7300034, Japan",margarethowell,広島市,Japan,"{'brand': 'margarethowell', 'fascia': 'CHUGOKU / SHIKOKU', 'category': 'WOMEN, MEN, MHL. WOMEN, MHL. MEN', 'edit_date': '20250228', 'lat_lon_source': 'thirdparty'}",,,MARGARET HOWELL HIROSHIMA PARCO,"{'Mon': '10:00-20:30\u3000不定休', 'Tue': '10:00-20:30\u3000不定休', 'Wed': '10:00-20:30\u3000不定休', 'Thu': '10:00-20:30\u3000不定休', 'Fri': '10:00-20:30\u3000不定休', 'Sat': '10:00-20:30\u3000不定休', 'Sun': '10:00-20:30\u3000不定休'}",0822367075,7300034,01JJWYMZ3ASXMR8M2XMAG6TD4Q,,https://t.yapp.li/v1/cyan/margarethowell/shops/data?limit=1000&customorder=custom
"丸亀町 7-16 丸亀町グリーン 西館 1F, 高松市, 香川県, 7600029 , Japan",margarethowell,高松市,Japan,"{'brand': 'margarethowell', 'fascia': 'CHUGOKU / SHIKOKU', 'category': 'WOMEN, HOUSEHOLD GOODS, MHL. WOMEN', 'edit_date': '20250228', 'lat_lon_source': 'thirdparty'}",34.3425629,134.0487641,MARGARET HOWELL TAKAMATSU,"{'Mon': '11:00-20:00\u3000不定休', 'Tue': '11:00-20:00\u3000不定休', 'Wed': '11:00-20:00\u3000不定休', 'Thu': '11:00-20:00\u3000不定休', 'Fri': '11:00-20:00\u3000不定休', 'Sat': '11:00-20:00\u3000不定休', 'Sun': '11:00-20:00\u3000不定休'}",0878134557,7600029 ,01JJWYMY049E3EHB05FE4W9HDY,,https://t.yapp.li/v1/cyan/margarethowell/shops/data?limit=1000&customorder=custom
"二番町 3-6-5, 松山市, 愛媛県, 7900002, Japan",margarethowell,松山市,Japan,"{'brand': 'margarethowell', 'fascia': 'CHUGOKU / SHIKOKU', 'category': 'WOMEN, HOUSEHOLD GOODS, MHL. WOMEN', 'edit_date': '20250228', 'lat_lon_source': 'thirdparty'}",33.839899,132.7660613,MARGARET HOWELL MATSUYAMA,"{'Mon': '10:30-19:00\u3000第1･3水曜日定休', 'Tue': '10:30-19:00\u3000第1･3水曜日定休', 'Wed': '10:30-19:00\u3000第1･3水曜日定休', 'Thu': '10:30-19:00\u3000第1･3水曜日定休', 'Fri': '10:30-19:00\u3000第1･3水曜日定休', 'Sat': '10:30-19:00\u3000第1･3水曜日定休', 'Sun': '10:30-19:00\u3000第1･3水曜日定休'}",0899216673,7900002,01JJWYMWXBAPDHWEFJ659RECT4,,https://t.yapp.li/v1/cyan/margarethowell/shops/data?limit=1000&customorder=custom
"中央区 天神 1-4-1 東館 3F, 福岡市, 福岡県, 8108717 , Japan",margarethowell,福岡市,Japan,"{'brand': 'margarethowell', 'fascia': 'KYUSHU / OKINAWA', 'category': 'WOMEN, HOUSEHOLD GOODS, MHL. WOMEN', 'edit_date': '20250228', 'lat_lon_source': 'thirdparty'}",33.5889736,130.4002379,MARGARET HOWELL FUKUOKA TENJIN DAIMARU,"{'Mon': '10:00-19:00\u3000不定休', 'Tue': '10:00-19:00\u3000不定休', 'Wed': '10:00-19:00\u3000不定休', 'Thu': '10:00-19:00\u3000不定休', 'Fri': '10:00-19:00\u3000不定休', 'Sat': '10:00-19:00\u3000不定休', 'Sun': '10:00-19:00\u3000不定休'}",0927220670,8108717 ,01JJWYMTPN4FA0E1TMGXQ05PS6,,https://t.yapp.li/v1/cyan/margarethowell/shops/data?limit=1000&customorder=custom
"博多区 博多駅中央街 1-1 4F, 福岡市, 福岡県, 8120012, Japan",margarethowell,福岡市,Japan,"{'brand': 'margarethowell', 'fascia': 'KYUSHU / OKINAWA', 'category': 'MHL. WOMEN, MHL. MEN', 'edit_date': '20250228', 'lat_lon_source': 'thirdparty'}",33.5900973,130.4175044,MHL. AMU PLAZA HAKATA,"{'Mon': '10:00-20:00\u3000不定休', 'Tue': '10:00-20:00\u3000不定休', 'Wed': '10:00-20:00\u3000不定休', 'Thu': '10:00-20:00\u3000不定休', 'Fri': '10:00-20:00\u3000不定休', 'Sat': '10:00-20:00\u3000不定休', 'Sun': '10:00-20:00\u3000不定休'}",0924745088,8120012,01JJWYMSKAGZZ9E7D6935Q44NW,,https://t.yapp.li/v1/cyan/margarethowell/shops/data?limit=1000&customorder=custom
"小倉北区 船場町 1-1 新館 2F, 北九州市, 福岡県, 8028511, Japan",margarethowell,北九州市,Japan,"{'brand': 'margarethowell', 'fascia': 'KYUSHU / OKINAWA', 'category': 'WOMEN, HOUSEHOLD GOODS, MHL. WOMEN', 'edit_date': '20250228', 'lat_lon_source': 'thirdparty'}",33.8838804,130.8771052,MARGARET HOWELL KOKURA IZUTSUYA,"{'Mon': '10:00-19:00\u3000不定休', 'Tue': '10:00-19:00\u3000不定休', 'Wed': '10:00-19:00\u3000不定休', 'Thu': '10:00-19:00\u3000不定休', 'Fri': '10:00-19:00\u3000不定休', 'Sat': '10:00-19:00\u3000不定休', 'Sun': '10:00-19:00\u3000不定休'}",0935133523,8028511,01JJWYMRF8YGMG090HNB0GFH86,,https://t.yapp.li/v1/cyan/margarethowell/shops/data?limit=1000&customorder=custom
"中央区 天神 2-11-1 本館 2F, 福岡市, 福岡県, 8100001, Japan",margarethowell,福岡市,Japan,"{'brand': 'margarethowell', 'fascia': 'KYUSHU / OKINAWA', 'category': 'MHL. WOMEN, MHL. MEN', 'edit_date': '20250228', 'lat_lon_source': 'thirdparty'}",33.591001,130.3973829,MHL. FUKUOKA PARCO,"{'Mon': '10:00-20:30\u3000不定休', 'Tue': '10:00-20:30\u3000不定休', 'Wed': '10:00-20:30\u3000不定休', 'Thu': '10:00-20:30\u3000不定休', 'Fri': '10:00-20:30\u3000不定休', 'Sat': '10:00-20:30\u3000不定休', 'Sun': '10:00-20:30\u3000不定休'}",0927123302,8100001,01JJWYMP8H8T7V72R0KV4RMGGC,,https://t.yapp.li/v1/cyan/margarethowell/shops/data?limit=1000&customorder=custom
"浜町 4-11 2F, 長崎市, 長崎県, 8500853, Japan",margarethowell,長崎市,Japan,"{'brand': 'margarethowell', 'fascia': 'KYUSHU / OKINAWA', 'category': 'WOMEN, MEN, HOUSEHOLD GOODS, MHL. WOMEN, MHL. MEN', 'edit_date': '20250228', 'lat_lon_source': 'thirdparty'}",32.7438741,129.8767618,MARGARET HOWELL NAGASAKI HAMACROSS411,"{'Mon': '10:00-20:00\u3000不定休', 'Tue': '10:00-20:00\u3000不定休', 'Wed': '10:00-20:00\u3000不定休', 'Thu': '10:00-20:00\u3000不定休', 'Fri': '10:00-20:00\u3000不定休', 'Sat': '10:00-20:00\u3000不定休', 'Sun': '10:00-20:00\u3000不定休'}",0958270120,8500853,01JJWYMN56D9F91A1AY692FJF1,,https://t.yapp.li/v1/cyan/margarethowell/shops/data?limit=1000&customorder=custom
"中央区 手取本町 6-1 本館 3F, 熊本市, 熊本県, 8600808, Japan",margarethowell,熊本市,Japan,"{'brand': 'margarethowell', 'fascia': 'KYUSHU / OKINAWA', 'category': 'WOMEN, HOUSEHOLD GOODS, MHL. WOMEN', 'edit_date': '20250228', 'lat_lon_source': 'thirdparty'}",32.8023245,130.7099107,MARGARET HOWELL KUMAMOTO TSURUYA,"{'Mon': '10:00-19:00\u3000金･土曜日 10:00-19:30\u3000不定休', 'Tue': '10:00-19:00\u3000金･土曜日 10:00-19:30\u3000不定休', 'Wed': '10:00-19:00\u3000金･土曜日 10:00-19:30\u3000不定休', 'Thu': '10:00-19:00\u3000金･土曜日 10:00-19:30\u3000不定休', 'Fri': '10:00-19:00\u3000金･土曜日 10:00-19:30\u3000不定休', 'Sat': '10:00-19:00\u3000金･土曜日 10:00-19:30\u3000不定休', 'Sun': '10:00-19:00\u3000金･土曜日 10:00-19:30\u3000不定休'}",0963517115,8600808,01JJWYMM1JR9KK4WT32MDECW73,,https://t.yapp.li/v1/cyan/margarethowell/shops/data?limit=1000&customorder=custom
"中央区 手取本町 6-1 東館 1F, 熊本市, 熊本県, 8600808, Japan",margarethowell,熊本市,Japan,"{'brand': 'margarethowell', 'fascia': 'KYUSHU / OKINAWA', 'category': 'MEN, MHL. MEN', 'edit_date': '20250228', 'lat_lon_source': 'thirdparty'}",32.8020571,130.7101153,MARGARET HOWELL KUMAMOTO TSURUYA,"{'Mon': '10:00-19:00\u3000金･土曜日 10:00-19:30\u3000不定休', 'Tue': '10:00-19:00\u3000金･土曜日 10:00-19:30\u3000不定休', 'Wed': '10:00-19:00\u3000金･土曜日 10:00-19:30\u3000不定休', 'Thu': '10:00-19:00\u3000金･土曜日 10:00-19:30\u3000不定休', 'Fri': '10:00-19:00\u3000金･土曜日 10:00-19:30\u3000不定休', 'Sat': '10:00-19:00\u3000金･土曜日 10:00-19:30\u3000不定休', 'Sun': '10:00-19:00\u3000金･土曜日 10:00-19:30\u3000不定休'}",0963516177,8600808,01JJWYMJY405S9VFVKVF94CY7R,,https://t.yapp.li/v1/cyan/margarethowell/shops/data?limit=1000&customorder=custom
"中央区 手取本町 6-1 東館 1F, 熊本市, 熊本県, 8600808, Japan",margarethowell,熊本市,Japan,"{'brand': 'margarethowell', 'fascia': 'KYUSHU / OKINAWA', 'category': 'MHL. WOMEN, MHL. MEN', 'edit_date': '20250228', 'lat_lon_source': 'thirdparty'}",32.8020571,130.7101153,MHL. KUMAMOTO TSURUYA,"{'Mon': '10:00-19:00\u3000金･土曜日 10:00-19:30\u3000不定休', 'Tue': '10:00-19:00\u3000金･土曜日 10:00-19:30\u3000不定休', 'Wed': '10:00-19:00\u3000金･土曜日 10:00-19:30\u3000不定休', 'Thu': '10:00-19:00\u3000金･土曜日 10:00-19:30\u3000不定休', 'Fri': '10:00-19:00\u3000金･土曜日 10:00-19:30\u3000不定休', 'Sat': '10:00-19:00\u3000金･土曜日 10:00-19:30\u3000不定休', 'Sun': '10:00-19:00\u3000金･土曜日 10:00-19:30\u3000不定休'}",0963227739,8600808,01JJWYMHV639HBPSPMRJ0HS3D9,,https://t.yapp.li/v1/cyan/margarethowell/shops/data?limit=1000&customorder=custom
"府内町 2-1-4, 大分市, 大分県, 8700021 , Japan",margarethowell,大分市,Japan,"{'brand': 'margarethowell', 'fascia': 'KYUSHU / OKINAWA', 'category': 'WOMEN, HOUSEHOLD GOODS, MHL. WOMEN', 'edit_date': '20250228', 'lat_lon_source': 'thirdparty'}",33.2362471,131.6072015,MARGARET HOWELL OITA TOKIHA,"{'Mon': 'TEL. 0975386262', 'Tue': 'TEL. 0975386262', 'Wed': 'TEL. 0975386262', 'Thu': 'TEL. 0975386262', 'Fri': 'TEL. 0975386262', 'Sat': 'TEL. 0975386262', 'Sun': 'TEL. 0975386262'}",トキハ会館 トゥインクルシティ 1F,8700021 ,01JJWYMGR3TC4898689MKADZB6,,https://t.yapp.li/v1/cyan/margarethowell/shops/data?limit=1000&customorder=custom
"呉服町 6-5 1F, 鹿児島市, 鹿児島県, 8920826, Japan",margarethowell,鹿児島市,Japan,"{'brand': 'margarethowell', 'fascia': 'KYUSHU / OKINAWA', 'category': 'WOMEN, HOUSEHOLD GOODS, MHL. WOMEN', 'edit_date': '20250228', 'lat_lon_source': 'thirdparty'}",31.5909764,130.5547108,MARGARET HOWELL KAGOSHIMA MARUYA GARDENS,"{'Mon': '10:00-20:00\u3000不定休', 'Tue': '10:00-20:00\u3000不定休', 'Wed': '10:00-20:00\u3000不定休', 'Thu': '10:00-20:00\u3000不定休', 'Fri': '10:00-20:00\u3000不定休', 'Sat': '10:00-20:00\u3000不定休', 'Sun': '10:00-20:00\u3000不定休'}",0992270277,8920826,01JJWYMFMMYE600BD6P9J5MBX8,,https://t.yapp.li/v1/cyan/margarethowell/shops/data?limit=1000&customorder=custom
"大曲幸町 3-7-6 三井アウトレットパーク札幌北広島 1020, 北広島市, 北海道, 0611278, Japan",margarethowell,北広島市,Japan,"{'brand': 'margarethowell', 'fascia': 'OUTLET', 'category': 'WOMEN, MEN, HOUSEHOLD GOODS, MHL. WOMEN, MHL. MEN', 'edit_date': '20250228', 'lat_lon_source': 'thirdparty'}",42.9710713,141.4688045,A.G.O. SAPPORO KITAHIROSHIMA,"{'Mon': '10:00-20:00\u3000不定休', 'Tue': '10:00-20:00\u3000不定休', 'Wed': '10:00-20:00\u3000不定休', 'Thu': '10:00-20:00\u3000不定休', 'Fri': '10:00-20:00\u3000不定休', 'Sat': '10:00-20:00\u3000不定休', 'Sun': '10:00-20:00\u3000不定休'}",0113777506,0611278,01JJWYMEEWEWRASHWRSSBYKN2S,,https://t.yapp.li/v1/cyan/margarethowell/shops/data?limit=1000&customorder=custom
"越名町 2058 佐野プレミアムアウトレット 385, 佐野市, 栃木県, 3270822, Japan",margarethowell,佐野市,Japan,"{'brand': 'margarethowell', 'fascia': 'OUTLET', 'category': 'WOMEN, MEN, HOUSEHOLD GOODS, MHL. WOMEN, MHL. MEN', 'edit_date': '20250228', 'lat_lon_source': 'thirdparty'}",36.2931118,139.6010001,A.G.O. SANO,"{'Mon': '10:00-20:00\u3000不定休', 'Tue': '10:00-20:00\u3000不定休', 'Wed': '10:00-20:00\u3000不定休', 'Thu': '10:00-20:00\u3000不定休', 'Fri': '10:00-20:00\u3000不定休', 'Sat': '10:00-20:00\u3000不定休', 'Sun': '10:00-20:00\u3000不定休'}",0283273035,3270822,01JJWYMDBE3XQMRCMSMQ2GQNCA,,https://t.yapp.li/v1/cyan/margarethowell/shops/data?limit=1000&customorder=custom
"東町 4-50, 越谷市, 埼玉県, 3430826 , Japan",margarethowell,越谷市,Japan,"{'brand': 'margarethowell', 'fascia': 'OUTLET', 'category': 'WOMEN, MEN, HOUSEHOLD GOODS, MHL. WOMEN, MHL. MEN', 'edit_date': '20250228', 'lat_lon_source': 'thirdparty'}",35.8800975,139.8230798,A.G.O. KOSHIGAYA,"{'Mon': 'TEL. 0489401863', 'Tue': 'TEL. 0489401863', 'Wed': 'TEL. 0489401863', 'Thu': 'TEL. 0489401863', 'Fri': 'TEL. 0489401863', 'Sat': 'TEL. 0489401863', 'Sun': 'TEL. 0489401863'}",レイクタウンアウトレット2街区 1F,3430826 ,01JJWYMC7ZFK9RVNXRKBZ15VJB,,https://t.yapp.li/v1/cyan/margarethowell/shops/data?limit=1000&customorder=custom
"中島 398 三井アウトレットパーク木更津1F 7210, 木更津市, 千葉県, 2920008, Japan",margarethowell,木更津市,Japan,"{'brand': 'margarethowell', 'fascia': 'OUTLET', 'category': 'WOMEN, MEN, HOUSEHOLD GOODS, MHL. WOMEN, MHL. MEN', 'edit_date': '20250228', 'lat_lon_source': 'thirdparty'}",35.4355979,139.9294029,A.G.O. KISARAZU,"{'Mon': '10:00-20:00\u3000不定休', 'Tue': '10:00-20:00\u3000不定休', 'Wed': '10:00-20:00\u3000不定休', 'Thu': '10:00-20:00\u3000不定休', 'Fri': '10:00-20:00\u3000不定休', 'Sat': '10:00-20:00\u3000不定休', 'Sun': '10:00-20:00\u3000不定休'}",0438400118,2920008,01JJWYMB4RHPQY4DR7SN33Q57M,,https://t.yapp.li/v1/cyan/margarethowell/shops/data?limit=1000&customorder=custom
"美浜区ひび野2-6-1 三井アウトレットパーク幕張 D-113, 千葉市, 千葉県, 2610021, Japan",margarethowell,千葉市,Japan,"{'brand': 'margarethowell', 'fascia': 'OUTLET', 'category': 'WOMEN, MEN, HOUSEHOLD GOODS, MHL. WOMEN, MHL. MEN', 'edit_date': '20250228', 'lat_lon_source': 'thirdparty'}",35.6463911,140.0405025,A.G.O. MAKUHARI,"{'Mon': '10:00-20:00\u3000不定休', 'Tue': '10:00-20:00\u3000不定休', 'Wed': '10:00-20:00\u3000不定休', 'Thu': '10:00-20:00\u3000不定休', 'Fri': '10:00-20:00\u3000不定休', 'Sat': '10:00-20:00\u3000不定休', 'Sun': '10:00-20:00\u3000不定休'}",0432742088,2610021,01JJWYMA1EDPASCMW0BK24F9GA,,https://t.yapp.li/v1/cyan/margarethowell/shops/data?limit=1000&customorder=custom
"成城 6-15-20 FLOTT成城 101, 世田谷区, 東京都, 1570066, Japan",margarethowell,世田谷区,Japan,"{'brand': 'margarethowell', 'fascia': 'OUTLET', 'category': 'WOMEN, MEN, HOUSEHOLD GOODS, MHL. WOMEN, MHL. MEN', 'edit_date': '20250228', 'lat_lon_source': 'thirdparty'}",,,A.G.O. SEIJO,"{'Mon': '10:00-19:00\u3000不定休', 'Tue': '10:00-19:00\u3000不定休', 'Wed': '10:00-19:00\u3000不定休', 'Thu': '10:00-19:00\u3000不定休', 'Fri': '10:00-19:00\u3000不定休', 'Sat': '10:00-19:00\u3000不定休', 'Sun': '10:00-19:00\u3000不定休'}",0357877071,1570066,01JJWYM8V15NB0M4JAPDTYQR2N,,https://t.yapp.li/v1/cyan/margarethowell/shops/data?limit=1000&customorder=custom
"軽井沢町 軽井沢 軽井沢プリンスショッピングプラザニューウエスト 64, 北佐久郡, 長野県, 3890102, Japan",margarethowell,北佐久郡,Japan,"{'brand': 'margarethowell', 'fascia': 'OUTLET', 'category': 'WOMEN, MEN, HOUSEHOLD GOODS, MHL. WOMEN, MHL. MEN', 'edit_date': '20250228', 'lat_lon_source': 'thirdparty'}",36.3401716,138.6277485,A.G.O. KARUIZAWA,"{'Mon': '10:00-19:00\u3000不定休', 'Tue': '10:00-19:00\u3000不定休', 'Wed': '10:00-19:00\u3000不定休', 'Thu': '10:00-19:00\u3000不定休', 'Fri': '10:00-19:00\u3000不定休', 'Sat': '10:00-19:00\u3000不定休', 'Sun': '10:00-19:00\u3000不定休'}",0267412507,3890102,01JJWYM7MAKP78JV0FZD42XXA3,,https://t.yapp.li/v1/cyan/margarethowell/shops/data?limit=1000&customorder=custom
"深沢 1312 御殿場プレミアムアウトレット 550, 御殿場市, 静岡県, 4120023, Japan",margarethowell,御殿場市,Japan,"{'brand': 'margarethowell', 'fascia': 'OUTLET', 'category': 'WOMEN, MEN, HOUSEHOLD GOODS, MHL. WOMEN, MHL. MEN', 'edit_date': '20250228', 'lat_lon_source': 'thirdparty'}",35.3067192,138.9585442,A.G.O. GOTEMBA,"{'Mon': '3月-11月 10：00-20：00\u300012月-2月 10：00-19：00\u3000休業日 年1回(2月第3木曜日)', 'Tue': '3月-11月 10：00-20：00\u300012月-2月 10：00-19：00\u3000休業日 年1回(2月第3木曜日)', 'Wed': '3月-11月 10：00-20：00\u300012月-2月 10：00-19：00\u3000休業日 年1回(2月第3木曜日)', 'Thu': '3月-11月 10：00-20：00\u300012月-2月 10：00-19：00\u3000休業日 年1回(2月第3木曜日)', 'Fri': '3月-11月 10：00-20：00\u300012月-2月 10：00-19：00\u3000休業日 年1回(2月第3木曜日)', 'Sat': '3月-11月 10：00-20：00\u300012月-2月 10：00-19：00\u3000休業日 年1回(2月第3木曜日)', 'Sun': '3月-11月 10：00-20：00\u300012月-2月 10：00-19：00\u3000休業日 年1回(2月第3木曜日)'}",0550813162,4120023,01JJWYM6HFR7G3HC2A1Z1MGQNR,,https://t.yapp.li/v1/cyan/margarethowell/shops/data?limit=1000&customorder=custom
"長島町 浦安 368 ジャズドリーム長島 10180, 桑名市, 三重県, 5111135, Japan",margarethowell,桑名市,Japan,"{'brand': 'margarethowell', 'fascia': 'OUTLET', 'category': 'WOMEN, MEN, HOUSEHOLD GOODS, MHL. WOMEN, MHL. MEN', 'edit_date': '20250228', 'lat_lon_source': 'thirdparty'}",35.0305353,136.7227071,A.G.O. NAGASHIMA,"{'Mon': '10:00-20:00\u3000不定休', 'Tue': '10:00-20:00\u3000不定休', 'Wed': '10:00-20:00\u3000不定休', 'Thu': '10:00-20:00\u3000不定休', 'Fri': '10:00-20:00\u3000不定休', 'Sat': '10:00-20:00\u3000不定休', 'Sun': '10:00-20:00\u3000不定休'}",0594458739,5111135,01JJWYM5AXPYKSF3WDS5B4A37T,,https://t.yapp.li/v1/cyan/margarethowell/shops/data?limit=1000&customorder=custom
"竜王町 大字 薬師字 砂山 1178-694 三井アウトレットパーク滋賀竜王 119, 蒲生郡, 滋賀県, 5202551, Japan",margarethowell,蒲生郡,Japan,"{'brand': 'margarethowell', 'fascia': 'OUTLET', 'category': 'WOMEN, MEN, HOUSEHOLD GOODS, MHL. WOMEN, MHL. MEN', 'edit_date': '20250228', 'lat_lon_source': 'thirdparty'}",35.0585006,136.0945223,A.G.O. SHIGA RYUO,"{'Mon': '10:00-20:00\u3000不定休', 'Tue': '10:00-20:00\u3000不定休', 'Wed': '10:00-20:00\u3000不定休', 'Thu': '10:00-20:00\u3000不定休', 'Fri': '10:00-20:00\u3000不定休', 'Sat': '10:00-20:00\u3000不定休', 'Sun': '10:00-20:00\u3000不定休'}",0748293433,5202551,01JJWYM47PNPEY8SZXKZSRAX7E,,https://t.yapp.li/v1/cyan/margarethowell/shops/data?limit=1000&customorder=custom
"北区 上津台 7-3, 神戸市, 兵庫県, 6511515, Japan",margarethowell,神戸市,Japan,"{'brand': 'margarethowell', 'fascia': 'OUTLET', 'category': 'WOMEN, MEN, HOUSEHOLD GOODS, MHL. WOMEN, MHL. MEN', 'edit_date': '20250228', 'lat_lon_source': 'thirdparty'}",34.8585383,135.1860656,A.G.O. KOBE SANDA,"{'Mon': 'TEL. 0789866052', 'Tue': 'TEL. 0789866052', 'Wed': 'TEL. 0789866052', 'Thu': 'TEL. 0789866052', 'Fri': 'TEL. 0789866052', 'Sat': 'TEL. 0789866052', 'Sun': 'TEL. 0789866052'}",神戸三田プレミアムアウトレット 2750,6511515,01JJWYM32NGWHCR1TA6EXHZT4E,,https://t.yapp.li/v1/cyan/margarethowell/shops/data?limit=1000&customorder=custom
"土岐ヶ丘 1-2 土岐プレミアムアウトレット 1915, 土岐市, 岐阜県, 5095127, Japan",margarethowell,土岐市,Japan,"{'brand': 'margarethowell', 'fascia': 'OUTLET', 'category': 'WOMEN, MEN, HOUSEHOLD GOODS, MHL. WOMEN, MHL. MEN', 'edit_date': '20250228', 'lat_lon_source': 'thirdparty'}",,,A.G.O. TOKI,"{'Mon': '10：00〜20：00\u3000休業日 年1回(2月第3木曜日)', 'Tue': '10：00〜20：00\u3000休業日 年1回(2月第3木曜日)', 'Wed': '10：00〜20：00\u3000休業日 年1回(2月第3木曜日)', 'Thu': '10：00〜20：00\u3000休業日 年1回(2月第3木曜日)', 'Fri': '10：00〜20：00\u3000休業日 年1回(2月第3木曜日)', 'Sat': '10：00〜20：00\u3000休業日 年1回(2月第3木曜日)', 'Sun': '10：00〜20：00\u3000休業日 年1回(2月第3木曜日)'}",0572565525,5095127,01JJWYM1YY0QVDFWF1ZY9TRXFY,,https://t.yapp.li/v1/cyan/margarethowell/shops/data?limit=1000&customorder=custom
", , LONDON, 34 WIGMORE STREET, Japan",margarethowell,,Japan,"{'brand': 'margarethowell', 'fascia': 'UNITED KINGDOM', 'category': '', 'edit_date': '20250228', 'lat_lon_source': 'thirdparty'}",,,MARGARET HOWELL LONDON WIGMORE STREET,"{'Mon': 'TEL. +44 (0)20 7009 9009', 'Tue': 'TEL. +44 (0)20 7009 9009', 'Wed': 'TEL. +44 (0)20 7009 9009', 'Thu': 'TEL. +44 (0)20 7009 9009', 'Fri': 'TEL. +44 (0)20 7009 9009', 'Sat': 'TEL. +44 (0)20 7009 9009', 'Sun': 'TEL. +44 (0)20 7009 9009'}",W1U 2RS,34 WIGMORE STREET,01JJWYM0W4RGRDCEZC84PRXKFQ,,https://t.yapp.li/v1/cyan/margarethowell/shops/data?limit=1000&customorder=custom
", , LONDON, 111 FULHAM ROAD, Japan",margarethowell,,Japan,"{'brand': 'margarethowell', 'fascia': 'UNITED KINGDOM', 'category': '', 'edit_date': '20250228', 'lat_lon_source': 'thirdparty'}",,,MARGARET HOWELL LONDON FULHAM ROAD,"{'Mon': 'TEL. +44 (0)20 7591 2255', 'Tue': 'TEL. +44 (0)20 7591 2255', 'Wed': 'TEL. +44 (0)20 7591 2255', 'Thu': 'TEL. +44 (0)20 7591 2255', 'Fri': 'TEL. +44 (0)20 7591 2255', 'Sat': 'TEL. +44 (0)20 7591 2255', 'Sun': 'TEL. +44 (0)20 7591 2255'}",SW3 6RL,111 FULHAM ROAD,01JJWYKZRYZYX9189PQ30QZ75D,,https://t.yapp.li/v1/cyan/margarethowell/shops/data?limit=1000&customorder=custom
", , LONDON, 19 OLD NICHOL STREET, Japan",margarethowell,,Japan,"{'brand': 'margarethowell', 'fascia': 'UNITED KINGDOM', 'category': '', 'edit_date': '20250228', 'lat_lon_source': 'thirdparty'}",51.5247682,-0.0754655,MHL. LONDON OLD NICHOL STREET,"{'Mon': 'TEL. +44 (0)20 7033 9494', 'Tue': 'TEL. +44 (0)20 7033 9494', 'Wed': 'TEL. +44 (0)20 7033 9494', 'Thu': 'TEL. +44 (0)20 7033 9494', 'Fri': 'TEL. +44 (0)20 7033 9494', 'Sat': 'TEL. +44 (0)20 7033 9494', 'Sun': 'TEL. +44 (0)20 7033 9494'}",E2 7HR,19 OLD NICHOL STREET,01JJWYKYMT3V2RVR45V8SDM4WW,,https://t.yapp.li/v1/cyan/margarethowell/shops/data?limit=1000&customorder=custom
", , LONDON, 22 NEW CAVENDISH STREET, Japan",margarethowell,,Japan,"{'brand': 'margarethowell', 'fascia': 'UNITED KINGDOM', 'category': '', 'edit_date': '20250228', 'lat_lon_source': 'thirdparty'}",,,MHL. LONDON NEW CAVENDISH STREET,"{'Mon': 'TEL. +44 (0)20 7487 3803', 'Tue': 'TEL. +44 (0)20 7487 3803', 'Wed': 'TEL. +44 (0)20 7487 3803', 'Thu': 'TEL. +44 (0)20 7487 3803', 'Fri': 'TEL. +44 (0)20 7487 3803', 'Sat': 'TEL. +44 (0)20 7487 3803', 'Sun': 'TEL. +44 (0)20 7487 3803'}",W1G 8TT,22 NEW CAVENDISH STREET,01JJWYKXHGZMTWA525N81BZKBG,,https://t.yapp.li/v1/cyan/margarethowell/shops/data?limit=1000&customorder=custom
", , RICHMOND, 7-8 DUKE STREET, Japan",margarethowell,,Japan,"{'brand': 'margarethowell', 'fascia': 'UNITED KINGDOM', 'category': '', 'edit_date': '20250228', 'lat_lon_source': 'thirdparty'}",,,MARGARET HOWELL LONDON RICHMOND,"{'Mon': 'TEL. +44 (0)20 8948 5005', 'Tue': 'TEL. +44 (0)20 8948 5005', 'Wed': 'TEL. +44 (0)20 8948 5005', 'Thu': 'TEL. +44 (0)20 8948 5005', 'Fri': 'TEL. +44 (0)20 8948 5005', 'Sat': 'TEL. +44 (0)20 8948 5005', 'Sun': 'TEL. +44 (0)20 8948 5005'}",TW9 1HP,7-8 DUKE STREET,01JJWYKWE4PBM35BSNH31C6C0E,,https://t.yapp.li/v1/cyan/margarethowell/shops/data?limit=1000&customorder=custom
"YARD, DROPS, COAL, 12 BAGLEY WALK ARCHES, Japan",margarethowell,DROPS,Japan,"{'brand': 'margarethowell', 'fascia': 'UNITED KINGDOM', 'category': '', 'edit_date': '20250228', 'lat_lon_source': 'thirdparty'}",,,MHL. LONDON KING'S CROSS,"{'Mon': 'N1C 4DH', 'Tue': 'N1C 4DH', 'Wed': 'N1C 4DH', 'Thu': 'N1C 4DH', 'Fri': 'N1C 4DH', 'Sat': 'N1C 4DH', 'Sun': 'N1C 4DH'}",LONDON,12 BAGLEY WALK ARCHES,01JJWYKVAWKMGBA81807MTGNP0,,https://t.yapp.li/v1/cyan/margarethowell/shops/data?limit=1000&customorder=custom
", PARIS, 75008, 6 PLACE DE LA MADELEINE, Japan",margarethowell,PARIS,Japan,"{'brand': 'margarethowell', 'fascia': 'FRANCE', 'category': '', 'edit_date': '20250228', 'lat_lon_source': 'thirdparty'}",,,MARGARET HOWELL PARIS MADELEINE,"{'Mon': '', 'Tue': '', 'Wed': '', 'Thu': '', 'Fri': '', 'Sat': '', 'Sun': ''}",+33 (0)1 42 61 90 00,6 PLACE DE LA MADELEINE,01JJWYKT7PEQ0XZTRE4RF47P3D,,https://t.yapp.li/v1/cyan/margarethowell/shops/data?limit=1000&customorder=custom
", PARIS, 75003, 37 RUE DEBELLEYME, Japan",margarethowell,PARIS,Japan,"{'brand': 'margarethowell', 'fascia': 'FRANCE', 'category': '', 'edit_date': '20250228', 'lat_lon_source': 'thirdparty'}",,,MHL. PARIS MARAIS,"{'Mon': '', 'Tue': '', 'Wed': '', 'Thu': '', 'Fri': '', 'Sat': '', 'Sun': ''}",+33 (0)1 49 27 80 00,37 RUE DEBELLEYME,01JJWYKS3WD97WA8HTNMW6WSHN,,https://t.yapp.li/v1/cyan/margarethowell/shops/data?limit=1000&customorder=custom
", FLORENCE, 50123, PIAZZA CARLO GOLDONI 5, Japan",margarethowell,FLORENCE,Japan,"{'brand': 'margarethowell', 'fascia': 'ITALY', 'category': '', 'edit_date': '20250228', 'lat_lon_source': 'thirdparty'}",,,MARGARET HOWELL FIRENZE,"{'Mon': '', 'Tue': '', 'Wed': '', 'Thu': '', 'Fri': '', 'Sat': '', 'Sun': ''}",+39 (0)55 289260,PIAZZA CARLO GOLDONI 5,01JJWYKR02HMDPEKK4FP45TBNH,,https://t.yapp.li/v1/cyan/margarethowell/shops/data?limit=1000&customorder=custom
