addr_full,brand,city,country,extras,lat,lon,name,opening_hours,phone,postcode,ref,state,website
ΒΙΠΕ Ηρακλείου ΟΔΟΣ 9Α - Εντός ΚΡΗΤΗ ΤV,Everest,,Greece,"{'brand': 'Everest', 'fascia': 'Everest', 'category': 'Food & Beverage', 'edit_date': '2025-05-18', 'lat_lon_source': 'Google'}",35.32166,25.1654,Everest Κρήτη - Ηράκλειο (ΒΙΠΕ ΚΡΗΤΗ TV),{'opening_hour': {}},,,623,,https://www.everest.gr/en/stores/
Λ. Κνωσού 91,Everest,,Greece,"{'brand': 'Everest', 'fascia': 'Everest', 'category': 'Food & Beverage', 'edit_date': '2025-05-18', 'lat_lon_source': 'Google'}",35.32306,25.14178,Everest Κρήτη- Ηράκλειο (Λ. Κνωσού),{'opening_hour': {}},,,619,,https://www.everest.gr/en/stores/
Μενελάου Παρλαμά 81,Everest,,Greece,"{'brand': 'Everest', 'fascia': 'Everest', 'category': 'Food & Beverage', 'edit_date': '2025-05-18', 'lat_lon_source': 'Google'}",35.32322,25.10675,Everest Κρήτη- Ηράκλειο (Μενελάου Παρλαμά),{'opening_hour': {}},,,616,,https://www.everest.gr/en/stores/
"Acharnon 330, Athens",Everest,,Greece,"{'brand': 'Everest', 'fascia': 'Everest', 'category': 'Food & Beverage', 'edit_date': '2025-05-18', 'lat_lon_source': 'Google'}",38.01207,23.72891,Everest Acharnon,"{'opening_hour': {'Sun': '00:00-23:59', 'Mon': '00:00-23:59', 'Tue': '00:00-23:59', 'Wed': '00:00-23:59', 'Thu': '00:00-23:59', 'Fri': '00:00-23:59', 'Sat': '00:00-23:59'}}",,,28,,https://www.everest.gr/en/stores/
"34th km Athens - Souniou Avenue, Athens",Everest,,Greece,"{'brand': 'Everest', 'fascia': 'Everest', 'category': 'Food & Beverage', 'edit_date': '2025-05-18', 'lat_lon_source': 'Google'}",37.81833,23.84221,Everest Agia Marina,"{'opening_hour': {'Sun': '00:00-23:59', 'Mon': '00:00-23:59', 'Tue': '00:00-23:59', 'Wed': '00:00-23:59', 'Thu': '00:00-23:59', 'Fri': '00:00-23:59', 'Sat': '00:00-23:59'}}",,,42,,https://www.everest.gr/en/stores/
"Agios Ioannou 2, Athens",Everest,,Greece,"{'brand': 'Everest', 'fascia': 'Everest', 'category': 'Food & Beverage', 'edit_date': '2025-05-18', 'lat_lon_source': 'Google'}",38.01279,23.8215,Everest Agia Paraskevi,"{'opening_hour': {'Sun': ' 00:00 - 22:00 ', 'Mon': ' 06:00 - 22:00 ', 'Tue': ' 06:00 - 22:00 ', 'Wed': ' 06:00 - 22:00 ', 'Thu': ' 06:00 - 22:00 ', 'Fri': ' 06:00 - 00:00 ', 'Sat': '00:00-23:59'}}",,,26,,https://www.everest.gr/en/stores/
"448 Mesogeion Avenue, Athens",Everest,,Greece,"{'brand': 'Everest', 'fascia': 'Everest', 'category': 'Food & Beverage', 'edit_date': '2025-05-18', 'lat_lon_source': 'Google'}",38.0137,23.8293,Everest Agia Paraskevi (Near ERT),"{'opening_hour': {'Sun': ' 07:00 - 17:00 ', 'Mon': ' 06:00 - 21:00 ', 'Tue': ' 06:00 - 21:00 ', 'Wed': ' 06:00 - 21:00 ', 'Thu': ' 06:00 - 21:00 ', 'Fri': ' 06:00 - 21:00 '}}",,,109,,https://www.everest.gr/en/stores/
"Ethnikis Antistaseos 159-161, Athens",Everest,,Greece,"{'brand': 'Everest', 'fascia': 'Everest', 'category': 'Food & Beverage', 'edit_date': '2025-05-18', 'lat_lon_source': 'Google'}",37.94144,23.74117,Everest Agios Dimitrios (METRO Station),{'opening_hour': {}},,,68,,https://www.everest.gr/en/stores/
"17 Kryoneriou Avenue, Athens",Everest,,Greece,"{'brand': 'Everest', 'fascia': 'Everest', 'category': 'Food & Beverage', 'edit_date': '2025-05-18', 'lat_lon_source': 'Google'}",38.13955,23.84878,Everest Agios Stefanos,"{'opening_hour': {'Sun': '00:00-23:59', 'Mon': '00:00-23:59', 'Tue': '00:00-23:59', 'Wed': '00:00-23:59', 'Thu': '00:00-23:59', 'Fri': '00:00-23:59', 'Sat': '00:00-23:59'}}",,,123,,https://www.everest.gr/en/stores/
"36 Poseidonos Avenue, Athens",Everest,,Greece,"{'brand': 'Everest', 'fascia': 'Everest', 'category': 'Food & Beverage', 'edit_date': '2025-05-18', 'lat_lon_source': 'Google'}",37.91152,23.71076,Everest Alimos,"{'opening_hour': {'Sun': '00:00-23:59', 'Mon': '00:00-23:59', 'Tue': '00:00-23:59', 'Wed': '00:00-23:59', 'Thu': '00:00-23:59', 'Fri': '00:00-23:59', 'Sat': '00:00-23:59'}}",,,71,,https://www.everest.gr/en/stores/
"Agiou Meletiou 61, Athens",Everest,,Greece,"{'brand': 'Everest', 'fascia': 'Everest', 'category': 'Food & Beverage', 'edit_date': '2025-05-18', 'lat_lon_source': 'Google'}",38.00002,23.73318,Everest Amerikis Square,"{'opening_hour': {'Sun': '00:00-23:59', 'Mon': '00:00-23:59', 'Tue': '00:00-23:59', 'Wed': '00:00-23:59', 'Thu': '00:00-23:59', 'Fri': '00:00-23:59', 'Sat': '00:00-23:59'}}",,,12,,https://www.everest.gr/en/stores/
"Soutsou & Athanasiadou 1, Athens",Everest,,Greece,"{'brand': 'Everest', 'fascia': 'Everest', 'category': 'Food & Beverage', 'edit_date': '2025-05-18', 'lat_lon_source': 'Google'}",37.98732,23.75724,Everest Ampelokipi,"{'opening_hour': {'Sun': ' 06:00 - 15:00 ', 'Mon': ' 06:00 - 15:00 ', 'Tue': ' 06:00 - 22:00 ', 'Wed': ' 06:00 - 20:00 ', 'Thu': ' 06:00 - 22:00 ', 'Fri': ' 06:00 - 22:00 ', 'Sat': ' 06:00 - 15:00 '}}",,,606,,https://www.everest.gr/en/stores/
"Kifissias Avenue 4, Athens",Everest,,Greece,"{'brand': 'Everest', 'fascia': 'Everest', 'category': 'Food & Beverage', 'edit_date': '2025-05-18', 'lat_lon_source': 'Google'}",37.98665,23.76173,Everest Ampelokipi (Kifissia),"{'opening_hour': {'Sun': '00:00-23:59', 'Mon': '00:00-23:59', 'Tue': '00:00-23:59', 'Wed': '00:00-23:59', 'Thu': '00:00-23:59', 'Fri': '00:00-23:59', 'Sat': '00:00-23:59'}}",,,22,,https://www.everest.gr/en/stores/
"27 Karamanli Avenue, Athens",Everest,,Greece,"{'brand': 'Everest', 'fascia': 'Everest', 'category': 'Food & Beverage', 'edit_date': '2025-05-18', 'lat_lon_source': 'Google'}",37.73556,23.95024,Everest Anavyssos,{'opening_hour': {}},,,95,,https://www.everest.gr/en/stores/
"126 Pentelis Avenue, Athens",Everest,,Greece,"{'brand': 'Everest', 'fascia': 'Everest', 'category': 'Food & Beverage', 'edit_date': '2025-05-18', 'lat_lon_source': 'Google'}",38.03178,23.81965,Everest Ano Chalandri,"{'opening_hour': {'Sun': ' 08:00 - 16:00 ', 'Mon': ' 05:00 - 20:00 ', 'Tue': ' 05:00 - 20:00 ', 'Wed': ' 05:00 - 20:00 ', 'Thu': ' 05:00 - 20:00 ', 'Fri': ' 05:00 - 20:00 ', 'Sat': ' 05:00 - 18:00 '}}",,,57,,https://www.everest.gr/en/stores/
"46 Alexioupoleos & Agia Triados Square, Athens",Everest,,Greece,"{'brand': 'Everest', 'fascia': 'Everest', 'category': 'Food & Beverage', 'edit_date': '2025-05-18', 'lat_lon_source': 'Google'}",37.90583,23.75094,Everest Argyroupoli,"{'opening_hour': {'Sun': '00:00-23:59', 'Mon': '00:00-23:59', 'Tue': '00:00-23:59', 'Wed': '00:00-23:59', 'Thu': '00:00-23:59', 'Fri': '00:00-23:59', 'Sat': '00:00-23:59'}}",,,64,,https://www.everest.gr/en/stores/
"16th km. E.O. Athens-Corinth, Athens",Everest,,Greece,"{'brand': 'Everest', 'fascia': 'Everest', 'category': 'Food & Beverage', 'edit_date': '2025-05-18', 'lat_lon_source': 'Google'}",38.0432,23.58458,Everest Aspropyrgos,"{'opening_hour': {'Sun': '00:00-23:59', 'Mon': '00:00-23:59', 'Tue': '00:00-23:59', 'Wed': '00:00-23:59', 'Thu': '00:00-23:59', 'Fri': '00:00-23:59', 'Sat': '00:00-23:59'}}",,,36,,https://www.everest.gr/en/stores/
"272 Athinon Avenue & Artis 1, Athens",Everest,,Greece,"{'brand': 'Everest', 'fascia': 'Everest', 'category': 'Food & Beverage', 'edit_date': '2025-05-18', 'lat_lon_source': 'Google'}",38.01279,23.65886,Everest Chaidari,"{'opening_hour': {'Sun': '00:00-23:59', 'Mon': '00:00-23:59', 'Tue': '00:00-23:59', 'Wed': '00:00-23:59', 'Thu': '00:00-23:59', 'Fri': '00:00-23:59', 'Sat': '00:00-23:59'}}",,,59,,https://www.everest.gr/en/stores/
"Agias Paraskevi 111, Athens",Everest,,Greece,"{'brand': 'Everest', 'fascia': 'Everest', 'category': 'Food & Beverage', 'edit_date': '2025-05-18', 'lat_lon_source': 'Google'}",38.01788,23.81032,Everest Chalandri,"{'opening_hour': {'Sun': ' 06:00 - 18:00 ', 'Mon': ' 06:00 - 20:30 ', 'Tue': ' 06:00 - 20:30 ', 'Wed': ' 06:00 - 20:30 ', 'Thu': ' 06:00 - 20:30 ', 'Fri': ' 06:00 - 20:30 ', 'Sat': ' 06:00 - 20:30 '}}",,,62,,https://www.everest.gr/en/stores/
"Agias Paraskevis 1, Athens",Everest,,Greece,"{'brand': 'Everest', 'fascia': 'Everest', 'category': 'Food & Beverage', 'edit_date': '2025-05-18', 'lat_lon_source': 'Google'}",38.02145,23.79882,Everest Chalandri (Center),"{'opening_hour': {'Sun': '00:00-23:59', 'Mon': ' 06:00 - 20:00 ', 'Tue': ' 06:00 - 22:00 ', 'Wed': ' 06:00 - 22:00 ', 'Thu': ' 06:00 - 21:00 ', 'Fri': '00:00-23:59', 'Sat': '00:00-23:59'}}",,,27,,https://www.everest.gr/en/stores/
"Skalidi & Plateia 1866, Crete",Everest,,Greece,"{'brand': 'Everest', 'fascia': 'Everest', 'category': 'Food & Beverage', 'edit_date': '2025-05-18', 'lat_lon_source': 'Google'}",35.51362,24.01719,Everest Chania,"{'opening_hour': {'Sun': ' 07:00 - 22:00 ', 'Mon': ' 07:00 - 22:00 ', 'Tue': ' 07:00 - 22:00 ', 'Wed': ' 07:00 - 22:00 ', 'Thu': ' 07:00 - 22:00 ', 'Fri': ' 07:00 - 22:00 ', 'Sat': ' 07:00 - 22:00 '}}",,,121,,https://www.everest.gr/en/stores/
Koundouriotou & Rodakanaki 48,Everest,,Greece,"{'brand': 'Everest', 'fascia': 'Everest', 'category': 'Food & Beverage', 'edit_date': '2025-05-18', 'lat_lon_source': 'Google'}",38.36759,26.13846,Everest Chios,"{'opening_hour': {'Sun': '00:00-23:59', 'Mon': '00:00-23:59', 'Tue': '00:00-23:59', 'Wed': '00:00-23:59', 'Thu': '00:00-23:59', 'Fri': '00:00-23:59', 'Sat': '00:00-23:59'}}",,,596,,https://www.everest.gr/en/stores/
"212 Mesogeion Avenue & 1 Ymittou, Athens",Everest,,Greece,"{'brand': 'Everest', 'fascia': 'Everest', 'category': 'Food & Beverage', 'edit_date': '2025-05-18', 'lat_lon_source': 'Google'}",38.00226,23.79166,Everest Cholargos,"{'opening_hour': {'Sun': ' 00:00 - 19:00 ', 'Mon': ' 06:00 - 19:00 ', 'Tue': ' 06:00 - 19:00 ', 'Wed': ' 06:00 - 19:00 ', 'Thu': ' 06:00 - 19:00 ', 'Fri': ' 06:00 - 00:00 ', 'Sat': '00:00-23:59'}}",,,13,,https://www.everest.gr/en/stores/
"104 Athens Avenue, Athens",Everest,,Greece,"{'brand': 'Everest', 'fascia': 'Everest', 'category': 'Food & Beverage', 'edit_date': '2025-05-18', 'lat_lon_source': 'Google'}",37.9898,23.70453,Everest Column,"{'opening_hour': {'Sun': '00:00-23:59', 'Mon': '00:00-23:59', 'Tue': '00:00-23:59', 'Wed': '00:00-23:59', 'Thu': '00:00-23:59', 'Fri': '00:00-23:59', 'Sat': '00:00-23:59'}}",,,90,,https://www.everest.gr/en/stores/
"11th km of Thessaloniki - Neon Moudania, Thessaloniki",Everest,,Greece,"{'brand': 'Everest', 'fascia': 'Everest', 'category': 'Food & Beverage', 'edit_date': '2025-05-18', 'lat_lon_source': 'Google'}",40.55615,22.99325,Everest Cosmos,"{'opening_hour': {'Sun': ' 09:00 - 23:00 ', 'Mon': ' 09:00 - 23:00 ', 'Tue': ' 09:00 - 23:00 ', 'Wed': ' 09:00 - 23:00 ', 'Thu': ' 09:00 - 23:00 ', 'Fri': ' 09:00 - 23:00 ', 'Sat': ' 09:00 - 23:00 '}}",,,118,,https://www.everest.gr/en/stores/
"413 Kavala Avenue & 26 Patriarchou Grigoriou Avenue, Athens",Everest,,Greece,"{'brand': 'Everest', 'fascia': 'Everest', 'category': 'Food & Beverage', 'edit_date': '2025-05-18', 'lat_lon_source': 'Google'}",38.00685,23.67377,Everest Egaleo,"{'opening_hour': {'Sun': '00:00-23:59', 'Mon': '00:00-23:59', 'Tue': '00:00-23:59', 'Wed': '00:00-23:59', 'Thu': '00:00-23:59', 'Fri': '00:00-23:59', 'Sat': '00:00-23:59'}}",,,124,,https://www.everest.gr/en/stores/
"Thivon 372, Athens",Everest,,Greece,"{'brand': 'Everest', 'fascia': 'Everest', 'category': 'Food & Beverage', 'edit_date': '2025-05-18', 'lat_lon_source': 'Google'}",37.99247,23.6783,Everest Egaleo,"{'opening_hour': {'Sun': '00:00-23:59', 'Mon': '00:00-23:59', 'Tue': '00:00-23:59', 'Wed': '00:00-23:59', 'Thu': '00:00-23:59', 'Fri': '00:00-23:59', 'Sat': '00:00-23:59'}}",,,23,,https://www.everest.gr/en/stores/
"Kon. Karamanli 199 & Voulgari 57, Thessaloniki",Everest,,Greece,"{'brand': 'Everest', 'fascia': 'Everest', 'category': 'Food & Beverage', 'edit_date': '2025-05-18', 'lat_lon_source': 'Google'}",40.59749,22.96494,Everest Egnatia (Thessaloniki),"{'opening_hour': {'Sun': '00:00-23:59', 'Mon': '00:00-23:59', 'Tue': '00:00-23:59', 'Wed': '00:00-23:59', 'Thu': '00:00-23:59', 'Fri': '00:00-23:59', 'Sat': '00:00-23:59'}}",,,73,,https://www.everest.gr/en/stores/
"Marasli 19-21, Athens",Everest,,Greece,"{'brand': 'Everest', 'fascia': 'Everest', 'category': 'Food & Beverage', 'edit_date': '2025-05-18', 'lat_lon_source': 'Google'}",37.97762,23.74649,Everest Evangelismos,"{'opening_hour': {'Sun': ' 06:00 - 22:00 ', 'Mon': ' 06:00 - 22:00 ', 'Tue': ' 06:00 - 22:00 ', 'Wed': ' 06:00 - 22:00 ', 'Thu': ' 06:00 - 22:00 ', 'Fri': ' 06:00 - 22:00 ', 'Sat': ' 06:00 - 22:00 '}}",,,60,,https://www.everest.gr/en/stores/
"Afendouli 45 & Zanni, Piraeus ",Everest,,Greece,"{'brand': 'Everest', 'fascia': 'Everest', 'category': 'Food & Beverage', 'edit_date': '2025-05-18', 'lat_lon_source': 'Google'}",37.93452,23.64521,Everest Freattida,{'opening_hour': {}},,,21,,https://www.everest.gr/en/stores/
"141 Galatsiou Avenue & Veikou Avenue, Athens",Everest,,Greece,"{'brand': 'Everest', 'fascia': 'Everest', 'category': 'Food & Beverage', 'edit_date': '2025-05-18', 'lat_lon_source': 'Google'}",38.01312,23.75292,Everest Galatsi,"{'opening_hour': {'Sun': '00:00-23:59', 'Mon': '00:00-23:59', 'Tue': '00:00-23:59', 'Wed': '00:00-23:59', 'Thu': '00:00-23:59', 'Fri': '00:00-23:59', 'Sat': '00:00-23:59'}}",,,43,,https://www.everest.gr/en/stores/
"63 Marathonos & Papanikoli Avenue, Athens",Everest,,Greece,"{'brand': 'Everest', 'fascia': 'Everest', 'category': 'Food & Beverage', 'edit_date': '2025-05-18', 'lat_lon_source': 'Google'}",38.00949,23.85173,Everest Gerakas,"{'opening_hour': {'Sun': '00:00-23:59', 'Mon': '00:00-23:59', 'Tue': '00:00-23:59', 'Wed': '00:00-23:59', 'Thu': '00:00-23:59', 'Fri': '00:00-23:59', 'Sat': '00:00-23:59'}}",,,48,,https://www.everest.gr/en/stores/
"Marangou 1, Athens",Everest,,Greece,"{'brand': 'Everest', 'fascia': 'Everest', 'category': 'Food & Beverage', 'edit_date': '2025-05-18', 'lat_lon_source': 'Google'}",37.86366,23.74846,Everest Glyfada (Center),"{'opening_hour': {'Sun': '00:00-23:59', 'Mon': '00:00-23:59', 'Tue': '00:00-23:59', 'Wed': '00:00-23:59', 'Thu': '00:00-23:59', 'Fri': '00:00-23:59', 'Sat': '00:00-23:59'}}",,,15,,https://www.everest.gr/en/stores/
"75 Vouliagmenis Avenue, Athens",Everest,,Greece,"{'brand': 'Everest', 'fascia': 'Everest', 'category': 'Food & Beverage', 'edit_date': '2025-05-18', 'lat_lon_source': 'Google'}",37.87431,23.75738,Everest Glyfada (direction to Athens),"{'opening_hour': {'Sun': ' 08:00 - 16:00 ', 'Mon': ' 06:00 - 16:00 ', 'Tue': ' 06:00 - 16:00 ', 'Wed': ' 06:00 - 16:00 ', 'Thu': ' 06:00 - 16:00 ', 'Fri': ' 06:00 - 16:00 ', 'Sat': ' 06:00 - 16:00 '}}",,,82,,https://www.everest.gr/en/stores/
"2 Vouliagmenis Avenue, Athens",Everest,,Greece,"{'brand': 'Everest', 'fascia': 'Everest', 'category': 'Food & Beverage', 'edit_date': '2025-05-18', 'lat_lon_source': 'Google'}",37.88749,23.74968,Everest Glyfada (direction to the center of Glyfada),"{'opening_hour': {'Sun': ' 00:00 - 22:00 ', 'Mon': ' 06:00 - 22:00 ', 'Tue': ' 06:00 - 22:00 ', 'Wed': ' 06:00 - 22:00 ', 'Thu': ' 06:00 - 22:00 ', 'Fri': ' 06:00 - 00:00 ', 'Sat': '00:00-23:59'}}",,,70,,https://www.everest.gr/en/stores/
"134 A Lavriou Avenue, Athens",Everest,,Greece,"{'brand': 'Everest', 'fascia': 'Everest', 'category': 'Food & Beverage', 'edit_date': '2025-05-18', 'lat_lon_source': 'Google'}",37.99067,23.84959,Everest Glyka Nera,"{'opening_hour': {'Sun': ' 05:00 - 22:00 ', 'Mon': ' 05:00 - 22:00 ', 'Tue': ' 05:00 - 22:00 ', 'Wed': ' 05:00 - 22:00 ', 'Thu': ' 05:00 - 22:00 ', 'Fri': ' 05:00 - 22:00 ', 'Sat': ' 05:00 - 22:00 '}}",,,58,,https://www.everest.gr/en/stores/
37A Kifissias Avenue,Everest,,Greece,"{'brand': 'Everest', 'fascia': 'Everest', 'category': 'Food & Beverage', 'edit_date': '2025-05-18', 'lat_lon_source': 'Google'}",38.03696,23.79078,Everest Golden Hall,"{'opening_hour': {'Sun': ' 11:00 - 20:00 ', 'Mon': ' 09:00 - 21:00 ', 'Tue': ' 09:00 - 21:00 ', 'Wed': ' 09:00 - 21:00 ', 'Thu': ' 09:00 - 21:00 ', 'Fri': ' 09:00 - 21:00 '}}",,,605,,https://www.everest.gr/en/stores/
"Agiou Thomas & Mikras Asias 71, Athens",Everest,,Greece,"{'brand': 'Everest', 'fascia': 'Everest', 'category': 'Food & Beverage', 'edit_date': '2025-05-18', 'lat_lon_source': 'Google'}",37.98296,23.76489,Everest Goudi,{'opening_hour': {}},,,79,,https://www.everest.gr/en/stores/
"Panagiotou Theodorou 1, Athens",Everest,,Greece,"{'brand': 'Everest', 'fascia': 'Everest', 'category': 'Food & Beverage', 'edit_date': '2025-05-18', 'lat_lon_source': 'Google'}",37.81688,23.90111,Everest Huts,"{'opening_hour': {'Sun': ' 05:00 - 21:00 ', 'Mon': ' 05:00 - 21:00 ', 'Tue': ' 05:00 - 21:00 ', 'Wed': ' 05:00 - 21:00 ', 'Thu': ' 05:00 - 21:00 ', 'Fri': ' 05:00 - 21:00 ', 'Sat': ' 05:00 - 21:00 '}}",,,97,,https://www.everest.gr/en/stores/
"Iroon Polytechniou 2, Athens",Everest,,Greece,"{'brand': 'Everest', 'fascia': 'Everest', 'category': 'Food & Beverage', 'edit_date': '2025-05-18', 'lat_lon_source': 'Google'}",37.93137,23.75593,Everest Ilioupoli (Central Square),"{'opening_hour': {'Sun': '00:00-23:59', 'Mon': '00:00-23:59', 'Tue': '00:00-23:59', 'Wed': '00:00-23:59', 'Thu': '00:00-23:59', 'Fri': '00:00-23:59', 'Sat': '00:00-23:59'}}",,,32,,https://www.everest.gr/en/stores/
"Michalakopoulou 52, Athens",Everest,,Greece,"{'brand': 'Everest', 'fascia': 'Everest', 'category': 'Food & Beverage', 'edit_date': '2025-05-18', 'lat_lon_source': 'Google'}",37.97741,23.7554,Everest Ilisia,"{'opening_hour': {'Sun': ' 00:00 - 22:00 ', 'Mon': ' 06:00 - 22:00 ', 'Tue': ' 06:00 - 22:00 ', 'Wed': ' 06:00 - 22:00 ', 'Thu': ' 06:00 - 22:00 ', 'Fri': ' 06:00 - 00:00 ', 'Sat': '00:00-23:59'}}",,,75,,https://www.everest.gr/en/stores/
"Laskaridou 106, Athens",Everest,,Greece,"{'brand': 'Everest', 'fascia': 'Everest', 'category': 'Food & Beverage', 'edit_date': '2025-05-18', 'lat_lon_source': 'Google'}",37.95756,23.7003,Everest Kallithea ,"{'opening_hour': {'Sun': '00:00-23:59', 'Mon': '00:00-23:59', 'Tue': '00:00-23:59', 'Wed': '00:00-23:59', 'Thu': '00:00-23:59', 'Fri': '00:00-23:59', 'Sat': '00:00-23:59'}}",,,16,,https://www.everest.gr/en/stores/
"Levidou 1, Athens",Everest,,Greece,"{'brand': 'Everest', 'fascia': 'Everest', 'category': 'Food & Beverage', 'edit_date': '2025-05-18', 'lat_lon_source': 'Google'}",38.07219,23.81356,Everest Kifissia,"{'opening_hour': {'Sun': ' 00:00 - 21:00 ', 'Mon': ' 07:00 - 21:00 ', 'Tue': ' 07:00 - 21:00 ', 'Wed': ' 07:00 - 21:00 ', 'Thu': ' 07:00 - 21:00 ', 'Fri': ' 07:00 - 00:00 ', 'Sat': '00:00-23:59'}}",,,31,,https://www.everest.gr/en/stores/
"Tsakalov 14, Athens",Everest,,Greece,"{'brand': 'Everest', 'fascia': 'Everest', 'category': 'Food & Beverage', 'edit_date': '2025-05-18', 'lat_lon_source': 'Google'}",37.97819,23.74054,Everest Kolonaki,"{'opening_hour': {'Sun': '00:00-23:59', 'Mon': '00:00-23:59', 'Tue': '00:00-23:59', 'Wed': '00:00-23:59', 'Thu': '00:00-23:59', 'Fri': '00:00-23:59', 'Sat': '00:00-23:59'}}",,,30,,https://www.everest.gr/en/stores/
"Vassileos Konstantinou 316, Athens",Everest,,Greece,"{'brand': 'Everest', 'fascia': 'Everest', 'category': 'Food & Beverage', 'edit_date': '2025-05-18', 'lat_lon_source': 'Google'}",37.89364,23.88084,Everest Koropi,"{'opening_hour': {'Sun': ' 05:00 - 21:00 ', 'Mon': ' 05:00 - 21:00 ', 'Tue': ' 05:00 - 21:00 ', 'Wed': ' 05:00 - 21:00 ', 'Thu': ' 05:00 - 21:00 ', 'Fri': ' 05:00 - 21:00 ', 'Sat': ' 05:00 - 21:00 '}}",,,37,,https://www.everest.gr/en/stores/
"Eleftherias Square 21, Piraeus",Everest,,Greece,"{'brand': 'Everest', 'fascia': 'Everest', 'category': 'Food & Beverage', 'edit_date': '2025-05-18', 'lat_lon_source': 'Google'}",37.97749,23.64974,Everest Korydallos,{'opening_hour': {}},,,78,,https://www.everest.gr/en/stores/
"70 Syggrou Avenue, Athens",Everest,,Greece,"{'brand': 'Everest', 'fascia': 'Everest', 'category': 'Food & Beverage', 'edit_date': '2025-05-18', 'lat_lon_source': 'Google'}",37.96499,23.72696,Everest Koukaki,"{'opening_hour': {'Sun': ' 06:00 - 22:00 ', 'Mon': ' 06:00 - 22:00 ', 'Tue': ' 06:00 - 22:00 ', 'Wed': ' 06:00 - 22:00 ', 'Thu': ' 06:00 - 22:00 ', 'Fri': ' 06:00 - 22:00 ', 'Sat': ' 06:00 - 22:00 '}}",,,69,,https://www.everest.gr/en/stores/
"Karaoli 2 & Averoff, Athens",Everest,,Greece,"{'brand': 'Everest', 'fascia': 'Everest', 'category': 'Food & Beverage', 'edit_date': '2025-05-18', 'lat_lon_source': 'Google'}",37.94963,23.73719,Everest Laurel,"{'opening_hour': {'Sun': '00:00-23:59', 'Mon': '00:00-23:59', 'Tue': '00:00-23:59', 'Wed': '00:00-23:59', 'Thu': '00:00-23:59', 'Fri': '00:00-23:59', 'Sat': '00:00-23:59'}}",,,103,,https://www.everest.gr/en/stores/
Heroes Square 1,Everest,,Greece,"{'brand': 'Everest', 'fascia': 'Everest', 'category': 'Food & Beverage', 'edit_date': '2025-05-18', 'lat_lon_source': 'Google'}",37.7139,24.0564,Everest Lavrio,"{'opening_hour': {'Sun': '00:00-23:59', 'Mon': '00:00-23:59', 'Tue': '00:00-23:59', 'Wed': '00:00-23:59', 'Thu': '00:00-23:59', 'Fri': '00:00-23:59', 'Sat': '00:00-23:59'}}",,,114,,https://www.everest.gr/en/stores/
"81 Souniou Avenue, Athens",Everest,,Greece,"{'brand': 'Everest', 'fascia': 'Everest', 'category': 'Food & Beverage', 'edit_date': '2025-05-18', 'lat_lon_source': 'Google'}",37.87583,23.93227,Everest Markopoulo,"{'opening_hour': {'Sun': ' 05:00 - 20:00 ', 'Mon': ' 05:00 - 20:00 ', 'Tue': ' 05:00 - 20:00 ', 'Wed': ' 05:00 - 20:00 ', 'Thu': ' 05:00 - 20:00 ', 'Fri': ' 05:00 - 20:00 ', 'Sat': ' 05:00 - 20:00 '}}",,,66,,https://www.everest.gr/en/stores/
"205 Kifissias Avenue, Athens",Everest,,Greece,"{'brand': 'Everest', 'fascia': 'Everest', 'category': 'Food & Beverage', 'edit_date': '2025-05-18', 'lat_lon_source': 'Google'}",38.05669,23.81092,Everest Maroussi,"{'opening_hour': {'Mon': ' 06:00 - 20:00 ', 'Tue': ' 06:00 - 20:00 ', 'Wed': ' 06:00 - 20:00 ', 'Thu': ' 06:00 - 20:00 ', 'Fri': ' 06:00 - 20:00 ', 'Sat': ' 08:00 - 17:00 '}}",,,76,,https://www.everest.gr/en/stores/
"70 Kifissias Avenue & Parnonos, Athens",Everest,,Greece,"{'brand': 'Everest', 'fascia': 'Everest', 'category': 'Food & Beverage', 'edit_date': '2025-05-18', 'lat_lon_source': 'Google'}",38.04624,23.80758,Everest Maroussi,"{'opening_hour': {'Sun': '00:00-23:59', 'Mon': '00:00-23:59', 'Tue': '00:00-23:59', 'Wed': '00:00-23:59', 'Thu': '00:00-23:59', 'Fri': '00:00-23:59', 'Sat': '00:00-23:59'}}",,,45,,https://www.everest.gr/en/stores/
"Ermou 2, Athens",Everest,,Greece,"{'brand': 'Everest', 'fascia': 'Everest', 'category': 'Food & Beverage', 'edit_date': '2025-05-18', 'lat_lon_source': 'Google'}",38.05606,23.80527,Everest Maroussi - Ermou 2 (Urban Rail Transport Station),"{'opening_hour': {'Sun': ' 06:00 - 19:00 ', 'Mon': ' 06:00 - 22:00 ', 'Tue': ' 06:00 - 22:00 ', 'Wed': ' 06:00 - 22:00 ', 'Thu': ' 06:00 - 22:00 ', 'Fri': ' 06:00 - 22:00 ', 'Sat': ' 06:00 - 22:00 '}}",,,25,,https://www.everest.gr/en/stores/
"Soutsou & Dorylaiou 6, Athens",Everest,,Greece,"{'brand': 'Everest', 'fascia': 'Everest', 'category': 'Food & Beverage', 'edit_date': '2025-05-18', 'lat_lon_source': 'Google'}",37.98312,23.75646,Everest Mavili Square,"{'opening_hour': {'Sun': '00:00-23:59', 'Mon': '00:00-23:59', 'Tue': '00:00-23:59', 'Wed': '00:00-23:59', 'Thu': '00:00-23:59', 'Fri': '00:00-23:59', 'Sat': '00:00-23:59'}}",,,9,,https://www.everest.gr/en/stores/
"Andr. Papandreou & Pan. Tsaldari 2, Athens",Everest,,Greece,"{'brand': 'Everest', 'fascia': 'Everest', 'category': 'Food & Beverage', 'edit_date': '2025-05-18', 'lat_lon_source': 'Google'}",38.05174,23.83886,Everest Melissia,{'opening_hour': {}},,,72,,https://www.everest.gr/en/stores/
"Papanikoli 2, Piraeus",Everest,,Greece,"{'brand': 'Everest', 'fascia': 'Everest', 'category': 'Food & Beverage', 'edit_date': '2025-05-18', 'lat_lon_source': 'Google'}",37.92979,23.6434,Everest Metaxa Hospital (opposite),{'opening_hour': {}},,,50,,https://www.everest.gr/en/stores/
"276 Vouliagmenis Avenue, Athens",Everest,,Greece,"{'brand': 'Everest', 'fascia': 'Everest', 'category': 'Food & Beverage', 'edit_date': '2025-05-18', 'lat_lon_source': 'Google'}",37.93927,23.74042,Everest Metro Mall,"{'opening_hour': {'Sun': ' 10:00 - 23:00 ', 'Mon': ' 09:00 - 23:00 ', 'Tue': ' 09:00 - 23:00 ', 'Wed': ' 09:00 - 23:00 ', 'Thu': ' 09:00 - 23:00 ', 'Fri': ' 09:00 - 23:00 ', 'Sat': ' 09:00 - 23:00 '}}",,,599,,https://www.everest.gr/en/stores/
145 Marathonos Avenue,Everest,,Greece,"{'brand': 'Everest', 'fascia': 'Everest', 'category': 'Food & Beverage', 'edit_date': '2025-05-18', 'lat_lon_source': 'Google'}",38.08476,23.97759,Everest Nea Makri,"{'opening_hour': {'Sun': ' 05:00 - 13:00 ', 'Mon': ' 05:00 - 19:00 ', 'Tue': ' 05:00 - 19:00 ', 'Wed': ' 05:00 - 19:00 ', 'Thu': ' 05:00 - 19:00 ', 'Fri': ' 05:00 - 19:00 ', 'Sat': ' 05:00 - 19:00 '}}",,,602,,https://www.everest.gr/en/stores/
"85 Dekelias Avenue, Athens",Everest,,Greece,"{'brand': 'Everest', 'fascia': 'Everest', 'category': 'Food & Beverage', 'edit_date': '2025-05-18', 'lat_lon_source': 'Google'}",38.03396,23.73774,Everest Nea Philadelphia,"{'opening_hour': {'Sun': '00:00-23:59', 'Mon': '00:00-23:59', 'Tue': '00:00-23:59', 'Wed': '00:00-23:59', 'Thu': '00:00-23:59', 'Fri': '00:00-23:59', 'Sat': '00:00-23:59'}}",,,67,,https://www.everest.gr/en/stores/
"14 Deuteras Maiou Street, Athens",Everest,,Greece,"{'brand': 'Everest', 'fascia': 'Everest', 'category': 'Food & Beverage', 'edit_date': '2025-05-18', 'lat_lon_source': 'Google'}",37.94666,23.71258,Everest Nea Smyrni,"{'opening_hour': {'Sun': '00:00-23:59', 'Mon': '00:00-23:59', 'Tue': '00:00-23:59', 'Wed': '00:00-23:59', 'Thu': '00:00-23:59', 'Fri': '00:00-23:59', 'Sat': '00:00-23:59'}}",,,14,,https://www.everest.gr/en/stores/
"Gravias 1 & Maria Callas, Thessaloniki",Everest,,Greece,"{'brand': 'Everest', 'fascia': 'Everest', 'category': 'Food & Beverage', 'edit_date': '2025-05-18', 'lat_lon_source': 'Google'}",40.60027,22.94992,Everest Neptunium,"{'opening_hour': {'Sun': ' 06:00 - 23:00 ', 'Mon': ' 06:00 - 23:00 ', 'Tue': ' 06:00 - 23:00 ', 'Wed': ' 06:00 - 23:00 ', 'Thu': ' 06:00 - 23:00 ', 'Fri': ' 06:00 - 23:00 ', 'Sat': ' 06:00 - 23:00 '}}",,,98,,https://www.everest.gr/en/stores/
"162 Tatoiou Avenue, Athens",Everest,,Greece,"{'brand': 'Everest', 'fascia': 'Everest', 'category': 'Food & Beverage', 'edit_date': '2025-05-18', 'lat_lon_source': 'Google'}",38.1017,23.81156,Everest New Eritrea,"{'opening_hour': {'Sun': '00:00-23:59', 'Mon': '00:00-23:59', 'Tue': '00:00-23:59', 'Wed': '00:00-23:59', 'Thu': '00:00-23:59', 'Fri': '00:00-23:59', 'Sat': '00:00-23:59'}}",,,113,,https://www.everest.gr/en/stores/
"Eftychidou 49, Athens",Everest,,Greece,"{'brand': 'Everest', 'fascia': 'Everest', 'category': 'Food & Beverage', 'edit_date': '2025-05-18', 'lat_lon_source': 'Google'}",37.96753,23.74967,Everest Pagrati,"{'opening_hour': {'Sun': '00:00-23:59', 'Mon': '00:00-23:59', 'Tue': '00:00-23:59', 'Wed': '00:00-23:59', 'Thu': '00:00-23:59', 'Fri': '00:00-23:59', 'Sat': '00:00-23:59'}}",,,17,,https://www.everest.gr/en/stores/
"54 Amfitheas Avenue, Athens",Everest,,Greece,"{'brand': 'Everest', 'fascia': 'Everest', 'category': 'Food & Beverage', 'edit_date': '2025-05-18', 'lat_lon_source': 'Google'}",37.93539,23.70115,Everest Palaio Faliro,{'opening_hour': {}},,,92,,https://www.everest.gr/en/stores/
"126 Marathonos Avenue, Athens",Everest,,Greece,"{'brand': 'Everest', 'fascia': 'Everest', 'category': 'Food & Beverage', 'edit_date': '2025-05-18', 'lat_lon_source': 'Google'}",38.00732,23.86035,Everest Pallini,{'opening_hour': {}},,,40,,https://www.everest.gr/en/stores/
"Panormou 109 & Chatzikonstanti, Athens",Everest,,Greece,"{'brand': 'Everest', 'fascia': 'Everest', 'category': 'Food & Beverage', 'edit_date': '2025-05-18', 'lat_lon_source': 'Google'}",37.99341,23.76417,Everest Panormou,"{'opening_hour': {'Sun': '00:00-23:59', 'Mon': '00:00-23:59', 'Tue': '00:00-23:59', 'Wed': '00:00-23:59', 'Thu': '00:00-23:59', 'Fri': '00:00-23:59', 'Sat': '00:00-23:59'}}",,,52,,https://www.everest.gr/en/stores/
"Gr. Lampraki 150, Πειραιάς",Everest,,Greece,"{'brand': 'Everest', 'fascia': 'Everest', 'category': 'Food & Beverage', 'edit_date': '2025-05-18', 'lat_lon_source': 'Google'}",37.94027,23.64931,Everest Pasalimani,"{'opening_hour': {'Sun': '00:00-23:59', 'Mon': '00:00-23:59', 'Tue': '00:00-23:59', 'Wed': '00:00-23:59', 'Thu': '00:00-23:59', 'Fri': '00:00-23:59', 'Sat': '00:00-23:59'}}",,,18,,https://www.everest.gr/en/stores/
Patision 351,Everest,,Greece,"{'brand': 'Everest', 'fascia': 'Everest', 'category': 'Food & Beverage', 'edit_date': '2025-05-18', 'lat_lon_source': 'Google'}",38.02322,23.73582,Everest Patisia ,"{'opening_hour': {'Sun': '00:00-23:59', 'Mon': '00:00-23:59', 'Tue': '00:00-23:59', 'Wed': '00:00-23:59', 'Thu': '00:00-23:59', 'Fri': '00:00-23:59', 'Sat': '00:00-23:59'}}",,,10,,https://www.everest.gr/en/stores/
"Maizonos 65 (Olgas Square), Patras",Everest,,Greece,"{'brand': 'Everest', 'fascia': 'Everest', 'category': 'Food & Beverage', 'edit_date': '2025-05-18', 'lat_lon_source': 'Google'}",38.24889,21.73796,Everest Patras,"{'opening_hour': {'Sun': ' 08:00 - 16:00 ', 'Mon': ' 08:00 - 16:00 ', 'Tue': ' 08:00 - 16:00 ', 'Wed': ' 08:00 - 16:00 ', 'Thu': ' 08:00 - 22:00 ', 'Fri': ' 08:00 - 22:00 ', 'Sat': ' 08:00 - 22:00 '}}",,,35,,https://www.everest.gr/en/stores/
"118 Lavriou Avenue & 1 Tsimini, Athens",Everest,,Greece,"{'brand': 'Everest', 'fascia': 'Everest', 'category': 'Food & Beverage', 'edit_date': '2025-05-18', 'lat_lon_source': 'Google'}",37.95422,23.8598,Everest Peania,"{'opening_hour': {'Mon': ' 06:00 - 16:00 ', 'Tue': ' 06:00 - 16:00 ', 'Wed': ' 06:00 - 16:00 ', 'Thu': ' 06:00 - 16:00 ', 'Fri': ' 06:00 - 16:00 ', 'Sat': ' 06:00 - 15:00 '}}",,,77,,https://www.everest.gr/en/stores/
15 Dimokratias Avenue,Everest,,Greece,"{'brand': 'Everest', 'fascia': 'Everest', 'category': 'Food & Beverage', 'edit_date': '2025-05-18', 'lat_lon_source': 'Google'}",37.96454,23.55789,Everest Perama,{'opening_hour': {}},,,603,,https://www.everest.gr/en/stores/
"Paraskevopoulou 49, Athens",Everest,,Greece,"{'brand': 'Everest', 'fascia': 'Everest', 'category': 'Food & Beverage', 'edit_date': '2025-05-18', 'lat_lon_source': 'Google'}",38.0124,23.70587,Everest Peristeri,"{'opening_hour': {'Sun': '00:00-23:59', 'Mon': '00:00-23:59', 'Tue': '00:00-23:59', 'Wed': '00:00-23:59', 'Thu': '00:00-23:59', 'Fri': '00:00-23:59', 'Sat': '00:00-23:59'}}",,,11,,https://www.everest.gr/en/stores/
"2 P. Tsaldari & Aesopou Avenue, Athens",Everest,,Greece,"{'brand': 'Everest', 'fascia': 'Everest', 'category': 'Food & Beverage', 'edit_date': '2025-05-18', 'lat_lon_source': 'Google'}",38.01241,23.69662,Everest Peristeri (Democracy Square),"{'opening_hour': {'Sun': '00:00-23:59', 'Mon': '00:00-23:59', 'Tue': '00:00-23:59', 'Wed': '00:00-23:59', 'Thu': '00:00-23:59', 'Fri': '00:00-23:59', 'Sat': '00:00-23:59'}}",,,94,,https://www.everest.gr/en/stores/
"25th of March 104 & Costa Varnali, Athens",Everest,,Greece,"{'brand': 'Everest', 'fascia': 'Everest', 'category': 'Food & Beverage', 'edit_date': '2025-05-18', 'lat_lon_source': 'Google'}",38.04057,23.6877,Everest Petroupolis,"{'opening_hour': {'Sun': '00:00-23:59', 'Mon': '00:00-23:59', 'Tue': '00:00-23:59', 'Wed': '00:00-23:59', 'Thu': '00:00-23:59', 'Fri': '00:00-23:59', 'Sat': '00:00-23:59'}}",,,99,,https://www.everest.gr/en/stores/
"18 Irini Avenue, Athens",Everest,,Greece,"{'brand': 'Everest', 'fascia': 'Everest', 'category': 'Food & Beverage', 'edit_date': '2025-05-18', 'lat_lon_source': 'Google'}",38.05943,23.79402,Everest Pine,"{'opening_hour': {'Sun': ' 05:00 - 20:00 ', 'Mon': ' 05:00 - 22:00 ', 'Tue': ' 05:00 - 22:00 ', 'Wed': ' 05:00 - 22:00 ', 'Thu': ' 05:00 - 22:00 ', 'Fri': ' 05:00 - 22:00 ', 'Sat': ' 05:00 - 22:00 '}}",,,107,,https://www.everest.gr/en/stores/
Papanikoli & El. Venizelou 175,Everest,,Greece,"{'brand': 'Everest', 'fascia': 'Everest', 'category': 'Food & Beverage', 'edit_date': '2025-05-18', 'lat_lon_source': 'Google'}",37.94736,23.64233,Everest Piraeus - Keratsini,"{'opening_hour': {'Sun': '00:00-23:59', 'Mon': '00:00-23:59', 'Tue': '00:00-23:59', 'Wed': '00:00-23:59', 'Thu': '00:00-23:59', 'Fri': '00:00-23:59', 'Sat': '00:00-23:59'}}",,,609,,https://www.everest.gr/en/stores/
Hippocrates Avenue & Aiantiou Avenue,Everest,,Greece,"{'brand': 'Everest', 'fascia': 'Everest', 'category': 'Food & Beverage', 'edit_date': '2025-05-18', 'lat_lon_source': 'Google'}",37.96481,23.50225,Everest Piraeus - Salamina,{'opening_hour': {}},,,89,,https://www.everest.gr/en/stores/
37th km. Markopoulou,Everest,,Greece,"{'brand': 'Everest', 'fascia': 'Everest', 'category': 'Food & Beverage', 'edit_date': '2025-05-18', 'lat_lon_source': 'Google'}",37.88835,24.00364,Everest Porto Rafti,"{'opening_hour': {'Sun': ' 05:00 - 21:00 ', 'Mon': ' 05:00 - 21:00 ', 'Tue': ' 05:00 - 21:00 ', 'Wed': ' 05:00 - 21:00 ', 'Thu': ' 05:00 - 21:00 ', 'Fri': ' 05:00 - 21:00 ', 'Sat': ' 05:00 - 21:00 '}}",,,607,,https://www.everest.gr/en/stores/
"13th km of Thessaloniki - School of Agriculture, Thessaloniki",Everest,,Greece,"{'brand': 'Everest', 'fascia': 'Everest', 'category': 'Food & Beverage', 'edit_date': '2025-05-18', 'lat_lon_source': 'Google'}",40.53942,22.99063,Everest Pylaia of Thessaloniki,"{'opening_hour': {'Sun': ' 05:00 - 21:00 ', 'Mon': ' 05:00 - 21:00 ', 'Tue': ' 05:00 - 21:00 ', 'Wed': ' 05:00 - 21:00 ', 'Thu': ' 05:00 - 21:00 ', 'Fri': ' 05:00 - 21:00 ', 'Sat': ' 05:00 - 21:00 '}}",,,41,,https://www.everest.gr/en/stores/
Chrysostomou Smyrnis 6 & Christou Mandika,Everest,,Greece,"{'brand': 'Everest', 'fascia': 'Everest', 'category': 'Food & Beverage', 'edit_date': '2025-05-18', 'lat_lon_source': 'Google'}",38.01594,24.01184,Everest Rafina,"{'opening_hour': {'Sun': ' 06:00 - 21:00 ', 'Mon': ' 06:00 - 21:00 ', 'Tue': ' 06:00 - 21:00 ', 'Wed': ' 06:00 - 21:00 ', 'Thu': ' 06:00 - 21:00 ', 'Fri': ' 06:00 - 21:00 ', 'Sat': ' 06:00 - 21:00 '}}",,,106,,https://www.everest.gr/en/stores/
"Red Cross 9, Athens",Everest,,Greece,"{'brand': 'Everest', 'fascia': 'Everest', 'category': 'Food & Beverage', 'edit_date': '2025-05-18', 'lat_lon_source': 'Google'}",37.99256,23.76804,Everest Red Cross,"{'opening_hour': {'Sun': ' 06:00 - 00:00 ', 'Mon': ' 06:00 - 00:00 ', 'Tue': ' 06:00 - 00:00 ', 'Wed': ' 06:00 - 00:00 ', 'Thu': ' 06:00 - 00:00 ', 'Fri': ' 06:00 - 00:00 ', 'Sat': ' 06:00 - 00:00 '}}",,,53,,https://www.everest.gr/en/stores/
"Agios Ioannis Rentis Square, Piraeus",Everest,,Greece,"{'brand': 'Everest', 'fascia': 'Everest', 'category': 'Food & Beverage', 'edit_date': '2025-05-18', 'lat_lon_source': 'Google'}",37.96155,23.67418,Everest Renti,"{'opening_hour': {'Sun': '00:00-23:59', 'Mon': '00:00-23:59', 'Tue': '00:00-23:59', 'Wed': '00:00-23:59', 'Thu': '00:00-23:59', 'Fri': '00:00-23:59', 'Sat': '00:00-23:59'}}",,,117,,https://www.everest.gr/en/stores/
"El. Venizelou 83, Crete",Everest,,Greece,"{'brand': 'Everest', 'fascia': 'Everest', 'category': 'Food & Beverage', 'edit_date': '2025-05-18', 'lat_lon_source': 'Google'}",35.36972,24.47662,Everest Rethimno,"{'opening_hour': {'Sun': '00:00-23:59', 'Mon': '00:00-23:59', 'Tue': '00:00-23:59', 'Wed': '00:00-23:59', 'Thu': '00:00-23:59', 'Fri': '00:00-23:59', 'Sat': '00:00-23:59'}}",,,120,,https://www.everest.gr/en/stores/
Rhodes-Lindos Avenue 192,Everest,,Greece,"{'brand': 'Everest', 'fascia': 'Everest', 'category': 'Food & Beverage', 'edit_date': '2025-05-18', 'lat_lon_source': 'Google'}",36.29608,28.16273,Everest Rhodes,"{'opening_hour': {'Mon': ' 06:00 - 18:00 ', 'Tue': ' 06:00 - 18:00 ', 'Wed': ' 06:00 - 18:00 ', 'Thu': ' 06:00 - 18:00 ', 'Fri': ' 06:00 - 18:00 ', 'Sat': ' 06:00 - 18:00 '}}",,,601,,https://www.everest.gr/en/stores/
"Agiou Dimitriou 253-261, Athens",Everest,,Greece,"{'brand': 'Everest', 'fascia': 'Everest', 'category': 'Food & Beverage', 'edit_date': '2025-05-18', 'lat_lon_source': 'Google'}",37.927,23.72577,Everest Saint Dimitrios,{'opening_hour': {}},,,84,,https://www.everest.gr/en/stores/
"Ethnikis Antistaseos 101-103, Thessaloniki",Everest,,Greece,"{'brand': 'Everest', 'fascia': 'Everest', 'category': 'Food & Beverage', 'edit_date': '2025-05-18', 'lat_lon_source': 'Google'}",40.58215,22.96576,Everest Squid,"{'opening_hour': {'Sun': ' 05:00 - 22:00 ', 'Mon': ' 05:00 - 22:00 ', 'Tue': ' 05:00 - 22:00 ', 'Wed': ' 05:00 - 22:00 ', 'Thu': ' 05:00 - 22:00 ', 'Fri': ' 05:00 - 22:00 ', 'Sat': ' 05:00 - 22:00 '}}",,,86,,https://www.everest.gr/en/stores/
"114 Vouliagmenis Avenue & Karpou, Athens",Everest,,Greece,"{'brand': 'Everest', 'fascia': 'Everest', 'category': 'Food & Beverage', 'edit_date': '2025-05-18', 'lat_lon_source': 'Google'}",37.95772,23.73467,Everest St. John,"{'opening_hour': {'Sun': '00:00-23:59', 'Mon': '00:00-23:59', 'Tue': '00:00-23:59', 'Wed': '00:00-23:59', 'Thu': '00:00-23:59', 'Fri': '00:00-23:59', 'Sat': '00:00-23:59'}}",,,108,,https://www.everest.gr/en/stores/
"Ermou 2, Athens",Everest,,Greece,"{'brand': 'Everest', 'fascia': 'Everest', 'category': 'Food & Beverage', 'edit_date': '2025-05-18', 'lat_lon_source': 'Google'}",37.97602,23.73376,Everest Syntagma Square,"{'opening_hour': {'Sun': '00:00-23:59', 'Mon': '00:00-23:59', 'Tue': '00:00-23:59', 'Wed': '00:00-23:59', 'Thu': '00:00-23:59', 'Fri': '00:00-23:59', 'Sat': '00:00-23:59'}}",,,47,,https://www.everest.gr/en/stores/
"Marathonos 2 & P. ​​Tsaldari 11, Athens",Everest,,Greece,"{'brand': 'Everest', 'fascia': 'Everest', 'category': 'Food & Beverage', 'edit_date': '2025-05-18', 'lat_lon_source': 'Google'}",37.96484,23.70512,Everest Taurus,"{'opening_hour': {'Sun': '00:00-23:59', 'Mon': '00:00-23:59', 'Tue': '00:00-23:59', 'Wed': '00:00-23:59', 'Thu': '00:00-23:59', 'Fri': '00:00-23:59', 'Sat': '00:00-23:59'}}",,,91,,https://www.everest.gr/en/stores/
"Andr. Papandreou 35, Athens",Everest,,Greece,"{'brand': 'Everest', 'fascia': 'Everest', 'category': 'Food & Beverage', 'edit_date': '2025-05-18', 'lat_lon_source': 'Google'}",38.04472,23.79045,Everest The Mall Athens,"{'opening_hour': {'Sun': ' 12:00 - 20:00 ', 'Mon': ' 08:30 - 22:30 ', 'Tue': ' 08:30 - 22:30 ', 'Wed': ' 08:30 - 22:30 ', 'Thu': ' 08:30 - 22:30 ', 'Fri': ' 08:30 - 23:00 ', 'Sat': ' 08:30 - 23:00 '}}",,,34,,https://www.everest.gr/en/stores/
"Kouskoura 7, Thessaloniki",Everest,,Greece,"{'brand': 'Everest', 'fascia': 'Everest', 'category': 'Food & Beverage', 'edit_date': '2025-05-18', 'lat_lon_source': 'Google'}",40.63108,22.9454,Everest Thessaloniki (Center),"{'opening_hour': {'Sun': '00:00-23:59', 'Mon': '00:00-23:59', 'Tue': '00:00-23:59', 'Wed': '00:00-23:59', 'Thu': '00:00-23:59', 'Fri': '00:00-23:59', 'Sat': '00:00-23:59'}}",,,33,,https://www.everest.gr/en/stores/
"Themidos 1, Athens",Everest,,Greece,"{'brand': 'Everest', 'fascia': 'Everest', 'category': 'Food & Beverage', 'edit_date': '2025-05-18', 'lat_lon_source': 'Google'}",37.81832,23.80098,Everest Varkiza,"{'opening_hour': {'Sun': ' 00:00 - 22:00 ', 'Mon': ' 06:00 - 22:00 ', 'Tue': ' 06:00 - 22:00 ', 'Wed': ' 06:00 - 22:00 ', 'Thu': ' 06:00 - 22:00 ', 'Fri': ' 06:00 - 00:00 ', 'Sat': '00:00-23:59'}}",,,101,,https://www.everest.gr/en/stores/
"Vassileos Pavlou 4, Athens",Everest,,Greece,"{'brand': 'Everest', 'fascia': 'Everest', 'category': 'Food & Beverage', 'edit_date': '2025-05-18', 'lat_lon_source': 'Google'}",37.84763,23.75447,Everest Voula,"{'opening_hour': {'Sun': '00:00-23:59', 'Mon': '00:00-23:59', 'Tue': '00:00-23:59', 'Wed': '00:00-23:59', 'Thu': '00:00-23:59', 'Fri': '00:00-23:59', 'Sat': '00:00-23:59'}}",,,24,,https://www.everest.gr/en/stores/
"41 Pentelis Avenue & 2 Sismanogleiou, Athens",Everest,,Greece,"{'brand': 'Everest', 'fascia': 'Everest', 'category': 'Food & Beverage', 'edit_date': '2025-05-18', 'lat_lon_source': 'Google'}",38.04017,23.83034,Everest Vrilissia,{'opening_hour': {}},,,38,,https://www.everest.gr/en/stores/
"28 Varis & Parou Avenue, Athens",Everest,,Greece,"{'brand': 'Everest', 'fascia': 'Everest', 'category': 'Food & Beverage', 'edit_date': '2025-05-18', 'lat_lon_source': 'Google'}",37.83636,23.80784,Everest Weights,"{'opening_hour': {'Sun': '00:00-23:59', 'Mon': '00:00-23:59', 'Tue': '00:00-23:59', 'Wed': '00:00-23:59', 'Thu': '00:00-23:59', 'Fri': '00:00-23:59', 'Sat': '00:00-23:59'}}",,,83,,https://www.everest.gr/en/stores/
Ampelokipi (Opposite the National Stadium),Everest,,Greece,"{'brand': 'Everest', 'fascia': 'Everest', 'category': 'Food & Beverage', 'edit_date': '2025-05-18', 'lat_lon_source': 'Google'}",37.76996,20.88708,Everest Zante,"{'opening_hour': {'Sun': '00:00-23:59', 'Mon': '00:00-23:59', 'Tue': '00:00-23:59', 'Wed': '00:00-23:59', 'Thu': ' 00:00 - 22:00 ', 'Fri': ' 06:00 - 22:00 ', 'Sat': ' 06:00 - 00:00 '}}",,,105,,https://www.everest.gr/en/stores/
"Λατούς 24 &, Κριτσάς 2, Αγ. Νικόλαος 721 00",Everest,,Greece,"{'brand': 'Everest', 'fascia': 'Everest', 'category': 'Food & Beverage', 'edit_date': '2025-05-18', 'lat_lon_source': 'Google'}",35.18796,25.71294,Everest Αγιος Νικόλαος,{'opening_hour': {}},,,621,,https://www.everest.gr/en/stores/
"122 Konstantinos Karamanlis Avenue, Athens",Everest,,Greece,"{'brand': 'Everest', 'fascia': 'Everest', 'category': 'Food & Beverage', 'edit_date': '2025-05-18', 'lat_lon_source': 'Google'}",38.09329,23.75518,Everest Αχαρναί,"{'opening_hour': {'Sun': '00:00-23:59', 'Mon': '00:00-23:59', 'Tue': '00:00-23:59', 'Wed': '00:00-23:59', 'Thu': '00:00-23:59', 'Fri': '00:00-23:59', 'Sat': '00:00-23:59'}}",,,112,,https://www.everest.gr/en/stores/
Σύνορα Ελλάδας - Αλβανίας,Everest,,Greece,"{'brand': 'Everest', 'fascia': 'Everest', 'category': 'Food & Beverage', 'edit_date': '2025-05-18', 'lat_lon_source': 'Google'}",41.3761,23.36199,Everest ΕΒΡΟΣ,{'opening_hour': {}},,,626,,https://www.everest.gr/en/stores/
Ειρήνης και φιλίας - Πάροδος Αγ. Ιωάννη χωστού,Everest,,Greece,"{'brand': 'Everest', 'fascia': 'Everest', 'category': 'Food & Beverage', 'edit_date': '2025-05-18', 'lat_lon_source': 'Google'}",35.32188,25.11481,Everest ΗΡΑΚΛΕΙΟ,{'opening_hour': {}},,,624,,https://www.everest.gr/en/stores/
Αγία Πελαγία αυτοκινητοδρόμος ΒΟΑΚ (βόρειος οδικός άξονας Κρήτης)16ο ΧΛΜ Ε.Ο. ΗΡΑΚΛΕΙΟΥ ΡΕΘΥΜΝΟΥ,Everest,,Greece,"{'brand': 'Everest', 'fascia': 'Everest', 'category': 'Food & Beverage', 'edit_date': '2025-05-18', 'lat_lon_source': 'Google'}",35.33386,25.20446,Everest ΗΡΑΚΛΕΙΟ,"{'opening_hour': {'Sun': ' 05:00 - 22:30 ', 'Mon': ' 05:00 - 22:30 ', 'Tue': ' 05:00 - 22:30 ', 'Wed': ' 05:00 - 22:30 ', 'Thu': ' 05:00 - 22:30 ', 'Fri': ' 05:00 - 22:30 ', 'Sat': ' 05:00 - 22:30 '}}",,,628,,https://www.everest.gr/en/stores/
7ο χλμ Ε.Ο. ΗΡΑΚΛΕΙΟΥ-ΑΓΙΟΥ ΝΙΚΟΛΑΟΥ,Everest,,Greece,"{'brand': 'Everest', 'fascia': 'Everest', 'category': 'Food & Beverage', 'edit_date': '2025-05-18', 'lat_lon_source': 'Google'}",35.20498,25.6972,Everest Ηράκλειο,{'opening_hour': {}},,,615,,https://www.everest.gr/en/stores/
Λ. Δημοκρατίας 137 Ν. Αλικαρνασσός,Everest,,Greece,"{'brand': 'Everest', 'fascia': 'Everest', 'category': 'Food & Beverage', 'edit_date': '2025-05-18', 'lat_lon_source': 'Google'}",35.3386,25.15918,Everest Ηράκλειο,{'opening_hour': {}},,,617,,https://www.everest.gr/en/stores/
Λεωφ. Πανεπιστημίου Πανεπιστημιακό Γενικό Νοσοκομείο Ηρακλείου ,Everest,,Greece,"{'brand': 'Everest', 'fascia': 'Everest', 'category': 'Food & Beverage', 'edit_date': '2025-05-18', 'lat_lon_source': 'Google'}",35.03042,25.08441,Everest Ηράκλειο,{'opening_hour': {}},,,614,,https://www.everest.gr/en/stores/
Αγίου Τίτου 2,Everest,,Greece,"{'brand': 'Everest', 'fascia': 'Everest', 'category': 'Food & Beverage', 'edit_date': '2025-05-18', 'lat_lon_source': 'Google'}",35.3397,25.13426,Everest Ηράκλειο,{'opening_hour': {}},,,620,,https://www.everest.gr/en/stores/
 Λεωφ. Παπαναστασίου 86,Everest,,Greece,"{'brand': 'Everest', 'fascia': 'Everest', 'category': 'Food & Beverage', 'edit_date': '2025-05-18', 'lat_lon_source': 'Google'}",35.32054,25.13987,Everest Ηράκλειο,{'opening_hour': {}},,,622,,https://www.everest.gr/en/stores/
25ης Μαρτίου και Κόρακα 75,Everest,,Greece,"{'brand': 'Everest', 'fascia': 'Everest', 'category': 'Food & Beverage', 'edit_date': '2025-05-18', 'lat_lon_source': 'Google'}",35.05062,24.87862,Everest Ηράκλειο,{'opening_hour': {}},,,629,,https://www.everest.gr/en/stores/
"Λεωφ. 62 Μαρτύρων 106, Ηράκλειο 713 03",Everest,,Greece,"{'brand': 'Everest', 'fascia': 'Everest', 'category': 'Food & Beverage', 'edit_date': '2025-05-18', 'lat_lon_source': 'Google'}",35.33549,25.11758,Everest Ηράκλειο ,{'opening_hour': {}},,,618,,https://www.everest.gr/en/stores/
Λεωφόρος Δωδώνης 23,Everest,,Greece,"{'brand': 'Everest', 'fascia': 'Everest', 'category': 'Food & Beverage', 'edit_date': '2025-05-18', 'lat_lon_source': 'Google'}",39.66161,20.85178,Everest Ιωάννινα,"{'opening_hour': {'Sun': ' 06:00 - 23:00 ', 'Mon': ' 06:00 - 23:00 ', 'Tue': ' 06:00 - 23:00 ', 'Wed': ' 06:00 - 23:00 ', 'Thu': ' 06:00 - 23:00 ', 'Fri': ' 06:00 - 23:00 ', 'Sat': ' 06:00 - 23:00 '}}",,,611,,https://www.everest.gr/en/stores/
Φίλιππα Πανάγου 2,Everest,,Greece,"{'brand': 'Everest', 'fascia': 'Everest', 'category': 'Food & Beverage', 'edit_date': '2025-05-18', 'lat_lon_source': 'Google'}",38.83006,20.70537,Everest Λευκάδα,"{'opening_hour': {'Sun': ' 10:00 - 23:00 ', 'Mon': ' 13:00 - 23:00 ', 'Tue': ' 13:00 - 23:00 ', 'Wed': ' 11:00 - 23:00 ', 'Thu': ' 10:00 - 23:00 ', 'Fri': ' 10:00 - 23:00 ', 'Sat': ' 10:00 - 23:00 '}}",,,610,,https://www.everest.gr/en/stores/
Στρατηγού Μακρυγιάννη Ιωάννη 141,Everest,,Greece,"{'brand': 'Everest', 'fascia': 'Everest', 'category': 'Food & Beverage', 'edit_date': '2025-05-18', 'lat_lon_source': 'Google'}",37.96641,23.66858,Everest Μοσχάτο,"{'opening_hour': {'Sun': ' 06:00 - 22:00 ', 'Mon': ' 06:00 - 22:00 ', 'Tue': ' 06:00 - 22:00 ', 'Wed': ' 06:00 - 22:00 ', 'Thu': ' 06:00 - 22:00 ', 'Fri': ' 06:00 - 22:00 ', 'Sat': ' 06:00 - 22:00 '}}",,,612,,https://www.everest.gr/en/stores/
Πειραιώς 8,Everest,,Greece,"{'brand': 'Everest', 'fascia': 'Everest', 'category': 'Food & Beverage', 'edit_date': '2025-05-18', 'lat_lon_source': 'Google'}",37.95507,23.67502,Everest Μοσχάτο ,"{'opening_hour': {'Mon': ' 06:00 - 16:00 ', 'Tue': ' 06:00 - 16:00 ', 'Wed': ' 06:00 - 16:00 ', 'Thu': ' 06:00 - 16:00 ', 'Fri': ' 06:00 - 16:00 ', 'Sat': ' 06:00 - 16:00 '}}",,,613,,https://www.everest.gr/en/stores/
"K. Καραμανλή 102, Πλαταμώνας ",Everest,,Greece,"{'brand': 'Everest', 'fascia': 'Everest', 'category': 'Food & Beverage', 'edit_date': '2025-05-18', 'lat_lon_source': 'Google'}",39.99465,22.61915,Everest Πλαταμώνας,{'opening_hour': {}},,,625,,https://www.everest.gr/en/stores/
