addr_full,brand,city,country,extras,lat,lon,name,opening_hours,phone,postcode,ref,state,website
Rue Silas Goulet,Subway,Lievin,France,"{'brand': 'Subway', 'fascia': 'Subway', 'category': 'Restaurant', 'edit_date': '2025-03-17', 'lat_lon_source': 'website'}",50.422856,2.780352,Subway Lievin,"{'opening_hour': {'Mon': '08:30:00-22:30:00', 'Tue': '08:30:00-22:30:00', 'Wed': '08:30:00-22:30:00', 'Thur': '08:30:00-22:30:00', 'Fri': '08:30:00-22:30:00', 'Sat': '08:30:00-22:30:00', 'Sun': '09:30:00-22:30:00'}}",961634090,,1547,,https://subwayfrance.fr/restaurants/Subway Lievin
C.Cial Lens 2 Zone Pop'A,Subway,Vendin Le Vieil,France,"{'brand': 'Subway', 'fascia': 'Subway', 'category': 'Restaurant', 'edit_date': '2025-03-17', 'lat_lon_source': 'website'}",50.475578,2.866073,Subway Vendin,"{'opening_hour': {'Mon': '08:00:00-22:00:00', 'Tue': '08:00:00-22:00:00', 'Wed': '08:00:00-22:00:00', 'Thur': '08:00:00-22:00:00', 'Fri': '08:00:00-22:30:00', 'Sat': '08:00:00-22:30:00', 'Sun': '09:00:00-22:00:00'}}",321420469,,1548,,https://subwayfrance.fr/restaurants/Subway Vendin
Quai de Bacalan Hangar 17,Subway,Bordeaux,France,"{'brand': 'Subway', 'fascia': 'Subway', 'category': 'Restaurant', 'edit_date': '2025-03-17', 'lat_lon_source': 'website'}",44.85978,-0.554991,Subway Quai des Marques,"{'opening_hour': {'Mon': '09:30:00-22:00:00', 'Tue': '09:30:00-22:00:00', 'Wed': '09:30:00-22:00:00', 'Thur': '09:30:00-22:30:00', 'Fri': '09:30:00-22:30:00', 'Sat': '09:30:00-22:30:00', 'Sun': '09:30:00-22:30:00'}}",557104061,,1549,,https://subwayfrance.fr/restaurants/Subway Quai des Marques
Lieu-dit Les Patrottières,Subway,Bressuire,France,"{'brand': 'Subway', 'fascia': 'Subway', 'category': 'Restaurant', 'edit_date': '2025-03-17', 'lat_lon_source': 'website'}",46.847309,-0.471253,Subway DS Bressuire,"{'opening_hour': {'Mon': '09:00:00-22:00:00', 'Tue': '09:00:00-22:00:00', 'Wed': '09:00:00-22:00:00', 'Thur': '09:00:00-22:00:00', 'Fri': '09:00:00-23:00:00', 'Sat': '09:00:00-23:00:00', 'Sun': 'None-None'}}",,,1573,,https://subwayfrance.fr/restaurants/Subway DS Bressuire
10 rue de la Couronne,Subway,Aix-En-Provence,France,"{'brand': 'Subway', 'fascia': 'Subway', 'category': 'Restaurant', 'edit_date': '2025-03-17', 'lat_lon_source': 'website'}",43.527566,5.446122,Aix-en-Provence,"{'opening_hour': {'Mon': '10:00:00-22:00:00', 'Tue': '10:00:00-22:00:00', 'Wed': '10:00:00-22:00:00', 'Thur': '10:00:00-22:00:00', 'Fri': '10:00:00-22:30:00', 'Sat': '10:00:00-22:30:00', 'Sun': '10:00:00-22:00:00'}}",442906855,,1595,,https://subwayfrance.fr/restaurants/Aix-en-Provence
16 rue Albert 1ER,Subway,Ales,France,"{'brand': 'Subway', 'fascia': 'Subway', 'category': 'Restaurant', 'edit_date': '2025-03-17', 'lat_lon_source': 'website'}",44.125687,4.078701,Ales,"{'opening_hour': {'Mon': '11:00:00-22:30:00', 'Tue': '11:00:00-22:30:00', 'Wed': '11:00:00-22:30:00', 'Thur': '11:00:00-22:30:00', 'Fri': '11:00:00-22:30:00', 'Sat': '11:00:00-22:30:00', 'Sun': '11:00:00-22:30:00'}}",983382094,,1596,,https://subwayfrance.fr/restaurants/Ales
11-13 Boulevard Wilson,Subway,Antibes,France,"{'brand': 'Subway', 'fascia': 'Subway', 'category': 'Restaurant', 'edit_date': '2025-03-17', 'lat_lon_source': 'website'}",43.5787,7.119892,Antibes,"{'opening_hour': {'Mon': '08:00:00-22:00:00', 'Tue': '08:00:00-22:00:00', 'Wed': '08:00:00-22:00:00', 'Thur': '08:00:00-22:00:00', 'Fri': '08:00:00-22:00:00', 'Sat': '08:00:00-22:00:00', 'Sun': '11:00:00-22:00:00'}}",493342935,,1607,,https://subwayfrance.fr/restaurants/Antibes
14 avenue de Villiers,Subway,Paris,France,"{'brand': 'Subway', 'fascia': 'Subway', 'category': 'Restaurant', 'edit_date': '2025-03-17', 'lat_lon_source': 'website'}",48.881978,2.314322,Paris Villiers satelitte,"{'opening_hour': {'Mon': 'None-None', 'Tue': 'None-None', 'Wed': 'None-None', 'Thur': 'None-None', 'Fri': 'None-None', 'Sat': 'None-None', 'Sun': 'None-None'}}",0986637662,,1608,,https://subwayfrance.fr/restaurants/Paris Villiers satelitte
1 Rue Du Zephyr,Subway,Villejust,France,"{'brand': 'Subway', 'fascia': 'Subway', 'category': 'Restaurant', 'edit_date': '2025-03-17', 'lat_lon_source': 'website'}",48.68468,2.221003,Villejust,"{'opening_hour': {'Mon': '08:00:00-23:59:00', 'Tue': '08:00:00-23:59:00', 'Wed': '08:00:00-23:59:00', 'Thur': '08:00:00-23:59:00', 'Fri': '08:00:00-23:59:00', 'Sat': '08:00:00-23:59:00', 'Sun': '08:00:00-23:59:00'}}",160127021,,1609,,https://subwayfrance.fr/restaurants/Villejust
Centre Commercial Cap Sud,Subway,Avignon,France,"{'brand': 'Subway', 'fascia': 'Subway', 'category': 'Restaurant', 'edit_date': '2025-03-17', 'lat_lon_source': 'website'}",43.928544,4.837484,Avignon Cap Sud,"{'opening_hour': {'Mon': '09:30:00-19:00:00', 'Tue': '09:30:00-19:00:00', 'Wed': '09:30:00-19:00:00', 'Thur': '09:30:00-19:00:00', 'Fri': '09:30:00-19:00:00', 'Sat': '09:30:00-19:00:00', 'Sun': 'None-None'}}",977837993,,1610,,https://subwayfrance.fr/restaurants/Avignon Cap Sud
200 Avenue de Roumanille,Subway,Biot,France,"{'brand': 'Subway', 'fascia': 'Subway', 'category': 'Restaurant', 'edit_date': '2025-03-17', 'lat_lon_source': 'website'}",43.618414,7.075068,Biot,"{'opening_hour': {'Mon': '10:30:00-21:30:00', 'Tue': '10:30:00-21:30:00', 'Wed': '10:30:00-21:30:00', 'Thur': '10:30:00-21:30:00', 'Fri': '10:30:00-21:30:00', 'Sat': '11:00:00-21:30:00', 'Sun': '11:00:00-21:30:00'}}",493653943,,1611,,https://subwayfrance.fr/restaurants/Biot
82 Avenue Jean Giono,Subway,Bollene,France,"{'brand': 'Subway', 'fascia': 'Subway', 'category': 'Restaurant', 'edit_date': '2025-03-17', 'lat_lon_source': 'website'}",44.286758,4.750384,Bollene,"{'opening_hour': {'Mon': '10:00:00-17:00:00', 'Tue': '10:00:00-22:00:00', 'Wed': '10:00:00-17:00:00', 'Thur': '10:00:00-17:00:00', 'Fri': '10:00:00-17:00:00', 'Sat': '10:00:00-17:00:00', 'Sun': '10:00:00-17:00:00'}}",490402150,,1612,,https://subwayfrance.fr/restaurants/Bollene
11 rue Helene Vagliano,Subway,Cannes,France,"{'brand': 'Subway', 'fascia': 'Subway', 'category': 'Restaurant', 'edit_date': '2025-03-17', 'lat_lon_source': 'website'}",43.553438,7.021541,Cannes,"{'opening_hour': {'Mon': '10:00:00-23:00:00', 'Tue': '10:00:00-23:00:00', 'Wed': '10:00:00-23:00:00', 'Thur': '10:00:00-23:00:00', 'Fri': '10:00:00-23:00:00', 'Sat': '10:00:00-23:00:00', 'Sun': '10:00:00-23:00:00'}}",981233415,,1613,,https://subwayfrance.fr/restaurants/Cannes
2147 Route de Lyon,Subway,Davezieux,France,"{'brand': 'Subway', 'fascia': 'Subway', 'category': 'Restaurant', 'edit_date': '2025-03-17', 'lat_lon_source': 'website'}",45.262318,4.705685,Davezieux,"{'opening_hour': {'Mon': '10:00:00-20:30:00', 'Tue': '10:00:00-20:30:00', 'Wed': '10:00:00-20:30:00', 'Thur': '10:00:00-20:30:00', 'Fri': '10:00:00-20:30:00', 'Sat': '10:00:00-20:30:00', 'Sun': '11:00:00-20:30:00'}}",475322915,,1614,,https://subwayfrance.fr/restaurants/Davezieux
134 Avenue de L' Argens,Subway,Frejus,France,"{'brand': 'Subway', 'fascia': 'Subway', 'category': 'Restaurant', 'edit_date': '2025-03-17', 'lat_lon_source': 'website'}",43.427474,6.735304,Frejus Géant Casino,"{'opening_hour': {'Mon': '10:00:00-23:00:00', 'Tue': '10:00:00-23:00:00', 'Wed': '10:00:00-23:00:00', 'Thur': '10:00:00-23:00:00', 'Fri': '10:00:00-23:00:00', 'Sat': '10:00:00-23:00:00', 'Sun': '10:00:00-23:00:00'}}",981440886,,1615,,https://subwayfrance.fr/restaurants/Frejus Géant Casino
28 Bd d'Orient,Subway,Gap,France,"{'brand': 'Subway', 'fascia': 'Subway', 'category': 'Restaurant', 'edit_date': '2025-03-17', 'lat_lon_source': 'website'}",44.568638,6.105247,Gap,"{'opening_hour': {'Mon': '10:30:00-21:30:00', 'Tue': '10:30:00-21:30:00', 'Wed': '10:30:00-21:30:00', 'Thur': '10:30:00-21:30:00', 'Fri': '10:30:00-21:30:00', 'Sat': '10:30:00-21:30:00', 'Sun': 'None-None'}}",492233116,,1616,,https://subwayfrance.fr/restaurants/Gap
641 Avenue de Saint-Tronquet,Subway,Le Pontet,France,"{'brand': 'Subway', 'fascia': 'Subway', 'category': 'Restaurant', 'edit_date': '2025-03-17', 'lat_lon_source': 'website'}",43.983347,4.874156,Le Pontet,"{'opening_hour': {'Mon': '11:00:00-23:00:00', 'Tue': '11:00:00-23:00:00', 'Wed': '11:00:00-23:00:00', 'Thur': '11:00:00-23:00:00', 'Fri': '11:00:00-23:00:00', 'Sat': '11:00:00-23:00:00', 'Sun': '11:00:00-23:00:00'}}",490013417,,1617,,https://subwayfrance.fr/restaurants/Le Pontet
C.Cial Leclerc Grand Angle,Subway,Les Angles,France,"{'brand': 'Subway', 'fascia': 'Subway', 'category': 'Restaurant', 'edit_date': '2025-03-17', 'lat_lon_source': 'website'}",43.96046,4.749252,Les Angles,"{'opening_hour': {'Mon': '09:00:00-20:15:00', 'Tue': '09:00:00-20:15:00', 'Wed': '09:00:00-20:15:00', 'Thur': '09:00:00-20:15:00', 'Fri': '09:00:00-20:15:00', 'Sat': '09:00:00-20:15:00', 'Sun': 'None-None'}}",973208415,,1618,,https://subwayfrance.fr/restaurants/Les Angles
"270, Boulevard Baille",Subway,Marseille,France,"{'brand': 'Subway', 'fascia': 'Subway', 'category': 'Restaurant', 'edit_date': '2025-03-17', 'lat_lon_source': 'website'}",43.290003,5.399277,Marseille Baille,"{'opening_hour': {'Mon': '09:30:00-23:00:00', 'Tue': '09:30:00-23:00:00', 'Wed': '09:30:00-23:00:00', 'Thur': '09:30:00-23:00:00', 'Fri': '09:30:00-23:00:00', 'Sat': '09:30:00-23:00:00', 'Sun': '09:30:00-23:00:00'}}",491308215,,1619,,https://subwayfrance.fr/restaurants/Marseille Baille
62 Av. de Saint-Just,Subway,Marseille,France,"{'brand': 'Subway', 'fascia': 'Subway', 'category': 'Restaurant', 'edit_date': '2025-03-17', 'lat_lon_source': 'website'}",43.316804,5.404844,Marseille Saint Just,"{'opening_hour': {'Mon': '10:00:00-22:30:00', 'Tue': '10:00:00-22:30:00', 'Wed': '10:00:00-22:30:00', 'Thur': '10:00:00-22:30:00', 'Fri': '10:30:00-22:30:00', 'Sat': '10:00:00-22:30:00', 'Sun': '10:00:00-22:30:00'}}",491728147,,1620,,https://subwayfrance.fr/restaurants/Marseille Saint Just
12 Avenue du Marechal Foch,Subway,Marseille,France,"{'brand': 'Subway', 'fascia': 'Subway', 'category': 'Restaurant', 'edit_date': '2025-03-17', 'lat_lon_source': 'website'}",43.302136,5.397281,Marseille Foch,"{'opening_hour': {'Mon': '08:00:00-23:00:00', 'Tue': '08:00:00-23:00:00', 'Wed': '08:00:00-23:00:00', 'Thur': '08:00:00-23:00:00', 'Fri': '08:00:00-23:00:00', 'Sat': '08:00:00-23:00:00', 'Sun': '08:00:00-23:00:00'}}",491256075,,1621,,https://subwayfrance.fr/restaurants/Marseille Foch
11-19 Boulevard Du Redon,Subway,Marseille,France,"{'brand': 'Subway', 'fascia': 'Subway', 'category': 'Restaurant', 'edit_date': '2025-03-17', 'lat_lon_source': 'website'}",43.256881,5.419843,Marseille Redon,"{'opening_hour': {'Mon': '09:00:00-22:00:00', 'Tue': '09:00:00-22:00:00', 'Wed': '09:00:00-22:00:00', 'Thur': '09:00:00-22:00:00', 'Fri': '09:00:00-22:00:00', 'Sat': '09:00:00-22:00:00', 'Sun': '09:00:00-22:00:00'}}",983736189,,1622,,https://subwayfrance.fr/restaurants/Marseille Redon
8 Route de La Sabliere,Subway,Marseille,France,"{'brand': 'Subway', 'fascia': 'Subway', 'category': 'Restaurant', 'edit_date': '2025-03-17', 'lat_lon_source': 'website'}",43.290194,5.477751,Marseille La Valentine,"{'opening_hour': {'Mon': '10:00:00-22:00:00', 'Tue': '10:00:00-22:00:00', 'Wed': '10:00:00-22:00:00', 'Thur': '10:30:00-22:00:00', 'Fri': '10:00:00-22:00:00', 'Sat': '10:00:00-22:30:00', 'Sun': '10:00:00-22:00:00'}}",983722474,,1623,,https://subwayfrance.fr/restaurants/Marseille La Valentine
28 Pl. Alphonse Lepetit,Subway,Poitiers,France,"{'brand': 'Subway', 'fascia': 'Subway', 'category': 'Restaurant', 'edit_date': '2025-03-17', 'lat_lon_source': 'website'}",46.583034,0.34157,Poitiers CV,"{'opening_hour': {'Mon': '08:00:00-22:00:00', 'Tue': '09:00:00-22:00:00', 'Wed': '08:00:00-22:00:00', 'Thur': '08:00:00-23:00:00', 'Fri': '08:00:00-23:00:00', 'Sat': '08:00:00-23:00:00', 'Sun': '09:00:00-22:00:00'}}",549392346,,1624,,https://subwayfrance.fr/restaurants/Poitiers CV
29 Avenue de Gournier,Subway,Montelimar,France,"{'brand': 'Subway', 'fascia': 'Subway', 'category': 'Restaurant', 'edit_date': '2025-03-17', 'lat_lon_source': 'website'}",44.533439,4.733898,Montelimar,"{'opening_hour': {'Mon': '10:00:00-21:30:00', 'Tue': '10:00:00-21:30:00', 'Wed': '10:00:00-21:30:00', 'Thur': '10:00:00-21:30:00', 'Fri': '10:00:00-21:30:00', 'Sat': '10:00:00-21:30:00', 'Sun': '10:00:00-21:30:00'}}",967178907,,1625,,https://subwayfrance.fr/restaurants/Montelimar
6 Rue de Suisse,Subway,Nice,France,"{'brand': 'Subway', 'fascia': 'Subway', 'category': 'Restaurant', 'edit_date': '2025-03-17', 'lat_lon_source': 'website'}",43.703586,7.265413,Nice Suisse,"{'opening_hour': {'Mon': '11:00:00-21:00:00', 'Tue': '11:00:00-21:00:00', 'Wed': '11:00:00-21:00:00', 'Thur': '11:00:00-21:00:00', 'Fri': '11:00:00-21:00:00', 'Sat': '11:00:00-21:00:00', 'Sun': '11:00:00-20:30:00'}}",493883670,,1626,,https://subwayfrance.fr/restaurants/Nice Suisse
22 Boulevard Jean-Jaures,Subway,Nice,France,"{'brand': 'Subway', 'fascia': 'Subway', 'category': 'Restaurant', 'edit_date': '2025-03-17', 'lat_lon_source': 'website'}",43.698288,7.276517,Nice Jaures,"{'opening_hour': {'Mon': '09:30:00-21:30:00', 'Tue': '09:30:00-21:30:00', 'Wed': '09:30:00-21:30:00', 'Thur': '09:30:00-21:30:00', 'Fri': '09:30:00-22:00:00', 'Sat': '09:30:00-22:00:00', 'Sun': '10:30:00-21:30:00'}}",982358123,,1627,,https://subwayfrance.fr/restaurants/Nice Jaures
590 Route de Grenoble,Subway,Nice,France,"{'brand': 'Subway', 'fascia': 'Subway', 'category': 'Restaurant', 'edit_date': '2025-03-17', 'lat_lon_source': 'website'}",43.726244,7.186317,Nice Lingostière,"{'opening_hour': {'Mon': '11:00:00-21:30:00', 'Tue': '11:00:00-21:30:00', 'Wed': '11:00:00-21:30:00', 'Thur': '11:00:00-21:30:00', 'Fri': '11:00:00-22:00:00', 'Sat': '11:00:00-22:00:00', 'Sun': '11:00:00-21:30:00'}}",982356052,,1628,,https://subwayfrance.fr/restaurants/Nice Lingostière
8 Boulevard Gambetta,Subway,Nice,France,"{'brand': 'Subway', 'fascia': 'Subway', 'category': 'Restaurant', 'edit_date': '2025-03-17', 'lat_lon_source': 'website'}",43.695695,7.256478,Nice Gambetta,"{'opening_hour': {'Mon': '11:00:00-11:30:00', 'Tue': '11:00:00-11:30:00', 'Wed': '11:00:00-11:30:00', 'Thur': '11:00:00-11:30:00', 'Fri': '11:00:00-11:30:00', 'Sat': '11:00:00-11:30:00', 'Sun': '11:00:00-11:30:00'}}",493042771,,1629,,https://subwayfrance.fr/restaurants/Nice Gambetta
Parc Cial Orange Les Vignes,Subway,Orange,France,"{'brand': 'Subway', 'fascia': 'Subway', 'category': 'Restaurant', 'edit_date': '2025-03-17', 'lat_lon_source': 'website'}",44.111081,4.851911,Orange les Vignes,"{'opening_hour': {'Mon': 'None-None', 'Tue': 'None-None', 'Wed': 'None-None', 'Thur': 'None-None', 'Fri': 'None-None', 'Sat': 'None-None', 'Sun': 'None-None'}}",490307198,,1630,,https://subwayfrance.fr/restaurants/Orange les Vignes
594 Route d'Aix,Subway,Pertuis,France,"{'brand': 'Subway', 'fascia': 'Subway', 'category': 'Restaurant', 'edit_date': '2025-03-17', 'lat_lon_source': 'website'}",43.683427,5.500674,Pertuis,"{'opening_hour': {'Mon': '11:00:00-21:30:00', 'Tue': '11:00:00-21:30:00', 'Wed': '11:00:00-21:30:00', 'Thur': '11:00:00-21:30:00', 'Fri': '11:00:00-21:30:00', 'Sat': '11:00:00-21:30:00', 'Sun': '11:00:00-21:30:00'}}",980721609,,1631,,https://subwayfrance.fr/restaurants/Pertuis
Zac La Croix D'Or,Subway,Pierrelatte,France,"{'brand': 'Subway', 'fascia': 'Subway', 'category': 'Restaurant', 'edit_date': '2025-03-17', 'lat_lon_source': 'website'}",44.362364,4.694064,Pierrelatte,"{'opening_hour': {'Mon': '10:00:00-17:00:00', 'Tue': '10:00:00-17:00:00', 'Wed': '10:00:00-17:00:00', 'Thur': '10:00:00-22:00:00', 'Fri': '10:00:00-17:00:00', 'Sat': '10:00:00-17:00:00', 'Sun': '10:00:00-17:00:00'}}",475901836,,1632,,https://subwayfrance.fr/restaurants/Pierrelatte
Centre Commercial Auchan 92,Subway,Toulouse,France,"{'brand': 'Subway', 'fascia': 'Subway', 'category': 'Restaurant', 'edit_date': '2025-03-17', 'lat_lon_source': 'website'}",43.635039,1.482304,Toulouse Gramont satelitte,"{'opening_hour': {'Mon': 'None-None', 'Tue': 'None-None', 'Wed': 'None-None', 'Thur': 'None-None', 'Fri': 'None-None', 'Sat': 'None-None', 'Sun': 'None-None'}}",0534338769,,1633,,https://subwayfrance.fr/restaurants/Toulouse Gramont satelitte
Avenue Dr 08 Mai 1945,Subway,St Victoret,France,"{'brand': 'Subway', 'fascia': 'Subway', 'category': 'Restaurant', 'edit_date': '2025-03-17', 'lat_lon_source': 'website'}",43.413761,5.255462,Saint Georges des Coteaux,"{'opening_hour': {'Mon': 'None-None', 'Tue': 'None-None', 'Wed': 'None-None', 'Thur': 'None-None', 'Fri': 'None-None', 'Sat': 'None-None', 'Sun': 'None-None'}}",442095409,,1635,,https://subwayfrance.fr/restaurants/Saint Georges des Coteaux
8 Place Castellane,Subway,Marseille,France,"{'brand': 'Subway', 'fascia': 'Subway', 'category': 'Restaurant', 'edit_date': '2025-03-17', 'lat_lon_source': 'website'}",43.2862,5.383136,Marseille Castellane,"{'opening_hour': {'Mon': '09:00:00-22:30:00', 'Tue': '09:00:00-22:30:00', 'Wed': '09:00:00-22:30:00', 'Thur': '09:00:00-22:30:00', 'Fri': '09:00:00-22:30:00', 'Sat': '09:00:00-22:30:00', 'Sun': 'None-None'}}",760621916,,1636,,https://subwayfrance.fr/restaurants/Marseille Castellane
7 Rue Henri Pastoureau,Subway,Toulon,France,"{'brand': 'Subway', 'fascia': 'Subway', 'category': 'Restaurant', 'edit_date': '2025-03-17', 'lat_lon_source': 'website'}",43.124587,5.930586,Toulon,"{'opening_hour': {'Mon': '10:30:00-22:00:00', 'Tue': '10:30:00-22:00:00', 'Wed': '10:30:00-22:00:00', 'Thur': '10:30:00-22:00:00', 'Fri': '10:30:00-22:00:00', 'Sat': '10:30:00-22:00:00', 'Sun': '10:30:00-22:00:00'}}",483572547,,1637,,https://subwayfrance.fr/restaurants/Toulon
"Centre commercial Grand var sud, Avenue de l'université",Subway,La Valette Du Var,France,"{'brand': 'Subway', 'fascia': 'Subway', 'category': 'Restaurant', 'edit_date': '2025-03-17', 'lat_lon_source': 'website'}",43.141575,6.015362,Toulon Grand Var,"{'opening_hour': {'Mon': '10:00:00-20:00:00', 'Tue': '10:00:00-20:00:00', 'Wed': '10:00:00-21:30:00', 'Thur': '10:00:00-21:30:00', 'Fri': '10:00:00-22:30:00', 'Sat': '10:00:00-22:30:00', 'Sun': '10:00:00-21:30:00'}}",800907785,,1638,,https://subwayfrance.fr/restaurants/Toulon Grand Var
70 Avenue de Romans,Subway,Valence,France,"{'brand': 'Subway', 'fascia': 'Subway', 'category': 'Restaurant', 'edit_date': '2025-03-17', 'lat_lon_source': 'website'}",44.932801,4.902757,Valence,"{'opening_hour': {'Mon': 'None-None', 'Tue': 'None-None', 'Wed': 'None-None', 'Thur': 'None-None', 'Fri': 'None-None', 'Sat': 'None-None', 'Sun': 'None-None'}}",475408052,,1639,,https://subwayfrance.fr/restaurants/Valence
2 Avenue Du Docteur Lefebvre,Subway,Villeneuve-Loubet,France,"{'brand': 'Subway', 'fascia': 'Subway', 'category': 'Restaurant', 'edit_date': '2025-03-17', 'lat_lon_source': 'website'}",43.636193,7.132968,Villeneuve-Loubet,"{'opening_hour': {'Mon': '08:30:00-22:00:00', 'Tue': '08:30:00-22:00:00', 'Wed': '08:30:00-22:00:00', 'Thur': '08:30:00-22:00:00', 'Fri': '08:30:00-22:30:00', 'Sat': '08:30:00-22:30:00', 'Sun': '09:00:00-22:00:00'}}",492132475,,1640,,https://subwayfrance.fr/restaurants/Villeneuve-Loubet
C.Cial Grand Vitrolles Rn 113,Subway,Vitrolles,France,"{'brand': 'Subway', 'fascia': 'Subway', 'category': 'Restaurant', 'edit_date': '2025-03-17', 'lat_lon_source': 'website'}",43.469236,5.232071,Vitrolles,"{'opening_hour': {'Mon': 'None-None', 'Tue': 'None-None', 'Wed': 'None-None', 'Thur': 'None-None', 'Fri': 'None-None', 'Sat': 'None-None', 'Sun': 'None-None'}}",442807011,,1641,,https://subwayfrance.fr/restaurants/Vitrolles
8 Quai de Rive Neuve,Subway,Marseille,France,"{'brand': 'Subway', 'fascia': 'Subway', 'category': 'Restaurant', 'edit_date': '2025-03-17', 'lat_lon_source': 'website'}",43.293618,5.372488,Marseille vieux port,"{'opening_hour': {'Mon': '00:00:00-03:00:00', 'Tue': '00:00:00-03:00:00', 'Wed': '00:00:00-03:00:00', 'Thur': '00:00:00-03:00:00', 'Fri': '00:00:00-05:00:00', 'Sat': '00:00:00-06:00:00', 'Sun': '00:00:00-06:00:00'}}",,,1642,,https://subwayfrance.fr/restaurants/Marseille vieux port
Aire de Mornas Les Adrets,Subway,Mornas,France,"{'brand': 'Subway', 'fascia': 'Subway', 'category': 'Restaurant', 'edit_date': '2025-03-17', 'lat_lon_source': 'website'}",44.21607,4.723249,Mornas,"{'opening_hour': {'Mon': '10:00:00-21:30:00', 'Tue': '10:00:00-21:30:00', 'Wed': '10:00:00-21:30:00', 'Thur': '10:00:00-21:30:00', 'Fri': '10:00:00-21:30:00', 'Sat': '10:00:00-21:30:00', 'Sun': '10:00:00-21:30:00'}}",473984700,,1643,,https://subwayfrance.fr/restaurants/Mornas
60 Rue de Roquebilliere,Subway,Nice,France,"{'brand': 'Subway', 'fascia': 'Subway', 'category': 'Restaurant', 'edit_date': '2025-03-17', 'lat_lon_source': 'website'}",43.709773,7.287655,Nice Carré Vauban,"{'opening_hour': {'Mon': '08:30:00-23:59:00', 'Tue': '08:30:00-23:59:00', 'Wed': '08:30:00-23:59:00', 'Thur': '08:30:00-23:59:00', 'Fri': '08:30:00-23:59:00', 'Sat': '08:30:00-23:59:00', 'Sun': '08:30:00-23:59:00'}}",422915110,,1644,,https://subwayfrance.fr/restaurants/Nice Carré Vauban
16 Rue Jules Bianchi,Subway,Nice,France,"{'brand': 'Subway', 'fascia': 'Subway', 'category': 'Restaurant', 'edit_date': '2025-03-17', 'lat_lon_source': 'website'}",43.706095,7.194371,Nice IKEA,"{'opening_hour': {'Mon': '11:00:00-20:00:00', 'Tue': '11:00:00-20:00:00', 'Wed': '11:00:00-20:00:00', 'Thur': '11:00:00-20:00:00', 'Fri': '11:00:00-20:30:00', 'Sat': '11:00:00-21:00:00', 'Sun': '11:00:00-19:30:00'}}",986575481,,1645,,https://subwayfrance.fr/restaurants/Nice IKEA
Cc Carrefour Le Coudoulet,Subway,Orange,France,"{'brand': 'Subway', 'fascia': 'Subway', 'category': 'Restaurant', 'edit_date': '2025-03-17', 'lat_lon_source': 'website'}",44.121028,4.838849,Orange,"{'opening_hour': {'Mon': '08:30:00-21:30:00', 'Tue': '08:30:00-21:30:00', 'Wed': '08:30:00-21:30:00', 'Thur': '08:30:00-21:30:00', 'Fri': '08:30:00-22:00:00', 'Sat': '08:30:00-22:00:00', 'Sun': 'None-None'}}",490342655,,1646,,https://subwayfrance.fr/restaurants/Orange
Route de Mezzavia,Subway,Ajaccio,France,"{'brand': 'Subway', 'fascia': 'Subway', 'category': 'Restaurant', 'edit_date': '2025-03-17', 'lat_lon_source': 'website'}",41.949888,8.770443,Ajaccio,"{'opening_hour': {'Mon': 'None-None', 'Tue': 'None-None', 'Wed': 'None-None', 'Thur': 'None-None', 'Fri': 'None-None', 'Sat': 'None-None', 'Sun': 'None-None'}}",495261579,,1647,,https://subwayfrance.fr/restaurants/Ajaccio
Ctre Commercial Les 7 Collines,Subway,Nimes,France,"{'brand': 'Subway', 'fascia': 'Subway', 'category': 'Restaurant', 'edit_date': '2025-03-17', 'lat_lon_source': 'website'}",43.823362,4.3664,Nîmes les 7 colines,"{'opening_hour': {'Mon': '10:00:00-22:30:00', 'Tue': '10:00:00-22:30:00', 'Wed': '10:00:00-22:30:00', 'Thur': '10:00:00-23:30:00', 'Fri': '10:00:00-23:30:00', 'Sat': '10:00:00-23:30:00', 'Sun': '10:00:00-23:30:00'}}",973574578,,1648,,https://subwayfrance.fr/restaurants/Nîmes les 7 colines
Bp - La Francilienne N104,Subway,Attainville,France,"{'brand': 'Subway', 'fascia': 'Subway', 'category': 'Restaurant', 'edit_date': '2025-03-17', 'lat_lon_source': 'website'}",49.06011,2.347756,Attainville,"{'opening_hour': {'Mon': '09:00:00-21:00:00', 'Tue': '09:00:00-21:00:00', 'Wed': '09:00:00-21:00:00', 'Thur': '09:00:00-21:00:00', 'Fri': '09:00:00-21:00:00', 'Sat': '09:00:00-21:00:00', 'Sun': '09:00:00-21:00:00'}}",139918074,,1649,,https://subwayfrance.fr/restaurants/Attainville
23 Rue Madeleine Vionnet,Subway,Aubervilliers,France,"{'brand': 'Subway', 'fascia': 'Subway', 'category': 'Restaurant', 'edit_date': '2025-03-17', 'lat_lon_source': 'website'}",48.902925,2.376513,Aubervilliers,"{'opening_hour': {'Mon': '09:00:00-20:30:00', 'Tue': '09:00:00-20:30:00', 'Wed': '09:00:00-20:30:00', 'Thur': '09:00:00-20:30:00', 'Fri': '09:00:00-20:30:00', 'Sat': '09:30:00-20:30:00', 'Sun': 'None-None'}}",141610333,,1650,,https://subwayfrance.fr/restaurants/Aubervilliers
9 Square Columbia,Subway,Cergy,France,"{'brand': 'Subway', 'fascia': 'Subway', 'category': 'Restaurant', 'edit_date': '2025-03-17', 'lat_lon_source': 'website'}",49.038433,2.078537,Cergy,"{'opening_hour': {'Mon': '10:30:00-23:00:00', 'Tue': '10:30:00-23:00:00', 'Wed': '10:30:00-23:00:00', 'Thur': '10:30:00-23:00:00', 'Fri': '10:30:00-23:00:00', 'Sat': '10:30:00-23:00:00', 'Sun': '11:30:00-23:00:00'}}",130324879,,1651,,https://subwayfrance.fr/restaurants/Cergy
4 Place des Trois Gares,Subway,Cergy,France,"{'brand': 'Subway', 'fascia': 'Subway', 'category': 'Restaurant', 'edit_date': '2025-03-17', 'lat_lon_source': 'website'}",49.049023,2.011766,Cergy Trois Gares,"{'opening_hour': {'Mon': '10:00:00-22:00:00', 'Tue': '10:00:00-22:00:00', 'Wed': '10:00:00-22:00:00', 'Thur': '10:00:00-22:00:00', 'Fri': '10:00:00-22:00:00', 'Sat': '10:00:00-22:00:00', 'Sun': '10:00:00-22:00:00'}}",951447065,,1652,,https://subwayfrance.fr/restaurants/Cergy Trois Gares
5 Rue Robert Schuman,Subway,Enghien Les Bains,France,"{'brand': 'Subway', 'fascia': 'Subway', 'category': 'Restaurant', 'edit_date': '2025-03-17', 'lat_lon_source': 'website'}",48.970754,2.308502,Enghien les Bains,"{'opening_hour': {'Mon': 'None-None', 'Tue': 'None-None', 'Wed': 'None-None', 'Thur': 'None-None', 'Fri': 'None-None', 'Sat': 'None-None', 'Sun': 'None-None'}}",134055337,,1653,,https://subwayfrance.fr/restaurants/Enghien les Bains
Zac de La Gare D'Ermont,Subway,Ermont,France,"{'brand': 'Subway', 'fascia': 'Subway', 'category': 'Restaurant', 'edit_date': '2025-03-17', 'lat_lon_source': 'website'}",48.969889,2.262636,Ermont,"{'opening_hour': {'Mon': '00:00:00-02:00:00', 'Tue': '00:00:00-02:00:00', 'Wed': '00:00:00-02:00:00', 'Thur': '00:00:00-02:00:00', 'Fri': '00:00:00-02:00:00', 'Sat': '00:00:00-02:00:00', 'Sun': '00:00:00-02:00:00'}}",134374822,,1654,,https://subwayfrance.fr/restaurants/Ermont
C.Cial Usines Center,Subway,Gonesse,France,"{'brand': 'Subway', 'fascia': 'Subway', 'category': 'Restaurant', 'edit_date': '2025-03-17', 'lat_lon_source': 'website'}",48.978074,2.498075,Gonesse,"{'opening_hour': {'Mon': '10:00:00-19:00:00', 'Tue': '10:00:00-19:00:00', 'Wed': '10:00:00-19:00:00', 'Thur': '10:00:00-19:00:00', 'Fri': '10:00:00-19:00:00', 'Sat': '10:00:00-20:00:00', 'Sun': '10:00:00-20:00:00'}}",975550189,,1655,,https://subwayfrance.fr/restaurants/Gonesse
236 Av. du Président Wilson,Subway,Saint-Denis,France,"{'brand': 'Subway', 'fascia': 'Subway', 'category': 'Restaurant', 'edit_date': '2025-03-17', 'lat_lon_source': 'website'}",48.91633,2.358117,La Plaine Saint Denis,"{'opening_hour': {'Mon': '10:00:00-23:30:00', 'Tue': '10:00:00-23:30:00', 'Wed': '10:00:00-23:30:00', 'Thur': '10:00:00-23:30:00', 'Fri': '10:00:00-23:30:00', 'Sat': 'None-None', 'Sun': 'None-None'}}",155991584,,1657,,https://subwayfrance.fr/restaurants/La Plaine Saint Denis
Ccr Les Arcades,Subway,Noisy Le Grand,France,"{'brand': 'Subway', 'fascia': 'Subway', 'category': 'Restaurant', 'edit_date': '2025-03-17', 'lat_lon_source': 'website'}",48.839936,2.544539,Lyon part Dieux,"{'opening_hour': {'Mon': 'None-None', 'Tue': 'None-None', 'Wed': 'None-None', 'Thur': 'None-None', 'Fri': 'None-None', 'Sat': 'None-None', 'Sun': 'None-None'}}",143044597,,1659,,https://subwayfrance.fr/restaurants/Lyon part Dieux
91 Ter Ave Jean Lolive,Subway,Pantin,France,"{'brand': 'Subway', 'fascia': 'Subway', 'category': 'Restaurant', 'edit_date': '2025-03-17', 'lat_lon_source': 'website'}",48.89233,2.407186,Pantin,"{'opening_hour': {'Mon': '10:00:00-23:30:00', 'Tue': '10:00:00-23:30:00', 'Wed': '10:00:00-23:30:00', 'Thur': '10:00:00-23:30:00', 'Fri': '10:00:00-23:30:00', 'Sat': '10:00:00-23:30:00', 'Sun': '10:00:00-23:30:00'}}",141500482,,1660,,https://subwayfrance.fr/restaurants/Pantin
7 Boulevard Denain,Subway,Paris,France,"{'brand': 'Subway', 'fascia': 'Subway', 'category': 'Restaurant', 'edit_date': '2025-03-17', 'lat_lon_source': 'website'}",48.879041,2.354619,Paris Gare du Nord,"{'opening_hour': {'Mon': '08:30:00-23:30:00', 'Tue': '08:30:00-23:30:00', 'Wed': '08:30:00-23:30:00', 'Thur': '08:30:00-23:30:00', 'Fri': '08:30:00-23:30:00', 'Sat': '09:00:00-23:30:00', 'Sun': '09:00:00-23:30:00'}}",148740849,,1661,,https://subwayfrance.fr/restaurants/Paris Gare du Nord
19 Quai de Montebello,Subway,Paris,France,"{'brand': 'Subway', 'fascia': 'Subway', 'category': 'Restaurant', 'edit_date': '2025-03-17', 'lat_lon_source': 'website'}",48.852196,2.34867,Paris Notre Dame,"{'opening_hour': {'Mon': '00:00:00-02:00:00', 'Tue': '00:00:00-02:00:00', 'Wed': '00:00:00-02:00:00', 'Thur': '00:00:00-02:00:00', 'Fri': '00:00:00-02:00:00', 'Sat': '00:00:00-02:00:00', 'Sun': '00:00:00-02:00:00'}}",981932162,,1662,,https://subwayfrance.fr/restaurants/Paris Notre Dame
15 Rue Vavin,Subway,Paris,France,"{'brand': 'Subway', 'fascia': 'Subway', 'category': 'Restaurant', 'edit_date': '2025-03-17', 'lat_lon_source': 'website'}",48.844116,2.330989,Paris Vavin,"{'opening_hour': {'Mon': '10:00:00-23:00:00', 'Tue': '10:00:00-23:00:00', 'Wed': '10:00:00-23:00:00', 'Thur': '10:00:00-23:00:00', 'Fri': '10:00:00-23:00:00', 'Sat': '10:00:00-23:00:00', 'Sun': '10:00:00-23:00:00'}}",140460014,,1663,,https://subwayfrance.fr/restaurants/Paris Vavin
85 Rue Reuilly,Subway,Paris,France,"{'brand': 'Subway', 'fascia': 'Subway', 'category': 'Restaurant', 'edit_date': '2025-03-17', 'lat_lon_source': 'website'}",48.844691,2.390014,Paris Montgallet,"{'opening_hour': {'Mon': '10:00:00-22:00:00', 'Tue': '10:00:00-22:00:00', 'Wed': '10:00:00-22:00:00', 'Thur': '10:00:00-22:00:00', 'Fri': '10:00:00-22:00:00', 'Sat': '10:00:00-22:00:00', 'Sun': '10:00:00-22:00:00'}}",144755186,,1664,,https://subwayfrance.fr/restaurants/Paris Montgallet
140 Avenue Du General Leclerc,Subway,Paris,France,"{'brand': 'Subway', 'fascia': 'Subway', 'category': 'Restaurant', 'edit_date': '2025-03-17', 'lat_lon_source': 'website'}",48.823671,2.3255,Paris Porte D’Orleans,"{'opening_hour': {'Mon': '00:00:00-02:00:00', 'Tue': '00:00:00-02:00:00', 'Wed': '00:00:00-02:00:00', 'Thur': '00:00:00-02:00:00', 'Fri': '00:00:00-02:00:00', 'Sat': '00:00:00-02:00:00', 'Sun': '00:00:00-02:00:00'}}",986204683,,1665,,https://subwayfrance.fr/restaurants/Paris Porte D’Orleans
90 Rue Saint Martin,Subway,Paris,France,"{'brand': 'Subway', 'fascia': 'Subway', 'category': 'Restaurant', 'edit_date': '2025-03-17', 'lat_lon_source': 'website'}",48.859761,2.351032,Paris Saint Martin,"{'opening_hour': {'Mon': '09:00:00-23:00:00', 'Tue': '09:00:00-23:00:00', 'Wed': '09:00:00-23:00:00', 'Thur': '09:00:00-23:00:00', 'Fri': '09:00:00-23:59:00', 'Sat': '09:00:00-23:59:00', 'Sun': '09:00:00-23:00:00'}}",148043503,,1666,,https://subwayfrance.fr/restaurants/Paris Saint Martin
47 Rue des Acacias,Subway,Paris,France,"{'brand': 'Subway', 'fascia': 'Subway', 'category': 'Restaurant', 'edit_date': '2025-03-17', 'lat_lon_source': 'website'}",48.878174,2.293526,Paris Rue des Acacias,"{'opening_hour': {'Mon': '10:30:00-22:30:00', 'Tue': '10:30:00-22:30:00', 'Wed': '10:30:00-22:30:00', 'Thur': '10:30:00-22:30:00', 'Fri': '10:30:00-22:30:00', 'Sat': 'None-None', 'Sun': '11:00:00-22:30:00'}}",145743228,,1667,,https://subwayfrance.fr/restaurants/Paris Rue des Acacias
39 Boulevard Pasteur,Subway,Paris,France,"{'brand': 'Subway', 'fascia': 'Subway', 'category': 'Restaurant', 'edit_date': '2025-03-17', 'lat_lon_source': 'website'}",48.84272,2.313251,Paris Pasteur,"{'opening_hour': {'Mon': '00:00:00-23:59:00', 'Tue': '00:00:00-23:59:00', 'Wed': '00:00:00-23:59:00', 'Thur': '00:00:00-23:59:00', 'Fri': '00:00:00-23:59:00', 'Sat': '00:00:00-23:59:00', 'Sun': '00:00:00-23:59:00'}}",142190574,,1668,,https://subwayfrance.fr/restaurants/Paris Pasteur
39 Rue Joubert,Subway,Paris,France,"{'brand': 'Subway', 'fascia': 'Subway', 'category': 'Restaurant', 'edit_date': '2025-03-17', 'lat_lon_source': 'website'}",48.874645,2.329637,Paris Passage de Provence,"{'opening_hour': {'Mon': '00:00:00-02:00:00', 'Tue': '00:00:00-02:00:00', 'Wed': '00:00:00-02:00:00', 'Thur': '00:00:00-02:00:00', 'Fri': '00:00:00-02:00:00', 'Sat': '00:00:00-02:00:00', 'Sun': '00:00:00-02:00:00'}}",153200577,,1669,,https://subwayfrance.fr/restaurants/Paris Passage de Provence
85 Rue D'Alesia,Subway,Paris,France,"{'brand': 'Subway', 'fascia': 'Subway', 'category': 'Restaurant', 'edit_date': '2025-03-17', 'lat_lon_source': 'website'}",48.827721,2.327592,Paris Alesia,"{'opening_hour': {'Mon': '00:00:00-02:00:00', 'Tue': '00:00:00-02:00:00', 'Wed': '00:00:00-02:00:00', 'Thur': '00:00:00-02:00:00', 'Fri': '00:00:00-02:00:00', 'Sat': '00:00:00-02:00:00', 'Sun': '00:00:00-02:00:00'}}",983264908,,1671,,https://subwayfrance.fr/restaurants/Paris Alesia
226 Rue Du Fbg Saint Martin,Subway,Paris,France,"{'brand': 'Subway', 'fascia': 'Subway', 'category': 'Restaurant', 'edit_date': '2025-03-17', 'lat_lon_source': 'website'}",48.880642,2.364808,Paris Louis Blanc,"{'opening_hour': {'Mon': '11:00:00-21:00:00', 'Tue': '11:00:00-21:00:00', 'Wed': '11:00:00-21:00:00', 'Thur': '11:00:00-21:00:00', 'Fri': '11:00:00-21:00:00', 'Sat': 'None-None', 'Sun': 'None-None'}}",140373215,,1672,,https://subwayfrance.fr/restaurants/Paris Louis Blanc
51 Rue Saint Paul,Subway,Paris,France,"{'brand': 'Subway', 'fascia': 'Subway', 'category': 'Restaurant', 'edit_date': '2025-03-17', 'lat_lon_source': 'website'}",48.854524,2.362517,Paris St Paul,"{'opening_hour': {'Mon': '00:00:00-23:59:00', 'Tue': '00:00:00-23:59:00', 'Wed': '00:00:00-23:59:00', 'Thur': '00:00:00-23:59:00', 'Fri': '00:00:00-23:59:00', 'Sat': '00:00:00-23:59:00', 'Sun': '00:00:00-23:59:00'}}",981946059,,1673,,https://subwayfrance.fr/restaurants/Paris St Paul
7 Rue Michel Chasles,Subway,Paris,France,"{'brand': 'Subway', 'fascia': 'Subway', 'category': 'Restaurant', 'edit_date': '2025-03-17', 'lat_lon_source': 'website'}",48.846649,2.373724,Paris Gare de Lyon,"{'opening_hour': {'Mon': 'None-None', 'Tue': 'None-None', 'Wed': 'None-None', 'Thur': 'None-None', 'Fri': 'None-None', 'Sat': 'None-None', 'Sun': 'None-None'}}",961068923,,1674,,https://subwayfrance.fr/restaurants/Paris Gare de Lyon
81 Rue de Tolbiac,Subway,Paris,France,"{'brand': 'Subway', 'fascia': 'Subway', 'category': 'Restaurant', 'edit_date': '2025-03-17', 'lat_lon_source': 'website'}",48.827087,2.367792,Paris Tolbiac,"{'opening_hour': {'Mon': '10:00:00-23:59:00', 'Tue': '10:00:00-23:59:00', 'Wed': '10:00:00-23:59:00', 'Thur': '10:00:00-23:59:00', 'Fri': '10:00:00-23:59:00', 'Sat': '00:00:00-23:59:00', 'Sun': '00:00:00-23:59:00'}}",986479736,,1675,,https://subwayfrance.fr/restaurants/Paris Tolbiac
77/81 Quai Panhard Et Levassor,Subway,Paris,France,"{'brand': 'Subway', 'fascia': 'Subway', 'category': 'Restaurant', 'edit_date': '2025-03-17', 'lat_lon_source': 'website'}",48.831089,2.380953,Paris Primo Levi,"{'opening_hour': {'Mon': '00:00:00-02:00:00', 'Tue': '00:00:00-02:00:00', 'Wed': '00:00:00-02:00:00', 'Thur': '00:00:00-02:00:00', 'Fri': '00:00:00-02:00:00', 'Sat': '00:00:00-02:00:00', 'Sun': '00:00:00-02:00:00'}}",800907785,,1676,,https://subwayfrance.fr/restaurants/Paris Primo Levi
11 Rue de Ponthieu,Subway,Paris,France,"{'brand': 'Subway', 'fascia': 'Subway', 'category': 'Restaurant', 'edit_date': '2025-03-17', 'lat_lon_source': 'website'}",48.870456,2.310471,Paris Ponthieu,"{'opening_hour': {'Mon': '10:00:00-22:00:00', 'Tue': '10:00:00-22:00:00', 'Wed': '10:00:00-22:00:00', 'Thur': '10:00:00-22:00:00', 'Fri': '10:00:00-22:00:00', 'Sat': '10:00:00-22:00:00', 'Sun': '10:00:00-22:00:00'}}",142562467,,1677,,https://subwayfrance.fr/restaurants/Paris Ponthieu
6 Rue de Laborde,Subway,Paris,France,"{'brand': 'Subway', 'fascia': 'Subway', 'category': 'Restaurant', 'edit_date': '2025-03-17', 'lat_lon_source': 'website'}",48.875994,2.322093,Paris La Borde,"{'opening_hour': {'Mon': '09:00:00-19:30:00', 'Tue': '09:00:00-19:30:00', 'Wed': '09:00:00-19:30:00', 'Thur': '09:00:00-19:30:00', 'Fri': '09:00:00-19:30:00', 'Sat': '11:00:00-15:00:00', 'Sun': 'None-None'}}",0952901386,,1678,,https://subwayfrance.fr/restaurants/Paris La Borde
60 Avenue des Gobelins,Subway,Paris,France,"{'brand': 'Subway', 'fascia': 'Subway', 'category': 'Restaurant', 'edit_date': '2025-03-17', 'lat_lon_source': 'website'}",48.833447,2.353808,Paris Gobelins,"{'opening_hour': {'Mon': '00:00:00-07:00:00', 'Tue': '00:00:00-07:00:00', 'Wed': '00:00:00-07:00:00', 'Thur': '00:00:00-07:00:00', 'Fri': '00:00:00-07:00:00', 'Sat': '00:00:00-07:00:00', 'Sun': '00:00:00-07:00:00'}}",143370770,,1679,,https://subwayfrance.fr/restaurants/Paris Gobelins
63 boulevard de Grenelle,Subway,Paris,France,"{'brand': 'Subway', 'fascia': 'Subway', 'category': 'Restaurant', 'edit_date': '2025-03-17', 'lat_lon_source': 'website'}",48.850867,2.293177,Paris Dupleix,"{'opening_hour': {'Mon': '10:30:00-22:00:00', 'Tue': '10:30:00-22:00:00', 'Wed': '10:30:00-22:00:00', 'Thur': '10:30:00-22:00:00', 'Fri': '10:30:00-22:00:00', 'Sat': '10:30:00-22:00:00', 'Sun': '10:30:00-19:30:00'}}",981898136,,1680,,https://subwayfrance.fr/restaurants/Paris Dupleix
275 Avenue de Dausmenil,Subway,Paris,France,"{'brand': 'Subway', 'fascia': 'Subway', 'category': 'Restaurant', 'edit_date': '2025-03-17', 'lat_lon_source': 'website'}",48.836004,2.406257,Paris Porte Dorée,"{'opening_hour': {'Mon': '00:00:00-02:00:00', 'Tue': '11:00:00-23:59:00', 'Wed': '11:00:00-23:59:00', 'Thur': '11:00:00-23:59:00', 'Fri': '00:00:00-02:00:00', 'Sat': '00:00:00-02:00:00', 'Sun': '00:00:00-02:00:00'}}",143468097,,1681,,https://subwayfrance.fr/restaurants/Paris Porte Dorée
5 Boulevard De Grenelle,Subway,Paris,France,"{'brand': 'Subway', 'fascia': 'Subway', 'category': 'Restaurant', 'edit_date': '2025-03-17', 'lat_lon_source': 'website'}",48.854384,2.289449,Paris Bir Hakem,"{'opening_hour': {'Mon': '00:00:00-02:00:00', 'Tue': '00:00:00-02:00:00', 'Wed': '00:00:00-02:00:00', 'Thur': '00:00:00-02:00:00', 'Fri': '00:00:00-02:00:00', 'Sat': '00:00:00-02:00:00', 'Sun': '00:00:00-02:00:00'}}",145787173,,1682,,https://subwayfrance.fr/restaurants/Paris Bir Hakem
407 Rue de Vaugirard,Subway,Paris,France,"{'brand': 'Subway', 'fascia': 'Subway', 'category': 'Restaurant', 'edit_date': '2025-03-17', 'lat_lon_source': 'website'}",48.832799,2.288798,Paris Porte de Versailles,"{'opening_hour': {'Mon': '00:00:00-23:59:00', 'Tue': '00:00:00-23:59:00', 'Wed': '00:00:00-23:59:00', 'Thur': '00:00:00-23:59:00', 'Fri': '00:00:00-23:59:00', 'Sat': '00:00:00-23:59:00', 'Sun': '00:00:00-23:59:00'}}",965251845,,1683,,https://subwayfrance.fr/restaurants/Paris Porte de Versailles
30-32 Boulevard de Vaugirard,Subway,Paris,France,"{'brand': 'Subway', 'fascia': 'Subway', 'category': 'Restaurant', 'edit_date': '2025-03-17', 'lat_lon_source': 'website'}",48.841558,2.317571,Paris Vaugirard,"{'opening_hour': {'Mon': '00:00:00-23:59:00', 'Tue': '00:00:00-23:59:00', 'Wed': '00:00:00-23:59:00', 'Thur': '00:00:00-23:59:00', 'Fri': '00:00:00-23:59:00', 'Sat': '00:00:00-23:59:00', 'Sun': '00:00:00-23:59:00'}}",148243665,,1684,,https://subwayfrance.fr/restaurants/Paris Vaugirard
63 rue Fondary,Subway,Paris,France,"{'brand': 'Subway', 'fascia': 'Subway', 'category': 'Restaurant', 'edit_date': '2025-03-17', 'lat_lon_source': 'website'}",48.846972,2.296398,Paris Fondary,"{'opening_hour': {'Mon': '10:30:00-23:00:00', 'Tue': '10:30:00-23:00:00', 'Wed': '10:30:00-23:00:00', 'Thur': '10:30:00-23:00:00', 'Fri': '10:30:00-23:00:00', 'Sat': '10:30:00-23:00:00', 'Sun': '10:30:00-23:00:00'}}",183967342,,1685,,https://subwayfrance.fr/restaurants/Paris Fondary
154 Rue de Belleville,Subway,Paris,France,"{'brand': 'Subway', 'fascia': 'Subway', 'category': 'Restaurant', 'edit_date': '2025-03-17', 'lat_lon_source': 'website'}",48.875294,2.391124,Paris Belleville,"{'opening_hour': {'Mon': '10:30:00-22:30:00', 'Tue': '10:30:00-22:30:00', 'Wed': '10:30:00-22:30:00', 'Thur': '10:30:00-22:30:00', 'Fri': '10:30:00-22:30:00', 'Sat': '10:30:00-22:30:00', 'Sun': '10:30:00-22:30:00'}}",953309942,,1686,,https://subwayfrance.fr/restaurants/Paris Belleville
3 Rue Castellane,Subway,Paris,France,"{'brand': 'Subway', 'fascia': 'Subway', 'category': 'Restaurant', 'edit_date': '2025-03-17', 'lat_lon_source': 'website'}",48.872191,2.325364,Paris Castellane,"{'opening_hour': {'Mon': '08:30:00-21:00:00', 'Tue': '08:30:00-21:00:00', 'Wed': '08:30:00-21:00:00', 'Thur': '08:30:00-21:00:00', 'Fri': '08:30:00-21:00:00', 'Sat': '12:00:00-21:00:00', 'Sun': 'None-None'}}",953570757,,1687,,https://subwayfrance.fr/restaurants/Paris Castellane
5 Rue Ordener,Subway,Paris,France,"{'brand': 'Subway', 'fascia': 'Subway', 'category': 'Restaurant', 'edit_date': '2025-03-17', 'lat_lon_source': 'website'}",48.890166,2.3591,Paris Marx Dormoy,"{'opening_hour': {'Mon': '10:30:00-22:00:00', 'Tue': '10:30:00-22:00:00', 'Wed': '10:30:00-22:00:00', 'Thur': '10:30:00-22:00:00', 'Fri': '10:30:00-22:00:00', 'Sat': '11:00:00-22:00:00', 'Sun': '11:00:00-22:00:00'}}",142059357,,1688,,https://subwayfrance.fr/restaurants/Paris Marx Dormoy
2 Rue Houdon,Subway,Paris,France,"{'brand': 'Subway', 'fascia': 'Subway', 'category': 'Restaurant', 'edit_date': '2025-03-17', 'lat_lon_source': 'website'}",48.882668,2.338199,Paris Houdon,"{'opening_hour': {'Mon': 'None-None', 'Tue': 'None-None', 'Wed': 'None-None', 'Thur': 'None-None', 'Fri': 'None-None', 'Sat': 'None-None', 'Sun': 'None-None'}}",966841588,,1689,,https://subwayfrance.fr/restaurants/Paris Houdon
1 Avenue de Secretan,Subway,Paris,France,"{'brand': 'Subway', 'fascia': 'Subway', 'category': 'Restaurant', 'edit_date': '2025-03-17', 'lat_lon_source': 'website'}",48.882543,2.370803,Paris Jean Jaurès,"{'opening_hour': {'Mon': '10:30:00-23:30:00', 'Tue': '10:30:00-23:30:00', 'Wed': '10:30:00-23:30:00', 'Thur': '10:30:00-23:30:00', 'Fri': '10:30:00-23:30:00', 'Sat': '10:30:00-23:30:00', 'Sun': '10:30:00-23:30:00'}}",954389709,,1690,,https://subwayfrance.fr/restaurants/Paris Jean Jaurès
33 Rue des Petits Carreaux,Subway,Paris,France,"{'brand': 'Subway', 'fascia': 'Subway', 'category': 'Restaurant', 'edit_date': '2025-03-17', 'lat_lon_source': 'website'}",48.867628,2.347273,Paris Petit Carreau,"{'opening_hour': {'Mon': 'None-None', 'Tue': 'None-None', 'Wed': 'None-None', 'Thur': 'None-None', 'Fri': 'None-None', 'Sat': 'None-None', 'Sun': 'None-None'}}",953980040,,1691,,https://subwayfrance.fr/restaurants/Paris Petit Carreau
23 Rue Beaubourg,Subway,Paris,France,"{'brand': 'Subway', 'fascia': 'Subway', 'category': 'Restaurant', 'edit_date': '2025-03-17', 'lat_lon_source': 'website'}",48.861626,2.353462,Paris Rambuteau,"{'opening_hour': {'Mon': 'None-None', 'Tue': 'None-None', 'Wed': 'None-None', 'Thur': 'None-None', 'Fri': 'None-None', 'Sat': 'None-None', 'Sun': 'None-None'}}",142775885,,1692,,https://subwayfrance.fr/restaurants/Paris Rambuteau
70 Avenue de Clichy,Subway,Paris,France,"{'brand': 'Subway', 'fascia': 'Subway', 'category': 'Restaurant', 'edit_date': '2025-03-17', 'lat_lon_source': 'website'}",48.887932,2.325165,Paris La Fourche,"{'opening_hour': {'Mon': '00:00:00-02:00:00', 'Tue': '00:00:00-02:00:00', 'Wed': '00:00:00-02:00:00', 'Thur': '00:00:00-02:00:00', 'Fri': '00:00:00-02:00:00', 'Sat': '00:00:00-02:00:00', 'Sun': '00:00:00-02:00:00'}}",173704064,,1693,,https://subwayfrance.fr/restaurants/Paris La Fourche
58 Rue de La Pompe,Subway,Paris,France,"{'brand': 'Subway', 'fascia': 'Subway', 'category': 'Restaurant', 'edit_date': '2025-03-17', 'lat_lon_source': 'website'}",48.862212,2.276296,Paris Rue de la Pompe,"{'opening_hour': {'Mon': '10:30:00-22:30:00', 'Tue': '10:30:00-22:30:00', 'Wed': '10:30:00-22:30:00', 'Thur': '10:30:00-22:30:00', 'Fri': '10:30:00-22:30:00', 'Sat': '10:30:00-22:30:00', 'Sun': '11:00:00-22:30:00'}}",146515001,,1694,,https://subwayfrance.fr/restaurants/Paris Rue de la Pompe
16 Rue de Lisbonne,Subway,Rosny-Sous-Bois,France,"{'brand': 'Subway', 'fascia': 'Subway', 'category': 'Restaurant', 'edit_date': '2025-03-17', 'lat_lon_source': 'website'}",48.88208,2.470247,Rosny Sous Bois,"{'opening_hour': {'Mon': '10:00:00-21:30:00', 'Tue': '10:00:00-21:30:00', 'Wed': '10:00:00-21:30:00', 'Thur': '10:00:00-21:30:00', 'Fri': '10:00:00-21:30:00', 'Sat': '10:00:00-21:30:00', 'Sun': '10:00:00-21:30:00'}}",148555608,,1696,,https://subwayfrance.fr/restaurants/Rosny Sous Bois
228 Bd Voltaire,Subway,Paris,France,"{'brand': 'Subway', 'fascia': 'Subway', 'category': 'Restaurant', 'edit_date': '2025-03-17', 'lat_lon_source': 'website'}",48.852381,2.388793,Paris Voltaire,"{'opening_hour': {'Mon': '09:00:00-23:59:00', 'Tue': '09:00:00-23:59:00', 'Wed': '09:00:00-23:59:00', 'Thur': '09:00:00-23:59:00', 'Fri': '09:00:00-23:59:00', 'Sat': '11:00:00-23:59:00', 'Sun': '11:00:00-23:59:00'}}",800907785,,1697,,https://subwayfrance.fr/restaurants/Paris Voltaire
200 Av. de la Division Leclerc,Subway,Sarcelles,France,"{'brand': 'Subway', 'fascia': 'Subway', 'category': 'Restaurant', 'edit_date': '2025-03-17', 'lat_lon_source': 'website'}",48.985779,2.373084,Sarcelles,"{'opening_hour': {'Mon': '10:00:00-20:00:00', 'Tue': '10:00:00-20:00:00', 'Wed': '10:00:00-20:00:00', 'Thur': '10:00:00-20:00:00', 'Fri': '10:00:00-20:00:00', 'Sat': '10:00:00-20:00:00', 'Sun': '12:30:00-17:30:00'}}",130180548,,1698,,https://subwayfrance.fr/restaurants/Sarcelles
13-15 Place de La Gare,Subway,Villemomble,France,"{'brand': 'Subway', 'fascia': 'Subway', 'category': 'Restaurant', 'edit_date': '2025-03-17', 'lat_lon_source': 'website'}",48.889326,2.510829,Villemomble,"{'opening_hour': {'Mon': '10:30:00-22:30:00', 'Tue': '10:30:00-22:30:00', 'Wed': '10:30:00-22:30:00', 'Thur': '10:30:00-23:59:00', 'Fri': '10:30:00-23:59:00', 'Sat': '10:30:00-23:59:00', 'Sun': '10:30:00-23:59:00'}}",158661072,,1699,,https://subwayfrance.fr/restaurants/Villemomble
Centre Commercial O'Parinor,Subway,Aulnay Sous Bois,France,"{'brand': 'Subway', 'fascia': 'Subway', 'category': 'Restaurant', 'edit_date': '2025-03-17', 'lat_lon_source': 'website'}",48.956168,2.476203,Aulnay sous bois,"{'opening_hour': {'Mon': '08:30:00-20:00:00', 'Tue': '08:30:00-20:00:00', 'Wed': '08:30:00-20:00:00', 'Thur': '08:30:00-20:00:00', 'Fri': '08:30:00-20:00:00', 'Sat': '08:30:00-21:00:00', 'Sun': 'None-None'}}",981767420,,1700,,https://subwayfrance.fr/restaurants/Aulnay sous bois
17 Rue de La Roquette,Subway,Paris,France,"{'brand': 'Subway', 'fascia': 'Subway', 'category': 'Restaurant', 'edit_date': '2025-03-17', 'lat_lon_source': 'website'}",48.854508,2.371621,Paris Roquette,"{'opening_hour': {'Mon': '00:00:00-02:00:00', 'Tue': '00:00:00-02:00:00', 'Wed': '00:00:00-02:00:00', 'Thur': '00:00:00-02:00:00', 'Fri': '00:00:00-02:00:00', 'Sat': '00:00:00-02:00:00', 'Sun': '00:00:00-02:00:00'}}",800907785,,1701,,https://subwayfrance.fr/restaurants/Paris Roquette
36 Boulevard Saint Michel,Subway,Paris,France,"{'brand': 'Subway', 'fascia': 'Subway', 'category': 'Restaurant', 'edit_date': '2025-03-17', 'lat_lon_source': 'website'}",48.849774,2.342101,Paris St Michel,"{'opening_hour': {'Mon': '08:00:00-23:00:00', 'Tue': '08:00:00-23:00:00', 'Wed': '08:00:00-23:00:00', 'Thur': '07:00:00-23:00:00', 'Fri': '08:00:00-23:59:00', 'Sat': '08:00:00-23:59:00', 'Sun': '08:00:00-23:00:00'}}",143543359,,1702,,https://subwayfrance.fr/restaurants/Paris St Michel
28 Avenue Du General de Gaulle,Subway,Bagnolet,France,"{'brand': 'Subway', 'fascia': 'Subway', 'category': 'Restaurant', 'edit_date': '2025-03-17', 'lat_lon_source': 'website'}",48.865351,2.41539,Bagnolet,"{'opening_hour': {'Mon': '08:00:00-23:00:00', 'Tue': '08:00:00-23:00:00', 'Wed': '08:00:00-23:00:00', 'Thur': '08:00:00-23:00:00', 'Fri': '08:00:00-23:59:00', 'Sat': '08:00:00-23:59:00', 'Sun': '08:00:00-18:00:00'}}",982504102,,1703,,https://subwayfrance.fr/restaurants/Bagnolet
150 Av. Gabriel Péri,Subway,Saint-Ouen-Sur-Seine,France,"{'brand': 'Subway', 'fascia': 'Subway', 'category': 'Restaurant', 'edit_date': '2025-03-17', 'lat_lon_source': 'website'}",48.90135,2.330082,St Ouen,"{'opening_hour': {'Mon': '10:00:00-22:30:00', 'Tue': '10:00:00-22:30:00', 'Wed': '10:00:00-22:30:00', 'Thur': '10:00:00-22:30:00', 'Fri': '10:00:00-22:30:00', 'Sat': '10:00:00-22:30:00', 'Sun': '10:00:00-22:30:00'}}",800907785,,1704,,https://subwayfrance.fr/restaurants/St Ouen
15 Boulevard Montmatre,Subway,Paris,France,"{'brand': 'Subway', 'fascia': 'Subway', 'category': 'Restaurant', 'edit_date': '2025-03-17', 'lat_lon_source': 'website'}",48.87169,2.341387,Paris Grand Booulevard,"{'opening_hour': {'Mon': '00:00:00-02:00:00', 'Tue': '00:00:00-02:00:00', 'Wed': '00:00:00-02:00:00', 'Thur': '00:00:00-02:00:00', 'Fri': '00:00:00-02:00:00', 'Sat': '00:00:00-02:00:00', 'Sun': '00:00:00-02:00:00'}}",800907785,,1705,,https://subwayfrance.fr/restaurants/Paris Grand Booulevard
Zone Commerciale De L'Aviation,Subway,Amberieu En Bugey,France,"{'brand': 'Subway', 'fascia': 'Subway', 'category': 'Restaurant', 'edit_date': '2025-03-17', 'lat_lon_source': 'website'}",45.972422,5.338207,Amberieu En Bugey,"{'opening_hour': {'Mon': '10:00:00-22:00:00', 'Tue': '10:00:00-22:00:00', 'Wed': '10:00:00-22:00:00', 'Thur': '10:00:00-22:00:00', 'Fri': '10:00:00-22:00:00', 'Sat': '10:00:00-22:00:00', 'Sun': '10:00:00-22:00:00'}}",437861040,,1706,,https://subwayfrance.fr/restaurants/Amberieu En Bugey
"134, Avenue de Geneve",Subway,Annecy,France,"{'brand': 'Subway', 'fascia': 'Subway', 'category': 'Restaurant', 'edit_date': '2025-03-17', 'lat_lon_source': 'website'}",45.924863,6.124648,Annecy CC Carrefour,"{'opening_hour': {'Mon': '09:00:00-21:00:00', 'Tue': '09:00:00-21:00:00', 'Wed': '09:00:00-21:00:00', 'Thur': '09:00:00-21:00:00', 'Fri': '09:00:00-21:00:00', 'Sat': '09:00:00-21:00:00', 'Sun': '09:30:00-21:00:00'}}",450674439,,1707,,https://subwayfrance.fr/restaurants/Annecy CC Carrefour
14 Rue de la Résistance,Subway,Annemasse,France,"{'brand': 'Subway', 'fascia': 'Subway', 'category': 'Restaurant', 'edit_date': '2025-03-17', 'lat_lon_source': 'website'}",46.195308,6.254572,Annemasse,"{'opening_hour': {'Mon': '10:30:00-20:00:00', 'Tue': '10:30:00-20:00:00', 'Wed': '10:30:00-20:00:00', 'Thur': '10:30:00-20:00:00', 'Fri': '10:30:00-20:00:00', 'Sat': '10:30:00-20:00:00', 'Sun': 'None-None'}}",983522118,,1708,,https://subwayfrance.fr/restaurants/Annemasse
7 Rue des Bas Rogers,Subway,Suresnes,France,"{'brand': 'Subway', 'fascia': 'Subway', 'category': 'Restaurant', 'edit_date': '2025-03-17', 'lat_lon_source': 'website'}",48.879711,2.235174,Suresnes Bas Rogers,"{'opening_hour': {'Mon': '08:00:00-22:30:00', 'Tue': '08:00:00-22:30:00', 'Wed': '08:00:00-22:30:00', 'Thur': '08:00:00-22:30:00', 'Fri': '08:00:00-22:30:00', 'Sat': '10:00:00-23:30:00', 'Sun': '10:00:00-23:30:00'}}",147992472,,1709,,https://subwayfrance.fr/restaurants/Suresnes Bas Rogers
22 Ave. des Ducs de Savoie,Subway,Chambery,France,"{'brand': 'Subway', 'fascia': 'Subway', 'category': 'Restaurant', 'edit_date': '2025-03-17', 'lat_lon_source': 'website'}",45.568517,5.921946,Chambery,"{'opening_hour': {'Mon': '09:00:00-21:40:00', 'Tue': '09:00:00-21:40:00', 'Wed': '09:00:00-21:40:00', 'Thur': '09:00:00-21:40:00', 'Fri': '09:00:00-21:40:00', 'Sat': '09:00:00-21:40:00', 'Sun': '09:00:00-21:40:00'}}",457084169,,1710,,https://subwayfrance.fr/restaurants/Chambery
1-3 Avenue des Paulines,Subway,Clermont Ferrand,France,"{'brand': 'Subway', 'fascia': 'Subway', 'category': 'Restaurant', 'edit_date': '2025-03-17', 'lat_lon_source': 'website'}",45.773669,3.092308,Clermont Ferrand Université,"{'opening_hour': {'Mon': '11:00:00-21:30:00', 'Tue': '11:00:00-21:30:00', 'Wed': '11:00:00-21:30:00', 'Thur': '11:00:00-21:30:00', 'Fri': '11:00:00-21:30:00', 'Sat': '11:00:00-21:30:00', 'Sun': '11:00:00-21:30:00'}}",473140704,,1712,,https://subwayfrance.fr/restaurants/Clermont Ferrand Université
12 Rue Gonod,Subway,Clermont Ferrand,France,"{'brand': 'Subway', 'fascia': 'Subway', 'category': 'Restaurant', 'edit_date': '2025-03-17', 'lat_lon_source': 'website'}",45.774198,3.08225,Clermont Ferrand Gonod,"{'opening_hour': {'Mon': '11:00:00-21:30:00', 'Tue': '11:00:00-21:30:00', 'Wed': '11:00:00-21:30:00', 'Thur': '11:00:00-22:30:00', 'Fri': '11:00:00-22:30:00', 'Sat': '11:00:00-22:30:00', 'Sun': '11:00:00-21:30:00'}}",473935667,,1713,,https://subwayfrance.fr/restaurants/Clermont Ferrand Gonod
107 Avenue de La Republique,Subway,Clermont Ferrand,France,"{'brand': 'Subway', 'fascia': 'Subway', 'category': 'Restaurant', 'edit_date': '2025-03-17', 'lat_lon_source': 'website'}",45.788345,3.10628,Clermont Ferrand République,"{'opening_hour': {'Mon': '09:00:00-21:30:00', 'Tue': '09:00:00-21:30:00', 'Wed': '09:00:00-21:30:00', 'Thur': '09:30:00-21:30:00', 'Fri': '09:30:00-21:30:00', 'Sat': '09:30:00-21:30:00', 'Sun': '09:30:00-21:30:00'}}",473243980,,1714,,https://subwayfrance.fr/restaurants/Clermont Ferrand République
6 Rue Michel Ange,Subway,Clermont Ferrand,France,"{'brand': 'Subway', 'fascia': 'Subway', 'category': 'Restaurant', 'edit_date': '2025-03-17', 'lat_lon_source': 'website'}",45.760568,3.13131,Clermont Ferrand Michel Ange,"{'opening_hour': {'Mon': '08:00:00-23:00:00', 'Tue': '08:00:00-23:00:00', 'Wed': '08:00:00-23:00:00', 'Thur': '08:00:00-23:00:00', 'Fri': '08:00:00-23:00:00', 'Sat': '08:30:00-23:00:00', 'Sun': '09:30:00-23:00:00'}}",982227458,,1715,,https://subwayfrance.fr/restaurants/Clermont Ferrand Michel Ange
2 Rue Albert Londres,Subway,Echirolles,France,"{'brand': 'Subway', 'fascia': 'Subway', 'category': 'Restaurant', 'edit_date': '2025-03-17', 'lat_lon_source': 'website'}",45.147731,5.718363,Toulouse Portet,"{'opening_hour': {'Mon': 'None-None', 'Tue': 'None-None', 'Wed': 'None-None', 'Thur': 'None-None', 'Fri': 'None-None', 'Sat': 'None-None', 'Sun': 'None-None'}}",476232578,,1716,,https://subwayfrance.fr/restaurants/Toulouse Portet
615 Av. du Centre,Subway,Epagny Metz-Tessy,France,"{'brand': 'Subway', 'fascia': 'Subway', 'category': 'Restaurant', 'edit_date': '2025-03-17', 'lat_lon_source': 'website'}",45.938212,6.077819,Epagny,"{'opening_hour': {'Mon': '11:00:00-20:30:00', 'Tue': '11:00:00-20:30:00', 'Wed': '11:00:00-20:30:00', 'Thur': '11:00:00-20:30:00', 'Fri': '11:00:00-20:30:00', 'Sat': '11:00:00-20:30:00', 'Sun': '12:00:00-20:30:00'}}",951298664,,1717,,https://subwayfrance.fr/restaurants/Epagny
25 rue Berthe de boissieux,Subway,Grenoble,France,"{'brand': 'Subway', 'fascia': 'Subway', 'category': 'Restaurant', 'edit_date': '2025-03-17', 'lat_lon_source': 'website'}",45.183387,5.722672,Grenoble Boissieux,"{'opening_hour': {'Mon': '09:30:00-22:00:00', 'Tue': '09:30:00-22:00:00', 'Wed': '09:30:00-22:00:00', 'Thur': '09:30:00-22:00:00', 'Fri': '09:30:00-22:00:00', 'Sat': '09:30:00-22:00:00', 'Sun': '09:30:00-22:00:00'}}",950218478,,1719,,https://subwayfrance.fr/restaurants/Grenoble Boissieux
15 Blvd Albert Buisson,Subway,Issoire,France,"{'brand': 'Subway', 'fascia': 'Subway', 'category': 'Restaurant', 'edit_date': '2025-03-17', 'lat_lon_source': 'website'}",45.545659,3.24745,Issoire,"{'opening_hour': {'Mon': '08:00:00-23:00:00', 'Tue': '08:00:00-23:00:00', 'Wed': '08:00:00-23:00:00', 'Thur': '08:00:00-23:00:00', 'Fri': '08:00:00-23:30:00', 'Sat': '08:00:00-23:00:00', 'Sun': '08:00:00-23:30:00'}}",473962598,,1720,,https://subwayfrance.fr/restaurants/Issoire
37 Boulevard Du Breuil,Subway,Le Puy En Velay,France,"{'brand': 'Subway', 'fascia': 'Subway', 'category': 'Restaurant', 'edit_date': '2025-03-17', 'lat_lon_source': 'website'}",45.042828,3.883024,Le Puy en Velay,"{'opening_hour': {'Mon': '09:00:00-21:30:00', 'Tue': '09:00:00-21:30:00', 'Wed': '09:00:00-21:30:00', 'Thur': '09:00:00-21:30:00', 'Fri': '09:00:00-22:00:00', 'Sat': '09:00:00-22:00:00', 'Sun': '09:00:00-21:30:00'}}",471009291,,1721,,https://subwayfrance.fr/restaurants/Le Puy en Velay
6 Place des Terreaux,Subway,Lyon,France,"{'brand': 'Subway', 'fascia': 'Subway', 'category': 'Restaurant', 'edit_date': '2025-03-17', 'lat_lon_source': 'website'}",45.767913,4.833515,Lyon Terreaux,"{'opening_hour': {'Mon': '10:00:00-23:00:00', 'Tue': '10:00:00-23:00:00', 'Wed': '10:00:00-23:00:00', 'Thur': '10:00:00-23:00:00', 'Fri': '10:00:00-23:00:00', 'Sat': '10:00:00-23:00:00', 'Sun': '10:00:00-23:00:00'}}",983034678,,1722,,https://subwayfrance.fr/restaurants/Lyon Terreaux
Pole Commercial CAP Emeraude,Subway,Bourg en Bresse,France,"{'brand': 'Subway', 'fascia': 'Subway', 'category': 'Restaurant', 'edit_date': '2025-03-17', 'lat_lon_source': 'website'}",46.221511895388325,5.24160137116512,Bourg en Bresse,"{'opening_hour': {'Mon': '11:00:00-22:00:00', 'Tue': '11:00:00-22:00:00', 'Wed': '11:00:00-22:00:00', 'Thur': '11:00:00-22:00:00', 'Fri': '11:00:00-22:00:00', 'Sat': '11:00:00-21:00:00', 'Sun': '11:00:00-22:00:00'}}",4 74 23 44 72,,1723,,https://subwayfrance.fr/restaurants/Bourg en Bresse
85 cours Gambetta,Subway,Lyon,France,"{'brand': 'Subway', 'fascia': 'Subway', 'category': 'Restaurant', 'edit_date': '2025-03-17', 'lat_lon_source': 'website'}",45.75171,4.854146,Lyon Garibaldi,"{'opening_hour': {'Mon': '10:30:00-22:00:00', 'Tue': '10:30:00-22:00:00', 'Wed': '10:30:00-22:00:00', 'Thur': '10:30:00-22:00:00', 'Fri': '10:30:00-22:00:00', 'Sat': '10:30:00-22:00:00', 'Sun': '11:00:00-22:00:00'}}",982271352,,1724,,https://subwayfrance.fr/restaurants/Lyon Garibaldi
"14, Avenue Jean Jaures",Subway,Lyon,France,"{'brand': 'Subway', 'fascia': 'Subway', 'category': 'Restaurant', 'edit_date': '2025-03-17', 'lat_lon_source': 'website'}",45.752968,4.846153,Lyon Saxe,"{'opening_hour': {'Mon': '09:30:00-22:00:00', 'Tue': '09:30:00-22:00:00', 'Wed': '09:30:00-22:30:00', 'Thur': '09:30:00-22:30:00', 'Fri': '09:30:00-22:30:00', 'Sat': '10:00:00-22:30:00', 'Sun': '10:00:00-22:00:00'}}",478729347,,1725,,https://subwayfrance.fr/restaurants/Lyon Saxe
54 rue Victor Hugo,Subway,Lyon,France,"{'brand': 'Subway', 'fascia': 'Subway', 'category': 'Restaurant', 'edit_date': '2025-03-17', 'lat_lon_source': 'website'}",45.752476,4.828725,Lyon Victor Hugo,"{'opening_hour': {'Mon': '12:00:00-22:00:00', 'Tue': '11:00:00-22:00:00', 'Wed': '11:00:00-22:00:00', 'Thur': '11:00:00-22:00:00', 'Fri': '11:00:00-22:00:00', 'Sat': '11:00:00-22:00:00', 'Sun': '11:00:00-22:00:00'}}",478951783,,1726,,https://subwayfrance.fr/restaurants/Lyon Victor Hugo
50 cours Vitton,Subway,Lyon,France,"{'brand': 'Subway', 'fascia': 'Subway', 'category': 'Restaurant', 'edit_date': '2025-03-17', 'lat_lon_source': 'website'}",45.769591,4.854498,Lyon Cours Vitton,"{'opening_hour': {'Mon': 'None-None', 'Tue': 'None-None', 'Wed': 'None-None', 'Thur': 'None-None', 'Fri': 'None-None', 'Sat': 'None-None', 'Sun': 'None-None'}}",478268049,,1727,,https://subwayfrance.fr/restaurants/Lyon Cours Vitton
29 Avenue Berthelot,Subway,Lyon,France,"{'brand': 'Subway', 'fascia': 'Subway', 'category': 'Restaurant', 'edit_date': '2025-03-17', 'lat_lon_source': 'website'}",45.746916,4.837488,Lyon Berthelot,"{'opening_hour': {'Mon': '08:30:00-22:00:00', 'Tue': '08:30:00-22:00:00', 'Wed': '08:30:00-22:00:00', 'Thur': '08:30:00-22:00:00', 'Fri': '08:30:00-23:00:00', 'Sat': '08:30:00-23:00:00', 'Sun': '09:00:00-22:00:00'}}",981032353,,1728,,https://subwayfrance.fr/restaurants/Lyon Berthelot
C.Cial Lyon Confluence Niv. 2,Subway,Lyon,France,"{'brand': 'Subway', 'fascia': 'Subway', 'category': 'Restaurant', 'edit_date': '2025-03-17', 'lat_lon_source': 'website'}",45.741148,4.817337,Lyon Confluence,"{'opening_hour': {'Mon': '09:30:00-22:00:00', 'Tue': '09:30:00-22:00:00', 'Wed': '09:30:00-23:00:00', 'Thur': '09:30:00-23:00:00', 'Fri': '09:30:00-23:00:00', 'Sat': '09:30:00-23:00:00', 'Sun': '10:30:00-22:00:00'}}",472045525,,1729,,https://subwayfrance.fr/restaurants/Lyon Confluence
1 Bis Place Marc Sangnier,Subway,Lyon,France,"{'brand': 'Subway', 'fascia': 'Subway', 'category': 'Restaurant', 'edit_date': '2025-03-17', 'lat_lon_source': 'website'}",45.732603,4.882545,Lyon Mermoz,"{'opening_hour': {'Mon': 'None-None', 'Tue': 'None-None', 'Wed': 'None-None', 'Thur': 'None-None', 'Fri': 'None-None', 'Sat': 'None-None', 'Sun': 'None-None'}}",478761066,,1730,,https://subwayfrance.fr/restaurants/Lyon Mermoz
Aire de La Loire Autoroute A89,Subway,Neronde,France,"{'brand': 'Subway', 'fascia': 'Subway', 'category': 'Restaurant', 'edit_date': '2025-03-17', 'lat_lon_source': 'website'}",45.850138,4.225219,Neronde,"{'opening_hour': {'Mon': '10:00:00-22:00:00', 'Tue': '10:00:00-22:00:00', 'Wed': '10:00:00-22:00:00', 'Thur': '10:00:00-22:00:00', 'Fri': '10:00:00-22:00:00', 'Sat': '10:00:00-22:00:00', 'Sun': '10:00:00-22:00:00'}}",477260963,,1732,,https://subwayfrance.fr/restaurants/Neronde
66 Grande Rue,Subway,Oullins,France,"{'brand': 'Subway', 'fascia': 'Subway', 'category': 'Restaurant', 'edit_date': '2025-03-17', 'lat_lon_source': 'website'}",45.716962,4.809498,Oullins,"{'opening_hour': {'Mon': '09:00:00-22:00:00', 'Tue': '09:00:00-22:00:00', 'Wed': '09:00:00-23:00:00', 'Thur': '09:00:00-23:00:00', 'Fri': '09:00:00-23:00:00', 'Sat': '09:00:00-23:00:00', 'Sun': '10:00:00-22:00:00'}}",478516618,,1733,,https://subwayfrance.fr/restaurants/Oullins
13 cours de la republique,Subway,Roanne,France,"{'brand': 'Subway', 'fascia': 'Subway', 'category': 'Restaurant', 'edit_date': '2025-03-17', 'lat_lon_source': 'website'}",46.037536,4.064645,Roanne,"{'opening_hour': {'Mon': '10:30:00-22:30:00', 'Tue': '10:30:00-22:30:00', 'Wed': '10:30:00-22:30:00', 'Thur': '10:30:00-22:30:00', 'Fri': '10:30:00-22:30:00', 'Sat': '10:30:00-22:30:00', 'Sun': '10:30:00-22:30:00'}}",477787150,,1734,,https://subwayfrance.fr/restaurants/Roanne
4 Rue Camille Collard,Subway,Saint Etienne,France,"{'brand': 'Subway', 'fascia': 'Subway', 'category': 'Restaurant', 'edit_date': '2025-03-17', 'lat_lon_source': 'website'}",45.43797,4.389147,Saint Etienne,"{'opening_hour': {'Mon': '09:30:00-22:30:00', 'Tue': '09:30:00-22:30:00', 'Wed': '09:30:00-22:30:00', 'Thur': '09:30:00-22:30:00', 'Fri': '09:30:00-22:30:00', 'Sat': '09:30:00-22:30:00', 'Sun': '09:30:00-22:30:00'}}",952484208,,1735,,https://subwayfrance.fr/restaurants/Saint Etienne
60 Rue Emile Zola,Subway,Saint-Étienne,France,"{'brand': 'Subway', 'fascia': 'Subway', 'category': 'Restaurant', 'edit_date': '2025-03-17', 'lat_lon_source': 'website'}",45.445409,4.421554,Saint Etienne Le Steel,"{'opening_hour': {'Mon': '09:30:00-21:00:00', 'Tue': '09:30:00-21:00:00', 'Wed': '09:30:00-21:00:00', 'Thur': '09:30:00-21:00:00', 'Fri': '09:30:00-22:00:00', 'Sat': '09:30:00-22:00:00', 'Sun': '11:00:00-22:00:00'}}",477211902,,1736,,https://subwayfrance.fr/restaurants/Saint Etienne Le Steel
76 Route de Grenoble,Subway,St Priest,France,"{'brand': 'Subway', 'fascia': 'Subway', 'category': 'Restaurant', 'edit_date': '2025-03-17', 'lat_lon_source': 'website'}",45.707188,4.987581,St Priest,"{'opening_hour': {'Mon': '10:00:00-22:30:00', 'Tue': '10:00:00-22:30:00', 'Wed': '10:00:00-22:30:00', 'Thur': '10:00:00-22:30:00', 'Fri': '10:00:00-22:30:00', 'Sat': '10:00:00-22:30:00', 'Sun': '10:00:00-22:30:00'}}",951583495,,1737,,https://subwayfrance.fr/restaurants/St Priest
3 Place des Nations Unies,Subway,Saint Priest,France,"{'brand': 'Subway', 'fascia': 'Subway', 'category': 'Restaurant', 'edit_date': '2025-03-17', 'lat_lon_source': 'website'}",45.694079,4.940632,St Priest Nations Unies,"{'opening_hour': {'Mon': '08:30:00-21:30:00', 'Tue': '08:30:00-21:30:00', 'Wed': '08:30:00-21:30:00', 'Thur': '08:30:00-21:30:00', 'Fri': '08:30:00-22:00:00', 'Sat': '08:30:00-22:00:00', 'Sun': '09:00:00-21:30:00'}}",951946192,,1738,,https://subwayfrance.fr/restaurants/St Priest Nations Unies
C.Cial Place Du Dauphiné ,Subway,Tignieu Jameyzieu,France,"{'brand': 'Subway', 'fascia': 'Subway', 'category': 'Restaurant', 'edit_date': '2025-03-17', 'lat_lon_source': 'website'}",45.747428,5.182595,Tignieu,"{'opening_hour': {'Mon': '11:00:00-21:00:00', 'Tue': '11:00:00-21:00:00', 'Wed': '11:00:00-21:00:00', 'Thur': '11:00:00-21:00:00', 'Fri': '11:00:00-21:00:00', 'Sat': '11:00:00-21:00:00', 'Sun': '18:00:00-21:00:00'}}",478806441,,1739,,https://subwayfrance.fr/restaurants/Tignieu
"C.Cial Carré de Soie, 20 Avenue de Bohlen",Subway,Vaulx En Velin,France,"{'brand': 'Subway', 'fascia': 'Subway', 'category': 'Restaurant', 'edit_date': '2025-03-17', 'lat_lon_source': 'website'}",45.765098,4.920709,Vaulx en Velin,"{'opening_hour': {'Mon': '09:30:00-22:00:00', 'Tue': '09:30:00-22:30:00', 'Wed': '09:30:00-22:30:00', 'Thur': '09:30:00-22:30:00', 'Fri': '09:30:00-23:00:00', 'Sat': '09:30:00-23:00:00', 'Sun': '10:00:00-23:00:00'}}",953982905,,1740,,https://subwayfrance.fr/restaurants/Vaulx en Velin
8 Bis Ave Du General de Gaulle,Subway,Agen,France,"{'brand': 'Subway', 'fascia': 'Subway', 'category': 'Restaurant', 'edit_date': '2025-03-17', 'lat_lon_source': 'website'}",44.202947,0.612226,Agen,"{'opening_hour': {'Mon': '11:30:00-22:30:00', 'Tue': '11:30:00-22:30:00', 'Wed': '11:30:00-22:30:00', 'Thur': '11:30:00-22:30:00', 'Fri': '11:30:00-23:30:00', 'Sat': '11:30:00-23:30:00', 'Sun': '11:30:00-22:30:00'}}",956431523,,1742,,https://subwayfrance.fr/restaurants/Agen
69 Avenue de Bayonne,Subway,Anglet,France,"{'brand': 'Subway', 'fascia': 'Subway', 'category': 'Restaurant', 'edit_date': '2025-03-17', 'lat_lon_source': 'website'}",43.483235,-1.503457,Anglet,"{'opening_hour': {'Mon': '11:00:00-22:00:00', 'Tue': '11:00:00-22:00:00', 'Wed': '11:00:00-22:00:00', 'Thur': '11:00:00-22:00:00', 'Fri': '11:00:00-22:00:00', 'Sat': '11:00:00-22:00:00', 'Sun': '11:00:00-22:00:00'}}",559451433,,1743,,https://subwayfrance.fr/restaurants/Anglet
7 Avenue de L'Yser,Subway,Auch,France,"{'brand': 'Subway', 'fascia': 'Subway', 'category': 'Restaurant', 'edit_date': '2025-03-17', 'lat_lon_source': 'website'}",43.64868,0.593002,Auch,"{'opening_hour': {'Mon': '10:00:00-22:00:00', 'Tue': '10:00:00-22:00:00', 'Wed': '10:00:00-22:00:00', 'Thur': '10:00:00-22:00:00', 'Fri': '10:00:00-22:00:00', 'Sat': '10:00:00-22:00:00', 'Sun': '10:00:00-22:00:00'}}",562619987,,1744,,https://subwayfrance.fr/restaurants/Auch
6 Rue Dufour Dubergier,Subway,Bordeaux,France,"{'brand': 'Subway', 'fascia': 'Subway', 'category': 'Restaurant', 'edit_date': '2025-03-17', 'lat_lon_source': 'website'}",44.837121,-0.575811,Bordeaux Pey Berlan,"{'opening_hour': {'Mon': '09:00:00-23:00:00', 'Tue': '09:00:00-23:00:00', 'Wed': '09:00:00-23:00:00', 'Thur': '09:00:00-23:00:00', 'Fri': '09:00:00-23:00:00', 'Sat': '09:00:00-23:00:00', 'Sun': '09:00:00-23:00:00'}}",556387441,,1745,,https://subwayfrance.fr/restaurants/Bordeaux Pey Berlan
394 Boulevard Wilson,Subway,Bordeaux,France,"{'brand': 'Subway', 'fascia': 'Subway', 'category': 'Restaurant', 'edit_date': '2025-03-17', 'lat_lon_source': 'website'}",44.853236,-0.593595,Bordeaux Barrière du Médoc,"{'opening_hour': {'Mon': '10:00:00-22:00:00', 'Tue': '10:00:00-22:00:00', 'Wed': '10:00:00-22:00:00', 'Thur': '10:00:00-22:00:00', 'Fri': '10:00:00-22:00:00', 'Sat': '10:00:00-22:00:00', 'Sun': '10:00:00-22:00:00'}}",557149363,,1746,,https://subwayfrance.fr/restaurants/Bordeaux Barrière du Médoc
1 Route de La Parcelle,Subway,Dax,France,"{'brand': 'Subway', 'fascia': 'Subway', 'category': 'Restaurant', 'edit_date': '2025-03-17', 'lat_lon_source': 'website'}",43.692771,-1.050213,Dax,"{'opening_hour': {'Mon': '09:00:00-22:00:00', 'Tue': '09:00:00-22:00:00', 'Wed': '09:00:00-22:00:00', 'Thur': '09:00:00-22:00:00', 'Fri': '09:00:00-22:00:00', 'Sat': '09:00:00-22:00:00', 'Sun': '09:00:00-22:00:00'}}",558499328,,1747,,https://subwayfrance.fr/restaurants/Dax
Route de Pau,Subway,Ibos,France,"{'brand': 'Subway', 'fascia': 'Subway', 'category': 'Restaurant', 'edit_date': '2025-03-17', 'lat_lon_source': 'website'}",43.243148,-0.007642,Ibos,"{'opening_hour': {'Mon': 'None-None', 'Tue': 'None-None', 'Wed': 'None-None', 'Thur': 'None-None', 'Fri': 'None-None', 'Sat': 'None-None', 'Sun': 'None-None'}}",562342793,,1748,,https://subwayfrance.fr/restaurants/Ibos
670 Avenue Vulcain,Subway,La Teste De Buch,France,"{'brand': 'Subway', 'fascia': 'Subway', 'category': 'Restaurant', 'edit_date': '2025-03-17', 'lat_lon_source': 'website'}",44.562903,-1.192869,La Teste de Buch,"{'opening_hour': {'Mon': '10:00:00-21:30:00', 'Tue': '10:00:00-21:30:00', 'Wed': '10:00:00-21:30:00', 'Thur': '10:00:00-21:30:00', 'Fri': '10:00:00-22:00:00', 'Sat': '10:00:00-22:00:00', 'Sun': '10:00:00-22:00:00'}}",557524710,,1749,,https://subwayfrance.fr/restaurants/La Teste de Buch
Lieu-Dit Pied Morteau,Subway,Langon,France,"{'brand': 'Subway', 'fascia': 'Subway', 'category': 'Restaurant', 'edit_date': '2025-03-17', 'lat_lon_source': 'website'}",44.555514,-0.245065,Langon,"{'opening_hour': {'Mon': '09:00:00-21:30:00', 'Tue': '09:00:00-21:30:00', 'Wed': '09:00:00-21:30:00', 'Thur': '09:00:00-21:30:00', 'Fri': '09:00:00-22:00:00', 'Sat': '09:00:00-22:00:00', 'Sun': '10:00:00-21:30:00'}}",556639271,,1750,,https://subwayfrance.fr/restaurants/Langon
180 Boulevard de l'Europe,Subway,Lescar,France,"{'brand': 'Subway', 'fascia': 'Subway', 'category': 'Restaurant', 'edit_date': '2025-03-17', 'lat_lon_source': 'website'}",43.317521,-0.431738,Lescar,"{'opening_hour': {'Mon': '10:00:00-21:30:00', 'Tue': '10:00:00-21:30:00', 'Wed': '10:00:00-21:30:00', 'Thur': '10:00:00-21:30:00', 'Fri': '10:00:00-21:30:00', 'Sat': '10:00:00-21:30:00', 'Sun': '12:00:00-21:30:00'}}",967399831,,1751,,https://subwayfrance.fr/restaurants/Lescar
1631 Avenue Du Marechal Juin,Subway,Mont De Marsan,France,"{'brand': 'Subway', 'fascia': 'Subway', 'category': 'Restaurant', 'edit_date': '2025-03-17', 'lat_lon_source': 'website'}",43.907105,-0.472173,Mont de Marsan,"{'opening_hour': {'Mon': '09:00:00-22:00:00', 'Tue': '09:00:00-22:00:00', 'Wed': '09:00:00-22:00:00', 'Thur': '09:00:00-22:00:00', 'Fri': '09:00:00-22:00:00', 'Sat': '09:00:00-22:00:00', 'Sun': '09:00:00-22:00:00'}}",558758285,,1752,,https://subwayfrance.fr/restaurants/Mont de Marsan
34 Ave des Martyrs Du Pont Long,Subway,Pau,France,"{'brand': 'Subway', 'fascia': 'Subway', 'category': 'Restaurant', 'edit_date': '2025-03-17', 'lat_lon_source': 'website'}",43.339083,-0.379028,Pau,"{'opening_hour': {'Mon': '09:00:00-22:00:00', 'Tue': '09:00:00-22:00:00', 'Wed': '09:00:00-22:00:00', 'Thur': '09:00:00-22:00:00', 'Fri': '09:00:00-22:00:00', 'Sat': '09:00:00-22:00:00', 'Sun': '09:00:00-22:00:00'}}",559985289,,1753,,https://subwayfrance.fr/restaurants/Pau
Aire de La Garonne,Subway,Saint-Nicolas-De-La-Grave,France,"{'brand': 'Subway', 'fascia': 'Subway', 'category': 'Restaurant', 'edit_date': '2025-03-17', 'lat_lon_source': 'website'}",44.041282,1.004043,Saint Nicolas de la Grave,"{'opening_hour': {'Mon': '11:00:00-22:00:00', 'Tue': '11:00:00-22:00:00', 'Wed': '11:00:00-22:00:00', 'Thur': '11:00:00-22:00:00', 'Fri': '11:00:00-22:00:00', 'Sat': '11:00:00-22:00:00', 'Sun': '11:00:00-22:00:00'}}",555893805,,1755,,https://subwayfrance.fr/restaurants/Saint Nicolas de la Grave
33 Place Alphnose Fiquet,Subway,Amiens,France,"{'brand': 'Subway', 'fascia': 'Subway', 'category': 'Restaurant', 'edit_date': '2025-03-17', 'lat_lon_source': 'website'}",49.891252,2.307675,Amiens Gare,"{'opening_hour': {'Mon': '11:00:00-21:30:00', 'Tue': '11:00:00-21:30:00', 'Wed': '11:00:00-21:30:00', 'Thur': '11:00:00-21:30:00', 'Fri': '11:00:00-21:30:00', 'Sat': '11:00:00-21:30:00', 'Sun': '11:00:00-21:30:00'}}",971525629,,1756,,https://subwayfrance.fr/restaurants/Amiens Gare
11 Rue des Sergents,Subway,Amiens,France,"{'brand': 'Subway', 'fascia': 'Subway', 'category': 'Restaurant', 'edit_date': '2025-03-17', 'lat_lon_source': 'website'}",49.894312,2.29855,Amiens Centre Ville,"{'opening_hour': {'Mon': '11:00:00-21:30:00', 'Tue': '11:00:00-21:30:00', 'Wed': '11:00:00-21:30:00', 'Thur': '11:00:00-21:30:00', 'Fri': '11:00:00-21:30:00', 'Sat': '11:00:00-21:30:00', 'Sun': '11:00:00-21:30:00'}}",971285623,,1757,,https://subwayfrance.fr/restaurants/Amiens Centre Ville
Shopping Promenade,Subway,Amiens,France,"{'brand': 'Subway', 'fascia': 'Subway', 'category': 'Restaurant', 'edit_date': '2025-03-17', 'lat_lon_source': 'website'}",49.923554,2.307969,Amiens,"{'opening_hour': {'Mon': '08:30:00-21:30:00', 'Tue': '08:30:00-21:30:00', 'Wed': '08:30:00-21:30:00', 'Thur': '08:30:00-21:30:00', 'Fri': '08:30:00-21:30:00', 'Sat': '08:30:00-21:30:00', 'Sun': '00:00:00-00:30:00'}}",963537406,,1758,,https://subwayfrance.fr/restaurants/Amiens
9 Place Du General de Gaulle,Subway,Armentieres,France,"{'brand': 'Subway', 'fascia': 'Subway', 'category': 'Restaurant', 'edit_date': '2025-03-17', 'lat_lon_source': 'website'}",50.686113,2.882742,Armentieres,"{'opening_hour': {'Mon': '08:00:00-22:00:00', 'Tue': '08:00:00-22:00:00', 'Wed': '08:00:00-22:00:00', 'Thur': '08:00:00-22:00:00', 'Fri': '08:00:00-22:00:00', 'Sat': '08:00:00-22:00:00', 'Sun': '18:00:00-22:00:00'}}",320106558,,1759,,https://subwayfrance.fr/restaurants/Armentieres
13 Rue de La Taillerie,Subway,Arras,France,"{'brand': 'Subway', 'fascia': 'Subway', 'category': 'Restaurant', 'edit_date': '2025-03-17', 'lat_lon_source': 'website'}",50.291289,2.778977,Arras,"{'opening_hour': {'Mon': '08:00:00-22:00:00', 'Tue': '08:00:00-22:00:00', 'Wed': '08:00:00-22:00:00', 'Thur': '08:00:00-22:00:00', 'Fri': '08:00:00-23:00:00', 'Sat': '08:00:00-23:00:00', 'Sun': '09:00:00-22:00:00'}}",983799249,,1760,,https://subwayfrance.fr/restaurants/Arras
C.Cial Carrefour Zone Boreal,Subway,Beaurains,France,"{'brand': 'Subway', 'fascia': 'Subway', 'category': 'Restaurant', 'edit_date': '2025-03-17', 'lat_lon_source': 'website'}",50.263678,2.787991,Beaurains,"{'opening_hour': {'Mon': '08:30:00-20:30:00', 'Tue': '08:30:00-20:30:00', 'Wed': '08:30:00-20:30:00', 'Thur': '08:30:00-20:30:00', 'Fri': '08:30:00-21:00:00', 'Sat': '08:30:00-21:00:00', 'Sun': 'None-None'}}",321710733,,1762,,https://subwayfrance.fr/restaurants/Beaurains
112 Rue Eugene Haynaut,Subway,Bethune,France,"{'brand': 'Subway', 'fascia': 'Subway', 'category': 'Restaurant', 'edit_date': '2025-03-17', 'lat_lon_source': 'website'}",50.528252,2.64197,Bethune,"{'opening_hour': {'Mon': '08:00:00-22:00:00', 'Tue': '08:00:00-22:00:00', 'Wed': '08:00:00-22:00:00', 'Thur': '08:00:00-22:00:00', 'Fri': '08:00:00-22:00:00', 'Sat': '08:00:00-22:00:00', 'Sun': '09:00:00-22:00:00'}}",321564645,,1763,,https://subwayfrance.fr/restaurants/Bethune
494 Ave. Du General de Gaulle,Subway,Bondues,France,"{'brand': 'Subway', 'fascia': 'Subway', 'category': 'Restaurant', 'edit_date': '2025-03-17', 'lat_lon_source': 'website'}",50.706057,3.088851,Bondues,"{'opening_hour': {'Mon': '08:00:00-22:00:00', 'Tue': '08:00:00-22:00:00', 'Wed': '08:00:00-22:00:00', 'Thur': '08:00:00-22:00:00', 'Fri': '08:00:00-22:00:00', 'Sat': '08:00:00-22:00:00', 'Sun': '08:00:00-22:00:00'}}",320252495,,1764,,https://subwayfrance.fr/restaurants/Bondues
42 Rue Nationale,Subway,Boulogne Sur Mer,France,"{'brand': 'Subway', 'fascia': 'Subway', 'category': 'Restaurant', 'edit_date': '2025-03-17', 'lat_lon_source': 'website'}",50.722115,1.606779,Boulogne sur mer,"{'opening_hour': {'Mon': '11:00:00-21:00:00', 'Tue': '11:00:00-21:00:00', 'Wed': '11:00:00-21:00:00', 'Thur': '11:00:00-21:00:00', 'Fri': '11:00:00-21:00:00', 'Sat': '11:00:00-21:00:00', 'Sun': 'None-None'}}",321927150,,1765,,https://subwayfrance.fr/restaurants/Boulogne sur mer
Parc de La Porte Nord,Subway,Bruay-La Buissiere,France,"{'brand': 'Subway', 'fascia': 'Subway', 'category': 'Restaurant', 'edit_date': '2025-03-17', 'lat_lon_source': 'website'}",50.492749,2.575765,Bruay-la Buissiere,"{'opening_hour': {'Mon': '08:30:00-22:00:00', 'Tue': '08:30:00-22:00:00', 'Wed': '08:30:00-22:00:00', 'Thur': '08:30:00-22:00:00', 'Fri': '08:30:00-22:30:00', 'Sat': '08:30:00-22:30:00', 'Sun': '09:00:00-22:00:00'}}",988049621,,1766,,https://subwayfrance.fr/restaurants/Bruay-la Buissiere
102 Boulevard Lafayette,Subway,Calais,France,"{'brand': 'Subway', 'fascia': 'Subway', 'category': 'Restaurant', 'edit_date': '2025-03-17', 'lat_lon_source': 'website'}",50.946141,1.859387,Calais,"{'opening_hour': {'Mon': '09:00:00-21:30:00', 'Tue': '09:00:00-21:30:00', 'Wed': '09:00:00-21:30:00', 'Thur': '09:00:00-21:30:00', 'Fri': '09:00:00-22:00:00', 'Sat': '09:00:00-22:00:00', 'Sun': '10:00:00-21:30:00'}}",391914830,,1767,,https://subwayfrance.fr/restaurants/Calais
4 Mail Saint-Martin,Subway,Cambrai,France,"{'brand': 'Subway', 'fascia': 'Subway', 'category': 'Restaurant', 'edit_date': '2025-03-17', 'lat_lon_source': 'website'}",50.175558,3.232718,Cambrai,"{'opening_hour': {'Mon': '10:30:00-22:00:00', 'Tue': '10:30:00-22:00:00', 'Wed': '10:30:00-22:00:00', 'Thur': '10:30:00-22:00:00', 'Fri': '10:30:00-22:30:00', 'Sat': '10:30:00-22:30:00', 'Sun': '10:30:00-22:00:00'}}",327744604,,1768,,https://subwayfrance.fr/restaurants/Cambrai
88 Rue Du Vieux Chateau,Subway,Carvin,France,"{'brand': 'Subway', 'fascia': 'Subway', 'category': 'Restaurant', 'edit_date': '2025-03-17', 'lat_lon_source': 'website'}",50.481676,2.963693,Carvin,"{'opening_hour': {'Mon': '08:30:00-21:00:00', 'Tue': '08:30:00-21:00:00', 'Wed': '08:30:00-21:00:00', 'Thur': '08:30:00-21:00:00', 'Fri': '08:30:00-21:00:00', 'Sat': '08:30:00-21:00:00', 'Sun': '17:00:00-21:00:00'}}",321774201,,1769,,https://subwayfrance.fr/restaurants/Carvin
CC Leclerc rue François Truffaut,Subway,Chambly,France,"{'brand': 'Subway', 'fascia': 'Subway', 'category': 'Restaurant', 'edit_date': '2025-03-17', 'lat_lon_source': 'website'}",49.156536,2.257733,Chambly,"{'opening_hour': {'Mon': '11:00:00-20:00:00', 'Tue': '10:30:00-20:00:00', 'Wed': '10:30:00-20:00:00', 'Thur': '10:30:00-20:00:00', 'Fri': '10:30:00-20:00:00', 'Sat': '10:30:00-20:00:00', 'Sun': 'None-None'}}",134704175,,1770,,https://subwayfrance.fr/restaurants/Chambly
C.Cial Cite Europe,Subway,Coquelles,France,"{'brand': 'Subway', 'fascia': 'Subway', 'category': 'Restaurant', 'edit_date': '2025-03-17', 'lat_lon_source': 'website'}",50.935303,1.808081,Coquelles,"{'opening_hour': {'Mon': '10:00:00-22:00:00', 'Tue': '10:00:00-22:00:00', 'Wed': '10:00:00-22:00:00', 'Thur': '10:00:00-22:00:00', 'Fri': '10:00:00-22:30:00', 'Sat': '10:00:00-22:30:00', 'Sun': '10:00:00-21:30:00'}}",321341028,,1771,,https://subwayfrance.fr/restaurants/Coquelles
13 Rue de La Gare,Subway,Croix,France,"{'brand': 'Subway', 'fascia': 'Subway', 'category': 'Restaurant', 'edit_date': '2025-03-17', 'lat_lon_source': 'website'}",50.674428,3.145757,Croix,"{'opening_hour': {'Mon': '11:00:00-21:30:00', 'Tue': '11:00:00-21:30:00', 'Wed': '11:00:00-21:30:00', 'Thur': '11:00:00-21:30:00', 'Fri': '11:00:00-21:30:00', 'Sat': '11:00:00-21:30:00', 'Sun': '11:00:00-21:30:00'}}",320665368,,1772,,https://subwayfrance.fr/restaurants/Croix
"Rue James Tobin, Parc Du Luc",Subway,Dechy,France,"{'brand': 'Subway', 'fascia': 'Subway', 'category': 'Restaurant', 'edit_date': '2025-03-17', 'lat_lon_source': 'website'}",50.342111,3.106894,Dechy,"{'opening_hour': {'Mon': '09:00:00-22:30:00', 'Tue': '09:00:00-22:30:00', 'Wed': '09:00:00-22:30:00', 'Thur': '09:00:00-22:30:00', 'Fri': '09:00:00-22:30:00', 'Sat': '09:00:00-22:30:00', 'Sun': '09:00:00-22:30:00'}}",986172496,,1773,,https://subwayfrance.fr/restaurants/Dechy
600 Boulevard de La Republique,Subway,Douai,France,"{'brand': 'Subway', 'fascia': 'Subway', 'category': 'Restaurant', 'edit_date': '2025-03-17', 'lat_lon_source': 'website'}",50.375854,3.076423,Douai,"{'opening_hour': {'Mon': '08:00:00-22:30:00', 'Tue': '08:00:00-22:30:00', 'Wed': '08:00:00-22:30:00', 'Thur': '08:00:00-22:30:00', 'Fri': '08:00:00-23:00:00', 'Sat': '08:00:00-23:00:00', 'Sun': '10:00:00-23:00:00'}}",327910112,,1774,,https://subwayfrance.fr/restaurants/Douai
116 Boulevard Alexandre Iii,Subway,Dunkerque,France,"{'brand': 'Subway', 'fascia': 'Subway', 'category': 'Restaurant', 'edit_date': '2025-03-17', 'lat_lon_source': 'website'}",51.032324,2.372133,Dunkerque,"{'opening_hour': {'Mon': '08:30:00-22:00:00', 'Tue': '08:30:00-22:00:00', 'Wed': '08:30:00-22:00:00', 'Thur': '08:30:00-22:00:00', 'Fri': '08:30:00-22:00:00', 'Sat': '08:30:00-22:00:00', 'Sun': '08:30:00-22:00:00'}}",361387487,,1775,,https://subwayfrance.fr/restaurants/Dunkerque
Speed Park Ave Du Bord des Eaux,Subway,Henin Beaumont,France,"{'brand': 'Subway', 'fascia': 'Subway', 'category': 'Restaurant', 'edit_date': '2025-03-17', 'lat_lon_source': 'website'}",50.409993,2.969591,Henin Beaumont,"{'opening_hour': {'Mon': '08:00:00-21:00:00', 'Tue': '08:00:00-21:00:00', 'Wed': '08:00:00-21:00:00', 'Thur': '08:00:00-21:00:00', 'Fri': '08:00:00-21:30:00', 'Sat': '08:00:00-21:30:00', 'Sun': 'None-None'}}",321435266,,1777,,https://subwayfrance.fr/restaurants/Henin Beaumont
3 Allee de La Cardamine,Subway,La Francheville,France,"{'brand': 'Subway', 'fascia': 'Subway', 'category': 'Restaurant', 'edit_date': '2025-03-17', 'lat_lon_source': 'website'}",49.7372,4.708849,La Francheville,"{'opening_hour': {'Mon': '11:00:00-15:00:00', 'Tue': '11:00:00-20:30:00', 'Wed': '11:00:00-21:00:00', 'Thur': '11:00:00-21:00:00', 'Fri': '11:00:00-21:30:00', 'Sat': '11:00:00-21:30:00', 'Sun': 'None-None'}}",324415965,,1778,,https://subwayfrance.fr/restaurants/La Francheville
3 Place Richebe,Subway,Lille,France,"{'brand': 'Subway', 'fascia': 'Subway', 'category': 'Restaurant', 'edit_date': '2025-03-17', 'lat_lon_source': 'website'}",50.632408,3.062525,Lille rue de Béthune,"{'opening_hour': {'Mon': '08:30:00-22:30:00', 'Tue': '08:30:00-22:30:00', 'Wed': '08:30:00-22:30:00', 'Thur': '08:30:00-22:30:00', 'Fri': '08:30:00-23:00:00', 'Sat': '08:30:00-23:00:00', 'Sun': '09:30:00-22:30:00'}}",320140422,,1779,,https://subwayfrance.fr/restaurants/Lille rue de Béthune
61 Rue Nationale,Subway,Lille,France,"{'brand': 'Subway', 'fascia': 'Subway', 'category': 'Restaurant', 'edit_date': '2025-03-17', 'lat_lon_source': 'website'}",50.635806,3.060258,Lille Rue Nationale,"{'opening_hour': {'Mon': '08:00:00-22:00:00', 'Tue': '08:00:00-22:00:00', 'Wed': '08:00:00-22:00:00', 'Thur': '08:00:00-22:00:00', 'Fri': '08:00:00-22:00:00', 'Sat': '08:00:00-22:00:00', 'Sun': '09:00:00-22:00:00'}}",320381262,,1780,,https://subwayfrance.fr/restaurants/Lille Rue Nationale
C.Cial Euralille,Subway,Lille,France,"{'brand': 'Subway', 'fascia': 'Subway', 'category': 'Restaurant', 'edit_date': '2025-03-17', 'lat_lon_source': 'website'}",50.637293,3.074389,Lille EuraLille,"{'opening_hour': {'Mon': '09:30:00-20:00:00', 'Tue': '09:30:00-20:00:00', 'Wed': '09:30:00-20:00:00', 'Thur': '09:30:00-20:00:00', 'Fri': '09:30:00-20:00:00', 'Sat': '09:30:00-20:00:00', 'Sun': 'None-None'}}",320138419,,1781,,https://subwayfrance.fr/restaurants/Lille EuraLille
447 Bvd Du President Hoover,Subway,Lille,France,"{'brand': 'Subway', 'fascia': 'Subway', 'category': 'Restaurant', 'edit_date': '2025-03-17', 'lat_lon_source': 'website'}",50.61386,3.042381,Lille,"{'opening_hour': {'Mon': '07:00:00-15:00:00', 'Tue': '07:00:00-15:00:00', 'Wed': '07:00:00-15:00:00', 'Thur': '07:00:00-15:00:00', 'Fri': '07:00:00-21:30:00', 'Sat': '11:30:00-21:30:00', 'Sun': 'None-None'}}",320092862,,1782,,https://subwayfrance.fr/restaurants/Lille
Centre Commercial Kinepolis,Subway,Lille,France,"{'brand': 'Subway', 'fascia': 'Subway', 'category': 'Restaurant', 'edit_date': '2025-03-17', 'lat_lon_source': 'website'}",50.652663,2.982709,Lomme,"{'opening_hour': {'Mon': '10:30:00-22:30:00', 'Tue': '10:30:00-22:30:00', 'Wed': '10:30:00-22:30:00', 'Thur': '10:30:00-22:30:00', 'Fri': '10:30:00-23:00:00', 'Sat': '10:30:00-23:00:00', 'Sun': '10:30:00-23:00:00'}}",320228741,,1784,,https://subwayfrance.fr/restaurants/Lomme
1 Route des Bruyeres,Subway,Longuenesse,France,"{'brand': 'Subway', 'fascia': 'Subway', 'category': 'Restaurant', 'edit_date': '2025-03-17', 'lat_lon_source': 'website'}",50.740152,2.261324,Longuenesse,"{'opening_hour': {'Mon': '09:00:00-22:00:00', 'Tue': '09:00:00-22:00:00', 'Wed': '09:00:00-22:00:00', 'Thur': '09:00:00-22:00:00', 'Fri': '09:00:00-22:00:00', 'Sat': '09:00:00-22:00:00', 'Sun': '09:00:00-22:00:00'}}",321882587,,1785,,https://subwayfrance.fr/restaurants/Longuenesse
2 Place Albert Tacquet,Subway,Loos,France,"{'brand': 'Subway', 'fascia': 'Subway', 'category': 'Restaurant', 'edit_date': '2025-03-17', 'lat_lon_source': 'website'}",50.606659,3.020477,Loos-Lez-Lille,"{'opening_hour': {'Mon': '11:00:00-21:30:00', 'Tue': '11:00:00-21:30:00', 'Wed': '11:00:00-21:30:00', 'Thur': '11:00:00-21:30:00', 'Fri': '11:00:00-21:30:00', 'Sat': '11:00:00-21:30:00', 'Sun': '11:00:00-21:30:00'}}",359893577,,1786,,https://subwayfrance.fr/restaurants/Loos-Lez-Lille
Centre Commercial Auchan,Subway,Louvroil,France,"{'brand': 'Subway', 'fascia': 'Subway', 'category': 'Restaurant', 'edit_date': '2025-03-17', 'lat_lon_source': 'website'}",50.255813,3.937431,Louvroil,"{'opening_hour': {'Mon': '08:00:00-21:30:00', 'Tue': '08:00:00-21:30:00', 'Wed': '08:00:00-21:30:00', 'Thur': '08:00:00-21:30:00', 'Fri': '08:00:00-21:30:00', 'Sat': '08:00:00-21:30:00', 'Sun': 'None-None'}}",327656755,,1787,,https://subwayfrance.fr/restaurants/Louvroil
Avenue de La Gare,Subway,Maubeuge,France,"{'brand': 'Subway', 'fascia': 'Subway', 'category': 'Restaurant', 'edit_date': '2025-03-17', 'lat_lon_source': 'website'}",50.273257,3.969912,Maubeuge,"{'opening_hour': {'Mon': '07:30:00-22:00:00', 'Tue': '07:30:00-22:00:00', 'Wed': '07:30:00-22:00:00', 'Thur': '07:30:00-22:00:00', 'Fri': '07:30:00-22:30:00', 'Sat': '08:00:00-22:30:00', 'Sun': '10:00:00-22:00:00'}}",327580224,,1788,,https://subwayfrance.fr/restaurants/Maubeuge
21 Cité de la Borne des Loups,Subway,Noyelles-Godault,France,"{'brand': 'Subway', 'fascia': 'Subway', 'category': 'Restaurant', 'edit_date': '2025-03-17', 'lat_lon_source': 'website'}",50.413123,2.974571,Noyelles Godault,"{'opening_hour': {'Mon': '07:00:00-20:00:00', 'Tue': '07:00:00-20:00:00', 'Wed': '07:00:00-20:00:00', 'Thur': '07:00:00-20:00:00', 'Fri': '07:00:00-20:00:00', 'Sat': '07:00:00-20:30:00', 'Sun': 'None-None'}}",981187765,,1789,,https://subwayfrance.fr/restaurants/Noyelles Godault
63 Place Drouet D'Erlon,Subway,Reims,France,"{'brand': 'Subway', 'fascia': 'Subway', 'category': 'Restaurant', 'edit_date': '2025-03-17', 'lat_lon_source': 'website'}",49.255803,4.026478,Reims,"{'opening_hour': {'Mon': '10:00:00-23:00:00', 'Tue': '10:00:00-23:00:00', 'Wed': '10:00:00-23:00:00', 'Thur': '10:00:00-23:00:00', 'Fri': '10:00:00-23:00:00', 'Sat': '10:00:00-23:00:00', 'Sun': '10:00:00-23:00:00'}}",326826443,,1790,,https://subwayfrance.fr/restaurants/Reims
Rue des Acacias Zac Nord,Subway,Thillois,France,"{'brand': 'Subway', 'fascia': 'Subway', 'category': 'Restaurant', 'edit_date': '2025-03-17', 'lat_lon_source': 'website'}",49.259507,3.966275,Reims Thillois,"{'opening_hour': {'Mon': '10:00:00-20:15:00', 'Tue': '10:00:00-20:15:00', 'Wed': '10:00:00-20:15:00', 'Thur': '10:00:00-20:15:00', 'Fri': '10:00:00-20:15:00', 'Sat': '10:00:00-20:15:00', 'Sun': 'None-None'}}",326032991,,1791,,https://subwayfrance.fr/restaurants/Reims Thillois
28 Place de La Liberte,Subway,Roubaix,France,"{'brand': 'Subway', 'fascia': 'Subway', 'category': 'Restaurant', 'edit_date': '2025-03-17', 'lat_lon_source': 'website'}",50.691539,3.178833,Roubaix,"{'opening_hour': {'Mon': '09:00:00-22:00:00', 'Tue': '09:00:00-22:00:00', 'Wed': '09:00:00-22:00:00', 'Thur': '09:00:00-22:00:00', 'Fri': '09:00:00-22:00:00', 'Sat': '10:00:00-22:00:00', 'Sun': '10:00:00-22:00:00'}}",320740368,,1792,,https://subwayfrance.fr/restaurants/Roubaix
4 Rue de Saint Lo,Subway,Rouen,France,"{'brand': 'Subway', 'fascia': 'Subway', 'category': 'Restaurant', 'edit_date': '2025-03-17', 'lat_lon_source': 'website'}",49.446509,1.097682,Rouen St Lo,"{'opening_hour': {'Mon': '12:00:00-21:00:00', 'Tue': '12:00:00-21:00:00', 'Wed': '12:00:00-21:00:00', 'Thur': '12:00:00-21:00:00', 'Fri': '12:00:00-21:00:00', 'Sat': '12:00:00-21:00:00', 'Sun': '12:00:00-21:00:00'}}",235031401,,1793,,https://subwayfrance.fr/restaurants/Rouen St Lo
36 Rue Armand Carrel,Subway,Rouen,France,"{'brand': 'Subway', 'fascia': 'Subway', 'category': 'Restaurant', 'edit_date': '2025-03-17', 'lat_lon_source': 'website'}",49.437828,1.100864,Rouen Place St Marc,"{'opening_hour': {'Mon': '11:30:00-22:00:00', 'Tue': '11:30:00-22:00:00', 'Wed': '11:30:00-22:00:00', 'Thur': '11:30:00-22:00:00', 'Fri': '11:30:00-22:00:00', 'Sat': '12:00:00-21:30:00', 'Sun': 'None-None'}}",232121495,,1794,,https://subwayfrance.fr/restaurants/Rouen Place St Marc
168 Rue Saint Sever,Subway,Rouen,France,"{'brand': 'Subway', 'fascia': 'Subway', 'category': 'Restaurant', 'edit_date': '2025-03-17', 'lat_lon_source': 'website'}",49.431059,1.08601,Rouen Saint Sever,"{'opening_hour': {'Mon': '10:00:00-21:30:00', 'Tue': '10:00:00-21:30:00', 'Wed': '10:00:00-21:30:00', 'Thur': '10:00:00-21:30:00', 'Fri': '10:00:00-22:00:00', 'Sat': '10:00:00-22:00:00', 'Sun': '11:00:00-21:30:00'}}",232812859,,1795,,https://subwayfrance.fr/restaurants/Rouen Saint Sever
111 Bis Rue Jeanne D'Arc,Subway,Rouen,France,"{'brand': 'Subway', 'fascia': 'Subway', 'category': 'Restaurant', 'edit_date': '2025-03-17', 'lat_lon_source': 'website'}",49.447972,1.093923,Rouen Gare,"{'opening_hour': {'Mon': '12:00:00-21:00:00', 'Tue': '12:00:00-21:00:00', 'Wed': '12:00:00-21:00:00', 'Thur': '12:00:00-21:00:00', 'Fri': '12:00:00-21:00:00', 'Sat': '12:00:00-21:00:00', 'Sun': '12:00:00-21:00:00'}}",235981916,,1796,,https://subwayfrance.fr/restaurants/Rouen Gare
10 Avenue Mercuria,Subway,Saint Memmie,France,"{'brand': 'Subway', 'fascia': 'Subway', 'category': 'Restaurant', 'edit_date': '2025-03-17', 'lat_lon_source': 'website'}",48.944924,4.385642,Saint Memmie,"{'opening_hour': {'Mon': '11:00:00-22:00:00', 'Tue': '11:00:00-22:00:00', 'Wed': '11:00:00-22:00:00', 'Thur': '11:00:00-22:00:00', 'Fri': '11:00:00-22:30:00', 'Sat': '11:00:00-22:30:00', 'Sun': '11:00:00-22:00:00'}}",326211015,,1797,,https://subwayfrance.fr/restaurants/Saint Memmie
19 Rue Saint Andre,Subway,Saint Quentin,France,"{'brand': 'Subway', 'fascia': 'Subway', 'category': 'Restaurant', 'edit_date': '2025-03-17', 'lat_lon_source': 'website'}",49.84749,3.288342,Saint Quentin St André,"{'opening_hour': {'Mon': '10:00:00-21:00:00', 'Tue': '10:00:00-21:00:00', 'Wed': '10:00:00-21:00:00', 'Thur': '10:00:00-21:00:00', 'Fri': '10:00:00-21:30:00', 'Sat': '10:00:00-21:30:00', 'Sun': '00:00:00-00:30:00'}}",967453580,,1798,,https://subwayfrance.fr/restaurants/Saint Quentin St André
Zac Les Marlettes Auchan Drive,Subway,Saint Quentin,France,"{'brand': 'Subway', 'fascia': 'Subway', 'category': 'Restaurant', 'edit_date': '2025-03-17', 'lat_lon_source': 'website'}",49.858115,3.25625,Saint Quentin Fayet,"{'opening_hour': {'Mon': '10:00:00-21:00:00', 'Tue': '10:00:00-21:00:00', 'Wed': '10:00:00-21:00:00', 'Thur': '10:00:00-21:00:00', 'Fri': '10:00:00-21:30:00', 'Sat': '10:00:00-21:30:00', 'Sun': '16:00:00-21:30:00'}}",323661875,,1799,,https://subwayfrance.fr/restaurants/Saint Quentin Fayet
C.Cial So Green,Subway,Seclin,France,"{'brand': 'Subway', 'fascia': 'Subway', 'category': 'Restaurant', 'edit_date': '2025-03-17', 'lat_lon_source': 'website'}",50.547465,3.052105,Seclin,"{'opening_hour': {'Mon': '08:30:00-22:00:00', 'Tue': '08:30:00-22:00:00', 'Wed': '08:30:00-22:00:00', 'Thur': '08:30:00-22:00:00', 'Fri': '08:30:00-22:30:00', 'Sat': '08:30:00-22:30:00', 'Sun': '10:00:00-22:00:00'}}",320580402,,1800,,https://subwayfrance.fr/restaurants/Seclin
3 Place D'Armes,Subway,Sedan,France,"{'brand': 'Subway', 'fascia': 'Subway', 'category': 'Restaurant', 'edit_date': '2025-03-17', 'lat_lon_source': 'website'}",49.701134,4.947982,Sedan,"{'opening_hour': {'Mon': '11:00:00-21:00:00', 'Tue': '11:00:00-21:00:00', 'Wed': '11:00:00-21:00:00', 'Thur': '11:00:00-21:00:00', 'Fri': '11:00:00-21:00:00', 'Sat': '11:00:00-21:00:00', 'Sun': '11:00:00-21:00:00'}}",324541311,,1801,,https://subwayfrance.fr/restaurants/Sedan
5 Bis Avenue D'Amsterdam,Subway,Valenciennes,France,"{'brand': 'Subway', 'fascia': 'Subway', 'category': 'Restaurant', 'edit_date': '2025-03-17', 'lat_lon_source': 'website'}",50.359698,3.525585,Valenciennes,"{'opening_hour': {'Mon': '08:00:00-22:30:00', 'Tue': '08:00:00-22:30:00', 'Wed': '08:00:00-22:30:00', 'Thur': '08:00:00-22:30:00', 'Fri': '08:00:00-22:30:00', 'Sat': '08:00:00-22:30:00', 'Sun': '10:00:00-22:30:00'}}",327338039,,1802,,https://subwayfrance.fr/restaurants/Valenciennes
3 Av. des Anglais,Subway,Étaples,France,"{'brand': 'Subway', 'fascia': 'Subway', 'category': 'Restaurant', 'edit_date': '2025-03-17', 'lat_lon_source': 'website'}",50.526619,1.627714,Etaple,"{'opening_hour': {'Mon': '11:00:00-20:00:00', 'Tue': '11:00:00-20:00:00', 'Wed': '11:00:00-20:00:00', 'Thur': '11:00:00-20:00:00', 'Fri': '11:00:00-21:30:00', 'Sat': '11:00:00-21:30:00', 'Sun': '11:00:00-21:30:00'}}",321054935,,1804,,https://subwayfrance.fr/restaurants/Etaple
Polygone 3 Carrefour de L'Hour,Subway,Beziers,France,"{'brand': 'Subway', 'fascia': 'Subway', 'category': 'Restaurant', 'edit_date': '2025-03-17', 'lat_lon_source': 'website'}",43.336848,3.224984,Beziers,"{'opening_hour': {'Mon': '09:00:00-22:30:00', 'Tue': '09:00:00-22:30:00', 'Wed': '09:00:00-22:30:00', 'Thur': '09:00:00-22:30:00', 'Fri': '09:00:00-22:30:00', 'Sat': '09:00:00-22:30:00', 'Sun': '09:00:00-22:30:00'}}",467317356,,1805,,https://subwayfrance.fr/restaurants/Beziers
2 Rue Raymond Grimaud,Subway,Blagnac,France,"{'brand': 'Subway', 'fascia': 'Subway', 'category': 'Restaurant', 'edit_date': '2025-03-17', 'lat_lon_source': 'website'}",43.638583,1.375958,Blagnac,"{'opening_hour': {'Mon': '12:00:00-19:30:00', 'Tue': '12:00:00-19:30:00', 'Wed': '12:00:00-19:30:00', 'Thur': '12:00:00-19:30:00', 'Fri': '12:00:00-19:30:00', 'Sat': '12:00:00-19:30:00', 'Sun': 'None-None'}}",561486519,,1806,,https://subwayfrance.fr/restaurants/Blagnac
4 Rue de Verdun,Subway,Montpellier,France,"{'brand': 'Subway', 'fascia': 'Subway', 'category': 'Restaurant', 'edit_date': '2025-03-17', 'lat_lon_source': 'website'}",43.607595,3.880297,Montpellier Comedie,"{'opening_hour': {'Mon': '11:00:00-22:30:00', 'Tue': '11:00:00-22:30:00', 'Wed': '11:00:00-22:30:00', 'Thur': '11:00:00-22:30:00', 'Fri': '11:00:00-22:30:00', 'Sat': '11:00:00-22:30:00', 'Sun': '11:00:00-22:30:00'}}",467569464,,1807,,https://subwayfrance.fr/restaurants/Montpellier Comedie
Allée Ulysse Z.A. Odysseum,Subway,Montpellier,France,"{'brand': 'Subway', 'fascia': 'Subway', 'category': 'Restaurant', 'edit_date': '2025-03-17', 'lat_lon_source': 'website'}",43.603078,3.917589,Montpellier Odysseum,"{'opening_hour': {'Mon': '11:30:00-22:30:00', 'Tue': '11:30:00-22:30:00', 'Wed': '11:30:00-22:30:00', 'Thur': '11:30:00-22:30:00', 'Fri': '11:30:00-23:00:00', 'Sat': '11:30:00-23:00:00', 'Sun': '11:30:00-22:30:00'}}",467717594,,1808,,https://subwayfrance.fr/restaurants/Montpellier Odysseum
90 Rue Albert Ferrasse,Subway,Montpellier,France,"{'brand': 'Subway', 'fascia': 'Subway', 'category': 'Restaurant', 'edit_date': '2025-03-17', 'lat_lon_source': 'website'}",43.590091,3.854372,Montpellier,"{'opening_hour': {'Mon': '11:00:00-22:00:00', 'Tue': '11:00:00-22:00:00', 'Wed': '11:00:00-22:00:00', 'Thur': '11:00:00-22:00:00', 'Fri': '11:00:00-22:30:00', 'Sat': '11:00:00-22:30:00', 'Sun': '11:00:00-22:30:00'}}",467693233,,1809,,https://subwayfrance.fr/restaurants/Montpellier
455 Avenue Du Professeur,Subway,Montpellier,France,"{'brand': 'Subway', 'fascia': 'Subway', 'category': 'Restaurant', 'edit_date': '2025-03-17', 'lat_lon_source': 'website'}",43.600301,3.89566,Montpellier Professeur Etienne,"{'opening_hour': {'Mon': '11:00:00-22:30:00', 'Tue': '11:00:00-22:30:00', 'Wed': '11:00:00-22:30:00', 'Thur': '11:00:00-22:30:00', 'Fri': '11:00:00-22:30:00', 'Sat': '11:00:00-22:30:00', 'Sun': '11:00:00-22:30:00'}}",467079121,,1810,,https://subwayfrance.fr/restaurants/Montpellier Professeur Etienne
142 Ave Du Val de Montferrand,Subway,Montpellier,France,"{'brand': 'Subway', 'fascia': 'Subway', 'category': 'Restaurant', 'edit_date': '2025-03-17', 'lat_lon_source': 'website'}",43.630659,3.871052,Montpellier St Eloi,"{'opening_hour': {'Mon': '11:00:00-22:00:00', 'Tue': '11:00:00-22:00:00', 'Wed': '11:00:00-22:00:00', 'Thur': '11:00:00-22:00:00', 'Fri': '11:00:00-22:00:00', 'Sat': '11:00:00-22:00:00', 'Sun': '11:00:00-22:00:00'}}",467667723,,1811,,https://subwayfrance.fr/restaurants/Montpellier St Eloi
C.Cial Auchan MéditerranéE,Subway,Perols,France,"{'brand': 'Subway', 'fascia': 'Subway', 'category': 'Restaurant', 'edit_date': '2025-03-17', 'lat_lon_source': 'website'}",43.564658,3.95219,Perols,"{'opening_hour': {'Mon': '09:30:00-20:30:00', 'Tue': '09:30:00-20:30:00', 'Wed': '09:30:00-20:30:00', 'Thur': '09:30:00-20:30:00', 'Fri': '09:30:00-20:30:00', 'Sat': '09:30:00-20:30:00', 'Sun': 'None-None'}}",467817656,,1812,,https://subwayfrance.fr/restaurants/Perols
7 Avenue Victor Hugo,Subway,Rodez,France,"{'brand': 'Subway', 'fascia': 'Subway', 'category': 'Restaurant', 'edit_date': '2025-03-17', 'lat_lon_source': 'website'}",44.350997,2.57129,Rodez,"{'opening_hour': {'Mon': 'None-None', 'Tue': 'None-None', 'Wed': 'None-None', 'Thur': 'None-None', 'Fri': 'None-None', 'Sat': 'None-None', 'Sun': 'None-None'}}",565684011,,1813,,https://subwayfrance.fr/restaurants/Rodez
Centre commercial Leclerc Roques,Subway,Roques,France,"{'brand': 'Subway', 'fascia': 'Subway', 'category': 'Restaurant', 'edit_date': '2025-03-17', 'lat_lon_source': 'website'}",43.513005,1.369855,Toulouse Roques sur Garonne,"{'opening_hour': {'Mon': '10:30:00-20:00:00', 'Tue': '10:30:00-20:00:00', 'Wed': '10:30:00-20:00:00', 'Thur': '10:30:00-20:00:00', 'Fri': '10:30:00-20:00:00', 'Sat': '10:30:00-20:00:00', 'Sun': 'None-None'}}",561419534,,1814,,https://subwayfrance.fr/restaurants/Toulouse Roques sur Garonne
Retail Park Zac Saint Antoine,Subway,Saint Aunes,France,"{'brand': 'Subway', 'fascia': 'Subway', 'category': 'Restaurant', 'edit_date': '2025-03-17', 'lat_lon_source': 'website'}",43.650468,3.975926,Saint Aunes,"{'opening_hour': {'Mon': '10:00:00-22:30:00', 'Tue': '10:00:00-22:30:00', 'Wed': '10:00:00-23:00:00', 'Thur': '10:00:00-22:30:00', 'Fri': '10:00:00-22:00:00', 'Sat': '10:00:00-23:00:00', 'Sun': '10:00:00-22:30:00'}}",467611408,,1815,,https://subwayfrance.fr/restaurants/Saint Aunes
1 Place de la Trinite,Subway,Toulouse,France,"{'brand': 'Subway', 'fascia': 'Subway', 'category': 'Restaurant', 'edit_date': '2025-03-17', 'lat_lon_source': 'website'}",43.600046,1.443999,Toulouse Trinité,"{'opening_hour': {'Mon': '11:00:00-23:00:00', 'Tue': '11:00:00-23:00:00', 'Wed': '11:00:00-23:00:00', 'Thur': '11:00:00-23:00:00', 'Fri': '11:00:00-23:00:00', 'Sat': '11:00:00-23:00:00', 'Sun': '11:00:00-23:00:00'}}",534408730,,1816,,https://subwayfrance.fr/restaurants/Toulouse Trinité
211 Route de Narbonne,Subway,Toulouse,France,"{'brand': 'Subway', 'fascia': 'Subway', 'category': 'Restaurant', 'edit_date': '2025-03-17', 'lat_lon_source': 'website'}",43.557458,1.464758,Toulouse Rangueil,"{'opening_hour': {'Mon': '08:30:00-22:30:00', 'Tue': '08:30:00-22:30:00', 'Wed': '08:30:00-22:30:00', 'Thur': '08:30:00-22:30:00', 'Fri': '08:30:00-22:30:00', 'Sat': '08:30:00-22:30:00', 'Sun': '08:30:00-22:30:00'}}",561523641,,1817,,https://subwayfrance.fr/restaurants/Toulouse Rangueil
33 Bd André Netwiller,Subway,Toulouse,France,"{'brand': 'Subway', 'fascia': 'Subway', 'category': 'Restaurant', 'edit_date': '2025-03-17', 'lat_lon_source': 'website'}",43.641374,1.453499,Toulouse Borderouge,"{'opening_hour': {'Mon': '10:30:00-21:30:00', 'Tue': '10:30:00-21:30:00', 'Wed': '10:30:00-21:30:00', 'Thur': '10:30:00-21:30:00', 'Fri': '10:30:00-21:30:00', 'Sat': '10:30:00-20:30:00', 'Sun': 'None-None'}}",534392157,,1818,,https://subwayfrance.fr/restaurants/Toulouse Borderouge
13 Boulevard Bonrepos,Subway,Toulouse,France,"{'brand': 'Subway', 'fascia': 'Subway', 'category': 'Restaurant', 'edit_date': '2025-03-17', 'lat_lon_source': 'website'}",43.610976,1.452358,Toulouse Gare,"{'opening_hour': {'Mon': '12:30:00-21:30:00', 'Tue': '12:30:00-21:30:00', 'Wed': '12:30:00-21:30:00', 'Thur': '12:30:00-21:30:00', 'Fri': '12:30:00-21:30:00', 'Sat': '12:30:00-21:30:00', 'Sun': '18:00:00-22:00:00'}}",752678862,,1819,,https://subwayfrance.fr/restaurants/Toulouse Gare
166 Rte de Revel,Subway,Toulouse,France,"{'brand': 'Subway', 'fascia': 'Subway', 'category': 'Restaurant', 'edit_date': '2025-03-17', 'lat_lon_source': 'website'}",43.570944,1.498098,Toulouse Montaudran,"{'opening_hour': {'Mon': '10:30:00-22:30:00', 'Tue': '10:30:00-22:30:00', 'Wed': '10:30:00-22:30:00', 'Thur': '10:30:00-22:30:00', 'Fri': '10:30:00-22:30:00', 'Sat': '10:30:00-22:30:00', 'Sun': '10:30:00-22:30:00'}}",561452405,,1820,,https://subwayfrance.fr/restaurants/Toulouse Montaudran
Zac des Pres,Subway,Andelnans,France,"{'brand': 'Subway', 'fascia': 'Subway', 'category': 'Restaurant', 'edit_date': '2025-03-17', 'lat_lon_source': 'website'}",47.604229,6.861223,Andelnans,"{'opening_hour': {'Mon': '10:00:00-21:30:00', 'Tue': '10:00:00-21:30:00', 'Wed': '10:00:00-21:30:00', 'Thur': '10:00:00-21:30:00', 'Fri': '10:00:00-22:30:00', 'Sat': '10:00:00-22:30:00', 'Sun': '11:00:00-21:30:00'}}",384291277,,1821,,https://subwayfrance.fr/restaurants/Andelnans
Avenue de Worms 5,Subway,Auxerre,France,"{'brand': 'Subway', 'fascia': 'Subway', 'category': 'Restaurant', 'edit_date': '2025-03-17', 'lat_lon_source': 'website'}",47.811375,3.571597,Auxerre,"{'opening_hour': {'Mon': '09:30:00-21:00:00', 'Tue': '09:30:00-21:00:00', 'Wed': '09:30:00-21:00:00', 'Thur': '09:30:00-21:00:00', 'Fri': '09:30:00-21:00:00', 'Sat': '09:30:00-21:00:00', 'Sun': '09:30:00-21:00:00'}}",386517389,,1822,,https://subwayfrance.fr/restaurants/Auxerre
2 Rue Du Beau Marche,Subway,Beaune,France,"{'brand': 'Subway', 'fascia': 'Subway', 'category': 'Restaurant', 'edit_date': '2025-03-17', 'lat_lon_source': 'website'}",47.013202,4.843799,Beaune,"{'opening_hour': {'Mon': '10:00:00-22:00:00', 'Tue': '10:00:00-22:00:00', 'Wed': '10:00:00-22:00:00', 'Thur': '10:00:00-22:00:00', 'Fri': '10:00:00-22:00:00', 'Sat': '10:00:00-22:00:00', 'Sun': '11:00:00-22:00:00'}}",981146139,,1823,,https://subwayfrance.fr/restaurants/Beaune
2 Rue de La Boucherie,Subway,Besancon,France,"{'brand': 'Subway', 'fascia': 'Subway', 'category': 'Restaurant', 'edit_date': '2025-03-17', 'lat_lon_source': 'website'}",47.239548,6.021421,Besancon CV,"{'opening_hour': {'Mon': '10:30:00-22:30:00', 'Tue': '10:30:00-22:30:00', 'Wed': '10:30:00-22:30:00', 'Thur': '10:30:00-22:30:00', 'Fri': '10:30:00-23:00:00', 'Sat': '10:30:00-23:00:00', 'Sun': '11:00:00-22:30:00'}}",381870514,,1824,,https://subwayfrance.fr/restaurants/Besancon CV
7 Chemin Prabey,Subway,Besancon,France,"{'brand': 'Subway', 'fascia': 'Subway', 'category': 'Restaurant', 'edit_date': '2025-03-17', 'lat_lon_source': 'website'}",47.271191,6.02832,Besancon Château Farine,"{'opening_hour': {'Mon': '10:30:00-22:00:00', 'Tue': '10:30:00-22:00:00', 'Wed': '10:30:00-22:00:00', 'Thur': '10:30:00-22:00:00', 'Fri': '10:30:00-22:30:00', 'Sat': '10:30:00-22:30:00', 'Sun': '11:00:00-22:00:00'}}",381411986,,1825,,https://subwayfrance.fr/restaurants/Besancon Château Farine
1 Rue de La Poste,Subway,Ecole Valentin,France,"{'brand': 'Subway', 'fascia': 'Subway', 'category': 'Restaurant', 'edit_date': '2025-03-17', 'lat_lon_source': 'website'}",47.278244,5.994403,Besancon Ecole valentin,"{'opening_hour': {'Mon': '09:30:00-23:00:00', 'Tue': '09:30:00-23:00:00', 'Wed': '09:30:00-23:00:00', 'Thur': '09:30:00-23:00:00', 'Fri': '09:30:00-23:00:00', 'Sat': '09:30:00-23:00:00', 'Sun': '09:30:00-23:00:00'}}",381805035,,1826,,https://subwayfrance.fr/restaurants/Besancon Ecole valentin
13 Rue Paul Langevin,Subway,Chenove,France,"{'brand': 'Subway', 'fascia': 'Subway', 'category': 'Restaurant', 'edit_date': '2025-03-17', 'lat_lon_source': 'website'}",47.282686,5.014804,Chenove,"{'opening_hour': {'Mon': '10:00:00-22:00:00', 'Tue': '10:00:00-22:00:00', 'Wed': '10:00:00-22:00:00', 'Thur': '10:00:00-22:00:00', 'Fri': '10:00:00-22:00:00', 'Sat': '10:00:00-22:00:00', 'Sun': '11:00:00-22:00:00'}}",380417763,,1827,,https://subwayfrance.fr/restaurants/Chenove
17 Rue de Pologne,Subway,Le Creusot,France,"{'brand': 'Subway', 'fascia': 'Subway', 'category': 'Restaurant', 'edit_date': '2025-03-17', 'lat_lon_source': 'website'}",46.792572,4.44632,Le Creusot,"{'opening_hour': {'Mon': '10:00:00-22:00:00', 'Tue': '10:00:00-22:00:00', 'Wed': '10:00:00-22:00:00', 'Thur': '10:00:00-22:00:00', 'Fri': '10:00:00-22:00:00', 'Sat': '10:00:00-22:00:00', 'Sun': '11:00:00-22:00:00'}}",982455710,,1828,,https://subwayfrance.fr/restaurants/Le Creusot
17 Avenue Foch,Subway,Dijon,France,"{'brand': 'Subway', 'fascia': 'Subway', 'category': 'Restaurant', 'edit_date': '2025-03-17', 'lat_lon_source': 'website'}",47.323341,5.029623,Dijon Gare,"{'opening_hour': {'Mon': '08:00:00-22:00:00', 'Tue': '08:00:00-22:00:00', 'Wed': '08:00:00-22:00:00', 'Thur': '08:00:00-22:00:00', 'Fri': '08:00:00-22:00:00', 'Sat': '11:00:00-22:00:00', 'Sun': '10:00:00-22:00:00'}}",380735982,,1829,,https://subwayfrance.fr/restaurants/Dijon Gare
12 Rue Marc Verdier,Subway,Pont Sainte Marie,France,"{'brand': 'Subway', 'fascia': 'Subway', 'category': 'Restaurant', 'edit_date': '2025-03-17', 'lat_lon_source': 'website'}",48.326477,4.107422,Pont Saint Marie,"{'opening_hour': {'Mon': '10:00:00-20:30:00', 'Tue': '10:00:00-20:30:00', 'Wed': '10:00:00-20:30:00', 'Thur': '10:00:00-20:30:00', 'Fri': '10:00:00-20:30:00', 'Sat': '10:00:00-20:30:00', 'Sun': '10:00:00-15:00:00'}}",325706403,,1830,,https://subwayfrance.fr/restaurants/Pont Saint Marie
33 Rue de La Liberation,Subway,Pontarlier,France,"{'brand': 'Subway', 'fascia': 'Subway', 'category': 'Restaurant', 'edit_date': '2025-03-17', 'lat_lon_source': 'website'}",46.908914,6.339783,Pontarlier,"{'opening_hour': {'Mon': '09:00:00-22:00:00', 'Tue': '09:00:00-22:00:00', 'Wed': '09:00:00-22:00:00', 'Thur': '09:00:00-22:00:00', 'Fri': '09:00:00-23:00:00', 'Sat': '09:00:00-23:00:00', 'Sun': '10:00:00-22:00:00'}}",381398748,,1831,,https://subwayfrance.fr/restaurants/Pontarlier
Centre Commercial Auchan,Subway,Sens,France,"{'brand': 'Subway', 'fascia': 'Subway', 'category': 'Restaurant', 'edit_date': '2025-03-17', 'lat_lon_source': 'website'}",48.171711,3.287888,Sens,"{'opening_hour': {'Mon': '11:00:00-21:00:00', 'Tue': '11:00:00-21:00:00', 'Wed': '11:00:00-21:00:00', 'Thur': '11:00:00-21:00:00', 'Fri': '11:00:00-21:00:00', 'Sat': '11:00:00-21:00:00', 'Sun': 'None-None'}}",386889967,,1832,,https://subwayfrance.fr/restaurants/Sens
42 Rue Georges Clemenceau,Subway,Troyes,France,"{'brand': 'Subway', 'fascia': 'Subway', 'category': 'Restaurant', 'edit_date': '2025-03-17', 'lat_lon_source': 'website'}",48.298325,4.075972,Troyes,"{'opening_hour': {'Mon': '10:00:00-23:00:00', 'Tue': '10:00:00-23:00:00', 'Wed': '10:00:00-23:00:00', 'Thur': '10:00:00-23:00:00', 'Fri': '10:00:00-23:00:00', 'Sat': '10:00:00-23:00:00', 'Sun': '10:00:00-23:00:00'}}",325703926,,1833,,https://subwayfrance.fr/restaurants/Troyes
Centre Commercial Le Clos,Subway,Varennes Les Macon,France,"{'brand': 'Subway', 'fascia': 'Subway', 'category': 'Restaurant', 'edit_date': '2025-03-17', 'lat_lon_source': 'website'}",46.271913,4.800239,Varennes les macons,"{'opening_hour': {'Mon': '09:30:00-21:30:00', 'Tue': '09:30:00-21:30:00', 'Wed': '09:00:00-21:30:00', 'Thur': '09:30:00-21:30:00', 'Fri': '09:30:00-22:00:00', 'Sat': '09:00:00-22:00:00', 'Sun': '11:00:00-21:30:00'}}",385389429,,1834,,https://subwayfrance.fr/restaurants/Varennes les macons
81 Boulevard de Dijon,Subway,Saint-Julien-Les-Villas,France,"{'brand': 'Subway', 'fascia': 'Subway', 'category': 'Restaurant', 'edit_date': '2025-03-17', 'lat_lon_source': 'website'}",48.274734,4.084232,Saint Julien Les Villas,"{'opening_hour': {'Mon': '10:00:00-22:30:00', 'Tue': '10:00:00-22:30:00', 'Wed': '10:00:00-22:30:00', 'Thur': '10:00:00-22:30:00', 'Fri': '10:00:00-22:30:00', 'Sat': '10:00:00-22:30:00', 'Sun': 'None-None'}}",325456152,,1835,,https://subwayfrance.fr/restaurants/Saint Julien Les Villas
7 Rue Du Docteur Courvoisier,Subway,Vesoul,France,"{'brand': 'Subway', 'fascia': 'Subway', 'category': 'Restaurant', 'edit_date': '2025-03-17', 'lat_lon_source': 'website'}",47.631927,6.141094,Vesoul,"{'opening_hour': {'Mon': '10:30:00-22:30:00', 'Tue': '10:30:00-22:30:00', 'Wed': '10:30:00-22:30:00', 'Thur': '10:30:00-22:30:00', 'Fri': '10:30:00-23:00:00', 'Sat': '10:30:00-23:00:00', 'Sun': '11:00:00-22:30:00'}}",384762979,,1836,,https://subwayfrance.fr/restaurants/Vesoul
3 Avenue de L'Europe,Subway,Bois Colombes,France,"{'brand': 'Subway', 'fascia': 'Subway', 'category': 'Restaurant', 'edit_date': '2025-03-17', 'lat_lon_source': 'website'}",48.907194,2.265387,Bois Colombes,"{'opening_hour': {'Mon': '10:30:00-21:30:00', 'Tue': '10:30:00-21:30:00', 'Wed': '10:30:00-21:30:00', 'Thur': '10:30:00-21:30:00', 'Fri': '10:30:00-21:30:00', 'Sat': '11:00:00-21:30:00', 'Sun': '11:00:00-21:30:00'}}",984287141,,1838,,https://subwayfrance.fr/restaurants/Bois Colombes
Centre Commercial Carrefour,Subway,Chambourcy,France,"{'brand': 'Subway', 'fascia': 'Subway', 'category': 'Restaurant', 'edit_date': '2025-03-17', 'lat_lon_source': 'website'}",48.91012,2.03247,Chambourcy,"{'opening_hour': {'Mon': '08:00:00-22:00:00', 'Tue': '08:00:00-22:00:00', 'Wed': '08:00:00-22:00:00', 'Thur': '08:00:00-22:00:00', 'Fri': '08:00:00-22:00:00', 'Sat': '08:00:00-22:00:00', 'Sun': '10:00:00-13:00:00'}}",139725590,,1839,,https://subwayfrance.fr/restaurants/Chambourcy
6 Pl. de l'Europe,Subway,Charenton-Le-Pont,France,"{'brand': 'Subway', 'fascia': 'Subway', 'category': 'Restaurant', 'edit_date': '2025-03-17', 'lat_lon_source': 'website'}",48.825448,2.394522,Charenton Le Pont,"{'opening_hour': {'Mon': '10:30:00-21:00:00', 'Tue': '10:30:00-21:00:00', 'Wed': '10:30:00-21:00:00', 'Thur': '10:30:00-21:00:00', 'Fri': '10:30:00-21:30:00', 'Sat': '10:30:00-21:00:00', 'Sun': 'None-None'}}",143788805,,1840,,https://subwayfrance.fr/restaurants/Charenton Le Pont
64 Ave. Du Gendarme Castermant,Subway,Chelles,France,"{'brand': 'Subway', 'fascia': 'Subway', 'category': 'Restaurant', 'edit_date': '2025-03-17', 'lat_lon_source': 'website'}",48.87764,2.613897,Chelles,"{'opening_hour': {'Mon': 'None-None', 'Tue': 'None-None', 'Wed': 'None-None', 'Thur': 'None-None', 'Fri': 'None-None', 'Sat': 'None-None', 'Sun': 'None-None'}}",967395820,,1841,,https://subwayfrance.fr/restaurants/Chelles
C.Commercial de Pince Vent,Subway,Chennevieres Sur Marne,France,"{'brand': 'Subway', 'fascia': 'Subway', 'category': 'Restaurant', 'edit_date': '2025-03-17', 'lat_lon_source': 'website'}",48.792238,2.555575,Chennevieres Sur Marne,"{'opening_hour': {'Mon': '10:30:00-21:30:00', 'Tue': '10:30:00-21:30:00', 'Wed': '10:30:00-21:30:00', 'Thur': '10:30:00-21:30:00', 'Fri': '10:30:00-21:30:00', 'Sat': '10:30:00-21:30:00', 'Sun': 'None-None'}}",145934239,,1842,,https://subwayfrance.fr/restaurants/Chennevieres Sur Marne
C.Cial Les Sentiers de Claye,Subway,Claye Souilly,France,"{'brand': 'Subway', 'fascia': 'Subway', 'category': 'Restaurant', 'edit_date': '2025-03-17', 'lat_lon_source': 'website'}",48.946062,2.665265,Claye Souilly,"{'opening_hour': {'Mon': '10:00:00-20:30:00', 'Tue': '10:00:00-20:30:00', 'Wed': '10:00:00-20:30:00', 'Thur': '10:00:00-20:30:00', 'Fri': '10:00:00-20:30:00', 'Sat': '10:00:00-21:30:00', 'Sun': 'None-None'}}",160272554,,1843,,https://subwayfrance.fr/restaurants/Claye Souilly
Bp - 64 Bd Charles de Gaulle,Subway,Colombes,France,"{'brand': 'Subway', 'fascia': 'Subway', 'category': 'Restaurant', 'edit_date': '2025-03-17', 'lat_lon_source': 'website'}",48.910972,2.234666,Colombes,"{'opening_hour': {'Mon': '10:00:00-22:30:00', 'Tue': '10:00:00-22:30:00', 'Wed': '10:00:00-22:30:00', 'Thur': '10:00:00-22:30:00', 'Fri': '10:00:00-22:30:00', 'Sat': '10:00:00-22:30:00', 'Sun': '10:00:00-22:30:00'}}",173259300,,1844,,https://subwayfrance.fr/restaurants/Colombes
47 Bis Rue de Bezons,Subway,Courbevoie,France,"{'brand': 'Subway', 'fascia': 'Subway', 'category': 'Restaurant', 'edit_date': '2025-03-17', 'lat_lon_source': 'website'}",48.895797,2.248773,Courbevoie,"{'opening_hour': {'Mon': '10:00:00-23:59:00', 'Tue': '10:00:00-23:59:00', 'Wed': '10:00:00-23:59:00', 'Thur': '10:00:00-23:59:00', 'Fri': '10:00:00-23:59:00', 'Sat': '11:00:00-23:59:00', 'Sun': '11:00:00-23:59:00'}}",143332053,,1845,,https://subwayfrance.fr/restaurants/Courbevoie
CCR Creteil Soleil,Subway,Creteil,France,"{'brand': 'Subway', 'fascia': 'Subway', 'category': 'Restaurant', 'edit_date': '2025-03-17', 'lat_lon_source': 'website'}",48.779917,2.456911,Creteil,"{'opening_hour': {'Mon': '11:00:00-22:00:00', 'Tue': '11:00:00-22:00:00', 'Wed': '11:00:00-22:00:00', 'Thur': '11:00:00-22:00:00', 'Fri': '11:00:00-22:00:00', 'Sat': '11:00:00-22:00:00', 'Sun': '11:00:00-21:00:00'}}",143995411,,1846,,https://subwayfrance.fr/restaurants/Creteil
120 Rue Grande,Subway,Fontainebleau,France,"{'brand': 'Subway', 'fascia': 'Subway', 'category': 'Restaurant', 'edit_date': '2025-03-17', 'lat_lon_source': 'website'}",48.406965,2.703217,Fontainebleau,"{'opening_hour': {'Mon': 'None-None', 'Tue': 'None-None', 'Wed': 'None-None', 'Thur': 'None-None', 'Fri': 'None-None', 'Sat': 'None-None', 'Sun': 'None-None'}}",984136364,,1847,,https://subwayfrance.fr/restaurants/Fontainebleau
12 Rue de la Mare À Guillaume,Subway,Fontenay-Sous-Bois,France,"{'brand': 'Subway', 'fascia': 'Subway', 'category': 'Restaurant', 'edit_date': '2025-03-17', 'lat_lon_source': 'website'}",48.854724,2.486732,Fontenay sous Bois,"{'opening_hour': {'Mon': '11:00:00-22:00:00', 'Tue': '11:00:00-22:00:00', 'Wed': '11:00:00-22:00:00', 'Thur': '11:00:00-22:00:00', 'Fri': '11:00:00-22:00:00', 'Sat': '11:00:00-22:00:00', 'Sun': '12:30:00-22:00:00'}}",148867242,,1848,,https://subwayfrance.fr/restaurants/Fontenay sous Bois
Parc La Cerisaie,Subway,Fresnes,France,"{'brand': 'Subway', 'fascia': 'Subway', 'category': 'Restaurant', 'edit_date': '2025-03-17', 'lat_lon_source': 'website'}",48.754736,2.329835,Fresnes,"{'opening_hour': {'Mon': '09:30:00-21:30:00', 'Tue': '09:30:00-21:30:00', 'Wed': '09:30:00-21:30:00', 'Thur': '09:30:00-21:30:00', 'Fri': '09:30:00-22:30:00', 'Sat': '09:30:00-22:30:00', 'Sun': '09:30:00-22:30:00'}}",146680992,,1849,,https://subwayfrance.fr/restaurants/Fresnes
35 Rue Camille Desmoulins,Subway,Issy-Les-Moulineaux,France,"{'brand': 'Subway', 'fascia': 'Subway', 'category': 'Restaurant', 'edit_date': '2025-03-17', 'lat_lon_source': 'website'}",48.828848,2.263605,Issy-les-Moulineaux,"{'opening_hour': {'Mon': '09:00:00-22:15:00', 'Tue': '09:00:00-22:15:00', 'Wed': '09:00:00-22:15:00', 'Thur': '09:00:00-22:15:00', 'Fri': '09:00:00-22:15:00', 'Sat': '11:00:00-22:15:00', 'Sun': '11:00:00-22:15:00'}}",967196540,,1850,,https://subwayfrance.fr/restaurants/Issy-les-Moulineaux
55-69 Avenue de Fontainebleau,Subway,Le Kremlin-Bicetre,France,"{'brand': 'Subway', 'fascia': 'Subway', 'category': 'Restaurant', 'edit_date': '2025-03-17', 'lat_lon_source': 'website'}",48.8114,2.362245,Le Kremlin-Bicetre,"{'opening_hour': {'Mon': '10:30:00-21:30:00', 'Tue': '10:30:00-21:30:00', 'Wed': '10:00:00-21:30:00', 'Thur': '10:30:00-21:30:00', 'Fri': '10:30:00-21:30:00', 'Sat': '10:30:00-21:30:00', 'Sun': '10:30:00-21:30:00'}}",158463563,,1851,,https://subwayfrance.fr/restaurants/Le Kremlin-Bicetre
Centre Commercial Alpha Park,Subway,Les Clayes Sous Bois,France,"{'brand': 'Subway', 'fascia': 'Subway', 'category': 'Restaurant', 'edit_date': '2025-03-17', 'lat_lon_source': 'website'}",48.828961,1.971031,Les Clayes Sous Bois,"{'opening_hour': {'Mon': '09:00:00-22:00:00', 'Tue': '09:00:00-22:00:00', 'Wed': '09:00:00-22:00:00', 'Thur': '09:00:00-22:00:00', 'Fri': '09:00:00-22:00:00', 'Sat': '09:00:00-22:00:00', 'Sun': '09:00:00-22:00:00'}}",967240972,,1852,,https://subwayfrance.fr/restaurants/Les Clayes Sous Bois
21 Rue Carnot,Subway,Levallois Perret,France,"{'brand': 'Subway', 'fascia': 'Subway', 'category': 'Restaurant', 'edit_date': '2025-03-17', 'lat_lon_source': 'website'}",48.889797,2.288506,Levallois Carnot,"{'opening_hour': {'Mon': '10:00:00-22:00:00', 'Tue': '10:00:00-22:00:00', 'Wed': '10:00:00-22:00:00', 'Thur': '10:00:00-22:00:00', 'Fri': '10:00:00-22:00:00', 'Sat': '10:00:00-22:00:00', 'Sun': '10:00:00-22:00:00'}}",950816113,,1853,,https://subwayfrance.fr/restaurants/Levallois Carnot
43 Rue Georges Pompidou,Subway,Levallois Perret,France,"{'brand': 'Subway', 'fascia': 'Subway', 'category': 'Restaurant', 'edit_date': '2025-03-17', 'lat_lon_source': 'website'}",48.899281,2.282638,Levallois Pompidou,"{'opening_hour': {'Mon': '10:00:00-22:00:00', 'Tue': '10:00:00-22:00:00', 'Wed': '10:00:00-22:00:00', 'Thur': '10:00:00-22:00:00', 'Fri': '10:00:00-22:00:00', 'Sat': '10:00:00-22:00:00', 'Sun': '10:00:00-22:00:00'}}",157640037,,1854,,https://subwayfrance.fr/restaurants/Levallois Pompidou
Centre Commercial Les Saisons de Meaux,Subway,Chauconin-Neufmontiers,France,"{'brand': 'Subway', 'fascia': 'Subway', 'category': 'Restaurant', 'edit_date': '2025-03-17', 'lat_lon_source': 'website'}",48.954372,2.908615,Meaux,"{'opening_hour': {'Mon': '10:00:00-20:30:00', 'Tue': '10:00:00-20:30:00', 'Wed': '10:00:00-20:30:00', 'Thur': '10:00:00-20:30:00', 'Fri': '10:00:00-20:30:00', 'Sat': '10:00:00-20:30:00', 'Sun': 'None-None'}}",164330063,,1855,,https://subwayfrance.fr/restaurants/Meaux
7 Bis Rue Jean Cocteau,Subway,Mennecy,France,"{'brand': 'Subway', 'fascia': 'Subway', 'category': 'Restaurant', 'edit_date': '2025-03-17', 'lat_lon_source': 'website'}",48.566002,2.451757,Mennecy,"{'opening_hour': {'Mon': '08:00:00-23:00:00', 'Tue': '08:00:00-23:00:00', 'Wed': '08:00:00-23:00:00', 'Thur': '08:00:00-23:00:00', 'Fri': '08:00:00-23:00:00', 'Sat': '08:00:00-23:00:00', 'Sun': '08:00:00-23:00:00'}}",164980230,,1856,,https://subwayfrance.fr/restaurants/Mennecy
Cc Clos Du Chene 2,Subway,Montevrain,France,"{'brand': 'Subway', 'fascia': 'Subway', 'category': 'Restaurant', 'edit_date': '2025-03-17', 'lat_lon_source': 'website'}",48.853844,2.756213,Montevrain,"{'opening_hour': {'Mon': '10:00:00-21:30:00', 'Tue': '10:00:00-21:30:00', 'Wed': '10:00:00-22:00:00', 'Thur': '10:00:00-22:00:00', 'Fri': '10:00:00-22:00:00', 'Sat': '10:00:00-22:00:00', 'Sun': '10:00:00-21:30:00'}}",986608752,,1857,,https://subwayfrance.fr/restaurants/Montevrain
15 Terr. de l'Université,Subway,Nanterre,France,"{'brand': 'Subway', 'fascia': 'Subway', 'category': 'Restaurant', 'edit_date': '2025-03-17', 'lat_lon_source': 'website'}",48.899857,2.212419,Nanterre Université,"{'opening_hour': {'Mon': '10:00:00-21:00:00', 'Tue': '10:00:00-21:00:00', 'Wed': '10:00:00-21:00:00', 'Thur': '10:00:00-21:00:00', 'Fri': '10:00:00-21:00:00', 'Sat': '10:00:00-21:00:00', 'Sun': 'None-None'}}",147251446,,1858,,https://subwayfrance.fr/restaurants/Nanterre Université
61 Grand Rue Charles de Gaulle,Subway,Nogent Sur Marne,France,"{'brand': 'Subway', 'fascia': 'Subway', 'category': 'Restaurant', 'edit_date': '2025-03-17', 'lat_lon_source': 'website'}",48.836537,2.48141,Nogent sur marne,"{'opening_hour': {'Mon': '09:30:00-22:30:00', 'Tue': '09:30:00-22:30:00', 'Wed': '09:30:00-22:30:00', 'Thur': '09:30:00-22:30:00', 'Fri': '09:30:00-22:30:00', 'Sat': '09:30:00-22:30:00', 'Sun': '12:00:00-22:30:00'}}",148853809,,1859,,https://subwayfrance.fr/restaurants/Nogent sur marne
53 Rue de Pologne,Subway,Saint Germain En Laye,France,"{'brand': 'Subway', 'fascia': 'Subway', 'category': 'Restaurant', 'edit_date': '2025-03-17', 'lat_lon_source': 'website'}",48.897768,2.088732,Saint Germain en Laye,"{'opening_hour': {'Mon': 'None-None', 'Tue': 'None-None', 'Wed': 'None-None', 'Thur': 'None-None', 'Fri': 'None-None', 'Sat': 'None-None', 'Sun': 'None-None'}}",139736168,,1860,,https://subwayfrance.fr/restaurants/Saint Germain en Laye
7 Rue Du Pont de Creteil,Subway,Saint Maur Des Fosses,France,"{'brand': 'Subway', 'fascia': 'Subway', 'category': 'Restaurant', 'edit_date': '2025-03-17', 'lat_lon_source': 'website'}",48.809157,2.471341,Saint maur des fosses,"{'opening_hour': {'Mon': '09:30:00-22:00:00', 'Tue': '09:30:00-22:00:00', 'Wed': '09:30:00-22:00:00', 'Thur': '09:30:00-22:00:00', 'Fri': '09:30:00-22:00:00', 'Sat': '10:00:00-22:00:00', 'Sun': '12:00:00-22:00:00'}}",148832160,,1861,,https://subwayfrance.fr/restaurants/Saint maur des fosses
1 Rue des Mares,Subway,Sainte-Geneviève-Des-Bois,France,"{'brand': 'Subway', 'fascia': 'Subway', 'category': 'Restaurant', 'edit_date': '2025-03-17', 'lat_lon_source': 'website'}",48.624383,2.344171,Sainte Genevieve Des Bois,"{'opening_hour': {'Mon': '10:30:00-20:30:00', 'Tue': '10:30:00-20:30:00', 'Wed': '10:30:00-20:30:00', 'Thur': '10:30:00-20:30:00', 'Fri': '10:30:00-20:30:00', 'Sat': '10:30:00-20:30:00', 'Sun': '10:30:00-20:30:00'}}",160152262,,1862,,https://subwayfrance.fr/restaurants/Sainte Genevieve Des Bois
2 Bis Place de Toscane,Subway,Serris,France,"{'brand': 'Subway', 'fascia': 'Subway', 'category': 'Restaurant', 'edit_date': '2025-03-17', 'lat_lon_source': 'website'}",48.855894,2.785415,Serris,"{'opening_hour': {'Mon': '10:00:00-22:00:00', 'Tue': '10:00:00-22:00:00', 'Wed': '10:00:00-22:00:00', 'Thur': '10:00:00-22:00:00', 'Fri': '10:00:00-22:00:00', 'Sat': '10:00:00-22:00:00', 'Sun': '10:00:00-22:00:00'}}",160048266,,1863,,https://subwayfrance.fr/restaurants/Serris
20 Prom. du 7e Art,Subway,Torcy,France,"{'brand': 'Subway', 'fascia': 'Subway', 'category': 'Restaurant', 'edit_date': '2025-03-17', 'lat_lon_source': 'website'}",48.840762,2.654291,Torcy,"{'opening_hour': {'Mon': '10:30:00-23:00:00', 'Tue': '10:30:00-23:00:00', 'Wed': '10:30:00-23:00:00', 'Thur': '10:30:00-23:00:00', 'Fri': '10:30:00-23:00:00', 'Sat': '10:30:00-23:00:00', 'Sun': '10:30:00-23:00:00'}}",187077700,,1865,,https://subwayfrance.fr/restaurants/Torcy
35 Rue Du Marechal Foch,Subway,Versailles,France,"{'brand': 'Subway', 'fascia': 'Subway', 'category': 'Restaurant', 'edit_date': '2025-03-17', 'lat_lon_source': 'website'}",48.80793,2.132727,Versailles,"{'opening_hour': {'Mon': '08:00:00-16:00:00', 'Tue': '08:00:00-16:00:00', 'Wed': '08:00:00-16:00:00', 'Thur': '08:00:00-16:00:00', 'Fri': '08:00:00-16:00:00', 'Sat': '08:00:00-16:00:00', 'Sun': 'None-None'}}",139507366,,1866,,https://subwayfrance.fr/restaurants/Versailles
22 Bd Gallieni,Subway,Villeneuve-La-Garenne,France,"{'brand': 'Subway', 'fascia': 'Subway', 'category': 'Restaurant', 'edit_date': '2025-03-17', 'lat_lon_source': 'website'}",48.925254,2.326337,Villeneuve La Garenne,"{'opening_hour': {'Mon': '10:00:00-20:30:00', 'Tue': '10:00:00-20:30:00', 'Wed': '10:00:00-20:30:00', 'Thur': '10:00:00-20:30:00', 'Fri': '10:00:00-20:30:00', 'Sat': '10:00:00-20:30:00', 'Sun': '11:00:00-19:00:00'}}",147338328,,1867,,https://subwayfrance.fr/restaurants/Villeneuve La Garenne
2 Rue Michele Morgan,Subway,Bretigny Sur Orge,France,"{'brand': 'Subway', 'fascia': 'Subway', 'category': 'Restaurant', 'edit_date': '2025-03-17', 'lat_lon_source': 'website'}",48.58106,2.300103,Brétigny sur Orge,"{'opening_hour': {'Mon': '09:00:00-23:00:00', 'Tue': '09:00:00-23:00:00', 'Wed': '09:00:00-23:00:00', 'Thur': '09:00:00-23:00:00', 'Fri': '09:00:00-23:59:00', 'Sat': '09:00:00-23:59:00', 'Sun': '09:00:00-23:00:00'}}",160841447,,1868,,https://subwayfrance.fr/restaurants/Brétigny sur Orge
Zac Plaine Du Moulin A Vent,Subway,Cesson,France,"{'brand': 'Subway', 'fascia': 'Subway', 'category': 'Restaurant', 'edit_date': '2025-03-17', 'lat_lon_source': 'website'}",48.581455,2.605212,Cesson,"{'opening_hour': {'Mon': '10:30:00-22:00:00', 'Tue': '10:30:00-22:00:00', 'Wed': '10:30:00-22:00:00', 'Thur': '10:30:00-22:00:00', 'Fri': '10:30:00-22:30:00', 'Sat': '10:30:00-22:30:00', 'Sun': '10:30:00-22:00:00'}}",164195604,,1869,,https://subwayfrance.fr/restaurants/Cesson
5 Rue Andre Morizet,Subway,Boulogne Billancourt,France,"{'brand': 'Subway', 'fascia': 'Subway', 'category': 'Restaurant', 'edit_date': '2025-03-17', 'lat_lon_source': 'website'}",48.833994,2.242784,Boulogne Billancourt,"{'opening_hour': {'Mon': '10:00:00-23:30:00', 'Tue': '10:00:00-23:30:00', 'Wed': '10:00:00-23:30:00', 'Thur': '09:00:00-23:15:00', 'Fri': '09:00:00-23:15:00', 'Sat': '09:00:00-23:15:00', 'Sun': '10:00:00-23:30:00'}}",609430911,,1870,,https://subwayfrance.fr/restaurants/Boulogne Billancourt
48 Avenue Du Centre,Subway,Montigny Le Bretonneux,France,"{'brand': 'Subway', 'fascia': 'Subway', 'category': 'Restaurant', 'edit_date': '2025-03-17', 'lat_lon_source': 'website'}",48.784513,2.044004,Montigny le Bretoneux,"{'opening_hour': {'Mon': 'None-None', 'Tue': 'None-None', 'Wed': 'None-None', 'Thur': 'None-None', 'Fri': 'None-None', 'Sat': 'None-None', 'Sun': 'None-None'}}",800907785,,1871,,https://subwayfrance.fr/restaurants/Montigny le Bretoneux
6 Rue des Bourets,Subway,Suresnes,France,"{'brand': 'Subway', 'fascia': 'Subway', 'category': 'Restaurant', 'edit_date': '2025-03-17', 'lat_lon_source': 'website'}",48.868515,2.227562,Suresnes,"{'opening_hour': {'Mon': '00:00:00-23:59:00', 'Tue': '00:00:00-23:59:00', 'Wed': '00:00:00-23:59:00', 'Thur': '00:00:00-23:59:00', 'Fri': '00:00:00-23:59:00', 'Sat': '00:00:00-23:59:00', 'Sun': '00:00:00-23:59:00'}}",950837887,,1872,,https://subwayfrance.fr/restaurants/Suresnes
4 Rue de La Station,Subway,Asnieres Sur Seine,France,"{'brand': 'Subway', 'fascia': 'Subway', 'category': 'Restaurant', 'edit_date': '2025-03-17', 'lat_lon_source': 'website'}",48.906636,2.284989,Asnières,"{'opening_hour': {'Mon': '10:00:00-22:30:00', 'Tue': '10:00:00-22:30:00', 'Wed': '10:00:00-22:30:00', 'Thur': '10:00:00-22:30:00', 'Fri': '10:00:00-23:00:00', 'Sat': '10:00:00-23:00:00', 'Sun': '10:00:00-22:30:00'}}",967079316,,1873,,https://subwayfrance.fr/restaurants/Asnières
52 Rue Raymond Aron,Subway,Massy,France,"{'brand': 'Subway', 'fascia': 'Subway', 'category': 'Restaurant', 'edit_date': '2025-03-17', 'lat_lon_source': 'website'}",48.725786,2.256238,Massy,"{'opening_hour': {'Mon': '09:30:00-22:30:00', 'Tue': '09:30:00-22:30:00', 'Wed': '09:30:00-22:30:00', 'Thur': '09:30:00-22:30:00', 'Fri': '09:30:00-22:30:00', 'Sat': '09:30:00-22:30:00', 'Sun': '09:30:00-22:30:00'}}",160121895,,1874,,https://subwayfrance.fr/restaurants/Massy
"Belle Epine, Avenue Du",Subway,Thiais,France,"{'brand': 'Subway', 'fascia': 'Subway', 'category': 'Restaurant', 'edit_date': '2025-03-17', 'lat_lon_source': 'website'}",48.759327,2.372302,Thiais Belle Epine,"{'opening_hour': {'Mon': '10:00:00-23:00:00', 'Tue': '10:00:00-23:00:00', 'Wed': '10:00:00-23:00:00', 'Thur': '10:00:00-23:00:00', 'Fri': '10:00:00-23:59:00', 'Sat': '10:00:00-23:59:00', 'Sun': '10:00:00-23:00:00'}}",800907785,,1875,,https://subwayfrance.fr/restaurants/Thiais Belle Epine
7 Place Francois Mitterrand,Subway,Angers,France,"{'brand': 'Subway', 'fascia': 'Subway', 'category': 'Restaurant', 'edit_date': '2025-03-17', 'lat_lon_source': 'website'}",47.47693,-0.550269,Angers Mitterrand,"{'opening_hour': {'Mon': '09:00:00-22:30:00', 'Tue': '09:00:00-22:30:00', 'Wed': '09:00:00-22:30:00', 'Thur': '09:00:00-22:30:00', 'Fri': '09:00:00-22:30:00', 'Sat': '09:00:00-22:30:00', 'Sun': '10:30:00-22:30:00'}}",241394007,,1876,,https://subwayfrance.fr/restaurants/Angers Mitterrand
20 Bis Rue D'Alsace,Subway,Angers,France,"{'brand': 'Subway', 'fascia': 'Subway', 'category': 'Restaurant', 'edit_date': '2025-03-17', 'lat_lon_source': 'website'}",47.469668,-0.549637,Angers Alsace,"{'opening_hour': {'Mon': '11:00:00-22:30:00', 'Tue': '11:00:00-22:30:00', 'Wed': '11:00:00-22:30:00', 'Thur': '11:00:00-23:30:00', 'Fri': '11:00:00-23:30:00', 'Sat': '11:00:00-23:30:00', 'Sun': 'None-None'}}",983052390,,1877,,https://subwayfrance.fr/restaurants/Angers Alsace
3 Place Mondain Chalouineau,Subway,Angers,France,"{'brand': 'Subway', 'fascia': 'Subway', 'category': 'Restaurant', 'edit_date': '2025-03-17', 'lat_lon_source': 'website'}",47.471454,-0.553905,Angers Fleur d\'eau,"{'opening_hour': {'Mon': '11:00:00-22:00:00', 'Tue': '11:00:00-22:00:00', 'Wed': '11:00:00-23:00:00', 'Thur': '11:00:00-23:00:00', 'Fri': '11:00:00-23:00:00', 'Sat': '11:00:00-23:00:00', 'Sun': '12:00:00-23:00:00'}}",983288425,,1878,,https://subwayfrance.fr/restaurants/Angers Fleur d\'eau
Boulevard Victor Beaussier,Subway,Angers,France,"{'brand': 'Subway', 'fascia': 'Subway', 'category': 'Restaurant', 'edit_date': '2025-03-17', 'lat_lon_source': 'website'}",47.475133,-0.59949,Angers Belle Beille,"{'opening_hour': {'Mon': '11:00:00-22:00:00', 'Tue': '11:00:00-22:00:00', 'Wed': '11:00:00-22:00:00', 'Thur': '11:00:00-22:00:00', 'Fri': '11:00:00-22:00:00', 'Sat': '11:00:00-22:00:00', 'Sun': 'None-None'}}",983779372,,1879,,https://subwayfrance.fr/restaurants/Angers Belle Beille
Centre Commercial Atoll,Subway,Beaucouze,France,"{'brand': 'Subway', 'fascia': 'Subway', 'category': 'Restaurant', 'edit_date': '2025-03-17', 'lat_lon_source': 'website'}",47.484686,-0.626454,Angers - Beaucouzé,"{'opening_hour': {'Mon': '10:30:00-21:00:00', 'Tue': '10:30:00-21:00:00', 'Wed': '10:30:00-21:00:00', 'Thur': '10:30:00-21:00:00', 'Fri': '10:30:00-21:30:00', 'Sat': '10:30:00-21:30:00', 'Sun': '12:30:00-21:00:00'}}",241771693,,1880,,https://subwayfrance.fr/restaurants/Angers - Beaucouzé
16 Place de La Liberte,Subway,Brest,France,"{'brand': 'Subway', 'fascia': 'Subway', 'category': 'Restaurant', 'edit_date': '2025-03-17', 'lat_lon_source': 'website'}",48.390792,-4.486431,Brest Liberté,"{'opening_hour': {'Mon': 'None-None', 'Tue': 'None-None', 'Wed': 'None-None', 'Thur': 'None-None', 'Fri': 'None-None', 'Sat': 'None-None', 'Sun': 'None-None'}}",298465202,,1881,,https://subwayfrance.fr/restaurants/Brest Liberté
8 Rue de Nantes,Subway,Brest,France,"{'brand': 'Subway', 'fascia': 'Subway', 'category': 'Restaurant', 'edit_date': '2025-03-17', 'lat_lon_source': 'website'}",48.40098,-4.499158,Brest rue de Nantes,"{'opening_hour': {'Mon': '11:00:00-21:00:00', 'Tue': '11:00:00-21:00:00', 'Wed': '11:00:00-21:00:00', 'Thur': '11:00:00-21:00:00', 'Fri': '11:00:00-21:00:00', 'Sat': '11:00:00-18:30:00', 'Sun': '16:00:00-21:00:00'}}",298419830,,1882,,https://subwayfrance.fr/restaurants/Brest rue de Nantes
59 Rue Amiral Desfosses,Subway,Brest,France,"{'brand': 'Subway', 'fascia': 'Subway', 'category': 'Restaurant', 'edit_date': '2025-03-17', 'lat_lon_source': 'website'}",48.427523,-4.470819,Brest Kergaradec,"{'opening_hour': {'Mon': '08:00:00-22:00:00', 'Tue': '08:00:00-22:00:00', 'Wed': '08:00:00-22:00:00', 'Thur': '08:00:00-22:00:00', 'Fri': '08:00:00-22:30:00', 'Sat': '08:00:00-22:30:00', 'Sun': '09:00:00-22:00:00'}}",221096003,,1883,,https://subwayfrance.fr/restaurants/Brest Kergaradec
10 Rue de Strasbourg,Subway,Caen,France,"{'brand': 'Subway', 'fascia': 'Subway', 'category': 'Restaurant', 'edit_date': '2025-03-17', 'lat_lon_source': 'website'}",49.182551,-0.363996,Caen CV,"{'opening_hour': {'Mon': '09:00:00-22:00:00', 'Tue': '09:00:00-22:00:00', 'Wed': '09:00:00-22:00:00', 'Thur': '09:00:00-22:00:00', 'Fri': '09:00:00-22:00:00', 'Sat': '09:00:00-22:00:00', 'Sun': '11:30:00-22:00:00'}}",231856291,,1884,,https://subwayfrance.fr/restaurants/Caen CV
Contour Antoine de St Exupéry,Subway,Bruz,France,"{'brand': 'Subway', 'fascia': 'Subway', 'category': 'Restaurant', 'edit_date': '2025-03-17', 'lat_lon_source': 'website'}",48.043949,-1.740115,Bruz,"{'opening_hour': {'Mon': '08:00:00-22:00:00', 'Tue': '08:00:00-22:00:00', 'Wed': '08:00:00-22:00:00', 'Thur': '08:00:00-22:00:00', 'Fri': '08:00:00-22:00:00', 'Sat': '11:00:00-22:00:00', 'Sun': '11:00:00-22:00:00'}}",223449487,,1885,,https://subwayfrance.fr/restaurants/Bruz
Cc Quartier Les Rives Del'Orne,Subway,Caen,France,"{'brand': 'Subway', 'fascia': 'Subway', 'category': 'Restaurant', 'edit_date': '2025-03-17', 'lat_lon_source': 'website'}",49.178699,-0.350408,Caen Rives de L\'ornes,"{'opening_hour': {'Mon': '10:00:00-22:00:00', 'Tue': '10:00:00-22:00:00', 'Wed': '10:00:00-22:00:00', 'Thur': '10:00:00-22:00:00', 'Fri': '10:00:00-23:00:00', 'Sat': '10:00:00-23:00:00', 'Sun': '10:00:00-22:00:00'}}",983589316,,1886,,https://subwayfrance.fr/restaurants/Caen Rives de L\'ornes
53 Route des Sables,Subway,Challans,France,"{'brand': 'Subway', 'fascia': 'Subway', 'category': 'Restaurant', 'edit_date': '2025-03-17', 'lat_lon_source': 'website'}",46.66288,-1.458996,Challans,"{'opening_hour': {'Mon': '09:00:00-22:00:00', 'Tue': '09:00:00-22:00:00', 'Wed': '09:00:00-22:00:00', 'Thur': '09:00:00-22:00:00', 'Fri': '09:00:00-23:00:00', 'Sat': '09:00:00-23:00:00', 'Sun': '11:00:00-22:00:00'}}",251540168,,1887,,https://subwayfrance.fr/restaurants/Challans
Les Arcades Rouges,Subway,Cholet,France,"{'brand': 'Subway', 'fascia': 'Subway', 'category': 'Restaurant', 'edit_date': '2025-03-17', 'lat_lon_source': 'website'}",47.061174,-0.88315,Cholet Les Arcades,"{'opening_hour': {'Mon': '09:00:00-21:30:00', 'Tue': '09:00:00-22:00:00', 'Wed': '09:00:00-22:00:00', 'Thur': '09:00:00-22:00:00', 'Fri': '09:00:00-23:00:00', 'Sat': '09:00:00-23:00:00', 'Sun': '11:00:00-22:00:00'}}",241620513,,1889,,https://subwayfrance.fr/restaurants/Cholet Les Arcades
5 Rue de La Republique,Subway,Fontenay Le Comte,France,"{'brand': 'Subway', 'fascia': 'Subway', 'category': 'Restaurant', 'edit_date': '2025-03-17', 'lat_lon_source': 'website'}",46.681057,-1.428769,Fontenay le Comte,"{'opening_hour': {'Mon': '10:30:00-21:30:00', 'Tue': '10:30:00-21:30:00', 'Wed': '10:30:00-21:30:00', 'Thur': '10:30:00-21:30:00', 'Fri': '10:30:00-22:00:00', 'Sat': '10:30:00-22:00:00', 'Sun': '11:30:00-21:30:00'}}",972439965,,1891,,https://subwayfrance.fr/restaurants/Fontenay le Comte
1 Cours Jonville,Subway,Granville,France,"{'brand': 'Subway', 'fascia': 'Subway', 'category': 'Restaurant', 'edit_date': '2025-03-17', 'lat_lon_source': 'website'}",48.838006,-1.597082,Granville,"{'opening_hour': {'Mon': '09:30:00-20:30:00', 'Tue': '09:30:00-20:30:00', 'Wed': '11:00:00-20:30:00', 'Thur': '09:30:00-20:30:00', 'Fri': '09:30:00-20:30:00', 'Sat': '08:00:00-20:30:00', 'Sun': '09:30:00-20:30:00'}}",982351667,,1892,,https://subwayfrance.fr/restaurants/Granville
11 Rue de la Pompe,Subway,Hérouville-Saint-Clair,France,"{'brand': 'Subway', 'fascia': 'Subway', 'category': 'Restaurant', 'edit_date': '2025-03-17', 'lat_lon_source': 'website'}",49.20841,-0.323051,Herouville - Saint Clair,"{'opening_hour': {'Mon': '09:00:00-21:00:00', 'Tue': '09:00:00-21:00:00', 'Wed': '09:00:00-21:00:00', 'Thur': '09:00:00-21:00:00', 'Fri': '09:00:00-21:00:00', 'Sat': '09:00:00-21:00:00', 'Sun': '12:00:00-21:00:00'}}",231541295,,1893,,https://subwayfrance.fr/restaurants/Herouville - Saint Clair
680 Rue de Falaise,Subway,Ifs,France,"{'brand': 'Subway', 'fascia': 'Subway', 'category': 'Restaurant', 'edit_date': '2025-03-17', 'lat_lon_source': 'website'}",49.147685,-0.340458,Ifs,"{'opening_hour': {'Mon': '10:00:00-22:00:00', 'Tue': '10:00:00-22:00:00', 'Wed': '10:00:00-22:00:00', 'Thur': '10:00:00-22:00:00', 'Fri': '10:00:00-22:00:00', 'Sat': '10:00:00-22:00:00', 'Sun': '10:00:00-22:00:00'}}",231342465,,1894,,https://subwayfrance.fr/restaurants/Ifs
8 Rue Carnot,Subway,La Ferte Bernard,France,"{'brand': 'Subway', 'fascia': 'Subway', 'category': 'Restaurant', 'edit_date': '2025-03-17', 'lat_lon_source': 'website'}",48.185742,0.653443,La Ferte Bernard,"{'opening_hour': {'Mon': '10:00:00-21:00:00', 'Tue': '10:00:00-21:00:00', 'Wed': '10:00:00-21:00:00', 'Thur': '10:00:00-21:00:00', 'Fri': '08:00:00-22:00:00', 'Sat': '10:00:00-22:00:00', 'Sun': '10:00:00-21:30:00'}}",243717455,,1895,,https://subwayfrance.fr/restaurants/La Ferte Bernard
40 Rue Baziniere,Subway,La Roche Sur Yon,France,"{'brand': 'Subway', 'fascia': 'Subway', 'category': 'Restaurant', 'edit_date': '2025-03-17', 'lat_lon_source': 'website'}",46.695205,-1.431709,La Roche sur Yon Nord,"{'opening_hour': {'Mon': '09:00:00-22:00:00', 'Tue': '09:00:00-22:00:00', 'Wed': '09:00:00-22:00:00', 'Thur': '09:00:00-22:00:00', 'Fri': '09:00:00-22:30:00', 'Sat': '09:00:00-22:30:00', 'Sun': '11:00:00-22:30:00'}}",251378649,,1896,,https://subwayfrance.fr/restaurants/La Roche sur Yon Nord
Centre Commercial Sud Avenue,Subway,La Roche Sur Yon,France,"{'brand': 'Subway', 'fascia': 'Subway', 'category': 'Restaurant', 'edit_date': '2025-03-17', 'lat_lon_source': 'website'}",46.645105,-1.435712,La Roche sur Yon Sud,"{'opening_hour': {'Mon': '09:00:00-22:00:00', 'Tue': '09:00:00-22:00:00', 'Wed': '09:00:00-22:00:00', 'Thur': '09:00:00-22:00:00', 'Fri': '09:00:00-22:30:00', 'Sat': '09:00:00-22:30:00', 'Sun': '11:00:00-22:30:00'}}",251489821,,1897,,https://subwayfrance.fr/restaurants/La Roche sur Yon Sud
6 Rue Du Val De Mayenne,Subway,Laval,France,"{'brand': 'Subway', 'fascia': 'Subway', 'category': 'Restaurant', 'edit_date': '2025-03-17', 'lat_lon_source': 'website'}",48.070434,-0.772822,Laval,"{'opening_hour': {'Mon': '11:00:00-22:00:00', 'Tue': '10:30:00-22:00:00', 'Wed': '10:30:00-22:00:00', 'Thur': '10:30:00-23:00:00', 'Fri': '10:30:00-23:00:00', 'Sat': '10:30:00-23:00:00', 'Sun': '17:30:00-22:00:00'}}",243565160,,1899,,https://subwayfrance.fr/restaurants/Laval
9 Place Roosevelt,Subway,Le Mans,France,"{'brand': 'Subway', 'fascia': 'Subway', 'category': 'Restaurant', 'edit_date': '2025-03-17', 'lat_lon_source': 'website'}",48.001239,0.197319,Le Mans,"{'opening_hour': {'Mon': '11:00:00-21:30:00', 'Tue': '11:00:00-21:30:00', 'Wed': '11:00:00-21:30:00', 'Thur': '11:00:00-21:30:00', 'Fri': '11:00:00-22:00:00', 'Sat': '11:00:00-22:00:00', 'Sun': '12:00:00-21:30:00'}}",983293548,,1900,,https://subwayfrance.fr/restaurants/Le Mans
Avenue des Chauvieres,Subway,Les Herbiers,France,"{'brand': 'Subway', 'fascia': 'Subway', 'category': 'Restaurant', 'edit_date': '2025-03-17', 'lat_lon_source': 'website'}",46.852017,-1.01722,Les Herbiers,"{'opening_hour': {'Mon': '09:00:00-22:00:00', 'Tue': '09:00:00-22:00:00', 'Wed': '09:00:00-22:00:00', 'Thur': '09:00:00-22:00:00', 'Fri': '09:00:00-23:00:00', 'Sat': '09:00:00-23:00:00', 'Sun': '11:00:00-22:00:00'}}",244380174,,1901,,https://subwayfrance.fr/restaurants/Les Herbiers
48 Rue Henry Cheron,Subway,Lisieux,France,"{'brand': 'Subway', 'fascia': 'Subway', 'category': 'Restaurant', 'edit_date': '2025-03-17', 'lat_lon_source': 'website'}",49.146008,0.226383,Lisieux,"{'opening_hour': {'Mon': '07:30:00-22:00:00', 'Tue': '07:30:00-22:00:00', 'Wed': '07:30:00-22:00:00', 'Thur': '07:30:00-22:00:00', 'Fri': '07:30:00-22:00:00', 'Sat': '07:30:00-22:00:00', 'Sun': '10:00:00-22:00:00'}}",231614596,,1902,,https://subwayfrance.fr/restaurants/Lisieux
4 Avenue Du Faouedic,Subway,Lorient,France,"{'brand': 'Subway', 'fascia': 'Subway', 'category': 'Restaurant', 'edit_date': '2025-03-17', 'lat_lon_source': 'website'}",47.7483,-3.364793,Lorient,"{'opening_hour': {'Mon': '11:00:00-21:00:00', 'Tue': '11:00:00-21:00:00', 'Wed': '11:00:00-22:00:00', 'Thur': '11:00:00-22:00:00', 'Fri': '11:00:00-22:00:00', 'Sat': '11:00:00-22:00:00', 'Sun': '12:00:00-22:00:00'}}",290617342,,1903,,https://subwayfrance.fr/restaurants/Lorient
Zac Chateau Gaillard,Subway,Plechatel,France,"{'brand': 'Subway', 'fascia': 'Subway', 'category': 'Restaurant', 'edit_date': '2025-03-17', 'lat_lon_source': 'website'}",47.862237,-1.684326,Bain de Bretagne,"{'opening_hour': {'Mon': '09:00:00-21:00:00', 'Tue': '09:00:00-21:00:00', 'Wed': '09:00:00-21:00:00', 'Thur': '09:00:00-21:00:00', 'Fri': '09:00:00-21:30:00', 'Sat': '09:00:00-21:30:00', 'Sun': '12:00:00-21:00:00'}}",223082122,,1904,,https://subwayfrance.fr/restaurants/Bain de Bretagne
C.Cial Mondevillage,Subway,Mondeville,France,"{'brand': 'Subway', 'fascia': 'Subway', 'category': 'Restaurant', 'edit_date': '2025-03-17', 'lat_lon_source': 'website'}",49.161506,-0.300459,Mondeville,"{'opening_hour': {'Mon': '10:00:00-20:30:00', 'Tue': '10:00:00-20:30:00', 'Wed': '10:00:00-20:30:00', 'Thur': '10:00:00-20:30:00', 'Fri': '10:00:00-20:30:00', 'Sat': '10:00:00-20:30:00', 'Sun': 'None-None'}}",978800185,,1905,,https://subwayfrance.fr/restaurants/Mondeville
23 Rue de La Fosse,Subway,Nantes,France,"{'brand': 'Subway', 'fascia': 'Subway', 'category': 'Restaurant', 'edit_date': '2025-03-17', 'lat_lon_source': 'website'}",47.213135,-1.55892,Nantes Fosse,"{'opening_hour': {'Mon': '10:00:00-22:30:00', 'Tue': '10:00:00-22:30:00', 'Wed': '10:00:00-22:30:00', 'Thur': '10:00:00-22:30:00', 'Fri': '10:00:00-22:30:00', 'Sat': '10:00:00-22:30:00', 'Sun': '11:00:00-22:30:00'}}",255101233,,1906,,https://subwayfrance.fr/restaurants/Nantes Fosse
21 Bd de La Prairie Au Duc,Subway,Nantes,France,"{'brand': 'Subway', 'fascia': 'Subway', 'category': 'Restaurant', 'edit_date': '2025-03-17', 'lat_lon_source': 'website'}",47.204907,-1.557913,Nantes Prairie au duc,"{'opening_hour': {'Mon': '10:00:00-22:00:00', 'Tue': '10:00:00-22:00:00', 'Wed': '10:00:00-22:00:00', 'Thur': '10:00:00-22:00:00', 'Fri': '10:00:00-22:00:00', 'Sat': '10:00:00-22:00:00', 'Sun': '11:00:00-22:00:00'}}",249096707,,1907,,https://subwayfrance.fr/restaurants/Nantes Prairie au duc
2 Rue de Saverne,Subway,Nantes,France,"{'brand': 'Subway', 'fascia': 'Subway', 'category': 'Restaurant', 'edit_date': '2025-03-17', 'lat_lon_source': 'website'}",47.211824,-1.545589,Nantes Savernes,"{'opening_hour': {'Mon': '10:00:00-21:30:00', 'Tue': '10:00:00-21:30:00', 'Wed': '10:00:00-21:30:00', 'Thur': '10:00:00-21:30:00', 'Fri': '10:00:00-21:30:00', 'Sat': '12:00:00-21:30:00', 'Sun': '12:00:00-21:30:00'}}",228443895,,1908,,https://subwayfrance.fr/restaurants/Nantes Savernes
Cc Carrefour Beaulieu,Subway,Nantes,France,"{'brand': 'Subway', 'fascia': 'Subway', 'category': 'Restaurant', 'edit_date': '2025-03-17', 'lat_lon_source': 'website'}",47.205153,-1.533913,Nantes Beaulieu,"{'opening_hour': {'Mon': '09:00:00-21:00:00', 'Tue': '09:00:00-21:00:00', 'Wed': '09:00:00-21:00:00', 'Thur': '09:00:00-21:00:00', 'Fri': '09:00:00-21:00:00', 'Sat': '09:00:00-21:00:00', 'Sun': 'None-None'}}",983900001,,1909,,https://subwayfrance.fr/restaurants/Nantes Beaulieu
Centre Commercial La Beaujoire,Subway,Nantes,France,"{'brand': 'Subway', 'fascia': 'Subway', 'category': 'Restaurant', 'edit_date': '2025-03-17', 'lat_lon_source': 'website'}",47.218397,-1.553612,Nantes La Beaujoire,"{'opening_hour': {'Mon': '12:00:00-21:30:00', 'Tue': '11:30:00-21:30:00', 'Wed': '11:30:00-21:30:00', 'Thur': '11:30:00-21:30:00', 'Fri': '11:30:00-21:30:00', 'Sat': '11:00:00-21:30:00', 'Sun': 'None-None'}}",983899580,,1910,,https://subwayfrance.fr/restaurants/Nantes La Beaujoire
18 Et 20 Rue des Patarins,Subway,Ploermel,France,"{'brand': 'Subway', 'fascia': 'Subway', 'category': 'Restaurant', 'edit_date': '2025-03-17', 'lat_lon_source': 'website'}",47.931375,-2.397097,Ploermel,"{'opening_hour': {'Mon': '08:00:00-22:00:00', 'Tue': '08:30:00-22:00:00', 'Wed': '08:00:00-22:00:00', 'Thur': '08:30:00-22:00:00', 'Fri': '08:00:00-22:30:00', 'Sat': '09:00:00-22:30:00', 'Sun': '09:00:00-22:00:00'}}",971497039,,1911,,https://subwayfrance.fr/restaurants/Ploermel
55 Boulevard de Kerguelen,Subway,Quimper,France,"{'brand': 'Subway', 'fascia': 'Subway', 'category': 'Restaurant', 'edit_date': '2025-03-17', 'lat_lon_source': 'website'}",47.995215,-4.100924,Quimper,"{'opening_hour': {'Mon': '11:00:00-21:00:00', 'Tue': '11:00:00-21:00:00', 'Wed': '11:00:00-21:00:00', 'Thur': '11:00:00-21:00:00', 'Fri': '11:00:00-21:00:00', 'Sat': '11:00:00-21:30:00', 'Sun': '12:00:00-21:30:00'}}",981930922,,1912,,https://subwayfrance.fr/restaurants/Quimper
10 Grande Rue,Subway,Redon,France,"{'brand': 'Subway', 'fascia': 'Subway', 'category': 'Restaurant', 'edit_date': '2025-03-17', 'lat_lon_source': 'website'}",47.650105,-2.08495,Redon,"{'opening_hour': {'Mon': '09:30:00-21:30:00', 'Tue': '09:30:00-21:30:00', 'Wed': '09:30:00-21:30:00', 'Thur': '09:30:00-21:30:00', 'Fri': '08:00:00-22:00:00', 'Sat': '09:00:00-22:00:00', 'Sun': '12:00:00-21:30:00'}}",299727516,,1913,,https://subwayfrance.fr/restaurants/Redon
1 Place Saint Anne,Subway,Rennes,France,"{'brand': 'Subway', 'fascia': 'Subway', 'category': 'Restaurant', 'edit_date': '2025-03-17', 'lat_lon_source': 'website'}",48.114378,-1.679598,Rennes Saint Anne,"{'opening_hour': {'Mon': '10:00:00-22:00:00', 'Tue': '10:00:00-22:00:00', 'Wed': '10:00:00-22:00:00', 'Thur': '10:00:00-22:00:00', 'Fri': '10:00:00-22:00:00', 'Sat': '10:00:00-22:00:00', 'Sun': '11:00:00-22:00:00'}}",299791007,,1914,,https://subwayfrance.fr/restaurants/Rennes Saint Anne
25 Cours Jf Kennedy,Subway,Rennes,France,"{'brand': 'Subway', 'fascia': 'Subway', 'category': 'Restaurant', 'edit_date': '2025-03-17', 'lat_lon_source': 'website'}",48.12132,-1.709041,Rennes Villejean,"{'opening_hour': {'Mon': '10:00:00-22:00:00', 'Tue': '10:00:00-22:00:00', 'Wed': '10:00:00-22:00:00', 'Thur': '10:00:00-22:00:00', 'Fri': '10:00:00-22:00:00', 'Sat': '10:00:00-22:00:00', 'Sun': '11:00:00-22:00:00'}}",290567083,,1915,,https://subwayfrance.fr/restaurants/Rennes Villejean
16 Place Du Colombier,Subway,Rennes,France,"{'brand': 'Subway', 'fascia': 'Subway', 'category': 'Restaurant', 'edit_date': '2025-03-17', 'lat_lon_source': 'website'}",48.105222,-1.678796,Rennes Colombier,"{'opening_hour': {'Mon': '10:00:00-22:00:00', 'Tue': '10:00:00-22:00:00', 'Wed': '10:00:00-22:00:00', 'Thur': '10:00:00-22:00:00', 'Fri': '10:00:00-22:00:00', 'Sat': '10:00:00-22:00:00', 'Sun': '11:00:00-22:00:00'}}",299303654,,1916,,https://subwayfrance.fr/restaurants/Rennes Colombier
Boulevard de L'Yser,Subway,Rennes,France,"{'brand': 'Subway', 'fascia': 'Subway', 'category': 'Restaurant', 'edit_date': '2025-03-17', 'lat_lon_source': 'website'}",48.091895,-1.677456,Rennes Yser,"{'opening_hour': {'Mon': '11:30:00-21:00:00', 'Tue': '11:30:00-21:00:00', 'Wed': '11:30:00-21:00:00', 'Thur': '11:30:00-21:00:00', 'Fri': '11:30:00-21:00:00', 'Sat': '12:30:00-21:00:00', 'Sun': '12:30:00-21:00:00'}}",299502622,,1917,,https://subwayfrance.fr/restaurants/Rennes Yser
10 Rdpt de la Corbinerie,Subway,Rezé,France,"{'brand': 'Subway', 'fascia': 'Subway', 'category': 'Restaurant', 'edit_date': '2025-03-17', 'lat_lon_source': 'website'}",47.160568,-1.546783,Reze,"{'opening_hour': {'Mon': '09:00:00-20:30:00', 'Tue': '09:00:00-20:30:00', 'Wed': '09:00:00-21:00:00', 'Thur': '09:00:00-21:00:00', 'Fri': '09:00:00-21:00:00', 'Sat': '09:00:00-21:00:00', 'Sun': 'None-None'}}",240323453,,1918,,https://subwayfrance.fr/restaurants/Reze
54 Rue de Paris,Subway,Saint Brieuc,France,"{'brand': 'Subway', 'fascia': 'Subway', 'category': 'Restaurant', 'edit_date': '2025-03-17', 'lat_lon_source': 'website'}",48.503394,-2.740587,Saint Brieuc,"{'opening_hour': {'Mon': '10:00:00-22:00:00', 'Tue': '10:00:00-22:00:00', 'Wed': '10:00:00-22:00:00', 'Thur': '10:00:00-22:00:00', 'Fri': '10:00:00-22:00:00', 'Sat': '10:00:00-22:00:00', 'Sun': '11:00:00-22:00:00'}}",950447697,,1919,,https://subwayfrance.fr/restaurants/Saint Brieuc
992 Bd de la Prairie,Subway,Ancenis-Saint-Géréon,France,"{'brand': 'Subway', 'fascia': 'Subway', 'category': 'Restaurant', 'edit_date': '2025-03-17', 'lat_lon_source': 'website'}",47.375402,-1.200129,Saint Gereon,"{'opening_hour': {'Mon': '09:00:00-21:30:00', 'Tue': '09:00:00-21:30:00', 'Wed': '09:00:00-21:30:00', 'Thur': '09:00:00-21:30:00', 'Fri': '09:00:00-22:30:00', 'Sat': '09:00:00-22:30:00', 'Sun': '11:00:00-21:30:00'}}",240963997,,1920,,https://subwayfrance.fr/restaurants/Saint Gereon
Place Jean Bart,Subway,Saint Herblain,France,"{'brand': 'Subway', 'fascia': 'Subway', 'category': 'Restaurant', 'edit_date': '2025-03-17', 'lat_lon_source': 'website'}",47.224332,-1.625457,St Herblain,"{'opening_hour': {'Mon': '11:00:00-21:00:00', 'Tue': '11:00:00-21:00:00', 'Wed': '11:00:00-21:00:00', 'Thur': '11:00:00-21:00:00', 'Fri': '11:00:00-21:00:00', 'Sat': '11:00:00-21:00:00', 'Sun': '18:30:00-21:00:00'}}",240368512,,1921,,https://subwayfrance.fr/restaurants/St Herblain
Route de Vannes,Subway,Saint Herblain,France,"{'brand': 'Subway', 'fascia': 'Subway', 'category': 'Restaurant', 'edit_date': '2025-03-17', 'lat_lon_source': 'website'}",47.243653,-1.598486,Saint Herblain route de Vannes,"{'opening_hour': {'Mon': '11:30:00-21:00:00', 'Tue': '11:30:00-21:00:00', 'Wed': '11:30:00-21:00:00', 'Thur': '11:30:00-21:00:00', 'Fri': '11:30:00-21:00:00', 'Sat': '11:30:00-21:00:00', 'Sun': '18:30:00-21:00:00'}}",240653942,,1922,,https://subwayfrance.fr/restaurants/Saint Herblain route de Vannes
20 Place Du General de Gaulle,Subway,Saint Lo,France,"{'brand': 'Subway', 'fascia': 'Subway', 'category': 'Restaurant', 'edit_date': '2025-03-17', 'lat_lon_source': 'website'}",49.115476,-1.091857,Saint Lo,"{'opening_hour': {'Mon': '10:00:00-21:00:00', 'Tue': '10:00:00-21:30:00', 'Wed': '10:00:00-21:30:00', 'Thur': '10:00:00-21:30:00', 'Fri': '10:00:00-22:00:00', 'Sat': '10:00:00-22:00:00', 'Sun': '10:00:00-21:00:00'}}",233067161,,1923,,https://subwayfrance.fr/restaurants/Saint Lo
Square Jean Coquelin,Subway,Ploermel,France,"{'brand': 'Subway', 'fascia': 'Subway', 'category': 'Restaurant', 'edit_date': '2025-03-17', 'lat_lon_source': 'website'}",47.931375,-2.397097,Saint Malo,"{'opening_hour': {'Mon': '09:30:00-21:30:00', 'Tue': '09:30:00-22:00:00', 'Wed': '09:30:00-22:00:00', 'Thur': '09:30:00-22:00:00', 'Fri': '09:30:00-22:00:00', 'Sat': '09:30:00-22:00:00', 'Sun': '09:30:00-22:00:00'}}",971497039,,1924,,https://subwayfrance.fr/restaurants/Saint Malo
2 Rue Pierre Mendes France,Subway,Saint Sebastien Sur Loire,France,"{'brand': 'Subway', 'fascia': 'Subway', 'category': 'Restaurant', 'edit_date': '2025-03-17', 'lat_lon_source': 'website'}",47.191992,-1.492693,Nantes St Sebastien,"{'opening_hour': {'Mon': '09:00:00-20:30:00', 'Tue': '09:00:00-20:30:00', 'Wed': '09:00:00-20:30:00', 'Thur': '09:00:00-20:30:00', 'Fri': '09:00:00-20:30:00', 'Sat': '09:00:00-20:30:00', 'Sun': 'None-None'}}",240546245,,1925,,https://subwayfrance.fr/restaurants/Nantes St Sebastien
44 Rue D'Alençon,Subway,Condé-Sur-Sarthe,France,"{'brand': 'Subway', 'fascia': 'Subway', 'category': 'Restaurant', 'edit_date': '2025-03-17', 'lat_lon_source': 'website'}",48.433662,0.060065,Condé-Sur-Sarthe Alençon,"{'opening_hour': {'Mon': '08:30:00-21:30:00', 'Tue': '08:30:00-21:30:00', 'Wed': '08:30:00-21:30:00', 'Thur': '08:30:00-21:30:00', 'Fri': '08:30:00-21:30:00', 'Sat': '08:30:00-21:30:00', 'Sun': '08:30:00-21:30:00'}}",955451312,,1926,,https://subwayfrance.fr/restaurants/Condé-Sur-Sarthe Alençon
Route de Dinard,Subway,Taden,France,"{'brand': 'Subway', 'fascia': 'Subway', 'category': 'Restaurant', 'edit_date': '2025-03-17', 'lat_lon_source': 'website'}",48.463554,-2.044993,Taden,"{'opening_hour': {'Mon': '11:00:00-21:00:00', 'Tue': '11:00:00-21:00:00', 'Wed': '11:00:00-21:00:00', 'Thur': '11:00:00-21:00:00', 'Fri': '11:00:00-22:00:00', 'Sat': '11:00:00-22:00:00', 'Sun': 'None-None'}}",296841941,,1927,,https://subwayfrance.fr/restaurants/Taden
Zac de La Fontaine,Subway,Trignac,France,"{'brand': 'Subway', 'fascia': 'Subway', 'category': 'Restaurant', 'edit_date': '2025-03-17', 'lat_lon_source': 'website'}",47.315318,-2.204888,Trignac,"{'opening_hour': {'Mon': '10:00:00-20:00:00', 'Tue': '10:00:00-20:00:00', 'Wed': '10:00:00-20:00:00', 'Thur': '10:00:00-20:00:00', 'Fri': '10:00:00-20:30:00', 'Sat': '10:00:00-20:30:00', 'Sun': 'None-None'}}",240531043,,1928,,https://subwayfrance.fr/restaurants/Trignac
81 Avenue de La Marne,Subway,Vannes,France,"{'brand': 'Subway', 'fascia': 'Subway', 'category': 'Restaurant', 'edit_date': '2025-03-17', 'lat_lon_source': 'website'}",47.65963,-2.785268,Vannes Marne,"{'opening_hour': {'Mon': '11:00:00-21:30:00', 'Tue': '11:00:00-21:30:00', 'Wed': '11:00:00-14:30:00', 'Thur': '11:00:00-21:30:00', 'Fri': '11:00:00-21:30:00', 'Sat': '11:00:00-18:00:00', 'Sun': 'None-None'}}",966928665,,1929,,https://subwayfrance.fr/restaurants/Vannes Marne
17 Rue Joseph Lebrix,Subway,Vannes,France,"{'brand': 'Subway', 'fascia': 'Subway', 'category': 'Restaurant', 'edit_date': '2025-03-17', 'lat_lon_source': 'website'}",47.659147,-2.759355,Vannes Lebrix,"{'opening_hour': {'Mon': '11:00:00-22:00:00', 'Tue': '11:00:00-22:00:00', 'Wed': '11:00:00-22:00:00', 'Thur': '11:00:00-22:00:00', 'Fri': '11:00:00-22:00:00', 'Sat': '11:00:00-22:00:00', 'Sun': '12:00:00-22:00:00'}}",297616594,,1930,,https://subwayfrance.fr/restaurants/Vannes Lebrix
1 Rue de La Blanche Hermine,Subway,Vern Sur Seiche,France,"{'brand': 'Subway', 'fascia': 'Subway', 'category': 'Restaurant', 'edit_date': '2025-03-17', 'lat_lon_source': 'website'}",48.062779,-1.625288,Vern sur Seiche,"{'opening_hour': {'Mon': '09:00:00-21:30:00', 'Tue': '09:00:00-21:30:00', 'Wed': '09:00:00-21:30:00', 'Thur': '09:00:00-21:30:00', 'Fri': '09:00:00-22:00:00', 'Sat': '09:00:00-22:00:00', 'Sun': '10:30:00-21:30:00'}}",967385586,,1931,,https://subwayfrance.fr/restaurants/Vern sur Seiche
Le Chene Ferre,Subway,Vertou,France,"{'brand': 'Subway', 'fascia': 'Subway', 'category': 'Restaurant', 'edit_date': '2025-03-17', 'lat_lon_source': 'website'}",47.184781,-1.463067,Vertou,"{'opening_hour': {'Mon': '10:00:00-21:30:00', 'Tue': '10:00:00-21:30:00', 'Wed': '10:00:00-21:30:00', 'Thur': '10:00:00-21:30:00', 'Fri': '10:00:00-22:00:00', 'Sat': '10:00:00-22:00:00', 'Sun': '12:00:00-22:00:00'}}",228029931,,1932,,https://subwayfrance.fr/restaurants/Vertou
26 Rue Du Pre Doulet,Subway,Bourges,France,"{'brand': 'Subway', 'fascia': 'Subway', 'category': 'Restaurant', 'edit_date': '2025-03-17', 'lat_lon_source': 'website'}",47.083985,2.382874,Bourges,"{'opening_hour': {'Mon': '09:30:00-22:30:00', 'Tue': '09:30:00-22:30:00', 'Wed': '09:30:00-22:30:00', 'Thur': '09:30:00-22:30:00', 'Fri': '09:30:00-23:00:00', 'Sat': '09:30:00-23:00:00', 'Sun': '09:30:00-22:30:00'}}",248701687,,1933,,https://subwayfrance.fr/restaurants/Bourges
3 Place Latreille,Subway,Brive La Gaillarde,France,"{'brand': 'Subway', 'fascia': 'Subway', 'category': 'Restaurant', 'edit_date': '2025-03-17', 'lat_lon_source': 'website'}",45.158659,1.533164,Brive La Gaillarde,"{'opening_hour': {'Mon': '10:30:00-22:00:00', 'Tue': '10:30:00-22:00:00', 'Wed': '10:30:00-22:00:00', 'Thur': '10:30:00-23:00:00', 'Fri': '10:30:00-23:00:00', 'Sat': '10:30:00-23:00:00', 'Sun': '10:30:00-22:00:00'}}",980898570,,1934,,https://subwayfrance.fr/restaurants/Brive La Gaillarde
6 Place des Epars,Subway,Chartres,France,"{'brand': 'Subway', 'fascia': 'Subway', 'category': 'Restaurant', 'edit_date': '2025-03-17', 'lat_lon_source': 'website'}",48.4447,1.484585,Chartres,"{'opening_hour': {'Mon': '09:30:00-14:30:00', 'Tue': '09:30:00-20:00:00', 'Wed': '09:30:00-20:00:00', 'Thur': '09:30:00-20:00:00', 'Fri': '09:30:00-20:30:00', 'Sat': '09:30:00-20:00:00', 'Sun': 'None-None'}}",237229820,,1935,,https://subwayfrance.fr/restaurants/Chartres
5 Place de La Republique,Subway,Chateauroux,France,"{'brand': 'Subway', 'fascia': 'Subway', 'category': 'Restaurant', 'edit_date': '2025-03-17', 'lat_lon_source': 'website'}",46.811396,1.691763,Chateauroux,"{'opening_hour': {'Mon': '10:00:00-22:00:00', 'Tue': '10:00:00-22:00:00', 'Wed': '10:00:00-22:00:00', 'Thur': '10:00:00-22:00:00', 'Fri': '10:00:00-23:00:00', 'Sat': '10:00:00-23:00:00', 'Sun': '10:00:00-22:00:00'}}",254277378,,1936,,https://subwayfrance.fr/restaurants/Chateauroux
Place Du Champ de Foire,Subway,Dreux,France,"{'brand': 'Subway', 'fascia': 'Subway', 'category': 'Restaurant', 'edit_date': '2025-03-17', 'lat_lon_source': 'website'}",48.731582,1.360003,Dreux,"{'opening_hour': {'Mon': '11:00:00-22:00:00', 'Tue': '11:00:00-22:00:00', 'Wed': '11:00:00-22:00:00', 'Thur': '11:00:00-22:00:00', 'Fri': '11:00:00-22:00:00', 'Sat': '11:00:00-22:00:00', 'Sun': '11:00:00-22:00:00'}}",237461100,,1937,,https://subwayfrance.fr/restaurants/Dreux
A10 Aire D'Orleans Saran,Subway,Gidy,France,"{'brand': 'Subway', 'fascia': 'Subway', 'category': 'Restaurant', 'edit_date': '2025-03-17', 'lat_lon_source': 'website'}",47.977493,1.858823,Gidy (Saran),"{'opening_hour': {'Mon': '11:00:00-22:00:00', 'Tue': '11:00:00-22:00:00', 'Wed': '11:00:00-22:00:00', 'Thur': '11:00:00-22:00:00', 'Fri': '11:00:00-22:00:00', 'Sat': '11:00:00-22:00:00', 'Sun': '11:00:00-22:00:00'}}",238790214,,1938,,https://subwayfrance.fr/restaurants/Gidy (Saran)
5 Place D'Essaouira,Subway,La Rochelle,France,"{'brand': 'Subway', 'fascia': 'Subway', 'category': 'Restaurant', 'edit_date': '2025-03-17', 'lat_lon_source': 'website'}",46.1604,-1.151118,La Rochelle Place Essaouira,"{'opening_hour': {'Mon': '08:30:00-22:00:00', 'Tue': '08:30:00-22:00:00', 'Wed': '08:30:00-22:00:00', 'Thur': '08:30:00-22:00:00', 'Fri': '08:30:00-22:00:00', 'Sat': '08:30:00-22:00:00', 'Sun': '09:00:00-22:00:00'}}",546346292,,1939,,https://subwayfrance.fr/restaurants/La Rochelle Place Essaouira
14 Rue Saint Sauveur,Subway,La Rochelle,France,"{'brand': 'Subway', 'fascia': 'Subway', 'category': 'Restaurant', 'edit_date': '2025-03-17', 'lat_lon_source': 'website'}",46.158741,-1.15111,La Rochelle St Sauveur,"{'opening_hour': {'Mon': '08:30:00-22:00:00', 'Tue': '08:30:00-22:00:00', 'Wed': '08:30:00-22:00:00', 'Thur': '08:30:00-22:00:00', 'Fri': '08:30:00-22:00:00', 'Sat': '08:30:00-22:00:00', 'Sun': '09:00:00-22:00:00'}}",546375231,,1940,,https://subwayfrance.fr/restaurants/La Rochelle St Sauveur
26 Place de La Motte,Subway,Limoges,France,"{'brand': 'Subway', 'fascia': 'Subway', 'category': 'Restaurant', 'edit_date': '2025-03-17', 'lat_lon_source': 'website'}",45.829997,1.257424,Limoges Centre,"{'opening_hour': {'Mon': '09:00:00-21:30:00', 'Tue': '09:00:00-21:30:00', 'Wed': '09:00:00-21:30:00', 'Thur': '09:00:00-21:30:00', 'Fri': '09:00:00-21:30:00', 'Sat': '09:00:00-21:30:00', 'Sun': '09:00:00-21:30:00'}}",961059230,,1941,,https://subwayfrance.fr/restaurants/Limoges Centre
2 Rue Leon Serpollet,Subway,Limoges,France,"{'brand': 'Subway', 'fascia': 'Subway', 'category': 'Restaurant', 'edit_date': '2025-03-17', 'lat_lon_source': 'website'}",45.882521,1.285848,Limoges Nord,"{'opening_hour': {'Mon': '08:30:00-22:00:00', 'Tue': '08:30:00-22:00:00', 'Wed': '08:30:00-22:00:00', 'Thur': '08:30:00-22:00:00', 'Fri': '08:30:00-22:00:00', 'Sat': '08:30:00-22:00:00', 'Sun': '09:00:00-22:00:00'}}",555358078,,1942,,https://subwayfrance.fr/restaurants/Limoges Nord
19 Ave Martyrs de La Resistance,Subway,Niort,France,"{'brand': 'Subway', 'fascia': 'Subway', 'category': 'Restaurant', 'edit_date': '2025-03-17', 'lat_lon_source': 'website'}",46.323287,-0.456228,Niort,"{'opening_hour': {'Mon': '09:00:00-21:30:00', 'Tue': '09:00:00-21:30:00', 'Wed': '09:00:00-22:00:00', 'Thur': '09:00:00-22:00:00', 'Fri': '09:00:00-23:00:00', 'Sat': '09:00:00-23:00:00', 'Sun': '11:30:00-22:00:00'}}",981053558,,1944,,https://subwayfrance.fr/restaurants/Niort
5 Avenue de Paris,Subway,Orléans,France,"{'brand': 'Subway', 'fascia': 'Subway', 'category': 'Restaurant', 'edit_date': '2025-03-17', 'lat_lon_source': 'website'}",47.907733,1.903664,Orléans,"{'opening_hour': {'Mon': '09:30:00-21:30:00', 'Tue': '09:30:00-21:30:00', 'Wed': '09:30:00-21:30:00', 'Thur': '09:30:00-21:30:00', 'Fri': '09:30:00-21:30:00', 'Sat': '09:30:00-21:30:00', 'Sun': '09:30:00-21:30:00'}}",238218430,,1945,,https://subwayfrance.fr/restaurants/Orléans
12 Route de Parthenay,Subway,Poitiers,France,"{'brand': 'Subway', 'fascia': 'Subway', 'category': 'Restaurant', 'edit_date': '2025-03-17', 'lat_lon_source': 'website'}",46.59849,0.325188,Poitiers Demi Lune,"{'opening_hour': {'Mon': '11:00:00-21:00:00', 'Tue': '11:00:00-21:00:00', 'Wed': '11:00:00-21:00:00', 'Thur': '11:00:00-21:00:00', 'Fri': '11:00:00-21:00:00', 'Sat': '11:00:00-21:00:00', 'Sun': '11:00:00-21:00:00'}}",967651208,,1946,,https://subwayfrance.fr/restaurants/Poitiers Demi Lune
Zac de Beaulieu,Subway,Puilboreau,France,"{'brand': 'Subway', 'fascia': 'Subway', 'category': 'Restaurant', 'edit_date': '2025-03-17', 'lat_lon_source': 'website'}",46.175418,-1.112511,Puilboreau,"{'opening_hour': {'Mon': '12:00:00-17:00:00', 'Tue': '10:00:00-17:00:00', 'Wed': '10:00:00-21:00:00', 'Thur': '12:00:00-21:00:00', 'Fri': '10:00:00-22:00:00', 'Sat': '10:00:00-22:00:00', 'Sun': 'None-None'}}",546694219,,1947,,https://subwayfrance.fr/restaurants/Puilboreau
32 Avenue Du General de Gaulle,Subway,Rochefort,France,"{'brand': 'Subway', 'fascia': 'Subway', 'category': 'Restaurant', 'edit_date': '2025-03-17', 'lat_lon_source': 'website'}",45.945274,-0.895701,Rochefort,"{'opening_hour': {'Mon': '09:00:00-22:30:00', 'Tue': '09:00:00-22:30:00', 'Wed': '09:00:00-22:30:00', 'Thur': '09:00:00-22:30:00', 'Fri': '09:00:00-23:00:00', 'Sat': '09:00:00-23:00:00', 'Sun': '09:00:00-22:30:00'}}",546531266,,1948,,https://subwayfrance.fr/restaurants/Rochefort
3 Rue Henry Matisse,Subway,Royan,France,"{'brand': 'Subway', 'fascia': 'Subway', 'category': 'Restaurant', 'edit_date': '2025-03-17', 'lat_lon_source': 'website'}",45.623686,-1.001929,Royan,"{'opening_hour': {'Mon': '09:00:00-22:30:00', 'Tue': '09:00:00-22:30:00', 'Wed': '09:00:00-22:30:00', 'Thur': '09:00:00-22:30:00', 'Fri': '09:00:00-23:00:00', 'Sat': '09:00:00-23:00:00', 'Sun': '09:00:00-22:30:00'}}",546061980,,1949,,https://subwayfrance.fr/restaurants/Royan
50 Avenue Du 11 Novembre,Subway,Saint Benoit,France,"{'brand': 'Subway', 'fascia': 'Subway', 'category': 'Restaurant', 'edit_date': '2025-03-17', 'lat_lon_source': 'website'}",46.564491,0.357382,Saint Benoit,"{'opening_hour': {'Mon': '09:00:00-22:30:00', 'Tue': '09:00:00-22:30:00', 'Wed': '09:00:00-22:30:00', 'Thur': '09:00:00-22:30:00', 'Fri': '09:00:00-22:30:00', 'Sat': '09:00:00-22:30:00', 'Sun': '10:30:00-22:30:00'}}",549117714,,1950,,https://subwayfrance.fr/restaurants/Saint Benoit
C.Cial L'Heure Tranquille,Subway,Tours,France,"{'brand': 'Subway', 'fascia': 'Subway', 'category': 'Restaurant', 'edit_date': '2025-03-17', 'lat_lon_source': 'website'}",47.366437,0.678384,Tours CC de l\'Heure Tranquille,"{'opening_hour': {'Mon': '11:00:00-22:00:00', 'Tue': '11:00:00-22:00:00', 'Wed': '11:00:00-22:00:00', 'Thur': '11:00:00-22:00:00', 'Fri': '11:00:00-22:00:00', 'Sat': '11:00:00-22:00:00', 'Sun': '11:00:00-22:00:00'}}",247269021,,1951,,https://subwayfrance.fr/restaurants/Tours CC de l\'Heure Tranquille
24 Place Nicolas Copernic,Subway,Tours,France,"{'brand': 'Subway', 'fascia': 'Subway', 'category': 'Restaurant', 'edit_date': '2025-03-17', 'lat_lon_source': 'website'}",47.426422,0.702719,Tours,"{'opening_hour': {'Mon': '09:30:00-22:00:00', 'Tue': '09:30:00-22:00:00', 'Wed': '09:30:00-22:00:00', 'Thur': '09:30:00-22:00:00', 'Fri': '09:30:00-22:00:00', 'Sat': '09:30:00-22:00:00', 'Sun': '09:30:00-22:00:00'}}",247355471,,1952,,https://subwayfrance.fr/restaurants/Tours
"A20, Aire de Beaune les Mines Est,",Subway,Limoges,France,"{'brand': 'Subway', 'fascia': 'Subway', 'category': 'Restaurant', 'edit_date': '2025-03-17', 'lat_lon_source': 'website'}",45.914599,1.293752,Beaune Les Mines,"{'opening_hour': {'Mon': '08:00:00-21:30:00', 'Tue': '08:30:00-21:30:00', 'Wed': '08:00:00-21:30:00', 'Thur': '08:30:00-21:30:00', 'Fri': '08:30:00-22:00:00', 'Sat': '09:30:00-22:00:00', 'Sun': '09:30:00-21:30:00'}}",545822344,,1953,,https://subwayfrance.fr/restaurants/Beaune Les Mines
17 Rue de Champagne,Subway,Olivet,France,"{'brand': 'Subway', 'fascia': 'Subway', 'category': 'Restaurant', 'edit_date': '2025-03-17', 'lat_lon_source': 'website'}",47.843926,1.920422,Olivet,"{'opening_hour': {'Mon': '09:30:00-21:30:00', 'Tue': '09:30:00-21:30:00', 'Wed': '09:30:00-21:30:00', 'Thur': '09:30:00-21:30:00', 'Fri': '09:30:00-21:30:00', 'Sat': '09:30:00-21:30:00', 'Sun': '16:00:00-21:30:00'}}",238880711,,1954,,https://subwayfrance.fr/restaurants/Olivet
69 Rue Herge,Subway,Angouleme,France,"{'brand': 'Subway', 'fascia': 'Subway', 'category': 'Restaurant', 'edit_date': '2025-03-17', 'lat_lon_source': 'website'}",45.648571,0.157822,Angoulême,"{'opening_hour': {'Mon': '08:30:00-21:30:00', 'Tue': '08:30:00-21:30:00', 'Wed': '08:30:00-21:30:00', 'Thur': '08:30:00-21:30:00', 'Fri': '08:30:00-22:30:00', 'Sat': '08:30:00-22:30:00', 'Sun': '10:00:00-22:00:00'}}",545953586,,1955,,https://subwayfrance.fr/restaurants/Angoulême
3 Rue Marceau,Subway,Tours,France,"{'brand': 'Subway', 'fascia': 'Subway', 'category': 'Restaurant', 'edit_date': '2025-03-17', 'lat_lon_source': 'website'}",47.39471,0.684358,Tours,"{'opening_hour': {'Mon': '09:00:00-22:00:00', 'Tue': '09:00:00-22:00:00', 'Wed': '09:00:00-22:00:00', 'Thur': '09:00:00-22:00:00', 'Fri': '09:00:00-22:00:00', 'Sat': '09:00:00-22:00:00', 'Sun': '09:30:00-22:00:00'}}",247618519,,1956,,https://subwayfrance.fr/restaurants/Tours
26 Rue Du Rempart,Subway,Colmar,France,"{'brand': 'Subway', 'fascia': 'Subway', 'category': 'Restaurant', 'edit_date': '2025-03-17', 'lat_lon_source': 'website'}",48.081505,7.356972,Colmar,"{'opening_hour': {'Mon': 'None-None', 'Tue': 'None-None', 'Wed': 'None-None', 'Thur': 'None-None', 'Fri': 'None-None', 'Sat': 'None-None', 'Sun': 'None-None'}}",389244837,,1957,,https://subwayfrance.fr/restaurants/Colmar
24 Rue Du Palais,Subway,Metz,France,"{'brand': 'Subway', 'fascia': 'Subway', 'category': 'Restaurant', 'edit_date': '2025-03-17', 'lat_lon_source': 'website'}",49.118796,6.173864,Metz Palais,"{'opening_hour': {'Mon': '11:00:00-22:00:00', 'Tue': '11:00:00-22:00:00', 'Wed': '11:00:00-22:00:00', 'Thur': '11:00:00-22:00:00', 'Fri': '11:00:00-22:00:00', 'Sat': '11:00:00-22:00:00', 'Sun': '11:00:00-22:00:00'}}",387503406,,1958,,https://subwayfrance.fr/restaurants/Metz Palais
90 Bd Solidarite,Subway,Metz,France,"{'brand': 'Subway', 'fascia': 'Subway', 'category': 'Restaurant', 'edit_date': '2025-03-17', 'lat_lon_source': 'website'}",49.104401,6.234789,Metz Technopole,"{'opening_hour': {'Mon': '09:00:00-21:00:00', 'Tue': '09:00:00-21:00:00', 'Wed': '09:00:00-21:00:00', 'Thur': '09:00:00-21:00:00', 'Fri': '09:00:00-21:30:00', 'Sat': '09:00:00-21:30:00', 'Sun': '09:00:00-21:30:00'}}",983882297,,1959,,https://subwayfrance.fr/restaurants/Metz Technopole
1 Rue des Messageries,Subway,Metz,France,"{'brand': 'Subway', 'fascia': 'Subway', 'category': 'Restaurant', 'edit_date': '2025-03-17', 'lat_lon_source': 'website'}",49.107211,6.180861,Metz Muse,"{'opening_hour': {'Mon': '11:00:00-22:00:00', 'Tue': '11:00:00-22:00:00', 'Wed': '11:00:00-22:00:00', 'Thur': '11:00:00-22:00:00', 'Fri': '11:00:00-22:00:00', 'Sat': '11:00:00-22:00:00', 'Sun': '11:00:00-22:00:00'}}",952185649,,1960,,https://subwayfrance.fr/restaurants/Metz Muse
1 Bd de l'Europe,Subway,Mulhouse,France,"{'brand': 'Subway', 'fascia': 'Subway', 'category': 'Restaurant', 'edit_date': '2025-03-17', 'lat_lon_source': 'website'}",47.749485,7.340646,Mulhouse Porte Jeune,"{'opening_hour': {'Mon': '09:30:00-19:30:00', 'Tue': '09:30:00-19:30:00', 'Wed': '09:30:00-19:30:00', 'Thur': '09:30:00-19:30:00', 'Fri': '09:30:00-19:30:00', 'Sat': '09:30:00-19:30:00', 'Sun': 'None-None'}}",389437083,,1961,,https://subwayfrance.fr/restaurants/Mulhouse Porte Jeune
251 Rue de Belfort,Subway,Mulhouse,France,"{'brand': 'Subway', 'fascia': 'Subway', 'category': 'Restaurant', 'edit_date': '2025-03-17', 'lat_lon_source': 'website'}",47.736424,7.291298,Mulhouse Dornach,"{'opening_hour': {'Mon': '11:30:00-21:00:00', 'Tue': '11:30:00-21:00:00', 'Wed': '11:30:00-21:00:00', 'Thur': '11:30:00-21:00:00', 'Fri': '11:30:00-21:00:00', 'Sat': '11:30:00-21:00:00', 'Sun': '11:30:00-21:00:00'}}",389318088,,1962,,https://subwayfrance.fr/restaurants/Mulhouse Dornach
71 Rue de Saint Dizier,Subway,Nancy,France,"{'brand': 'Subway', 'fascia': 'Subway', 'category': 'Restaurant', 'edit_date': '2025-03-17', 'lat_lon_source': 'website'}",48.689681,6.183594,Nancy Saint Dizier,"{'opening_hour': {'Mon': '11:00:00-22:00:00', 'Tue': '11:00:00-20:00:00', 'Wed': '11:00:00-20:00:00', 'Thur': '11:00:00-20:00:00', 'Fri': '11:00:00-21:00:00', 'Sat': '11:00:00-21:00:00', 'Sun': '11:00:00-16:00:00'}}",383489536,,1963,,https://subwayfrance.fr/restaurants/Nancy Saint Dizier
2 de La Rue Xavee,Subway,Remiremont,France,"{'brand': 'Subway', 'fascia': 'Subway', 'category': 'Restaurant', 'edit_date': '2025-03-17', 'lat_lon_source': 'website'}",48.017002,6.589681,Remiremont,"{'opening_hour': {'Mon': '11:00:00-20:00:00', 'Tue': '11:00:00-20:00:00', 'Wed': '11:00:00-20:00:00', 'Thur': '11:00:00-20:00:00', 'Fri': '11:00:00-20:00:00', 'Sat': '11:00:00-14:00:00', 'Sun': 'None-None'}}",355220007,,1964,,https://subwayfrance.fr/restaurants/Remiremont
32 Rue des Chevaliers,Subway,Selestat,France,"{'brand': 'Subway', 'fascia': 'Subway', 'category': 'Restaurant', 'edit_date': '2025-03-17', 'lat_lon_source': 'website'}",48.258597,7.454416,Selestat,"{'opening_hour': {'Mon': '08:00:00-22:00:00', 'Tue': '08:00:00-22:00:00', 'Wed': '08:00:00-22:00:00', 'Thur': '08:00:00-22:00:00', 'Fri': '08:00:00-22:00:00', 'Sat': '08:00:00-22:00:00', 'Sun': '08:00:00-22:00:00'}}",983632402,,1965,,https://subwayfrance.fr/restaurants/Selestat
47 Rue du Fosse des Tanneurs,Subway,Strasbourg,France,"{'brand': 'Subway', 'fascia': 'Subway', 'category': 'Restaurant', 'edit_date': '2025-03-17', 'lat_lon_source': 'website'}",48.582487,7.743471,Strasbourg Tanneurs,"{'opening_hour': {'Mon': '11:00:00-22:00:00', 'Tue': '11:00:00-22:00:00', 'Wed': '11:00:00-22:00:00', 'Thur': '11:00:00-22:00:00', 'Fri': '11:00:00-22:00:00', 'Sat': '11:00:00-22:00:00', 'Sun': '11:00:00-22:00:00'}}",388235184,,1966,,https://subwayfrance.fr/restaurants/Strasbourg Tanneurs
18 Place de L'Esplanade,Subway,Strasbourg,France,"{'brand': 'Subway', 'fascia': 'Subway', 'category': 'Restaurant', 'edit_date': '2025-03-17', 'lat_lon_source': 'website'}",48.576946,7.770222,Strasbourg Esplanade,"{'opening_hour': {'Mon': '09:00:00-22:00:00', 'Tue': '09:00:00-22:00:00', 'Wed': '09:00:00-22:00:00', 'Thur': '09:00:00-22:00:00', 'Fri': '09:00:00-22:00:00', 'Sat': '09:00:00-22:00:00', 'Sun': '09:00:00-22:00:00'}}",388314730,,1967,,https://subwayfrance.fr/restaurants/Strasbourg Esplanade
Place des Halles,Subway,Strasbourg,France,"{'brand': 'Subway', 'fascia': 'Subway', 'category': 'Restaurant', 'edit_date': '2025-03-17', 'lat_lon_source': 'website'}",48.587872,7.742191,Strasbourg Les Halles,"{'opening_hour': {'Mon': '10:00:00-18:30:00', 'Tue': '10:00:00-18:30:00', 'Wed': '10:00:00-18:30:00', 'Thur': '10:00:00-18:30:00', 'Fri': '10:00:00-18:30:00', 'Sat': '10:00:00-18:30:00', 'Sun': 'None-None'}}",388245609,,1968,,https://subwayfrance.fr/restaurants/Strasbourg Les Halles
13 Rue Du Four Banal,Subway,Thionville,France,"{'brand': 'Subway', 'fascia': 'Subway', 'category': 'Restaurant', 'edit_date': '2025-03-17', 'lat_lon_source': 'website'}",49.358148,6.166397,Thionville,"{'opening_hour': {'Mon': '09:30:00-22:00:00', 'Tue': '09:30:00-22:00:00', 'Wed': '09:30:00-22:00:00', 'Thur': '09:30:00-22:00:00', 'Fri': '09:30:00-23:00:00', 'Sat': '09:30:00-23:00:00', 'Sun': '10:30:00-23:00:00'}}",382849171,,1969,,https://subwayfrance.fr/restaurants/Thionville
Centre Commercial Geric,Subway,Thionville,France,"{'brand': 'Subway', 'fascia': 'Subway', 'category': 'Restaurant', 'edit_date': '2025-03-17', 'lat_lon_source': 'website'}",49.354669,6.139459,Thionville Géric,"{'opening_hour': {'Mon': '08:30:00-20:30:00', 'Tue': '08:30:00-20:30:00', 'Wed': '08:30:00-20:30:00', 'Thur': '08:30:00-20:30:00', 'Fri': '08:30:00-20:30:00', 'Sat': '08:30:00-20:30:00', 'Sun': 'None-None'}}",382860855,,1970,,https://subwayfrance.fr/restaurants/Thionville Géric
9 Rue Louis Aragon,Subway,Wittenheim,France,"{'brand': 'Subway', 'fascia': 'Subway', 'category': 'Restaurant', 'edit_date': '2025-03-17', 'lat_lon_source': 'website'}",47.803851,7.31289,Wittenheim,"{'opening_hour': {'Mon': 'None-None', 'Tue': '09:00:00-21:00:00', 'Wed': '09:00:00-21:00:00', 'Thur': '09:00:00-21:00:00', 'Fri': '09:00:00-21:00:00', 'Sat': '09:00:00-18:00:00', 'Sun': 'None-None'}}",389531729,,1971,,https://subwayfrance.fr/restaurants/Wittenheim
1 chemin De La Pie Grièche,Subway,Moulins-Lès-Metz,France,"{'brand': 'Subway', 'fascia': 'Subway', 'category': 'Restaurant', 'edit_date': '2025-03-17', 'lat_lon_source': 'website'}",49.081906,6.10302,Moulins les Metz,"{'opening_hour': {'Mon': '10:30:00-21:00:00', 'Tue': '10:30:00-21:00:00', 'Wed': '10:30:00-21:00:00', 'Thur': '10:30:00-21:00:00', 'Fri': '10:30:00-22:00:00', 'Sat': '10:00:00-22:00:00', 'Sun': '11:00:00-21:00:00'}}",387798283,,1972,,https://subwayfrance.fr/restaurants/Moulins les Metz
218 Bis Rue des Pyrénées,Subway,Paris,France,"{'brand': 'Subway', 'fascia': 'Subway', 'category': 'Restaurant', 'edit_date': '2025-03-17', 'lat_lon_source': 'website'}",48.866281,2.397664,Gambetta Paris,"{'opening_hour': {'Mon': 'None-None', 'Tue': 'None-None', 'Wed': 'None-None', 'Thur': 'None-None', 'Fri': 'None-None', 'Sat': 'None-None', 'Sun': 'None-None'}}",,,1975,,https://subwayfrance.fr/restaurants/Gambetta Paris
