full_addr,city,country,brand,extras,lat,lon,opening_hours,phone,ref,postcode,name,state,website
"High Street, Battle, East Sussex TN33 0AE",Battle,United Kingdom,English Heritage,"{'brand': 'English Heritage', 'fascia': 'English Heritage', 'category': 'Heritage Site', 'edit_date': '20250405', 'lat_lon_source': 'website'}",50.913708,0.488447,{'opening_hours': {}},0370 333 1181,3744,TN33 0AE,"1066 Battle of Hastings, Abbey and Battlefield",East Sussex,https://www.english-heritage.org.uk/visit/places/1066-battle-of-hastings-abbey-and-battlefield/
"Avebury, Marlborough, Wiltshire SN8 1RF",Marlborough,United Kingdom,English Heritage,"{'brand': 'English Heritage', 'fascia': 'English Heritage', 'category': 'Heritage Site', 'edit_date': '20250405', 'lat_lon_source': 'website'}",51.428209,-1.847448,{'opening_hours': {}},01672 539 250,3044,SN8 1RF,Avebury,Wiltshire,https://www.english-heritage.org.uk/visit/places/avebury/
"Off London Road, Saffron Walden, Essex CB11 4JF",Saffron Walden,United Kingdom,English Heritage,"{'brand': 'English Heritage', 'fascia': 'English Heritage', 'category': 'Heritage Site', 'edit_date': '20250405', 'lat_lon_source': 'website'}",52.020367,0.222272,{'opening_hours': {}},0370 333 1181,3362,CB11 4JF,Audley End House and Gardens,Essex,https://www.english-heritage.org.uk/visit/places/audley-end-house-and-gardens/
"South Street, Ashby de la Zouch, Leicestershire LE65 1BR",Ashby de la Zouch,United Kingdom,English Heritage,"{'brand': 'English Heritage', 'fascia': 'English Heritage', 'category': 'Heritage Site', 'edit_date': '20250405', 'lat_lon_source': 'website'}",52.745853,-1.468747,{'opening_hours': {}},01530 413343,2561,LE65 1BR,Ashby de la Zouch Castle,Leicestershire,https://www.english-heritage.org.uk/visit/places/ashby-de-la-zouch-castle/
"Auckland Castle Deer Park, Bishop Auckland, Co Durham DL14 7QJ",Bishop Auckland,United Kingdom,English Heritage,"{'brand': 'English Heritage', 'fascia': 'English Heritage', 'category': 'Heritage Site', 'edit_date': '20250405', 'lat_lon_source': 'website'}",54.669146,-1.665658,{'opening_hours': {}},,2964,DL14 7QJ,Auckland Castle Deer House,Co Durham,https://www.english-heritage.org.uk/visit/places/auckland-castle-deer-house/
"Castle Road, Baconsthorpe, Norfolk NR25 6LL",Baconsthorpe,United Kingdom,English Heritage,"{'brand': 'English Heritage', 'fascia': 'English Heritage', 'category': 'Heritage Site', 'edit_date': '20250405', 'lat_lon_source': 'website'}",52.898823,1.150687,{'opening_hours': {}},,2373,NR25 6LL,Baconsthorpe Castle,Norfolk,https://www.english-heritage.org.uk/visit/places/baconsthorpe-castle/
"Off Aydon Road, Corbridge, Northumberland NE45 5PJ",Corbridge,United Kingdom,English Heritage,"{'brand': 'English Heritage', 'fascia': 'English Heritage', 'category': 'Heritage Site', 'edit_date': '20250405', 'lat_lon_source': 'website'}",54.99196,-1.998328,{'opening_hours': {}},01434 632450,3135,NE45 5PJ,Aydon Castle,Northumberland,https://www.english-heritage.org.uk/visit/places/aydon-castle/
"149 Piccadilly, Hyde Park Corner, London W1J 7NT",Hyde Park Corner,United Kingdom,English Heritage,"{'brand': 'English Heritage', 'fascia': 'English Heritage', 'category': 'Heritage Site', 'edit_date': '20250405', 'lat_lon_source': 'website'}",51.503443,-0.151703,{'opening_hours': {}},0207 499 5676 ,3568,W1J 7NT,Apsley House,London,https://www.english-heritage.org.uk/visit/places/apsley-house/
"Long Rake, Bakewell, Derbyshire DE45 1JS",Bakewell,United Kingdom,English Heritage,"{'brand': 'English Heritage', 'fascia': 'English Heritage', 'category': 'Heritage Site', 'edit_date': '20250405', 'lat_lon_source': 'website'}",53.168242,-1.762158,{'opening_hours': {}},01629 816200,3623,DE45 1JS,Arbor Low Stone Circle and Gib Hill Barrow,Derbyshire,https://www.english-heritage.org.uk/visit/places/arbor-low-stone-circle-and-gib-hill-barrow/
"Arthur&#39;s Stone Lane , Hereford, Herefordshire HR3 6AX",Hereford,United Kingdom,English Heritage,"{'brand': 'English Heritage', 'fascia': 'English Heritage', 'category': 'Heritage Site', 'edit_date': '20250405', 'lat_lon_source': 'website'}",52.082416,-2.993272,{'opening_hours': {}},,3040,HR3 6AX,Arthur&#39;s Stone,Herefordshire,https://www.english-heritage.org.uk/visit/places/arthurs-stone/
", Hunting Way, Northamptonshire PE8 5DJ",Hunting Way,United Kingdom,English Heritage,"{'brand': 'English Heritage', 'fascia': 'English Heritage', 'category': 'Heritage Site', 'edit_date': '20250405', 'lat_lon_source': 'website'}",52.5474575,-0.49206,{'opening_hours': {}},0370 333 1181,3542,PE8 5DJ,Apethorpe Palace,Northamptonshire,https://www.english-heritage.org.uk/visit/places/apethorpe-palace/
"Appuldurcombe Road, Wroxall, Isle of Wight PO38 3EW",Wroxall,United Kingdom,English Heritage,"{'brand': 'English Heritage', 'fascia': 'English Heritage', 'category': 'Heritage Site', 'edit_date': '20250405', 'lat_lon_source': 'website'}",50.617314,-1.230424,{'opening_hours': {}},,3736,PO38 3EW,Appuldurcombe House,Isle of Wight,https://www.english-heritage.org.uk/visit/places/appuldurcombe-house/
"Avebury, Marlborough, Wiltshire SN8 1RF",Marlborough,United Kingdom,English Heritage,"{'brand': 'English Heritage', 'fascia': 'English Heritage', 'category': 'Heritage Site', 'edit_date': '20250405', 'lat_lon_source': 'website'}",51.427986,-1.857178,{'opening_hours': {}},,3394,SN8 1RF,"Alexander Keiller Museum, Avebury",Wiltshire,https://www.english-heritage.org.uk/visit/places/alexander-keiller-museum-avebury/
", Ambleside, Cumbria LA22 0EN",Ambleside,United Kingdom,English Heritage,"{'brand': 'English Heritage', 'fascia': 'English Heritage', 'category': 'Heritage Site', 'edit_date': '20250405', 'lat_lon_source': 'website'}",54.42137,-2.964776,{'opening_hours': {}},,3748,LA22 0EN,Ambleside Roman Fort,Cumbria,https://www.english-heritage.org.uk/visit/places/ambleside-roman-fort/
"Acton Burnell, Shrewsbury, Shropshire SY5 7PE",Shrewsbury,United Kingdom,English Heritage,"{'brand': 'English Heritage', 'fascia': 'English Heritage', 'category': 'Heritage Site', 'edit_date': '20250405', 'lat_lon_source': 'website'}",52.61301,-2.687263,{'opening_hours': {}},,3159,SY5 7PE,Acton Burnell Castle,Shropshire,https://www.english-heritage.org.uk/visit/places/acton-burnell-castle/
"Aldborough, Boroughbridge, North Yorkshire YO51 9ES",Boroughbridge,United Kingdom,English Heritage,"{'brand': 'English Heritage', 'fascia': 'English Heritage', 'category': 'Heritage Site', 'edit_date': '20250405', 'lat_lon_source': 'website'}",54.089866,-1.382341,{'opening_hours': {}},01423 322768,3195,YO51 9ES,Aldborough Roman Site,North Yorkshire,https://www.english-heritage.org.uk/visit/places/aldborough-roman-site/
"Monument Close, York, North Yorkshire YO24 4HT",York,United Kingdom,English Heritage,"{'brand': 'English Heritage', 'fascia': 'English Heritage', 'category': 'Heritage Site', 'edit_date': '20250405', 'lat_lon_source': 'website'}",53.956389,-1.117473,{'opening_hours': {}},01904 797935,3207,YO24 4HT,York Cold War Bunker,North Yorkshire,https://www.english-heritage.org.uk/visit/places/york-cold-war-bunker/
"Quay Street, Yarmouth, Isle of Wight PO41 0PB. For car parking use PO41 0NS",Yarmouth,United Kingdom,English Heritage,"{'brand': 'English Heritage', 'fascia': 'English Heritage', 'category': 'Heritage Site', 'edit_date': '20250405', 'lat_lon_source': 'website'}",50.705075,-1.502159,{'opening_hours': {}},01983 760444,3474,PO41 0PB. For car parking use PO41 0NS,Yarmouth Castle,Isle of Wight,https://www.english-heritage.org.uk/visit/places/yarmouth-castle/
"Wroxeter Roman City, near Shrewsbury, Shropshire SY5 6PH",near Shrewsbury,United Kingdom,English Heritage,"{'brand': 'English Heritage', 'fascia': 'English Heritage', 'category': 'Heritage Site', 'edit_date': '20250405', 'lat_lon_source': 'website'}",52.674292,-2.645545,{'opening_hours': {}},01743 761330,3191,SY5 6PH,Wroxeter Roman City,Shropshire,https://www.english-heritage.org.uk/visit/places/wroxeter-roman-city/
"Silsoe, , Bedfordshire MK45 4HR",,United Kingdom,English Heritage,"{'brand': 'English Heritage', 'fascia': 'English Heritage', 'category': 'Heritage Site', 'edit_date': '20250405', 'lat_lon_source': 'website'}",52.007832,-0.41492969,{'opening_hours': {}},0370 333 1181,3227,MK45 4HR,Wrest Park,Bedfordshire,https://www.english-heritage.org.uk/visit/places/wrest-park/
"Countess Road, Amesbury, Wiltshire SP4 7AR",Amesbury,United Kingdom,English Heritage,"{'brand': 'English Heritage', 'fascia': 'English Heritage', 'category': 'Heritage Site', 'edit_date': '20250405', 'lat_lon_source': 'website'}",51.18864,-1.785709,{'opening_hours': {}},0870 3331181,2609,SP4 7AR,Woodhenge,Wiltshire,https://www.english-heritage.org.uk/visit/places/woodhenge/
"Winterbourne Abbas , Dorchester, Dorset DT2 9XD",Dorchester,United Kingdom,English Heritage,"{'brand': 'English Heritage', 'fascia': 'English Heritage', 'category': 'Heritage Site', 'edit_date': '20250405', 'lat_lon_source': 'website'}",50.712974,-2.580732,{'opening_hours': {}},,2805,DT2 9XD,Winterbourne Poor Lot Barrows,Dorset,https://www.english-heritage.org.uk/visit/places/winterbourne-poor-lot-barrows/
"Military Road, Winshields, Northumberland NE47 7AN",Winshields,United Kingdom,English Heritage,"{'brand': 'English Heritage', 'fascia': 'English Heritage', 'category': 'Heritage Site', 'edit_date': '20250405', 'lat_lon_source': 'website'}",55.002561,-2.401338,{'opening_hours': {}},,2481,NE47 7AN,Winshields Wall - Hadrian&#39;s Wall,Northumberland,https://www.english-heritage.org.uk/visit/places/winshields-wall-hadrians-wall/
"Oathill Lane, Cirencester, Gloucestershire GL7 6PU",Cirencester,United Kingdom,English Heritage,"{'brand': 'English Heritage', 'fascia': 'English Heritage', 'category': 'Heritage Site', 'edit_date': '20250405', 'lat_lon_source': 'website'}",51.674405,-2.096127,{'opening_hours': {}},,2833,GL7 6PU,"Windmill Tump Long Barrow, Rodmarton",Gloucestershire,https://www.english-heritage.org.uk/visit/places/windmill-tump-long-barrow-rodmarton/
"College Street, Winchester, Hampshire S023 9NB",Winchester,United Kingdom,English Heritage,"{'brand': 'English Heritage', 'fascia': 'English Heritage', 'category': 'Heritage Site', 'edit_date': '20250405', 'lat_lon_source': 'website'}",51.059087,-1.309543,{'opening_hours': {}},,2649,S023 9NB,Wolvesey Castle (Old Bishop&#39;s Palace),Hampshire,https://www.english-heritage.org.uk/visit/places/wolvesey-castle-old-bishops-palace/
"Worcester Road, Great Witley, Worcestershire WR6 6JT",Great Witley,United Kingdom,English Heritage,"{'brand': 'English Heritage', 'fascia': 'English Heritage', 'category': 'Heritage Site', 'edit_date': '20250405', 'lat_lon_source': 'website'}",52.281905,-2.341596,{'opening_hours': {}},01299 896636,3434,WR6 6JT,Witley Court and Gardens,Worcestershire,https://www.english-heritage.org.uk/visit/places/witley-court-and-gardens/
", Gilsland, Cumbria CA8 7DA",Gilsland,United Kingdom,English Heritage,"{'brand': 'English Heritage', 'fascia': 'English Heritage', 'category': 'Heritage Site', 'edit_date': '20250405', 'lat_lon_source': 'website'}",54.990684,-2.581993,{'opening_hours': {}},,2745,CA8 7DA,"Willowford Wall, Turrets and Bridge - Hadrian&#39;s Wall",Cumbria,https://www.english-heritage.org.uk/visit/places/willowford-wall-turrets-and-bridge-hadrians-wall/
"Wigmore, Leominster, Herefordshire HR6 9UB",Leominster,United Kingdom,English Heritage,"{'brand': 'English Heritage', 'fascia': 'English Heritage', 'category': 'Heritage Site', 'edit_date': '20250405', 'lat_lon_source': 'website'}",52.316132,-2.869599,{'opening_hours': {}},,3058,HR6 9UB,Wigmore Castle,Herefordshire,https://www.english-heritage.org.uk/visit/places/wigmore-castle/
"Cosford, Shifnal, Shropshire WV8 1QZ",Shifnal,United Kingdom,English Heritage,"{'brand': 'English Heritage', 'fascia': 'English Heritage', 'category': 'Heritage Site', 'edit_date': '20250405', 'lat_lon_source': 'website'}",52.664918,-2.256476,{'opening_hours': {}},,3643,WV8 1QZ,White Ladies Priory,Shropshire,https://www.english-heritage.org.uk/visit/places/white-ladies-priory/
"Clink Street, Southwark, London SE1 9DG",Southwark,United Kingdom,English Heritage,"{'brand': 'English Heritage', 'fascia': 'English Heritage', 'category': 'Heritage Site', 'edit_date': '20250405', 'lat_lon_source': 'website'}",51.506165,-0.089743,{'opening_hours': {}},,2657,SE1 9DG,Winchester Palace,London,https://www.english-heritage.org.uk/visit/places/winchester-palace/
"Abbey Lane, Whitby, North Yorkshire YO22 4JT",Whitby,United Kingdom,English Heritage,"{'brand': 'English Heritage', 'fascia': 'English Heritage', 'category': 'Heritage Site', 'edit_date': '20250405', 'lat_lon_source': 'website'}",54.489051,-0.602536,{'opening_hours': {}},01947 603568,3215,YO22 4JT,Whitby Abbey,North Yorkshire,https://www.english-heritage.org.uk/visit/places/whitby-abbey/
"Winterbourne Monkton, Swindon, Wiltshire SN4 9NW",Swindon,United Kingdom,English Heritage,"{'brand': 'English Heritage', 'fascia': 'English Heritage', 'category': 'Heritage Site', 'edit_date': '20250405', 'lat_lon_source': 'website'}",51.440259,-1.874103,{'opening_hours': {}},01672 539 250,2605,SN4 9NW,"Windmill Hill, Avebury",Wiltshire,https://www.english-heritage.org.uk/visit/places/windmill-hill/
"Wheeldale Moor, Goathland, North Yorkshire YO22 5AP",Goathland,United Kingdom,English Heritage,"{'brand': 'English Heritage', 'fascia': 'English Heritage', 'category': 'Heritage Site', 'edit_date': '20250405', 'lat_lon_source': 'website'}",54.366301,-0.762467,{'opening_hours': {}},,2661,YO22 5AP,Wheeldale Roman Road,North Yorkshire,https://www.english-heritage.org.uk/visit/places/wheeldale-roman-road/
"South Wingfield, Alfreton, Derbyshire DE55 7NH",Alfreton,United Kingdom,English Heritage,"{'brand': 'English Heritage', 'fascia': 'English Heritage', 'category': 'Heritage Site', 'edit_date': '20250405', 'lat_lon_source': 'website'}",53.088076,-1.438734,{'opening_hours': {}},,2653,DE55 7NH,Wingfield Manor,Derbyshire,https://www.english-heritage.org.uk/visit/places/wingfield-manor/
"The Sands, Clitheroe, Lancashire BB7 9TN",Clitheroe,United Kingdom,English Heritage,"{'brand': 'English Heritage', 'fascia': 'English Heritage', 'category': 'Heritage Site', 'edit_date': '20250405', 'lat_lon_source': 'website'}",53.820397,-2.412125,{'opening_hours': {}},,3054,BB7 9TN,Whalley Abbey Gatehouse,Lancashire,https://www.english-heritage.org.uk/visit/places/whalley-abbey-gatehouse/
"West Kennett, Marlborough, Wiltshire SN8 1QH",Marlborough,United Kingdom,English Heritage,"{'brand': 'English Heritage', 'fascia': 'English Heritage', 'category': 'Heritage Site', 'edit_date': '20250405', 'lat_lon_source': 'website'}",51.40855,-1.847875,{'opening_hours': {}},01672 539 250,2872,SN8 1QH,"West Kennet Long Barrow, Avebury",Wiltshire,https://www.english-heritage.org.uk/visit/places/west-kennet-long-barrow/
"Drop Redoubt Road, Dover, Kent CT17 9DZ",Dover,United Kingdom,English Heritage,"{'brand': 'English Heritage', 'fascia': 'English Heritage', 'category': 'Heritage Site', 'edit_date': '20250405', 'lat_lon_source': 'website'}",51.11934,1.303027,{'opening_hours': {}},01304 211067,3111,CT17 9DZ,"Western Heights, Dover",Kent,https://www.english-heritage.org.uk/visit/places/western-heights-dover/
"Wenlock Priory, Much Wenlock, Telford, Shropshire TF13 6HS","Much Wenlock, Telford",United Kingdom,English Heritage,"{'brand': 'English Heritage', 'fascia': 'English Heritage', 'category': 'Heritage Site', 'edit_date': '20250405', 'lat_lon_source': 'website'}",52.597922,-2.555457,{'opening_hours': {}},01952 727466,2581,TF13 6HS,Wenlock Priory,Shropshire,https://www.english-heritage.org.uk/visit/places/wenlock-priory/
"Castle Close, Weeting, Norfolk IP27 0RQ",Weeting,United Kingdom,English Heritage,"{'brand': 'English Heritage', 'fascia': 'English Heritage', 'category': 'Heritage Site', 'edit_date': '20250405', 'lat_lon_source': 'website'}",52.472282,0.617984,{'opening_hours': {}},,2669,IP27 0RQ,Weeting Castle,Norfolk,https://www.english-heritage.org.uk/visit/places/weeting-castle/
"Apsley Way, Hyde Park Corner, London W1J 7JZ",Hyde Park Corner,United Kingdom,English Heritage,"{'brand': 'English Heritage', 'fascia': 'English Heritage', 'category': 'Heritage Site', 'edit_date': '20250405', 'lat_lon_source': 'website'}",51.50258,-0.1508,{'opening_hours': {}},020 7930 2726,3398,W1J 7JZ,Wellington Arch,London,https://www.english-heritage.org.uk/visit/places/wellington-arch/
"Waverley Lane, Farnham, Surrey GU9 8EP",Farnham,United Kingdom,English Heritage,"{'brand': 'English Heritage', 'fascia': 'English Heritage', 'category': 'Heritage Site', 'edit_date': '20250405', 'lat_lon_source': 'website'}",51.200114,-0.759131,{'opening_hours': {}},,2753,GU9 8EP,Waverley Abbey,Surrey,https://www.english-heritage.org.uk/visit/places/waverley-abbey/
"Wetheral, Carlisle, Cumbria CA4 8ES",Carlisle,United Kingdom,English Heritage,"{'brand': 'English Heritage', 'fascia': 'English Heritage', 'category': 'Heritage Site', 'edit_date': '20250405', 'lat_lon_source': 'website'}",54.879144,-2.829101,{'opening_hours': {}},,2956,CA4 8ES,Wetheral Priory Gatehouse,Cumbria,https://www.english-heritage.org.uk/visit/places/wetheral-priory-gatehouse/
"Avebury, Marlborough, Gloucestershire SN8 1RD",Marlborough,United Kingdom,English Heritage,"{'brand': 'English Heritage', 'fascia': 'English Heritage', 'category': 'Heritage Site', 'edit_date': '20250405', 'lat_lon_source': 'website'}",51.418558,-1.83898,{'opening_hours': {}},01672 539 250,2665,SN8 1RD,"West Kennet Avenue, Avebury",Gloucestershire,https://www.english-heritage.org.uk/visit/places/west-kennet-avenue/
"Kingsdown Road, Deal, Kent CT14 7LJ",Deal,United Kingdom,English Heritage,"{'brand': 'English Heritage', 'fascia': 'English Heritage', 'category': 'Heritage Site', 'edit_date': '20250405', 'lat_lon_source': 'website'}",51.2,1.404177,{'opening_hours': {}},0370 333 1181,3462,CT14 7LJ,Walmer Castle and Gardens,Kent,https://www.english-heritage.org.uk/visit/places/walmer-castle-and-gardens/
"Castle Terrace, Warkworth, Northumberland NE65 0UJ",Warkworth,United Kingdom,English Heritage,"{'brand': 'English Heritage', 'fascia': 'English Heritage', 'category': 'Heritage Site', 'edit_date': '20250405', 'lat_lon_source': 'website'}",55.3444,-1.611218,{'opening_hours': {}},01665 711423,3259,NE65 0UJ,Warkworth Castle,Northumberland,https://www.english-heritage.org.uk/visit/places/warkworth-castle-and-hermitage/
"Greenhead, Hexham, Northumberland CA8 7JD",Hexham,United Kingdom,English Heritage,"{'brand': 'English Heritage', 'fascia': 'English Heritage', 'category': 'Heritage Site', 'edit_date': '20250405', 'lat_lon_source': 'website'}",54.991023,-2.509512,{'opening_hours': {}},,2673,CA8 7JD,Walltown Crags - Hadrian&#39;s Wall,Northumberland,https://www.english-heritage.org.uk/visit/places/walltown-crags-hadrians-wall/
"Watling Street, Lichfield, Staffordshire WS14 0AW",Lichfield,United Kingdom,English Heritage,"{'brand': 'English Heritage', 'fascia': 'English Heritage', 'category': 'Heritage Site', 'edit_date': '20250405', 'lat_lon_source': 'website'}",52.655889,-1.855802,{'opening_hours': {}},,2996,WS14 0AW,Wall Roman Site,Staffordshire,https://www.english-heritage.org.uk/visit/places/wall-roman-site/
"Coaley, Dursley, Gloucestershire GL11 5BH",Dursley,United Kingdom,English Heritage,"{'brand': 'English Heritage', 'fascia': 'English Heritage', 'category': 'Heritage Site', 'edit_date': '20250405', 'lat_lon_source': 'website'}",51.697332,-2.304548,{'opening_hours': {}},,2829,GL11 5BH,Uley Long Barrow (Hetty Pegler&#39;s Tump),Gloucestershire,https://www.english-heritage.org.uk/visit/places/uley-long-barrow-hetty-peglers-tump/
"Upnor Road, Rochester, Kent ME2 4XG",Rochester,United Kingdom,English Heritage,"{'brand': 'English Heritage', 'fascia': 'English Heritage', 'category': 'Heritage Site', 'edit_date': '20250405', 'lat_lon_source': 'website'}",51.408764,0.52965,{'opening_hours': {}},01634 331073,3171,ME2 4XG,Upnor Castle,Kent,https://www.english-heritage.org.uk/visit/places/upnor-castle/
"Waltham Abbey Gardens, Waltham Abbey, Essex EN9 1XQ",Waltham Abbey,United Kingdom,English Heritage,"{'brand': 'English Heritage', 'fascia': 'English Heritage', 'category': 'Heritage Site', 'edit_date': '20250405', 'lat_lon_source': 'website'}",51.687406,-0.001366,{'opening_hours': {}},08456 770 600,2589,EN9 1XQ,Waltham Abbey Gatehouse and Bridge,Essex,https://www.english-heritage.org.uk/visit/places/waltham-abbey-gatehouse-and-bridge/
", , Oxfordshire SN7 7UK",,United Kingdom,English Heritage,"{'brand': 'English Heritage', 'fascia': 'English Heritage', 'category': 'Heritage Site', 'edit_date': '20250405', 'lat_lon_source': 'website'}",51.574602,-1.571416,{'opening_hours': {}},,2301,SN7 7UK,Uffington Castle - White Horse and Dragon Hill,Oxfordshire,https://www.english-heritage.org.uk/visit/places/uffington-castle-white-horse-and-dragon-hill/
"Pier Road, Tynemouth, Tyne and Wear NE30 4BZ",Tynemouth,United Kingdom,English Heritage,"{'brand': 'English Heritage', 'fascia': 'English Heritage', 'category': 'Heritage Site', 'edit_date': '20250405', 'lat_lon_source': 'website'}",55.017888,-1.417383,{'opening_hours': {}},0191 257 1090,3123,NE30 4BZ,Tynemouth Priory and Castle,Tyne and Wear,https://www.english-heritage.org.uk/visit/places/tynemouth-priory-and-castle/
"St Buryan, Penzance, Cornwall TR19 6BQ",Penzance,United Kingdom,English Heritage,"{'brand': 'English Heritage', 'fascia': 'English Heritage', 'category': 'Heritage Site', 'edit_date': '20250405', 'lat_lon_source': 'website'}",50.063372,-5.589889,{'opening_hours': {}},,2537,TR19 6BQ,Tregiffian Burial Chamber,Cornwall,https://www.english-heritage.org.uk/visit/places/tregiffian-burial-chamber/
"Main Street, Carnforth, Lancashire LA5 9PH",Carnforth,United Kingdom,English Heritage,"{'brand': 'English Heritage', 'fascia': 'English Heritage', 'category': 'Heritage Site', 'edit_date': '20250405', 'lat_lon_source': 'website'}",54.14426,-2.765156,{'opening_hours': {}},,3050,LA5 9PH ,Warton Old Rectory,Lancashire,https://www.english-heritage.org.uk/visit/places/warton-old-rectory/
"Mill Lane, Titchfield, Hampshire PO15 5RA",Titchfield,United Kingdom,English Heritage,"{'brand': 'English Heritage', 'fascia': 'English Heritage', 'category': 'Heritage Site', 'edit_date': '20250405', 'lat_lon_source': 'website'}",50.856351,-1.229445,{'opening_hours': {}},,2297,PO15 5RA,Titchfield Abbey,Hampshire,https://www.english-heritage.org.uk/visit/places/titchfield-abbey/
"Tilbury Fort, Tilbury, Essex RM18 7NR",Tilbury,United Kingdom,English Heritage,"{'brand': 'English Heritage', 'fascia': 'English Heritage', 'category': 'Heritage Site', 'edit_date': '20250405', 'lat_lon_source': 'website'}",51.451978,0.374501,{'opening_hours': {}},01375 858489,2577,RM18 7NR,Tilbury Fort,Essex,https://www.english-heritage.org.uk/visit/places/tilbury-fort/
", Dartmoor, Devon PL7 5EJ",Dartmoor,United Kingdom,English Heritage,"{'brand': 'English Heritage', 'fascia': 'English Heritage', 'category': 'Heritage Site', 'edit_date': '20250405', 'lat_lon_source': 'website'}",50.4969,-4.0109,{'opening_hours': {}},,2317,PL7 5EJ,Upper Plym Valley,Devon,https://www.english-heritage.org.uk/visit/places/upper-plym-valley/
"Castle Street, Totnes, Devon TQ9 5NU",Totnes,United Kingdom,English Heritage,"{'brand': 'English Heritage', 'fascia': 'English Heritage', 'category': 'Heritage Site', 'edit_date': '20250405', 'lat_lon_source': 'website'}",50.431667,-3.689131,{'opening_hours': {}},01803 864406,3131,TQ9 5NU,Totnes Castle,Devon,https://www.english-heritage.org.uk/visit/places/totnes-castle/
"Castle Road, Tintagel, Cornwall PL34 0HE",Tintagel,United Kingdom,English Heritage,"{'brand': 'English Heritage', 'fascia': 'English Heritage', 'category': 'Heritage Site', 'edit_date': '20250405', 'lat_lon_source': 'website'}",50.667442,-4.756592,{'opening_hours': {}},,3211,PL34 0HE,Tintagel Castle,Cornwall,https://www.english-heritage.org.uk/visit/places/tintagel-castle/
"Brandon Road, Thetford, Norfolk IP24 3PN",Thetford,United Kingdom,English Heritage,"{'brand': 'English Heritage', 'fascia': 'English Heritage', 'category': 'Heritage Site', 'edit_date': '20250405', 'lat_lon_source': 'website'}",52.413715,0.74265,{'opening_hours': {}},,2597,IP24 3PN,"Thetford, Church of the Holy Sepulchre",Norfolk,https://www.english-heritage.org.uk/visit/places/thetford-church-of-the-holy-sepulchre/
"Brandon Road, Thetford, Norfolk IP24 3NE",Thetford,United Kingdom,English Heritage,"{'brand': 'English Heritage', 'fascia': 'English Heritage', 'category': 'Heritage Site', 'edit_date': '20250405', 'lat_lon_source': 'website'}",52.423776,0.706785,{'opening_hours': {}},,2641,IP24 3NE,Thetford Warren Lodge,Norfolk,https://www.english-heritage.org.uk/visit/places/thetford-warren-lodge/
", , Wiltshire SN8 1EY",,United Kingdom,English Heritage,"{'brand': 'English Heritage', 'fascia': 'English Heritage', 'category': 'Heritage Site', 'edit_date': '20250405', 'lat_lon_source': 'website'}",51.409872,-1.830271,{'opening_hours': {}},01672 539250,2501,SN8 1EY,"The Sanctuary, Avebury",Wiltshire,https://www.english-heritage.org.uk/visit/places/the-sanctuary/
"Winterbourne Abbas, Dorchester, Dorset DT2 9LX",Dorchester,United Kingdom,English Heritage,"{'brand': 'English Heritage', 'fascia': 'English Heritage', 'category': 'Heritage Site', 'edit_date': '20250405', 'lat_lon_source': 'website'}",50.711451,-2.550948,{'opening_hours': {}},,3545,DT2 9LX,The Nine Stones,Dorset,https://www.english-heritage.org.uk/visit/places/the-nine-stones/
", Ashbury, Oxfordshire",Ashbury,United Kingdom,English Heritage,"{'brand': 'English Heritage', 'fascia': 'English Heritage', 'category': 'Heritage Site', 'edit_date': '20250405', 'lat_lon_source': 'website'}",51.566545,-1.594088,{'opening_hours': {}},,2505,,Wayland&#39;s Smithy,Oxfordshire,https://www.english-heritage.org.uk/visit/places/waylands-smithy/
"Centenary Way, Malton, North Yorkshire YO17 9TD",Malton,United Kingdom,English Heritage,"{'brand': 'English Heritage', 'fascia': 'English Heritage', 'category': 'Heritage Site', 'edit_date': '20250405', 'lat_lon_source': 'website'}",54.068743,-0.68958,{'opening_hours': {}},,2916,YO17 9TD,Wharram Percy Deserted Medieval Village,North Yorkshire,https://www.english-heritage.org.uk/visit/places/wharram-percy-deserted-medieval-village/
"The Cenotaph, Westminster, London SW1A 2ET",Westminster,United Kingdom,English Heritage,"{'brand': 'English Heritage', 'fascia': 'English Heritage', 'category': 'Heritage Site', 'edit_date': '20250405', 'lat_lon_source': 'website'}",51.502652,-0.126090,{'opening_hours': {}},,105213,SW1A 2ET,The Cenotaph,London,https://www.english-heritage.org.uk/visit/places/the-cenotaph/
", West Tanfield, North Yorkshire DL8 2RA",West Tanfield,United Kingdom,English Heritage,"{'brand': 'English Heritage', 'fascia': 'English Heritage', 'category': 'Heritage Site', 'edit_date': '20250405', 'lat_lon_source': 'website'}",54.208998,-1.562708,{'opening_hours': {}},,174468,DL8 2RA,Thornborough Henges,North Yorkshire,https://www.english-heritage.org.uk/visit/places/thornborough-henges/
"Thornton Curtis, Ulceby, North Lincolnshire DN39 6TU",Ulceby,United Kingdom,English Heritage,"{'brand': 'English Heritage', 'fascia': 'English Heritage', 'category': 'Heritage Site', 'edit_date': '20250405', 'lat_lon_source': 'website'}",53.654166,-0.311696,{'opening_hours': {}},01469 541445,3203,DN39 6TU,Thornton Abbey and Gatehouse,North Lincolnshire,https://www.english-heritage.org.uk/visit/places/thornton-abbey-and-gatehouse/
"Water Lane, Thetford, Norfolk IP24 1BB",Thetford,United Kingdom,English Heritage,"{'brand': 'English Heritage', 'fascia': 'English Heritage', 'category': 'Heritage Site', 'edit_date': '20250405', 'lat_lon_source': 'website'}",52.416126,0.743064,{'opening_hours': {}},,2637,IP24 1BB,Thetford Priory,Norfolk,https://www.english-heritage.org.uk/visit/places/thetford-priory/
", Alresford, Hampshire",Alresford,United Kingdom,English Heritage,"{'brand': 'English Heritage', 'fascia': 'English Heritage', 'category': 'Heritage Site', 'edit_date': '20250405', 'lat_lon_source': 'website'}",51.122214,-1.195062,{'opening_hours': {}},,2781,,The Grange at Northington,Hampshire,https://www.english-heritage.org.uk/visit/places/northington-grange/
"Hall Drive, Sutton Scarsdale, Derbyshire S44 5UR",Sutton Scarsdale,United Kingdom,English Heritage,"{'brand': 'English Heritage', 'fascia': 'English Heritage', 'category': 'Heritage Site', 'edit_date': '20250405', 'lat_lon_source': 'website'}",53.2162,-1.341,{'opening_hours': {}},,2645,S44 5UR,Sutton Scarsdale Hall,Derbyshire,https://www.english-heritage.org.uk/visit/places/sutton-scarsdale-hall/
"Off B3254, St Cleer, Cornwall PL14 5JY",St Cleer,United Kingdom,English Heritage,"{'brand': 'English Heritage', 'fascia': 'English Heritage', 'category': 'Heritage Site', 'edit_date': '20250405', 'lat_lon_source': 'website'}",50.491651,-4.455734,{'opening_hours': {}},,3004,PL14 5JY,Trethevy Quoit,Cornwall,https://www.english-heritage.org.uk/visit/places/trethevy-quoit/
"Finsthwaite, Ulverston, Cumbria LA12 8AX",Ulverston,United Kingdom,English Heritage,"{'brand': 'English Heritage', 'fascia': 'English Heritage', 'category': 'Heritage Site', 'edit_date': '20250405', 'lat_lon_source': 'website'}",54.285414,-2.965043,{'opening_hours': {}},01539 531087,3119,LA12 8AX,Stott Park Bobbin Mill,Cumbria,https://www.english-heritage.org.uk/visit/places/stott-park-bobbin-mill/
", Wellow, Somerset BA2 8NR",Wellow,United Kingdom,English Heritage,"{'brand': 'English Heritage', 'fascia': 'English Heritage', 'category': 'Heritage Site', 'edit_date': '20250405', 'lat_lon_source': 'website'}",51.313358,-2.381693,{'opening_hours': {}},,2761,BA2 8NR,Stoney Littleton Long Barrow,Somerset,https://www.english-heritage.org.uk/visit/places/stoney-littleton-long-barrow/
"Stokesay  , Craven Arms, Shropshire SY7 9AH",Craven Arms,United Kingdom,English Heritage,"{'brand': 'English Heritage', 'fascia': 'English Heritage', 'category': 'Heritage Site', 'edit_date': '20250405', 'lat_lon_source': 'website'}",52.428284,-2.831005,{'opening_hours': {}},01588 672544,3151,SY7 9AH,Stokesay Castle,Shropshire,https://www.english-heritage.org.uk/visit/places/stokesay-castle/
", Near Amesbury, Wiltshire SP4 7DE",Near Amesbury,United Kingdom,English Heritage,"{'brand': 'English Heritage', 'fascia': 'English Heritage', 'category': 'Heritage Site', 'edit_date': '20250405', 'lat_lon_source': 'website'}",51.1831565223,-1.85887471623,{'opening_hours': {}},,3752,SP4 7DE,Stonehenge,Wiltshire,https://www.english-heritage.org.uk/visit/places/stonehenge/
"Steeton Way, South Milford, North Yorkshire LS25 5PD",South Milford,United Kingdom,English Heritage,"{'brand': 'English Heritage', 'fascia': 'English Heritage', 'category': 'Heritage Site', 'edit_date': '20250405', 'lat_lon_source': 'website'}",53.777766,-1.2671,{'opening_hours': {}},,3534,LS25 5PD,Steeton Hall Gateway,North Yorkshire,https://www.english-heritage.org.uk/visit/places/steeton-hall-gateway/
", Forcett, North Yorkshire DL11 7RU",Forcett,United Kingdom,English Heritage,"{'brand': 'English Heritage', 'fascia': 'English Heritage', 'category': 'Heritage Site', 'edit_date': '20250405', 'lat_lon_source': 'website'}",54.506388,-1.724551,{'opening_hours': {}},,2437,DL11 7RU,Stanwick Iron Age Fortifications,North Yorkshire,https://www.english-heritage.org.uk/visit/places/stanwick-iron-age-fortifications/
", Stanton Drew, Somerset BS39 4EW",Stanton Drew,United Kingdom,English Heritage,"{'brand': 'English Heritage', 'fascia': 'English Heritage', 'category': 'Heritage Site', 'edit_date': '20250405', 'lat_lon_source': 'website'}",51.367139,-2.5760365,{'opening_hours': {}},,3075,BS39 4EW,Stanton Drew Circles and Cove,Somerset,https://www.english-heritage.org.uk/visit/places/stanton-drew-circles-and-cove/
"Church Bank, Jarrow, Tyne and Wear NE32 3DY",Jarrow,United Kingdom,English Heritage,"{'brand': 'English Heritage', 'fascia': 'English Heritage', 'category': 'Heritage Site', 'edit_date': '20250405', 'lat_lon_source': 'website'}",54.981461,-1.470872,{'opening_hours': {}},01914 897052,2409,NE32 3DY,"St Paul&#39;s Monastery, Jarrow",Tyne and Wear,https://www.english-heritage.org.uk/visit/places/st-pauls-monastery-jarrow/
"Castle Drive, Nr Truro, Cornwall TR2 5DE",Nr Truro,United Kingdom,English Heritage,"{'brand': 'English Heritage', 'fascia': 'English Heritage', 'category': 'Heritage Site', 'edit_date': '20250405', 'lat_lon_source': 'website'}",50.156122,-5.023468,{'opening_hours': {}},01326 270526,3179,TR2 5DE,St Mawes Castle,Cornwall,https://www.english-heritage.org.uk/visit/places/st-mawes-castle/
", Barton-upon-Humber, North Lincolnshire DN18 5EX",Barton-upon-Humber,United Kingdom,English Heritage,"{'brand': 'English Heritage', 'fascia': 'English Heritage', 'category': 'Heritage Site', 'edit_date': '20250405', 'lat_lon_source': 'website'}",53.684407,-0.43419,{'opening_hours': {}},01652 632516,3127,DN18 5EX,"St Peter&#39;s Church, Barton-upon-Humber",North Lincolnshire,https://www.english-heritage.org.uk/visit/places/st-peters-church-barton-upon-humber/
"Beccles Road, Great Yarmouth, Norfolk NR31 9HE",Great Yarmouth,United Kingdom,English Heritage,"{'brand': 'English Heritage', 'fascia': 'English Heritage', 'category': 'Heritage Site', 'edit_date': '20250405', 'lat_lon_source': 'website'}",52.539358,1.625571,{'opening_hours': {}},,2593,NR31 9HE,St Olave&#39;s Priory,Norfolk,https://www.english-heritage.org.uk/visit/places/st-olaves-priory/
"St Leonardâ€™s Street, West Malling, Kent ME19 6PD",West Malling,United Kingdom,English Heritage,"{'brand': 'English Heritage', 'fascia': 'English Heritage', 'category': 'Heritage Site', 'edit_date': '20250405', 'lat_lon_source': 'website'}",51.285657,0.400989,{'opening_hours': {}},,2793,ME19 6PD,St Leonard&#39;s Tower,Kent,https://www.english-heritage.org.uk/visit/places/st-leonards-tower/
"St. Mary&#39;s Church, Ripon, North Yorkshire HG4 3DY",Ripon,United Kingdom,English Heritage,"{'brand': 'English Heritage', 'fascia': 'English Heritage', 'category': 'Heritage Site', 'edit_date': '20250405', 'lat_lon_source': 'website'}",54.12034,-1.579026,{'opening_hours': {}},01765 608888,3526,HG4 3DY,"St Mary&#39;s Church, Studley Royal",North Yorkshire,https://www.english-heritage.org.uk/visit/places/st-marys-church-studley-royal/
"Swingfield, Dover, Kent CT15 7HG",Dover,United Kingdom,English Heritage,"{'brand': 'English Heritage', 'fascia': 'English Heritage', 'category': 'Heritage Site', 'edit_date': '20250405', 'lat_lon_source': 'website'}",51.151203,1.193192,{'opening_hours': {}},01304 211067,2509,CT15 7HG,St John&#39;s Commandery,Kent,https://www.english-heritage.org.uk/visit/places/st-johns-commandery/
"Victoria Street, , Bristol BS1 6HS",,United Kingdom,English Heritage,"{'brand': 'English Heritage', 'fascia': 'English Heritage', 'category': 'Heritage Site', 'edit_date': '20250405', 'lat_lon_source': 'website'}",51.451367,-2.585631,{'opening_hours': {}},,2613,BS1 6HS,Temple Church,Bristol,https://www.english-heritage.org.uk/visit/places/temple-church/
"Rectory Lane, Sutton Valence, Kent ME17 3LW",Sutton Valence,United Kingdom,English Heritage,"{'brand': 'English Heritage', 'fascia': 'English Heritage', 'category': 'Heritage Site', 'edit_date': '20250405', 'lat_lon_source': 'website'}",51.210579,0.598353,{'opening_hours': {}},,3382,ME17 3LW,Sutton Valence Castle,Kent,https://www.english-heritage.org.uk/visit/places/sutton-valence-castle/
"Off Market Place (access between houses numbered 2 and 3), Tattershall, Lincolnshire LN4 4LG",Tattershall,United Kingdom,English Heritage,"{'brand': 'English Heritage', 'fascia': 'English Heritage', 'category': 'Heritage Site', 'edit_date': '20250405', 'lat_lon_source': 'website'}",53.10337,-0.186563,{'opening_hours': {}},01529 461499,2369,LN4 4LG,Tattershall College,Lincolnshire,https://www.english-heritage.org.uk/visit/places/tattershall-college/
"Knight Road, Rochester, Kent ME2 2AH",Rochester,United Kingdom,English Heritage,"{'brand': 'English Heritage', 'fascia': 'English Heritage', 'category': 'Heritage Site', 'edit_date': '20250405', 'lat_lon_source': 'website'}",51.39002,0.491606,{'opening_hours': {}},,2293,ME2 2AH,Temple Manor,Kent,https://www.english-heritage.org.uk/visit/places/temple-manor/
"Blackgang Road, Chale, Isle of Wight PO38 2JB",Chale,United Kingdom,English Heritage,"{'brand': 'English Heritage', 'fascia': 'English Heritage', 'category': 'Heritage Site', 'edit_date': '20250405', 'lat_lon_source': 'website'}",50.594434,-1.304198,{'opening_hours': {}},,2313,PO38 2JB,St Catherine&#39;s Oratory,Isle of Wight,https://www.english-heritage.org.uk/visit/places/st-catherines-oratory/
"St Catherines Cove, Fowey, , Cornwall PL23 1JH","Fowey, ",United Kingdom,English Heritage,"{'brand': 'English Heritage', 'fascia': 'English Heritage', 'category': 'Heritage Site', 'edit_date': '20250405', 'lat_lon_source': 'website'}",50.327487,-4.644864,{'opening_hours': {}},,3071,PL23 1JH,St Catherine&#39;s Castle,Cornwall,https://www.english-heritage.org.uk/visit/places/st-catherines-castle/
"Church Street, Lydney, Gloucestershire GL15 6TA",Lydney,United Kingdom,English Heritage,"{'brand': 'English Heritage', 'fascia': 'English Heritage', 'category': 'Heritage Site', 'edit_date': '20250405', 'lat_lon_source': 'website'}",51.73919,-2.6407,{'opening_hours': {}},01594 530272,2821,GL15 6TA,St Briavels Castle,Gloucestershire,https://www.english-heritage.org.uk/visit/places/st-briavels-castle/
"King&#39;s Park, Canterbury, Kent CT1 1QH",Canterbury,United Kingdom,English Heritage,"{'brand': 'English Heritage', 'fascia': 'English Heritage', 'category': 'Heritage Site', 'edit_date': '20250405', 'lat_lon_source': 'website'}",51.283737,1.096912,{'opening_hours': {}},,2517,CT1 1QH,St Augustine&#39;s Conduit House,Kent,https://www.english-heritage.org.uk/visit/places/conduit-house/
"St John&#39;s Green, Colchester, Essex CO2 7EZ",Colchester,United Kingdom,English Heritage,"{'brand': 'English Heritage', 'fascia': 'English Heritage', 'category': 'Heritage Site', 'edit_date': '20250405', 'lat_lon_source': 'website'}",51.886,0.9019,{'opening_hours': {}},,2305,CO2 7EZ,St John&#39;s Abbey Gate,Essex,https://www.english-heritage.org.uk/visit/places/st-johns-abbey-gate/
", , Gloucestershire GL18 2AT",,United Kingdom,English Heritage,"{'brand': 'English Heritage', 'fascia': 'English Heritage', 'category': 'Heritage Site', 'edit_date': '20250405', 'lat_lon_source': 'website'}",51.978598,-2.482435,{'opening_hours': {}},01531 660214,3548,GL18 2AT,"St Mary&#39;s Church, Kempley",Gloucestershire,https://www.english-heritage.org.uk/visit/places/st-marys-church-kempley/
"Bail Gate, Driffield, East Yorkshire YO25 8TH",Driffield,United Kingdom,English Heritage,"{'brand': 'English Heritage', 'fascia': 'English Heritage', 'category': 'Heritage Site', 'edit_date': '20250405', 'lat_lon_source': 'website'}",53.978501,-0.229884,{'opening_hours': {}},,3506,YO25 8TH,Skipsea Castle,East Yorkshire,https://www.english-heritage.org.uk/visit/places/skipsea-castle/
"Southwick, Fareham, Hampshire",Fareham,United Kingdom,English Heritage,"{'brand': 'English Heritage', 'fascia': 'English Heritage', 'category': 'Heritage Site', 'edit_date': '20250405', 'lat_lon_source': 'website'}",50.8721,-1.10779,{'opening_hours': {}},,2521,,Southwick Priory,Hampshire,https://www.english-heritage.org.uk/visit/places/southwick-priory/
"Cottington Road , Thanet, Kent CT12 5JB",Thanet,United Kingdom,English Heritage,"{'brand': 'English Heritage', 'fascia': 'English Heritage', 'category': 'Heritage Site', 'edit_date': '20250405', 'lat_lon_source': 'website'}",51.328341,1.358,{'opening_hours': {}},,2513,CT12 5JB,St Augustine&#39;s Cross,Kent,https://www.english-heritage.org.uk/visit/places/st-augustines-cross/
"St Breock Downs, Rosenannon, Cornwall PL30 5PN",Rosenannon,United Kingdom,English Heritage,"{'brand': 'English Heritage', 'fascia': 'English Heritage', 'category': 'Heritage Site', 'edit_date': '20250405', 'lat_lon_source': 'website'}",50.479086,-4.865269,{'opening_hours': {}},,3576,PL30 5PN,St Breock Downs Monolith,Cornwall,https://www.english-heritage.org.uk/visit/places/st-breock-downs-monolith/
"Castle Street, Harrogate, North Yorkshire HG3 1DA",Harrogate,United Kingdom,English Heritage,"{'brand': 'English Heritage', 'fascia': 'English Heritage', 'category': 'Heritage Site', 'edit_date': '20250405', 'lat_lon_source': 'website'}",53.955202,-1.450704,{'opening_hours': {}},,3530,HG3 1DA,Spofforth Castle,North Yorkshire,https://www.english-heritage.org.uk/visit/places/spofforth-castle/
"West Kennett, Marlborough, Wiltshire SN8 1QH",Marlborough,United Kingdom,English Heritage,"{'brand': 'English Heritage', 'fascia': 'English Heritage', 'category': 'Heritage Site', 'edit_date': '20250405', 'lat_lon_source': 'website'}",51.416476,-1.855662,{'opening_hours': {}},,3366,SN8 1QH,"Silbury Hill, Avebury",Wiltshire,https://www.english-heritage.org.uk/visit/places/silbury-hill/
"Shrewsbury Flaxmill Maltings, Shrewsbury, Shropshire SY1 2SZ",Shrewsbury,United Kingdom,English Heritage,"{'brand': 'English Heritage', 'fascia': 'English Heritage', 'category': 'Heritage Site', 'edit_date': '20250405', 'lat_lon_source': 'website'}",52.719760145808735,-2.7436904465215775,{'opening_hours': {}},0370 333 1181,231969,SY1 2SZ,Shrewsbury Flaxmill Maltings,Shropshire,https://www.english-heritage.org.uk/visit/places/shrewsbury-flaxmill-maltings/
"Frithville Road, Sibsey, Lincolnshire PE22 0SY",Sibsey,United Kingdom,English Heritage,"{'brand': 'English Heritage', 'fascia': 'English Heritage', 'category': 'Heritage Site', 'edit_date': '20250405', 'lat_lon_source': 'website'}",53.038447,0.007638,{'opening_hours': {}},,2325,PE22 0SY,Sibsey Trader Windmill,Lincolnshire,https://www.english-heritage.org.uk/visit/places/sibsey-trader-windmill/
"Battlefields, Bath,  BA1 9DD",Bath,United Kingdom,English Heritage,"{'brand': 'English Heritage', 'fascia': 'English Heritage', 'category': 'Heritage Site', 'edit_date': '20250405', 'lat_lon_source': 'website'}",51.43075,-2.400611,{'opening_hours': {}},,2988,BA1 9DD,Sir Bevil Grenville&#39;s Monument,,https://www.english-heritage.org.uk/visit/places/sir-bevil-grenvilles-monument/
"Castle Road, Scarborough, North Yorkshire YO11 1HY",Scarborough,United Kingdom,English Heritage,"{'brand': 'English Heritage', 'fascia': 'English Heritage', 'category': 'Heritage Site', 'edit_date': '20250405', 'lat_lon_source': 'website'}",54.286894,-0.392371,{'opening_hours': {}},01723 372451,3243,YO11 1HY,Scarborough Castle,North Yorkshire,https://www.english-heritage.org.uk/visit/places/scarborough-castle/
", Silchester, Hampshire RG7 2HP",Silchester,United Kingdom,English Heritage,"{'brand': 'English Heritage', 'fascia': 'English Heritage', 'category': 'Heritage Site', 'edit_date': '20250405', 'lat_lon_source': 'website'}",51.356481,-1.077628,{'opening_hours': {}},,2289,RG7 2HP,Silchester Roman City Walls and Amphitheatre,Hampshire,https://www.english-heritage.org.uk/visit/places/silchester-roman-city-walls-and-amphitheatre/
"Longport, Canterbury, Kent CT1 1PF",Canterbury,United Kingdom,English Heritage,"{'brand': 'English Heritage', 'fascia': 'English Heritage', 'category': 'Heritage Site', 'edit_date': '20250405', 'lat_lon_source': 'website'}",51.283737,1.096912,{'opening_hours': {}},01227 387 290,3494,CT1 1PF,St Augustine&#39;s Abbey,Kent,https://www.english-heritage.org.uk/visit/places/st-augustines-abbey/
"Castleton, Sherborne, Dorset DT9 3SA",Sherborne,United Kingdom,English Heritage,"{'brand': 'English Heritage', 'fascia': 'English Heritage', 'category': 'Heritage Site', 'edit_date': '20250405', 'lat_lon_source': 'website'}",50.94974,-2.5026,{'opening_hours': {}},01935 812730,3687,DT9 3SA,Sherborne Old Castle,Dorset,https://www.english-heritage.org.uk/visit/places/sherborne-old-castle/
"Rushton, Kettering, Northamptonshire NN14 1RP",Kettering,United Kingdom,English Heritage,"{'brand': 'English Heritage', 'fascia': 'English Heritage', 'category': 'Heritage Site', 'edit_date': '20250405', 'lat_lon_source': 'website'}",52.437977,-0.767901,{'opening_hours': {}},01536 710761,2329,NN14 1RP,Rushton Triangular Lodge,Northamptonshire,https://www.english-heritage.org.uk/visit/places/rushton-triangular-lodge/
"Rufford Abbey Country Park, Ollerton, Nottinghamshire NG22 9DF",Ollerton,United Kingdom,English Heritage,"{'brand': 'English Heritage', 'fascia': 'English Heritage', 'category': 'Heritage Site', 'edit_date': '20250405', 'lat_lon_source': 'website'}",53.174875,-1.033404,{'opening_hours': {}},01623 821338,3442,NG22 9DF,Rufford Abbey,Nottinghamshire,https://www.english-heritage.org.uk/visit/places/rufford-abbey/
"Penny Street, Portsmouth, Hampshire PO1 2NJ",Portsmouth,United Kingdom,English Heritage,"{'brand': 'English Heritage', 'fascia': 'English Heritage', 'category': 'Heritage Site', 'edit_date': '20250405', 'lat_lon_source': 'website'}",50.788566,-1.103525,{'opening_hours': {}},,2309,PO1 2NJ,"Royal Garrison Church, Portsmouth",Hampshire,https://www.english-heritage.org.uk/visit/places/royal-garrison-church-portsmouth/
"The Mill House, Saxtead Green, Suffolk IP13 9QQ",Saxtead Green,United Kingdom,English Heritage,"{'brand': 'English Heritage', 'fascia': 'English Heritage', 'category': 'Heritage Site', 'edit_date': '20250405', 'lat_lon_source': 'website'}",52.230986,1.298199,{'opening_hours': {}},,3358,IP13 9QQ,Saxtead Green Post Mill,Suffolk,https://www.english-heritage.org.uk/visit/places/saxtead-green-post-mill/
"Market Square, Sandbach, Cheshire CW11 1AT",Sandbach,United Kingdom,English Heritage,"{'brand': 'English Heritage', 'fascia': 'English Heritage', 'category': 'Heritage Site', 'edit_date': '20250405', 'lat_lon_source': 'website'}",53.143655,-2.362546,{'opening_hours': {}},,2932,CW11 1AT,Sandbach Crosses,Cheshire,https://www.english-heritage.org.uk/visit/places/sandbach-crosses/
"Shap, Penrith, Cumbria CA10 3NB",Penrith,United Kingdom,English Heritage,"{'brand': 'English Heritage', 'fascia': 'English Heritage', 'category': 'Heritage Site', 'edit_date': '20250405', 'lat_lon_source': 'website'}",54.53092,-2.701212,{'opening_hours': {}},,2825,CA10 3NB,Shap Abbey,Cumbria,https://www.english-heritage.org.uk/visit/places/shap-abbey/
"Haydon Bridge, Hexham, Northumberland NE47 6NW",Hexham,United Kingdom,English Heritage,"{'brand': 'English Heritage', 'fascia': 'English Heritage', 'category': 'Heritage Site', 'edit_date': '20250405', 'lat_lon_source': 'website'}",55.027159,-2.289301,{'opening_hours': {}},,3596,NE47 6NW,Sewingshields Wall - Hadrian&#39;s Wall,Northumberland,https://www.english-heritage.org.uk/visit/places/sewingshields-wall-hadrians-wall/
"Castle Hill, Rochester, Kent ME1 1SW",Rochester,United Kingdom,English Heritage,"{'brand': 'English Heritage', 'fascia': 'English Heritage', 'category': 'Heritage Site', 'edit_date': '20250405', 'lat_lon_source': 'website'}",51.388724,0.503601,{'opening_hours': {}},01634 335882  (Educational Visits: 01634 332901),3663,ME1 1SW,Rochester Castle,Kent,https://www.english-heritage.org.uk/visit/places/rochester-castle/
"Chapel Rd, Hereford, Herefordshire HR2 6LD",Hereford,United Kingdom,English Heritage,"{'brand': 'English Heritage', 'fascia': 'English Heritage', 'category': 'Heritage Site', 'edit_date': '20250405', 'lat_lon_source': 'website'}",52.041173,-2.677963,{'opening_hours': {}},,3699,HR2 6LD,Rotherwas Chapel,Herefordshire,https://www.english-heritage.org.uk/visit/places/rotherwas-chapel/
"Verulamium Park, St Albans, Hertfordshire AL3 4SW",St Albans,United Kingdom,English Heritage,"{'brand': 'English Heritage', 'fascia': 'English Heritage', 'category': 'Heritage Site', 'edit_date': '20250405', 'lat_lon_source': 'website'}",51.746243,-0.355339,{'opening_hours': {}},,2633,AL3 4SW,Roman Wall of St Albans,Hertfordshire,https://www.english-heritage.org.uk/visit/places/roman-wall-of-st-albans/
"Off Richborough Road, Sandwich, Kent CT13 9JW",Sandwich,United Kingdom,English Heritage,"{'brand': 'English Heritage', 'fascia': 'English Heritage', 'category': 'Heritage Site', 'edit_date': '20250405', 'lat_lon_source': 'website'}",51.289701,1.328818,{'opening_hours': {}},01304 612013,3470,CT13 9JW,Richborough Roman Fort and Amphitheatre,Kent,https://www.english-heritage.org.uk/visit/places/richborough-roman-fort-and-amphitheatre/
"Tower Street, Richmond, North Yorkshire DL10 4QW",Richmond,United Kingdom,English Heritage,"{'brand': 'English Heritage', 'fascia': 'English Heritage', 'category': 'Heritage Site', 'edit_date': '20250405', 'lat_lon_source': 'website'}",54.40198,-1.73528,{'opening_hours': {}},01748 822493,3347,DL10 4QW,Richmond Castle,North Yorkshire,https://www.english-heritage.org.uk/visit/places/richmond-castle/
"Rievaulx, Nr Helmsley, North Yorkshire YO62 5LB",Nr Helmsley,United Kingdom,English Heritage,"{'brand': 'English Heritage', 'fascia': 'English Heritage', 'category': 'Heritage Site', 'edit_date': '20250405', 'lat_lon_source': 'website'}",54.256867,-1.118284,{'opening_hours': {}},01439 76 0350,3438,YO62 5LB,Rievaulx Abbey,North Yorkshire,https://www.english-heritage.org.uk/visit/places/rievaulx-abbey/
", Ravenglass, Cumbria CA18 1SR",Ravenglass,United Kingdom,English Heritage,"{'brand': 'English Heritage', 'fascia': 'English Heritage', 'category': 'Heritage Site', 'edit_date': '20250405', 'lat_lon_source': 'website'}",54.350278,-3.402289,{'opening_hours': {}},,2497,CA18 1SR,Ravenglass Roman Bath House,Cumbria,https://www.english-heritage.org.uk/visit/places/ravenglass-roman-bath-house/
"Sawley, Clitheroe, Lancashire BB7 4NH",Clitheroe,United Kingdom,English Heritage,"{'brand': 'English Heritage', 'fascia': 'English Heritage', 'category': 'Heritage Site', 'edit_date': '20250405', 'lat_lon_source': 'website'}",53.914225,-2.339855,{'opening_hours': {}},,2960,BB7 4NH,Sawley Abbey,Lancashire,https://www.english-heritage.org.uk/visit/places/sawley-abbey/
"Chesterfield Walk, Blackheath, London SE10 8QX",Blackheath,United Kingdom,English Heritage,"{'brand': 'English Heritage', 'fascia': 'English Heritage', 'category': 'Heritage Site', 'edit_date': '20250405', 'lat_lon_source': 'website'}",51.472895,-0.001652,{'opening_hours': {}},020 8853 0035,3343,SE10 8QX,Ranger&#39;s House - The Wernher Collection,London,https://www.english-heritage.org.uk/visit/places/rangers-house-the-wernher-collection/
"Castle View, Prudhoe, Northumberland NE42 6NA",Prudhoe,United Kingdom,English Heritage,"{'brand': 'English Heritage', 'fascia': 'English Heritage', 'category': 'Heritage Site', 'edit_date': '20250405', 'lat_lon_source': 'website'}",54.965148,-1.856821,{'opening_hours': {}},01661 833459,3339,NE42 6NA,Prudhoe Castle,Northumberland,https://www.english-heritage.org.uk/visit/places/prudhoe-castle/
"Little Rollright, Chipping Norton, Oxfordshire OX7 5QB",Chipping Norton,United Kingdom,English Heritage,"{'brand': 'English Heritage', 'fascia': 'English Heritage', 'category': 'Heritage Site', 'edit_date': '20250405', 'lat_lon_source': 'website'}",51.975334,-1.56707,{'opening_hours': {}},,2573,OX7 5QB,Rollright Stones,Oxfordshire,https://www.english-heritage.org.uk/visit/places/rollright-stones/
"Maltby, Rotherham, South Yorkshire S66 8NW",Rotherham,United Kingdom,English Heritage,"{'brand': 'English Heritage', 'fascia': 'English Heritage', 'category': 'Heritage Site', 'edit_date': '20250405', 'lat_lon_source': 'website'}",53.404142,-1.183437,{'opening_hours': {}},01709 812739,3351,S66 8NW,Roche Abbey,South Yorkshire,https://www.english-heritage.org.uk/visit/places/roche-abbey/
"The Hoe, , Devon PL1 2PD",,United Kingdom,English Heritage,"{'brand': 'English Heritage', 'fascia': 'English Heritage', 'category': 'Heritage Site', 'edit_date': '20250405', 'lat_lon_source': 'website'}",50.363889,-4.136165,{'opening_hours': {}},Local Tourist Information: Plymouth: 01752 306330,3355,PL1 2PD,"Royal Citadel, Plymouth",Devon,https://www.english-heritage.org.uk/visit/places/royal-citadel-plymouth/
"St Mary&#39;s, Isles of Scilly, Cornwall TR21 0NY",Isles of Scilly,United Kingdom,English Heritage,"{'brand': 'English Heritage', 'fascia': 'English Heritage', 'category': 'Heritage Site', 'edit_date': '20250405', 'lat_lon_source': 'website'}",49.917831,-6.278863,{'opening_hours': {}},,2413,TR21 0NY,Porth Hellick Down Burial Chamber,Cornwall,https://www.english-heritage.org.uk/visit/places/porth-hellick-down-burial-chamber/
", Gilsland, Cumbria CA8 7BJ",Gilsland,United Kingdom,English Heritage,"{'brand': 'English Heritage', 'fascia': 'English Heritage', 'category': 'Heritage Site', 'edit_date': '20250405', 'lat_lon_source': 'website'}",54.989402,-2.57289,{'opening_hours': {}},,2681,CA8 7BJ,Poltross Burn Milecastle - Hadrian&#39;s Wall,Cumbria,https://www.english-heritage.org.uk/visit/places/poltross-burn-milecastle-hadrians-wall/
"Chollerford, Hexham, Northumberland NE46 4EQ",Hexham,United Kingdom,English Heritage,"{'brand': 'English Heritage', 'fascia': 'English Heritage', 'category': 'Heritage Site', 'edit_date': '20250405', 'lat_lon_source': 'website'}",55.020574,-2.112224,{'opening_hours': {}},,2984,NE46 4EQ,Planetrees Roman Wall - Hadrian&#39;s Wall,Northumberland,https://www.english-heritage.org.uk/visit/places/planetrees-roman-wall-hadrians-wall/
"Banks, Brampton, Cumbria CA8 2BX",Brampton,United Kingdom,English Heritage,"{'brand': 'English Heritage', 'fascia': 'English Heritage', 'category': 'Heritage Site', 'edit_date': '20250405', 'lat_lon_source': 'website'}",54.975956,-2.6629369,{'opening_hours': {}},,2749,CA8 2BX,Pike Hill Signal Tower - Hadrian&#39;s Wall,Cumbria,https://www.english-heritage.org.uk/visit/places/pike-hill-signal-tower-hadrians-wall/
"Reculver Lane, Reculver, Kent CT6 6SS",Reculver,United Kingdom,English Heritage,"{'brand': 'English Heritage', 'fascia': 'English Heritage', 'category': 'Heritage Site', 'edit_date': '20250405', 'lat_lon_source': 'website'}",51.379056,1.201904,{'opening_hours': {}},01227 740676,3728,CT6 6SS,Reculver Towers and Roman Fort,Kent,https://www.english-heritage.org.uk/visit/places/reculver-towers-and-roman-fort/
"Church Road, Portchester, Hampshire PO16 9QW",Portchester,United Kingdom,English Heritage,"{'brand': 'English Heritage', 'fascia': 'English Heritage', 'category': 'Heritage Site', 'edit_date': '20250405', 'lat_lon_source': 'website'}",50.837415,-1.114906,{'opening_hours': {}},02392 378291,3466,PO16 9QW,Portchester Castle,Hampshire,https://www.english-heritage.org.uk/visit/places/portchester-castle/
"Off Restormel Road, Lostwithiel, Cornwall PL22 0EE",Lostwithiel,United Kingdom,English Heritage,"{'brand': 'English Heritage', 'fascia': 'English Heritage', 'category': 'Heritage Site', 'edit_date': '20250405', 'lat_lon_source': 'website'}",50.420935,-4.668121,{'opening_hours': {}},01208 872687,3683,PL22 0EE,Restormel Castle,Cornwall,https://www.english-heritage.org.uk/visit/places/restormel-castle/
"Piercebridge, Darlington, Borough of Darlington DL2 3SW",Darlington,United Kingdom,English Heritage,"{'brand': 'English Heritage', 'fascia': 'English Heritage', 'category': 'Heritage Site', 'edit_date': '20250405', 'lat_lon_source': 'website'}",54.534252,-1.669234,{'opening_hours': {}},,3522,DL2 3SW,Piercebridge Roman Bridge,Borough of Darlington,https://www.english-heritage.org.uk/visit/places/piercebridge-roman-bridge/
"Piel Island, Barrow-in-Furness, Cumbria LA13 0QN",Barrow-in-Furness,United Kingdom,English Heritage,"{'brand': 'English Heritage', 'fascia': 'English Heritage', 'category': 'Heritage Site', 'edit_date': '20250405', 'lat_lon_source': 'website'}",54.063187,-3.174487,{'opening_hours': {}},,2952,LA13 0QN,Piel Castle,Cumbria,https://www.english-heritage.org.uk/visit/places/piel-castle/
"High Street, Nr Saffron Walden, Essex CB11 3SB",Nr Saffron Walden,United Kingdom,English Heritage,"{'brand': 'English Heritage', 'fascia': 'English Heritage', 'category': 'Heritage Site', 'edit_date': '20250405', 'lat_lon_source': 'website'}",51.963458,0.237984,{'opening_hours': {}},,2533,CB11 3SB,Prior&#39;s Hall Barn,Essex,https://www.english-heritage.org.uk/visit/places/priors-hall-barn/
"Liberty Road, Castletown, Dorset DT5 1AZ",Castletown,United Kingdom,English Heritage,"{'brand': 'English Heritage', 'fascia': 'English Heritage', 'category': 'Heritage Site', 'edit_date': '20250405', 'lat_lon_source': 'website'}",50.567516,-2.445752,{'opening_hours': {}},01305 820539,3155,DT5 1AZ,Portland Castle,Dorset,https://www.english-heritage.org.uk/visit/places/portland-castle/
"Castle Road, Pevensey, East Sussex BN24 5LE",Pevensey,United Kingdom,English Heritage,"{'brand': 'English Heritage', 'fascia': 'English Heritage', 'category': 'Heritage Site', 'edit_date': '20250405', 'lat_lon_source': 'website'}",50.819488,0.338237,{'opening_hours': {}},01323 762604,3478,BN24 5LE,Pevensey Castle,East Sussex,https://www.english-heritage.org.uk/visit/places/pevensey-castle/
", Falmouth, Cornwall TR11 4NQ",Falmouth,United Kingdom,English Heritage,"{'brand': 'English Heritage', 'fascia': 'English Heritage', 'category': 'Heritage Site', 'edit_date': '20250405', 'lat_lon_source': 'website'}",50.146832,-5.046738,{'opening_hours': {}},01326 316594,3724,TR11 4NQ,Pendennis Castle,Cornwall,https://www.english-heritage.org.uk/visit/places/pendennis-castle/
"Castlegate, Pickering, North Yorkshire YO18 7AX",Pickering,United Kingdom,English Heritage,"{'brand': 'English Heritage', 'fascia': 'English Heritage', 'category': 'Heritage Site', 'edit_date': '20250405', 'lat_lon_source': 'website'}",54.248286,-0.774769,{'opening_hours': {}},01751 474989,3335,YO18 7AX,Pickering Castle,North Yorkshire,https://www.english-heritage.org.uk/visit/places/pickering-castle/
"York Avenue, East Cowes, Isle of Wight PO32 6JX",East Cowes,United Kingdom,English Heritage,"{'brand': 'English Heritage', 'fascia': 'English Heritage', 'category': 'Heritage Site', 'edit_date': '20250405', 'lat_lon_source': 'website'}",50.749999,-1.26863,{'opening_hours': {}},0370 333 1181,3458,PO32 6JX,Osborne,Isle of Wight,https://www.english-heritage.org.uk/visit/places/osborne/
"Horseshoe Drive , Gloucester, Gloucestershire GL2 8BZ",Gloucester,United Kingdom,English Heritage,"{'brand': 'English Heritage', 'fascia': 'English Heritage', 'category': 'Heritage Site', 'edit_date': '20250405', 'lat_lon_source': 'website'}",51.874192,-2.265625,{'opening_hours': {}},,3062,GL2 8BZ,Over Bridge,Gloucestershire,https://www.english-heritage.org.uk/visit/places/over-bridge/
"Castle Terrace, Penrith, Cumbria CA11 7EA",Penrith,United Kingdom,English Heritage,"{'brand': 'English Heritage', 'fascia': 'English Heritage', 'category': 'Heritage Site', 'edit_date': '20250405', 'lat_lon_source': 'website'}",54.661863,-2.75515,{'opening_hours': {}},,2948,CA11 7EA,Penrith Castle,Cumbria,https://www.english-heritage.org.uk/visit/places/penrith-castle/
"Market Place, Castleton, Derbyshire S33 8WQ",Castleton,United Kingdom,English Heritage,"{'brand': 'English Heritage', 'fascia': 'English Heritage', 'category': 'Heritage Site', 'edit_date': '20250405', 'lat_lon_source': 'website'}",53.341438,-1.774339,{'opening_hours': {}},01433 620613,2685,S33 8WQ,Peveril Castle,Derbyshire,https://www.english-heritage.org.uk/visit/places/peveril-castle/
"Old Soar Road, Sevenoaks, Kent TN15 0QX",Sevenoaks,United Kingdom,English Heritage,"{'brand': 'English Heritage', 'fascia': 'English Heritage', 'category': 'Heritage Site', 'edit_date': '20250405', 'lat_lon_source': 'website'}",51.263078,0.320016,{'opening_hours': {}},01732 810378,2341,TN15 0QX,Old Soar Manor,Kent,https://www.english-heritage.org.uk/visit/places/old-soar-manor/
"Gorhambury Drive, St Albans, Hertfordshire AL3 6AH",St Albans,United Kingdom,English Heritage,"{'brand': 'English Heritage', 'fascia': 'English Heritage', 'category': 'Heritage Site', 'edit_date': '20250405', 'lat_lon_source': 'website'}",51.755899,-0.390204,{'opening_hours': {}},,2689,AL3 6AH,Old Gorhambury House,Hertfordshire,https://www.english-heritage.org.uk/visit/places/old-gorhambury-house/
"Castle Lodge, Okehampton, Devon EX20 1JA",Okehampton,United Kingdom,English Heritage,"{'brand': 'English Heritage', 'fascia': 'English Heritage', 'category': 'Heritage Site', 'edit_date': '20250405', 'lat_lon_source': 'website'}",50.730684,-4.004937,{'opening_hours': {}},01837 52844,3679,EX20 1JA,Okehampton Castle,Devon,https://www.english-heritage.org.uk/visit/places/okehampton-castle/
"Castle Road , Salisbury, Wiltshire SP1 3SD",Salisbury,United Kingdom,English Heritage,"{'brand': 'English Heritage', 'fascia': 'English Heritage', 'category': 'Heritage Site', 'edit_date': '20250405', 'lat_lon_source': 'website'}",51.091939,-1.801509,{'opening_hours': {}},01722 335398,3655,SP1 3SD,Old Sarum,Wiltshire,https://www.english-heritage.org.uk/visit/places/old-sarum/
"Deerhurst, Gloucester, Gloucestershire GL19 4BX",Gloucester,United Kingdom,English Heritage,"{'brand': 'English Heritage', 'fascia': 'English Heritage', 'category': 'Heritage Site', 'edit_date': '20250405', 'lat_lon_source': 'website'}",51.966175,-2.190546,{'opening_hours': {}},,2813,GL19 4BX,Odda&#39;s Chapel,Gloucestershire,https://www.english-heritage.org.uk/visit/places/oddas-chapel/
"Nr Tisbury, Salisbury, Wiltshire SP3 6RP",Salisbury,United Kingdom,English Heritage,"{'brand': 'English Heritage', 'fascia': 'English Heritage', 'category': 'Heritage Site', 'edit_date': '20250405', 'lat_lon_source': 'website'}",51.036122,-2.092804,{'opening_hours': {}},01747 870487,3584,SP3 6RP,Old Wardour Castle,Wiltshire,https://www.english-heritage.org.uk/visit/places/old-wardour-castle/
", Lydney, Gloucestershire GL15 6XD",Lydney,United Kingdom,English Heritage,"{'brand': 'English Heritage', 'fascia': 'English Heritage', 'category': 'Heritage Site', 'edit_date': '20250405', 'lat_lon_source': 'website'}",51.681218,-2.649272,{'opening_hours': {}},,2817,GL15 6XD,Offa&#39;s Dyke,Gloucestershire,https://www.english-heritage.org.uk/visit/places/offas-dyke/
"Tresco, Isles of Scilly, Cornwall TR24 0QW",Isles of Scilly,United Kingdom,English Heritage,"{'brand': 'English Heritage', 'fascia': 'English Heritage', 'category': 'Heritage Site', 'edit_date': '20250405', 'lat_lon_source': 'website'}",49.957979,-6.326901,{'opening_hours': {}},,2757,TR24 0QW,Old Blockhouse,Cornwall,https://www.english-heritage.org.uk/visit/places/old-blockhouse/
"Orford, Woodbridge, Suffolk IP12 2ND",Woodbridge,United Kingdom,English Heritage,"{'brand': 'English Heritage', 'fascia': 'English Heritage', 'category': 'Heritage Site', 'edit_date': '20250405', 'lat_lon_source': 'website'}",52.093464,1.533933,{'opening_hours': {}},01394 450472,3331,IP12 2ND,Orford Castle,Suffolk,https://www.english-heritage.org.uk/visit/places/orford-castle/
"Coaley Peak, Dursley, Gloucestershire GL11 5AU",Dursley,United Kingdom,English Heritage,"{'brand': 'English Heritage', 'fascia': 'English Heritage', 'category': 'Heritage Site', 'edit_date': '20250405', 'lat_lon_source': 'website'}",51.710171,-2.296317,{'opening_hours': {}},,2465,GL11 5AU,Nympsfield Long Barrow,Gloucestershire,https://www.english-heritage.org.uk/visit/places/nympsfield-long-barrow/
"Week St Mary, Holsworthy, Cornwall EX22 6XW",Holsworthy,United Kingdom,English Heritage,"{'brand': 'English Heritage', 'fascia': 'English Heritage', 'category': 'Heritage Site', 'edit_date': '20250405', 'lat_lon_source': 'website'}",50.747267,-4.519109,{'opening_hours': {}},,2992,EX22 6XW,Penhallam Manor,Cornwall,https://www.english-heritage.org.uk/visit/places/penhallam-manor/
"Castle Street, Nr Frome, Somerset BA11 4LW",Nr Frome,United Kingdom,English Heritage,"{'brand': 'English Heritage', 'fascia': 'English Heritage', 'category': 'Heritage Site', 'edit_date': '20250405', 'lat_lon_source': 'website'}",51.209961,-2.37863,{'opening_hours': {}},,2856,BA11 4LW,Nunney Castle,Somerset,https://www.english-heritage.org.uk/visit/places/nunney-castle/
"Castle Street, Norham, Northumberland TD15 2JY",Norham,United Kingdom,English Heritage,"{'brand': 'English Heritage', 'fascia': 'English Heritage', 'category': 'Heritage Site', 'edit_date': '20250405', 'lat_lon_source': 'website'}",55.721824,-2.150287,{'opening_hours': {}},,2257,TD15 2JY ,Norham Castle,Northumberland,https://www.english-heritage.org.uk/visit/places/norham-castle/
"Situated on Stanton Moor, Youlgreave, Derbyshire DE4 2LS",Youlgreave,United Kingdom,English Heritage,"{'brand': 'English Heritage', 'fascia': 'English Heritage', 'category': 'Heritage Site', 'edit_date': '20250405', 'lat_lon_source': 'website'}",53.168252,-1.627745,{'opening_hours': {}},01629 816200,3619,DE4 2LS,Nine Ladies Stone Circle,Derbyshire,https://www.english-heritage.org.uk/visit/places/nine-ladies-stone-circle/
"Abbey Hill, Netley, Hampshire SO31 5FB",Netley,United Kingdom,English Heritage,"{'brand': 'English Heritage', 'fascia': 'English Heritage', 'category': 'Heritage Site', 'edit_date': '20250405', 'lat_lon_source': 'website'}",50.876513,-1.357565,{'opening_hours': {}},,3732,SO31 5FB ,Netley Abbey,Hampshire,https://www.english-heritage.org.uk/visit/places/netley-abbey/
"Harcourt Hill, North Hinskey, Oxfordshire OX2 9AS",North Hinskey,United Kingdom,English Heritage,"{'brand': 'English Heritage', 'fascia': 'English Heritage', 'category': 'Heritage Site', 'edit_date': '20250405', 'lat_lon_source': 'website'}",51.741293,-1.282723,{'opening_hours': {}},,2789,OX2 9AS,North Hinksey Conduit House,Oxfordshire,https://www.english-heritage.org.uk/visit/places/north-hinksey-conduit-house/
"Salisbury Road, Salisbury, Wiltshire SP4 9RJ",Salisbury,United Kingdom,English Heritage,"{'brand': 'English Heritage', 'fascia': 'English Heritage', 'category': 'Heritage Site', 'edit_date': '20250405', 'lat_lon_source': 'website'}",51.23459,-1.789588,{'opening_hours': {}},,2868,SP4 9RJ,Netheravon Dovecote,Wiltshire,https://www.english-heritage.org.uk/visit/places/netheravon-dovecote/
"Staddlebridge, Northallerton, North Yorkshire DL6 3JG",Northallerton,United Kingdom,English Heritage,"{'brand': 'English Heritage', 'fascia': 'English Heritage', 'category': 'Heritage Site', 'edit_date': '20250405', 'lat_lon_source': 'website'}",54.379618,-1.311863,{'opening_hours': {}},01609 883494,3327,DL6 3JG,"Mount Grace Priory, House and Gardens",North Yorkshire,https://www.english-heritage.org.uk/visit/places/mount-grace-priory/
"Llwyn Road, Oswestry, Shropshire SY10 7AA",Oswestry,United Kingdom,English Heritage,"{'brand': 'English Heritage', 'fascia': 'English Heritage', 'category': 'Heritage Site', 'edit_date': '20250405', 'lat_lon_source': 'website'}",52.867345,-3.051528,{'opening_hours': {}},,3572,SY10 7AA,Old Oswestry Hillfort,Shropshire,https://www.english-heritage.org.uk/visit/places/old-oswestry-hillfort/
"Moreton Corbet, Shrewsbury, Shropshire SY4 4DW",Shrewsbury,United Kingdom,English Heritage,"{'brand': 'English Heritage', 'fascia': 'English Heritage', 'category': 'Heritage Site', 'edit_date': '20250405', 'lat_lon_source': 'website'}",52.805602,-2.651632,{'opening_hours': {}},,3067,SY4 4DW,Moreton Corbet Castle,Shropshire,https://www.english-heritage.org.uk/visit/places/moreton-corbet-castle/
"Abbey Lane, Barnsley, South Yorkshire S71 5QD",Barnsley,United Kingdom,English Heritage,"{'brand': 'English Heritage', 'fascia': 'English Heritage', 'category': 'Heritage Site', 'edit_date': '20250405', 'lat_lon_source': 'website'}",53.55287,-1.436326,{'opening_hours': {}},,2920,S71 5QD,Monk Bretton Priory,South Yorkshire,https://www.english-heritage.org.uk/visit/places/monk-bretton-priory/
"The Walls, Mistley, Essex CO11 1HB",Mistley,United Kingdom,English Heritage,"{'brand': 'English Heritage', 'fascia': 'English Heritage', 'category': 'Heritage Site', 'edit_date': '20250405', 'lat_lon_source': 'website'}",51.945904,1.079153,{'opening_hours': {}},,2353,CO11 1HB,Mistley Towers,Essex,https://www.english-heritage.org.uk/visit/places/mistley-towers/
", Minster Lovell, Oxfordshire OX29 0RR",Minster Lovell,United Kingdom,English Heritage,"{'brand': 'English Heritage', 'fascia': 'English Heritage', 'category': 'Heritage Site', 'edit_date': '20250405', 'lat_lon_source': 'website'}",51.801581,-1.527986,{'opening_hours': {}},,2785,OX29 0RR,Minster Lovell Hall and Dovecote,Oxfordshire,https://www.english-heritage.org.uk/visit/places/minster-lovell-hall-and-dovecote/
"North Leigh, Witney, Oxfordshire  OX29 6PZ",Witney,United Kingdom,English Heritage,"{'brand': 'English Heritage', 'fascia': 'English Heritage', 'category': 'Heritage Site', 'edit_date': '20250405', 'lat_lon_source': 'website'}",51.834645,-1.424707,{'opening_hours': {}},,2737,OX29 6PZ,North Leigh Roman Villa,Oxfordshire ,https://www.english-heritage.org.uk/visit/places/north-leigh-roman-villa/
"Castle Hill, Middleham, North Yorkshire DL8 4QG",Middleham,United Kingdom,English Heritage,"{'brand': 'English Heritage', 'fascia': 'English Heritage', 'category': 'Heritage Site', 'edit_date': '20250405', 'lat_lon_source': 'website'}",54.282135,-1.806519,{'opening_hours': {}},0196 962 3899,3323,DL8 4QG,Middleham Castle,North Yorkshire,https://www.english-heritage.org.uk/visit/places/middleham-castle/
"Muchelney, Langport, Somerset TA10 0DQ",Langport,United Kingdom,English Heritage,"{'brand': 'English Heritage', 'fascia': 'English Heritage', 'category': 'Heritage Site', 'edit_date': '20250405', 'lat_lon_source': 'website'}",51.020656,-2.813903,{'opening_hours': {}},0370 333 1181,3675,TA10 0DQ,Muchelney Abbey,Somerset,https://www.english-heritage.org.uk/visit/places/muchelney-abbey/
"Priest Weston, Montgomery, Shropshire SY15 6DE",Montgomery,United Kingdom,English Heritage,"{'brand': 'English Heritage', 'fascia': 'English Heritage', 'category': 'Heritage Site', 'edit_date': '20250405', 'lat_lon_source': 'website'}",52.578553,-3.025173,{'opening_hours': {}},,2449,SY15 6DE,Mitchell&#39;s Fold Stone Circle,Shropshire,https://www.english-heritage.org.uk/visit/places/mitchells-fold-stone-circle/
"58 French Street, Southampton, Hampshire SO14 2AT",Southampton,United Kingdom,English Heritage,"{'brand': 'English Heritage', 'fascia': 'English Heritage', 'category': 'Heritage Site', 'edit_date': '20250405', 'lat_lon_source': 'website'}",50.89854,-1.405456,{'opening_hours': {}},0238 022 1503,3703,SO14 2AT,Medieval Merchant&#39;s House,Hampshire,https://www.english-heritage.org.uk/visit/places/medieval-merchants-house/
", Eamont Bridge, Cumbria CA10 2BY",Eamont Bridge,United Kingdom,English Heritage,"{'brand': 'English Heritage', 'fascia': 'English Heritage', 'category': 'Heritage Site', 'edit_date': '20250405', 'lat_lon_source': 'website'}",54.648719,-2.745085,{'opening_hours': {}},,2944,CA10 2BY,Mayburgh Henge,Cumbria,https://www.english-heritage.org.uk/visit/places/mayburgh-henge/
"Bridge Street, Nr Newmarket, Suffolk CB8 8SP",Nr Newmarket,United Kingdom,English Heritage,"{'brand': 'English Heritage', 'fascia': 'English Heritage', 'category': 'Heritage Site', 'edit_date': '20250405', 'lat_lon_source': 'website'}",52.25215,0.48745,{'opening_hours': {}},,3612,CB8 8SP,Moulton Packhorse Bridge,Suffolk,https://www.english-heritage.org.uk/visit/places/moulton-packhorse-bridge/
"Church Lane, Dereham, Norfolk NR20 5JU",Dereham,United Kingdom,English Heritage,"{'brand': 'English Heritage', 'fascia': 'English Heritage', 'category': 'Heritage Site', 'edit_date': '20250405', 'lat_lon_source': 'website'}",52.756337,0.946504,{'opening_hours': {}},,2357,NR20 5JU,North Elmham Chapel,Norfolk,https://www.english-heritage.org.uk/visit/places/north-elmham-chapel/
"Richmond Road, Twickenham, London TW1 2NL",Twickenham,United Kingdom,English Heritage,"{'brand': 'English Heritage', 'fascia': 'English Heritage', 'category': 'Heritage Site', 'edit_date': '20250405', 'lat_lon_source': 'website'}",51.450975,-0.315819,{'opening_hours': {}},020 8892 5115,3580,TW1 2NL,Marble Hill,London,https://www.english-heritage.org.uk/visit/places/marble-hill/
"Fort Gardens, Gravesend, Kent DA12 2BH",Gravesend,United Kingdom,English Heritage,"{'brand': 'English Heritage', 'fascia': 'English Heritage', 'category': 'Heritage Site', 'edit_date': '20250405', 'lat_lon_source': 'website'}",51.442926,0.380842,{'opening_hours': {}},01474 337600,2345,DA12 2BH,Milton Chantry,Kent,https://www.english-heritage.org.uk/visit/places/milton-chantry/
"Abbey Road, Mattersey, Nottinghamshire DN10 5HN",Mattersey,United Kingdom,English Heritage,"{'brand': 'English Heritage', 'fascia': 'English Heritage', 'category': 'Heritage Site', 'edit_date': '20250405', 'lat_lon_source': 'website'}",53.39884,-0.944285,{'opening_hours': {}},,3616,DN10 5HN,Mattersey Priory,Nottinghamshire,https://www.english-heritage.org.uk/visit/places/mattersey-priory/
"Maiden Castle Road, Dorchester, Dorset DT2 9PP",Dorchester,United Kingdom,English Heritage,"{'brand': 'English Heritage', 'fascia': 'English Heritage', 'category': 'Heritage Site', 'edit_date': '20250405', 'lat_lon_source': 'website'}",50.694018,-2.467017,{'opening_hours': {}},,3651,DT2 9PP,Maiden Castle,Dorset,https://www.english-heritage.org.uk/visit/places/maiden-castle/
"Ospringe Street, , Kent ME13 8TS",,United Kingdom,English Heritage,"{'brand': 'English Heritage', 'fascia': 'English Heritage', 'category': 'Heritage Site', 'edit_date': '20250405', 'lat_lon_source': 'website'}",51.31057,0.872847,{'opening_hours': {}},01795 601714,2216,ME13 8TS,Maison Dieu,Kent,https://www.english-heritage.org.uk/visit/places/maison-dieu/
"Lydford, Okehampton, Devon EX20 4BH",Okehampton,United Kingdom,English Heritage,"{'brand': 'English Heritage', 'fascia': 'English Heritage', 'category': 'Heritage Site', 'edit_date': '20250405', 'lat_lon_source': 'website'}",50.642448,-4.109929,{'opening_hours': {}},,2541,EX20 4BH,Lydford Castle and Saxon Town,Devon,https://www.english-heritage.org.uk/visit/places/lydford-castle-and-saxon-town/
"East Lulworth, Wareham, Dorset BH20 5QS",Wareham,United Kingdom,English Heritage,"{'brand': 'English Heritage', 'fascia': 'English Heritage', 'category': 'Heritage Site', 'edit_date': '20250405', 'lat_lon_source': 'website'}",50.6391,-2.2088,{'opening_hours': {}},01929 400352,235937,BH20 5QS,Lulworth Castle,Dorset,https://www.english-heritage.org.uk/visit/places/lulworth-castle/
"Castle Street, Ludgershall, Wiltshire SP11 9QT",Ludgershall,United Kingdom,English Heritage,"{'brand': 'English Heritage', 'fascia': 'English Heritage', 'category': 'Heritage Site', 'edit_date': '20250405', 'lat_lon_source': 'website'}",51.260082,-1.620535,{'opening_hours': {}},,2773,SP11 9QT,Ludgershall Castle and Cross,Wiltshire,https://www.english-heritage.org.uk/visit/places/ludgershall-castle-and-cross/
"Lullingstone Lane, Eynsford, Kent DA4 0JA",Eynsford,United Kingdom,English Heritage,"{'brand': 'English Heritage', 'fascia': 'English Heritage', 'category': 'Heritage Site', 'edit_date': '20250405', 'lat_lon_source': 'website'}",51.36277,0.194772,{'opening_hours': {}},01322 863 467,3490,DA4 0JA,Lullingstone Roman Villa,Kent,https://www.english-heritage.org.uk/visit/places/lullingstone-roman-villa/
"Longtown, Hereford, Herefordshire HR2 0LE",Hereford,United Kingdom,English Heritage,"{'brand': 'English Heritage', 'fascia': 'English Heritage', 'category': 'Heritage Site', 'edit_date': '20250405', 'lat_lon_source': 'website'}",51.956098,-2.987377,{'opening_hours': {}},,2892,HR2 0LE,Longtown Castle,Herefordshire,https://www.english-heritage.org.uk/visit/places/longtown-castle/
"Thorpe Road, Peterborough, Cambridgeshire PE3 6LU",Peterborough,United Kingdom,English Heritage,"{'brand': 'English Heritage', 'fascia': 'English Heritage', 'category': 'Heritage Site', 'edit_date': '20250405', 'lat_lon_source': 'website'}",52.570357,-0.284954,{'opening_hours': {}},01733 234193,3627,PE3 6LU,Longthorpe Tower,Cambridgeshire,https://www.english-heritage.org.uk/visit/places/longthorpe-tower/
", Tower Hill, London EC3N 4DJ",Tower Hill,United Kingdom,English Heritage,"{'brand': 'English Heritage', 'fascia': 'English Heritage', 'category': 'Heritage Site', 'edit_date': '20250405', 'lat_lon_source': 'website'}",51.509304,-0.075178,{'opening_hours': {}},,2469,EC3N 4DJ,London Wall,London,https://www.english-heritage.org.uk/visit/places/london-wall/
"West Tanfield, Ripon, North Yorkshire HG4 5JQ",Ripon,United Kingdom,English Heritage,"{'brand': 'English Heritage', 'fascia': 'English Heritage', 'category': 'Heritage Site', 'edit_date': '20250405', 'lat_lon_source': 'website'}",54.200288,-1.586434,{'opening_hours': {}},,3518,HG4 5JQ,Marmion Tower,North Yorkshire,https://www.english-heritage.org.uk/visit/places/marmion-tower/
"Merrivale, Yelverton, Devon PL20 6ST",Yelverton,United Kingdom,English Heritage,"{'brand': 'English Heritage', 'fascia': 'English Heritage', 'category': 'Heritage Site', 'edit_date': '20250405', 'lat_lon_source': 'website'}",50.553112,-4.043294,{'opening_hours': {}},,2693,PL20 6ST,Merrivale Prehistoric Settlement,Devon,https://www.english-heritage.org.uk/visit/places/merrivale-prehistoric-settlement/
"Minster Yard, Lincoln, Lincolnshire LN2 1PU",Lincoln,United Kingdom,English Heritage,"{'brand': 'English Heritage', 'fascia': 'English Heritage', 'category': 'Heritage Site', 'edit_date': '20250405', 'lat_lon_source': 'website'}",53.233067,-0.53557,{'opening_hours': {}},01522 527468,3319,LN2 1PU,Lincoln Medieval Bishops&#39; Palace,Lincolnshire,https://www.english-heritage.org.uk/visit/places/lincoln-medieval-bishops-palace/
"Colchester, Essex: Lexden Earthworks, ,  CO3 4DZ",,United Kingdom,English Heritage,"{'brand': 'English Heritage', 'fascia': 'English Heritage', 'category': 'Heritage Site', 'edit_date': '20250405', 'lat_lon_source': 'website'}",51.90052,0.874097,{'opening_hours': {}},,2349,CO3 4DZ,Lexden Earthworks and Bluebottle Grove,,https://www.english-heritage.org.uk/visit/places/lexden-earthworks-and-bluebottle-grove/
"Abbey Road, Leiston, Suffolk IP16 4TD",Leiston,United Kingdom,English Heritage,"{'brand': 'English Heritage', 'fascia': 'English Heritage', 'category': 'Heritage Site', 'edit_date': '20250405', 'lat_lon_source': 'website'}",52.220097,1.576588,{'opening_hours': {}},,2361,IP16 4TD,Leiston Abbey,Suffolk,https://www.english-heritage.org.uk/visit/places/leiston-abbey/
"Leigh, Worcester, Worcestershire WR6 5LB",Worcester,United Kingdom,English Heritage,"{'brand': 'English Heritage', 'fascia': 'English Heritage', 'category': 'Heritage Site', 'edit_date': '20250405', 'lat_lon_source': 'website'}",52.177374,-2.316155,{'opening_hours': {}},,3163,WR6 5LB,Leigh Court Barn,Worcestershire,https://www.english-heritage.org.uk/visit/places/leigh-court-barn/
"Wall Bowers, Brampton, Cumbria CA8 2BX",Brampton,United Kingdom,English Heritage,"{'brand': 'English Heritage', 'fascia': 'English Heritage', 'category': 'Heritage Site', 'edit_date': '20250405', 'lat_lon_source': 'website'}",54.979551,-2.650019,{'opening_hours': {}},,2285,CA8 2BX,Leahill Turret and Piper Sike Turret - Hadrian&#39;s Wall,Cumbria,https://www.english-heritage.org.uk/visit/places/leahill-turret-and-piper-sike-turret-hadrians-wall/
"Abbey Road, Newport, Shropshire TF10 9HW",Newport,United Kingdom,English Heritage,"{'brand': 'English Heritage', 'fascia': 'English Heritage', 'category': 'Heritage Site', 'edit_date': '20250405', 'lat_lon_source': 'website'}",52.724737,-2.392705,{'opening_hours': {}},,2900,TF10 9HW,Lilleshall Abbey,Shropshire,https://www.english-heritage.org.uk/visit/places/lilleshall-abbey/
"St Marys Road, Glastonbury, Somerset BA6 9SP",Glastonbury,United Kingdom,English Heritage,"{'brand': 'English Heritage', 'fascia': 'English Heritage', 'category': 'Heritage Site', 'edit_date': '20250405', 'lat_lon_source': 'website'}",51.171866,-2.77664,{'opening_hours': {}},,2852,BA6 9SP,Meare Fish House,Somerset,https://www.english-heritage.org.uk/visit/places/meare-fish-house/
"Blue Coat Lane, Leicester, Leicestershire LE15 9LZ",Leicester,United Kingdom,English Heritage,"{'brand': 'English Heritage', 'fascia': 'English Heritage', 'category': 'Heritage Site', 'edit_date': '20250405', 'lat_lon_source': 'website'}",52.563892,-0.707961,{'opening_hours': {}},01572 822438,3187,LE15 9LZ,Lyddington Bede House,Leicestershire,https://www.english-heritage.org.uk/visit/places/lyddington-bede-house/
"Kersey Road, Ipswich, Suffolk IP7 6QA",Ipswich,United Kingdom,English Heritage,"{'brand': 'English Heritage', 'fascia': 'English Heritage', 'category': 'Heritage Site', 'edit_date': '20250405', 'lat_lon_source': 'website'}",52.061847,0.883222,{'opening_hours': {}},,3608,IP7 6QA,Lindsey St James&#39;s Chapel,Suffolk,https://www.english-heritage.org.uk/visit/places/lindsey-st-jamess-chapel/
"View Point Road, Felixstowe, Suffolk IP11 3TW",Felixstowe,United Kingdom,English Heritage,"{'brand': 'English Heritage', 'fascia': 'English Heritage', 'category': 'Heritage Site', 'edit_date': '20250405', 'lat_lon_source': 'website'}",51.936826,1.320806,{'opening_hours': {}},01394 675900 to book group tours,3410,IP11 3TW,Landguard Fort,Suffolk,https://www.english-heritage.org.uk/visit/places/landguard-fort/
"Knowlton, Wimborne, Dorset BH21 5AE",Wimborne,United Kingdom,English Heritage,"{'brand': 'English Heritage', 'fascia': 'English Heritage', 'category': 'Heritage Site', 'edit_date': '20250405', 'lat_lon_source': 'website'}",50.890974,-1.964389,{'opening_hours': {}},,2585,BH21 5AE,Knowlton Church and Earthworks,Dorset,https://www.english-heritage.org.uk/visit/places/knowlton-church-and-earthworks/
"Kit&#39;s Coty House:, Aylesford, Kent ME20 7EZ",Aylesford,United Kingdom,English Heritage,"{'brand': 'English Heritage', 'fascia': 'English Heritage', 'category': 'Heritage Site', 'edit_date': '20250405', 'lat_lon_source': 'website'}",51.318801,0.505824,{'opening_hours': {}},,3707,ME20 7EZ,Kit&#39;s Coty House and Little Kit&#39;s Coty House,Kent,https://www.english-heritage.org.uk/visit/places/kits-coty-house-and-little-kits-coty-house/
"Ruckley, Shrewsbury, Shropshire SY5 7HU",Shrewsbury,United Kingdom,English Heritage,"{'brand': 'English Heritage', 'fascia': 'English Heritage', 'category': 'Heritage Site', 'edit_date': '20250405', 'lat_lon_source': 'website'}",52.595846,-2.681398,{'opening_hours': {}},,2457,SY5 7HU,Langley Chapel,Shropshire,https://www.english-heritage.org.uk/visit/places/langley-chapel/
"Kirkham House, Paignton, Devon TQ3 3AX",Paignton,United Kingdom,English Heritage,"{'brand': 'English Heritage', 'fascia': 'English Heritage', 'category': 'Heritage Site', 'edit_date': '20250405', 'lat_lon_source': 'website'}",50.437601,-3.569689,{'opening_hours': {}},,3695,TQ3 3AX,"Kirkham House, Paignton",Devon,https://www.english-heritage.org.uk/visit/places/kirkham-house-paignton/
"Off Oakcroft Ave, Kirby Muxloe, Leicestershire LE9 2DH",Kirby Muxloe,United Kingdom,English Heritage,"{'brand': 'English Heritage', 'fascia': 'English Heritage', 'category': 'Heritage Site', 'edit_date': '20250405', 'lat_lon_source': 'website'}",52.637201,-1.224085,{'opening_hours': {}},01162 386886,3219,LE9 2DH,Kirby Muxloe Castle,Leicestershire,https://www.english-heritage.org.uk/visit/places/kirby-muxloe-castle/
"Off Kirby Lane, Corby, Northamptonshire NN17 3EN",Corby,United Kingdom,English Heritage,"{'brand': 'English Heritage', 'fascia': 'English Heritage', 'category': 'Heritage Site', 'edit_date': '20250405', 'lat_lon_source': 'website'}",52.523199,-0.636548,{'opening_hours': {}},01536 203230,3691,NN17 3EN,Kirby Hall,Northamptonshire,https://www.english-heritage.org.uk/visit/places/kirby-hall/
"Castle Lodge, Launceston, Cornwall PL15 7DR",Launceston,United Kingdom,English Heritage,"{'brand': 'English Heritage', 'fascia': 'English Heritage', 'category': 'Heritage Site', 'edit_date': '20250405', 'lat_lon_source': 'website'}",50.636084,-4.361045,{'opening_hours': {}},01566 772365,3418,PL15 7DR,Launceston Castle,Cornwall,https://www.english-heritage.org.uk/visit/places/launceston-castle/
", Portsmouth, Hampshire PO1 2EJ",Portsmouth,United Kingdom,English Heritage,"{'brand': 'English Heritage', 'fascia': 'English Heritage', 'category': 'Heritage Site', 'edit_date': '20250405', 'lat_lon_source': 'website'}",50.795612,-1.095361,{'opening_hours': {}},,2529,PO1 2EJ,"King James&#39;s and Landport Gates, Portsmouth",Hampshire,https://www.english-heritage.org.uk/visit/places/king-jamess-and-landport-gates-portsmouth/
"Abbey Street, Wotton-Under-Edge, Gloucestershire GL12 8RA",Wotton-Under-Edge,United Kingdom,English Heritage,"{'brand': 'English Heritage', 'fascia': 'English Heritage', 'category': 'Heritage Site', 'edit_date': '20250405', 'lat_lon_source': 'website'}",51.62544,-2.363248,{'opening_hours': {}},,2904,GL12 8RA,Kingswood Abbey Gatehouse,Gloucestershire,https://www.english-heritage.org.uk/visit/places/kingswood-abbey-gatehouse/
"Whitwell on the Hill, Malton, North Yorkshire YO60 7JS",Malton,United Kingdom,English Heritage,"{'brand': 'English Heritage', 'fascia': 'English Heritage', 'category': 'Heritage Site', 'edit_date': '20250405', 'lat_lon_source': 'website'}",54.082619,-0.876911,{'opening_hours': {}},01653 618768,3635,YO60 7JS,Kirkham Priory,North Yorkshire,https://www.english-heritage.org.uk/visit/places/kirkham-priory/
"Lanercost, Nr Brampton, Cumbria CA8 2HQ",Nr Brampton,United Kingdom,English Heritage,"{'brand': 'English Heritage', 'fascia': 'English Heritage', 'category': 'Heritage Site', 'edit_date': '20250405', 'lat_lon_source': 'website'}",54.966314,-2.694588,{'opening_hours': {}},01697 73030,3315,CA8 2HQ,Lanercost Priory,Cumbria,https://www.english-heritage.org.uk/visit/places/lanercost-priory/
"Holy Island, Berwick-Upon-Tweed, Northumberland TD15 2RX",Berwick-Upon-Tweed,United Kingdom,English Heritage,"{'brand': 'English Heritage', 'fascia': 'English Heritage', 'category': 'Heritage Site', 'edit_date': '20250405', 'lat_lon_source': 'website'}",55.669964,-1.800675,{'opening_hours': {}},0128 938 9200,3275,TD15 2RX,Lindisfarne Priory,Northumberland,https://www.english-heritage.org.uk/visit/places/lindisfarne-priory/
"St Cleer, Liskeard, Cornwall PL14 6EG",Liskeard,United Kingdom,English Heritage,"{'brand': 'English Heritage', 'fascia': 'English Heritage', 'category': 'Heritage Site', 'edit_date': '20250405', 'lat_lon_source': 'website'}",50.491902,-4.487162,{'opening_hours': {}},,2797,PL14 6EG,King Doniert&#39;s Stone,Cornwall,https://www.english-heritage.org.uk/visit/places/king-donierts-stone/
"Hampstead Lane, Hampstead, Greater London NW3 7JR",Hampstead,United Kingdom,English Heritage,"{'brand': 'English Heritage', 'fascia': 'English Heritage', 'category': 'Heritage Site', 'edit_date': '20250405', 'lat_lon_source': 'website'}",51.570146,-0.16658,{'opening_hours': {}},0370 333 1181,3592,NW3 7JR,Kenwood,Greater London,https://www.english-heritage.org.uk/visit/places/kenwood/
"Castle Green, Kenilworth, Warwickshire CV8 1NG",Kenilworth,United Kingdom,English Heritage,"{'brand': 'English Heritage', 'fascia': 'English Heritage', 'category': 'Heritage Site', 'edit_date': '20250405', 'lat_lon_source': 'website'}",52.347852,-1.592548,{'opening_hours': {}},01926 852078,3659,CV8 1NG,Kenilworth Castle and Elizabethan Garden,Warwickshire,https://www.english-heritage.org.uk/visit/places/kenilworth-castle/
"Eamont Bridge, , Cumbria CA10 2BX",,United Kingdom,English Heritage,"{'brand': 'English Heritage', 'fascia': 'English Heritage', 'category': 'Heritage Site', 'edit_date': '20250405', 'lat_lon_source': 'website'}",54.647992,-2.739048,{'opening_hours': {}},,2940,CA10 2BX,King Arthur&#39;s Round Table,Cumbria,https://www.english-heritage.org.uk/visit/places/king-arthurs-round-table/
"Bowleaze Coveway, Weymouth, Dorset DT3 6PL",Weymouth,United Kingdom,English Heritage,"{'brand': 'English Heritage', 'fascia': 'English Heritage', 'category': 'Heritage Site', 'edit_date': '20250405', 'lat_lon_source': 'website'}",50.63724,-2.427085,{'opening_hours': {}},,2545,DT3 6PL,Jordan Hill Roman Temple,Dorset,https://www.english-heritage.org.uk/visit/places/jordan-hill-roman-temple/
"Abingdon Street, Westminster, London SW1P 3JX",Westminster,United Kingdom,English Heritage,"{'brand': 'English Heritage', 'fascia': 'English Heritage', 'category': 'Heritage Site', 'edit_date': '20250405', 'lat_lon_source': 'website'}",51.4986,-0.12654,{'opening_hours': {}},020 7222 2219,3311,SW1P 3JX,Jewel Tower,London,https://www.english-heritage.org.uk/visit/places/jewel-tower/
", Dover, Kent CT17 9DP",Dover,United Kingdom,English Heritage,"{'brand': 'English Heritage', 'fascia': 'English Heritage', 'category': 'Heritage Site', 'edit_date': '20250405', 'lat_lon_source': 'website'}",51.119229,1.304955,{'opening_hours': {}},01304 211067,2337,CT17 9DP,"Knights Templar Church, Dover",Kent,https://www.english-heritage.org.uk/visit/places/knights-templar-church-dover/
"Ironbridge, Telford, Shropshire TF8 7JP",Telford,United Kingdom,English Heritage,"{'brand': 'English Heritage', 'fascia': 'English Heritage', 'category': 'Heritage Site', 'edit_date': '20250405', 'lat_lon_source': 'website'}",52.626422,-2.484586,{'opening_hours': {}},,3147,TF8 7JP,Iron Bridge,Shropshire,https://www.english-heritage.org.uk/visit/places/iron-bridge/
"St Mary&#39;s, Isles of Scilly, Cornwall TR21 0NX",Isles of Scilly,United Kingdom,English Heritage,"{'brand': 'English Heritage', 'fascia': 'English Heritage', 'category': 'Heritage Site', 'edit_date': '20250405', 'lat_lon_source': 'website'}",49.933543,-6.291169,{'opening_hours': {}},,2888,TR21 0NX,Innisidgen Lower and Upper Burial Chambers,Cornwall,https://www.english-heritage.org.uk/visit/places/innisidgen-lower-and-upper-burial-chambers/
"Tresco, Isles of Scilly, Cornwall TR24 0QQ",Isles of Scilly,United Kingdom,English Heritage,"{'brand': 'English Heritage', 'fascia': 'English Heritage', 'category': 'Heritage Site', 'edit_date': '20250405', 'lat_lon_source': 'website'}",49.96322,-6.348525,{'opening_hours': {}},,2417,TR24 0QQ,King Charles&#39;s Castle,Cornwall,https://www.english-heritage.org.uk/visit/places/king-charless-castle/
"Church Street, Isleham, Cambridgeshire CB7 5RX",Isleham,United Kingdom,English Heritage,"{'brand': 'English Heritage', 'fascia': 'English Heritage', 'category': 'Heritage Site', 'edit_date': '20250405', 'lat_lon_source': 'website'}",52.343063,0.409348,{'opening_hours': {}},,2553,CB7 5RX,Isleham Priory Church,Cambridgeshire,https://www.english-heritage.org.uk/visit/places/isleham-priory-church/
"54-57 Albion Street, Birmingham, West Midlands B1 3EA",Birmingham,United Kingdom,English Heritage,"{'brand': 'English Heritage', 'fascia': 'English Heritage', 'category': 'Heritage Site', 'edit_date': '20250405', 'lat_lon_source': 'website'}",52.485087,-1.912636,{'opening_hours': {}},0370 333 1181,3560,B1 3EA,JW Evans Silver Factory,West Midlands,https://www.english-heritage.org.uk/visit/places/j-w-evans-silver-factory/
"Minions, Liskeard, Cornwall PL14 5LE",Liskeard,United Kingdom,English Heritage,"{'brand': 'English Heritage', 'fascia': 'English Heritage', 'category': 'Heritage Site', 'edit_date': '20250405', 'lat_lon_source': 'website'}",50.51609,-4.455707,{'opening_hours': {}},,3020,PL14 5LE ,Hurlers Stone Circles,Cornwall,https://www.english-heritage.org.uk/visit/places/hurlers-stone-circles/
"High Bridge, Goole, East Yorkshire DN14 7BS",Goole,United Kingdom,English Heritage,"{'brand': 'English Heritage', 'fascia': 'English Heritage', 'category': 'Heritage Site', 'edit_date': '20250405', 'lat_lon_source': 'website'}",53.74453,-0.865995,{'opening_hours': {}},,3538,DN14 7BS,Howden Minster,East Yorkshire,https://www.english-heritage.org.uk/visit/places/howden-minster/
"Haydon Bridge, Hexham, Northumberland NE47 6NN",Hexham,United Kingdom,English Heritage,"{'brand': 'English Heritage', 'fascia': 'English Heritage', 'category': 'Heritage Site', 'edit_date': '20250405', 'lat_lon_source': 'website'}",55.010691,-2.327844,{'opening_hours': {}},01434 344363,3719,NE47 6NN,Housesteads Roman Fort - Hadrian&#39;s Wall,Northumberland,https://www.english-heritage.org.uk/visit/places/housesteads-roman-fort-hadrians-wall/
"Milford on Sea, Lymington, Hampshire SO41 0TP",Lymington,United Kingdom,English Heritage,"{'brand': 'English Heritage', 'fascia': 'English Heritage', 'category': 'Heritage Site', 'edit_date': '20250405', 'lat_lon_source': 'website'}",50.706503,-1.55121,{'opening_hours': {}},01590 642500,3430,SO41 0TP,Hurst Castle,Hampshire,https://www.english-heritage.org.uk/visit/places/hurst-castle/
"Luxted Road, Downe, Kent BR6 7JT",Downe,United Kingdom,English Heritage,"{'brand': 'English Heritage', 'fascia': 'English Heritage', 'category': 'Heritage Site', 'edit_date': '20250405', 'lat_lon_source': 'website'}",51.333148,0.054262,{'opening_hours': {}},01689 859119,3498,BR6 7JT,Home of Charles Darwin - Down House,Kent,https://www.english-heritage.org.uk/visit/places/home-of-charles-darwin-down-house/
"Abbotsbury, Weymouth, Dorset DT3 4JX",Weymouth,United Kingdom,English Heritage,"{'brand': 'English Heritage', 'fascia': 'English Heritage', 'category': 'Heritage Site', 'edit_date': '20250405', 'lat_lon_source': 'website'}",50.687703,-2.597569,{'opening_hours': {}},,3012,DT3 4JX,Kingston Russell Stone Circle,Dorset,https://www.english-heritage.org.uk/visit/places/kingston-russell-stone-circle/
"St Nicholas Circle, Leicester, Leicestershire LE1 4LB",Leicester,United Kingdom,English Heritage,"{'brand': 'English Heritage', 'fascia': 'English Heritage', 'category': 'Heritage Site', 'edit_date': '20250405', 'lat_lon_source': 'website'}",52.633908,-1.138524,{'opening_hours': {}},01162 254971 (Jewry Wall Museum),2365,LE1 4LB,Jewry Wall,Leicestershire,https://www.english-heritage.org.uk/visit/places/jewry-wall/
"Hazelwood Lane, Bedford, Bedfordshire MK45 2EY",Bedford,United Kingdom,English Heritage,"{'brand': 'English Heritage', 'fascia': 'English Heritage', 'category': 'Heritage Site', 'edit_date': '20250405', 'lat_lon_source': 'website'}",52.041431,-0.489574,{'opening_hours': {}},,2321,MK45 2EY,Houghton House,Bedfordshire,https://www.english-heritage.org.uk/visit/places/houghton-house/
"Kenardington Road, Appledore, Kent TN26 2AL",Appledore,United Kingdom,English Heritage,"{'brand': 'English Heritage', 'fascia': 'English Heritage', 'category': 'Heritage Site', 'edit_date': '20250405', 'lat_lon_source': 'website'}",51.041558,0.791423,{'opening_hours': {}},,3016,TN26 2AL,Horne&#39;s Place Chapel,Kent,https://www.english-heritage.org.uk/visit/places/hornes-place-chapel/
"Riccal Dr, York,  YO62 5DP",York,United Kingdom,English Heritage,"{'brand': 'English Heritage', 'fascia': 'English Heritage', 'category': 'Heritage Site', 'edit_date': '20250405', 'lat_lon_source': 'website'}",54.243302,-1.052075,{'opening_hours': {}},01439 770008,193768,YO62 5DP,Helmsley Archaeology Store,,https://www.english-heritage.org.uk/visit/places/helmsley-archaeology-store/
"Castlegate, Helmsley, North Yorkshire YO62 5AB",Helmsley,United Kingdom,English Heritage,"{'brand': 'English Heritage', 'fascia': 'English Heritage', 'category': 'Heritage Site', 'edit_date': '20250405', 'lat_lon_source': 'website'}",54.245443,-1.0638,{'opening_hours': {}},01439 770442,3307,YO62 5AB,Helmsley Castle,North Yorkshire,https://www.english-heritage.org.uk/visit/places/helmsley-castle/
"Craigavon Road, Sunderland, Tyne and Wear SR5 3PA",Sunderland,United Kingdom,English Heritage,"{'brand': 'English Heritage', 'fascia': 'English Heritage', 'category': 'Heritage Site', 'edit_date': '20250405', 'lat_lon_source': 'website'}",54.922063,-1.442321,{'opening_hours': {}},,2697,SR5 3PA,Hylton Castle,Tyne and Wear,https://www.english-heritage.org.uk/visit/places/hylton-castle/
"Hexham Road, Heddon-on-the-Wall, Northumberland NE15 0ED",Heddon-on-the-Wall,United Kingdom,English Heritage,"{'brand': 'English Heritage', 'fascia': 'English Heritage', 'category': 'Heritage Site', 'edit_date': '20250405', 'lat_lon_source': 'website'}",54.998389,-1.791549,{'opening_hours': {}},,2701,NE15 0ED ,Heddon on the Wall  Hadrian&#39;s Wall,Northumberland,https://www.english-heritage.org.uk/visit/places/heddon-on-the-wall-hadrians-wall/
"St Mary&#39;s, Isles of Scilly, Cornwall TR21 0NE",Isles of Scilly,United Kingdom,English Heritage,"{'brand': 'English Heritage', 'fascia': 'English Heritage', 'category': 'Heritage Site', 'edit_date': '20250405', 'lat_lon_source': 'website'}",49.918666,-6.305427,{'opening_hours': {}},,2884,TR21 0NE,Harry&#39;s Walls,Cornwall,https://www.english-heritage.org.uk/visit/places/harrys-walls/
"Theydon Mt, Epping, Essex CM16 7QQ",Epping,United Kingdom,English Heritage,"{'brand': 'English Heritage', 'fascia': 'English Heritage', 'category': 'Heritage Site', 'edit_date': '20250405', 'lat_lon_source': 'website'}",51.675641,0.15222,{'opening_hours': {}},,2229,CM16 7QQ,Hill Hall,Essex,https://www.english-heritage.org.uk/visit/places/hill-hall/
"Gilsland, Brampton, Cumbria CA8 7DD",Brampton,United Kingdom,English Heritage,"{'brand': 'English Heritage', 'fascia': 'English Heritage', 'category': 'Heritage Site', 'edit_date': '20250405', 'lat_lon_source': 'website'}",54.990784,-2.592361,{'opening_hours': {}},,2625,CA8 7DD,Harrows Scar Milecastle and Wall - Hadrian&#39;s Wall,Cumbria,https://www.english-heritage.org.uk/visit/places/harrows-scar-milecastle-and-wall-hadrians-wall/
"The Great Barn, Harmondsworth, Greater London UB7 0AQ",Harmondsworth,United Kingdom,English Heritage,"{'brand': 'English Heritage', 'fascia': 'English Heritage', 'category': 'Heritage Site', 'edit_date': '20250405', 'lat_lon_source': 'website'}",51.489719,-0.479939,{'opening_hours': {}},,2765,UB7 0AQ,Harmondsworth Barn,Greater London,https://www.english-heritage.org.uk/visit/places/harmondsworth-barn/
"Manaton, Newton Abbot, Devon TQ13 9XG",Newton Abbot,United Kingdom,English Heritage,"{'brand': 'English Heritage', 'fascia': 'English Heritage', 'category': 'Heritage Site', 'edit_date': '20250405', 'lat_lon_source': 'website'}",50.595565,-3.772175,{'opening_hours': {}},,2801,TQ13 9XG,Hound Tor Deserted Medieval Village,Devon,https://www.english-heritage.org.uk/visit/places/hound-tor-deserted-medieval-village/
", Beeley Moor, Derbyshire",Beeley Moor,United Kingdom,English Heritage,"{'brand': 'English Heritage', 'fascia': 'English Heritage', 'category': 'Heritage Site', 'edit_date': '20250405', 'lat_lon_source': 'website'}",53.218443,-1.570186,{'opening_hours': {}},01629 816200,3631,,Hob Hurst&#39;s House,Derbyshire,https://www.english-heritage.org.uk/visit/places/hob-hursts-house/
"The Street, Devizes, Wiltshire SN10 3RQ",Devizes,United Kingdom,English Heritage,"{'brand': 'English Heritage', 'fascia': 'English Heritage', 'category': 'Heritage Site', 'edit_date': '20250405', 'lat_lon_source': 'website'}",51.324396,-1.869984,{'opening_hours': {}},,2601,SN10 3RQ,Hatfield Earthworks (Marden Henge),Wiltshire,https://www.english-heritage.org.uk/visit/places/hatfield-earthworks/
"Hardknott Pass, Eskdale, Cumbria CA19 1TH",Eskdale,United Kingdom,English Heritage,"{'brand': 'English Heritage', 'fascia': 'English Heritage', 'category': 'Heritage Site', 'edit_date': '20250405', 'lat_lon_source': 'website'}",54.403112,-3.200751,{'opening_hours': {}},,2972,CA19 1TH,Hardknott Roman Fort,Cumbria,https://www.english-heritage.org.uk/visit/places/hardknott-roman-fort/
", , West Midlands B62 8RJ",,United Kingdom,English Heritage,"{'brand': 'English Heritage', 'fascia': 'English Heritage', 'category': 'Heritage Site', 'edit_date': '20250405', 'lat_lon_source': 'website'}",52.443063,-2.0335,{'opening_hours': {}},,2441,B62 8RJ,Halesowen Abbey,West Midlands,https://www.english-heritage.org.uk/visit/places/halesowen-abbey/
"Hailes, Cheltenham, Gloucestershire GL54 5PB",Cheltenham,United Kingdom,English Heritage,"{'brand': 'English Heritage', 'fascia': 'English Heritage', 'category': 'Heritage Site', 'edit_date': '20250405', 'lat_lon_source': 'website'}",51.969022,-1.928841,{'opening_hours': {}},01242 602398,3299,GL54 5PB,Hailes Abbey,Gloucestershire,https://www.english-heritage.org.uk/visit/places/hailes-abbey/
"Hare Hill, Brampton, Cumbria CA8 2JJ",Brampton,United Kingdom,English Heritage,"{'brand': 'English Heritage', 'fascia': 'English Heritage', 'category': 'Heritage Site', 'edit_date': '20250405', 'lat_lon_source': 'website'}",54.974733,-2.684824,{'opening_hours': {}},,2976,CA8 2JJ,Hare Hill - Hadrian&#39;s Wall,Cumbria,https://www.english-heritage.org.uk/visit/places/hare-hill-hadrians-wall/
"Doe Lea, Chesterfield, Derbyshire S44 5QJ",Chesterfield,United Kingdom,English Heritage,"{'brand': 'English Heritage', 'fascia': 'English Heritage', 'category': 'Heritage Site', 'edit_date': '20250405', 'lat_lon_source': 'website'}",53.165917,-1.311111,{'opening_hours': {}},01246 850431,3255,S44 5QJ,Hardwick Old Hall and Hardwick Hall,Derbyshire,https://www.english-heritage.org.uk/visit/places/hardwick-old-hall/
"Postbridge, , Devon PL20 6TB",,United Kingdom,English Heritage,"{'brand': 'English Heritage', 'fascia': 'English Heritage', 'category': 'Heritage Site', 'edit_date': '20250405', 'lat_lon_source': 'website'}",50.612806,-3.837104,{'opening_hours': {}},,2281,PL20 6TB,Grimspound,Devon,https://www.english-heritage.org.uk/visit/places/grimspound/
"Trelowarren Estate , Helston, Cornwall TR12 6AF",Helston,United Kingdom,English Heritage,"{'brand': 'English Heritage', 'fascia': 'English Heritage', 'category': 'Heritage Site', 'edit_date': '20250405', 'lat_lon_source': 'website'}",50.070825,-5.198081,{'opening_hours': {}},,3175,TR12 6AF,Halliggye Fogou,Cornwall,https://www.english-heritage.org.uk/visit/places/halliggye-fogou/
"Greyfriars Walk, Gloucester, Gloucestershire GL1 2EZ",Gloucester,United Kingdom,English Heritage,"{'brand': 'English Heritage', 'fascia': 'English Heritage', 'category': 'Heritage Site', 'edit_date': '20250405', 'lat_lon_source': 'website'}",51.865753,-2.246259,{'opening_hours': {}},,3028,GL1 2EZ,Greyfriars,Gloucestershire,https://www.english-heritage.org.uk/visit/places/greyfriars/
"Upton Magna, Uffington, Shropshire SY4 4RW",Uffington,United Kingdom,English Heritage,"{'brand': 'English Heritage', 'fascia': 'English Heritage', 'category': 'Heritage Site', 'edit_date': '20250405', 'lat_lon_source': 'website'}",52.731298,-2.680909,{'opening_hours': {}},,3303,SY4 4RW,Haughmond Abbey,Shropshire,https://www.english-heritage.org.uk/visit/places/haughmond-abbey/
"Castle Lane, Hadleigh, Essex SS7 2AP",Hadleigh,United Kingdom,English Heritage,"{'brand': 'English Heritage', 'fascia': 'English Heritage', 'category': 'Heritage Site', 'edit_date': '20250405', 'lat_lon_source': 'website'}",51.543708,0.610268,{'opening_hours': {}},,2705,SS7 2AP,Hadleigh Castle,Essex,https://www.english-heritage.org.uk/visit/places/hadleigh-castle/
"Castle Lane, Ross on Wye, Herefordshire HR9 6HY",Ross on Wye,United Kingdom,English Heritage,"{'brand': 'English Heritage', 'fascia': 'English Heritage', 'category': 'Heritage Site', 'edit_date': '20250405', 'lat_lon_source': 'website'}",51.874633,-2.61373,{'opening_hours': {}},01600 890538,3143,HR9 6HY,Goodrich Castle,Herefordshire,https://www.english-heritage.org.uk/visit/places/goodrich-castle/
"Priory Grounds, Guisborough, North Yorkshire TS14 6HG",Guisborough,United Kingdom,English Heritage,"{'brand': 'English Heritage', 'fascia': 'English Heritage', 'category': 'Heritage Site', 'edit_date': '20250405', 'lat_lon_source': 'website'}",54.535922,-1.045895,{'opening_hours': {}},,3514,TS14 6HG,Gisborough Priory,North Yorkshire,https://www.english-heritage.org.uk/visit/places/gisborough-priory/
", Brockworth, Gloucestershire GL3 4TW",Brockworth,United Kingdom,English Heritage,"{'brand': 'English Heritage', 'fascia': 'English Heritage', 'category': 'Heritage Site', 'edit_date': '20250405', 'lat_lon_source': 'website'}",51.826799,-2.147538,{'opening_hours': {}},,3032,GL3 4TW,Great Witcombe Roman Villa,Gloucestershire,https://www.english-heritage.org.uk/visit/places/great-witcombe-roman-villa/
"Goodshaw Avenue, Rawtenstall, Lancashire BB4 8QB",Rawtenstall,United Kingdom,English Heritage,"{'brand': 'English Heritage', 'fascia': 'English Heritage', 'category': 'Heritage Site', 'edit_date': '20250405', 'lat_lon_source': 'website'}",53.73164,-2.281398,{'opening_hours': {}},,2477,BB4 8QB,Goodshaw Chapel,Lancashire,https://www.english-heritage.org.uk/visit/places/goodshaw-chapel/
"Gainsthorpe Road East and West, Gainsborough,  DN21 4JH",Gainsborough,United Kingdom,English Heritage,"{'brand': 'English Heritage', 'fascia': 'English Heritage', 'category': 'Heritage Site', 'edit_date': '20250405', 'lat_lon_source': 'website'}",53.498917,-0.563368,{'opening_hours': {}},,3502,DN21 4JH,Gainsthorpe Medieval Village,,https://www.english-heritage.org.uk/visit/places/gainsthorpe-medieval-village/
"Parnell Street, Gainsborough, Lincolnshire DN21 2NB",Gainsborough,United Kingdom,English Heritage,"{'brand': 'English Heritage', 'fascia': 'English Heritage', 'category': 'Heritage Site', 'edit_date': '20250405', 'lat_lon_source': 'website'}",53.400487,-0.776198,{'opening_hours': {}},01427 677348,3374,DN21 2NB,Gainsborough Old Hall,Lincolnshire,https://www.english-heritage.org.uk/visit/places/gainsborough-old-hall/
"St Mary&#39;s, Isles of Scilly, Cornwall TR21 0LT",Isles of Scilly,United Kingdom,English Heritage,"{'brand': 'English Heritage', 'fascia': 'English Heritage', 'category': 'Heritage Site', 'edit_date': '20250405', 'lat_lon_source': 'website'}",49.912598,-6.321456,{'opening_hours': {}},,2880,TR21 0LT,Garrison Walls,Cornwall,https://www.english-heritage.org.uk/visit/places/garrison-walls/
"Church Street, Framlingham, Suffolk IP13 9BP",Framlingham,United Kingdom,English Heritage,"{'brand': 'English Heritage', 'fascia': 'English Heritage', 'category': 'Heritage Site', 'edit_date': '20250405', 'lat_lon_source': 'website'}",52.223161,1.345892,{'opening_hours': {}},0370 333 1181 ,3231,IP13 9BP,Framlingham Castle,Suffolk,https://www.english-heritage.org.uk/visit/places/framlingham-castle/
"South Quay, Great Yarmouth, Norfolk NR30 2RG",Great Yarmouth,United Kingdom,English Heritage,"{'brand': 'English Heritage', 'fascia': 'English Heritage', 'category': 'Heritage Site', 'edit_date': '20250405', 'lat_lon_source': 'website'}",52.6029,1.72721,{'opening_hours': {}},01493 857900,3390,NR30 2RG,Great Yarmouth Row Houses and Greyfriars&#39; Cloisters,Norfolk,https://www.english-heritage.org.uk/visit/places/great-yarmouth-row-houses-and-greyfriars-cloisters/
"Manor Road, Barrow in Furness, Cumbria LA13 0PJ",Barrow in Furness,United Kingdom,English Heritage,"{'brand': 'English Heritage', 'fascia': 'English Heritage', 'category': 'Heritage Site', 'edit_date': '20250405', 'lat_lon_source': 'website'}",54.13513,-3.198358,{'opening_hours': {}},01229 823420,3291,LA13 0PJ,Furness Abbey,Cumbria,https://www.english-heritage.org.uk/visit/places/furness-abbey/
"Multiple sites in Northumberland, ,  Northern England",,United Kingdom,English Heritage,"{'brand': 'English Heritage', 'fascia': 'English Heritage', 'category': 'Heritage Site', 'edit_date': '20250405', 'lat_lon_source': 'website'}",55.010691,-2.327844,{'opening_hours': {}},,3723,Northern England,Hadrian&#39;s Wall,,https://www.english-heritage.org.uk/visit/places/hadrians-wall/
"Finchale Priory, Framwellgate Moor, County Durham DH1 5SH",Framwellgate Moor,United Kingdom,English Heritage,"{'brand': 'English Heritage', 'fascia': 'English Heritage', 'category': 'Heritage Site', 'edit_date': '20250405', 'lat_lon_source': 'website'}",54.818107,-1.53965,{'opening_hours': {}},,3036,DH1 5SH,Finchale Priory,County Durham,https://www.english-heritage.org.uk/visit/places/finchale-priory/
"High Street, Glastonbury, Somerset BA6 9DP",Glastonbury,United Kingdom,English Heritage,"{'brand': 'English Heritage', 'fascia': 'English Heritage', 'category': 'Heritage Site', 'edit_date': '20250405', 'lat_lon_source': 'website'}",51.147711,-2.716468,{'opening_hours': {}},,2569,BA6 9DP,Glastonbury Tribunal,Somerset,https://www.english-heritage.org.uk/visit/places/glastonbury-tribunal/
"Lynford, Thetford, Norfolk IP26 5DE",Thetford,United Kingdom,English Heritage,"{'brand': 'English Heritage', 'fascia': 'English Heritage', 'category': 'Heritage Site', 'edit_date': '20250405', 'lat_lon_source': 'website'}",52.477463,0.672215,{'opening_hours': {}},0370 333 1181,3295,IP26 5DE,Grime&#39;s Graves - Prehistoric Flint Mine,Norfolk,https://www.english-heritage.org.uk/visit/places/grimes-graves-prehistoric-flint-mine/
"Four Oaks Road, Faversham, Kent ME13 0TB",Faversham,United Kingdom,English Heritage,"{'brand': 'English Heritage', 'fascia': 'English Heritage', 'category': 'Heritage Site', 'edit_date': '20250405', 'lat_lon_source': 'website'}",51.316316,0.858838,{'opening_hours': {}},01795 534542,2489,ME13 0TB,Faversham Stone Chapel (Our Lady of Elverton),Kent,https://www.english-heritage.org.uk/visit/places/faversham-stone-chapel-our-lady-of-elverton/
"Farleigh Hungerford, Bath, Somerset BA2 7RS",Bath,United Kingdom,English Heritage,"{'brand': 'English Heritage', 'fascia': 'English Heritage', 'category': 'Heritage Site', 'edit_date': '20250405', 'lat_lon_source': 'website'}",51.3175,-2.287,{'opening_hours': {}},01225 754026,3287,BA2 7RS,Farleigh Hungerford Castle,Somerset,https://www.english-heritage.org.uk/visit/places/farleigh-hungerford-castle/
"off High Street , Eynsford, Kent DA4 0AA",Eynsford,United Kingdom,English Heritage,"{'brand': 'English Heritage', 'fascia': 'English Heritage', 'category': 'Heritage Site', 'edit_date': '20250405', 'lat_lon_source': 'website'}",51.370595,0.214888,{'opening_hours': {}},,2277,DA4 0AA,Eynsford Castle,Kent,https://www.english-heritage.org.uk/visit/places/eynsford-castle/
"Court Yard, Greenwich, London SE9 5NP for Sat Nav",Greenwich,United Kingdom,English Heritage,"{'brand': 'English Heritage', 'fascia': 'English Heritage', 'category': 'Heritage Site', 'edit_date': '20250405', 'lat_lon_source': 'website'}",51.447692,0.051115,{'opening_hours': {}},020 8294 8065,3564,SE9 5NP for Sat Nav,Eltham Palace and Gardens,London,https://www.english-heritage.org.uk/visit/places/eltham-palace-and-gardens/
"Gunners Way, Gosport, Hampshire PO12 4DS",Gosport,United Kingdom,English Heritage,"{'brand': 'English Heritage', 'fascia': 'English Heritage', 'category': 'Heritage Site', 'edit_date': '20250405', 'lat_lon_source': 'website'}",50.814568,-1.153898,{'opening_hours': {}},,3588,PO12 4DS,Fort Brockhurst,Hampshire,https://www.english-heritage.org.uk/visit/places/fort-brockhurst/
"Fiddleford, Newton, Dorset DT10 2BX",Newton,United Kingdom,English Heritage,"{'brand': 'English Heritage', 'fascia': 'English Heritage', 'category': 'Heritage Site', 'edit_date': '20250405', 'lat_lon_source': 'website'}",50.921495,-2.284392,{'opening_hours': {}},,2549,DT10 2BX,Fiddleford Manor,Dorset,https://www.english-heritage.org.uk/visit/places/fiddleford-manor/
"Castle Street, Farnham, Surrey GU9 0AG",Farnham,United Kingdom,English Heritage,"{'brand': 'English Heritage', 'fascia': 'English Heritage', 'category': 'Heritage Site', 'edit_date': '20250405', 'lat_lon_source': 'website'}",51.220107,-0.795802,{'opening_hours': {}},01252 721194,3083,GU9 0AG,Farnham Castle Keep,Surrey,https://www.english-heritage.org.uk/visit/places/farnham-castle-keep/
"Edvin Loach, Bromyard, Herefordshire HR7 4PW",Bromyard,United Kingdom,English Heritage,"{'brand': 'English Heritage', 'fascia': 'English Heritage', 'category': 'Heritage Site', 'edit_date': '20250405', 'lat_lon_source': 'website'}",52.222045,-2.492925,{'opening_hours': {}},,2461,HR7 4PW,Edvin Loach Old Church,Herefordshire,https://www.english-heritage.org.uk/visit/places/edvin-loach-old-church/
", Cornhill on Tweed, Northumberland TD12 4TN",Cornhill on Tweed,United Kingdom,English Heritage,"{'brand': 'English Heritage', 'fascia': 'English Heritage', 'category': 'Heritage Site', 'edit_date': '20250405', 'lat_lon_source': 'website'}",55.647488,-2.120818,{'opening_hours': {}},,3283,TD12 4TN,Etal Castle,Northumberland,https://www.english-heritage.org.uk/visit/places/etal-castle/
"Abbey Lane, Barnard Castle, County Durham DL12 9TN",Barnard Castle,United Kingdom,English Heritage,"{'brand': 'English Heritage', 'fascia': 'English Heritage', 'category': 'Heritage Site', 'edit_date': '20250405', 'lat_lon_source': 'website'}",54.531922,-1.905079,{'opening_hours': {}},,3556,DL12 9TN,Egglestone Abbey,County Durham,https://www.english-heritage.org.uk/visit/places/egglestone-abbey/
"Bridge Street, Geddington, Northamptonshire NN14 1AH",Geddington,United Kingdom,English Heritage,"{'brand': 'English Heritage', 'fascia': 'English Heritage', 'category': 'Heritage Site', 'edit_date': '20250405', 'lat_lon_source': 'website'}",52.43671,-0.682151,{'opening_hours': {}},,3604,NN14 1AH,"Eleanor Cross, Geddington",Northamptonshire,https://www.english-heritage.org.uk/visit/places/eleanor-cross-geddington/
"Dupath, Callington, Cornwall PL17 8AD",Callington,United Kingdom,English Heritage,"{'brand': 'English Heritage', 'fascia': 'English Heritage', 'category': 'Heritage Site', 'edit_date': '20250405', 'lat_lon_source': 'website'}",50.50032,-4.292761,{'opening_hours': {}},,2401,PL17 8AD,Dupath Well,Cornwall,https://www.english-heritage.org.uk/visit/places/dupath-well/
"High Street, Minehead, Somerset TA24 6SG",Minehead,United Kingdom,English Heritage,"{'brand': 'English Heritage', 'fascia': 'English Heritage', 'category': 'Heritage Site', 'edit_date': '20250405', 'lat_lon_source': 'website'}",51.184574,-3.444334,{'opening_hours': {}},,2848,TA24 6SG,"Dunster, Yarn Market",Somerset,https://www.english-heritage.org.uk/visit/places/dunster-yarn-market/
"Easby, Richmond, North Yorkshire DL10 7EU",Richmond,United Kingdom,English Heritage,"{'brand': 'English Heritage', 'fascia': 'English Heritage', 'category': 'Heritage Site', 'edit_date': '20250405', 'lat_lon_source': 'website'}",54.397557,-1.714849,{'opening_hours': {}},,3510,DL10 7EU,Easby Abbey,North Yorkshire,https://www.english-heritage.org.uk/visit/places/easby-abbey/
"Dunster, Minehead, Somerset TA24 6RT",Minehead,United Kingdom,English Heritage,"{'brand': 'English Heritage', 'fascia': 'English Heritage', 'category': 'Heritage Site', 'edit_date': '20250405', 'lat_lon_source': 'website'}",51.184638,-3.44793,{'opening_hours': {}},,2840,TA24 6RT,Dunster Butter Cross,Somerset,https://www.english-heritage.org.uk/visit/places/butter-cross/
"Kennel Lane, Winchester, Hampshire SO22 6PS",Winchester,United Kingdom,English Heritage,"{'brand': 'English Heritage', 'fascia': 'English Heritage', 'category': 'Heritage Site', 'edit_date': '20250405', 'lat_lon_source': 'website'}",51.084939,-1.34458,{'opening_hours': {}},,2777,SO22 6PS,Flowerdown Barrows,Hampshire,https://www.english-heritage.org.uk/visit/places/flowerdown-barrows/
"Castle Hill, Dover, Kent CT16 1HU",Dover,United Kingdom,English Heritage,"{'brand': 'English Heritage', 'fascia': 'English Heritage', 'category': 'Heritage Site', 'edit_date': '20250405', 'lat_lon_source': 'website'}",51.129671,1.32117,{'opening_hours': {}},0370 333 1181,3756,CT16 1HU,Dover Castle,Kent,https://www.english-heritage.org.uk/visit/places/dover-castle/
"Edlingham, Alnwick, Northumberland NE66 2BW",Alnwick,United Kingdom,English Heritage,"{'brand': 'English Heritage', 'fascia': 'English Heritage', 'category': 'Heritage Site', 'edit_date': '20250405', 'lat_lon_source': 'website'}",55.37607,-1.821641,{'opening_hours': {}},,2709,NE66 2BW,Edlingham Castle,Northumberland,https://www.english-heritage.org.uk/visit/places/edlingham-castle/
"High Street, Romney Marsh, Kent TN29 0NU",Romney Marsh,United Kingdom,English Heritage,"{'brand': 'English Heritage', 'fascia': 'English Heritage', 'category': 'Heritage Site', 'edit_date': '20250405', 'lat_lon_source': 'website'}",51.023793,0.997553,{'opening_hours': {}},,3711,TN29 0NU,Dymchurch Martello Tower,Kent,https://www.english-heritage.org.uk/visit/places/dymchurch-martello-tower/
"Station Road, Whittlesford, Cambridgeshire CB22 4NL",Whittlesford,United Kingdom,English Heritage,"{'brand': 'English Heritage', 'fascia': 'English Heritage', 'category': 'Heritage Site', 'edit_date': '20250405', 'lat_lon_source': 'website'}",52.104868,0.168884,{'opening_hours': {}},,2433,CB22 4NL,Duxford Chapel,Cambridgeshire,https://www.english-heritage.org.uk/visit/places/duxford-chapel/
"Dunstanburgh Road, Alnwick, Northumberland NE66 3TW",Alnwick,United Kingdom,English Heritage,"{'brand': 'English Heritage', 'fascia': 'English Heritage', 'category': 'Heritage Site', 'edit_date': '20250405', 'lat_lon_source': 'website'}",55.48953,-1.59425,{'opening_hours': {}},01665 576231,3279,NE66 3TW,Dunstanburgh Castle,Northumberland,https://www.english-heritage.org.uk/visit/places/dunstanburgh-castle/
"Castle Street, Deddington, Oxford",Deddington,United Kingdom,English Heritage,"{'brand': 'English Heritage', 'fascia': 'English Heritage', 'category': 'Heritage Site', 'edit_date': '20250405', 'lat_lon_source': 'website'}",51.979958,-1.313809,{'opening_hours': {}},,2721,,Deddington Castle,Oxford,https://www.english-heritage.org.uk/visit/places/deddington-castle/
"Park Street, Minehead, Somerset TA24 6SR",Minehead,United Kingdom,English Heritage,"{'brand': 'English Heritage', 'fascia': 'English Heritage', 'category': 'Heritage Site', 'edit_date': '20250405', 'lat_lon_source': 'website'}",51.178456,-3.445322,{'opening_hours': {}},,2844,TA24 6SR,Dunster Gallox Bridge,Somerset,https://www.english-heritage.org.uk/visit/places/gallox-bridge/
", Donnington, West Berkshire RG14 2LE",Donnington,United Kingdom,English Heritage,"{'brand': 'English Heritage', 'fascia': 'English Heritage', 'category': 'Heritage Site', 'edit_date': '20250405', 'lat_lon_source': 'website'}",51.419154,-1.337327,{'opening_hours': {}},,2713,RG14 2LE,Donnington Castle,West Berkshire,https://www.english-heritage.org.uk/visit/places/donnington-castle/
"Ely Road, Waterbeach, Cambridgeshire CB25 9PQ",Waterbeach,United Kingdom,English Heritage,"{'brand': 'English Heritage', 'fascia': 'English Heritage', 'category': 'Heritage Site', 'edit_date': '20250405', 'lat_lon_source': 'website'}",52.293614,0.195095,{'opening_hours': {}},01223 860489 / 860988,3370,CB25 9PQ,Denny Abbey and the Farmland Museum,Cambridgeshire,https://www.english-heritage.org.uk/visit/places/denny-abbey-and-the-farmland-museum/
"Croxden, Uttoxeter, Staffordshire ST14 5JG",Uttoxeter,United Kingdom,English Heritage,"{'brand': 'English Heritage', 'fascia': 'English Heritage', 'category': 'Heritage Site', 'edit_date': '20250405', 'lat_lon_source': 'website'}",52.955799,-1.90486,{'opening_hours': {}},,2445,ST14 5JG,Croxden Abbey,Staffordshire,https://www.english-heritage.org.uk/visit/places/croxden-abbey/
"Castle Road, Dartmouth, Devon TQ6 0JN",Dartmouth,United Kingdom,English Heritage,"{'brand': 'English Heritage', 'fascia': 'English Heritage', 'category': 'Heritage Site', 'edit_date': '20250405', 'lat_lon_source': 'website'}",50.342381,-3.567246,{'opening_hours': {}},01803 834445,3386,TQ6 0JN,Dartmouth Castle,Devon,https://www.english-heritage.org.uk/visit/places/dartmouth-castle/
"Turret Road, Newcastle-upon-Tyne, Tyne and Wear NE15 7TH",Newcastle-upon-Tyne,United Kingdom,English Heritage,"{'brand': 'English Heritage', 'fascia': 'English Heritage', 'category': 'Heritage Site', 'edit_date': '20250405', 'lat_lon_source': 'website'}",54.984515,-1.695694,{'opening_hours': {}},,2717,NE15 7TH,Denton Hall Turret - Hadrian&#39;s Wall,Tyne and Wear,https://www.english-heritage.org.uk/visit/places/denton-hall-turret/
"High Street, Nr Ampthill, Bedfordshire MK45 5EJ",Nr Ampthill,United Kingdom,English Heritage,"{'brand': 'English Heritage', 'fascia': 'English Heritage', 'category': 'Heritage Site', 'edit_date': '20250405', 'lat_lon_source': 'website'}",52.012627,-0.456949,{'opening_hours': {}},,3095,MK45 5EJ,"De Grey Mausoleum, Flitton",Bedfordshire,https://www.english-heritage.org.uk/visit/places/de-grey-mausoleum-flitton/
"Forge Lane, Rowlands Gill, Tyne and Wear NE17 7RS",Rowlands Gill,United Kingdom,English Heritage,"{'brand': 'English Heritage', 'fascia': 'English Heritage', 'category': 'Heritage Site', 'edit_date': '20250405', 'lat_lon_source': 'website'}",54.904684,-1.797403,{'opening_hours': {}},0191 403 1635 (Mon-Fri),2525,NE17 7RS,Derwentcote Steel Furnace,Tyne and Wear,https://www.english-heritage.org.uk/visit/places/derwentcote-steel-furnace/
"Marine Road, Deal, Kent CT14 7BA",Deal,United Kingdom,English Heritage,"{'brand': 'English Heritage', 'fascia': 'English Heritage', 'category': 'Heritage Site', 'edit_date': '20250405', 'lat_lon_source': 'website'}",51.218563,1.405085,{'opening_hours': {}},01304 372762,3482,CT14 7BA,Deal Castle,Kent,https://www.english-heritage.org.uk/visit/places/deal-castle/
"Burnham Road, Fakenham, Norfolk NR21 9LF",Fakenham,United Kingdom,English Heritage,"{'brand': 'English Heritage', 'fascia': 'English Heritage', 'category': 'Heritage Site', 'edit_date': '20250405', 'lat_lon_source': 'website'}",52.921794,0.762668,{'opening_hours': {}},,2429,NR21 9LF,Creake Abbey,Norfolk,https://www.english-heritage.org.uk/visit/places/creake-abbey/
", Watchet, Somerset TA23 0JP",Watchet,United Kingdom,English Heritage,"{'brand': 'English Heritage', 'fascia': 'English Heritage', 'category': 'Heritage Site', 'edit_date': '20250405', 'lat_lon_source': 'website'}",51.180516,-3.343421,{'opening_hours': {}},,2837,TA23 0JP,Daw&#39;s Castle,Somerset,https://www.english-heritage.org.uk/visit/places/daws-castle/
", Penrith, Cumbria CA10 2AB",Penrith,United Kingdom,English Heritage,"{'brand': 'English Heritage', 'fascia': 'English Heritage', 'category': 'Heritage Site', 'edit_date': '20250405', 'lat_lon_source': 'website'}",54.653167,-2.701969,{'opening_hours': {}},,3271,CA10 2AB,"Countess Pillar, Brougham",Cumbria,https://www.english-heritage.org.uk/visit/places/countess-pillar-brougham/
"Corchester Lane, Corbridge, Northumberland NE45 5NT",Corbridge,United Kingdom,English Heritage,"{'brand': 'English Heritage', 'fascia': 'English Heritage', 'category': 'Heritage Site', 'edit_date': '20250405', 'lat_lon_source': 'website'}",54.978458,-2.028564,{'opening_hours': {}},01434 632349,3600,NE45 5NT,Corbridge Roman Town - Hadrian&#39;s Wall,Northumberland,https://www.english-heritage.org.uk/visit/places/corbridge-roman-town-hadrians-wall/
"Priory Street, Colchester, Essex CO2 7EE",Colchester,United Kingdom,English Heritage,"{'brand': 'English Heritage', 'fascia': 'English Heritage', 'category': 'Heritage Site', 'edit_date': '20250405', 'lat_lon_source': 'website'}",51.886783,0.904365,{'opening_hours': {}},,2421,CO2 7EE,"Colchester, St Botolph&#39;s Priory",Essex,https://www.english-heritage.org.uk/visit/places/colchester-st-botolphs-priory/
"Craven Arms, Clun, Shropshire SY7 8JT",Clun,United Kingdom,English Heritage,"{'brand': 'English Heritage', 'fascia': 'English Heritage', 'category': 'Heritage Site', 'edit_date': '20250405', 'lat_lon_source': 'website'}",52.421165,-3.031401,{'opening_hours': {}},,2896,SY7 8JT,Clun Castle,Shropshire,https://www.english-heritage.org.uk/visit/places/clun-castle/
", Tresco, Isles of Scilly TR24 0QE",Tresco,United Kingdom,English Heritage,"{'brand': 'English Heritage', 'fascia': 'English Heritage', 'category': 'Heritage Site', 'edit_date': '20250405', 'lat_lon_source': 'website'}",49.961076,-6.348243,{'opening_hours': {}},,2876,TR24 0QE,Cromwell&#39;s Castle,Isles of Scilly,https://www.english-heritage.org.uk/visit/places/cromwells-castle/
"Clifton Village, Penrith, Cumbria CA10 2EA",Penrith,United Kingdom,English Heritage,"{'brand': 'English Heritage', 'fascia': 'English Heritage', 'category': 'Heritage Site', 'edit_date': '20250405', 'lat_lon_source': 'website'}",54.636242,-2.722863,{'opening_hours': {}},,3267,CA10 2EA,Clifton Hall,Cumbria,https://www.english-heritage.org.uk/visit/places/clifton-hall/
"Tower Street, York, North Yorkshire YO1 9SA",York,United Kingdom,English Heritage,"{'brand': 'English Heritage', 'fascia': 'English Heritage', 'category': 'Heritage Site', 'edit_date': '20250405', 'lat_lon_source': 'website'}",53.955856,-1.079992,{'opening_hours': {}},,3223,YO1 9SA,"Clifford&#39;s Tower, York",North Yorkshire,https://www.english-heritage.org.uk/visit/places/cliffords-tower-york/
"Abbey Road, Watchet, Somerset TA23 0PS",Watchet,United Kingdom,English Heritage,"{'brand': 'English Heritage', 'fascia': 'English Heritage', 'category': 'Heritage Site', 'edit_date': '20250405', 'lat_lon_source': 'website'}",51.155034,-3.362899,{'opening_hours': {}},01984 640377,3671,TA23 0PS,Cleeve Abbey,Somerset,https://www.english-heritage.org.uk/visit/places/cleeve-abbey/
"High Street, Christchurch, Dorset BH23 1AS",Christchurch,United Kingdom,English Heritage,"{'brand': 'English Heritage', 'fascia': 'English Heritage', 'category': 'Heritage Site', 'edit_date': '20250405', 'lat_lon_source': 'website'}",50.732989,-1.773761,{'opening_hours': {}},,3167,BH23 1AS,Christchurch Castle and Norman House,Dorset,https://www.english-heritage.org.uk/visit/places/christchurch-castle-and-norman-house/
"Cotman Fields, Norwich, Norfolk NR1 4AA",Norwich,United Kingdom,English Heritage,"{'brand': 'English Heritage', 'fascia': 'English Heritage', 'category': 'Heritage Site', 'edit_date': '20250405', 'lat_lon_source': 'website'}",52.633112,1.309725,{'opening_hours': {}},01603 213434,2425,NR1 4AA,"Cow Tower, Norwich",Norfolk,https://www.english-heritage.org.uk/visit/places/cow-tower-norwich/
"Burlington Lane, Chiswick, London W4 2RP",Chiswick,United Kingdom,English Heritage,"{'brand': 'English Heritage', 'fascia': 'English Heritage', 'category': 'Heritage Site', 'edit_date': '20250405', 'lat_lon_source': 'website'}",51.483279,-0.2587,{'opening_hours': {}}, 020 3141 3352,2769,W4 2RP,Chiswick House and Gardens,London,https://www.english-heritage.org.uk/visit/places/chiswick-house/
"Chisbury, Marlborough, Wiltshire SN8 3JA",Marlborough,United Kingdom,English Heritage,"{'brand': 'English Heritage', 'fascia': 'English Heritage', 'category': 'Heritage Site', 'edit_date': '20250405', 'lat_lon_source': 'website'}",51.390009,-1.597473,{'opening_hours': {}},,2864,SN8 3JA,Chisbury Chapel,Wiltshire,https://www.english-heritage.org.uk/visit/places/chisbury-chapel/
"Coombe Lane West, Kingston upon Thames, London KT2 7HG",Kingston upon Thames,United Kingdom,English Heritage,"{'brand': 'English Heritage', 'fascia': 'English Heritage', 'category': 'Heritage Site', 'edit_date': '20250405', 'lat_lon_source': 'website'}",51.41488,-0.2684,{'opening_hours': {}},,2473,KT2 7HG,Coombe Conduit,London,https://www.english-heritage.org.uk/visit/places/coombe-conduit/
"Cotswold Avenue, Cirencester, Gloucestershire GL7 1XW",Cirencester,United Kingdom,English Heritage,"{'brand': 'English Heritage', 'fascia': 'English Heritage', 'category': 'Heritage Site', 'edit_date': '20250405', 'lat_lon_source': 'website'}",51.710433,-1.971668,{'opening_hours': {}},,3552,GL7 1XW,Cirencester Amphitheatre,Gloucestershire,https://www.english-heritage.org.uk/visit/places/cirencester-amphitheatre/
"Castle Hill, Doncaster, South Yorkshire DN12 3BU",Doncaster,United Kingdom,English Heritage,"{'brand': 'English Heritage', 'fascia': 'English Heritage', 'category': 'Heritage Site', 'edit_date': '20250405', 'lat_lon_source': 'website'}",53.484041,-1.224306,{'opening_hours': {}},01709 863329,3263,DN12 3BU,Conisbrough Castle,South Yorkshire,https://www.english-heritage.org.uk/visit/places/conisbrough-castle/
"Chollerford, Hexham, Northumberland NE46 4EU (use postcode for directions)",Hexham,United Kingdom,English Heritage,"{'brand': 'English Heritage', 'fascia': 'English Heritage', 'category': 'Heritage Site', 'edit_date': '20250405', 'lat_lon_source': 'website'}",55.027491,-2.137599,{'opening_hours': {}},01434 681379,3647,NE46 4EU (use postcode for directions),Chesters Roman Fort and Museum - Hadrian&#39;s Wall,Northumberland,https://www.english-heritage.org.uk/visit/places/chesters-roman-fort-and-museum-hadrians-wall/
"Chollerford, Hexham, Northumberland NE46 4EN",Hexham,United Kingdom,English Heritage,"{'brand': 'English Heritage', 'fascia': 'English Heritage', 'category': 'Heritage Site', 'edit_date': '20250405', 'lat_lon_source': 'website'}",55.023857,-2.13471,{'opening_hours': {}},,2725,NE46 4EN,Chesters Bridge Abutment - Hadrian&#39;s Wall,Northumberland,https://www.english-heritage.org.uk/visit/places/chesters-bridge-abutment-hadrians-wall/
"Haltwhistle, Hexham, Northumberland NE49 9PJ",Hexham,United Kingdom,English Heritage,"{'brand': 'English Heritage', 'fascia': 'English Heritage', 'category': 'Heritage Site', 'edit_date': '20250405', 'lat_lon_source': 'website'}",54.993878,-2.442093,{'opening_hours': {}},,2729,NE49 9PJ,Cawfields Roman Wall - Hadrian&#39;s Wall,Northumberland,https://www.english-heritage.org.uk/visit/places/cawfields-roman-wall-hadrians-wall/
"Newmill, Penzance, Cornwall TR20 8XA",Penzance,United Kingdom,English Heritage,"{'brand': 'English Heritage', 'fascia': 'English Heritage', 'category': 'Heritage Site', 'edit_date': '20250405', 'lat_lon_source': 'website'}",50.161585,-5.539743,{'opening_hours': {}},07470 115475,3667,TR20 8XA,Chysauster Ancient Village,Cornwall,https://www.english-heritage.org.uk/visit/places/chysauster-ancient-village/
"Castle Rising, King&#39;s Lynn, Norfolk PE31 6AH",King&#39;s Lynn,United Kingdom,English Heritage,"{'brand': 'English Heritage', 'fascia': 'English Heritage', 'category': 'Heritage Site', 'edit_date': '20250405', 'lat_lon_source': 'website'}",52.792755,0.4681,{'opening_hours': {}},01553 631330,2733,PE31 6AH,Castle Rising Castle,Norfolk,https://www.english-heritage.org.uk/visit/places/castle-rising-castle/
"Castle Acre, King&#39;s Lynn, Norfolk PE32 2XD",King&#39;s Lynn,United Kingdom,English Heritage,"{'brand': 'English Heritage', 'fascia': 'English Heritage', 'category': 'Heritage Site', 'edit_date': '20250405', 'lat_lon_source': 'website'}",52.700787,0.685722,{'opening_hours': {}},01760 755394,3414,PE32 2XD,Castle Acre: Castle Acre Priory,Norfolk,https://www.english-heritage.org.uk/visit/places/castle-acre-castle-acre-priory/
"Castle car park: Pyeâ€™s Lane, Kingâ€™s Lynn, Norfolk PE32 2XB",Kingâ€™s Lynn,United Kingdom,English Heritage,"{'brand': 'English Heritage', 'fascia': 'English Heritage', 'category': 'Heritage Site', 'edit_date': '20250405', 'lat_lon_source': 'website'}",52.702662,0.692324,{'opening_hours': {}},,3406,PE32 2XB,Castle Acre Castle and Bailey Gate,Norfolk,https://www.english-heritage.org.uk/visit/places/castle-acre-castle-and-bailey-gate/
"College Street, Higham Ferrers, Northamptonshire NN10 8DZ",Higham Ferrers,United Kingdom,English Heritage,"{'brand': 'English Heritage', 'fascia': 'English Heritage', 'category': 'Heritage Site', 'edit_date': '20250405', 'lat_lon_source': 'website'}",52.307163,-0.593366,{'opening_hours': {}},,2273,NN10 8DZ,Chichele College,Northamptonshire,https://www.english-heritage.org.uk/visit/places/chichele-college/
"Sancreed, Penzance, Cornwall TR20 8RB",Penzance,United Kingdom,English Heritage,"{'brand': 'English Heritage', 'fascia': 'English Heritage', 'category': 'Heritage Site', 'edit_date': '20250405', 'lat_lon_source': 'website'}",50.10337,-5.632158,{'opening_hours': {}},,3091,TR20 8RB,Carn Euny Ancient Village,Cornwall,https://www.english-heritage.org.uk/visit/places/carn-euny-ancient-village/
"Little St John Street, Chester, Cheshire CH1 1RE",Chester,United Kingdom,English Heritage,"{'brand': 'English Heritage', 'fascia': 'English Heritage', 'category': 'Heritage Site', 'edit_date': '20250405', 'lat_lon_source': 'website'}",53.187461,-2.89199,{'opening_hours': {}},,2928,CH1 1RE,Chester Roman Amphitheatre,Cheshire,https://www.english-heritage.org.uk/visit/places/chester-roman-amphitheatre/
"Dean&#39;s Yard, Westminster Abbey, London SW1P 3PA",Westminster Abbey,United Kingdom,English Heritage,"{'brand': 'English Heritage', 'fascia': 'English Heritage', 'category': 'Heritage Site', 'edit_date': '20250405', 'lat_lon_source': 'website'}",51.498145,-0.126635,{'opening_hours': {}},020 7222 5152,3099,SW1P 3PA,Chapter House and Pyx Chamber,London,https://www.english-heritage.org.uk/visit/places/chapter-house-and-pyx-chamber/
"Castle Lane, Keswick, Cumbria CA12 4RN",Keswick,United Kingdom,English Heritage,"{'brand': 'English Heritage', 'fascia': 'English Heritage', 'category': 'Heritage Site', 'edit_date': '20250405', 'lat_lon_source': 'website'}",54.604269,-3.0963,{'opening_hours': {}},,2617,CA12 4RN,Castlerigg Stone Circle,Cumbria,https://www.english-heritage.org.uk/visit/places/castlerigg-stone-circle/
"Condover, Shrewsbury, Shropshire SY5 7DD",Shrewsbury,United Kingdom,English Heritage,"{'brand': 'English Heritage', 'fascia': 'English Heritage', 'category': 'Heritage Site', 'edit_date': '20250405', 'lat_lon_source': 'website'}",52.651738,-2.711092,{'opening_hours': {}},,2453,SY5 7DD,Cantlop Bridge,Shropshire,https://www.english-heritage.org.uk/visit/places/cantlop-bridge/
"Grosvenor Street , Chester, Cheshire CH1 2DN",Chester,United Kingdom,English Heritage,"{'brand': 'English Heritage', 'fascia': 'English Heritage', 'category': 'Heritage Site', 'edit_date': '20250405', 'lat_lon_source': 'website'}",53.187866,-2.898054,{'opening_hours': {}},,2924,CH1 2DN,Chester Castle: Agricola Tower and Castle Walls,Cheshire,https://www.english-heritage.org.uk/visit/places/chester-castle-agricola-tower-and-castle-walls/
"Castle Way, Carlisle, Cumbria CA3 8UR",Carlisle,United Kingdom,English Heritage,"{'brand': 'English Heritage', 'fascia': 'English Heritage', 'category': 'Heritage Site', 'edit_date': '20250405', 'lat_lon_source': 'website'}",54.897588,-2.941205,{'opening_hours': {}},01228 591922,3251,CA3 8UR,Carlisle Castle,Cumbria,https://www.english-heritage.org.uk/visit/places/carlisle-castle/
"Byland, Coxwold, North Yorkshire YO61 4BD",Coxwold,United Kingdom,English Heritage,"{'brand': 'English Heritage', 'fascia': 'English Heritage', 'category': 'Heritage Site', 'edit_date': '20250405', 'lat_lon_source': 'website'}",54.202569,-1.159663,{'opening_hours': {}},,3199,YO61 4BD,Byland Abbey,North Yorkshire,https://www.english-heritage.org.uk/visit/places/byland-abbey/
"Off Top End Road, Staploe, Bedfordshire MK44 2LD",Staploe,United Kingdom,English Heritage,"{'brand': 'English Heritage', 'fascia': 'English Heritage', 'category': 'Heritage Site', 'edit_date': '20250405', 'lat_lon_source': 'website'}",52.231338,-0.361376,{'opening_hours': {}},,2220,MK44 2LD,Bushmead Priory,Bedfordshire,https://www.english-heritage.org.uk/visit/places/bushmead-priory/
"Castle Hill, Newport, Isle of Wight PO30 1XY",Newport,United Kingdom,English Heritage,"{'brand': 'English Heritage', 'fascia': 'English Heritage', 'category': 'Heritage Site', 'edit_date': '20250405', 'lat_lon_source': 'website'}",50.68583059,-1.3083321,{'opening_hours': {}},01983 522107,3454,PO30 1XY,Carisbrooke Castle,Isle of Wight,https://www.english-heritage.org.uk/visit/places/carisbrooke-castle/
"Humshaugh, Hexham, Northumberland NE46 4DB",Hexham,United Kingdom,English Heritage,"{'brand': 'English Heritage', 'fascia': 'English Heritage', 'category': 'Heritage Site', 'edit_date': '20250405', 'lat_lon_source': 'website'}",55.035744,-2.220502,{'opening_hours': {}},,2677,NE46 4DB,Carrawburgh Roman Fort and Temple of Mithras - Hadrian&#39;s Wall,Northumberland,https://www.english-heritage.org.uk/visit/places/temple-of-mithras-carrawburgh-hadrians-wall/
"Abbey Gardens, Bury St Edmunds, Suffolk IP33 1LS",Bury St Edmunds,United Kingdom,English Heritage,"{'brand': 'English Heritage', 'fascia': 'English Heritage', 'category': 'Heritage Site', 'edit_date': '20250405', 'lat_lon_source': 'website'}",52.244592,0.721189,{'opening_hours': {}},01284 764667,2269,IP33 1LS,Bury St Edmunds Abbey,Suffolk,https://www.english-heritage.org.uk/visit/places/bury-st-edmunds-abbey/
"Burton Agnes, Driffield, East Yorkshire YO25 4ND",Driffield,United Kingdom,English Heritage,"{'brand': 'English Heritage', 'fascia': 'English Heritage', 'category': 'Heritage Site', 'edit_date': '20250405', 'lat_lon_source': 'website'}",54.052901,-0.313891,{'opening_hours': {}},,3450,YO25 4ND,Burton Agnes Manor House,East Yorkshire,https://www.english-heritage.org.uk/visit/places/burton-agnes-manor-house/
"off Harbour Road, Rye, East Sussex",Rye,United Kingdom,English Heritage,"{'brand': 'English Heritage', 'fascia': 'English Heritage', 'category': 'Heritage Site', 'edit_date': '20250405', 'lat_lon_source': 'website'}",50.933977,0.735188,{'opening_hours': {}},  0370 333 1181,2741,,Camber Castle,East Sussex,https://www.english-heritage.org.uk/visit/places/camber-castle/
"Jack Maynard Road, Southampton, Hampshire SO45 1BR",Southampton,United Kingdom,English Heritage,"{'brand': 'English Heritage', 'fascia': 'English Heritage', 'category': 'Heritage Site', 'edit_date': '20250405', 'lat_lon_source': 'website'}",50.818258,-1.307462,{'opening_hours': {}},"02380 892023; when castle is closed, please call 02380 892077",3000,SO45 1BR,Calshot Castle,Hampshire,https://www.english-heritage.org.uk/visit/places/calshot-castle/
"Chollerford, Hexham, Northumberland NE46 4EJ",Hexham,United Kingdom,English Heritage,"{'brand': 'English Heritage', 'fascia': 'English Heritage', 'category': 'Heritage Site', 'edit_date': '20250405', 'lat_lon_source': 'website'}",55.021526,-2.123214,{'opening_hours': {}},,2485,NE46 4EJ,Brunton Turret - Hadrian&#39;s Wall,Northumberland,https://www.english-heritage.org.uk/visit/places/brunton-turret-hadrians-wall/
"Moor Lane , Penrith, Cumbria CA10 2AA",Penrith,United Kingdom,English Heritage,"{'brand': 'English Heritage', 'fascia': 'English Heritage', 'category': 'Heritage Site', 'edit_date': '20250405', 'lat_lon_source': 'website'}",54.65402,-2.715583,{'opening_hours': {}},01768 862488,2565,CA10 2AA,Brougham Castle,Cumbria,https://www.english-heritage.org.uk/visit/places/brougham-castle/
"Brodsworth, Doncaster, South Yorkshire follow brown signs",Doncaster,United Kingdom,English Heritage,"{'brand': 'English Heritage', 'fascia': 'English Heritage', 'category': 'Heritage Site', 'edit_date': '20250405', 'lat_lon_source': 'website'}",53.558813,-1.238168,{'opening_hours': {}},01302 722598,3446,follow brown signs,Brodsworth Hall and Gardens,South Yorkshire,https://www.english-heritage.org.uk/visit/places/brodsworth-hall-and-gardens/
"Longframlington, Morpeth, Northumberland NE65 8AR",Morpeth,United Kingdom,English Heritage,"{'brand': 'English Heritage', 'fascia': 'English Heritage', 'category': 'Heritage Site', 'edit_date': '20250405', 'lat_lon_source': 'website'}",55.28017,-1.8147,{'opening_hours': {}},01665 570628,3107,NE65 8AR,Brinkburn Priory,Northumberland,https://www.english-heritage.org.uk/visit/places/brinkburn-priory/
"Norwich Road, Great Yarmouth, Norfolk NR30 5JS",Great Yarmouth,United Kingdom,English Heritage,"{'brand': 'English Heritage', 'fascia': 'English Heritage', 'category': 'Heritage Site', 'edit_date': '20250405', 'lat_lon_source': 'website'}",52.651848,1.723422,{'opening_hours': {}},,2397,NR30 5JS,Caister Roman Fort,Norfolk,https://www.english-heritage.org.uk/visit/places/caister-roman-fort/
"Pound Lane, Bradford-On-Avon, Wiltshire BA15 1LF",Bradford-On-Avon,United Kingdom,English Heritage,"{'brand': 'English Heritage', 'fascia': 'English Heritage', 'category': 'Heritage Site', 'edit_date': '20250405', 'lat_lon_source': 'website'}",51.342307,-2.253619,{'opening_hours': {}},,2860,BA15 1LF,Bradford-on-Avon Tithe Barn,Wiltshire,https://www.english-heritage.org.uk/visit/places/bradford-on-avon-tithe-barn/
"Castle Lane, Steyning, West Sussex BN44 3EW",Steyning,United Kingdom,English Heritage,"{'brand': 'English Heritage', 'fascia': 'English Heritage', 'category': 'Heritage Site', 'edit_date': '20250405', 'lat_lon_source': 'website'}",50.883243,-0.314816,{'opening_hours': {}},,2333,BN44 3EW,Bramber Castle,West Sussex,https://www.english-heritage.org.uk/visit/places/bramber-castle/
", Church Brough, Cumbria CA17 4EJ",Church Brough,United Kingdom,English Heritage,"{'brand': 'English Heritage', 'fascia': 'English Heritage', 'category': 'Heritage Site', 'edit_date': '20250405', 'lat_lon_source': 'website'}",54.521442,-2.326536,{'opening_hours': {}},,2936,CA17 4EJ,Brough Castle,Cumbria,https://www.english-heritage.org.uk/visit/places/brough-castle/
", Bowes Village, Durham DL12 9HP",Bowes Village,United Kingdom,English Heritage,"{'brand': 'English Heritage', 'fascia': 'English Heritage', 'category': 'Heritage Site', 'edit_date': '20250405', 'lat_lon_source': 'website'}",54.515998,-2.010932,{'opening_hours': {}},,3426,DL12 9HP,Bowes Castle,Durham,https://www.english-heritage.org.uk/visit/places/bowes-castle/
"Brewood, Bishop&#39;s Wood, Shropshire ST19 9AR",Bishop&#39;s Wood,United Kingdom,English Heritage,"{'brand': 'English Heritage', 'fascia': 'English Heritage', 'category': 'Heritage Site', 'edit_date': '20250405', 'lat_lon_source': 'website'}",52.670782,-2.245125,{'opening_hours': {}},01902 850244,3183,ST19 9AR,Boscobel House and The Royal Oak,Shropshire,https://www.english-heritage.org.uk/visit/places/boscobel-house-and-the-royal-oak/
"Bratton Road, Westbury, Wiltshire BA13 3EP",Westbury,United Kingdom,English Heritage,"{'brand': 'English Heritage', 'fascia': 'English Heritage', 'category': 'Heritage Site', 'edit_date': '20250405', 'lat_lon_source': 'website'}",51.263604,-2.143409,{'opening_hours': {}},,2912,BA13 3EP,Bratton Camp and White Horse,Wiltshire,https://www.english-heritage.org.uk/visit/places/bratton-camp-and-white-horse/
"Butt Lane, Great Yarmouth, Norfolk NR31 9QB",Great Yarmouth,United Kingdom,English Heritage,"{'brand': 'English Heritage', 'fascia': 'English Heritage', 'category': 'Heritage Site', 'edit_date': '20250405', 'lat_lon_source': 'website'}",52.583995,1.655036,{'opening_hours': {}},,2393,NR31 9QB,Burgh Castle Roman Fort,Norfolk,https://www.english-heritage.org.uk/visit/places/burgh-castle/
"Castle Street, Bolsover, Derbyshire S44 6PR",Bolsover,United Kingdom,English Heritage,"{'brand': 'English Heritage', 'fascia': 'English Heritage', 'category': 'Heritage Site', 'edit_date': '20250405', 'lat_lon_source': 'website'}",53.231134,-1.295388,{'opening_hours': {}},01246 822844,3235,S44 6PR,Bolsover Castle,Derbyshire,https://www.english-heritage.org.uk/visit/places/bolsover-castle/
"Back Lane, Blakeney, Norfolk NR25 7ND (access via path on east side junction between Back Lane and High Street)",Blakeney,United Kingdom,English Heritage,"{'brand': 'English Heritage', 'fascia': 'English Heritage', 'category': 'Heritage Site', 'edit_date': '20250405', 'lat_lon_source': 'website'}",52.955324,1.020666,{'opening_hours': {}},,2381,NR25 7ND (access via path on east side junction between Back Lane and High Street),Blakeney Guildhall,Norfolk,https://www.english-heritage.org.uk/visit/places/blakeney-guildhall/
", , Gloucestershire GL1 2HS",,United Kingdom,English Heritage,"{'brand': 'English Heritage', 'fascia': 'English Heritage', 'category': 'Heritage Site', 'edit_date': '20250405', 'lat_lon_source': 'website'}",51.864575,-2.247106,{'opening_hours': {}},,3024,GL1 2HS,Blackfriars,Gloucestershire,https://www.english-heritage.org.uk/visit/places/blackfriars/
"off Craggs Road, Bolsover, Derbyshire S44 6BQ",Bolsover,United Kingdom,English Heritage,"{'brand': 'English Heritage', 'fascia': 'English Heritage', 'category': 'Heritage Site', 'edit_date': '20250405', 'lat_lon_source': 'website'}",53.23317,-1.29541,{'opening_hours': {}},01246 822844 (Bolsover Castle),2389,S44 6BQ,Bolsover Cundy House,Derbyshire,https://www.english-heritage.org.uk/visit/places/bolsover-cundy-house/
"Nr Ironbridge, Telford, Shropshire TF8 7BW",Telford,United Kingdom,English Heritage,"{'brand': 'English Heritage', 'fascia': 'English Heritage', 'category': 'Heritage Site', 'edit_date': '20250405', 'lat_lon_source': 'website'}",52.634067,-2.527683,{'opening_hours': {}},,3139,TF8 7BW,Buildwas Abbey,Shropshire,https://www.english-heritage.org.uk/visit/places/buildwas-abbey/
"Southleigh, Colyton, Devon EX24 6JE",Colyton,United Kingdom,English Heritage,"{'brand': 'English Heritage', 'fascia': 'English Heritage', 'category': 'Heritage Site', 'edit_date': '20250405', 'lat_lon_source': 'website'}",50.724307,-3.149079,{'opening_hours': {}},,2629,EX24 6JE,Blackbury Camp,Devon,https://www.english-heritage.org.uk/visit/places/blackbury-camp/
"off The Street, Chichester, West Sussex PO18 0EE",Chichester,United Kingdom,English Heritage,"{'brand': 'English Heritage', 'fascia': 'English Heritage', 'category': 'Heritage Site', 'edit_date': '20250405', 'lat_lon_source': 'website'}",50.859763,-0.703102,{'opening_hours': {}},,2908,PO18 0EE,Boxgrove Priory,West Sussex,https://www.english-heritage.org.uk/visit/places/boxgrove-priory/
"Tarset, Bellingham, Northumberland NE48 1NE",Bellingham,United Kingdom,English Heritage,"{'brand': 'English Heritage', 'fascia': 'English Heritage', 'category': 'Heritage Site', 'edit_date': '20250405', 'lat_lon_source': 'website'}",55.202627,-2.354853,{'opening_hours': {}},,2968,NE48 1NE,Black Middens Bastle House,Northumberland,https://www.english-heritage.org.uk/visit/places/black-middens-bastle-house/
"Black Carts Turret, Hexham, Northumberland NE46 4BZ",Hexham,United Kingdom,English Heritage,"{'brand': 'English Heritage', 'fascia': 'English Heritage', 'category': 'Heritage Site', 'edit_date': '20250405', 'lat_lon_source': 'website'}",55.036043,-2.179324,{'opening_hours': {}},,2980,NE46 4BZ,Black Carts Turret - Hadrian&#39;s Wall,Northumberland,https://www.english-heritage.org.uk/visit/places/black-carts-turret-hadrians-wall/
", Barrow-in-Furness, Cumbria LA13 0PL",Barrow-in-Furness,United Kingdom,English Heritage,"{'brand': 'English Heritage', 'fascia': 'English Heritage', 'category': 'Heritage Site', 'edit_date': '20250405', 'lat_lon_source': 'website'}",54.13308,-3.188374,{'opening_hours': {}},,3639,LA13 0PL,Bow Bridge,Cumbria,https://www.english-heritage.org.uk/visit/places/bow-bridge/
"Gilsland, Brampton, Cumbria CA8 7DD",Brampton,United Kingdom,English Heritage,"{'brand': 'English Heritage', 'fascia': 'English Heritage', 'category': 'Heritage Site', 'edit_date': '20250405', 'lat_lon_source': 'website'}",54.989424,-2.60228,{'opening_hours': {}},016977 47602,3715,CA8 7DD,Birdoswald Roman Fort - Hadrian&#39;s Wall,Cumbria,https://www.english-heritage.org.uk/visit/places/birdoswald-roman-fort-hadrians-wall/
"Back Street, Binham, Norfolk NR21 0DW",Binham,United Kingdom,English Heritage,"{'brand': 'English Heritage', 'fascia': 'English Heritage', 'category': 'Heritage Site', 'edit_date': '20250405', 'lat_lon_source': 'website'}",52.917832,0.951692,{'opening_hours': {}},,2405,NR21 0DW,Binham Market Cross,Norfolk,https://www.english-heritage.org.uk/visit/places/binham-market-cross/
"Parade, Berwick-upon-Tweed, Northumberland TD15 1DF",Berwick-upon-Tweed,United Kingdom,English Heritage,"{'brand': 'English Heritage', 'fascia': 'English Heritage', 'category': 'Heritage Site', 'edit_date': '20250405', 'lat_lon_source': 'website'}",55.770995,-2.001111,{'opening_hours': {}},01289 304493,3103,TD15 1DF,Berwick-upon-Tweed Barracks and Main Guard,Northumberland,https://www.english-heritage.org.uk/visit/places/berwick-upon-tweed-barracks-and-main-guard/
"Berry Pomeroy, Totnes, Devon TQ9 6LJ (For sat nav see road access)",Totnes,United Kingdom,English Heritage,"{'brand': 'English Heritage', 'fascia': 'English Heritage', 'category': 'Heritage Site', 'edit_date': '20250405', 'lat_lon_source': 'website'}",50.448099,-3.636818,{'opening_hours': {}},01803 866618,3422,TQ9 6LJ (For sat nav see road access),Berry Pomeroy Castle,Devon,https://www.english-heritage.org.uk/visit/places/berry-pomeroy-castle/
"41-44 Sandhill, Newcastle-upon-Tyne,  NE1 3JF",Newcastle-upon-Tyne,United Kingdom,English Heritage,"{'brand': 'English Heritage', 'fascia': 'English Heritage', 'category': 'Heritage Site', 'edit_date': '20250405', 'lat_lon_source': 'website'}",54.968490,-1.608395,{'opening_hours': {}},,236071,NE1 3JF,Bessie Surtees House,,https://www.english-heritage.org.uk/visit/places/bessie-surtees-house/
"White Hill, Berkhamsted, Hertfordshire HP4 1LJ",Berkhamsted,United Kingdom,English Heritage,"{'brand': 'English Heritage', 'fascia': 'English Heritage', 'category': 'Heritage Site', 'edit_date': '20250405', 'lat_lon_source': 'website'}",51.763786,-0.557691,{'opening_hours': {}},,2557,HP4 1LJ,Berkhamsted Castle,Hertfordshire,https://www.english-heritage.org.uk/visit/places/berkhamsted-castle/
"Moat Lane, Spilsby, Lincolnshire PE23 4HH",Spilsby,United Kingdom,English Heritage,"{'brand': 'English Heritage', 'fascia': 'English Heritage', 'category': 'Heritage Site', 'edit_date': '20250405', 'lat_lon_source': 'website'}",53.161964,0.017639,{'opening_hours': {}},01529 461499,2385,PE23 4HH,Bolingbroke Castle,Lincolnshire,https://www.english-heritage.org.uk/visit/places/bolingbroke-castle/
"Denhill Park,  Newcastle Upon Tyne, Tyne and Wear  NE15 6QH", Newcastle Upon Tyne,United Kingdom,English Heritage,"{'brand': 'English Heritage', 'fascia': 'English Heritage', 'category': 'Heritage Site', 'edit_date': '20250405', 'lat_lon_source': 'website'}",54.975874,-1.66472,{'opening_hours': {}},,2377,NE15 6QH,Benwell Vallum Crossing,Tyne and Wear ,https://www.english-heritage.org.uk/visit/places/benwell-vallum-crossing/
"Broomridge Avenue, Newcastle-upon-Tyne, Tyne and Wear NE15 6QP",Newcastle-upon-Tyne,United Kingdom,English Heritage,"{'brand': 'English Heritage', 'fascia': 'English Heritage', 'category': 'Heritage Site', 'edit_date': '20250405', 'lat_lon_source': 'website'}",54.975423,-1.660981,{'opening_hours': {}},,2493,NE15 6QP,Benwell Roman Temple - Hadrian&#39;s Wall,Tyne and Wear,https://www.english-heritage.org.uk/visit/places/benwell-roman-temple-hadrians-wall/
"Belsay, Nr Morpeth, Northumberland NE20 0DX. Follow the brown signs. Sat Nav: NE20 0DU",Nr Morpeth,United Kingdom,English Heritage,"{'brand': 'English Heritage', 'fascia': 'English Heritage', 'category': 'Heritage Site', 'edit_date': '20250405', 'lat_lon_source': 'website'}",55.100994,-1.861367,{'opening_hours': {}},01661 881813,3239,NE20 0DX. Follow the brown signs. Sat Nav: NE20 0DU,"Belsay Hall, Castle and Gardens",Northumberland,https://www.english-heritage.org.uk/visit/places/belsay-hall-castle-and-gardens/
"Winchcombe, Cheltenham, Gloucestershire GL54 5AL",Cheltenham,United Kingdom,English Heritage,"{'brand': 'English Heritage', 'fascia': 'English Heritage', 'category': 'Heritage Site', 'edit_date': '20250405', 'lat_lon_source': 'website'}",51.927362,-1.970646,{'opening_hours': {}},,2809,GL54 5AL,Belas Knap Long Barrow,Gloucestershire,https://www.english-heritage.org.uk/visit/places/belas-knap-long-barrow/
", Berwick-upon-Tweed, Northumberland TD15 1DF",Berwick-upon-Tweed,United Kingdom,English Heritage,"{'brand': 'English Heritage', 'fascia': 'English Heritage', 'category': 'Heritage Site', 'edit_date': '20250405', 'lat_lon_source': 'website'}",55.772556,-2.00474,{'opening_hours': {}},,2621,TD15 1DF,Berwick-upon-Tweed Castle and Ramparts,Northumberland,https://www.english-heritage.org.uk/visit/places/berwick-upon-tweed-castle-and-ramparts/
"Chapel Lane, Beeston, Cheshire CW6 9TX",Beeston,United Kingdom,English Heritage,"{'brand': 'English Heritage', 'fascia': 'English Heritage', 'category': 'Heritage Site', 'edit_date': '20250405', 'lat_lon_source': 'website'}",53.126057,-2.690318,{'opening_hours': {}},01829 260464,3247,CW6 9TX,Beeston Castle and Woodland Park,Cheshire,https://www.english-heritage.org.uk/visit/places/beeston-castle-and-woodland-park/
"Furnace Lane, Little Bayham, Tunbridge Wells, Kent TN3 8LP","Little Bayham, Tunbridge Wells",United Kingdom,English Heritage,"{'brand': 'English Heritage', 'fascia': 'English Heritage', 'category': 'Heritage Site', 'edit_date': '20250405', 'lat_lon_source': 'website'}",51.10321,0.35429,{'opening_hours': {}},,3486,TN3 8LP,Bayham Old Abbey,Kent,https://www.english-heritage.org.uk/visit/places/bayham-old-abbey/
"Bayards Cove, Dartmouth, Devon TQ6 9AX",Dartmouth,United Kingdom,English Heritage,"{'brand': 'English Heritage', 'fascia': 'English Heritage', 'category': 'Heritage Site', 'edit_date': '20250405', 'lat_lon_source': 'website'}",50.347702,-3.576248,{'opening_hours': {}},,3087,TQ6 9AX,Bayard&#39;s Cove Fort,Devon,https://www.english-heritage.org.uk/visit/places/bayards-cove-fort/
"Scar Top, Barnard Castle, Durham DL12 8PR",Barnard Castle,United Kingdom,English Heritage,"{'brand': 'English Heritage', 'fascia': 'English Heritage', 'category': 'Heritage Site', 'edit_date': '20250405', 'lat_lon_source': 'website'}",54.543513,-1.918758,{'opening_hours': {}},01833 631434,3115,DL12 8PR,Barnard Castle,Durham,https://www.english-heritage.org.uk/visit/places/barnard-castle/
", St Mary&#39;s, Isles of Scilly TR21 0NS",St Mary&#39;s,United Kingdom,English Heritage,"{'brand': 'English Heritage', 'fascia': 'English Heritage', 'category': 'Heritage Site', 'edit_date': '20250405', 'lat_lon_source': 'website'}",49.931262,-6.307681,{'opening_hours': {}},,3402,TR21 0NS,Bant&#39;s Carn Burial Chamber and Halangy Down Ancient Village,Isles of Scilly,https://www.english-heritage.org.uk/visit/places/bants-carn-burial-chamber-and-halangy-down-ancient-village/
"Pike Hill, Brampton, Cumbria CA8 2BX",Brampton,United Kingdom,English Heritage,"{'brand': 'English Heritage', 'fascia': 'English Heritage', 'category': 'Heritage Site', 'edit_date': '20250405', 'lat_lon_source': 'website'}",54.975292,-2.6659709,{'opening_hours': {}},,2261,CA8 2BX,Banks East Turret - Hadrian&#39;s Wall,Cumbria,https://www.english-heritage.org.uk/visit/places/banks-east-turret-hadrians-wall/
", Abingdon, Oxfordshire OX14 3HG",Abingdon,United Kingdom,English Heritage,"{'brand': 'English Heritage', 'fascia': 'English Heritage', 'category': 'Heritage Site', 'edit_date': '20250405', 'lat_lon_source': 'website'}",51.670918,-1.278387,{'opening_hours': {}},01235 523703,3079,OX14 3HG,Abingdon County Hall Museum,Oxfordshire,https://www.english-heritage.org.uk/visit/places/abingdon-county-hall-museum/
", Abbotsbury, Dorset DT3 4JR",Abbotsbury,United Kingdom,English Heritage,"{'brand': 'English Heritage', 'fascia': 'English Heritage', 'category': 'Heritage Site', 'edit_date': '20250405', 'lat_lon_source': 'website'}",50.664092,-2.596344,{'opening_hours': {}},,3740,DT3 4JR,Abbotsbury Abbey Remains,Dorset,https://www.english-heritage.org.uk/visit/places/abbotsbury-abbey-remains/
"Chapel Hill, Weymouth, Dorset DT3 4JH",Weymouth,United Kingdom,English Heritage,"{'brand': 'English Heritage', 'fascia': 'English Heritage', 'category': 'Heritage Site', 'edit_date': '20250405', 'lat_lon_source': 'website'}",50.660192,-2.604855,{'opening_hours': {}},,3008,DT3 4JH,"Abbotsbury, St Catherine&#39;s Chapel",Dorset,https://www.english-heritage.org.uk/visit/places/abbotsbury-st-catherines-chapel/
"Warham Road, Binham, Norfolk NR21 0DQ",Binham,United Kingdom,English Heritage,"{'brand': 'English Heritage', 'fascia': 'English Heritage', 'category': 'Heritage Site', 'edit_date': '20250405', 'lat_lon_source': 'website'}",52.921053,0.947699,{'opening_hours': {}},01328 830362,2265,NR21 0DQ,Binham Priory,Norfolk,https://www.english-heritage.org.uk/visit/places/binham-priory/
"St Just, Penzance, Cornwall TR19 7NP",Penzance,United Kingdom,English Heritage,"{'brand': 'English Heritage', 'fascia': 'English Heritage', 'category': 'Heritage Site', 'edit_date': '20250405', 'lat_lon_source': 'website'}",50.122031,-5.702291,{'opening_hours': {}},,3048,TR19 7NP,Ballowall Barrow,Cornwall,https://www.english-heritage.org.uk/visit/places/ballowall-barrow/
"Berney Marshes, Great Yarmouth, Norfolk NR30 1SB",Great Yarmouth,United Kingdom,English Heritage,"{'brand': 'English Heritage', 'fascia': 'English Heritage', 'category': 'Heritage Site', 'edit_date': '20250405', 'lat_lon_source': 'website'}",52.587643,1.637904,{'opening_hours': {}},,3378,NR30 1SB,Berney Arms Windmill,Norfolk,https://www.english-heritage.org.uk/visit/places/berney-arms-windmill/
"Winchester Road, Bishop&#39;s Waltham, Hampshire SO32 1DH",Bishop&#39;s Waltham,United Kingdom,English Heritage,"{'brand': 'English Heritage', 'fascia': 'English Heritage', 'category': 'Heritage Site', 'edit_date': '20250405', 'lat_lon_source': 'website'}",50.95158,-1.213567,{'opening_hours': {}},,2253,SO32 1DH,Bishop&#39;s Waltham Palace,Hampshire,https://www.english-heritage.org.uk/visit/places/bishops-waltham-palace/
