addr_full,brand,city,country,extras,lat,lon,name,opening_hours,phone,postcode,ref,state,website
Rue du Bois de l'Île - ZAC de Tournon,Brico Depot,TOURNON,France,"{'brand': 'Brico Depot', 'fascia': '', 'category': '', 'edit_date': <method 'date' of 'datetime.datetime' objects>, 'lat_lon_source': 'website'}",45.638424,6.330154,ALBERTVILLE,"{'Lundi': ' 7h - 19h30', 'Mardi': ' 7h - 19h30', 'Mercredi': ' 7h - 19h30', 'Jeudi': ' 7h - 19h30', 'Vendredi': ' 7h - 19h30', 'Samedi': ' 7h - 19h30', 'Dimanche': ' 8h - 13h'}",04 79 31 52 00,73460,1951,,https://www.bricodepot.fr/catalogue/depot/albertville/1951/
Ccial Galacte,Brico Depot,GAILLAC,France,"{'brand': 'Brico Depot', 'fascia': '', 'category': '', 'edit_date': <method 'date' of 'datetime.datetime' objects>, 'lat_lon_source': 'website'}",43.90673828125,1.91276931762695,GAILLAC,"{'Lundi': ' 7h - 19h30', 'Mardi': ' 7h - 19h30', 'Mercredi': ' 7h - 19h30', 'Jeudi': ' 7h - 19h30', 'Vendredi': ' 7h - 19h30', 'Samedi': ' 7h - 19h30', 'Dimanche': ' 8h - 13h'}",05 63 81 09 40,81600,1761,,https://www.bricodepot.fr/catalogue/depot/gaillac/1761/
ZAC de la Porte Verte - Rue de Tarbes Prolongé,Brico Depot,ESSEY LES NANCY,France,"{'brand': 'Brico Depot', 'fascia': '', 'category': '', 'edit_date': <method 'date' of 'datetime.datetime' objects>, 'lat_lon_source': 'website'}",48.7080078125,6.24665832519531,ESSEY LES NANCY,"{'Lundi': ' 7h - 19h30', 'Mardi': ' 7h - 19h30', 'Mercredi': ' 7h - 19h30', 'Jeudi': ' 7h - 19h30', 'Vendredi': ' 7h - 19h30', 'Samedi': ' 7h - 19h30', 'Dimanche': ' 8h - 13h'}",03 83 29 92 95,54270,1764,,https://www.bricodepot.fr/catalogue/depot/essey-les-nancy/1764/
ZI Secteur Sablière - CS 50313 - 3 rue de la Sablière,Brico Depot,HAGUENAU,France,"{'brand': 'Brico Depot', 'fascia': '', 'category': '', 'edit_date': <method 'date' of 'datetime.datetime' objects>, 'lat_lon_source': 'website'}",48.828125,7.75196838378906,HAGUENAU - SCHWEIGHOUSE SUR MODER,"{'Lundi': ' 7h - 19h30', 'Mardi': ' 7h - 19h30', 'Mercredi': ' 7h - 19h30', 'Jeudi': ' 7h - 19h30', 'Vendredi': ' 7h - 19h30', 'Samedi': ' 7h - 19h30', 'Dimanche': ' Fermé'}",03 88 05 02 50,67507,1914,,https://www.bricodepot.fr/catalogue/depot/haguenau-schweighouse-sur-moder/1914/
ZAC des Terres Saint Jean,Brico Depot,EPINAL,France,"{'brand': 'Brico Depot', 'fascia': '', 'category': '', 'edit_date': <method 'date' of 'datetime.datetime' objects>, 'lat_lon_source': 'website'}",48.187744140625,6.47383117675781,EPINAL,"{'Lundi': ' 7h - 19h30', 'Mardi': ' 7h - 19h30', 'Mercredi': ' 7h - 19h30', 'Jeudi': ' 7h - 19h30', 'Vendredi': ' 7h - 19h30', 'Samedi': ' 7h - 19h30', 'Dimanche': ' 8h - 13h'}",03 29 29 01 50,88000,1924,,https://www.bricodepot.fr/catalogue/depot/epinal/1924/
ZI Carrefour Europe - Lieu dit Langgraben,Brico Depot,FORBACH,France,"{'brand': 'Brico Depot', 'fascia': '', 'category': '', 'edit_date': <method 'date' of 'datetime.datetime' objects>, 'lat_lon_source': 'website'}",49.178466796875,6.87709045410156,FORBACH,"{'Lundi': ' 7h - 19h30', 'Mardi': ' 7h - 19h30', 'Mercredi': ' 7h - 19h30', 'Jeudi': ' 7h - 19h30', 'Vendredi': ' 7h - 19h30', 'Samedi': ' 7h - 19h30', 'Dimanche': ' Fermé'}",03 87 84 79 10,57600,1738,,https://www.bricodepot.fr/catalogue/depot/forbach/1738/
ZI des Ciroliers - Rue Clément Ader,Brico Depot,STE GENEVIEVE DES BOIS,France,"{'brand': 'Brico Depot', 'fascia': '', 'category': '', 'edit_date': <method 'date' of 'datetime.datetime' objects>, 'lat_lon_source': 'website'}",48.6196769,2.3564165,FLEURY MEROGIS - STE GENEVIEVE DES BOIS,"{'Lundi': ' 6h30 - 20h00', 'Mardi': ' 6h30 - 20h00', 'Mercredi': ' 6h30 - 20h00', 'Jeudi': ' 6h30 - 20h00', 'Vendredi': ' 6h30 - 20h00', 'Samedi': ' 6h30 - 20h00', 'Dimanche': ' 9h - 19h'}",01 69 72 37 50,91700,1786,,https://www.bricodepot.fr/catalogue/depot/fleury-merogis-ste-genevieve-des-bois/1786/
ZAC des Fenôts,Brico Depot,DREUX,France,"{'brand': 'Brico Depot', 'fascia': '', 'category': '', 'edit_date': <method 'date' of 'datetime.datetime' objects>, 'lat_lon_source': 'website'}",48.74302091026424,1.3448370872802116,DREUX,"{'Lundi': ' 7h - 19h30', 'Mardi': ' 7h - 19h30', 'Mercredi': ' 7h - 19h30', 'Jeudi': ' 7h - 19h30', 'Vendredi': ' 7h - 19h30', 'Samedi': ' 7h - 19h30', 'Dimanche': ' 8h - 13h'}",02 37 62 99 60,28100,1941,,https://www.bricodepot.fr/catalogue/depot/dreux/1941/
Lieu dit Puy Grenier,Brico Depot,DISSAY,France,"{'brand': 'Brico Depot', 'fascia': '', 'category': '', 'edit_date': <method 'date' of 'datetime.datetime' objects>, 'lat_lon_source': 'website'}",46.7073974609375,0.406695365905762,DISSAY,"{'Lundi': ' 7h - 19h30', 'Mardi': ' 7h - 19h30', 'Mercredi': ' 7h - 19h30', 'Jeudi': ' 7h - 19h30', 'Vendredi': ' 7h - 19h30', 'Samedi': ' 7h - 19h30', 'Dimanche': ' 9h - 17h'}",05 49 62 92 76,86130,1717,,https://www.bricodepot.fr/catalogue/depot/dissay/1717/
Route de Dechy - Croix de Cantin,Brico Depot,FERIN - DOUAI,France,"{'brand': 'Brico Depot', 'fascia': '', 'category': '', 'edit_date': <method 'date' of 'datetime.datetime' objects>, 'lat_lon_source': 'website'}",50.337890625,3.09534454345703,DOUAI,"{'Lundi': ' 7h - 19h30', 'Mardi': ' 7h - 19h30', 'Mercredi': ' 7h - 19h30', 'Jeudi': ' 7h - 19h30', 'Vendredi': ' 7h - 19h30', 'Samedi': ' 7h - 19h30', 'Dimanche': ' 8h - 13h'}",03 27 95 75 75,59169,1744,,https://www.bricodepot.fr/catalogue/depot/douai/1744/
Route Ardy - RD 824,Brico Depot,DAX - M\u00C9ES,France,"{'brand': 'Brico Depot', 'fascia': '', 'category': '', 'edit_date': <method 'date' of 'datetime.datetime' objects>, 'lat_lon_source': 'website'}",43.72028809886268,,DAX - M\u00C9ES,"{'Lundi': ' 7h - 19h30', 'Mardi': ' 7h - 19h30', 'Mercredi': ' 7h - 19h30', 'Jeudi': ' 7h - 19h30', 'Vendredi': ' 7h - 19h30', 'Samedi': ' 7h - 19h30', 'Dimanche': ' 8h - 13h'}",0558490010,40990,1943,,https://www.bricodepot.fr/catalogue/depot/dax-mees/1943/
ZAC du Belvédère,Brico Depot,DIEPPE,France,"{'brand': 'Brico Depot', 'fascia': '', 'category': '', 'edit_date': <method 'date' of 'datetime.datetime' objects>, 'lat_lon_source': 'website'}",49.9071044921875,1.0775146484375,DIEPPE,"{'Lundi': ' 7h - 19h30', 'Mardi': ' 7h - 19h30', 'Mercredi': ' 7h - 19h30', 'Jeudi': ' 7h - 19h30', 'Vendredi': ' 7h - 19h30', 'Samedi': ' 7h - 19h30', 'Dimanche': ' 8h - 13h'}",02 35 06 56 56,76200,1746,,https://www.bricodepot.fr/catalogue/depot/dieppe/1746/
14 rue André Kiener,Brico Depot,COLMAR,France,"{'brand': 'Brico Depot', 'fascia': '', 'category': '', 'edit_date': <method 'date' of 'datetime.datetime' objects>, 'lat_lon_source': 'website'}",48.10693359375,7.3704833984375,COLMAR,"{'Lundi': ' 7h - 19h', 'Mardi': ' 7h - 19h', 'Mercredi': ' 7h - 19h', 'Jeudi': ' 7h - 19h', 'Vendredi': ' 7h - 19h', 'Samedi': ' 7h - 19h', 'Dimanche': ' Fermé'}",03 89 21 83 30,68000,1907,,https://www.bricodepot.fr/catalogue/depot/colmar/1907/
83 rue du Maréchal Joffre,Brico Depot,FACHES THUMESNIL,France,"{'brand': 'Brico Depot', 'fascia': '', 'category': '', 'edit_date': <method 'date' of 'datetime.datetime' objects>, 'lat_lon_source': 'website'}",50.6064453125,3.05945587158203,FACHES THUMESNIL,"{'Lundi': ' 7h - 19h30', 'Mardi': ' 7h - 19h30', 'Mercredi': ' 7h - 19h30', 'Jeudi': ' 7h - 19h30', 'Vendredi': ' 7h - 19h30', 'Samedi': ' 7h - 19h30', 'Dimanche': ' 8h - 13h'}",03 20 32 01 00,59155,1782,,https://www.bricodepot.fr/catalogue/depot/faches-thumesnil/1782/
Ccial Carrefour - Lieu-dit St Jaumes du Crest ,Brico Depot,CLAIRA,France,"{'brand': 'Brico Depot', 'fascia': '', 'category': '', 'edit_date': <method 'date' of 'datetime.datetime' objects>, 'lat_lon_source': 'website'}",42.7740478515625,2.91461181640625,CLAIRA,"{'Lundi': ' 7h - 19h30', 'Mardi': ' 7h - 19h30', 'Mercredi': ' 7h - 19h30', 'Jeudi': ' 7h - 19h30', 'Vendredi': ' 7h - 19h30', 'Samedi': ' 7h - 19h30', 'Dimanche': ' 8h - 13h'}",04 68 64 84 84,66530,1704,,https://www.bricodepot.fr/catalogue/depot/claira/1704/
4 route de Saint Leu,Brico Depot,VILLETANEUSE,France,"{'brand': 'Brico Depot', 'fascia': '', 'category': '', 'edit_date': <method 'date' of 'datetime.datetime' objects>, 'lat_lon_source': 'website'}",48.94738599999999,2.3450437000000193,VILLETANEUSE,"{'Lundi': ' 6h30 - 20h00', 'Mardi': ' 6h30 - 20h00', 'Mercredi': ' 6h30 - 20h00', 'Jeudi': ' 6h30 - 20h00', 'Vendredi': ' 6h30 - 20h00', 'Samedi': ' 6h30 - 20h00', 'Dimanche': ' 9h - 19h'}",01 49 71 38 70,93430,1937,,https://www.bricodepot.fr/catalogue/depot/villetaneuse/1937/
ZAC du Garet - 390 rue Francois Meunier Vial,Brico Depot,VILLEFRANCHE SUR SAONE,France,"{'brand': 'Brico Depot', 'fascia': '', 'category': '', 'edit_date': <method 'date' of 'datetime.datetime' objects>, 'lat_lon_source': 'website'}",45.997314453125,4.73452758789062,VILLEFRANCHE,"{'Lundi': ' 7h - 19h30', 'Mardi': ' 7h - 19h30', 'Mercredi': ' 7h - 19h30', 'Jeudi': ' 7h - 19h30', 'Vendredi': ' 7h - 19h30', 'Samedi': ' 7h - 19h30', 'Dimanche': ' 8h - 13h'}",04 74 04 19 00,69400,1901,,https://www.bricodepot.fr/catalogue/depot/villefranche/1901/
22 rue des Frères Lumière,Brico Depot,VILLEMANDEUR,France,"{'brand': 'Brico Depot', 'fascia': '', 'category': '', 'edit_date': <method 'date' of 'datetime.datetime' objects>, 'lat_lon_source': 'website'}",47.97395,2.715744,VILLEMANDEUR,"{'Lundi': ' 7h - 19h30', 'Mardi': ' 7h - 19h30', 'Mercredi': ' 7h - 19h30', 'Jeudi': ' 7h - 19h30', 'Vendredi': ' 7h - 19h30', 'Samedi': ' 7h - 19h30', 'Dimanche': ' 8h - 13h'}",02 38 89 86 60,45700,1932,,https://www.bricodepot.fr/catalogue/depot/villemandeur/1932/
Ccial Blois 2 - Route de Vendôme,Brico Depot,VILLEBAROU,France,"{'brand': 'Brico Depot', 'fascia': '', 'category': '', 'edit_date': <method 'date' of 'datetime.datetime' objects>, 'lat_lon_source': 'website'}",47.623779296875,1.29500579833984,VILLEBAROU,"{'Lundi': ' 7h - 19h30', 'Mardi': ' 7h - 19h30', 'Mercredi': ' 7h - 19h30', 'Jeudi': ' 7h - 19h30', 'Vendredi': ' 7h - 19h30', 'Samedi': ' 7h - 19h30', 'Dimanche': ' 8h - 13h'}",02 54 52 47 47,41000,1712,,https://www.bricodepot.fr/catalogue/depot/villebarou/1712/
avenue du 19 mars 1962,Brico Depot,VIERZON,France,"{'brand': 'Brico Depot', 'fascia': '', 'category': '', 'edit_date': <method 'date' of 'datetime.datetime' objects>, 'lat_lon_source': 'website'}",47.2167,2.0833,VIERZON,"{'Lundi': ' 7h - 19h', 'Mardi': ' 7h - 19h', 'Mercredi': ' 7h - 19h', 'Jeudi': ' 7h - 19h', 'Vendredi': ' 7h - 19h', 'Samedi': ' 7h - 19h', 'Dimanche': ' Fermé'}",02 48 53 93 11,18100,2003,,https://www.bricodepot.fr/catalogue/depot/vierzon/2003/
1 rue Louise Michel,Brico Depot,VARENNES VAUZELLES,France,"{'brand': 'Brico Depot', 'fascia': '', 'category': '', 'edit_date': <method 'date' of 'datetime.datetime' objects>, 'lat_lon_source': 'website'}",47.0164794921875,3.14933776855468,VARENNES VAUZELLES,"{'Lundi': ' 7h - 19h30', 'Mardi': ' 7h - 19h30', 'Mercredi': ' 7h - 19h30', 'Jeudi': ' 7h - 19h30', 'Vendredi': ' 7h - 19h30', 'Samedi': ' 7h - 19h30', 'Dimanche': ' 8h - 13h'}",03 86 71 95 50,58640,1706,,https://www.bricodepot.fr/catalogue/depot/varennes-vauzelles/1706/
Parc Technologique Delta sud - Zone de Graussette,Brico Depot,PAMIERS VERNIOLLE,France,"{'brand': 'Brico Depot', 'fascia': '', 'category': '', 'edit_date': <method 'date' of 'datetime.datetime' objects>, 'lat_lon_source': 'website'}",43.0736083984375,1.6446189880371,VERNIOLLE - PAMIERS,"{'Lundi': ' 7h - 19h30', 'Mardi': ' 7h - 19h30', 'Mercredi': ' 7h - 19h30', 'Jeudi': ' 7h - 19h30', 'Vendredi': ' 7h - 19h30', 'Samedi': ' 7h - 19h30', 'Dimanche': ' 8h - 13h'}",05 34 01 05 60,09340,1922,,https://www.bricodepot.fr/catalogue/depot/verniolle-pamiers/1922/
Chemin du Corps de Garde,Brico Depot,VAIRES SUR MARNE,France,"{'brand': 'Brico Depot', 'fascia': '', 'category': '', 'edit_date': <method 'date' of 'datetime.datetime' objects>, 'lat_lon_source': 'website'}",48.869140625,2.62154388427734,VAIRES,"{'Lundi': ' 6h30 - 20h00', 'Mardi': ' 6h30 - 20h00', 'Mercredi': ' 6h30 - 20h00', 'Jeudi': ' 6h30 - 20h00', 'Vendredi': ' 6h30 - 20h00', 'Samedi': ' 6h30 - 20h00', 'Dimanche': ' 9h - 19h'}",01.60.93.13.50,77360,1906,,https://www.bricodepot.fr/catalogue/depot/vaires/1906/
20 rue Edmond Rostand,Brico Depot,VAL DE MURIGNY,France,"{'brand': 'Brico Depot', 'fascia': '', 'category': '', 'edit_date': <method 'date' of 'datetime.datetime' objects>, 'lat_lon_source': 'website'}",49.21464659999999,4.01769790000003,VAL DE MURIGNY - REIMS,"{'Lundi': ' 7h - 19h30', 'Mardi': ' 7h - 19h30', 'Mercredi': ' 7h - 19h30', 'Jeudi': ' 7h - 19h30', 'Vendredi': ' 7h - 19h30', 'Samedi': ' 7h - 19h30', 'Dimanche': ' 8h - 13h'}",03 26 88 83 60,51100,1933,,https://www.bricodepot.fr/catalogue/depot/val-de-murigny-reims/1933/
315 rue Les Bosses - Quartier des Bosses - RN7,Brico Depot,ETOILE-SUR-RH\u00D4NE - VALENCE,France,"{'brand': 'Brico Depot', 'fascia': '', 'category': '', 'edit_date': <method 'date' of 'datetime.datetime' objects>, 'lat_lon_source': 'website'}",44.8577880859375,4.87092590332031,VALENCE,"{'Lundi': ' 7h - 19h30', 'Mardi': ' 7h - 19h30', 'Mercredi': ' 7h - 19h30', 'Jeudi': ' 7h - 19h30', 'Vendredi': ' 7h - 19h30', 'Samedi': ' 7h - 19h30', 'Dimanche': ' 8h - 17h'}",04 75 57 25 99,26800,1768,,https://www.bricodepot.fr/catalogue/depot/valence/1768/
ZAC du Gros Grelot,Brico Depot,COMPIEGNE-THOUROTTE,France,"{'brand': 'Brico Depot', 'fascia': '', 'category': '', 'edit_date': <method 'date' of 'datetime.datetime' objects>, 'lat_lon_source': 'website'}",49.4810791015625,2.86656188964843,Thourotte,"{'Lundi': ' 7h - 19h30', 'Mardi': ' 7h - 19h30', 'Mercredi': ' 7h - 19h30', 'Jeudi': ' 7h - 19h30', 'Vendredi': ' 7h - 19h30', 'Samedi': ' 7h - 19h30', 'Dimanche': ' 9h - 19h'}",03.44.83.68.50,60150,1909,,https://www.bricodepot.fr/catalogue/depot/thourotte/1909/
RN 19,Brico Depot,BARBEREY SAINT SULPICE - TROYES,France,"{'brand': 'Brico Depot', 'fascia': '', 'category': '', 'edit_date': <method 'date' of 'datetime.datetime' objects>, 'lat_lon_source': 'website'}",48.3328857421875,4.02304077148437,TROYES,"{'Lundi': ' 7h - 19h30', 'Mardi': ' 7h - 19h30', 'Mercredi': ' 7h - 19h30', 'Jeudi': ' 7h - 19h30', 'Vendredi': ' 7h - 19h30', 'Samedi': ' 7h - 19h30', 'Dimanche': ' 8h - 13h'}",03 25 71 25 30,10600,1742,,https://www.bricodepot.fr/catalogue/depot/troyes/1742/
ZI de Sauxmarais,Brico Depot,TOURLAVILLE,France,"{'brand': 'Brico Depot', 'fascia': '', 'category': '', 'edit_date': <method 'date' of 'datetime.datetime' objects>, 'lat_lon_source': 'website'}",49.6314697265625,,TOURLAVILLE,"{'Lundi': ' 7h - 19h30', 'Mardi': ' 7h - 19h30', 'Mercredi': ' 7h - 19h30', 'Jeudi': ' 7h - 19h30', 'Vendredi': ' 7h - 19h30', 'Samedi': ' 7h - 19h30', 'Dimanche': ' 8h - 13h'}",02 33 23 44 50,50110,1736,,https://www.bricodepot.fr/catalogue/depot/tourlaville/1736/
Clos de la Lande - Rue du Mûrier,Brico Depot,SAINT CYR SUR LOIRE,France,"{'brand': 'Brico Depot', 'fascia': '', 'category': '', 'edit_date': <method 'date' of 'datetime.datetime' objects>, 'lat_lon_source': 'website'}",47.4263916015625,0.661333084106445,TOURS - ST CYR SUR LOIRE,"{'Lundi': ' 7h - 19h30', 'Mardi': ' 7h - 19h30', 'Mercredi': ' 7h - 19h30', 'Jeudi': ' 7h - 19h30', 'Vendredi': ' 7h - 19h30', 'Samedi': ' 7h - 19h30', 'Dimanche': ' 9h - 17h'}",02 47 88 29 29,37542,1770,,https://www.bricodepot.fr/catalogue/depot/tours-st-cyr-sur-loire/1770/
Chaussée Fernand Forest,Brico Depot,TOURCOING,France,"{'brand': 'Brico Depot', 'fascia': '', 'category': '', 'edit_date': <method 'date' of 'datetime.datetime' objects>, 'lat_lon_source': 'website'}",50.738037109375,3.16151428222656,TOURCOING,"{'Lundi': ' 7h - 19h30', 'Mardi': ' 7h - 19h30', 'Mercredi': ' 7h - 19h30', 'Jeudi': ' 7h - 19h30', 'Vendredi': ' 7h - 19h30', 'Samedi': ' 7h - 19h30', 'Dimanche': ' 8h - 13h'}",03 20 28 26 70,59200,1755,,https://www.bricodepot.fr/catalogue/depot/tourcoing/1755/
Rue Sainte Claire Deville,Brico Depot,TOULON,France,"{'brand': 'Brico Depot', 'fascia': '', 'category': '', 'edit_date': <method 'date' of 'datetime.datetime' objects>, 'lat_lon_source': 'website'}",43.1275634765625,5.97761535644531,TOULON,"{'Lundi': ' 7h - 19h30', 'Mardi': ' 7h - 19h30', 'Mercredi': ' 7h - 19h30', 'Jeudi': ' 7h - 19h30', 'Vendredi': ' 7h - 19h30', 'Samedi': ' 7h - 19h30', 'Dimanche': ' 9h - 18h'}",04 94 31 70 10,83000,1773,,https://www.bricodepot.fr/catalogue/depot/toulon/1773/
6 rue du Commerce,Brico Depot,STRASBOURG - GEISPOLSHEIM,France,"{'brand': 'Brico Depot', 'fascia': '', 'category': '', 'edit_date': <method 'date' of 'datetime.datetime' objects>, 'lat_lon_source': 'website'}",48.532470703125,7.68389892578125,STRASBOURG - GEISPOLSHEIM,"{'Lundi': ' 7h - 19h30', 'Mardi': ' 7h - 19h30', 'Mercredi': ' 7h - 19h30', 'Jeudi': ' 7h - 19h30', 'Vendredi': ' 7h - 19h30', 'Samedi': ' 7h - 19h30', 'Dimanche': ' Fermé'}",03 88 65 50 50,67118,1903,,https://www.bricodepot.fr/catalogue/depot/strasbourg-geispolsheim/1903/
13 rue de la Ferme Saint Ladre,Brico Depot,SAINT WITZ,France,"{'brand': 'Brico Depot', 'fascia': '', 'category': '', 'edit_date': <method 'date' of 'datetime.datetime' objects>, 'lat_lon_source': 'website'}",49.0936279296875,2.52873992919921,ST WITZ,"{'Lundi': ' 6h30 - 20h00', 'Mardi': ' 6h30 - 20h00', 'Mercredi': ' 6h30 - 20h00', 'Jeudi': ' 6h30 - 20h00', 'Vendredi': ' 6h30 - 20h00', 'Samedi': ' 6h30 - 20h00', 'Dimanche': ' 9h - 19h'}",01 34 31 92 40,95470,1776,,https://www.bricodepot.fr/catalogue/depot/st-witz/1776/
Zone Atlantis - 5 Place Magellan,Brico Depot,ST HERBLAIN,France,"{'brand': 'Brico Depot', 'fascia': '', 'category': '', 'edit_date': <method 'date' of 'datetime.datetime' objects>, 'lat_lon_source': 'website'}",47.2232666015625,,ST HERBLAIN,"{'Lundi': ' 7h - 19h30', 'Mardi': ' 7h - 19h30', 'Mercredi': ' 7h - 19h30', 'Jeudi': ' 7h - 19h30', 'Vendredi': ' 7h - 19h30', 'Samedi': ' 7h - 19h30', 'Dimanche': ' 9h - 17h'}",02 40 92 22 22,44800,1703,,https://www.bricodepot.fr/catalogue/depot/st-herblain/1703/
Route de la Charité - RN 151,Brico Depot,ST GERMAIN DU PUY - BOURGES,France,"{'brand': 'Brico Depot', 'fascia': '', 'category': '', 'edit_date': <method 'date' of 'datetime.datetime' objects>, 'lat_lon_source': 'website'}",47.0975341796875,2.45372009277343,ST GERMAIN DU PUY,"{'Lundi': ' 7h - 19h30', 'Mardi': ' 7h - 19h30', 'Mercredi': ' 7h - 19h30', 'Jeudi': ' 7h - 19h30', 'Vendredi': ' 7h - 19h30', 'Samedi': ' 7h - 19h30', 'Dimanche': ' 9h - 17h'}",02 48 23 01 01,18390,1705,,https://www.bricodepot.fr/catalogue/depot/st-germain-du-puy/1705/
Espace commercial du Chêne Vert - RN 12,Brico Depot,PLERIN - SAINT BRIEUC,France,"{'brand': 'Brico Depot', 'fascia': '', 'category': '', 'edit_date': <method 'date' of 'datetime.datetime' objects>, 'lat_lon_source': 'website'}",48.5357666015625,,ST BRIEUC,"{'Lundi': ' 7h - 19h30', 'Mardi': ' 7h - 19h30', 'Mercredi': ' 7h - 19h30', 'Jeudi': ' 7h - 19h30', 'Vendredi': ' 7h - 19h30', 'Samedi': ' 7h - 19h30', 'Dimanche': ' 8h - 13h'}",02 96 79 24 00,22190,1775,,https://www.bricodepot.fr/catalogue/depot/st-brieuc/1775/
Zone d'activité – Parc du Val de Durance,Brico Depot,SISTERON,France,"{'brand': 'Brico Depot', 'fascia': '', 'category': '', 'edit_date': <method 'date' of 'datetime.datetime' objects>, 'lat_lon_source': 'website'}",44.235583401996855,5.91139018535614,SISTERON,"{'Lundi': ' 7h - 19h30', 'Mardi': ' 7h - 19h30', 'Mercredi': ' 7h - 19h30', 'Jeudi': ' 7h - 19h30', 'Vendredi': ' 7h - 19h30', 'Samedi': ' 7h - 19h30', 'Dimanche': ' 8h - 13h'}",04 92 30 21 30,04200,1940,,https://www.bricodepot.fr/catalogue/depot/sisteron/1940/
Pôle Cial le Comtal nord - Route d'Aurillac,Brico Depot,RODEZ SEBAZAC,France,"{'brand': 'Brico Depot', 'fascia': '', 'category': '', 'edit_date': <method 'date' of 'datetime.datetime' objects>, 'lat_lon_source': 'website'}",44.39892578125,2.6067886352539,SEBAZAC CONCOURES,"{'Lundi': ' 7h - 19h30', 'Mardi': ' 7h - 19h30', 'Mercredi': ' 7h - 19h30', 'Jeudi': ' 7h - 19h30', 'Vendredi': ' 7h - 19h30', 'Samedi': ' 7h - 19h30', 'Dimanche': ' 8h - 13h'}",05 65 61 54 80,12740,1920,,https://www.bricodepot.fr/catalogue/depot/sebazac-concoures/1920/
Boulevard des Demoiselles - ZAC Ecoparc,Brico Depot,SAUMUR,France,"{'brand': 'Brico Depot', 'fascia': '', 'category': '', 'edit_date': <method 'date' of 'datetime.datetime' objects>, 'lat_lon_source': 'website'}",47.278473,,SAUMUR,"{'Lundi': ' 7h - 19h30', 'Mardi': ' 7h - 19h30', 'Mercredi': ' 7h - 19h30', 'Jeudi': ' 7h - 19h30', 'Vendredi': ' 7h - 19h30', 'Samedi': ' 7h - 19h30', 'Dimanche': ' 9h - 17h'}",02 41 03 31 20,49400,1952,,https://www.bricodepot.fr/catalogue/depot/saumur/1952/
Route de Pontoise ,Brico Depot,SARTROUVILLE,France,"{'brand': 'Brico Depot', 'fascia': '', 'category': '', 'edit_date': <method 'date' of 'datetime.datetime' objects>, 'lat_lon_source': 'website'}",48.94747049999999,2.2061496000000034,SARTROUVILLE,"{'Lundi': ' 6h30 - 20h00', 'Mardi': ' 6h30 - 20h00', 'Mercredi': ' 6h30 - 20h00', 'Jeudi': ' 6h30 - 20h00', 'Vendredi': ' 6h30 - 20h00', 'Samedi': ' 6h30 - 20h00', 'Dimanche': ' 9h - 19h'}",01 34 93 19 80,78500,1956,,https://www.bricodepot.fr/catalogue/depot/sartrouville/1956/
ZA de la Bièvre - Rte de Niderviller - Rue de la Bièvre,Brico Depot,SARREBOURG,France,"{'brand': 'Brico Depot', 'fascia': '', 'category': '', 'edit_date': <method 'date' of 'datetime.datetime' objects>, 'lat_lon_source': 'website'}",48.74072265625,7.07929992675781,SARREBOURG,"{'Lundi': ' 7h - 19h', 'Mardi': ' 7h - 19h', 'Mercredi': ' 7h - 19h', 'Jeudi': ' 7h - 19h', 'Vendredi': ' 7h - 19h', 'Samedi': ' 7h - 19h', 'Dimanche': ' Fermé'}",03 87 25 76 76,57400,1792,,https://www.bricodepot.fr/catalogue/depot/sarrebourg/1792/
Rue du Guise - RD 300,Brico Depot,HARLY,France,"{'brand': 'Brico Depot', 'fascia': '', 'category': '', 'edit_date': <method 'date' of 'datetime.datetime' objects>, 'lat_lon_source': 'website'}",49.841912612412855,3.3290505409240723,SAINT QUENTIN - HARLY,"{'Lundi': ' 7h - 19h30', 'Mardi': ' 7h - 19h30', 'Mercredi': ' 7h - 19h30', 'Jeudi': ' 7h - 19h30', 'Vendredi': ' 7h - 19h30', 'Samedi': ' 7h - 19h30', 'Dimanche': ' 8h - 13h'}",03 23 50 39 50,02000,1942,,https://www.bricodepot.fr/catalogue/depot/saint-quentin-harly/1942/
154 rue Jean Rostand,Brico Depot,SAINT ETIENNE MEONS,France,"{'brand': 'Brico Depot', 'fascia': '', 'category': '', 'edit_date': <method 'date' of 'datetime.datetime' objects>, 'lat_lon_source': 'website'}",45.455810546875,4.41313171386718,SAINT ETIENNE MEONS,"{'Lundi': ' 7h - 19h30', 'Mardi': ' 7h - 19h30', 'Mercredi': ' 7h - 19h30', 'Jeudi': ' 7h - 19h30', 'Vendredi': ' 7h - 19h30', 'Samedi': ' 7h - 19h30', 'Dimanche': ' 8h - 13h'}",04 77 34 37 90,42000,1797,,https://www.bricodepot.fr/catalogue/depot/saint-etienne-meons/1797/
Le Moulin de la truie - Route de Rochefort - RD 137,Brico Depot,SAINTES - SAINT GEORGES DES COTEAUX,France,"{'brand': 'Brico Depot', 'fascia': '', 'category': '', 'edit_date': <method 'date' of 'datetime.datetime' objects>, 'lat_lon_source': 'website'}",45.7958984375,,SAINTES - SAINT GEORGES DES COTEAUX,"{'Lundi': ' 7h - 19h30', 'Mardi': ' 7h - 19h30', 'Mercredi': ' 7h - 19h30', 'Jeudi': ' 7h - 19h30', 'Vendredi': ' 7h - 19h30', 'Samedi': ' 7h - 19h30', 'Dimanche': ' 9h - 17h'}",05 46 97 56 40,17810,1917,,https://www.bricodepot.fr/catalogue/depot/saintes-saint-georges-des-coteaux/1917/
ZAC Le Chêne Saint Amand,Brico Depot,ST DIZIER,France,"{'brand': 'Brico Depot', 'fascia': '', 'category': '', 'edit_date': <method 'date' of 'datetime.datetime' objects>, 'lat_lon_source': 'website'}",48.6243896484375,4.96891784667968,SAINT DIZIER,"{'Lundi': ' 7h - 19h30', 'Mardi': ' 7h - 19h30', 'Mercredi': ' 7h - 19h30', 'Jeudi': ' 7h - 19h30', 'Vendredi': ' 7h - 19h30', 'Samedi': ' 7h - 19h30', 'Dimanche': ' 8h - 13h'}",03 25 06 60 60,52100,1927,,https://www.bricodepot.fr/catalogue/depot/saint-dizier/1927/
100 avenue du Mont Riboudet,Brico Depot,ROUEN,France,"{'brand': 'Brico Depot', 'fascia': '', 'category': '', 'edit_date': <method 'date' of 'datetime.datetime' objects>, 'lat_lon_source': 'website'}",49.4453125,1.07453155517578,ROUEN,"{'Lundi': ' 7h - 19h30', 'Mardi': ' 7h - 19h30', 'Mercredi': ' 7h - 19h30', 'Jeudi': ' 7h - 19h30', 'Vendredi': ' 7h - 19h30', 'Samedi': ' 7h - 19h30', 'Dimanche': ' 9h - 17h'}",02 32 10 21 21,76021,1750,,https://www.bricodepot.fr/catalogue/depot/rouen/1750/
RD 207 - Lieu dit Les Plaines,Brico Depot,PARIGNY - ROANNE,France,"{'brand': 'Brico Depot', 'fascia': '', 'category': '', 'edit_date': <method 'date' of 'datetime.datetime' objects>, 'lat_lon_source': 'website'}",45.997314453125,4.10415649414062,ROANNE,"{'Lundi': ' 7h - 19h30', 'Mardi': ' 7h - 19h30', 'Mercredi': ' 7h - 19h30', 'Jeudi': ' 7h - 19h30', 'Vendredi': ' 7h - 19h30', 'Samedi': ' 7h - 19h30', 'Dimanche': ' 8h - 13h'}",04 77 62 61 00,42120,1783,,https://www.bricodepot.fr/catalogue/depot/roanne/1783/
Ccial Grand Quartier - Route de St Malo,Brico Depot,RENNES - ST GR\u00C9GOIRE,France,"{'brand': 'Brico Depot', 'fascia': '', 'category': '', 'edit_date': <method 'date' of 'datetime.datetime' objects>, 'lat_lon_source': 'website'}",48.1383056640625,,RENNES - ST GR\u00C9GOIRE,"{'Lundi': ' 7h - 19h30', 'Mardi': ' 7h - 19h30', 'Mercredi': ' 7h - 19h30', 'Jeudi': ' 7h - 19h30', 'Vendredi': ' 7h - 19h30', 'Samedi': ' 7h - 19h30', 'Dimanche': ' Fermé'}",02 99 54 09 09,35760,1947,,https://www.bricodepot.fr/catalogue/depot/rennes-st-gregoire/1947/
3 bd Gustave Eiffel,Brico Depot,REIMS,France,"{'brand': 'Brico Depot', 'fascia': '', 'category': '', 'edit_date': <method 'date' of 'datetime.datetime' objects>, 'lat_lon_source': 'website'}",49.27392578125,4.07365417480468,REIMS,"{'Lundi': ' 7h - 19h30', 'Mardi': ' 7h - 19h30', 'Mercredi': ' 7h - 19h30', 'Jeudi': ' 7h - 19h30', 'Vendredi': ' 7h - 19h30', 'Samedi': ' 7h - 19h30', 'Dimanche': ' 8h - 13h'}",03 26 84 69 29,51100,1701,,https://www.bricodepot.fr/catalogue/depot/reims/1701/
 ZA de Gourvily - 39 route du Loch,Brico Depot,QUIMPER,France,"{'brand': 'Brico Depot', 'fascia': '', 'category': '', 'edit_date': <method 'date' of 'datetime.datetime' objects>, 'lat_lon_source': 'website'}",48.014892578125,,QUIMPER,"{'Lundi': ' 7h - 19h30', 'Mardi': ' 7h - 19h30', 'Mercredi': ' 7h - 19h30', 'Jeudi': ' 7h - 19h30', 'Vendredi': ' 7h - 19h30', 'Samedi': ' 7h - 19h30', 'Dimanche': ' 8h - 13h'}",02 98 64 36 64,29000,1771,,https://www.bricodepot.fr/catalogue/depot/quimper/1771/
41 rue Jean Moulin,Brico Depot,PONTIVY,France,"{'brand': 'Brico Depot', 'fascia': '', 'category': '', 'edit_date': <method 'date' of 'datetime.datetime' objects>, 'lat_lon_source': 'website'}",48.0667,,PONTIVY,"{'Lundi': ' 7h - 19h', 'Mardi': ' 7h - 19h', 'Mercredi': ' 7h - 19h', 'Jeudi': ' 7h - 19h', 'Vendredi': ' 7h - 19h', 'Samedi': ' 7h - 19h', 'Dimanche': ' Fermé'}",,56300,2002,,https://www.bricodepot.fr/catalogue/depot/pontivy/2002/
ZAC DU PONTILLAULT,Brico Depot,PONTAULT COMBAULT,France,"{'brand': 'Brico Depot', 'fascia': '', 'category': '', 'edit_date': <method 'date' of 'datetime.datetime' objects>, 'lat_lon_source': 'website'}",48.793169,2.625334,PONTAULT COMBAULT,"{'Lundi': ' 6h30 - 20h00', 'Mardi': ' 6h30 - 20h00', 'Mercredi': ' 6h30 - 20h00', 'Jeudi': ' 6h30 - 20h00', 'Vendredi': ' 6h30 - 20h00', 'Samedi': ' 6h30 - 20h00', 'Dimanche': ' 9h - 19h'}",0160342288,77340,1954,,https://www.bricodepot.fr/catalogue/depot/pontault-combault/1954/
Rue Yves Leleu - ZAC Auchan,Brico Depot,PETITE FORET,France,"{'brand': 'Brico Depot', 'fascia': '', 'category': '', 'edit_date': <method 'date' of 'datetime.datetime' objects>, 'lat_lon_source': 'website'}",50.3753662109375,3.48017120361328,PETITE FORET,"{'Lundi': ' 7h - 19h30', 'Mardi': ' 7h - 19h30', 'Mercredi': ' 7h - 19h30', 'Jeudi': ' 7h - 19h30', 'Vendredi': ' 7h - 19h30', 'Samedi': ' 7h - 19h30', 'Dimanche': ' 9h - 17h'}",03 27 19 87 00,59494,1796,,https://www.bricodepot.fr/catalogue/depot/petite-foret/1796/
"Lieu-dit ""Le Grand Clos""",Brico Depot,PLOU\u00CBR SUR RANCE,France,"{'brand': 'Brico Depot', 'fascia': '', 'category': '', 'edit_date': <method 'date' of 'datetime.datetime' objects>, 'lat_lon_source': 'website'}",48.532555,,PLOUER-SUR-RANCE,"{'Lundi': ' 7h - 19h30', 'Mardi': ' 7h - 19h30', 'Mercredi': ' 7h - 19h30', 'Jeudi': ' 7h - 19h30', 'Vendredi': ' 7h - 19h30', 'Samedi': ' 7h - 19h30', 'Dimanche': ' 8h - 13h'}",02 96 86 15 00,22490,1929,,https://www.bricodepot.fr/catalogue/depot/plouer-sur-rance/1929/
Avenue du Général de Gaulle,Brico Depot,PAU - MAZERES-LEZONS,France,"{'brand': 'Brico Depot', 'fascia': '', 'category': '', 'edit_date': <method 'date' of 'datetime.datetime' objects>, 'lat_lon_source': 'website'}",43.2813720703125,,PAU - MAZERES-LEZONS,"{'Lundi': ' 7h - 19h30', 'Mardi': ' 7h - 19h30', 'Mercredi': ' 7h - 19h30', 'Jeudi': ' 7h - 19h30', 'Vendredi': ' 7h - 19h30', 'Samedi': ' 7h - 19h30', 'Dimanche': ' 8h - 13h'}",05 59 35 09 00,64110,1759,,https://www.bricodepot.fr/catalogue/depot/pau-mazeres-lezons/1759/
ZA Cent Arpents - 160 rue B. Franklin,Brico Depot,ORLEANS- SARAN,France,"{'brand': 'Brico Depot', 'fascia': '', 'category': '', 'edit_date': <method 'date' of 'datetime.datetime' objects>, 'lat_lon_source': 'website'}",47.9637451171875,1.88578414916992,ORLEANS - SARAN,"{'Lundi': ' 7h - 19h30', 'Mardi': ' 7h - 19h30', 'Mercredi': ' 7h - 19h30', 'Jeudi': ' 7h - 19h30', 'Vendredi': ' 7h - 19h30', 'Samedi': ' 7h - 19h30', 'Dimanche': ' 9h - 17h'}",02 38 79 06 06,45770,1752,,https://www.bricodepot.fr/catalogue/depot/orleans-saran/1752/
205 avenue Michel Grandou,Brico Depot,TRELISSAC - PERIGUEUX,France,"{'brand': 'Brico Depot', 'fascia': '', 'category': '', 'edit_date': <method 'date' of 'datetime.datetime' objects>, 'lat_lon_source': 'website'}",45.1890869140625,0.756206512451171,PERIGUEUX - TRELISSAC,"{'Lundi': ' 7h - 19h30', 'Mardi': ' 7h - 19h30', 'Mercredi': ' 7h - 19h30', 'Jeudi': ' 7h - 19h30', 'Vendredi': ' 7h - 19h30', 'Samedi': ' 7h - 19h30', 'Dimanche': ' 9h - 17h'}",05 53 05 62 50,24750,1757,,https://www.bricodepot.fr/catalogue/depot/perigueux-trelissac/1757/
Avenue de Lourdes - RD 921A,Brico Depot,ODOS,France,"{'brand': 'Brico Depot', 'fascia': '', 'category': '', 'edit_date': <method 'date' of 'datetime.datetime' objects>, 'lat_lon_source': 'website'}",43.211181640625,0.0489199161529541,ODOS,"{'Lundi': ' 7h - 19h30', 'Mardi': ' 7h - 19h30', 'Mercredi': ' 7h - 19h30', 'Jeudi': ' 7h - 19h30', 'Vendredi': ' 7h - 19h30', 'Samedi': ' 7h - 19h30', 'Dimanche': ' 9h - 17h'}",05 62 56 32 00,65310,1733,,https://www.bricodepot.fr/catalogue/depot/odos/1733/
RN 113,Brico Depot,NIMES \/ AIGUES-VIVES,France,"{'brand': 'Brico Depot', 'fascia': '', 'category': '', 'edit_date': <method 'date' of 'datetime.datetime' objects>, 'lat_lon_source': 'website'}",43.7073974609375,4.19828796386718,NIMES,"{'Lundi': ' 7h - 19h30', 'Mardi': ' 7h - 19h30', 'Mercredi': ' 7h - 19h30', 'Jeudi': ' 7h - 19h30', 'Vendredi': ' 7h - 19h30', 'Samedi': ' 7h - 19h30', 'Dimanche': ' 9h - 18h'}",04 66 93 20 60,30670,1767,,https://www.bricodepot.fr/catalogue/depot/nimes/1767/
ZAC Forum Lingostière - 15 Chemin Auda,Brico Depot,NICE - LINGOSTI\u00C8RE cedex 3,France,"{'brand': 'Brico Depot', 'fascia': '', 'category': '', 'edit_date': <method 'date' of 'datetime.datetime' objects>, 'lat_lon_source': 'website'}",43.72563809984652,7.190868258476257,NICE - LINGOSTI\u00C8RE,"{'Lundi': ' 7h - 20h', 'Mardi': ' 7h - 20h', 'Mercredi': ' 7h - 20h', 'Jeudi': ' 7h - 20h', 'Vendredi': ' 7h - 20h', 'Samedi': ' 7h - 20h', 'Dimanche': ' 9h - 18h'}",04 92 03 07 80,06200,1944,,https://www.bricodepot.fr/catalogue/depot/nice-lingostiere/1944/
Accès par parking de l'Hôtel de Ville - 61 avenue Joliot Curie,Brico Depot,NANTERRE,France,"{'brand': 'Brico Depot', 'fascia': '', 'category': '', 'edit_date': <method 'date' of 'datetime.datetime' objects>, 'lat_lon_source': 'website'}",48.8913600000001,2.2076299999999947,NANTERRE,"{'Lundi': ' 7h - 19h30', 'Mardi': ' 7h - 19h30', 'Mercredi': ' 7h - 19h30', 'Jeudi': ' 7h - 19h30', 'Vendredi': ' 7h - 19h30', 'Samedi': ' 7h - 19h30', 'Dimanche': ' 10h - 18h'}",01 41 38 81 81,92000,1938,,https://www.bricodepot.fr/catalogue/depot/nanterre/1938/
4 Rue Robert Schuman,Brico Depot,MORSCHWILLER LE BAS,France,"{'brand': 'Brico Depot', 'fascia': '', 'category': '', 'edit_date': <method 'date' of 'datetime.datetime' objects>, 'lat_lon_source': 'website'}",47.7376708984375,7.28486633300781,MULHOUSE,"{'Lundi': ' 7h - 19h30', 'Mardi': ' 7h - 19h30', 'Mercredi': ' 7h - 19h30', 'Jeudi': ' 7h - 19h30', 'Vendredi': ' 7h - 19h30', 'Samedi': ' 7h - 19h30', 'Dimanche': ' Fermé'}",03 89 59 41 66,68790,1765,,https://www.bricodepot.fr/catalogue/depot/mulhouse/1765/
ZI de Kervanon,Brico Depot,PLOUIGNEAU - MORLAIX,France,"{'brand': 'Brico Depot', 'fascia': '', 'category': '', 'edit_date': <method 'date' of 'datetime.datetime' objects>, 'lat_lon_source': 'website'}",48.5748291015625,,MORLAIX,"{'Lundi': ' 7h - 19h30', 'Mardi': ' 7h - 19h30', 'Mercredi': ' 7h - 19h30', 'Jeudi': ' 7h - 19h30', 'Vendredi': ' 7h - 19h30', 'Samedi': ' 7h - 19h30', 'Dimanche': ' 8h - 13h'}",02 98 79 87 20,29610,1760,,https://www.bricodepot.fr/catalogue/depot/morlaix/1760/
Chemin du Grand Rondelet,Brico Depot,MONTPELLIER - LATTES,France,"{'brand': 'Brico Depot', 'fascia': '', 'category': '', 'edit_date': <method 'date' of 'datetime.datetime' objects>, 'lat_lon_source': 'website'}",43.5797119140625,3.87611389160156,MONTPELLIER - LATTES,"{'Lundi': ' 7h - 19h30', 'Mardi': ' 7h - 19h30', 'Mercredi': ' 7h - 19h30', 'Jeudi': ' 7h - 19h30', 'Vendredi': ' 7h - 19h30', 'Samedi': ' 7h - 19h30', 'Dimanche': ' 9h - 18h'}",04 67 85 67 00,34970,1785,,https://www.bricodepot.fr/catalogue/depot/montpellier-lattes/1785/
ZA de Châteaugay,Brico Depot,DOMERAT - MONTLUCON,France,"{'brand': 'Brico Depot', 'fascia': '', 'category': '', 'edit_date': <method 'date' of 'datetime.datetime' objects>, 'lat_lon_source': 'website'}",46.369384765625,2.56929779052734,MONTLUCON,"{'Lundi': ' 7h - 19h30', 'Mardi': ' 7h - 19h30', 'Mercredi': ' 7h - 19h30', 'Jeudi': ' 7h - 19h30', 'Vendredi': ' 7h - 19h30', 'Samedi': ' 7h - 19h30', 'Dimanche': ' 8h - 13h'}",04 70 08 48 20,03410,1753,,https://www.bricodepot.fr/catalogue/depot/montlucon/1753/
ZA du Pave - RN 7 - Lieu-dit Saulce sur Rhône,Brico Depot,LES REYS DE SAULCE - MONTELIMAR,France,"{'brand': 'Brico Depot', 'fascia': '', 'category': '', 'edit_date': <method 'date' of 'datetime.datetime' objects>, 'lat_lon_source': 'website'}",44.6806640625,4.79435729980468,MONTELIMAR,"{'Lundi': ' 7h - 19h30', 'Mardi': ' 7h - 19h30', 'Mercredi': ' 7h - 19h30', 'Jeudi': ' 7h - 19h30', 'Vendredi': ' 7h - 19h30', 'Samedi': ' 7h - 19h30', 'Dimanche': ' 8h - 13h'}",04 75 63 01 68,26270,1727,,https://www.bricodepot.fr/catalogue/depot/montelimar/1727/
ZA de Châtillon Rue de Sémur,Brico Depot,MONTCEAU LES MINES,France,"{'brand': 'Brico Depot', 'fascia': '', 'category': '', 'edit_date': <method 'date' of 'datetime.datetime' objects>, 'lat_lon_source': 'website'}",46.687939,4.356278999999972,MONTCEAU - LES - MINES,"{'Lundi': ' 7h - 19h30', 'Mardi': ' 7h - 19h30', 'Mercredi': ' 7h - 19h30', 'Jeudi': ' 7h - 19h30', 'Vendredi': ' 7h - 19h30', 'Samedi': ' 7h - 19h30', 'Dimanche': ' 8h - 13h'}",03 85 79 60 40,71300,1934,,https://www.bricodepot.fr/catalogue/depot/montceau-les-mines/1934/
ZAC du Pied des Gouttes - Rue Briot,Brico Depot,MONTBELIARD,France,"{'brand': 'Brico Depot', 'fascia': '', 'category': '', 'edit_date': <method 'date' of 'datetime.datetime' objects>, 'lat_lon_source': 'website'}",47.5013427734375,6.81559753417968,MONTBELIARD,"{'Lundi': ' 7h - 19h30', 'Mardi': ' 7h - 19h30', 'Mercredi': ' 7h - 19h30', 'Jeudi': ' 7h - 19h30', 'Vendredi': ' 7h - 19h30', 'Samedi': ' 7h - 19h30', 'Dimanche': ' 8h - 13h'}",03 81 71 71 40,25200,1791,,https://www.bricodepot.fr/catalogue/depot/montbeliard/1791/
RN 20 - BP 812   Aussonne,Brico Depot,MONTAUBAN,France,"{'brand': 'Brico Depot', 'fascia': '', 'category': '', 'edit_date': <method 'date' of 'datetime.datetime' objects>, 'lat_lon_source': 'website'}",44.039306640625,1.38153839111328,MONTAUBAN,"{'Lundi': ' 7h - 19h30', 'Mardi': ' 7h - 19h30', 'Mercredi': ' 7h - 19h30', 'Jeudi': ' 7h - 19h30', 'Vendredi': ' 7h - 19h30', 'Samedi': ' 7h - 19h30', 'Dimanche': ' 8h - 13h'}",05 63 93 30 00,82008,1747,,https://www.bricodepot.fr/catalogue/depot/montauban/1747/
Actipôle Borny - 28 rue des Potiers d'Etain,Brico Depot,METZ,France,"{'brand': 'Brico Depot', 'fascia': '', 'category': '', 'edit_date': <method 'date' of 'datetime.datetime' objects>, 'lat_lon_source': 'website'}",49.110107421875,6.24385070800781,METZ,"{'Lundi': ' 7h - 19h30', 'Mardi': ' 7h - 19h30', 'Mercredi': ' 7h - 19h30', 'Jeudi': ' 7h - 19h30', 'Vendredi': ' 7h - 19h30', 'Samedi': ' 7h - 19h30', 'Dimanche': ' Fermé'}",03 87 21 10 40,57070,1722,,https://www.bricodepot.fr/catalogue/depot/metz/1722/
ZAC du Tertre de Cherisy - Route de Nangis,Brico Depot,VAUX LE PENIL - MELUN,France,"{'brand': 'Brico Depot', 'fascia': '', 'category': '', 'edit_date': <method 'date' of 'datetime.datetime' objects>, 'lat_lon_source': 'website'}",48.5411376953125,2.68585205078125,MELUN,"{'Lundi': ' 6h30 - 20h00', 'Mardi': ' 6h30 - 20h00', 'Mercredi': ' 6h30 - 20h00', 'Jeudi': ' 6h30 - 20h00', 'Vendredi': ' 6h30 - 20h00', 'Samedi': ' 6h30 - 20h00', 'Dimanche': ' 9h - 19h'}",01 64 87 14 14,77000,1790,,https://www.bricodepot.fr/catalogue/depot/melun/1790/
121 avenue Jean Jaures,Brico Depot,MAUBEUGE,France,"{'brand': 'Brico Depot', 'fascia': '', 'category': '', 'edit_date': <method 'date' of 'datetime.datetime' objects>, 'lat_lon_source': 'website'}",50.2818603515625,3.95561981201171,MAUBEUGE,"{'Lundi': ' 7h - 19h30', 'Mardi': ' 7h - 19h30', 'Mercredi': ' 7h - 19h30', 'Jeudi': ' 7h - 19h30', 'Vendredi': ' 7h - 19h30', 'Samedi': ' 7h - 19h30', 'Dimanche': ' 9h - 17h'}",03 27 62 20 56,59600,1908,,https://www.bricodepot.fr/catalogue/depot/maubeuge/1908/
79 avenue de la Rose,Brico Depot,MARSEILLE,France,"{'brand': 'Brico Depot', 'fascia': '', 'category': '', 'edit_date': <method 'date' of 'datetime.datetime' objects>, 'lat_lon_source': 'website'}",43.326904296875,5.42059326171875,MARSEILLE,"{'Lundi': ' 7h - 19h30', 'Mardi': ' 7h - 19h30', 'Mercredi': ' 7h - 19h30', 'Jeudi': ' 7h - 19h30', 'Vendredi': ' 7h - 19h30', 'Samedi': ' 7h - 19h30', 'Dimanche': ' 9h - 18h'}",04 96 13 06 70,13013,1777,,https://www.bricodepot.fr/catalogue/depot/marseille/1777/
"2, rue Jacques de Vaucanson",Brico Depot,MARTIGUES,France,"{'brand': 'Brico Depot', 'fascia': '', 'category': '', 'edit_date': <method 'date' of 'datetime.datetime' objects>, 'lat_lon_source': 'website'}",43.39794921875,5.033447265625,MARTIGUES,"{'Lundi': ' 7h - 19h30', 'Mardi': ' 7h - 19h30', 'Mercredi': ' 7h - 19h30', 'Jeudi': ' 7h - 19h30', 'Vendredi': ' 7h - 19h30', 'Samedi': ' 7h - 19h30', 'Dimanche': ' 9h - 18h'}",04 42 81 74 30,13500,1778,,https://www.bricodepot.fr/catalogue/depot/martigues/1778/
ZAC des Bouchardes,Brico Depot,CRECHES SUR SAONE - MACON,France,"{'brand': 'Brico Depot', 'fascia': '', 'category': '', 'edit_date': <method 'date' of 'datetime.datetime' objects>, 'lat_lon_source': 'website'}",46.250732421875,4.78805541992187,MACON,"{'Lundi': ' 7h - 19h30', 'Mardi': ' 7h - 19h30', 'Mercredi': ' 7h - 19h30', 'Jeudi': ' 7h - 19h30', 'Vendredi': ' 7h - 19h30', 'Samedi': ' 7h - 19h30', 'Dimanche': ' 8h - 13h'}",03 85 23 98 39,71680,1737,,https://www.bricodepot.fr/catalogue/depot/macon/1737/
198 Rte de Grenoble,Brico Depot,ST PRIEST,France,"{'brand': 'Brico Depot', 'fascia': '', 'category': '', 'edit_date': <method 'date' of 'datetime.datetime' objects>, 'lat_lon_source': 'website'}",45.7154541015625,4.96267700195312,LYON ST PRIEST,"{'Lundi': ' 7h - 20h', 'Mardi': ' 7h - 20h', 'Mercredi': ' 7h - 20h', 'Jeudi': ' 7h - 20h', 'Vendredi': ' 7h - 20h', 'Samedi': ' 7h - 20h', 'Dimanche': ' 9h - 17h'}",04 72 47 51 30,69800,1911,,https://www.bricodepot.fr/catalogue/depot/lyon-st-priest/1911/
Centre commercial Lexy Park - Rue de la Carrière,Brico Depot,LEXY,France,"{'brand': 'Brico Depot', 'fascia': '', 'category': '', 'edit_date': <method 'date' of 'datetime.datetime' objects>, 'lat_lon_source': 'website'}",49.515769,5.740495,LONGWY - LEXY,"{'Lundi': ' 7h - 19h30', 'Mardi': ' 7h - 19h30', 'Mercredi': ' 7h - 19h30', 'Jeudi': ' 7h - 19h30', 'Vendredi': ' 7h - 19h30', 'Samedi': ' 7h - 19h30', 'Dimanche': ' 8h - 13h'}",03 82 44 60 30,54720,1950,,https://www.bricodepot.fr/catalogue/depot/longwy-lexy/1950/
Bd du Maréchal Leclerc,Brico Depot,LIEVIN,France,"{'brand': 'Brico Depot', 'fascia': '', 'category': '', 'edit_date': <method 'date' of 'datetime.datetime' objects>, 'lat_lon_source': 'website'}",50.421875,2.77058410644531,LIEVIN,"{'Lundi': ' 7h - 19h30', 'Mardi': ' 7h - 19h30', 'Mercredi': ' 7h - 19h30', 'Jeudi': ' 7h - 19h30', 'Vendredi': ' 7h - 19h30', 'Samedi': ' 7h - 19h30', 'Dimanche': ' 8h - 13h'}",03 21 45 65 25,62803,1708,,https://www.bricodepot.fr/catalogue/depot/lievin/1708/
Ccial K2 - Route du Colonel Muller,Brico Depot,LORIENT,France,"{'brand': 'Brico Depot', 'fascia': '', 'category': '', 'edit_date': <method 'date' of 'datetime.datetime' objects>, 'lat_lon_source': 'website'}",47.76904296875,,LORIENT,"{'Lundi': ' 7h - 19h30', 'Mardi': ' 7h - 19h30', 'Mercredi': ' 7h - 19h30', 'Jeudi': ' 7h - 19h30', 'Vendredi': ' 7h - 19h30', 'Samedi': ' 7h - 19h30', 'Dimanche': ' 8h - 13h'}",02 97 87 14 30,56100,1739,,https://www.bricodepot.fr/catalogue/depot/lorient/1739/
36 route nationale 10,Brico Depot,LES ESSARTS-LE-ROI,France,"{'brand': 'Brico Depot', 'fascia': '', 'category': '', 'edit_date': <method 'date' of 'datetime.datetime' objects>, 'lat_lon_source': 'website'}",48.718703,1.883584,LES ESSARTS LE ROI,"{'Lundi': ' 7h - 19h30', 'Mardi': ' 7h - 19h30', 'Mercredi': ' 7h - 19h30', 'Jeudi': ' 7h - 19h30', 'Vendredi': ' 7h - 19h30', 'Samedi': ' 7h - 19h30', 'Dimanche': ' 10h - 18h'}",01 34 57 13 60,78690,1946,,https://www.bricodepot.fr/catalogue/depot/les-essarts-le-roi/1946/
Route Bleue - D707 ,Brico Depot,TOULON-SUR-ALLIER - MOULINS,France,"{'brand': 'Brico Depot', 'fascia': '', 'category': '', 'edit_date': <method 'date' of 'datetime.datetime' objects>, 'lat_lon_source': 'website'}",46.50292858924687,3.360891044139862,MOULINS,"{'Lundi': ' 7h - 19h30', 'Mardi': ' 7h - 19h30', 'Mercredi': ' 7h - 19h30', 'Jeudi': ' 7h - 19h30', 'Vendredi': ' 7h - 19h30', 'Samedi': ' 7h - 19h30', 'Dimanche': ' 8h - 13h'}",04 70 34 28 00,03400,1935,,https://www.bricodepot.fr/catalogue/depot/moulins/1935/
30 avenue de l'Europe,Brico Depot,LEERS,France,"{'brand': 'Brico Depot', 'fascia': '', 'category': '', 'edit_date': <method 'date' of 'datetime.datetime' objects>, 'lat_lon_source': 'website'}",50.680908203125,3.22357177734375,LEERS,"{'Lundi': ' 7h - 19h30', 'Mardi': ' 7h - 19h30', 'Mercredi': ' 7h - 19h30', 'Jeudi': ' 7h - 19h30', 'Vendredi': ' 7h - 19h30', 'Samedi': ' 7h - 19h30', 'Dimanche': ' 9h - 17h'}",03 20 45 62 00,59115,1769,,https://www.bricodepot.fr/catalogue/depot/leers/1769/
Centre Cial Les Bozées - 11 rue de Londres,Brico Depot,LAVAL,France,"{'brand': 'Brico Depot', 'fascia': '', 'category': '', 'edit_date': <method 'date' of 'datetime.datetime' objects>, 'lat_lon_source': 'website'}",48.054823,,LAVAL,"{'Lundi': ' 7h - 19h30', 'Mardi': ' 7h - 19h30', 'Mercredi': ' 7h - 19h30', 'Jeudi': ' 7h - 19h30', 'Vendredi': ' 7h - 19h30', 'Samedi': ' 7h - 19h30', 'Dimanche': ' Fermé'}",02 43 67 82 20,53000,1949,,https://www.bricodepot.fr/catalogue/depot/laval/1949/
56 avenue de l'Europe,Brico Depot,LEMPDES - CLERMONT FERRAND,France,"{'brand': 'Brico Depot', 'fascia': '', 'category': '', 'edit_date': <method 'date' of 'datetime.datetime' objects>, 'lat_lon_source': 'website'}",45.77685546875,3.18927001953125,LEMPDES - CLERMONT FERRAND,"{'Lundi': ' 7h - 19h30', 'Mardi': ' 7h - 19h30', 'Mercredi': ' 7h - 19h30', 'Jeudi': ' 7h - 19h30', 'Vendredi': ' 7h - 19h30', 'Samedi': ' 7h - 19h30', 'Dimanche': ' 9h - 17h'}",04 73 83 78 00,63370,1723,,https://www.bricodepot.fr/catalogue/depot/lempdes-clermont-ferrand/1723/
Ccial Géant - La Beraudière,Brico Depot,LA RICAMARIE,France,"{'brand': 'Brico Depot', 'fascia': '', 'category': '', 'edit_date': <method 'date' of 'datetime.datetime' objects>, 'lat_lon_source': 'website'}",45.4102783203125,4.3759765625,LA RICAMARIE,"{'Lundi': ' 7h - 19h30', 'Mardi': ' 7h - 19h30', 'Mercredi': ' 7h - 19h30', 'Jeudi': ' 7h - 19h30', 'Vendredi': ' 7h - 19h30', 'Samedi': ' 7h - 19h30', 'Dimanche': ' 8h - 13h'}",04 77 59 35 10,42150,1719,,https://www.bricodepot.fr/catalogue/depot/la-ricamarie/1719/
Route des Sables,Brico Depot,CHOLET,France,"{'brand': 'Brico Depot', 'fascia': '', 'category': '', 'edit_date': <method 'date' of 'datetime.datetime' objects>, 'lat_lon_source': 'website'}",47.0433349609375,,CHOLET,"{'Lundi': ' 7h - 19h30', 'Mardi': ' 7h - 19h30', 'Mercredi': ' 7h - 19h30', 'Jeudi': ' 7h - 19h30', 'Vendredi': ' 7h - 19h30', 'Samedi': ' 7h - 19h30', 'Dimanche': ' 8h - 13h'}",02 41 75 28 28,49300,1725,,https://www.bricodepot.fr/catalogue/depot/cholet/1725/
ZAC de Beaupuy - Route de Nantes - Sortie La Ribotière,Brico Depot,LA ROCHE SUR YON,France,"{'brand': 'Brico Depot', 'fascia': '', 'category': '', 'edit_date': <method 'date' of 'datetime.datetime' objects>, 'lat_lon_source': 'website'}",46.7255859375,,LA ROCHE SUR YON,"{'Lundi': ' 7h - 19h30', 'Mardi': ' 7h - 19h30', 'Mercredi': ' 7h - 19h30', 'Jeudi': ' 7h - 19h30', 'Vendredi': ' 7h - 19h30', 'Samedi': ' 7h - 19h30', 'Dimanche': ' 9h - 17h'}",02 51 06 94 60,85000,1758,,https://www.bricodepot.fr/catalogue/depot/la-roche-sur-yon/1758/
"Ccial des Grands Crus - 124, avenue Roland Carraz",Brico Depot,CHENOVE,France,"{'brand': 'Brico Depot', 'fascia': '', 'category': '', 'edit_date': <method 'date' of 'datetime.datetime' objects>, 'lat_lon_source': 'website'}",47.2862548828125,5.01063537597656,CHENOVE,"{'Lundi': ' 7h - 19h30', 'Mardi': ' 7h - 19h30', 'Mercredi': ' 7h - 19h30', 'Jeudi': ' 7h - 19h30', 'Vendredi': ' 7h - 19h30', 'Samedi': ' 7h - 19h30', 'Dimanche': ' 8h - 13h'}",03 80 51 76 76,21300,1714,,https://www.bricodepot.fr/catalogue/depot/chenove/1714/
Route de Montluçon,Brico Depot,CHATEAUROUX,France,"{'brand': 'Brico Depot', 'fascia': '', 'category': '', 'edit_date': <method 'date' of 'datetime.datetime' objects>, 'lat_lon_source': 'website'}",46.79541015625,1.73197555541992,CHATEAUROUX,"{'Lundi': ' 7h - 19h30', 'Mardi': ' 7h - 19h30', 'Mercredi': ' 7h - 19h30', 'Jeudi': ' 7h - 19h30', 'Vendredi': ' 7h - 19h30', 'Samedi': ' 7h - 19h30', 'Dimanche': ' 9h - 17h'}",02 54 36 33 33,36330,1774,,https://www.bricodepot.fr/catalogue/depot/chateauroux/1774/
16 route de Warnecourt,Brico Depot,CHARLEVILLE,France,"{'brand': 'Brico Depot', 'fascia': '', 'category': '', 'edit_date': <method 'date' of 'datetime.datetime' objects>, 'lat_lon_source': 'website'}",49.7547607421875,4.69880676269531,CHARLEVILLE,"{'Lundi': ' 7h - 19h30', 'Mardi': ' 7h - 19h30', 'Mercredi': ' 7h - 19h30', 'Jeudi': ' 7h - 19h30', 'Vendredi': ' 7h - 19h30', 'Samedi': ' 7h - 19h30', 'Dimanche': ' 8h - 13h'}",03 24 58 36 50,08000,1711,,https://www.bricodepot.fr/catalogue/depot/charleville/1711/
40 rue Jean Perrin,Brico Depot,CHARTRES - LUISANT,France,"{'brand': 'Brico Depot', 'fascia': '', 'category': '', 'edit_date': <method 'date' of 'datetime.datetime' objects>, 'lat_lon_source': 'website'}",48.4190673828125,1.46160888671875,CHARTRES - LUISANT,"{'Lundi': ' 7h - 19h30', 'Mardi': ' 7h - 19h30', 'Mercredi': ' 7h - 19h30', 'Jeudi': ' 7h - 19h30', 'Vendredi': ' 7h - 19h30', 'Samedi': ' 7h - 19h30', 'Dimanche': ' 8h - 13h'}",02 37 91 26 60,28600,1781,,https://www.bricodepot.fr/catalogue/depot/chartres-luisant/1781/
ZA de Voiterelle,Brico Depot,SAINT MEMMIE - CHALONS,France,"{'brand': 'Brico Depot', 'fascia': '', 'category': '', 'edit_date': <method 'date' of 'datetime.datetime' objects>, 'lat_lon_source': 'website'}",48.9437255859375,4.39451599121093,CHALONS,"{'Lundi': ' 7h - 19h30', 'Mardi': ' 7h - 19h30', 'Mercredi': ' 7h - 19h30', 'Jeudi': ' 7h - 19h30', 'Vendredi': ' 7h - 19h30', 'Samedi': ' 7h - 19h30', 'Dimanche': ' 8h - 13h'}",03 26 21 11 11,51470,1754,,https://www.bricodepot.fr/catalogue/depot/chalons/1754/
ZI Les Marnières - C. Cial Carrefour,Brico Depot,CHALEZEULE,France,"{'brand': 'Brico Depot', 'fascia': '', 'category': '', 'edit_date': <method 'date' of 'datetime.datetime' objects>, 'lat_lon_source': 'website'}",47.26220703125,6.05795288085937,CHALEZEULE,"{'Lundi': ' 7h - 19h30', 'Mardi': ' 7h - 19h30', 'Mercredi': ' 7h - 19h30', 'Jeudi': ' 7h - 19h30', 'Vendredi': ' 7h - 19h30', 'Samedi': ' 7h - 19h30', 'Dimanche': ' 8h - 13h'}",03 81 47 40 90,25220,1716,,https://www.bricodepot.fr/catalogue/depot/chalezeule/1716/
ZA de La Prade,Brico Depot,SOUAL - CASTRES,France,"{'brand': 'Brico Depot', 'fascia': '', 'category': '', 'edit_date': <method 'date' of 'datetime.datetime' objects>, 'lat_lon_source': 'website'}",43.565673828125,2.12850952148437,CASTRES,"{'Lundi': ' 7h - 19h30', 'Mardi': ' 7h - 19h30', 'Mercredi': ' 7h - 19h30', 'Jeudi': ' 7h - 19h30', 'Vendredi': ' 7h - 19h30', 'Samedi': ' 7h - 19h30', 'Dimanche': ' 8h - 13h'}",05 63 74 49 00,81580,1900,,https://www.bricodepot.fr/catalogue/depot/castres/1900/
Zone Alibert - RN 113,Brico Depot,CARCASSONNE,France,"{'brand': 'Brico Depot', 'fascia': '', 'category': '', 'edit_date': <method 'date' of 'datetime.datetime' objects>, 'lat_lon_source': 'website'}",43.2275390625,2.32682037353515,CARCASSONNE,"{'Lundi': ' 7h - 19h30', 'Mardi': ' 7h - 19h30', 'Mercredi': ' 7h - 19h30', 'Jeudi': ' 7h - 19h30', 'Vendredi': ' 7h - 19h30', 'Samedi': ' 7h - 19h30', 'Dimanche': ' 8h - 13h'}",04 68 71 11 00,11000,1915,,https://www.bricodepot.fr/catalogue/depot/carcassonne/1915/
Carrefour de Malbrouk - RN 13/RN138,Brico Depot,CARSIX,France,"{'brand': 'Brico Depot', 'fascia': '', 'category': '', 'edit_date': <method 'date' of 'datetime.datetime' objects>, 'lat_lon_source': 'website'}",49.1517333984375,0.671714782714843,CARSIX,"{'Lundi': ' 7h - 19h30', 'Mardi': ' 7h - 19h30', 'Mercredi': ' 7h - 19h30', 'Jeudi': ' 7h - 19h30', 'Vendredi': ' 7h - 19h30', 'Samedi': ' 7h - 19h30', 'Dimanche': ' 8h - 13h'}",02 32 47 40 00,27300,1713,,https://www.bricodepot.fr/catalogue/depot/carsix/1713/
52 rue de la Rigourdière,Brico Depot,RENNES - CESSON-SEVIGNE,France,"{'brand': 'Brico Depot', 'fascia': '', 'category': '', 'edit_date': <method 'date' of 'datetime.datetime' objects>, 'lat_lon_source': 'website'}",48.1153564453125,,CESSON-SEVIGNE,"{'Lundi': ' 7h - 19h30', 'Mardi': ' 7h - 19h30', 'Mercredi': ' 7h - 19h30', 'Jeudi': ' 7h - 19h30', 'Vendredi': ' 7h - 19h30', 'Samedi': ' 7h - 19h30', 'Dimanche': ' 8h - 13h'}",02 23 45 12 50,35510,1913,,https://www.bricodepot.fr/catalogue/depot/cesson-sevigne/1913/
ZI Est - Rue Bellevue,Brico Depot,CARPIQUET,France,"{'brand': 'Brico Depot', 'fascia': '', 'category': '', 'edit_date': <method 'date' of 'datetime.datetime' objects>, 'lat_lon_source': 'website'}",49.190502,,CARPIQUET,"{'Lundi': ' 7h - 19h30', 'Mardi': ' 7h - 19h30', 'Mercredi': ' 7h - 19h30', 'Jeudi': ' 7h - 19h30', 'Vendredi': ' 7h - 19h30', 'Samedi': ' 7h - 19h30', 'Dimanche': ' 9h - 17h'}",02 31 71 20 40,14650,1718,,https://www.bricodepot.fr/catalogue/depot/carpiquet/1718/
RN 6,Brico Depot,CANNES ECLUSE,France,"{'brand': 'Brico Depot', 'fascia': '', 'category': '', 'edit_date': <method 'date' of 'datetime.datetime' objects>, 'lat_lon_source': 'website'}",48.359130859375,2.98192596435546,CANNES ECLUSE,"{'Lundi': ' 7h - 19h30', 'Mardi': ' 7h - 19h30', 'Mercredi': ' 7h - 19h30', 'Jeudi': ' 7h - 19h30', 'Vendredi': ' 7h - 19h30', 'Samedi': ' 7h - 19h30', 'Dimanche': ' 9h - 17h'}",01 60 57 59 00,77130,1788,,https://www.bricodepot.fr/catalogue/depot/cannes-ecluse/1788/
1909 avenue de Paris,Brico Depot,CAMBRAI,France,"{'brand': 'Brico Depot', 'fascia': '', 'category': '', 'edit_date': <method 'date' of 'datetime.datetime' objects>, 'lat_lon_source': 'website'}",50.1534423828125,3.22203063964843,CAMBRAI,"{'Lundi': ' 7h - 19h30', 'Mardi': ' 7h - 19h30', 'Mercredi': ' 7h - 19h30', 'Jeudi': ' 7h - 19h30', 'Vendredi': ' 7h - 19h30', 'Samedi': ' 7h - 19h30', 'Dimanche': ' 8h - 13h'}",03 27 70 09 50,59400,1734,,https://www.bricodepot.fr/catalogue/depot/cambrai/1734/
Parc de la Porte Nord,Brico Depot,BRUAY LA BUISSIERE,France,"{'brand': 'Brico Depot', 'fascia': '', 'category': '', 'edit_date': <method 'date' of 'datetime.datetime' objects>, 'lat_lon_source': 'website'}",50.4945068359375,2.58512115478515,BRUAY LA BUISSIERE,"{'Lundi': ' 7h - 19h30', 'Mardi': ' 7h - 19h30', 'Mercredi': ' 7h - 19h30', 'Jeudi': ' 7h - 19h30', 'Vendredi': ' 7h - 19h30', 'Samedi': ' 7h - 19h30', 'Dimanche': ' 8h - 13h'}",03 91 80 06 30,62700,1762,,https://www.bricodepot.fr/catalogue/depot/bruay-la-buissiere/1762/
ZAC du Mont Joie,Brico Depot,BOULOGNE SUR MER,France,"{'brand': 'Brico Depot', 'fascia': '', 'category': '', 'edit_date': <method 'date' of 'datetime.datetime' objects>, 'lat_lon_source': 'website'}",50.7279052734375,1.64273071289062,BOULOGNE SUR MER,"{'Lundi': ' 7h - 19h30', 'Mardi': ' 7h - 19h30', 'Mercredi': ' 7h - 19h30', 'Jeudi': ' 7h - 19h30', 'Vendredi': ' 7h - 19h30', 'Samedi': ' 7h - 19h30', 'Dimanche': ' 8h - 13h'}",03 21 10 90 00,62280,1772,,https://www.bricodepot.fr/catalogue/depot/boulogne-sur-mer/1772/
ZAC du Mazaud,Brico Depot,BRIVE LA GAILLARDE,France,"{'brand': 'Brico Depot', 'fascia': '', 'category': '', 'edit_date': <method 'date' of 'datetime.datetime' objects>, 'lat_lon_source': 'website'}",45.1458740234375,1.46954345703125,BRIVE LA GAILLARDE,"{'Lundi': ' 7h - 19h30', 'Mardi': ' 7h - 19h30', 'Mercredi': ' 7h - 19h30', 'Jeudi': ' 7h - 19h30', 'Vendredi': ' 7h - 19h30', 'Samedi': ' 7h - 19h30', 'Dimanche': ' 9h - 17h'}",05 55 86 79 06,19100,1919,,https://www.bricodepot.fr/catalogue/depot/brive-la-gaillarde/1919/
524 cote du Pape ,Brico Depot,CAHORS,France,"{'brand': 'Brico Depot', 'fascia': '', 'category': '', 'edit_date': <method 'date' of 'datetime.datetime' objects>, 'lat_lon_source': 'website'}",44.462991138085265,1.4157455059882313,CAHORS,"{'Lundi': ' 7h - 19h', 'Mardi': ' 7h - 19h', 'Mercredi': ' 7h - 19h', 'Jeudi': ' 7h - 19h', 'Vendredi': ' 7h - 19h', 'Samedi': ' 7h - 19h', 'Dimanche': ' Fermé'}",05 65 30 37 20,46000,2001,,https://www.bricodepot.fr/catalogue/depot/cahors/2001/
Ccial de l'Iroise - Bd de Plymouth ,Brico Depot,BREST,France,"{'brand': 'Brico Depot', 'fascia': '', 'category': '', 'edit_date': <method 'date' of 'datetime.datetime' objects>, 'lat_lon_source': 'website'}",48.3873291015625,,BREST,"{'Lundi': ' 7h - 19h30', 'Mardi': ' 7h - 19h30', 'Mercredi': ' 7h - 19h30', 'Jeudi': ' 7h - 19h30', 'Vendredi': ' 7h - 19h30', 'Samedi': ' 7h - 19h30', 'Dimanche': ' Fermé'}",02 98 49 52 44,29200,1748,,https://www.bricodepot.fr/catalogue/depot/brest/1748/
Avenue du Peyrou,Brico Depot,ARTIGUES,France,"{'brand': 'Brico Depot', 'fascia': '', 'category': '', 'edit_date': <method 'date' of 'datetime.datetime' objects>, 'lat_lon_source': 'website'}",44.8690185546875,,BORDEAUX,"{'Lundi': ' 7h - 19h30', 'Mardi': ' 7h - 19h30', 'Mercredi': ' 7h - 19h30', 'Jeudi': ' 7h - 19h30', 'Vendredi': ' 7h - 19h30', 'Samedi': ' 7h - 19h30', 'Dimanche': ' 9h - 17h'}",05 57 77 95 20,33370,1756,,https://www.bricodepot.fr/catalogue/depot/bordeaux/1756/
ZAE de Viargues - RN 113,Brico Depot,COLOMBIERS - BEZIERS,France,"{'brand': 'Brico Depot', 'fascia': '', 'category': '', 'edit_date': <method 'date' of 'datetime.datetime' objects>, 'lat_lon_source': 'website'}",43.3084716796875,3.16927337646484,BEZIERS,"{'Lundi': ' 7h - 19h30', 'Mardi': ' 7h - 19h30', 'Mercredi': ' 7h - 19h30', 'Jeudi': ' 7h - 19h30', 'Vendredi': ' 7h - 19h30', 'Samedi': ' 7h - 19h30', 'Dimanche': ' 9h - 17h'}",04 67 09 76 60,34440,1902,,https://www.bricodepot.fr/catalogue/depot/beziers/1902/
ZAC de la Rotonde,Brico Depot,BETHUNE,France,"{'brand': 'Brico Depot', 'fascia': '', 'category': '', 'edit_date': <method 'date' of 'datetime.datetime' objects>, 'lat_lon_source': 'website'}",50.521338,2.633541,BETHUNE,"{'Lundi': ' 7h - 19h30', 'Mardi': ' 7h - 19h30', 'Mercredi': ' 7h - 19h30', 'Jeudi': ' 7h - 19h30', 'Vendredi': ' 7h - 19h30', 'Samedi': ' 7h - 19h30', 'Dimanche': ' 8h - 13h'}",03 21 63 73 00,62400,1784,,https://www.bricodepot.fr/catalogue/depot/bethune/1784/
LOTISSEMENT LES BERGES DU ROUILLON ROUTE DE CHASSE,Brico Depot,BALLAINVILLIERS,France,"{'brand': 'Brico Depot', 'fascia': '', 'category': '', 'edit_date': <method 'date' of 'datetime.datetime' objects>, 'lat_lon_source': 'website'}",48.672449,2.282565,BALLAINVILLIERS,"{'Lundi': ' 6h30 - 20h00', 'Mardi': ' 6h30 - 20h00', 'Mercredi': ' 6h30 - 20h00', 'Jeudi': ' 6h30 - 20h00', 'Vendredi': ' 6h30 - 20h00', 'Samedi': ' 6h30 - 20h00', 'Dimanche': ' 9h - 19h'}",0169191295,91160 ,1953,,https://www.bricodepot.fr/catalogue/depot/ballainvilliers/1953/
ZAC du Ther - Rue Pierre et Marie Curie,Brico Depot,BEAUVAIS,France,"{'brand': 'Brico Depot', 'fascia': '', 'category': '', 'edit_date': <method 'date' of 'datetime.datetime' objects>, 'lat_lon_source': 'website'}",49.4119873046875,2.11398315429687,BEAUVAIS,"{'Lundi': ' 7h - 19h30', 'Mardi': ' 7h - 19h30', 'Mercredi': ' 7h - 19h30', 'Jeudi': ' 7h - 19h30', 'Vendredi': ' 7h - 19h30', 'Samedi': ' 7h - 19h30', 'Dimanche': ' 9h - 17h'}",03 44 12 38 38,60000,1720,,https://www.bricodepot.fr/catalogue/depot/beauvais/1720/
RN 66 - Lieu-Dit Les Chesnez,Brico Depot,PERRIGNY - AUXERRE,France,"{'brand': 'Brico Depot', 'fascia': '', 'category': '', 'edit_date': <method 'date' of 'datetime.datetime' objects>, 'lat_lon_source': 'website'}",47.818115234375,3.55860137939453,AUXERRE,"{'Lundi': ' 7h - 19h30', 'Mardi': ' 7h - 19h30', 'Mercredi': ' 7h - 19h30', 'Jeudi': ' 7h - 19h30', 'Vendredi': ' 7h - 19h30', 'Samedi': ' 7h - 19h30', 'Dimanche': ' 8h - 13h'}",03 86 18 09 29,89000,1789,,https://www.bricodepot.fr/catalogue/depot/auxerre/1789/
253 rue de Lille,Brico Depot,BAILLEUL,France,"{'brand': 'Brico Depot', 'fascia': '', 'category': '', 'edit_date': <method 'date' of 'datetime.datetime' objects>, 'lat_lon_source': 'website'}",50.731689453125,2.74610137939453,BAILLEUL,"{'Lundi': ' 7h - 19h30', 'Mardi': ' 7h - 19h30', 'Mercredi': ' 7h - 19h30', 'Jeudi': ' 7h - 19h30', 'Vendredi': ' 7h - 19h30', 'Samedi': ' 7h - 19h30', 'Dimanche': ' 8h - 13h'}",03 28 44 05 20,59270,1763,,https://www.bricodepot.fr/catalogue/depot/bailleul/1763/
227 avenue du Maréchal Leclerc- Le Pontet,Brico Depot,LE PONTET - AVIGNON,France,"{'brand': 'Brico Depot', 'fascia': '', 'category': '', 'edit_date': <method 'date' of 'datetime.datetime' objects>, 'lat_lon_source': 'website'}",43.9720458984375,4.86495971679687,AVIGNON,"{'Lundi': ' 7h - 19h30', 'Mardi': ' 7h - 19h30', 'Mercredi': ' 7h - 19h30', 'Jeudi': ' 7h - 19h30', 'Vendredi': ' 7h - 19h30', 'Samedi': ' 7h - 19h30', 'Dimanche': ' 9h - 18h'}",04 32 73 04 50,84270,1745,,https://www.bricodepot.fr/catalogue/depot/avignon/1745/
ZI du Sousson,Brico Depot,PAVIE,France,"{'brand': 'Brico Depot', 'fascia': '', 'category': '', 'edit_date': <method 'date' of 'datetime.datetime' objects>, 'lat_lon_source': 'website'}",43.616667,0.6,AUCH,"{'Lundi': ' 7h - 19h30', 'Mardi': ' 7h - 19h30', 'Mercredi': ' 7h - 19h30', 'Jeudi': ' 7h - 19h30', 'Vendredi': ' 7h - 19h30', 'Samedi': ' 7h - 19h30', 'Dimanche': ' 8h - 13h'}",0542540060,32550,1936,,https://www.bricodepot.fr/catalogue/depot/auch/1936/
124 route de Taninges,Brico Depot,ANNEMASSE,France,"{'brand': 'Brico Depot', 'fascia': '', 'category': '', 'edit_date': <method 'date' of 'datetime.datetime' objects>, 'lat_lon_source': 'website'}",46.1864013671875,6.27406311035156,ANNEMASSE - VETRAZ   MONTHOUX,"{'Lundi': ' 7h - 19h30', 'Mardi': ' 7h - 19h30', 'Mercredi': ' 7h - 19h30', 'Jeudi': ' 7h - 19h30', 'Vendredi': ' 7h - 19h30', 'Samedi': ' 7h - 19h30', 'Dimanche': ' 8h - 13h'}",04 50 31 83 60,74100,1904,,https://www.bricodepot.fr/catalogue/depot/annemasse-vetraz-monthoux/1904/
ZAC Nord - Rue Gutenberg,Brico Depot,BIGANOS,France,"{'brand': 'Brico Depot', 'fascia': '', 'category': '', 'edit_date': <method 'date' of 'datetime.datetime' objects>, 'lat_lon_source': 'website'}",44.64306640625,,ARCACHON - BIGANOS,"{'Lundi': ' 7h - 19h30', 'Mardi': ' 7h - 19h30', 'Mercredi': ' 7h - 19h30', 'Jeudi': ' 7h - 19h30', 'Vendredi': ' 7h - 19h30', 'Samedi': ' 7h - 19h30', 'Dimanche': ' 8h - 13h'}",05 57 70 88 88,33380,1795,,https://www.bricodepot.fr/catalogue/depot/arcachon-biganos/1795/
"ZA des Montagnes - 385, rue de l'Entrait",Brico Depot,ANGOULEME - CHAMPNIERS,France,"{'brand': 'Brico Depot', 'fascia': '', 'category': '', 'edit_date': <method 'date' of 'datetime.datetime' objects>, 'lat_lon_source': 'website'}",45.6884765625,0.181960582733154,ANGOULEME - CHAMPNIERS,"{'Lundi': ' 7h - 19h30', 'Mardi': ' 7h - 19h30', 'Mercredi': ' 7h - 19h30', 'Jeudi': ' 7h - 19h30', 'Vendredi': ' 7h - 19h30', 'Samedi': ' 7h - 19h30', 'Dimanche': ' 9h - 17h'}",05 45 93 93 70,16430,1912,,https://www.bricodepot.fr/catalogue/depot/angouleme-champniers/1912/
ZA de la Millardière  -  RD 323,Brico Depot,ANGERS - SAINT SYLVAIN D ANJOU,France,"{'brand': 'Brico Depot', 'fascia': '', 'category': '', 'edit_date': <method 'date' of 'datetime.datetime' objects>, 'lat_lon_source': 'website'}",47.518310546875,,ANGERS - ST SYLVAIN D ANJOU,"{'Lundi': ' 7h - 19h30', 'Mardi': ' 7h - 19h30', 'Mercredi': ' 7h - 19h30', 'Jeudi': ' 7h - 19h30', 'Vendredi': ' 7h - 19h30', 'Samedi': ' 7h - 19h30', 'Dimanche': ' 9h - 17h'}",02 41 18 06 60,49480,1779,,https://www.bricodepot.fr/catalogue/depot/angers-st-sylvain-d-anjou/1779/
ZI Les Longs Champs,Brico Depot,BEAURAINS - ARRAS,France,"{'brand': 'Brico Depot', 'fascia': '', 'category': '', 'edit_date': <method 'date' of 'datetime.datetime' objects>, 'lat_lon_source': 'website'}",50.2674560546875,2.79994964599609,ARRAS,"{'Lundi': ' 7h - 19h30', 'Mardi': ' 7h - 19h30', 'Mercredi': ' 7h - 19h30', 'Jeudi': ' 7h - 19h30', 'Vendredi': ' 7h - 19h30', 'Samedi': ' 7h - 19h30', 'Dimanche': ' 8h - 13h'}",03 21 15 26 30,62217,1743,,https://www.bricodepot.fr/catalogue/depot/arras/1743/
ZI Angers-Beaucouzé - 18 rue du Pavillon,Brico Depot,ANGERS - BEAUCOUZE,France,"{'brand': 'Brico Depot', 'fascia': '', 'category': '', 'edit_date': <method 'date' of 'datetime.datetime' objects>, 'lat_lon_source': 'website'}",47.4666314,,ANGERS - BEAUCOUZE,"{'Lundi': ' 7h - 19h30', 'Mardi': ' 7h - 19h30', 'Mercredi': ' 7h - 19h30', 'Jeudi': ' 7h - 19h30', 'Vendredi': ' 7h - 19h30', 'Samedi': ' 7h - 19h30', 'Dimanche': ' 9h - 17h'}",02 41 36 45 45,49070,1939,,https://www.bricodepot.fr/catalogue/depot/angers-beaucouze/1939/
CCial Carrefour - Avenue Henri Matisse,Brico Depot,AULNOY LEZ VALENCIENNES,France,"{'brand': 'Brico Depot', 'fascia': '', 'category': '', 'edit_date': <method 'date' of 'datetime.datetime' objects>, 'lat_lon_source': 'website'}",50.33447265625,3.51467132568359,AULNOY LEZ VALENCIENNES,"{'Lundi': ' 7h - 19h30', 'Mardi': ' 7h - 19h30', 'Mercredi': ' 7h - 19h30', 'Jeudi': ' 7h - 19h30', 'Vendredi': ' 7h - 19h30', 'Samedi': ' 7h - 19h30', 'Dimanche': ' 8h - 13h'}",03 27 46 66 66,59300,1709,,https://www.bricodepot.fr/catalogue/depot/aulnoy-lez-valenciennes/1709/
Bel Air - Les Quatre Quartiers,Brico Depot,ANDILLY - LA ROCHELLE,France,"{'brand': 'Brico Depot', 'fascia': '', 'category': '', 'edit_date': <method 'date' of 'datetime.datetime' objects>, 'lat_lon_source': 'website'}",46.2603759765625,,ANDILLY-LA ROCHELLE,"{'Lundi': ' 7h - 19h30', 'Mardi': ' 7h - 19h30', 'Mercredi': ' 7h - 19h30', 'Jeudi': ' 7h - 19h30', 'Vendredi': ' 7h - 19h30', 'Samedi': ' 7h - 19h30', 'Dimanche': ' 8h - 13h'}",05 46 66 12 30,17230,1925,,https://www.bricodepot.fr/catalogue/depot/andilly-la-rochelle/1925/
ZAC du Vivier II - Route de la Suze,Brico Depot,LE MANS - ALLONNES,France,"{'brand': 'Brico Depot', 'fascia': '', 'category': '', 'edit_date': <method 'date' of 'datetime.datetime' objects>, 'lat_lon_source': 'website'}",47.9742431640625,0.145554542541504,ALLONNES,"{'Lundi': ' 7h - 19h30', 'Mardi': ' 7h - 19h30', 'Mercredi': ' 7h - 19h30', 'Jeudi': ' 7h - 19h30', 'Vendredi': ' 7h - 19h30', 'Samedi': ' 7h - 19h30', 'Dimanche': ' 8h - 13h'}",02 43 43 59 00,72700,1740,,https://www.bricodepot.fr/catalogue/depot/allonnes/1740/
ZI Le Coudray - RN 138 - Route du Mans,Brico Depot,ALENCON - ARCONNAY,France,"{'brand': 'Brico Depot', 'fascia': '', 'category': '', 'edit_date': <method 'date' of 'datetime.datetime' objects>, 'lat_lon_source': 'website'}",48.4049072265625,0.0908088684082031,ALENCON - ARCONNAY,"{'Lundi': ' 7h - 19h30', 'Mardi': ' 7h - 19h30', 'Mercredi': ' 7h - 19h30', 'Jeudi': ' 7h - 19h30', 'Vendredi': ' 7h - 19h30', 'Samedi': ' 7h - 19h30', 'Dimanche': ' 8h - 13h'}",02 33 28 25 00,72610,1787,,https://www.bricodepot.fr/catalogue/depot/alencon-arconnay/1787/
CCial Amiens Sud,Brico Depot,AMIENS,France,"{'brand': 'Brico Depot', 'fascia': '', 'category': '', 'edit_date': <method 'date' of 'datetime.datetime' objects>, 'lat_lon_source': 'website'}",49.8619384765625,2.27747344970703,AMIENS,"{'Lundi': ' 7h - 19h30', 'Mardi': ' 7h - 19h30', 'Mercredi': ' 7h - 19h30', 'Jeudi': ' 7h - 19h30', 'Vendredi': ' 7h - 19h30', 'Samedi': ' 7h - 19h30', 'Dimanche': ' 8h - 13h'}",03 22 33 42 00,80044,1729,,https://www.bricodepot.fr/catalogue/depot/amiens/1729/
Ccial du Pont de Pierre - Avenue Stalingrad,Brico Depot,GARGES LES GONESSE,France,"{'brand': 'Brico Depot', 'fascia': '', 'category': '', 'edit_date': <method 'date' of 'datetime.datetime' objects>, 'lat_lon_source': 'website'}",48.9737548828125,2.41951751708984,GARGES,"{'Lundi': ' 6h30 - 20h00', 'Mardi': ' 6h30 - 20h00', 'Mercredi': ' 6h30 - 20h00', 'Jeudi': ' 6h30 - 20h00', 'Vendredi': ' 6h30 - 20h00', 'Samedi': ' 6h30 - 20h00', 'Dimanche': ' 9h - 19h'}",01 30 11 12 60,95140,1751,,https://www.bricodepot.fr/catalogue/depot/garges/1751/
