addr_full,brand,city,country,extras,lat,lon,name,opening_hours,phone,postcode,ref,state,website
" 64 Todd Mall ALICE SPRINGS, NT 0870 ",The North Face,,Autrialia,"{'brand': 'The North Face', 'fascia': 'The North Face', 'category': 'Retail', 'edit_date': '2025-05-16', 'lat_lon_source': 'Third Party'}",-23.700772,133.882131,The North Face LONE DINGO,"{'Opening_hours': {'Mon': '00:00-23:59', 'Tue': '00:00-23:59', 'Wed': '00:00-23:59', 'Thu': '00:00-23:59', 'Fri': '00:00-23:59', 'Sat': '00:00-23:59', 'Sun': '00:00-23:59'}}",,,store4337,,https://thenorthface.com.au/stores/nt/store4337/lone-dingo
" 9 Smart Road MODBURY, SA 5092 ",The North Face,,Autrialia,"{'brand': 'The North Face', 'fascia': 'The North Face', 'category': 'Retail', 'edit_date': '2025-05-16', 'lat_lon_source': 'Third Party'}",-34.834335,138.684173,The North Face ANACONDA,"{'Opening_hours': {'Mon': '00:00-23:59', 'Tue': '00:00-23:59', 'Wed': '00:00-23:59', 'Thu': '00:00-23:59', 'Fri': '00:00-23:59', 'Sat': '00:00-23:59', 'Sun': '00:00-23:59'}}",,,store4494,,https://thenorthface.com.au/stores/sa/store4494/anaconda
" 1 Graham Place PROSPECT, SA 5082 ",The North Face,,Autrialia,"{'brand': 'The North Face', 'fascia': 'The North Face', 'category': 'Retail', 'edit_date': '2025-05-16', 'lat_lon_source': 'Third Party'}",-34.892068,138.587005,The North Face PRO PODIATRY,"{'Opening_hours': {'Mon': '00:00-23:59', 'Tue': '00:00-23:59', 'Wed': '00:00-23:59', 'Thu': '00:00-23:59', 'Fri': '00:00-23:59', 'Sat': '00:00-23:59', 'Sun': '00:00-23:59'}}",,,store4497,,https://thenorthface.com.au/stores/sa/store4497/pro-podiatry
" Shop 9A, Rundle Mall ADELAIDE, SA 5000 ",The North Face,,Autrialia,"{'brand': 'The North Face', 'fascia': 'The North Face', 'category': 'Retail', 'edit_date': '2025-05-16', 'lat_lon_source': 'Third Party'}",-34.923183,138.600064,The North Face GENERAL PANTS CO,"{'Opening_hours': {'Mon': '00:00-23:59', 'Tue': '00:00-23:59', 'Wed': '00:00-23:59', 'Thu': '00:00-23:59', 'Fri': '00:00-23:59', 'Sat': '00:00-23:59', 'Sun': '00:00-23:59'}}",,,store4500,,https://thenorthface.com.au/stores/sa/store4500/general-pants-co
" 100 Rundle Mall ADELAIDE, SA 5000 ",The North Face,,Autrialia,"{'brand': 'The North Face', 'fascia': 'The North Face', 'category': 'Retail', 'edit_date': '2025-05-16', 'lat_lon_source': 'Third Party'}",-34.922111,138.603409,The North Face DAVID JONES,"{'Opening_hours': {'Mon': '00:00-23:59', 'Tue': '00:00-23:59', 'Wed': '00:00-23:59', 'Thu': '00:00-23:59', 'Fri': '00:00-23:59', 'Sat': '00:00-23:59', 'Sun': '00:00-23:59'}}",,,store4499,,https://thenorthface.com.au/stores/sa/store4499/david-jones
" Mile End Homemaker Centre, 121-150 Railway Terrace MILE END, SA 5031 ",The North Face,,Autrialia,"{'brand': 'The North Face', 'fascia': 'The North Face', 'category': 'Retail', 'edit_date': '2025-05-16', 'lat_lon_source': 'Third Party'}",-34.934056,138.576064,The North Face ANACONDA,"{'Opening_hours': {'Mon': '00:00-23:59', 'Tue': '00:00-23:59', 'Wed': '00:00-23:59', 'Thu': '00:00-23:59', 'Fri': '00:00-23:59', 'Sat': '00:00-23:59', 'Sun': '00:00-23:59'}}",,,store4493,,https://thenorthface.com.au/stores/sa/store4493/anaconda
" 210 Rundle Street ADELAIDE, SA 5000 ",The North Face,,Autrialia,"{'brand': 'The North Face', 'fascia': 'The North Face', 'category': 'Retail', 'edit_date': '2025-05-16', 'lat_lon_source': 'Third Party'}",-34.922346,138.607458,The North Face ANNAPURNA OUTDOOR SHOP,"{'Opening_hours': {'Mon': '00:00-23:59', 'Tue': '00:00-23:59', 'Wed': '00:00-23:59', 'Thu': '00:00-23:59', 'Fri': '00:00-23:59', 'Sat': '00:00-23:59', 'Sun': '00:00-23:59'}}",,,store4498,,https://thenorthface.com.au/stores/sa/store4498/annapurna-outdoor-shop
" 228 Rundle Street ADELAIDE, SA 5000 ",The North Face,,Autrialia,"{'brand': 'The North Face', 'fascia': 'The North Face', 'category': 'Retail', 'edit_date': '2025-05-16', 'lat_lon_source': 'Third Party'}",-34.922434,138.608085,The North Face PADDY PALLIN,"{'Opening_hours': {'Mon': '00:00-23:59', 'Tue': '00:00-23:59', 'Wed': '00:00-23:59', 'Thu': '00:00-23:59', 'Fri': '00:00-23:59', 'Sat': '00:00-23:59', 'Sun': '00:00-23:59'}}",,,store4502,,https://thenorthface.com.au/stores/sa/store4502/paddy-pallin
" 92 Richmond Rd KESWICK, SA 5035 ",The North Face,,Autrialia,"{'brand': 'The North Face', 'fascia': 'The North Face', 'category': 'Retail', 'edit_date': '2025-05-16', 'lat_lon_source': 'Third Party'}",-34.942103,138.573819,The North Face SNOWY'S OUTDOORS,"{'Opening_hours': {'Mon': '00:00-23:59', 'Tue': '00:00-23:59', 'Wed': '00:00-23:59', 'Thu': '00:00-23:59', 'Fri': '00:00-23:59', 'Sat': '00:00-23:59', 'Sun': '00:00-23:59'}}",,,store4492,,https://thenorthface.com.au/stores/sa/store4492/snowy's-outdoors
" 134A The Parade NORWOOD, SA 5067 ",The North Face,,Autrialia,"{'brand': 'The North Face', 'fascia': 'The North Face', 'category': 'Retail', 'edit_date': '2025-05-16', 'lat_lon_source': 'Third Party'}",-34.921027,138.633543,The North Face EXURBIA,"{'Opening_hours': {'Mon': '00:00-23:59', 'Tue': '00:00-23:59', 'Wed': '00:00-23:59', 'Thu': '00:00-23:59', 'Fri': '00:00-23:59', 'Sat': '00:00-23:59', 'Sun': '00:00-23:59'}}",,,store4503,,https://thenorthface.com.au/stores/sa/store4503/exurbia
" 552 Greenhill Road HAZELWOOD PARK, SA 5066 ",The North Face,,Autrialia,"{'brand': 'The North Face', 'fascia': 'The North Face', 'category': 'Retail', 'edit_date': '2025-05-16', 'lat_lon_source': 'Third Party'}",-34.938559,138.660004,The North Face BKT-TRAIL,"{'Opening_hours': {'Mon': '00:00-23:59', 'Tue': '00:00-23:59', 'Wed': '00:00-23:59', 'Thu': '00:00-23:59', 'Fri': '00:00-23:59', 'Sat': '00:00-23:59', 'Sun': '00:00-23:59'}}",,,store4491,,https://thenorthface.com.au/stores/sa/store4491/bkt-trail
" 2 Seaman Road NOARLUNGA , SA 5168 ",The North Face,,Autrialia,"{'brand': 'The North Face', 'fascia': 'The North Face', 'category': 'Retail', 'edit_date': '2025-05-16', 'lat_lon_source': 'Third Party'}",-35.141929,138.490469,The North Face ANACONDA,"{'Opening_hours': {'Mon': '00:00-23:59', 'Tue': '00:00-23:59', 'Wed': '00:00-23:59', 'Thu': '00:00-23:59', 'Fri': '00:00-23:59', 'Sat': '00:00-23:59', 'Sun': '00:00-23:59'}}",,,store4495,,https://thenorthface.com.au/stores/sa/store4495/anaconda
" 364-374 Bayswater Road GARBUTT, QLD 4814 ",The North Face,,Autrialia,"{'brand': 'The North Face', 'fascia': 'The North Face', 'category': 'Retail', 'edit_date': '2025-05-16', 'lat_lon_source': 'Third Party'}",-19.273291,146.760544,The North Face ANACONDA,"{'Opening_hours': {'Mon': '00:00-23:59', 'Tue': '00:00-23:59', 'Wed': '00:00-23:59', 'Thu': '00:00-23:59', 'Fri': '00:00-23:59', 'Sat': '00:00-23:59', 'Sun': '00:00-23:59'}}",,,store4459,,https://thenorthface.com.au/stores/qld/store4459/anaconda
" Gateway Shopping Centre, 1 Roystonea Ave YARRAWONGA, NT 0830 ",The North Face,,Autrialia,"{'brand': 'The North Face', 'fascia': 'The North Face', 'category': 'Retail', 'edit_date': '2025-05-16', 'lat_lon_source': 'Third Party'}",-12.472561,130.983139,The North Face INTERSPORT,"{'Opening_hours': {'Mon': '00:00-23:59', 'Tue': '00:00-23:59', 'Wed': '00:00-23:59', 'Thu': '00:00-23:59', 'Fri': '00:00-23:59', 'Sat': '00:00-23:59', 'Sun': '00:00-23:59'}}",,,store4436,,https://thenorthface.com.au/stores/nt/store4436/intersport
" Jape Home Village, 356 Bagot Road DARWIN, NT 0810 ",The North Face,,Autrialia,"{'brand': 'The North Face', 'fascia': 'The North Face', 'category': 'Retail', 'edit_date': '2025-05-16', 'lat_lon_source': 'Third Party'}",-12.390535,130.856803,The North Face ANACONDA,"{'Opening_hours': {'Mon': '00:00-23:59', 'Tue': '00:00-23:59', 'Wed': '00:00-23:59', 'Thu': '00:00-23:59', 'Fri': '00:00-23:59', 'Sat': '00:00-23:59', 'Sun': '00:00-23:59'}}",,,store4435,,https://thenorthface.com.au/stores/nt/store4435/anaconda
" Casuarina Square, 247 Trower Road CASUARINA, NT 0810 ",The North Face,,Autrialia,"{'brand': 'The North Face', 'fascia': 'The North Face', 'category': 'Retail', 'edit_date': '2025-05-16', 'lat_lon_source': 'Third Party'}",-12.376293,130.881635,The North Face INTERSPORT,"{'Opening_hours': {'Mon': '00:00-23:59', 'Tue': '00:00-23:59', 'Wed': '00:00-23:59', 'Thu': '00:00-23:59', 'Fri': '00:00-23:59', 'Sat': '00:00-23:59', 'Sun': '00:00-23:59'}}",,,store4434,,https://thenorthface.com.au/stores/nt/store4434/intersport
" 8 Marong Road BENDIGO, VIC 3550 ",The North Face,,Autrialia,"{'brand': 'The North Face', 'fascia': 'The North Face', 'category': 'Retail', 'edit_date': '2025-05-16', 'lat_lon_source': 'Third Party'}",-36.756617,144.261236,The North Face ANACONDA,"{'Opening_hours': {'Mon': '00:00-23:59', 'Tue': '00:00-23:59', 'Wed': '00:00-23:59', 'Thu': '00:00-23:59', 'Fri': '00:00-23:59', 'Sat': '00:00-23:59', 'Sun': '00:00-23:59'}}",,,store4513,,https://thenorthface.com.au/stores/vic/store4513/anaconda
" Wendouree Homemaker Centre, 333 Gillies Street WENDOUREE, VIC 3355 ",The North Face,,Autrialia,"{'brand': 'The North Face', 'fascia': 'The North Face', 'category': 'Retail', 'edit_date': '2025-05-16', 'lat_lon_source': 'Third Party'}",-37.535054,143.821735,The North Face ANACONDA,"{'Opening_hours': {'Mon': '00:00-23:59', 'Tue': '00:00-23:59', 'Wed': '00:00-23:59', 'Thu': '00:00-23:59', 'Fri': '00:00-23:59', 'Sat': '00:00-23:59', 'Sun': '00:00-23:59'}}",,,store4569,,https://thenorthface.com.au/stores/vic/store4569/anaconda
" Cairns Homemaker Centre, Corner Draper & Kenny Streets CAIRNS, QLD 4870 ",The North Face,,Autrialia,"{'brand': 'The North Face', 'fascia': 'The North Face', 'category': 'Retail', 'edit_date': '2025-05-16', 'lat_lon_source': 'Third Party'}",-16.933555,145.771739,The North Face ANACONDA,"{'Opening_hours': {'Mon': '00:00-23:59', 'Tue': '00:00-23:59', 'Wed': '00:00-23:59', 'Thu': '00:00-23:59', 'Fri': '00:00-23:59', 'Sat': '00:00-23:59', 'Sun': '00:00-23:59'}}",,,store4448,,https://thenorthface.com.au/stores/qld/store4448/anaconda
" 53 Grafton Street CAIRNS, QLD 4870 ",The North Face,,Autrialia,"{'brand': 'The North Face', 'fascia': 'The North Face', 'category': 'Retail', 'edit_date': '2025-05-16', 'lat_lon_source': 'Third Party'}",-16.92419,145.775692,The North Face ADVENTURE EQUIPMENT,"{'Opening_hours': {'Mon': '00:00-23:59', 'Tue': '00:00-23:59', 'Wed': '00:00-23:59', 'Thu': '00:00-23:59', 'Fri': '00:00-23:59', 'Sat': '00:00-23:59', 'Sun': '00:00-23:59'}}",,,ADVENTEQUIP,,https://thenorthface.com.au/stores/qld/adventequip/adventure-equipment
" 115 Benalla Road SHEPPARTON, VIC 3630 ",The North Face,,Autrialia,"{'brand': 'The North Face', 'fascia': 'The North Face', 'category': 'Retail', 'edit_date': '2025-05-16', 'lat_lon_source': 'Third Party'}",-36.385735,145.424939,The North Face ANACONDA,"{'Opening_hours': {'Mon': '00:00-23:59', 'Tue': '00:00-23:59', 'Wed': '00:00-23:59', 'Thu': '00:00-23:59', 'Fri': '00:00-23:59', 'Sat': '00:00-23:59', 'Sun': '00:00-23:59'}}",,,store4564,,https://thenorthface.com.au/stores/vic/store4564/anaconda
" 30 Macrossan Street PORT DOUGLAS, QLD 4877 ",The North Face,,Autrialia,"{'brand': 'The North Face', 'fascia': 'The North Face', 'category': 'Retail', 'edit_date': '2025-05-16', 'lat_lon_source': 'Third Party'}",-16.492458,145.463099,The North Face IN PORT SHOES,"{'Opening_hours': {'Mon': '00:00-23:59', 'Tue': '00:00-23:59', 'Wed': '00:00-23:59', 'Thu': '00:00-23:59', 'Fri': '00:00-23:59', 'Sat': '00:00-23:59', 'Sun': '00:00-23:59'}}",,,store4476,,https://thenorthface.com.au/stores/qld/store4476/in-port-shoes
" 6 Macrossan Street PORT DOUGLAS, QLD 4877 ",The North Face,,Autrialia,"{'brand': 'The North Face', 'fascia': 'The North Face', 'category': 'Retail', 'edit_date': '2025-05-16', 'lat_lon_source': 'Third Party'}",-16.480839,145.463009,The North Face SPORTSPOWER,"{'Opening_hours': {'Mon': '00:00-23:59', 'Tue': '00:00-23:59', 'Wed': '00:00-23:59', 'Thu': '00:00-23:59', 'Fri': '00:00-23:59', 'Sat': '00:00-23:59', 'Sun': '00:00-23:59'}}",,,store4477,,https://thenorthface.com.au/stores/qld/store4477/sportspower
" 34 Baylis Street WAGGA WAGGA, NSW 2650 ",The North Face,,Autrialia,"{'brand': 'The North Face', 'fascia': 'The North Face', 'category': 'Retail', 'edit_date': '2025-05-16', 'lat_lon_source': 'Third Party'}",-35.117246,147.368639,The North Face INTERSPORT,"{'Opening_hours': {'Mon': '00:00-23:59', 'Tue': '00:00-23:59', 'Wed': '00:00-23:59', 'Thu': '00:00-23:59', 'Fri': '00:00-23:59', 'Sat': '00:00-23:59', 'Sun': '00:00-23:59'}}",,,INTERSPORTWW,,https://thenorthface.com.au/stores/nsw/intersportww/intersport
" Whitsunday Plaza, 8 Galbraith Park Road CANNONVALE, QLD 4802 ",The North Face,,Autrialia,"{'brand': 'The North Face', 'fascia': 'The North Face', 'category': 'Retail', 'edit_date': '2025-05-16', 'lat_lon_source': 'Third Party'}",-20.2894,148.675589,The North Face ANACONDA,"{'Opening_hours': {'Mon': '00:00-23:59', 'Tue': '00:00-23:59', 'Wed': '00:00-23:59', 'Thu': '00:00-23:59', 'Fri': '00:00-23:59', 'Sat': '00:00-23:59', 'Sun': '00:00-23:59'}}",,,AnacondaCannonvale,,https://thenorthface.com.au/stores/qld/anacondacannonvale/anaconda
" 129-145 Hammond Avenue WAGGA WAGGA, NSW 2650 ",The North Face,,Autrialia,"{'brand': 'The North Face', 'fascia': 'The North Face', 'category': 'Retail', 'edit_date': '2025-05-16', 'lat_lon_source': 'Third Party'}",-35.121273,147.392331,The North Face ANACONDA,"{'Opening_hours': {'Mon': '00:00-23:59', 'Tue': '00:00-23:59', 'Wed': '00:00-23:59', 'Thu': '00:00-23:59', 'Fri': '00:00-23:59', 'Sat': '00:00-23:59', 'Sun': '00:00-23:59'}}",,,store4427,,https://thenorthface.com.au/stores/nsw/store4427/anaconda
" 196 Nebo Road MACKAY, QLD 4740 ",The North Face,,Autrialia,"{'brand': 'The North Face', 'fascia': 'The North Face', 'category': 'Retail', 'edit_date': '2025-05-16', 'lat_lon_source': 'Third Party'}",-21.157884,149.162331,The North Face ON THE RUN,"{'Opening_hours': {'Mon': '00:00-23:59', 'Tue': '00:00-23:59', 'Wed': '00:00-23:59', 'Thu': '00:00-23:59', 'Fri': '00:00-23:59', 'Sat': '00:00-23:59', 'Sun': '00:00-23:59'}}",,,store4467,,https://thenorthface.com.au/stores/qld/store4467/on-the-run
" Corner of Mackay Bucasia Road & Holts Road MACKAY, QLD 4740 ",The North Face,,Autrialia,"{'brand': 'The North Face', 'fascia': 'The North Face', 'category': 'Retail', 'edit_date': '2025-05-16', 'lat_lon_source': 'Third Party'}",-21.098291,149.158978,The North Face ANACONDA,"{'Opening_hours': {'Mon': '00:00-23:59', 'Tue': '00:00-23:59', 'Wed': '00:00-23:59', 'Thu': '00:00-23:59', 'Fri': '00:00-23:59', 'Sat': '00:00-23:59', 'Sun': '00:00-23:59'}}",,,store4465,,https://thenorthface.com.au/stores/qld/store4465/anaconda
" Watergardens Supercentre 2, 399 Melton Highway TAYLORS LAKES, VIC 3038 ",The North Face,,Autrialia,"{'brand': 'The North Face', 'fascia': 'The North Face', 'category': 'Retail', 'edit_date': '2025-05-16', 'lat_lon_source': 'Third Party'}",-37.697565,144.772181,The North Face ANACONDA,"{'Opening_hours': {'Mon': '00:00-23:59', 'Tue': '00:00-23:59', 'Wed': '00:00-23:59', 'Thu': '00:00-23:59', 'Fri': '00:00-23:59', 'Sat': '00:00-23:59', 'Sun': '00:00-23:59'}}",,,store4567,,https://thenorthface.com.au/stores/vic/store4567/anaconda
" 9 Elata Drive TULLAMARINE, VIC 3043 ",The North Face,,Autrialia,"{'brand': 'The North Face', 'fascia': 'The North Face', 'category': 'Retail', 'edit_date': '2025-05-16', 'lat_lon_source': 'Third Party'}",-37.715563,144.860881,The North Face RUNNING WAREHOUSE AUSTRALIA,"{'Opening_hours': {'Mon': '00:00-23:59', 'Tue': '00:00-23:59', 'Wed': '00:00-23:59', 'Thu': '00:00-23:59', 'Fri': '00:00-23:59', 'Sat': '00:00-23:59', 'Sun': '00:00-23:59'}}",,,store4568,,https://thenorthface.com.au/stores/vic/store4568/running-warehouse-australia
" Broadmeadows Central, 1099-1169 Pascoe Vale Road BROADMEADOWS, VIC 3047 ",The North Face,,Autrialia,"{'brand': 'The North Face', 'fascia': 'The North Face', 'category': 'Retail', 'edit_date': '2025-05-16', 'lat_lon_source': 'Third Party'}",-37.680215,144.919454,The North Face JD SPORTS,"{'Opening_hours': {'Mon': '00:00-23:59', 'Tue': '00:00-23:59', 'Wed': '00:00-23:59', 'Thu': '00:00-23:59', 'Fri': '00:00-23:59', 'Sat': '00:00-23:59', 'Sun': '00:00-23:59'}}",,,store4516,,https://thenorthface.com.au/stores/vic/store4516/jd-sports
" 330 Cooper Street EPPING, VIC 3076 ",The North Face,,Autrialia,"{'brand': 'The North Face', 'fascia': 'The North Face', 'category': 'Retail', 'edit_date': '2025-05-16', 'lat_lon_source': 'Third Party'}",-37.648314,145.002083,The North Face ANACONDA,"{'Opening_hours': {'Mon': '00:00-23:59', 'Tue': '00:00-23:59', 'Wed': '00:00-23:59', 'Thu': '00:00-23:59', 'Fri': '00:00-23:59', 'Sat': '00:00-23:59', 'Sun': '00:00-23:59'}}",,,store4524,,https://thenorthface.com.au/stores/vic/store4524/anaconda
" DFO Essendon, 100 Bulla Rd Essendon Fields ESSENDON, VIC 3041 ",The North Face,,Autrialia,"{'brand': 'The North Face', 'fascia': 'The North Face', 'category': 'Retail', 'edit_date': '2025-05-16', 'lat_lon_source': 'Third Party'}",-37.732311,144.908648,The North Face THE NORTH FACE ESSENDON,"{'Opening_hours': {'Mon': '00:00-23:59', 'Tue': '00:00-23:59', 'Wed': '00:00-23:59', 'Thu': '00:00-23:59', 'Fri': '00:00-23:59', 'Sat': '00:00-23:59', 'Sun': '00:00-23:59'}}",,,store4160,,https://thenorthface.com.au/stores/vic/store4160/the-north-face-essendon
" 323 Old Geelong Road HOPPERS CROSSING, VIC 3029 ",The North Face,,Autrialia,"{'brand': 'The North Face', 'fascia': 'The North Face', 'category': 'Retail', 'edit_date': '2025-05-16', 'lat_lon_source': 'Third Party'}",-37.87321,144.720928,The North Face ANACONDA,"{'Opening_hours': {'Mon': '00:00-23:59', 'Tue': '00:00-23:59', 'Wed': '00:00-23:59', 'Thu': '00:00-23:59', 'Fri': '00:00-23:59', 'Sat': '00:00-23:59', 'Sun': '00:00-23:59'}}",,,store4538,,https://thenorthface.com.au/stores/vic/store4538/anaconda
" Harvey Norman Centre, 169 Rosamond Road MARIBYRNONG, VIC 3032 ",The North Face,,Autrialia,"{'brand': 'The North Face', 'fascia': 'The North Face', 'category': 'Retail', 'edit_date': '2025-05-16', 'lat_lon_source': 'Third Party'}",-37.772905,144.884696,The North Face ANACONDA,"{'Opening_hours': {'Mon': '00:00-23:59', 'Tue': '00:00-23:59', 'Wed': '00:00-23:59', 'Thu': '00:00-23:59', 'Fri': '00:00-23:59', 'Sat': '00:00-23:59', 'Sun': '00:00-23:59'}}",,,store4541,,https://thenorthface.com.au/stores/vic/store4541/anaconda
" Highpoint Shopping Centre, 200 Rosamond Road MARIBYRNONG, VIC 3032 ",The North Face,,Autrialia,"{'brand': 'The North Face', 'fascia': 'The North Face', 'category': 'Retail', 'edit_date': '2025-05-16', 'lat_lon_source': 'Third Party'}",-37.77433,144.886301,The North Face JD SPORTS,"{'Opening_hours': {'Mon': '00:00-23:59', 'Tue': '00:00-23:59', 'Wed': '00:00-23:59', 'Thu': '00:00-23:59', 'Fri': '00:00-23:59', 'Sat': '00:00-23:59', 'Sun': '00:00-23:59'}}",,,store4544,,https://thenorthface.com.au/stores/vic/store4544/jd-sports
" Highpoint Shopping Centre, 120-200 Rosamond Rd MARIBYNONG, VIC 3032 ",The North Face,,Autrialia,"{'brand': 'The North Face', 'fascia': 'The North Face', 'category': 'Retail', 'edit_date': '2025-05-16', 'lat_lon_source': 'Third Party'}",-37.771808,144.890518,The North Face DAVID JONES,"{'Opening_hours': {'Mon': '00:00-23:59', 'Tue': '00:00-23:59', 'Wed': '00:00-23:59', 'Thu': '00:00-23:59', 'Fri': '00:00-23:59', 'Sat': '00:00-23:59', 'Sun': '00:00-23:59'}}",,,store4634,,https://thenorthface.com.au/stores/vic/store4634/david-jones
" Highpoint Shopping Centre, 120-200 Rosamond Road MARIBYNONG, VIC 3032 ",The North Face,,Autrialia,"{'brand': 'The North Face', 'fascia': 'The North Face', 'category': 'Retail', 'edit_date': '2025-05-16', 'lat_lon_source': 'Third Party'}",-37.773671,144.888744,The North Face GENERAL PANTS CO,"{'Opening_hours': {'Mon': '00:00-23:59', 'Tue': '00:00-23:59', 'Wed': '00:00-23:59', 'Thu': '00:00-23:59', 'Fri': '00:00-23:59', 'Sat': '00:00-23:59', 'Sun': '00:00-23:59'}}",,,store4540,,https://thenorthface.com.au/stores/vic/store4540/general-pants-co
" 479 Dean Street ALBURY, NSW 2640 ",The North Face,,Autrialia,"{'brand': 'The North Face', 'fascia': 'The North Face', 'category': 'Retail', 'edit_date': '2025-05-16', 'lat_lon_source': 'Third Party'}",-36.08129,146.919498,The North Face ADVENTURE GEAR ALBURY,"{'Opening_hours': {'Mon': '00:00-23:59', 'Tue': '00:00-23:59', 'Wed': '00:00-23:59', 'Thu': '00:00-23:59', 'Fri': '00:00-23:59', 'Sat': '00:00-23:59', 'Sun': '00:00-23:59'}}",,,store4334,,https://thenorthface.com.au/stores/nsw/store4334/adventure-gear-albury
" 25-27 Settlement Road (Cnr Breakwater Road) BELMONT, VIC 3220 ",The North Face,,Autrialia,"{'brand': 'The North Face', 'fascia': 'The North Face', 'category': 'Retail', 'edit_date': '2025-05-16', 'lat_lon_source': 'Third Party'}",-38.179867,144.35174,The North Face ANACONDA,"{'Opening_hours': {'Mon': '00:00-23:59', 'Tue': '00:00-23:59', 'Wed': '00:00-23:59', 'Thu': '00:00-23:59', 'Fri': '00:00-23:59', 'Sat': '00:00-23:59', 'Sun': '00:00-23:59'}}",,,store4512,,https://thenorthface.com.au/stores/vic/store4512/anaconda
" 94 Borella Road ALBURY, NSW 2640 ",The North Face,,Autrialia,"{'brand': 'The North Face', 'fascia': 'The North Face', 'category': 'Retail', 'edit_date': '2025-05-16', 'lat_lon_source': 'Third Party'}",-36.076592,146.944293,The North Face ANACONDA,"{'Opening_hours': {'Mon': '00:00-23:59', 'Tue': '00:00-23:59', 'Wed': '00:00-23:59', 'Thu': '00:00-23:59', 'Fri': '00:00-23:59', 'Sat': '00:00-23:59', 'Sun': '00:00-23:59'}}",,,store4335,,https://thenorthface.com.au/stores/nsw/store4335/anaconda
" Northland Shopping Centre, 2-50 Murray Road PRESTON, VIC 3072 ",The North Face,,Autrialia,"{'brand': 'The North Face', 'fascia': 'The North Face', 'category': 'Retail', 'edit_date': '2025-05-16', 'lat_lon_source': 'Third Party'}",-37.738331,145.029891,The North Face JD SPORTS,"{'Opening_hours': {'Mon': '00:00-23:59', 'Tue': '00:00-23:59', 'Wed': '00:00-23:59', 'Thu': '00:00-23:59', 'Fri': '00:00-23:59', 'Sat': '00:00-23:59', 'Sun': '00:00-23:59'}}",,,store4561,,https://thenorthface.com.au/stores/vic/store4561/jd-sports
" 97 Chifley Drive PRESTON, VIC 3072 ",The North Face,,Autrialia,"{'brand': 'The North Face', 'fascia': 'The North Face', 'category': 'Retail', 'edit_date': '2025-05-16', 'lat_lon_source': 'Third Party'}",-37.741667,145.029722,The North Face ANACONDA,"{'Opening_hours': {'Mon': '00:00-23:59', 'Tue': '00:00-23:59', 'Wed': '00:00-23:59', 'Thu': '00:00-23:59', 'Fri': '00:00-23:59', 'Sat': '00:00-23:59', 'Sun': '00:00-23:59'}}",,,store4558,,https://thenorthface.com.au/stores/vic/store4558/anaconda
" 29a Sutherland Street MELBOURNE, VIC 3000 ",The North Face,,Autrialia,"{'brand': 'The North Face', 'fascia': 'The North Face', 'category': 'Retail', 'edit_date': '2025-05-16', 'lat_lon_source': 'Third Party'}",-37.811011,144.960643,The North Face SUPPLY STORE ,"{'Opening_hours': {'Mon': '00:00-23:59', 'Tue': '00:00-23:59', 'Wed': '00:00-23:59', 'Thu': '00:00-23:59', 'Fri': '00:00-23:59', 'Sat': '00:00-23:59', 'Sun': '00:00-23:59'}}",,,store4550,,https://thenorthface.com.au/stores/vic/store4550/supply-store-
" Melbourne Central Shopping Centre, 211 Latrobe Street MELBOURNE, VIC 3000 ",The North Face,,Autrialia,"{'brand': 'The North Face', 'fascia': 'The North Face', 'category': 'Retail', 'edit_date': '2025-05-16', 'lat_lon_source': 'Third Party'}",-37.810499,144.962742,The North Face GENERAL PANTS CO,"{'Opening_hours': {'Mon': '00:00-23:59', 'Tue': '00:00-23:59', 'Wed': '00:00-23:59', 'Thu': '00:00-23:59', 'Fri': '00:00-23:59', 'Sat': '00:00-23:59', 'Sun': '00:00-23:59'}}",,,store4683,,https://thenorthface.com.au/stores/vic/store4683/general-pants-co
" Melbourne Central, 211 La Trobe Street MELBOURNE, VIC 3000 ",The North Face,,Autrialia,"{'brand': 'The North Face', 'fascia': 'The North Face', 'category': 'Retail', 'edit_date': '2025-05-16', 'lat_lon_source': 'Third Party'}",-37.810359,144.963235,The North Face JD SPORTS,"{'Opening_hours': {'Mon': '00:00-23:59', 'Tue': '00:00-23:59', 'Wed': '00:00-23:59', 'Thu': '00:00-23:59', 'Fri': '00:00-23:59', 'Sat': '00:00-23:59', 'Sun': '00:00-23:59'}}",,,store4549,,https://thenorthface.com.au/stores/vic/store4549/jd-sports
" 7/397 Smith Street FITZROY, VIC 3065 ",The North Face,,Autrialia,"{'brand': 'The North Face', 'fascia': 'The North Face', 'category': 'Retail', 'edit_date': '2025-05-16', 'lat_lon_source': 'Third Party'}",-37.796988,144.984409,The North Face PADDY PALLIN,"{'Opening_hours': {'Mon': '00:00-23:59', 'Tue': '00:00-23:59', 'Wed': '00:00-23:59', 'Thu': '00:00-23:59', 'Fri': '00:00-23:59', 'Sat': '00:00-23:59', 'Sun': '00:00-23:59'}}",,,store4525,,https://thenorthface.com.au/stores/vic/store4525/paddy-pallin
" 348 Little Bourke Street MELBOURNE, VIC 3000 ",The North Face,,Autrialia,"{'brand': 'The North Face', 'fascia': 'The North Face', 'category': 'Retail', 'edit_date': '2025-05-16', 'lat_lon_source': 'Third Party'}",-37.813357,144.962257,The North Face THE WALKING COMPANY,"{'Opening_hours': {'Mon': '00:00-23:59', 'Tue': '00:00-23:59', 'Wed': '00:00-23:59', 'Thu': '00:00-23:59', 'Fri': '00:00-23:59', 'Sat': '00:00-23:59', 'Sun': '00:00-23:59'}}",,,store4553,,https://thenorthface.com.au/stores/vic/store4553/the-walking-company
" Shop G013, Emporium Shopping Centre, 287 Lonsdale St, Melbourne, VIC 3000 ",The North Face,,Autrialia,"{'brand': 'The North Face', 'fascia': 'The North Face', 'category': 'Retail', 'edit_date': '2025-05-16', 'lat_lon_source': 'Third Party'}",-37.812403,144.963828,The North Face THE NORTH FACE EMPORIUM,"{'Opening_hours': {'Mon': '00:00-23:59', 'Tue': '00:00-23:59', 'Wed': '00:00-23:59', 'Thu': '00:00-23:59', 'Fri': '00:00-23:59', 'Sat': '00:00-23:59', 'Sun': '00:00-23:59'}}",,,store4702,,https://thenorthface.com.au/stores/vic/store4702/the-north-face-emporium
" 310 Bourke Street MELBOURNE, VIC 3000 ",The North Face,,Autrialia,"{'brand': 'The North Face', 'fascia': 'The North Face', 'category': 'Retail', 'edit_date': '2025-05-16', 'lat_lon_source': 'Third Party'}",-37.813267,144.964408,The North Face DAVID JONES,"{'Opening_hours': {'Mon': '00:00-23:59', 'Tue': '00:00-23:59', 'Wed': '00:00-23:59', 'Thu': '00:00-23:59', 'Fri': '00:00-23:59', 'Sat': '00:00-23:59', 'Sun': '00:00-23:59'}}",,,store4635,,https://thenorthface.com.au/stores/vic/store4635/david-jones
" Galleria Shopping Plaza, 385 Bourke Street MELBOURNE, VIC 3000 ",The North Face,,Autrialia,"{'brand': 'The North Face', 'fascia': 'The North Face', 'category': 'Retail', 'edit_date': '2025-05-16', 'lat_lon_source': 'Third Party'}",-37.814557,144.962887,The North Face THE NORTH FACE MELBOURNE,"{'Opening_hours': {'Mon': '00:00-23:59', 'Tue': '00:00-23:59', 'Wed': '00:00-23:59', 'Thu': '00:00-23:59', 'Fri': '00:00-23:59', 'Sat': '00:00-23:59', 'Sun': '00:00-23:59'}}",,,store001,,https://thenorthface.com.au/stores/vic/store001/the-north-face-melbourne
" Centrepoint, 283-297 Bourke Street MELBOURNE, VIC 3000 ",The North Face,,Autrialia,"{'brand': 'The North Face', 'fascia': 'The North Face', 'category': 'Retail', 'edit_date': '2025-05-16', 'lat_lon_source': 'Third Party'}",-37.813924,144.964752,The North Face GENERAL PANTS CO,"{'Opening_hours': {'Mon': '00:00-23:59', 'Tue': '00:00-23:59', 'Wed': '00:00-23:59', 'Thu': '00:00-23:59', 'Fri': '00:00-23:59', 'Sat': '00:00-23:59', 'Sun': '00:00-23:59'}}",,,store4546,,https://thenorthface.com.au/stores/vic/store4546/general-pants-co
" DFO South Wharf, 20 Convention Centre Place SOUTH WHARF, VIC 3006 ",The North Face,,Autrialia,"{'brand': 'The North Face', 'fascia': 'The North Face', 'category': 'Retail', 'edit_date': '2025-05-16', 'lat_lon_source': 'Third Party'}",-37.825122,144.949338,The North Face THE NORTH FACE SOUTH WHARF,"{'Opening_hours': {'Mon': '00:00-23:59', 'Tue': '00:00-23:59', 'Wed': '00:00-23:59', 'Thu': '00:00-23:59', 'Fri': '00:00-23:59', 'Sat': '00:00-23:59', 'Sun': '00:00-23:59'}}",,,store4565,,https://thenorthface.com.au/stores/vic/store4565/the-north-face-south-wharf
" 64a Johnston Street COLLINGWOOD, VIC 3066 ",The North Face,,Autrialia,"{'brand': 'The North Face', 'fascia': 'The North Face', 'category': 'Retail', 'edit_date': '2025-05-16', 'lat_lon_source': 'Third Party'}",-37.799121,144.987013,The North Face CLIMBING ANCHORS,"{'Opening_hours': {'Mon': '00:00-23:59', 'Tue': '00:00-23:59', 'Wed': '00:00-23:59', 'Thu': '00:00-23:59', 'Fri': '00:00-23:59', 'Sat': '00:00-23:59', 'Sun': '00:00-23:59'}}",,,store4520,,https://thenorthface.com.au/stores/vic/store4520/climbing-anchors
" 152 Bourke Street MELBOURNE, VIC 3000 ",The North Face,,Autrialia,"{'brand': 'The North Face', 'fascia': 'The North Face', 'category': 'Retail', 'edit_date': '2025-05-16', 'lat_lon_source': 'Third Party'}",-37.812447,144.968611,The North Face PADDY PALLIN,"{'Opening_hours': {'Mon': '00:00-23:59', 'Tue': '00:00-23:59', 'Wed': '00:00-23:59', 'Thu': '00:00-23:59', 'Fri': '00:00-23:59', 'Sat': '00:00-23:59', 'Sun': '00:00-23:59'}}",,,store4551,,https://thenorthface.com.au/stores/vic/store4551/paddy-pallin
" 2 Grattan Street PRAHRAN, VIC 3181 ",The North Face,,Autrialia,"{'brand': 'The North Face', 'fascia': 'The North Face', 'category': 'Retail', 'edit_date': '2025-05-16', 'lat_lon_source': 'Third Party'}",-37.848731,144.991024,The North Face AUSSIESKIER,"{'Opening_hours': {'Mon': '00:00-23:59', 'Tue': '00:00-23:59', 'Wed': '00:00-23:59', 'Thu': '00:00-23:59', 'Fri': '00:00-23:59', 'Sat': '00:00-23:59', 'Sun': '00:00-23:59'}}",,,store4556,,https://thenorthface.com.au/stores/vic/store4556/aussieskier
" 245 Chapel Street PRAHRAN, VIC 3181 ",The North Face,,Autrialia,"{'brand': 'The North Face', 'fascia': 'The North Face', 'category': 'Retail', 'edit_date': '2025-05-16', 'lat_lon_source': 'Third Party'}",-37.85024,144.993458,The North Face DAKOTA 501,"{'Opening_hours': {'Mon': '00:00-23:59', 'Tue': '00:00-23:59', 'Wed': '00:00-23:59', 'Thu': '00:00-23:59', 'Fri': '00:00-23:59', 'Sat': '00:00-23:59', 'Sun': '00:00-23:59'}}",,,store4557,,https://thenorthface.com.au/stores/vic/store4557/dakota-501
" Lido Centre, 673 Glenferrie Rd HAWTHORN, VIC 3122 ",The North Face,,Autrialia,"{'brand': 'The North Face', 'fascia': 'The North Face', 'category': 'Retail', 'edit_date': '2025-05-16', 'lat_lon_source': 'Third Party'}",-37.820553,145.035505,The North Face 1ST PRODUCT,"{'Opening_hours': {'Mon': '00:00-23:59', 'Tue': '00:00-23:59', 'Wed': '00:00-23:59', 'Thu': '00:00-23:59', 'Fri': '00:00-23:59', 'Sat': '00:00-23:59', 'Sun': '00:00-23:59'}}",,,store4535,,https://thenorthface.com.au/stores/vic/store4535/1st-product
" Westfield Doncaster 619, Doncaster Road DONCASTER, VIC 3108 ",The North Face,,Autrialia,"{'brand': 'The North Face', 'fascia': 'The North Face', 'category': 'Retail', 'edit_date': '2025-05-16', 'lat_lon_source': 'Third Party'}",-37.783841,145.12726,The North Face DAVID JONES,"{'Opening_hours': {'Mon': '00:00-23:59', 'Tue': '00:00-23:59', 'Wed': '00:00-23:59', 'Thu': '00:00-23:59', 'Fri': '00:00-23:59', 'Sat': '00:00-23:59', 'Sun': '00:00-23:59'}}",,,store4621,,https://thenorthface.com.au/stores/vic/store4621/david-jones
" 742 Toorak Road HAWTHORN EAST, VIC 3123 ",The North Face,,Autrialia,"{'brand': 'The North Face', 'fascia': 'The North Face', 'category': 'Retail', 'edit_date': '2025-05-16', 'lat_lon_source': 'Third Party'}",-37.845863,145.04186,The North Face ANACONDA,"{'Opening_hours': {'Mon': '00:00-23:59', 'Tue': '00:00-23:59', 'Wed': '00:00-23:59', 'Thu': '00:00-23:59', 'Fri': '00:00-23:59', 'Sat': '00:00-23:59', 'Sun': '00:00-23:59'}}",,,store4536,,https://thenorthface.com.au/stores/vic/store4536/anaconda
" Westfield Doncaster, 619 Doncaster Road DONCASTER, VIC 3108 ",The North Face,,Autrialia,"{'brand': 'The North Face', 'fascia': 'The North Face', 'category': 'Retail', 'edit_date': '2025-05-16', 'lat_lon_source': 'Third Party'}",-37.785641,145.1261,The North Face JD SPORTS,"{'Opening_hours': {'Mon': '00:00-23:59', 'Tue': '00:00-23:59', 'Wed': '00:00-23:59', 'Thu': '00:00-23:59', 'Fri': '00:00-23:59', 'Sat': '00:00-23:59', 'Sun': '00:00-23:59'}}",,,store4523,,https://thenorthface.com.au/stores/vic/store4523/jd-sports
" Shop G134 Westfield Doncaster 619 Doncaster Rd Doncaster, VIC 3108 ",The North Face,,Autrialia,"{'brand': 'The North Face', 'fascia': 'The North Face', 'category': 'Retail', 'edit_date': '2025-05-16', 'lat_lon_source': 'Third Party'}",-37.786375,145.125623,The North Face THE NORTH FACE DONCASTER,"{'Opening_hours': {'Mon': '00:00-23:59', 'Tue': '00:00-23:59', 'Wed': '00:00-23:59', 'Thu': '00:00-23:59', 'Fri': '00:00-23:59', 'Sat': '00:00-23:59', 'Sun': '00:00-23:59'}}",,,store4265,,https://thenorthface.com.au/stores/vic/store4265/the-north-face-doncaster
" 121 High Street MANSFIELD, VIC 3722 ",The North Face,,Autrialia,"{'brand': 'The North Face', 'fascia': 'The North Face', 'category': 'Retail', 'edit_date': '2025-05-16', 'lat_lon_source': 'Third Party'}",-37.051973,146.086519,The North Face SPORTFIRST,"{'Opening_hours': {'Mon': '00:00-23:59', 'Tue': '00:00-23:59', 'Wed': '00:00-23:59', 'Thu': '00:00-23:59', 'Fri': '00:00-23:59', 'Sat': '00:00-23:59', 'Sun': '00:00-23:59'}}",,,store4539,,https://thenorthface.com.au/stores/vic/store4539/sportfirst
" 356 Bay Street BRIGHTON NORTH, VIC 3186 ",The North Face,,Autrialia,"{'brand': 'The North Face', 'fascia': 'The North Face', 'category': 'Retail', 'edit_date': '2025-05-16', 'lat_lon_source': 'Third Party'}",-37.905817,145.004006,The North Face LIGHTWEIGHT TRAVELLER,"{'Opening_hours': {'Mon': '00:00-23:59', 'Tue': '00:00-23:59', 'Wed': '00:00-23:59', 'Thu': '00:00-23:59', 'Fri': '00:00-23:59', 'Sat': '00:00-23:59', 'Sun': '00:00-23:59'}}",,,store4515,,https://thenorthface.com.au/stores/vic/store4515/lightweight-traveller
" 313 Middleborough Road BOX HILL, VIC 3128 ",The North Face,,Autrialia,"{'brand': 'The North Face', 'fascia': 'The North Face', 'category': 'Retail', 'edit_date': '2025-05-16', 'lat_lon_source': 'Third Party'}",-37.832734,145.134914,The North Face ANACONDA,"{'Opening_hours': {'Mon': '00:00-23:59', 'Tue': '00:00-23:59', 'Wed': '00:00-23:59', 'Thu': '00:00-23:59', 'Fri': '00:00-23:59', 'Sat': '00:00-23:59', 'Sun': '00:00-23:59'}}",,,store4514,,https://thenorthface.com.au/stores/vic/store4514/anaconda
" Chadstone Shopping Centre, 1341 Dandenong Road CHADSTONE, VIC 3148 ",The North Face,,Autrialia,"{'brand': 'The North Face', 'fascia': 'The North Face', 'category': 'Retail', 'edit_date': '2025-05-16', 'lat_lon_source': 'Third Party'}",-37.886675,145.080255,The North Face DAVID JONES,"{'Opening_hours': {'Mon': '00:00-23:59', 'Tue': '00:00-23:59', 'Wed': '00:00-23:59', 'Thu': '00:00-23:59', 'Fri': '00:00-23:59', 'Sat': '00:00-23:59', 'Sun': '00:00-23:59'}}",,,store4614,,https://thenorthface.com.au/stores/vic/store4614/david-jones
" Chadstone Shopping Centre, 1341 Dandenong Road CHADSTONE, VIC 3148 ",The North Face,,Autrialia,"{'brand': 'The North Face', 'fascia': 'The North Face', 'category': 'Retail', 'edit_date': '2025-05-16', 'lat_lon_source': 'Third Party'}",-37.885159,145.083143,The North Face THE NORTH FACE CHADSTONE,"{'Opening_hours': {'Mon': '00:00-23:59', 'Tue': '00:00-23:59', 'Wed': '00:00-23:59', 'Thu': '00:00-23:59', 'Fri': '00:00-23:59', 'Sat': '00:00-23:59', 'Sun': '00:00-23:59'}}",,,store4519,,https://thenorthface.com.au/stores/vic/store4519/the-north-face-chadstone
" Chadstone Shopping Centre, 1341 Dandenong Road CHADSTONE, VIC 3148 ",The North Face,,Autrialia,"{'brand': 'The North Face', 'fascia': 'The North Face', 'category': 'Retail', 'edit_date': '2025-05-16', 'lat_lon_source': 'Third Party'}",-37.886873,145.081689,The North Face GENERAL PANTS CO,"{'Opening_hours': {'Mon': '00:00-23:59', 'Tue': '00:00-23:59', 'Wed': '00:00-23:59', 'Thu': '00:00-23:59', 'Fri': '00:00-23:59', 'Sat': '00:00-23:59', 'Sun': '00:00-23:59'}}",,,store4517,,https://thenorthface.com.au/stores/vic/store4517/general-pants-co
" Chadstone Shopping Centre, 1341 Dandenong Road CHADSTONE, VIC 3178 ",The North Face,,Autrialia,"{'brand': 'The North Face', 'fascia': 'The North Face', 'category': 'Retail', 'edit_date': '2025-05-16', 'lat_lon_source': 'Third Party'}",-37.885623,145.084733,The North Face JD SPORTS,"{'Opening_hours': {'Mon': '00:00-23:59', 'Tue': '00:00-23:59', 'Wed': '00:00-23:59', 'Thu': '00:00-23:59', 'Fri': '00:00-23:59', 'Sat': '00:00-23:59', 'Sun': '00:00-23:59'}}",,,JDCHADSTONE,,https://thenorthface.com.au/stores/vic/jdchadstone/jd-sports
" 880 Nepean Highway Hampton East , VIC 3188 ",The North Face,,Autrialia,"{'brand': 'The North Face', 'fascia': 'The North Face', 'category': 'Retail', 'edit_date': '2025-05-16', 'lat_lon_source': 'Third Party'}",-37.934336,145.03521,The North Face VAST OUTDOORS,"{'Opening_hours': {'Mon': '00:00-23:59', 'Tue': '00:00-23:59', 'Wed': '00:00-23:59', 'Thu': '00:00-23:59', 'Fri': '00:00-23:59', 'Sat': '00:00-23:59', 'Sun': '00:00-23:59'}}",,,store4534,,https://thenorthface.com.au/stores/vic/store4534/vast-outdoors
" 88 Maroondah Highway RINGWOOD, VIC 3134 ",The North Face,,Autrialia,"{'brand': 'The North Face', 'fascia': 'The North Face', 'category': 'Retail', 'edit_date': '2025-05-16', 'lat_lon_source': 'Third Party'}",-37.816998,145.225014,The North Face PADDY PALLIN,"{'Opening_hours': {'Mon': '00:00-23:59', 'Tue': '00:00-23:59', 'Wed': '00:00-23:59', 'Thu': '00:00-23:59', 'Fri': '00:00-23:59', 'Sat': '00:00-23:59', 'Sun': '00:00-23:59'}}",,,store4563,,https://thenorthface.com.au/stores/vic/store4563/paddy-pallin
" 214 Blackburn Road GLEN WAVERLEY, VIC 3150 ",The North Face,,Autrialia,"{'brand': 'The North Face', 'fascia': 'The North Face', 'category': 'Retail', 'edit_date': '2025-05-16', 'lat_lon_source': 'Third Party'}",-37.87303,145.148442,The North Face JEDI OUTDOORS,"{'Opening_hours': {'Mon': '00:00-23:59', 'Tue': '00:00-23:59', 'Wed': '00:00-23:59', 'Thu': '00:00-23:59', 'Fri': '00:00-23:59', 'Sat': '00:00-23:59', 'Sun': '00:00-23:59'}}",,,store4533,,https://thenorthface.com.au/stores/vic/store4533/jedi-outdoors
" 1121a Nepean Highway HIGHETT, VIC 3190 ",The North Face,,Autrialia,"{'brand': 'The North Face', 'fascia': 'The North Face', 'category': 'Retail', 'edit_date': '2025-05-16', 'lat_lon_source': 'Third Party'}",-37.946778,145.045892,The North Face ANACONDA,"{'Opening_hours': {'Mon': '00:00-23:59', 'Tue': '00:00-23:59', 'Wed': '00:00-23:59', 'Thu': '00:00-23:59', 'Fri': '00:00-23:59', 'Sat': '00:00-23:59', 'Sun': '00:00-23:59'}}",,,store4537,,https://thenorthface.com.au/stores/vic/store4537/anaconda
" Centro The Glen, 235 High Street Road GLEN WAVERLEY, VIC 3150 ",The North Face,,Autrialia,"{'brand': 'The North Face', 'fascia': 'The North Face', 'category': 'Retail', 'edit_date': '2025-05-16', 'lat_lon_source': 'Third Party'}",-37.876217,145.165039,The North Face DAVID JONES,"{'Opening_hours': {'Mon': '00:00-23:59', 'Tue': '00:00-23:59', 'Wed': '00:00-23:59', 'Thu': '00:00-23:59', 'Fri': '00:00-23:59', 'Sat': '00:00-23:59', 'Sun': '00:00-23:59'}}",,,store4626,,https://thenorthface.com.au/stores/vic/store4626/david-jones
" Westfield Southland, 1239 Nepean Highway CHELTENHAM, VIC 3192 ",The North Face,,Autrialia,"{'brand': 'The North Face', 'fascia': 'The North Face', 'category': 'Retail', 'edit_date': '2025-05-16', 'lat_lon_source': 'Third Party'}",-37.958465,145.054582,The North Face DAVID JONES,"{'Opening_hours': {'Mon': '00:00-23:59', 'Tue': '00:00-23:59', 'Wed': '00:00-23:59', 'Thu': '00:00-23:59', 'Fri': '00:00-23:59', 'Sat': '00:00-23:59', 'Sun': '00:00-23:59'}}",,,store4616,,https://thenorthface.com.au/stores/vic/store4616/david-jones
" 300 Canterbury Road BAYSWATER, VIC 3153 ",The North Face,,Autrialia,"{'brand': 'The North Face', 'fascia': 'The North Face', 'category': 'Retail', 'edit_date': '2025-05-16', 'lat_lon_source': 'Third Party'}",-37.831022,145.26987,The North Face ANACONDA,"{'Opening_hours': {'Mon': '00:00-23:59', 'Tue': '00:00-23:59', 'Wed': '00:00-23:59', 'Thu': '00:00-23:59', 'Fri': '00:00-23:59', 'Sat': '00:00-23:59', 'Sun': '00:00-23:59'}}",,,store4511,,https://thenorthface.com.au/stores/vic/store4511/anaconda
" Springvale Homemaker Centre, 917 Princes Highway (Cnr Westall Road & Princes Highway) SPRINGVALE, VIC 3171 ",The North Face,,Autrialia,"{'brand': 'The North Face', 'fascia': 'The North Face', 'category': 'Retail', 'edit_date': '2025-05-16', 'lat_lon_source': 'Third Party'}",-37.929118,145.143656,The North Face ANACONDA,"{'Opening_hours': {'Mon': '00:00-23:59', 'Tue': '00:00-23:59', 'Wed': '00:00-23:59', 'Thu': '00:00-23:59', 'Fri': '00:00-23:59', 'Sat': '00:00-23:59', 'Sun': '00:00-23:59'}}",,,store4566,,https://thenorthface.com.au/stores/vic/store4566/anaconda
" Stockland Rockhampton, 1 Aquatic Place ROCKHAMPTON, QLD 4700 ",The North Face,,Autrialia,"{'brand': 'The North Face', 'fascia': 'The North Face', 'category': 'Retail', 'edit_date': '2025-05-16', 'lat_lon_source': 'Third Party'}",-23.355473,150.519702,The North Face ANACONDA,"{'Opening_hours': {'Mon': '00:00-23:59', 'Tue': '00:00-23:59', 'Wed': '00:00-23:59', 'Thu': '00:00-23:59', 'Fri': '00:00-23:59', 'Sat': '00:00-23:59', 'Sun': '00:00-23:59'}}",,,store4478,,https://thenorthface.com.au/stores/qld/store4478/anaconda
" Bayside Shopping Centre, 28 Beach Street FRANKSTON, VIC 3199 ",The North Face,,Autrialia,"{'brand': 'The North Face', 'fascia': 'The North Face', 'category': 'Retail', 'edit_date': '2025-05-16', 'lat_lon_source': 'Third Party'}",-38.141138,145.124648,The North Face JD SPORTS,"{'Opening_hours': {'Mon': '00:00-23:59', 'Tue': '00:00-23:59', 'Wed': '00:00-23:59', 'Thu': '00:00-23:59', 'Fri': '00:00-23:59', 'Sat': '00:00-23:59', 'Sun': '00:00-23:59'}}",,,store4530,,https://thenorthface.com.au/stores/vic/store4530/jd-sports
" Westfield Fountain Gate, 352 Princes Highway FOUNTAIN GATE, VIC 3805 ",The North Face,,Autrialia,"{'brand': 'The North Face', 'fascia': 'The North Face', 'category': 'Retail', 'edit_date': '2025-05-16', 'lat_lon_source': 'Third Party'}",-38.01755,145.304661,The North Face GENERAL PANTS CO,"{'Opening_hours': {'Mon': '00:00-23:59', 'Tue': '00:00-23:59', 'Wed': '00:00-23:59', 'Thu': '00:00-23:59', 'Fri': '00:00-23:59', 'Sat': '00:00-23:59', 'Sun': '00:00-23:59'}}",,,store4526,,https://thenorthface.com.au/stores/vic/store4526/general-pants-co
" Casey Lifestyle Centre, 430 Princes Highway NARRE WARREN, VIC 3805 ",The North Face,,Autrialia,"{'brand': 'The North Face', 'fascia': 'The North Face', 'category': 'Retail', 'edit_date': '2025-05-16', 'lat_lon_source': 'Third Party'}",-38.02498,145.308113,The North Face ANACONDA,"{'Opening_hours': {'Mon': '00:00-23:59', 'Tue': '00:00-23:59', 'Wed': '00:00-23:59', 'Thu': '00:00-23:59', 'Fri': '00:00-23:59', 'Sat': '00:00-23:59', 'Sun': '00:00-23:59'}}",,,store4555,,https://thenorthface.com.au/stores/vic/store4555/anaconda
" Frankston Power Centre, 111 Cranbourne Road FRANKSTON, VIC 3199 ",The North Face,,Autrialia,"{'brand': 'The North Face', 'fascia': 'The North Face', 'category': 'Retail', 'edit_date': '2025-05-16', 'lat_lon_source': 'Third Party'}",-38.149737,145.138024,The North Face ANACONDA,"{'Opening_hours': {'Mon': '00:00-23:59', 'Tue': '00:00-23:59', 'Wed': '00:00-23:59', 'Thu': '00:00-23:59', 'Fri': '00:00-23:59', 'Sat': '00:00-23:59', 'Sun': '00:00-23:59'}}",,,store4529,,https://thenorthface.com.au/stores/vic/store4529/anaconda
" 2a Kiewa Crescent MOUNT BEAUTY, VIC 3699 ",The North Face,,Autrialia,"{'brand': 'The North Face', 'fascia': 'The North Face', 'category': 'Retail', 'edit_date': '2025-05-16', 'lat_lon_source': 'Third Party'}",-36.742821,147.169734,The North Face ALPINE OUTFITTERS & POST,"{'Opening_hours': {'Mon': '00:00-23:59', 'Tue': '00:00-23:59', 'Wed': '00:00-23:59', 'Thu': '00:00-23:59', 'Fri': '00:00-23:59', 'Sat': '00:00-23:59', 'Sun': '00:00-23:59'}}",,,store4554,,https://thenorthface.com.au/stores/vic/store4554/alpine-outfitters-&-post
" 6 Lonsdale Street BRADDON, ACT 2612 ",The North Face,,Autrialia,"{'brand': 'The North Face', 'fascia': 'The North Face', 'category': 'Retail', 'edit_date': '2025-05-16', 'lat_lon_source': 'Third Party'}",-35.275205,149.132667,The North Face PADDY PALLIN,"{'Opening_hours': {'Mon': '00:00-23:59', 'Tue': '00:00-23:59', 'Wed': '00:00-23:59', 'Thu': '00:00-23:59', 'Fri': '00:00-23:59', 'Sat': '00:00-23:59', 'Sun': '00:00-23:59'}}",,,store4320,,https://thenorthface.com.au/stores/act/store4320/paddy-pallin
" Canberra Centre, 260-262 Alinga Street CANBERRA, ACT 2608 ",The North Face,,Autrialia,"{'brand': 'The North Face', 'fascia': 'The North Face', 'category': 'Retail', 'edit_date': '2025-05-16', 'lat_lon_source': 'Third Party'}",-35.279778,149.132857,The North Face DAVID JONES,"{'Opening_hours': {'Mon': '00:00-23:59', 'Tue': '00:00-23:59', 'Wed': '00:00-23:59', 'Thu': '00:00-23:59', 'Fri': '00:00-23:59', 'Sat': '00:00-23:59', 'Sun': '00:00-23:59'}}",,,store4612,,https://thenorthface.com.au/stores/act/store4612/david-jones
" Canberra Civic, 148 Bunda Street CANBERRA, ACT 2601 ",The North Face,,Autrialia,"{'brand': 'The North Face', 'fascia': 'The North Face', 'category': 'Retail', 'edit_date': '2025-05-16', 'lat_lon_source': 'Third Party'}",-35.280539,149.133019,The North Face GENERAL PANTS CO,"{'Opening_hours': {'Mon': '00:00-23:59', 'Tue': '00:00-23:59', 'Wed': '00:00-23:59', 'Thu': '00:00-23:59', 'Fri': '00:00-23:59', 'Sat': '00:00-23:59', 'Sun': '00:00-23:59'}}",,,store4321,,https://thenorthface.com.au/stores/act/store4321/general-pants-co
" Canberra Centre, 148 Bunda Street CANBERRA, ACT 2600 ",The North Face,,Autrialia,"{'brand': 'The North Face', 'fascia': 'The North Face', 'category': 'Retail', 'edit_date': '2025-05-16', 'lat_lon_source': 'Third Party'}",-35.279584,149.133752,The North Face THE NORTH FACE CANBERRA,"{'Opening_hours': {'Mon': '00:00-23:59', 'Tue': '00:00-23:59', 'Wed': '00:00-23:59', 'Thu': '00:00-23:59', 'Fri': '00:00-23:59', 'Sat': '00:00-23:59', 'Sun': '00:00-23:59'}}",,,store4323,,https://thenorthface.com.au/stores/act/store4323/the-north-face-canberra
" Westfield Woden, Bradley Street PHILLIP, ACT 2606 ",The North Face,,Autrialia,"{'brand': 'The North Face', 'fascia': 'The North Face', 'category': 'Retail', 'edit_date': '2025-05-16', 'lat_lon_source': 'Third Party'}",-35.345818,149.086528,The North Face DAVID JONES,"{'Opening_hours': {'Mon': '00:00-23:59', 'Tue': '00:00-23:59', 'Wed': '00:00-23:59', 'Thu': '00:00-23:59', 'Fri': '00:00-23:59', 'Sat': '00:00-23:59', 'Sun': '00:00-23:59'}}",,,store4652,,https://thenorthface.com.au/stores/act/store4652/david-jones
" 36 Iron Knob Street FYSHWICK, ACT 2609 ",The North Face,,Autrialia,"{'brand': 'The North Face', 'fascia': 'The North Face', 'category': 'Retail', 'edit_date': '2025-05-16', 'lat_lon_source': 'Third Party'}",-35.338851,149.181783,The North Face ANACONDA,"{'Opening_hours': {'Mon': '00:00-23:59', 'Tue': '00:00-23:59', 'Wed': '00:00-23:59', 'Thu': '00:00-23:59', 'Fri': '00:00-23:59', 'Sat': '00:00-23:59', 'Sun': '00:00-23:59'}}",,,store4324,,https://thenorthface.com.au/stores/act/store4324/anaconda
" Valley Terminal, 2d Friday Drive THREDBO, NSW 2625 ",The North Face,,Autrialia,"{'brand': 'The North Face', 'fascia': 'The North Face', 'category': 'Retail', 'edit_date': '2025-05-16', 'lat_lon_source': 'Third Party'}",-36.504098,148.303658,The North Face THREDBO SPORTS,"{'Opening_hours': {'Mon': '00:00-23:59', 'Tue': '00:00-23:59', 'Wed': '00:00-23:59', 'Thu': '00:00-23:59', 'Fri': '00:00-23:59', 'Sat': '00:00-23:59', 'Sun': '00:00-23:59'}}",,,store4423,,https://thenorthface.com.au/stores/nsw/store4423/thredbo-sports
" 86 Katoomba Street KATOOMBA, NSW 2780 ",The North Face,,Autrialia,"{'brand': 'The North Face', 'fascia': 'The North Face', 'category': 'Retail', 'edit_date': '2025-05-16', 'lat_lon_source': 'Third Party'}",-33.71402,150.311889,The North Face SUMMIT GEAR,"{'Opening_hours': {'Mon': '00:00-23:59', 'Tue': '00:00-23:59', 'Wed': '00:00-23:59', 'Thu': '00:00-23:59', 'Fri': '00:00-23:59', 'Sat': '00:00-23:59', 'Sun': '00:00-23:59'}}",,,store4382,,https://thenorthface.com.au/stores/nsw/store4382/summit-gear
" Harvey Norman Centre, 910 Ruthven Street TOOWOOMBA SOUTH, QLD 4350 ",The North Face,,Autrialia,"{'brand': 'The North Face', 'fascia': 'The North Face', 'category': 'Retail', 'edit_date': '2025-05-16', 'lat_lon_source': 'Third Party'}",-27.596807,151.948063,The North Face ANACONDA,"{'Opening_hours': {'Mon': '00:00-23:59', 'Tue': '00:00-23:59', 'Wed': '00:00-23:59', 'Thu': '00:00-23:59', 'Fri': '00:00-23:59', 'Sat': '00:00-23:59', 'Sun': '00:00-23:59'}}",,,store4482,,https://thenorthface.com.au/stores/qld/store4482/anaconda
" 184 Albany Highway ALBANY, WA 6330 ",The North Face,,Autrialia,"{'brand': 'The North Face', 'fascia': 'The North Face', 'category': 'Retail', 'edit_date': '2025-05-16', 'lat_lon_source': 'Third Party'}",-35.014815,117.875589,The North Face TRAILBLAZERS,"{'Opening_hours': {'Mon': '00:00-23:59', 'Tue': '00:00-23:59', 'Wed': '00:00-23:59', 'Thu': '00:00-23:59', 'Fri': '00:00-23:59', 'Sat': '00:00-23:59', 'Sun': '00:00-23:59'}}",,,store4602,,https://thenorthface.com.au/stores/wa/store4602/trailblazers
" Nuggets Crossing Shopping Centre, 131 Snowy River Avenue JINDABYNE, NSW 2627 ",The North Face,,Autrialia,"{'brand': 'The North Face', 'fascia': 'The North Face', 'category': 'Retail', 'edit_date': '2025-05-16', 'lat_lon_source': 'Third Party'}",-36.413967,148.620594,The North Face FIRST TRACKS SNOWBOARDS,"{'Opening_hours': {'Mon': '00:00-23:59', 'Tue': '00:00-23:59', 'Wed': '00:00-23:59', 'Thu': '00:00-23:59', 'Fri': '00:00-23:59', 'Sat': '00:00-23:59', 'Sun': '00:00-23:59'}}",,,FIRSTTRACKS,,https://thenorthface.com.au/stores/nsw/firsttracks/first-tracks-snowboards
" Jindabyne Town Centre, Kosciuszko Road JINDABYNE, NSW 2627 ",The North Face,,Autrialia,"{'brand': 'The North Face', 'fascia': 'The North Face', 'category': 'Retail', 'edit_date': '2025-05-16', 'lat_lon_source': 'Third Party'}",-36.415709,148.623592,The North Face JINDABYNE SPORTS,"{'Opening_hours': {'Mon': '00:00-23:59', 'Tue': '00:00-23:59', 'Wed': '00:00-23:59', 'Thu': '00:00-23:59', 'Fri': '00:00-23:59', 'Sat': '00:00-23:59', 'Sun': '00:00-23:59'}}",,,store4380,,https://thenorthface.com.au/stores/nsw/store4380/jindabyne-sports
" 19a Ross Street GLENBROOK, NSW 2773 ",The North Face,,Autrialia,"{'brand': 'The North Face', 'fascia': 'The North Face', 'category': 'Retail', 'edit_date': '2025-05-16', 'lat_lon_source': 'Third Party'}",-33.767478,150.621643,The North Face BLUE MOUNTAINS RUNNING COMPANY,"{'Opening_hours': {'Mon': '00:00-23:59', 'Tue': '00:00-23:59', 'Wed': '00:00-23:59', 'Thu': '00:00-23:59', 'Fri': '00:00-23:59', 'Sat': '00:00-23:59', 'Sun': '00:00-23:59'}}",,,store4373,,https://thenorthface.com.au/stores/nsw/store4373/blue-mountains-running-company
" Penrith Homemaker Centre, 13-23 Pattys Place JAMISONTOWN, NSW 2750 ",The North Face,,Autrialia,"{'brand': 'The North Face', 'fascia': 'The North Face', 'category': 'Retail', 'edit_date': '2025-05-16', 'lat_lon_source': 'Third Party'}",-33.769722,150.672306,The North Face ANACONDA,"{'Opening_hours': {'Mon': '00:00-23:59', 'Tue': '00:00-23:59', 'Wed': '00:00-23:59', 'Thu': '00:00-23:59', 'Fri': '00:00-23:59', 'Sat': '00:00-23:59', 'Sun': '00:00-23:59'}}",,,store4379,,https://thenorthface.com.au/stores/nsw/store4379/anaconda
" Westfield Penrith, 585 High Street PENRITH, NSW 2750 ",The North Face,,Autrialia,"{'brand': 'The North Face', 'fascia': 'The North Face', 'category': 'Retail', 'edit_date': '2025-05-16', 'lat_lon_source': 'Third Party'}",-33.751662,150.693781,The North Face JD SPORTS,"{'Opening_hours': {'Mon': '00:00-23:59', 'Tue': '00:00-23:59', 'Wed': '00:00-23:59', 'Thu': '00:00-23:59', 'Fri': '00:00-23:59', 'Sat': '00:00-23:59', 'Sun': '00:00-23:59'}}",,,store4410,,https://thenorthface.com.au/stores/nsw/store4410/jd-sports
" 7 Clayton Street MIDLAND, WA 6056 ",The North Face,,Autrialia,"{'brand': 'The North Face', 'fascia': 'The North Face', 'category': 'Retail', 'edit_date': '2025-05-16', 'lat_lon_source': 'Third Party'}",-31.897868,116.017714,The North Face ANACONDA,"{'Opening_hours': {'Mon': '00:00-23:59', 'Tue': '00:00-23:59', 'Wed': '00:00-23:59', 'Thu': '00:00-23:59', 'Fri': '00:00-23:59', 'Sat': '00:00-23:59', 'Sun': '00:00-23:59'}}",,,store4587,,https://thenorthface.com.au/stores/wa/store4587/anaconda
" 8 Sharp Street COOMA, NSW 2630 ",The North Face,,Autrialia,"{'brand': 'The North Face', 'fascia': 'The North Face', 'category': 'Retail', 'edit_date': '2025-05-16', 'lat_lon_source': 'Third Party'}",-36.230423,149.134451,The North Face RHYTHM SPORTS,"{'Opening_hours': {'Mon': '00:00-23:59', 'Tue': '00:00-23:59', 'Wed': '00:00-23:59', 'Thu': '00:00-23:59', 'Fri': '00:00-23:59', 'Sat': '00:00-23:59', 'Sun': '00:00-23:59'}}",,,store4365,,https://thenorthface.com.au/stores/nsw/store4365/rhythm-sports
" 17/43 Hollinsworth Road MARSDEN PARK, NSW 2765 ",The North Face,,Autrialia,"{'brand': 'The North Face', 'fascia': 'The North Face', 'category': 'Retail', 'edit_date': '2025-05-16', 'lat_lon_source': 'Third Party'}",-33.721777,150.841994,The North Face ANACONDA,"{'Opening_hours': {'Mon': '00:00-23:59', 'Tue': '00:00-23:59', 'Wed': '00:00-23:59', 'Thu': '00:00-23:59', 'Fri': '00:00-23:59', 'Sat': '00:00-23:59', 'Sun': '00:00-23:59'}}",,,store4392,,https://thenorthface.com.au/stores/nsw/store4392/anaconda
" Westfield Shopping Centre, 48 Carlisle Avenue & Luxford Road MOUNT DRUITT, NSW 2770 ",The North Face,,Autrialia,"{'brand': 'The North Face', 'fascia': 'The North Face', 'category': 'Retail', 'edit_date': '2025-05-16', 'lat_lon_source': 'Third Party'}",-33.766543,150.81994,The North Face JD SPORTS,"{'Opening_hours': {'Mon': '00:00-23:59', 'Tue': '00:00-23:59', 'Wed': '00:00-23:59', 'Thu': '00:00-23:59', 'Fri': '00:00-23:59', 'Sat': '00:00-23:59', 'Sun': '00:00-23:59'}}",,,store4399,,https://thenorthface.com.au/stores/nsw/store4399/jd-sports
" 50 William Stree BECKENHAM, WA 6107 ",The North Face,,Autrialia,"{'brand': 'The North Face', 'fascia': 'The North Face', 'category': 'Retail', 'edit_date': '2025-05-16', 'lat_lon_source': 'Third Party'}",-32.02387,115.954379,The North Face ANACONDA,"{'Opening_hours': {'Mon': '00:00-23:59', 'Tue': '00:00-23:59', 'Wed': '00:00-23:59', 'Thu': '00:00-23:59', 'Fri': '00:00-23:59', 'Sat': '00:00-23:59', 'Sun': '00:00-23:59'}}",,,store4571,,https://thenorthface.com.au/stores/wa/store4571/anaconda
" Westfield Carousel, 1382 Albany Highway CANNINGTON, WA 6107 ",The North Face,,Autrialia,"{'brand': 'The North Face', 'fascia': 'The North Face', 'category': 'Retail', 'edit_date': '2025-05-16', 'lat_lon_source': 'Third Party'}",-32.020986,115.938797,The North Face JD SPORTS,"{'Opening_hours': {'Mon': '00:00-23:59', 'Tue': '00:00-23:59', 'Wed': '00:00-23:59', 'Thu': '00:00-23:59', 'Fri': '00:00-23:59', 'Sat': '00:00-23:59', 'Sun': '00:00-23:59'}}",,,store4578,,https://thenorthface.com.au/stores/wa/store4578/jd-sports
" Westfield Carousel, 1382 Albany Highway CANNINGTON, WA 6107 ",The North Face,,Autrialia,"{'brand': 'The North Face', 'fascia': 'The North Face', 'category': 'Retail', 'edit_date': '2025-05-16', 'lat_lon_source': 'Third Party'}",-32.020249,115.938404,The North Face HOPP FOOTWEAR,"{'Opening_hours': {'Mon': '00:00-23:59', 'Tue': '00:00-23:59', 'Wed': '00:00-23:59', 'Thu': '00:00-23:59', 'Fri': '00:00-23:59', 'Sat': '00:00-23:59', 'Sun': '00:00-23:59'}}",,,store4576,,https://thenorthface.com.au/stores/wa/store4576/hopp-footwear
" Narellan Town Centre, 326 Camden Valley Way NARELLAN, NSW 2567 ",The North Face,,Autrialia,"{'brand': 'The North Face', 'fascia': 'The North Face', 'category': 'Retail', 'edit_date': '2025-05-16', 'lat_lon_source': 'Third Party'}",-34.042652,150.736606,The North Face SCHMICK1,"{'Opening_hours': {'Mon': '00:00-23:59', 'Tue': '00:00-23:59', 'Wed': '00:00-23:59', 'Thu': '00:00-23:59', 'Fri': '00:00-23:59', 'Sat': '00:00-23:59', 'Sun': '00:00-23:59'}}",,,store4401,,https://thenorthface.com.au/stores/nsw/store4401/schmick1
" 3/544 Beaufort Street MOUNT LAWLEY, WA 6050 ",The North Face,,Autrialia,"{'brand': 'The North Face', 'fascia': 'The North Face', 'category': 'Retail', 'edit_date': '2025-05-16', 'lat_lon_source': 'Third Party'}",-31.937506,115.870543,The North Face HIGHS & LOWS,"{'Opening_hours': {'Mon': '00:00-23:59', 'Tue': '00:00-23:59', 'Wed': '00:00-23:59', 'Thu': '00:00-23:59', 'Fri': '00:00-23:59', 'Sat': '00:00-23:59', 'Sun': '00:00-23:59'}}",,,store4588,,https://thenorthface.com.au/stores/wa/store4588/highs-&-lows
" Westpoint Shopping Centre, 17 Patrick Street BLACKTOWN, NSW 2148 ",The North Face,,Autrialia,"{'brand': 'The North Face', 'fascia': 'The North Face', 'category': 'Retail', 'edit_date': '2025-05-16', 'lat_lon_source': 'Third Party'}",-33.769413,150.90587,The North Face URBAN EQUIPMENT,"{'Opening_hours': {'Mon': '00:00-23:59', 'Tue': '00:00-23:59', 'Wed': '00:00-23:59', 'Thu': '00:00-23:59', 'Fri': '00:00-23:59', 'Sat': '00:00-23:59', 'Sun': '00:00-23:59'}}",,,UEBLACKTOWN,,https://thenorthface.com.au/stores/nsw/ueblacktown/urban-equipment
" Westpoint Shopping Centre, 17 Patrick Street BLACKTOWN, NSW 2148 ",The North Face,,Autrialia,"{'brand': 'The North Face', 'fascia': 'The North Face', 'category': 'Retail', 'edit_date': '2025-05-16', 'lat_lon_source': 'Third Party'}",-33.770086,150.905907,The North Face JD SPORTS,"{'Opening_hours': {'Mon': '00:00-23:59', 'Tue': '00:00-23:59', 'Wed': '00:00-23:59', 'Thu': '00:00-23:59', 'Fri': '00:00-23:59', 'Sat': '00:00-23:59', 'Sun': '00:00-23:59'}}",,,JDBlacktown,,https://thenorthface.com.au/stores/nsw/jdblacktown/jd-sports
" 622 Hay Street PERTH, WA 6000 ",The North Face,,Autrialia,"{'brand': 'The North Face', 'fascia': 'The North Face', 'category': 'Retail', 'edit_date': '2025-05-16', 'lat_lon_source': 'Third Party'}",-31.953829,115.859892,The North Face DAVID JONES,"{'Opening_hours': {'Mon': '00:00-23:59', 'Tue': '00:00-23:59', 'Wed': '00:00-23:59', 'Thu': '00:00-23:59', 'Fri': '00:00-23:59', 'Sat': '00:00-23:59', 'Sun': '00:00-23:59'}}",,,store4651,,https://thenorthface.com.au/stores/wa/store4651/david-jones
" Carillon City, 195 Murray Street PERTH, WA 6000 ",The North Face,,Autrialia,"{'brand': 'The North Face', 'fascia': 'The North Face', 'category': 'Retail', 'edit_date': '2025-05-16', 'lat_lon_source': 'Third Party'}",-31.953207,115.85949,The North Face GENERAL PANTS CO,"{'Opening_hours': {'Mon': '00:00-23:59', 'Tue': '00:00-23:59', 'Wed': '00:00-23:59', 'Thu': '00:00-23:59', 'Fri': '00:00-23:59', 'Sat': '00:00-23:59', 'Sun': '00:00-23:59'}}",,,store4590,,https://thenorthface.com.au/stores/wa/store4590/general-pants-co
" 667 Hay Street Mall PERTH, WA 6000 ",The North Face,,Autrialia,"{'brand': 'The North Face', 'fascia': 'The North Face', 'category': 'Retail', 'edit_date': '2025-05-16', 'lat_lon_source': 'Third Party'}",-31.954058,115.858666,The North Face JD SPORTS,"{'Opening_hours': {'Mon': '00:00-23:59', 'Tue': '00:00-23:59', 'Wed': '00:00-23:59', 'Thu': '00:00-23:59', 'Fri': '00:00-23:59', 'Sat': '00:00-23:59', 'Sun': '00:00-23:59'}}",,,JDPERTH,,https://thenorthface.com.au/stores/wa/jdperth/jd-sports
" 75 King Street PERTH, WA 6000 ",The North Face,,Autrialia,"{'brand': 'The North Face', 'fascia': 'The North Face', 'category': 'Retail', 'edit_date': '2025-05-16', 'lat_lon_source': 'Third Party'}",-31.950969,115.855388,The North Face HIGHS & LOWS,"{'Opening_hours': {'Mon': '00:00-23:59', 'Tue': '00:00-23:59', 'Wed': '00:00-23:59', 'Thu': '00:00-23:59', 'Fri': '00:00-23:59', 'Sat': '00:00-23:59', 'Sun': '00:00-23:59'}}",,,store4591,,https://thenorthface.com.au/stores/wa/store4591/highs-&-lows
" 884 Hay Street PERTH, WA 6000 ",The North Face,,Autrialia,"{'brand': 'The North Face', 'fascia': 'The North Face', 'category': 'Retail', 'edit_date': '2025-05-16', 'lat_lon_source': 'Third Party'}",-31.952228,115.853159,The North Face PADDY PALLIN,"{'Opening_hours': {'Mon': '00:00-23:59', 'Tue': '00:00-23:59', 'Wed': '00:00-23:59', 'Thu': '00:00-23:59', 'Fri': '00:00-23:59', 'Sat': '00:00-23:59', 'Sun': '00:00-23:59'}}",,,store4593,,https://thenorthface.com.au/stores/wa/store4593/paddy-pallin
" Lakeside Joondalup Shopping City, 420 Joondalup Drive JOONDALUP, WA 6027 ",The North Face,,Autrialia,"{'brand': 'The North Face', 'fascia': 'The North Face', 'category': 'Retail', 'edit_date': '2025-05-16', 'lat_lon_source': 'Third Party'}",-31.7434,115.767412,The North Face JD SPORTS,"{'Opening_hours': {'Mon': '00:00-23:59', 'Tue': '00:00-23:59', 'Wed': '00:00-23:59', 'Thu': '00:00-23:59', 'Fri': '00:00-23:59', 'Sat': '00:00-23:59', 'Sun': '00:00-23:59'}}",,,JDJOONDALUP,,https://thenorthface.com.au/stores/wa/jdjoondalup/jd-sports
" 11 Injune Way JOONDALUP, WA 6027 ",The North Face,,Autrialia,"{'brand': 'The North Face', 'fascia': 'The North Face', 'category': 'Retail', 'edit_date': '2025-05-16', 'lat_lon_source': 'Third Party'}",-31.756766,115.770648,The North Face ANACONDA,"{'Opening_hours': {'Mon': '00:00-23:59', 'Tue': '00:00-23:59', 'Wed': '00:00-23:59', 'Thu': '00:00-23:59', 'Fri': '00:00-23:59', 'Sat': '00:00-23:59', 'Sun': '00:00-23:59'}}",,,store4583,,https://thenorthface.com.au/stores/wa/store4583/anaconda
" Stocklands Wetherill Park Shopping Centre, 561-583 Polding Street WETHERILL PARK, NSW 2164 ",The North Face,,Autrialia,"{'brand': 'The North Face', 'fascia': 'The North Face', 'category': 'Retail', 'edit_date': '2025-05-16', 'lat_lon_source': 'Third Party'}",-33.858527,150.898882,The North Face JD SPORTS,"{'Opening_hours': {'Mon': '00:00-23:59', 'Tue': '00:00-23:59', 'Wed': '00:00-23:59', 'Thu': '00:00-23:59', 'Fri': '00:00-23:59', 'Sat': '00:00-23:59', 'Sun': '00:00-23:59'}}",,,JDWETHERILLPARK,,https://thenorthface.com.au/stores/nsw/jdwetherillpark/jd-sports
" 401 Scarborough Beach Road INNALOO, WA 6018 ",The North Face,,Autrialia,"{'brand': 'The North Face', 'fascia': 'The North Face', 'category': 'Retail', 'edit_date': '2025-05-16', 'lat_lon_source': 'Third Party'}",-31.903643,115.800474,The North Face ANACONDA,"{'Opening_hours': {'Mon': '00:00-23:59', 'Tue': '00:00-23:59', 'Wed': '00:00-23:59', 'Thu': '00:00-23:59', 'Fri': '00:00-23:59', 'Sat': '00:00-23:59', 'Sun': '00:00-23:59'}}",,,store4582,,https://thenorthface.com.au/stores/wa/store4582/anaconda
" 33 Ardross Street APPLECROSS, WA 6153 ",The North Face,,Autrialia,"{'brand': 'The North Face', 'fascia': 'The North Face', 'category': 'Retail', 'edit_date': '2025-05-16', 'lat_lon_source': 'Third Party'}",-32.009891,115.834459,The North Face HYPERLUXE,"{'Opening_hours': {'Mon': '00:00-23:59', 'Tue': '00:00-23:59', 'Wed': '00:00-23:59', 'Thu': '00:00-23:59', 'Fri': '00:00-23:59', 'Sat': '00:00-23:59', 'Sun': '00:00-23:59'}}",,,HYPERLUXE6153,,https://thenorthface.com.au/stores/wa/hyperluxe6153/hyperluxe
" Macarthur Square Shopping Centre, 200 Gilchrist Drive CAMPBELLTOWN, NSW 2560 ",The North Face,,Autrialia,"{'brand': 'The North Face', 'fascia': 'The North Face', 'category': 'Retail', 'edit_date': '2025-05-16', 'lat_lon_source': 'Third Party'}",-34.074596,150.797663,The North Face OXYWEAR,"{'Opening_hours': {'Mon': '00:00-23:59', 'Tue': '00:00-23:59', 'Wed': '00:00-23:59', 'Thu': '00:00-23:59', 'Fri': '00:00-23:59', 'Sat': '00:00-23:59', 'Sun': '00:00-23:59'}}",,,OXYWEAR,,https://thenorthface.com.au/stores/nsw/oxywear/oxywear
" Macarthur Square Shopping Centre, 200 Gilchrist Drive CAMPBELLTOWN, NSW 2560 ",The North Face,,Autrialia,"{'brand': 'The North Face', 'fascia': 'The North Face', 'category': 'Retail', 'edit_date': '2025-05-16', 'lat_lon_source': 'Third Party'}",-34.074829,150.797835,The North Face JD SPORTS,"{'Opening_hours': {'Mon': '00:00-23:59', 'Tue': '00:00-23:59', 'Wed': '00:00-23:59', 'Thu': '00:00-23:59', 'Fri': '00:00-23:59', 'Sat': '00:00-23:59', 'Sun': '00:00-23:59'}}",,,store4355,,https://thenorthface.com.au/stores/nsw/store4355/jd-sports
" Macarthur Square Shopping Centre, 200 Gilchrist Drive CAMPBELLTOWN, NSW 2560 ",The North Face,,Autrialia,"{'brand': 'The North Face', 'fascia': 'The North Face', 'category': 'Retail', 'edit_date': '2025-05-16', 'lat_lon_source': 'Third Party'}",-34.07548,150.797669,The North Face TODAYS MAN MENSWEAR,"{'Opening_hours': {'Mon': '00:00-23:59', 'Tue': '00:00-23:59', 'Wed': '00:00-23:59', 'Thu': '00:00-23:59', 'Fri': '00:00-23:59', 'Sat': '00:00-23:59', 'Sun': '00:00-23:59'}}",,,store4356,,https://thenorthface.com.au/stores/nsw/store4356/todays-man-menswear
" Karrinyup Shopping Centre, 200 Karrinyup Road KARRINYUP, WA 6018 ",The North Face,,Autrialia,"{'brand': 'The North Face', 'fascia': 'The North Face', 'category': 'Retail', 'edit_date': '2025-05-16', 'lat_lon_source': 'Third Party'}",-31.877685,115.778276,The North Face HYPERLUXE,"{'Opening_hours': {'Mon': '00:00-23:59', 'Tue': '00:00-23:59', 'Wed': '00:00-23:59', 'Thu': '00:00-23:59', 'Fri': '00:00-23:59', 'Sat': '00:00-23:59', 'Sun': '00:00-23:59'}}",,,HYPERLUXE6018,,https://thenorthface.com.au/stores/wa/hyperluxe6018/hyperluxe
" 22b Blaxland Road CAMPBELLTOWN, NSW 2560 ",The North Face,,Autrialia,"{'brand': 'The North Face', 'fascia': 'The North Face', 'category': 'Retail', 'edit_date': '2025-05-16', 'lat_lon_source': 'Third Party'}",-34.058083,150.816829,The North Face ANACONDA,"{'Opening_hours': {'Mon': '00:00-23:59', 'Tue': '00:00-23:59', 'Wed': '00:00-23:59', 'Thu': '00:00-23:59', 'Fri': '00:00-23:59', 'Sat': '00:00-23:59', 'Sun': '00:00-23:59'}}",,,store4353,,https://thenorthface.com.au/stores/nsw/store4353/anaconda
" Butler Boulevard & Marmion Avenue BUTLER, WA 6036 ",The North Face,,Autrialia,"{'brand': 'The North Face', 'fascia': 'The North Face', 'category': 'Retail', 'edit_date': '2025-05-16', 'lat_lon_source': 'Third Party'}",-31.638365,115.693757,The North Face ANACONDA,"{'Opening_hours': {'Mon': '00:00-23:59', 'Tue': '00:00-23:59', 'Wed': '00:00-23:59', 'Thu': '00:00-23:59', 'Fri': '00:00-23:59', 'Sat': '00:00-23:59', 'Sun': '00:00-23:59'}}",,,store4575,,https://thenorthface.com.au/stores/wa/store4575/anaconda
" Cockburn Gateway Shopping City, 816 Beeliar Drive PERTH COCKBURN, WA 6164 ",The North Face,,Autrialia,"{'brand': 'The North Face', 'fascia': 'The North Face', 'category': 'Retail', 'edit_date': '2025-05-16', 'lat_lon_source': 'Third Party'}",-32.130692,115.857303,The North Face JD SPORTS,"{'Opening_hours': {'Mon': '00:00-23:59', 'Tue': '00:00-23:59', 'Wed': '00:00-23:59', 'Thu': '00:00-23:59', 'Fri': '00:00-23:59', 'Sat': '00:00-23:59', 'Sun': '00:00-23:59'}}",,,JDPERTHCOCKBURN,,https://thenorthface.com.au/stores/wa/jdperthcockburn/jd-sports
" 276 Leach Highway BOORAGOON, WA 6154 ",The North Face,,Autrialia,"{'brand': 'The North Face', 'fascia': 'The North Face', 'category': 'Retail', 'edit_date': '2025-05-16', 'lat_lon_source': 'Third Party'}",-32.044084,115.825155,The North Face ANACONDA,"{'Opening_hours': {'Mon': '00:00-23:59', 'Tue': '00:00-23:59', 'Wed': '00:00-23:59', 'Thu': '00:00-23:59', 'Fri': '00:00-23:59', 'Sat': '00:00-23:59', 'Sun': '00:00-23:59'}}",,,store4572,,https://thenorthface.com.au/stores/wa/store4572/anaconda
" Unit 2, 109 Flora Terrace NORTH BEACH, WA 6020 ",The North Face,,Autrialia,"{'brand': 'The North Face', 'fascia': 'The North Face', 'category': 'Retail', 'edit_date': '2025-05-16', 'lat_lon_source': 'Third Party'}",-31.85581,115.754368,The North Face HYPERLUXE,"{'Opening_hours': {'Mon': '00:00-23:59', 'Tue': '00:00-23:59', 'Wed': '00:00-23:59', 'Thu': '00:00-23:59', 'Fri': '00:00-23:59', 'Sat': '00:00-23:59', 'Sun': '00:00-23:59'}}",,,HYPERLUXE6020,,https://thenorthface.com.au/stores/wa/hyperluxe6020/hyperluxe
" Castle Towers, 6-14 Castle Street CASTLE HILL, NSW 2154 ",The North Face,,Autrialia,"{'brand': 'The North Face', 'fascia': 'The North Face', 'category': 'Retail', 'edit_date': '2025-05-16', 'lat_lon_source': 'Third Party'}",-33.730803,151.00678,The North Face DAVID JONES,"{'Opening_hours': {'Mon': '00:00-23:59', 'Tue': '00:00-23:59', 'Wed': '00:00-23:59', 'Thu': '00:00-23:59', 'Fri': '00:00-23:59', 'Sat': '00:00-23:59', 'Sun': '00:00-23:59'}}",,,store4613,,https://thenorthface.com.au/stores/nsw/store4613/david-jones
" 52 McCoy Street MYAREE, WA 6154 ",The North Face,,Autrialia,"{'brand': 'The North Face', 'fascia': 'The North Face', 'category': 'Retail', 'edit_date': '2025-05-16', 'lat_lon_source': 'Third Party'}",-32.043363,115.814963,The North Face RUNNING WAREHOUSE AUSTRALIA,"{'Opening_hours': {'Mon': '00:00-23:59', 'Tue': '00:00-23:59', 'Wed': '00:00-23:59', 'Thu': '00:00-23:59', 'Fri': '00:00-23:59', 'Sat': '00:00-23:59', 'Sun': '00:00-23:59'}}",,,store4589,,https://thenorthface.com.au/stores/wa/store4589/running-warehouse-australia
" Westfield Liverpool Shopping Centre, Macquarie Street LIVERPOOL, NSW 2170 ",The North Face,,Autrialia,"{'brand': 'The North Face', 'fascia': 'The North Face', 'category': 'Retail', 'edit_date': '2025-05-16', 'lat_lon_source': 'Third Party'}",-33.918554,150.923888,The North Face URBAN EQUIPMENT,"{'Opening_hours': {'Mon': '00:00-23:59', 'Tue': '00:00-23:59', 'Wed': '00:00-23:59', 'Thu': '00:00-23:59', 'Fri': '00:00-23:59', 'Sat': '00:00-23:59', 'Sun': '00:00-23:59'}}",,,UELIVERPOOL,,https://thenorthface.com.au/stores/nsw/ueliverpool/urban-equipment
" Westfield Shopping Centre, Macquarie Street LIVERPOOL, NSW 2170 ",The North Face,,Autrialia,"{'brand': 'The North Face', 'fascia': 'The North Face', 'category': 'Retail', 'edit_date': '2025-05-16', 'lat_lon_source': 'Third Party'}",-33.918968,150.923797,The North Face JD SPORTS,"{'Opening_hours': {'Mon': '00:00-23:59', 'Tue': '00:00-23:59', 'Wed': '00:00-23:59', 'Thu': '00:00-23:59', 'Fri': '00:00-23:59', 'Sat': '00:00-23:59', 'Sun': '00:00-23:59'}}",,,JDLIVERPOOL,,https://thenorthface.com.au/stores/nsw/jdliverpool/jd-sports
" Rear of 21 Bayview Terrace CLAREMONT, WA 6010 ",The North Face,,Autrialia,"{'brand': 'The North Face', 'fascia': 'The North Face', 'category': 'Retail', 'edit_date': '2025-05-16', 'lat_lon_source': 'Third Party'}",-31.982125,115.780815,The North Face HIGHS & LOWS,"{'Opening_hours': {'Mon': '00:00-23:59', 'Tue': '00:00-23:59', 'Wed': '00:00-23:59', 'Thu': '00:00-23:59', 'Fri': '00:00-23:59', 'Sat': '00:00-23:59', 'Sun': '00:00-23:59'}}",,,store4579,,https://thenorthface.com.au/stores/wa/store4579/highs-&-lows
" Mustang Drive & Anambah Road RUTHERFORD, NSW 2320 ",The North Face,,Autrialia,"{'brand': 'The North Face', 'fascia': 'The North Face', 'category': 'Retail', 'edit_date': '2025-05-16', 'lat_lon_source': 'Third Party'}",-32.705954,151.508597,The North Face ANACONDA,"{'Opening_hours': {'Mon': '00:00-23:59', 'Tue': '00:00-23:59', 'Wed': '00:00-23:59', 'Thu': '00:00-23:59', 'Fri': '00:00-23:59', 'Sat': '00:00-23:59', 'Sun': '00:00-23:59'}}",,,store4414,,https://thenorthface.com.au/stores/nsw/store4414/anaconda
" Stocklands Merrylands Shopping Centre, McFarlane Street MERRYLANDS, NSW 2112 ",The North Face,,Autrialia,"{'brand': 'The North Face', 'fascia': 'The North Face', 'category': 'Retail', 'edit_date': '2025-05-16', 'lat_lon_source': 'Third Party'}",-33.834368,150.98913,The North Face JD SPORTS,"{'Opening_hours': {'Mon': '00:00-23:59', 'Tue': '00:00-23:59', 'Wed': '00:00-23:59', 'Thu': '00:00-23:59', 'Fri': '00:00-23:59', 'Sat': '00:00-23:59', 'Sun': '00:00-23:59'}}",,,JDMERRYLANDS,,https://thenorthface.com.au/stores/nsw/jdmerrylands/jd-sports
" Westfield Parramatta, 159-175 Church Street PARRAMATTA, NSW 2150 ",The North Face,,Autrialia,"{'brand': 'The North Face', 'fascia': 'The North Face', 'category': 'Retail', 'edit_date': '2025-05-16', 'lat_lon_source': 'Third Party'}",-33.817085,151.001531,The North Face DAVID JONES,"{'Opening_hours': {'Mon': '00:00-23:59', 'Tue': '00:00-23:59', 'Wed': '00:00-23:59', 'Thu': '00:00-23:59', 'Fri': '00:00-23:59', 'Sat': '00:00-23:59', 'Sun': '00:00-23:59'}}",,,store4650,,https://thenorthface.com.au/stores/nsw/store4650/david-jones
" Westfield Parramatta, 159-175 Church Street PARRAMATTA, NSW 2150 ",The North Face,,Autrialia,"{'brand': 'The North Face', 'fascia': 'The North Face', 'category': 'Retail', 'edit_date': '2025-05-16', 'lat_lon_source': 'Third Party'}",-33.81777,151.002952,The North Face JD SPORTS,"{'Opening_hours': {'Mon': '00:00-23:59', 'Tue': '00:00-23:59', 'Wed': '00:00-23:59', 'Thu': '00:00-23:59', 'Fri': '00:00-23:59', 'Sat': '00:00-23:59', 'Sun': '00:00-23:59'}}",,,store4407,,https://thenorthface.com.au/stores/nsw/store4407/jd-sports
" Westfield Parramatta, 159-175 Church Street PARRAMATTA, NSW 2150 ",The North Face,,Autrialia,"{'brand': 'The North Face', 'fascia': 'The North Face', 'category': 'Retail', 'edit_date': '2025-05-16', 'lat_lon_source': 'Third Party'}",-33.818203,151.002957,The North Face GENERAL PANTS CO,"{'Opening_hours': {'Mon': '00:00-23:59', 'Tue': '00:00-23:59', 'Wed': '00:00-23:59', 'Thu': '00:00-23:59', 'Fri': '00:00-23:59', 'Sat': '00:00-23:59', 'Sun': '00:00-23:59'}}",,,store4404,,https://thenorthface.com.au/stores/nsw/store4404/general-pants-co
" 153 Peats Ferry Road HORNSBY, NSW 2077 ",The North Face,,Autrialia,"{'brand': 'The North Face', 'fascia': 'The North Face', 'category': 'Retail', 'edit_date': '2025-05-16', 'lat_lon_source': 'Third Party'}",-33.703933,151.097381,The North Face FORBES FOOTWEAR,"{'Opening_hours': {'Mon': '00:00-23:59', 'Tue': '00:00-23:59', 'Wed': '00:00-23:59', 'Thu': '00:00-23:59', 'Fri': '00:00-23:59', 'Sat': '00:00-23:59', 'Sun': '00:00-23:59'}}",,,store4374,,https://thenorthface.com.au/stores/nsw/store4374/forbes-footwear
" Auburn Power Centre, 92 Parramatta Road LIDCOMBE, NSW 2141 ",The North Face,,Autrialia,"{'brand': 'The North Face', 'fascia': 'The North Face', 'category': 'Retail', 'edit_date': '2025-05-16', 'lat_lon_source': 'Third Party'}",-33.84882,151.047952,The North Face ANACONDA,"{'Opening_hours': {'Mon': '00:00-23:59', 'Tue': '00:00-23:59', 'Wed': '00:00-23:59', 'Thu': '00:00-23:59', 'Fri': '00:00-23:59', 'Sat': '00:00-23:59', 'Sun': '00:00-23:59'}}",,,store4387,,https://thenorthface.com.au/stores/nsw/store4387/anaconda
" 1045 Victoria Road WEST RYDE, NSW 2114 ",The North Face,,Autrialia,"{'brand': 'The North Face', 'fascia': 'The North Face', 'category': 'Retail', 'edit_date': '2025-05-16', 'lat_lon_source': 'Third Party'}",-33.80692,151.085398,The North Face ALPSPORT,"{'Opening_hours': {'Mon': '00:00-23:59', 'Tue': '00:00-23:59', 'Wed': '00:00-23:59', 'Thu': '00:00-23:59', 'Fri': '00:00-23:59', 'Sat': '00:00-23:59', 'Sun': '00:00-23:59'}}",,,store4429,,https://thenorthface.com.au/stores/nsw/store4429/alpsport
" Centro Bankstown, 41 North Terrace BANKSTOWN, NSW 2200 ",The North Face,,Autrialia,"{'brand': 'The North Face', 'fascia': 'The North Face', 'category': 'Retail', 'edit_date': '2025-05-16', 'lat_lon_source': 'Third Party'}",-33.916415,151.037204,The North Face URBAN EQUIPMENT,"{'Opening_hours': {'Mon': '00:00-23:59', 'Tue': '00:00-23:59', 'Wed': '00:00-23:59', 'Thu': '00:00-23:59', 'Fri': '00:00-23:59', 'Sat': '00:00-23:59', 'Sun': '00:00-23:59'}}",,,UEBANKSTOWN,,https://thenorthface.com.au/stores/nsw/uebankstown/urban-equipment
" DFO Homebush, 3-5 Underwood Road, Shop 3061 HOMEBUSH, NSW 2140 ",The North Face,,Autrialia,"{'brand': 'The North Face', 'fascia': 'The North Face', 'category': 'Retail', 'edit_date': '2025-05-16', 'lat_lon_source': 'Third Party'}",-33.855453,151.076882,The North Face THE NORTH FACE HOMEBUSH,"{'Opening_hours': {'Mon': '00:00-23:59', 'Tue': '00:00-23:59', 'Wed': '00:00-23:59', 'Thu': '00:00-23:59', 'Fri': '00:00-23:59', 'Sat': '00:00-23:59', 'Sun': '00:00-23:59'}}",,,store4159,,https://thenorthface.com.au/stores/nsw/store4159/the-north-face-homebush
" Macquarie Shopping Centre, Waterloo Rd & Herring Rd MACQUARIE PARK, NSW 2113 ",The North Face,,Autrialia,"{'brand': 'The North Face', 'fascia': 'The North Face', 'category': 'Retail', 'edit_date': '2025-05-16', 'lat_lon_source': 'Third Party'}",-33.77667,151.12046,The North Face JD SPORTS,"{'Opening_hours': {'Mon': '00:00-23:59', 'Tue': '00:00-23:59', 'Wed': '00:00-23:59', 'Thu': '00:00-23:59', 'Fri': '00:00-23:59', 'Sat': '00:00-23:59', 'Sun': '00:00-23:59'}}",,,store4391,,https://thenorthface.com.au/stores/nsw/store4391/jd-sports
" 28 Central Coast Highway WEST GOSFORD, NSW 2250 ",The North Face,,Autrialia,"{'brand': 'The North Face', 'fascia': 'The North Face', 'category': 'Retail', 'edit_date': '2025-05-16', 'lat_lon_source': 'Third Party'}",-33.428228,151.320513,The North Face ANACONDA,"{'Opening_hours': {'Mon': '00:00-23:59', 'Tue': '00:00-23:59', 'Wed': '00:00-23:59', 'Thu': '00:00-23:59', 'Fri': '00:00-23:59', 'Sat': '00:00-23:59', 'Sun': '00:00-23:59'}}",,,store4428,,https://thenorthface.com.au/stores/nsw/store4428/anaconda
" Roselands Shopping Centre, Roselands Drive ROSELANDS, NSW 2196 ",The North Face,,Autrialia,"{'brand': 'The North Face', 'fascia': 'The North Face', 'category': 'Retail', 'edit_date': '2025-05-16', 'lat_lon_source': 'Third Party'}",-33.935179,151.072694,The North Face V-BOX CLOTHING,"{'Opening_hours': {'Mon': '00:00-23:59', 'Tue': '00:00-23:59', 'Wed': '00:00-23:59', 'Thu': '00:00-23:59', 'Fri': '00:00-23:59', 'Sat': '00:00-23:59', 'Sun': '00:00-23:59'}}",,,VBOXROSELANDS,,https://thenorthface.com.au/stores/nsw/vboxroselands/v-box-clothing
" Westfield Burwood, 100 Burwood Road BURWOOD, NSW 2134 ",The North Face,,Autrialia,"{'brand': 'The North Face', 'fascia': 'The North Face', 'category': 'Retail', 'edit_date': '2025-05-16', 'lat_lon_source': 'Third Party'}",-33.87448,151.105737,The North Face DAVID JONES,"{'Opening_hours': {'Mon': '00:00-23:59', 'Tue': '00:00-23:59', 'Wed': '00:00-23:59', 'Thu': '00:00-23:59', 'Fri': '00:00-23:59', 'Sat': '00:00-23:59', 'Sun': '00:00-23:59'}}",,,store4611,,https://thenorthface.com.au/stores/nsw/store4611/david-jones
" Belrose Super Centre, 4-6 Niangala Close BELROSE, NSW 2085 ",The North Face,,Autrialia,"{'brand': 'The North Face', 'fascia': 'The North Face', 'category': 'Retail', 'edit_date': '2025-05-16', 'lat_lon_source': 'Third Party'}",-33.702885,151.212953,The North Face ANACONDA,"{'Opening_hours': {'Mon': '00:00-23:59', 'Tue': '00:00-23:59', 'Wed': '00:00-23:59', 'Thu': '00:00-23:59', 'Fri': '00:00-23:59', 'Sat': '00:00-23:59', 'Sun': '00:00-23:59'}}",,,store4341,,https://thenorthface.com.au/stores/nsw/store4341/anaconda
" 29 Priestman Avenue UMINA BEACH, NSW 2257 ",The North Face,,Autrialia,"{'brand': 'The North Face', 'fascia': 'The North Face', 'category': 'Retail', 'edit_date': '2025-05-16', 'lat_lon_source': 'Third Party'}",-33.517433,151.314072,The North Face OZPLUS TRADING PTY LTD,"{'Opening_hours': {'Mon': '00:00-23:59', 'Tue': '00:00-23:59', 'Wed': '00:00-23:59', 'Thu': '00:00-23:59', 'Fri': '00:00-23:59', 'Sat': '00:00-23:59', 'Sun': '00:00-23:59'}}",,,store4426,,https://thenorthface.com.au/stores/nsw/store4426/ozplus-trading-pty-ltd
" Chatswood Chase, 91 Archer Street CHATSWOOD, NSW 2067 ",The North Face,,Autrialia,"{'brand': 'The North Face', 'fascia': 'The North Face', 'category': 'Retail', 'edit_date': '2025-05-16', 'lat_lon_source': 'Third Party'}",-33.794271,151.184962,The North Face DAVID JONES,"{'Opening_hours': {'Mon': '00:00-23:59', 'Tue': '00:00-23:59', 'Wed': '00:00-23:59', 'Thu': '00:00-23:59', 'Fri': '00:00-23:59', 'Sat': '00:00-23:59', 'Sun': '00:00-23:59'}}",,,store4615,,https://thenorthface.com.au/stores/nsw/store4615/david-jones
" Westfield Chatswood, 1 Anderson Street CHATSWOOD, NSW 2067 ",The North Face,,Autrialia,"{'brand': 'The North Face', 'fascia': 'The North Face', 'category': 'Retail', 'edit_date': '2025-05-16', 'lat_lon_source': 'Third Party'}",-33.796661,151.184541,The North Face THE NORTH FACE CHATSWOOD,"{'Opening_hours': {'Mon': '00:00-23:59', 'Tue': '00:00-23:59', 'Wed': '00:00-23:59', 'Thu': '00:00-23:59', 'Fri': '00:00-23:59', 'Sat': '00:00-23:59', 'Sun': '00:00-23:59'}}",,,store4362,,https://thenorthface.com.au/stores/nsw/store4362/the-north-face-chatswood
" Westfield Shopping Centre, 3 Cross Street HURSTVILLE, NSW 2220 ",The North Face,,Autrialia,"{'brand': 'The North Face', 'fascia': 'The North Face', 'category': 'Retail', 'edit_date': '2025-05-16', 'lat_lon_source': 'Third Party'}",-33.966588,151.104472,The North Face JD SPORTS,"{'Opening_hours': {'Mon': '00:00-23:59', 'Tue': '00:00-23:59', 'Wed': '00:00-23:59', 'Thu': '00:00-23:59', 'Fri': '00:00-23:59', 'Sat': '00:00-23:59', 'Sun': '00:00-23:59'}}",,,store4377,,https://thenorthface.com.au/stores/nsw/store4377/jd-sports
" Birkenhead Point Shopping Centre, 19 Roseby Street DRUMMOYNE, NSW 2047 ",The North Face,,Autrialia,"{'brand': 'The North Face', 'fascia': 'The North Face', 'category': 'Retail', 'edit_date': '2025-05-16', 'lat_lon_source': 'Third Party'}",-33.855123,151.162674,The North Face THE NORTH FACE BIRKENHEAD POINT,"{'Opening_hours': {'Mon': '00:00-23:59', 'Tue': '00:00-23:59', 'Wed': '00:00-23:59', 'Thu': '00:00-23:59', 'Fri': '00:00-23:59', 'Sat': '00:00-23:59', 'Sun': '00:00-23:59'}}",,,store4369,,https://thenorthface.com.au/stores/nsw/store4369/the-north-face-birkenhead-point
" 157 Lower Gibbes Street CHATSWOOD, NSW 2067 ",The North Face,,Autrialia,"{'brand': 'The North Face', 'fascia': 'The North Face', 'category': 'Retail', 'edit_date': '2025-05-16', 'lat_lon_source': 'Third Party'}",-33.786034,151.198731,The North Face ANACONDA,"{'Opening_hours': {'Mon': '00:00-23:59', 'Tue': '00:00-23:59', 'Wed': '00:00-23:59', 'Thu': '00:00-23:59', 'Fri': '00:00-23:59', 'Sat': '00:00-23:59', 'Sun': '00:00-23:59'}}",,,store4359,,https://thenorthface.com.au/stores/nsw/store4359/anaconda
" 177 The Entrance Road ERINA, NSW 2250 ",The North Face,,Autrialia,"{'brand': 'The North Face', 'fascia': 'The North Face', 'category': 'Retail', 'edit_date': '2025-05-16', 'lat_lon_source': 'Third Party'}",-33.437258,151.382054,The North Face ALPINE BEACH,"{'Opening_hours': {'Mon': '00:00-23:59', 'Tue': '00:00-23:59', 'Wed': '00:00-23:59', 'Thu': '00:00-23:59', 'Fri': '00:00-23:59', 'Sat': '00:00-23:59', 'Sun': '00:00-23:59'}}",,,ALIPINEBEACHERINA,,https://thenorthface.com.au/stores/nsw/alipinebeacherina/alpine-beach
" 381 Princes Highway BANKSIA, NSW 2216 ",The North Face,,Autrialia,"{'brand': 'The North Face', 'fascia': 'The North Face', 'category': 'Retail', 'edit_date': '2025-05-16', 'lat_lon_source': 'Third Party'}",-33.947817,151.139791,The North Face ANACONDA,"{'Opening_hours': {'Mon': '00:00-23:59', 'Tue': '00:00-23:59', 'Wed': '00:00-23:59', 'Thu': '00:00-23:59', 'Fri': '00:00-23:59', 'Sat': '00:00-23:59', 'Sun': '00:00-23:59'}}",,,store4340,,https://thenorthface.com.au/stores/nsw/store4340/anaconda
" 391-393 Pacific Highway CROWS NEST, NSW 2065 ",The North Face,,Autrialia,"{'brand': 'The North Face', 'fascia': 'The North Face', 'category': 'Retail', 'edit_date': '2025-05-16', 'lat_lon_source': 'Third Party'}",-33.82856,151.201579,The North Face FRONTIER ADVENTURE AT ITS CORE,"{'Opening_hours': {'Mon': '00:00-23:59', 'Tue': '00:00-23:59', 'Wed': '00:00-23:59', 'Thu': '00:00-23:59', 'Fri': '00:00-23:59', 'Sat': '00:00-23:59', 'Sun': '00:00-23:59'}}",,,store4366,,https://thenorthface.com.au/stores/nsw/store4366/frontier-adventure-at-its-core
" Westfield Miranda, 600 Kingsway MIRANDA, NSW 2228 ",The North Face,,Autrialia,"{'brand': 'The North Face', 'fascia': 'The North Face', 'category': 'Retail', 'edit_date': '2025-05-16', 'lat_lon_source': 'Third Party'}",-34.035551,151.100637,The North Face JD SPORTS,"{'Opening_hours': {'Mon': '00:00-23:59', 'Tue': '00:00-23:59', 'Wed': '00:00-23:59', 'Thu': '00:00-23:59', 'Fri': '00:00-23:59', 'Sat': '00:00-23:59', 'Sun': '00:00-23:59'}}",,,store4397,,https://thenorthface.com.au/stores/nsw/store4397/jd-sports
" Westfield Miranda, 600 Kingsway MIRANDA, NSW 2228 ",The North Face,,Autrialia,"{'brand': 'The North Face', 'fascia': 'The North Face', 'category': 'Retail', 'edit_date': '2025-05-16', 'lat_lon_source': 'Third Party'}",-34.035644,151.101295,The North Face DAVID JONES,"{'Opening_hours': {'Mon': '00:00-23:59', 'Tue': '00:00-23:59', 'Wed': '00:00-23:59', 'Thu': '00:00-23:59', 'Fri': '00:00-23:59', 'Sat': '00:00-23:59', 'Sun': '00:00-23:59'}}",,,store4636,,https://thenorthface.com.au/stores/nsw/store4636/david-jones
" 355 Brisbane Street WEST IPSWICH, QLD 4305 ",The North Face,,Autrialia,"{'brand': 'The North Face', 'fascia': 'The North Face', 'category': 'Retail', 'edit_date': '2025-05-16', 'lat_lon_source': 'Third Party'}",-27.621503,152.74782,The North Face ANACONDA,"{'Opening_hours': {'Mon': '00:00-23:59', 'Tue': '00:00-23:59', 'Wed': '00:00-23:59', 'Thu': '00:00-23:59', 'Fri': '00:00-23:59', 'Sat': '00:00-23:59', 'Sun': '00:00-23:59'}}",,,store4486,,https://thenorthface.com.au/stores/qld/store4486/anaconda
" GPT Crown Central, 200 Crown Street WOLLONGONG, NSW 2500 ",The North Face,,Autrialia,"{'brand': 'The North Face', 'fascia': 'The North Face', 'category': 'Retail', 'edit_date': '2025-05-16', 'lat_lon_source': 'Third Party'}",-34.424507,150.894632,The North Face ANACONDA,"{'Opening_hours': {'Mon': '00:00-23:59', 'Tue': '00:00-23:59', 'Wed': '00:00-23:59', 'Thu': '00:00-23:59', 'Fri': '00:00-23:59', 'Sat': '00:00-23:59', 'Sun': '00:00-23:59'}}",,,store4431,,https://thenorthface.com.au/stores/nsw/store4431/anaconda
" Wollongong Central Shopping Centre, 200 Crown Street WOLLONGONG, NSW 2500 ",The North Face,,Autrialia,"{'brand': 'The North Face', 'fascia': 'The North Face', 'category': 'Retail', 'edit_date': '2025-05-16', 'lat_lon_source': 'Third Party'}",-34.424824,150.894757,The North Face DAVID JONES,"{'Opening_hours': {'Mon': '00:00-23:59', 'Tue': '00:00-23:59', 'Wed': '00:00-23:59', 'Thu': '00:00-23:59', 'Fri': '00:00-23:59', 'Sat': '00:00-23:59', 'Sun': '00:00-23:59'}}",,,store4675,,https://thenorthface.com.au/stores/nsw/store4675/david-jones
" 244 King Street NEWTOWN, NSW 2042 ",The North Face,,Autrialia,"{'brand': 'The North Face', 'fascia': 'The North Face', 'category': 'Retail', 'edit_date': '2025-05-16', 'lat_lon_source': 'Third Party'}",-33.895763,151.181525,The North Face MAPLE,"{'Opening_hours': {'Mon': '00:00-23:59', 'Tue': '00:00-23:59', 'Wed': '00:00-23:59', 'Thu': '00:00-23:59', 'Fri': '00:00-23:59', 'Sat': '00:00-23:59', 'Sun': '00:00-23:59'}}",,,store4403,,https://thenorthface.com.au/stores/nsw/store4403/maple
" Broadway Shopping Centre, 1 Bay Street ULTIMO, NSW 2007 ",The North Face,,Autrialia,"{'brand': 'The North Face', 'fascia': 'The North Face', 'category': 'Retail', 'edit_date': '2025-05-16', 'lat_lon_source': 'Third Party'}",-33.88393,151.19417,The North Face GENERAL PANTS CO,"{'Opening_hours': {'Mon': '00:00-23:59', 'Tue': '00:00-23:59', 'Wed': '00:00-23:59', 'Thu': '00:00-23:59', 'Fri': '00:00-23:59', 'Sat': '00:00-23:59', 'Sun': '00:00-23:59'}}",,,store4424,,https://thenorthface.com.au/stores/nsw/store4424/general-pants-co
" 507 Kent Street SYDNEY, NSW 2000 ",The North Face,,Autrialia,"{'brand': 'The North Face', 'fascia': 'The North Face', 'category': 'Retail', 'edit_date': '2025-05-16', 'lat_lon_source': 'Third Party'}",-33.874046,151.205069,The North Face PADDY PALLIN,"{'Opening_hours': {'Mon': '00:00-23:59', 'Tue': '00:00-23:59', 'Wed': '00:00-23:59', 'Thu': '00:00-23:59', 'Fri': '00:00-23:59', 'Sat': '00:00-23:59', 'Sun': '00:00-23:59'}}",,,store4421,,https://thenorthface.com.au/stores/nsw/store4421/paddy-pallin
" Basement, 412-413 George Street SYDNEY, NSW 2000 ",The North Face,,Autrialia,"{'brand': 'The North Face', 'fascia': 'The North Face', 'category': 'Retail', 'edit_date': '2025-05-16', 'lat_lon_source': 'Third Party'}",-33.870465,151.206936,The North Face GENERAL PANTS CO,"{'Opening_hours': {'Mon': '00:00-23:59', 'Tue': '00:00-23:59', 'Wed': '00:00-23:59', 'Thu': '00:00-23:59', 'Fri': '00:00-23:59', 'Sat': '00:00-23:59', 'Sun': '00:00-23:59'}}",,,store4678,,https://thenorthface.com.au/stores/nsw/store4678/general-pants-co
" 189 Sydney Arcade, Pitt Street Mall SYDNEY, NSW 2000 ",The North Face,,Autrialia,"{'brand': 'The North Face', 'fascia': 'The North Face', 'category': 'Retail', 'edit_date': '2025-05-16', 'lat_lon_source': 'Third Party'}",-33.869225,151.20809,The North Face JD SPORTS,"{'Opening_hours': {'Mon': '00:00-23:59', 'Tue': '00:00-23:59', 'Wed': '00:00-23:59', 'Thu': '00:00-23:59', 'Fri': '00:00-23:59', 'Sat': '00:00-23:59', 'Sun': '00:00-23:59'}}",,,store4420,,https://thenorthface.com.au/stores/nsw/store4420/jd-sports
" Westfield Sydney, Pitt Street Mall SYDNEY, NSW 2000 ",The North Face,,Autrialia,"{'brand': 'The North Face', 'fascia': 'The North Face', 'category': 'Retail', 'edit_date': '2025-05-16', 'lat_lon_source': 'Third Party'}",-33.870565,151.208397,The North Face GENERAL PANTS CO,"{'Opening_hours': {'Mon': '00:00-23:59', 'Tue': '00:00-23:59', 'Wed': '00:00-23:59', 'Thu': '00:00-23:59', 'Fri': '00:00-23:59', 'Sat': '00:00-23:59', 'Sun': '00:00-23:59'}}",,,store4417,,https://thenorthface.com.au/stores/nsw/store4417/general-pants-co
" 65-77 Market Street SYDNEY, NSW 2000 ",The North Face,,Autrialia,"{'brand': 'The North Face', 'fascia': 'The North Face', 'category': 'Retail', 'edit_date': '2025-05-16', 'lat_lon_source': 'Third Party'}",-33.87014,151.208953,The North Face DAVID JONES,"{'Opening_hours': {'Mon': '00:00-23:59', 'Tue': '00:00-23:59', 'Wed': '00:00-23:59', 'Thu': '00:00-23:59', 'Fri': '00:00-23:59', 'Sat': '00:00-23:59', 'Sun': '00:00-23:59'}}",,,store4664,,https://thenorthface.com.au/stores/nsw/store4664/david-jones
" World Square Shopping Centre, 644 George Street SYDNEY, NSW 2000 ",The North Face,,Autrialia,"{'brand': 'The North Face', 'fascia': 'The North Face', 'category': 'Retail', 'edit_date': '2025-05-16', 'lat_lon_source': 'Third Party'}",-33.87701,151.20694,The North Face THE NORTH FACE WORLD SQUARE,"{'Opening_hours': {'Mon': '00:00-23:59', 'Tue': '00:00-23:59', 'Wed': '00:00-23:59', 'Thu': '00:00-23:59', 'Fri': '00:00-23:59', 'Sat': '00:00-23:59', 'Sun': '00:00-23:59'}}",,,store4422,,https://thenorthface.com.au/stores/nsw/store4422/the-north-face-world-square
" 7/16-22 Cross Street BROOKVALE, NSW 2100 ",The North Face,,Autrialia,"{'brand': 'The North Face', 'fascia': 'The North Face', 'category': 'Retail', 'edit_date': '2025-05-16', 'lat_lon_source': 'Third Party'}",-33.764426,151.265916,The North Face JOE'S BASECAMP,"{'Opening_hours': {'Mon': '00:00-23:59', 'Tue': '00:00-23:59', 'Wed': '00:00-23:59', 'Thu': '00:00-23:59', 'Fri': '00:00-23:59', 'Sat': '00:00-23:59', 'Sun': '00:00-23:59'}}",,,store4350,,https://thenorthface.com.au/stores/nsw/store4350/joe's-basecamp
" Warringah Mall, Condamine Street & Old Pittwater Road BROOKVALE, NSW 2100 ",The North Face,,Autrialia,"{'brand': 'The North Face', 'fascia': 'The North Face', 'category': 'Retail', 'edit_date': '2025-05-16', 'lat_lon_source': 'Third Party'}",-33.767507,151.265006,The North Face JD SPORTS,"{'Opening_hours': {'Mon': '00:00-23:59', 'Tue': '00:00-23:59', 'Wed': '00:00-23:59', 'Thu': '00:00-23:59', 'Fri': '00:00-23:59', 'Sat': '00:00-23:59', 'Sun': '00:00-23:59'}}",,,store4349,,https://thenorthface.com.au/stores/nsw/store4349/jd-sports
" 63 Condamine Street & Old Pittwater Road BROOKVALE, NSW 2100 ",The North Face,,Autrialia,"{'brand': 'The North Face', 'fascia': 'The North Face', 'category': 'Retail', 'edit_date': '2025-05-16', 'lat_lon_source': 'Third Party'}",-33.768251,151.264803,The North Face ANACONDA,"{'Opening_hours': {'Mon': '00:00-23:59', 'Tue': '00:00-23:59', 'Wed': '00:00-23:59', 'Thu': '00:00-23:59', 'Fri': '00:00-23:59', 'Sat': '00:00-23:59', 'Sun': '00:00-23:59'}}",,,store4347,,https://thenorthface.com.au/stores/nsw/store4347/anaconda
" Warringah Mall, Corner of Old Pittwater Road and Condamine Street BROOKVALE, NSW 2100 ",The North Face,,Autrialia,"{'brand': 'The North Face', 'fascia': 'The North Face', 'category': 'Retail', 'edit_date': '2025-05-16', 'lat_lon_source': 'Third Party'}",-33.767212,151.266099,The North Face DAVID JONES,"{'Opening_hours': {'Mon': '00:00-23:59', 'Tue': '00:00-23:59', 'Wed': '00:00-23:59', 'Thu': '00:00-23:59', 'Fri': '00:00-23:59', 'Sat': '00:00-23:59', 'Sun': '00:00-23:59'}}",,,store4610,,https://thenorthface.com.au/stores/nsw/store4610/david-jones
" 269-321 Lonsdale St DARLINGHURST, NSW 2010 ",The North Face,,Autrialia,"{'brand': 'The North Face', 'fascia': 'The North Face', 'category': 'Retail', 'edit_date': '2025-05-16', 'lat_lon_source': 'Third Party'}",-33.878138,151.214658,The North Face SUPPLY STORE ,"{'Opening_hours': {'Mon': '00:00-23:59', 'Tue': '00:00-23:59', 'Wed': '00:00-23:59', 'Thu': '00:00-23:59', 'Fri': '00:00-23:59', 'Sat': '00:00-23:59', 'Sun': '00:00-23:59'}}",,,store4368,,https://thenorthface.com.au/stores/nsw/store4368/supply-store-
" 8/40-42 O'Riordan Street ALEXANDRIA, NSW 2015 ",The North Face,,Autrialia,"{'brand': 'The North Face', 'fascia': 'The North Face', 'category': 'Retail', 'edit_date': '2025-05-16', 'lat_lon_source': 'Third Party'}",-33.911616,151.198083,The North Face CLIMBING ANCHORS,"{'Opening_hours': {'Mon': '00:00-23:59', 'Tue': '00:00-23:59', 'Wed': '00:00-23:59', 'Thu': '00:00-23:59', 'Fri': '00:00-23:59', 'Sat': '00:00-23:59', 'Sun': '00:00-23:59'}}",,,store4336,,https://thenorthface.com.au/stores/nsw/store4336/climbing-anchors
" 285a Crown Street SURRY HILLS, NSW 2010 ",The North Face,,Autrialia,"{'brand': 'The North Face', 'fascia': 'The North Face', 'category': 'Retail', 'edit_date': '2025-05-16', 'lat_lon_source': 'Third Party'}",-33.881331,151.214502,The North Face ABOVE THE CLOUDS STORE,"{'Opening_hours': {'Mon': '00:00-23:59', 'Tue': '00:00-23:59', 'Wed': '00:00-23:59', 'Thu': '00:00-23:59', 'Fri': '00:00-23:59', 'Sat': '00:00-23:59', 'Sun': '00:00-23:59'}}",,,store4416,,https://thenorthface.com.au/stores/nsw/store4416/above-the-clouds-store
" 1147 Botany Road MASCOT, NSW 2020 ",The North Face,,Autrialia,"{'brand': 'The North Face', 'fascia': 'The North Face', 'category': 'Retail', 'edit_date': '2025-05-16', 'lat_lon_source': 'Third Party'}",-33.930129,151.19487,The North Face SYDNEY LUGGAGE CENTRE,"{'Opening_hours': {'Mon': '00:00-23:59', 'Tue': '00:00-23:59', 'Wed': '00:00-23:59', 'Thu': '00:00-23:59', 'Fri': '00:00-23:59', 'Sat': '00:00-23:59', 'Sun': '00:00-23:59'}}",,,store4393,,https://thenorthface.com.au/stores/nsw/store4393/sydney-luggage-centre
" Homemaker Supa Centre, Corner of South Dowling & Todman Avenue KENSINGTON, NSW 2033 ",The North Face,,Autrialia,"{'brand': 'The North Face', 'fascia': 'The North Face', 'category': 'Retail', 'edit_date': '2025-05-16', 'lat_lon_source': 'Third Party'}",-33.903683,151.214619,The North Face ANACONDA,"{'Opening_hours': {'Mon': '00:00-23:59', 'Tue': '00:00-23:59', 'Wed': '00:00-23:59', 'Thu': '00:00-23:59', 'Fri': '00:00-23:59', 'Sat': '00:00-23:59', 'Sun': '00:00-23:59'}}",,,store4383,,https://thenorthface.com.au/stores/nsw/store4383/anaconda
" Westfield Bondi Junction, 500 Oxford Street BONDI JUNCTION, NSW 2022 ",The North Face,,Autrialia,"{'brand': 'The North Face', 'fascia': 'The North Face', 'category': 'Retail', 'edit_date': '2025-05-16', 'lat_lon_source': 'Third Party'}",-33.891328,151.250411,The North Face DAVID JONES,"{'Opening_hours': {'Mon': '00:00-23:59', 'Tue': '00:00-23:59', 'Wed': '00:00-23:59', 'Thu': '00:00-23:59', 'Fri': '00:00-23:59', 'Sat': '00:00-23:59', 'Sun': '00:00-23:59'}}",,,store4609,,https://thenorthface.com.au/stores/nsw/store4609/david-jones
" Westfield Shopping Centre, 500 Oxford Street BONDI JUNCTION, NSW 2022 ",The North Face,,Autrialia,"{'brand': 'The North Face', 'fascia': 'The North Face', 'category': 'Retail', 'edit_date': '2025-05-16', 'lat_lon_source': 'Third Party'}",-33.891897,151.250207,The North Face GENERAL PANTS CO,"{'Opening_hours': {'Mon': '00:00-23:59', 'Tue': '00:00-23:59', 'Wed': '00:00-23:59', 'Thu': '00:00-23:59', 'Fri': '00:00-23:59', 'Sat': '00:00-23:59', 'Sun': '00:00-23:59'}}",,,store4343,,https://thenorthface.com.au/stores/nsw/store4343/general-pants-co
" Level 5 Shop 5025, Westfield Bondi Junction, 500 Oxford Street BONDI JUNCTION, NSW 2022 ",The North Face,,Autrialia,"{'brand': 'The North Face', 'fascia': 'The North Face', 'category': 'Retail', 'edit_date': '2025-05-16', 'lat_lon_source': 'Third Party'}",-33.892206,151.250522,The North Face THE NORTH FACE BONDI JUNCTION,"{'Opening_hours': {'Mon': '00:00-23:59', 'Tue': '00:00-23:59', 'Wed': '00:00-23:59', 'Thu': '00:00-23:59', 'Fri': '00:00-23:59', 'Sat': '00:00-23:59', 'Sun': '00:00-23:59'}}",,,store4346,,https://thenorthface.com.au/stores/nsw/store4346/the-north-face-bondi-junction
" Westfield Shopping Centre, Northcoat Drive & Park Avenue KOTARA, NSW 2289 ",The North Face,,Autrialia,"{'brand': 'The North Face', 'fascia': 'The North Face', 'category': 'Retail', 'edit_date': '2025-05-16', 'lat_lon_source': 'Third Party'}",-32.942283,151.711094,The North Face JD SPORTS,"{'Opening_hours': {'Mon': '00:00-23:59', 'Tue': '00:00-23:59', 'Wed': '00:00-23:59', 'Thu': '00:00-23:59', 'Fri': '00:00-23:59', 'Sat': '00:00-23:59', 'Sun': '00:00-23:59'}}",,,store4385,,https://thenorthface.com.au/stores/nsw/store4385/jd-sports
" Westfield Kotara, 89 Park Avenue KOTARA, NSW 2289 ",The North Face,,Autrialia,"{'brand': 'The North Face', 'fascia': 'The North Face', 'category': 'Retail', 'edit_date': '2025-05-16', 'lat_lon_source': 'Third Party'}",-32.943107,151.710786,The North Face DAVID JONES,"{'Opening_hours': {'Mon': '00:00-23:59', 'Tue': '00:00-23:59', 'Wed': '00:00-23:59', 'Thu': '00:00-23:59', 'Fri': '00:00-23:59', 'Sat': '00:00-23:59', 'Sun': '00:00-23:59'}}",,,store4631,,https://thenorthface.com.au/stores/nsw/store4631/david-jones
" 94 Maitland Road ISLINGTON, NSW 2296 ",The North Face,,Autrialia,"{'brand': 'The North Face', 'fascia': 'The North Face', 'category': 'Retail', 'edit_date': '2025-05-16', 'lat_lon_source': 'Third Party'}",-32.916855,151.749077,The North Face YARDSALE TRADING CO.,"{'Opening_hours': {'Mon': '00:00-23:59', 'Tue': '00:00-23:59', 'Wed': '00:00-23:59', 'Thu': '00:00-23:59', 'Fri': '00:00-23:59', 'Sat': '00:00-23:59', 'Sun': '00:00-23:59'}}",,,store4378,,https://thenorthface.com.au/stores/nsw/store4378/yardsale-trading-co.
" 711 Hunter Street NEWCASTLE, NSW 2300 ",The North Face,,Autrialia,"{'brand': 'The North Face', 'fascia': 'The North Face', 'category': 'Retail', 'edit_date': '2025-05-16', 'lat_lon_source': 'Third Party'}",-32.926188,151.761058,The North Face ANACONDA,"{'Opening_hours': {'Mon': '00:00-23:59', 'Tue': '00:00-23:59', 'Wed': '00:00-23:59', 'Thu': '00:00-23:59', 'Fri': '00:00-23:59', 'Sat': '00:00-23:59', 'Sun': '00:00-23:59'}}",,,store4402,,https://thenorthface.com.au/stores/nsw/store4402/anaconda
" 182-190 Morayfield Road MORAYFIELD, QLD 4506 ",The North Face,,Autrialia,"{'brand': 'The North Face', 'fascia': 'The North Face', 'category': 'Retail', 'edit_date': '2025-05-16', 'lat_lon_source': 'Third Party'}",-27.104641,152.946743,The North Face ANACONDA,"{'Opening_hours': {'Mon': '00:00-23:59', 'Tue': '00:00-23:59', 'Wed': '00:00-23:59', 'Thu': '00:00-23:59', 'Fri': '00:00-23:59', 'Sat': '00:00-23:59', 'Sun': '00:00-23:59'}}",,,store4471,,https://thenorthface.com.au/stores/qld/store4471/anaconda
" Indooroopilly Shopping Centre, 322 Moggill Road INDOOROOPILLY, QLD 4068 ",The North Face,,Autrialia,"{'brand': 'The North Face', 'fascia': 'The North Face', 'category': 'Retail', 'edit_date': '2025-05-16', 'lat_lon_source': 'Third Party'}",-27.499994,152.972196,The North Face JD SPORTS,"{'Opening_hours': {'Mon': '00:00-23:59', 'Tue': '00:00-23:59', 'Wed': '00:00-23:59', 'Thu': '00:00-23:59', 'Fri': '00:00-23:59', 'Sat': '00:00-23:59', 'Sun': '00:00-23:59'}}",,,JDINDOOROOPILLY,,https://thenorthface.com.au/stores/qld/jdindooroopilly/jd-sports
" 429 South Pine Road EVERTON PARK, QLD 4053 ",The North Face,,Autrialia,"{'brand': 'The North Face', 'fascia': 'The North Face', 'category': 'Retail', 'edit_date': '2025-05-16', 'lat_lon_source': 'Third Party'}",-27.40948,152.993317,The North Face ANACONDA,"{'Opening_hours': {'Mon': '00:00-23:59', 'Tue': '00:00-23:59', 'Wed': '00:00-23:59', 'Thu': '00:00-23:59', 'Fri': '00:00-23:59', 'Sat': '00:00-23:59', 'Sun': '00:00-23:59'}}",,,store4457,,https://thenorthface.com.au/stores/qld/store4457/anaconda
" 49 Douglas St Milton, QLD 4064 ",The North Face,,Autrialia,"{'brand': 'The North Face', 'fascia': 'The North Face', 'category': 'Retail', 'edit_date': '2025-05-16', 'lat_lon_source': 'Third Party'}",-27.471811,153.002386,The North Face Wildfire Sports & Trek,"{'Opening_hours': {'Mon': '00:00-23:59', 'Tue': '00:00-23:59', 'Wed': '00:00-23:59', 'Thu': '00:00-23:59', 'Fri': '00:00-23:59', 'Sat': '00:00-23:59', 'Sun': '00:00-23:59'}}",,,2164,,https://thenorthface.com.au/stores/qld/02164/wildfire-sports-&-trek
" 957 North Lakes Drive NORTH LAKES, QLD 4509 ",The North Face,,Autrialia,"{'brand': 'The North Face', 'fascia': 'The North Face', 'category': 'Retail', 'edit_date': '2025-05-16', 'lat_lon_source': 'Third Party'}",-27.237491,153.011535,The North Face ANACONDA,"{'Opening_hours': {'Mon': '00:00-23:59', 'Tue': '00:00-23:59', 'Wed': '00:00-23:59', 'Thu': '00:00-23:59', 'Fri': '00:00-23:59', 'Sat': '00:00-23:59', 'Sun': '00:00-23:59'}}",,,store4475,,https://thenorthface.com.au/stores/qld/store4475/anaconda
" Level 1 35 Adelaide Street BRISBANE CITY, QLD 4000 ",The North Face,,Autrialia,"{'brand': 'The North Face', 'fascia': 'The North Face', 'category': 'Retail', 'edit_date': '2025-05-16', 'lat_lon_source': 'Third Party'}",-27.469826,153.02359,The North Face LACED,"{'Opening_hours': {'Mon': '00:00-23:59', 'Tue': '00:00-23:59', 'Wed': '00:00-23:59', 'Thu': '00:00-23:59', 'Fri': '00:00-23:59', 'Sat': '00:00-23:59', 'Sun': '00:00-23:59'}}",,,store4444,,https://thenorthface.com.au/stores/qld/store4444/laced
" Queens Plaza BRISBANE, QLD 4000 ",The North Face,,Autrialia,"{'brand': 'The North Face', 'fascia': 'The North Face', 'category': 'Retail', 'edit_date': '2025-05-16', 'lat_lon_source': 'Third Party'}",-27.467067,153.025802,The North Face DAVID JONES,"{'Opening_hours': {'Mon': '00:00-23:59', 'Tue': '00:00-23:59', 'Wed': '00:00-23:59', 'Thu': '00:00-23:59', 'Fri': '00:00-23:59', 'Sat': '00:00-23:59', 'Sun': '00:00-23:59'}}",,,DJBRISBANE,,https://thenorthface.com.au/stores/qld/djbrisbane/david-jones
" 111 Elizabeth Street BRISBANE, QLD 4000 ",The North Face,,Autrialia,"{'brand': 'The North Face', 'fascia': 'The North Face', 'category': 'Retail', 'edit_date': '2025-05-16', 'lat_lon_source': 'Third Party'}",-27.470774,153.025952,The North Face JD SPORTS,"{'Opening_hours': {'Mon': '00:00-23:59', 'Tue': '00:00-23:59', 'Wed': '00:00-23:59', 'Thu': '00:00-23:59', 'Fri': '00:00-23:59', 'Sat': '00:00-23:59', 'Sun': '00:00-23:59'}}",,,store4442,,https://thenorthface.com.au/stores/qld/store4442/jd-sports
" 179 Elizabeth Street BRISBANE, QLD 4000 ",The North Face,,Autrialia,"{'brand': 'The North Face', 'fascia': 'The North Face', 'category': 'Retail', 'edit_date': '2025-05-16', 'lat_lon_source': 'Third Party'}",-27.469925,153.027135,The North Face GENERAL PANTS CO,"{'Opening_hours': {'Mon': '00:00-23:59', 'Tue': '00:00-23:59', 'Wed': '00:00-23:59', 'Thu': '00:00-23:59', 'Fri': '00:00-23:59', 'Sat': '00:00-23:59', 'Sun': '00:00-23:59'}}",,,store4440,,https://thenorthface.com.au/stores/qld/store4440/general-pants-co
" Westfield Chermside, 395 Hamilton Road CHERMSIDE, QLD 4032 ",The North Face,,Autrialia,"{'brand': 'The North Face', 'fascia': 'The North Face', 'category': 'Retail', 'edit_date': '2025-05-16', 'lat_lon_source': 'Third Party'}",-27.384006,153.031747,The North Face ANACONDA,"{'Opening_hours': {'Mon': '00:00-23:59', 'Tue': '00:00-23:59', 'Wed': '00:00-23:59', 'Thu': '00:00-23:59', 'Fri': '00:00-23:59', 'Sat': '00:00-23:59', 'Sun': '00:00-23:59'}}",,,store4454,,https://thenorthface.com.au/stores/qld/store4454/anaconda
" 120 Wickham Street FORTITUDE VALLEY, QLD 4006 ",The North Face,,Autrialia,"{'brand': 'The North Face', 'fascia': 'The North Face', 'category': 'Retail', 'edit_date': '2025-05-16', 'lat_lon_source': 'Third Party'}",-27.459441,153.031613,The North Face PADDY PALLIN,"{'Opening_hours': {'Mon': '00:00-23:59', 'Tue': '00:00-23:59', 'Wed': '00:00-23:59', 'Thu': '00:00-23:59', 'Fri': '00:00-23:59', 'Sat': '00:00-23:59', 'Sun': '00:00-23:59'}}",,,store4458,,https://thenorthface.com.au/stores/qld/store4458/paddy-pallin
" Westfield Chermside, Corner Gympie & Hamilton Roads CHERMSIDE, QLD 4032 ",The North Face,,Autrialia,"{'brand': 'The North Face', 'fascia': 'The North Face', 'category': 'Retail', 'edit_date': '2025-05-16', 'lat_lon_source': 'Third Party'}",-27.382598,153.032583,The North Face JD SPORTS,"{'Opening_hours': {'Mon': '00:00-23:59', 'Tue': '00:00-23:59', 'Wed': '00:00-23:59', 'Thu': '00:00-23:59', 'Fri': '00:00-23:59', 'Sat': '00:00-23:59', 'Sun': '00:00-23:59'}}",,,store4456,,https://thenorthface.com.au/stores/qld/store4456/jd-sports
" 743 Stanley Street WOOLLOONGABBA, QLD 4102 ",The North Face,,Autrialia,"{'brand': 'The North Face', 'fascia': 'The North Face', 'category': 'Retail', 'edit_date': '2025-05-16', 'lat_lon_source': 'Third Party'}",-27.486382,153.033615,The North Face SNOWSCENE,"{'Opening_hours': {'Mon': '00:00-23:59', 'Tue': '00:00-23:59', 'Wed': '00:00-23:59', 'Thu': '00:00-23:59', 'Fri': '00:00-23:59', 'Sat': '00:00-23:59', 'Sun': '00:00-23:59'}}",,,store4487,,https://thenorthface.com.au/stores/qld/store4487/snowscene
" Village Square, 118 Commerce Road BROWNS PLAINS, QLD 4118 ",The North Face,,Autrialia,"{'brand': 'The North Face', 'fascia': 'The North Face', 'category': 'Retail', 'edit_date': '2025-05-16', 'lat_lon_source': 'Third Party'}",-27.664791,153.045415,The North Face ANACONDA,"{'Opening_hours': {'Mon': '00:00-23:59', 'Tue': '00:00-23:59', 'Wed': '00:00-23:59', 'Thu': '00:00-23:59', 'Fri': '00:00-23:59', 'Sat': '00:00-23:59', 'Sun': '00:00-23:59'}}",,,AnacondaBrownsPlains,,https://thenorthface.com.au/stores/qld/anacondabrownsplains/anaconda
" Skygate Home & Life Shop 2/30 The Circuit BRISBANE AIRPORT, QLD 4008 ",The North Face,,Autrialia,"{'brand': 'The North Face', 'fascia': 'The North Face', 'category': 'Retail', 'edit_date': '2025-05-16', 'lat_lon_source': 'Third Party'}",-27.414775,153.081431,The North Face WILD EARTH,"{'Opening_hours': {'Mon': '00:00-23:59', 'Tue': '00:00-23:59', 'Wed': '00:00-23:59', 'Thu': '00:00-23:59', 'Fri': '00:00-23:59', 'Sat': '00:00-23:59', 'Sun': '00:00-23:59'}}",,,WEBrisbane,,https://thenorthface.com.au/stores/qld/webrisbane/wild-earth
" Westfield Garden City Shopping Centre, 2049 Logan Road MOUNT GRAVATT, QLD 4122 ",The North Face,,Autrialia,"{'brand': 'The North Face', 'fascia': 'The North Face', 'category': 'Retail', 'edit_date': '2025-05-16', 'lat_lon_source': 'Third Party'}",-27.562244,153.08207,The North Face JD SPORTS,"{'Opening_hours': {'Mon': '00:00-23:59', 'Tue': '00:00-23:59', 'Wed': '00:00-23:59', 'Thu': '00:00-23:59', 'Fri': '00:00-23:59', 'Sat': '00:00-23:59', 'Sun': '00:00-23:59'}}",,,JDMOUNTGRAVATT,,https://thenorthface.com.au/stores/qld/jdmountgravatt/jd-sports
" 1 Duporth Avenue MAROOCHYDORE, QLD 4558 ",The North Face,,Autrialia,"{'brand': 'The North Face', 'fascia': 'The North Face', 'category': 'Retail', 'edit_date': '2025-05-16', 'lat_lon_source': 'Third Party'}",-26.653215,153.092874,The North Face THE RUNNING COMPANY,"{'Opening_hours': {'Mon': '00:00-23:59', 'Tue': '00:00-23:59', 'Wed': '00:00-23:59', 'Thu': '00:00-23:59', 'Fri': '00:00-23:59', 'Sat': '00:00-23:59', 'Sun': '00:00-23:59'}}",,,store4469,,https://thenorthface.com.au/stores/qld/store4469/the-running-company
" Bay Village on Hastings, 18 Hastings Street NOOSA HEADS, QLD 4567 ",The North Face,,Autrialia,"{'brand': 'The North Face', 'fascia': 'The North Face', 'category': 'Retail', 'edit_date': '2025-05-16', 'lat_lon_source': 'Third Party'}",-26.386599,153.08915,The North Face LIGHTWEIGHT TRAVELLER,"{'Opening_hours': {'Mon': '00:00-23:59', 'Tue': '00:00-23:59', 'Wed': '00:00-23:59', 'Thu': '00:00-23:59', 'Fri': '00:00-23:59', 'Sat': '00:00-23:59', 'Sun': '00:00-23:59'}}",,,store4474,,https://thenorthface.com.au/stores/qld/store4474/lightweight-traveller
" 4 Sunshine Beach Road NOOSA HEADS, QLD 4567 ",The North Face,,Autrialia,"{'brand': 'The North Face', 'fascia': 'The North Face', 'category': 'Retail', 'edit_date': '2025-05-16', 'lat_lon_source': 'Third Party'}",-26.39676,153.0898,The North Face CLIQUE,"{'Opening_hours': {'Mon': '00:00-23:59', 'Tue': '00:00-23:59', 'Wed': '00:00-23:59', 'Thu': '00:00-23:59', 'Fri': '00:00-23:59', 'Sat': '00:00-23:59', 'Sun': '00:00-23:59'}}",,,store4472,,https://thenorthface.com.au/stores/qld/store4472/clique
" Home Central Kawana, Kawana Way BIRTINYA, QLD 4575 ",The North Face,,Autrialia,"{'brand': 'The North Face', 'fascia': 'The North Face', 'category': 'Retail', 'edit_date': '2025-05-16', 'lat_lon_source': 'Third Party'}",-26.736317,153.119432,The North Face ANACONDA,"{'Opening_hours': {'Mon': '00:00-23:59', 'Tue': '00:00-23:59', 'Wed': '00:00-23:59', 'Thu': '00:00-23:59', 'Fri': '00:00-23:59', 'Sat': '00:00-23:59', 'Sun': '00:00-23:59'}}",,,store4439,,https://thenorthface.com.au/stores/qld/store4439/anaconda
" 1 Mooloolaba Esplanade MOOLOOLABA, QLD 4557 ",The North Face,,Autrialia,"{'brand': 'The North Face', 'fascia': 'The North Face', 'category': 'Retail', 'edit_date': '2025-05-16', 'lat_lon_source': 'Third Party'}",-26.681284,153.120982,The North Face TRAINERS,"{'Opening_hours': {'Mon': '00:00-23:59', 'Tue': '00:00-23:59', 'Wed': '00:00-23:59', 'Thu': '00:00-23:59', 'Fri': '00:00-23:59', 'Sat': '00:00-23:59', 'Sun': '00:00-23:59'}}",,,store4470,,https://thenorthface.com.au/stores/qld/store4470/trainers
" Logan Mega Centre, 3525 Pacific Highway SLACKS CREEK, QLD 4127 ",The North Face,,Autrialia,"{'brand': 'The North Face', 'fascia': 'The North Face', 'category': 'Retail', 'edit_date': '2025-05-16', 'lat_lon_source': 'Third Party'}",-27.636516,153.13524,The North Face ANACONDA,"{'Opening_hours': {'Mon': '00:00-23:59', 'Tue': '00:00-23:59', 'Wed': '00:00-23:59', 'Thu': '00:00-23:59', 'Fri': '00:00-23:59', 'Sat': '00:00-23:59', 'Sun': '00:00-23:59'}}",,,store4479,,https://thenorthface.com.au/stores/qld/store4479/anaconda
" Home Co., Manly Road & New Cleveland Road TINGALPA, QLD 4173 ",The North Face,,Autrialia,"{'brand': 'The North Face', 'fascia': 'The North Face', 'category': 'Retail', 'edit_date': '2025-05-16', 'lat_lon_source': 'Third Party'}",-27.476912,153.139523,The North Face ANACONDA,"{'Opening_hours': {'Mon': '00:00-23:59', 'Tue': '00:00-23:59', 'Wed': '00:00-23:59', 'Thu': '00:00-23:59', 'Fri': '00:00-23:59', 'Sat': '00:00-23:59', 'Sun': '00:00-23:59'}}",,,store4480,,https://thenorthface.com.au/stores/qld/store4480/anaconda
" Bundury Centre, 106 Victoria Street BUNBURY, WA 6230 ",The North Face,,Autrialia,"{'brand': 'The North Face', 'fascia': 'The North Face', 'category': 'Retail', 'edit_date': '2025-05-16', 'lat_lon_source': 'Third Party'}",-33.32549,115.63733,The North Face SUBCULTURE,"{'Opening_hours': {'Mon': '00:00-23:59', 'Tue': '00:00-23:59', 'Wed': '00:00-23:59', 'Thu': '00:00-23:59', 'Fri': '00:00-23:59', 'Sat': '00:00-23:59', 'Sun': '00:00-23:59'}}",,,store4573,,https://thenorthface.com.au/stores/wa/store4573/subculture
" 42 Wharf Street FORSTER, NSW 2428 ",The North Face,,Autrialia,"{'brand': 'The North Face', 'fascia': 'The North Face', 'category': 'Retail', 'edit_date': '2025-05-16', 'lat_lon_source': 'Third Party'}",-32.180465,152.510338,The North Face FORSTER SURF & SPORT,"{'Opening_hours': {'Mon': '00:00-23:59', 'Tue': '00:00-23:59', 'Wed': '00:00-23:59', 'Thu': '00:00-23:59', 'Fri': '00:00-23:59', 'Sat': '00:00-23:59', 'Sun': '00:00-23:59'}}",,,store4372,,https://thenorthface.com.au/stores/nsw/store4372/forster-surf-&-sport
" 52 Keen Street LISMORE, NSW 2480 ",The North Face,,Autrialia,"{'brand': 'The North Face', 'fascia': 'The North Face', 'category': 'Retail', 'edit_date': '2025-05-16', 'lat_lon_source': 'Third Party'}",-28.806469,153.280576,The North Face BUNYIPS GREAT OUTDOORS CENTRE,"{'Opening_hours': {'Mon': '00:00-23:59', 'Tue': '00:00-23:59', 'Wed': '00:00-23:59', 'Thu': '00:00-23:59', 'Fri': '00:00-23:59', 'Sat': '00:00-23:59', 'Sun': '00:00-23:59'}}",,,store4388,,https://thenorthface.com.au/stores/nsw/store4388/bunyips-great-outdoors-centre
" 211 Pacific Highway COFFS HARBOUR, NSW 2450 ",The North Face,,Autrialia,"{'brand': 'The North Face', 'fascia': 'The North Face', 'category': 'Retail', 'edit_date': '2025-05-16', 'lat_lon_source': 'Third Party'}",-30.308096,153.102119,The North Face ANACONDA,"{'Opening_hours': {'Mon': '00:00-23:59', 'Tue': '00:00-23:59', 'Wed': '00:00-23:59', 'Thu': '00:00-23:59', 'Fri': '00:00-23:59', 'Sat': '00:00-23:59', 'Sun': '00:00-23:59'}}",,,ANACOFFS,,https://thenorthface.com.au/stores/nsw/anacoffs/anaconda
" 353-357 Southport-Nerang Road ASHMORE, QLD 4214 ",The North Face,,Autrialia,"{'brand': 'The North Face', 'fascia': 'The North Face', 'category': 'Retail', 'edit_date': '2025-05-16', 'lat_lon_source': 'Third Party'}",-27.978628,153.37871,The North Face ANACONDA,"{'Opening_hours': {'Mon': '00:00-23:59', 'Tue': '00:00-23:59', 'Wed': '00:00-23:59', 'Thu': '00:00-23:59', 'Fri': '00:00-23:59', 'Sat': '00:00-23:59', 'Sun': '00:00-23:59'}}",,,store4489,,https://thenorthface.com.au/stores/qld/store4489/anaconda
" Harbour Town Premium Outlets, Gold Coast Highway & Oxley Drive BIGGERA WATERS, QLD 4216 ",The North Face,,Autrialia,"{'brand': 'The North Face', 'fascia': 'The North Face', 'category': 'Retail', 'edit_date': '2025-05-16', 'lat_lon_source': 'Third Party'}",-27.931414,153.387777,The North Face THE NORTH FACE HARBOUR TOWN,"{'Opening_hours': {'Mon': '00:00-23:59', 'Tue': '00:00-23:59', 'Wed': '00:00-23:59', 'Thu': '00:00-23:59', 'Fri': '00:00-23:59', 'Sat': '00:00-23:59', 'Sun': '00:00-23:59'}}",,,store4438,,https://thenorthface.com.au/stores/qld/store4438/the-north-face-harbour-town
" Park Beach Plaza, 253 Pacific Highway COFFS HARBOUR, NSW 2450 ",The North Face,,Autrialia,"{'brand': 'The North Face', 'fascia': 'The North Face', 'category': 'Retail', 'edit_date': '2025-05-16', 'lat_lon_source': 'Third Party'}",-30.281587,153.131522,The North Face EDEGREES,"{'Opening_hours': {'Mon': '00:00-23:59', 'Tue': '00:00-23:59', 'Wed': '00:00-23:59', 'Thu': '00:00-23:59', 'Fri': '00:00-23:59', 'Sat': '00:00-23:59', 'Sun': '00:00-23:59'}}",,,EDEGREES,,https://thenorthface.com.au/stores/nsw/edegrees/edegrees
" 6 Wharf Street MURWILLUMBAH, NSW 2484 ",The North Face,,Autrialia,"{'brand': 'The North Face', 'fascia': 'The North Face', 'category': 'Retail', 'edit_date': '2025-05-16', 'lat_lon_source': 'Third Party'}",-28.327269,153.399104,The North Face OUTDOORISM,"{'Opening_hours': {'Mon': '00:00-23:59', 'Tue': '00:00-23:59', 'Wed': '00:00-23:59', 'Thu': '00:00-23:59', 'Fri': '00:00-23:59', 'Sat': '00:00-23:59', 'Sun': '00:00-23:59'}}",,,store4400,,https://thenorthface.com.au/stores/nsw/store4400/outdoorism
" 180 Lake Road PORT MACQUARIE, NSW 2444 ",The North Face,,Autrialia,"{'brand': 'The North Face', 'fascia': 'The North Face', 'category': 'Retail', 'edit_date': '2025-05-16', 'lat_lon_source': 'Third Party'}",-31.449609,152.883237,The North Face ANACONDA,"{'Opening_hours': {'Mon': '00:00-23:59', 'Tue': '00:00-23:59', 'Wed': '00:00-23:59', 'Thu': '00:00-23:59', 'Fri': '00:00-23:59', 'Sat': '00:00-23:59', 'Sun': '00:00-23:59'}}",,,store4411,,https://thenorthface.com.au/stores/nsw/store4411/anaconda
" 25 Central Drive BURLEIGH HEADS, QLD 4220 ",The North Face,,Autrialia,"{'brand': 'The North Face', 'fascia': 'The North Face', 'category': 'Retail', 'edit_date': '2025-05-16', 'lat_lon_source': 'Third Party'}",-28.105329,153.423909,The North Face WILD EARTH,"{'Opening_hours': {'Mon': '00:00-23:59', 'Tue': '00:00-23:59', 'Wed': '00:00-23:59', 'Thu': '00:00-23:59', 'Fri': '00:00-23:59', 'Sat': '00:00-23:59', 'Sun': '00:00-23:59'}}",,,store4447,,https://thenorthface.com.au/stores/qld/store4447/wild-earth
" Pacific Fair Shopping Centre, Hooker Boulevard BROADBEACH, QLD 4218 ",The North Face,,Autrialia,"{'brand': 'The North Face', 'fascia': 'The North Face', 'category': 'Retail', 'edit_date': '2025-05-16', 'lat_lon_source': 'Third Party'}",-28.035522,153.428343,The North Face JD SPORTS,"{'Opening_hours': {'Mon': '00:00-23:59', 'Tue': '00:00-23:59', 'Wed': '00:00-23:59', 'Thu': '00:00-23:59', 'Fri': '00:00-23:59', 'Sat': '00:00-23:59', 'Sun': '00:00-23:59'}}",,,store4446,,https://thenorthface.com.au/stores/qld/store4446/jd-sports
" 23 Clarence Street PORT MACQUARIE, NSW 2444 ",The North Face,,Autrialia,"{'brand': 'The North Face', 'fascia': 'The North Face', 'category': 'Retail', 'edit_date': '2025-05-16', 'lat_lon_source': 'Third Party'}",-31.428851,152.910617,The North Face PRETTY RAD STORE,"{'Opening_hours': {'Mon': '00:00-23:59', 'Tue': '00:00-23:59', 'Wed': '00:00-23:59', 'Thu': '00:00-23:59', 'Fri': '00:00-23:59', 'Sat': '00:00-23:59', 'Sun': '00:00-23:59'}}",,,store4412,,https://thenorthface.com.au/stores/nsw/store4412/pretty-rad-store
" 177-207 Reedy Creek Road WEST BURLEIGH, QLD 4219 ",The North Face,,Autrialia,"{'brand': 'The North Face', 'fascia': 'The North Face', 'category': 'Retail', 'edit_date': '2025-05-16', 'lat_lon_source': 'Third Party'}",-28.099546,153.439849,The North Face ANACONDA,"{'Opening_hours': {'Mon': '00:00-23:59', 'Tue': '00:00-23:59', 'Wed': '00:00-23:59', 'Thu': '00:00-23:59', 'Fri': '00:00-23:59', 'Sat': '00:00-23:59', 'Sun': '00:00-23:59'}}",,,store4485,,https://thenorthface.com.au/stores/qld/store4485/anaconda
" 1/65 Queen Street BUSSELTON, WA 6280 ",The North Face,,Autrialia,"{'brand': 'The North Face', 'fascia': 'The North Face', 'category': 'Retail', 'edit_date': '2025-05-16', 'lat_lon_source': 'Third Party'}",-33.650049,115.34485,The North Face SUBCULTURE,"{'Opening_hours': {'Mon': '00:00-23:59', 'Tue': '00:00-23:59', 'Wed': '00:00-23:59', 'Thu': '00:00-23:59', 'Fri': '00:00-23:59', 'Sat': '00:00-23:59', 'Sun': '00:00-23:59'}}",,,store4574,,https://thenorthface.com.au/stores/wa/store4574/subculture
" 1/9 Lawson Street BYRON BAY, NSW 2481 ",The North Face,,Autrialia,"{'brand': 'The North Face', 'fascia': 'The North Face', 'category': 'Retail', 'edit_date': '2025-05-16', 'lat_lon_source': 'Third Party'}",-28.642162,153.612923,The North Face THE HABITAT,"{'Opening_hours': {'Mon': '00:00-23:59', 'Tue': '00:00-23:59', 'Wed': '00:00-23:59', 'Thu': '00:00-23:59', 'Fri': '00:00-23:59', 'Sat': '00:00-23:59', 'Sun': '00:00-23:59'}}",,,store4352,,https://thenorthface.com.au/stores/nsw/store4352/the-habitat
" Shop 6, 35 Dunn Bay Road DUNSBOROUGH, WA 6281 ",The North Face,,Autrialia,"{'brand': 'The North Face', 'fascia': 'The North Face', 'category': 'Retail', 'edit_date': '2025-05-16', 'lat_lon_source': 'Third Party'}",-33.614974,115.106319,The North Face HYPERLUXE,"{'Opening_hours': {'Mon': '00:00-23:59', 'Tue': '00:00-23:59', 'Wed': '00:00-23:59', 'Thu': '00:00-23:59', 'Fri': '00:00-23:59', 'Sat': '00:00-23:59', 'Sun': '00:00-23:59'}}",,,HYPERLUXE6281,,https://thenorthface.com.au/stores/wa/hyperluxe6281/hyperluxe
" 107b Bussell Highway MARGARET RIVER, WA 6280 ",The North Face,,Autrialia,"{'brand': 'The North Face', 'fascia': 'The North Face', 'category': 'Retail', 'edit_date': '2025-05-16', 'lat_lon_source': 'Third Party'}",-33.949584,115.074345,The North Face SUBCULTURE,"{'Opening_hours': {'Mon': '00:00-23:59', 'Tue': '00:00-23:59', 'Wed': '00:00-23:59', 'Thu': '00:00-23:59', 'Fri': '00:00-23:59', 'Sat': '00:00-23:59', 'Sun': '00:00-23:59'}}",,,store4586,,https://thenorthface.com.au/stores/wa/store4586/subculture
" 121 Bussell Highway MARGARET RIVER, WA 6285 ",The North Face,,Autrialia,"{'brand': 'The North Face', 'fascia': 'The North Face', 'category': 'Retail', 'edit_date': '2025-05-16', 'lat_lon_source': 'Third Party'}",-33.950829,115.074127,The North Face SPORTSPOWER,"{'Opening_hours': {'Mon': '00:00-23:59', 'Tue': '00:00-23:59', 'Wed': '00:00-23:59', 'Thu': '00:00-23:59', 'Fri': '00:00-23:59', 'Sat': '00:00-23:59', 'Sun': '00:00-23:59'}}",,,store4585,,https://thenorthface.com.au/stores/wa/store4585/sportspower
" 4 Friend Street, Stony Rise DEVONPORT, TAS 7310 ",The North Face,,Autrialia,"{'brand': 'The North Face', 'fascia': 'The North Face', 'category': 'Retail', 'edit_date': '2025-05-16', 'lat_lon_source': 'Third Party'}",-41.19219,146.337737,The North Face ANACONDA,"{'Opening_hours': {'Mon': '00:00-23:59', 'Tue': '00:00-23:59', 'Wed': '00:00-23:59', 'Thu': '00:00-23:59', 'Fri': '00:00-23:59', 'Sat': '00:00-23:59', 'Sun': '00:00-23:59'}}",,,store4505,,https://thenorthface.com.au/stores/tas/store4505/anaconda
" 180 Cimitiere Street LAUNCESTON, TAS 7250 ",The North Face,,Autrialia,"{'brand': 'The North Face', 'fascia': 'The North Face', 'category': 'Retail', 'edit_date': '2025-05-16', 'lat_lon_source': 'Third Party'}",-41.433673,147.137043,The North Face ANACONDA,"{'Opening_hours': {'Mon': '00:00-23:59', 'Tue': '00:00-23:59', 'Wed': '00:00-23:59', 'Thu': '00:00-23:59', 'Fri': '00:00-23:59', 'Sat': '00:00-23:59', 'Sun': '00:00-23:59'}}",,,store4509,,https://thenorthface.com.au/stores/tas/store4509/anaconda
" 110 George Street LAUNCESTON, TAS 7250 ",The North Face,,Autrialia,"{'brand': 'The North Face', 'fascia': 'The North Face', 'category': 'Retail', 'edit_date': '2025-05-16', 'lat_lon_source': 'Third Party'}",-41.437205,147.140932,The North Face PADDY PALLIN,"{'Opening_hours': {'Mon': '00:00-23:59', 'Tue': '00:00-23:59', 'Wed': '00:00-23:59', 'Thu': '00:00-23:59', 'Fri': '00:00-23:59', 'Sat': '00:00-23:59', 'Sun': '00:00-23:59'}}",,,store4510,,https://thenorthface.com.au/stores/tas/store4510/paddy-pallin
" 111 Elizabeth Street HOBART, TAS 7000 ",The North Face,,Autrialia,"{'brand': 'The North Face', 'fascia': 'The North Face', 'category': 'Retail', 'edit_date': '2025-05-16', 'lat_lon_source': 'Third Party'}",-42.880664,147.326204,The North Face PADDY PALLIN,"{'Opening_hours': {'Mon': '00:00-23:59', 'Tue': '00:00-23:59', 'Wed': '00:00-23:59', 'Thu': '00:00-23:59', 'Fri': '00:00-23:59', 'Sat': '00:00-23:59', 'Sun': '00:00-23:59'}}",,,store4508,,https://thenorthface.com.au/stores/tas/store4508/paddy-pallin
" 107 Elizabeth Street HOBART, TAS 7000 ",The North Face,,Autrialia,"{'brand': 'The North Face', 'fascia': 'The North Face', 'category': 'Retail', 'edit_date': '2025-05-16', 'lat_lon_source': 'Third Party'}",-42.880764,147.326381,The North Face FIND YOUR FEET,"{'Opening_hours': {'Mon': '00:00-23:59', 'Tue': '00:00-23:59', 'Wed': '00:00-23:59', 'Thu': '00:00-23:59', 'Fri': '00:00-23:59', 'Sat': '00:00-23:59', 'Sun': '00:00-23:59'}}",,,store4506,,https://thenorthface.com.au/stores/tas/store4506/find-your-feet
" Ground Floor, 90-92 Liverpool Street HOBART, TAS 7000 ",The North Face,,Autrialia,"{'brand': 'The North Face', 'fascia': 'The North Face', 'category': 'Retail', 'edit_date': '2025-05-16', 'lat_lon_source': 'Third Party'}",-42.881758,147.326948,The North Face GENERAL PANTS CO,"{'Opening_hours': {'Mon': '00:00-23:59', 'Tue': '00:00-23:59', 'Wed': '00:00-23:59', 'Thu': '00:00-23:59', 'Fri': '00:00-23:59', 'Sat': '00:00-23:59', 'Sun': '00:00-23:59'}}",,,store4507,,https://thenorthface.com.au/stores/tas/store4507/general-pants-co
" 116 Liverpool Street, HOBART, TAS 7000 ",The North Face,,Autrialia,"{'brand': 'The North Face', 'fascia': 'The North Face', 'category': 'Retail', 'edit_date': '2025-05-16', 'lat_lon_source': 'Third Party'}",-42.88235,147.32634,The North Face THE NORTH FACE HOBART,"{'Opening_hours': {'Mon': '00:00-23:59', 'Tue': '00:00-23:59', 'Wed': '00:00-23:59', 'Thu': '00:00-23:59', 'Fri': '00:00-23:59', 'Sat': '00:00-23:59', 'Sun': '00:00-23:59'}}",,,store4701,,https://thenorthface.com.au/stores/tas/store4701/the-north-face-hobart
" Harvey Norman Centre, 66 Kennedy Drive CAMBRIDGE, TAS 7170 ",The North Face,,Autrialia,"{'brand': 'The North Face', 'fascia': 'The North Face', 'category': 'Retail', 'edit_date': '2025-05-16', 'lat_lon_source': 'Third Party'}",-42.83406,147.46653,The North Face ANACONDA,"{'Opening_hours': {'Mon': '00:00-23:59', 'Tue': '00:00-23:59', 'Wed': '00:00-23:59', 'Thu': '00:00-23:59', 'Fri': '00:00-23:59', 'Sat': '00:00-23:59', 'Sun': '00:00-23:59'}}",,,store4504,,https://thenorthface.com.au/stores/tas/store4504/anaconda
