addr_full,brand,city,country,extras,lat,lon,name,opening_hours,phone,postcode,ref,state,website
Kylmälahdentie 13,Lidl,Jyväskylä,Finland,"{'brand': 'Lidl', 'fascia': 'Lidl', 'category': 'Retail', 'edit_date': '2025-05-22', 'lat_lon_source': 'Third Party'}",62.21794,25.71949,Lidl Jyväskylä - Keljo,"{'opening_hours': {'Tue': '08:00-22:00', 'Wed': '08:00-21:00', 'Thu': '09:00-21:00', 'Fri': '08:00-22:00', 'Sat': '08:00-22:00'}}",,40500,100,,https://www.lidl.fi/s/fi-FI/myymaelaet/jyväskylä/kylmälahdentie-13/
Pihlajakatu 2,Lidl,Forssa,Finland,"{'brand': 'Lidl', 'fascia': 'Lidl', 'category': 'Retail', 'edit_date': '2025-05-22', 'lat_lon_source': 'Third Party'}",60.80788,23.62021,Lidl Forssa,"{'opening_hours': {'Tue': '08:00-21:00', 'Wed': '08:00-20:00', 'Thu': '10:00-20:00', 'Fri': '08:00-21:00', 'Sat': '08:00-21:00'}}",,30420,101,,https://www.lidl.fi/s/fi-FI/myymaelaet/forssa/pihlajakatu-2/
Lautakunnankatu 7,Lidl,Kaarina,Finland,"{'brand': 'Lidl', 'fascia': 'Lidl', 'category': 'Retail', 'edit_date': '2025-05-22', 'lat_lon_source': 'Third Party'}",60.40828,22.36367,Lidl Kaarina - Keskusta,"{'opening_hours': {'Tue': '08:00-21:00', 'Wed': '08:00-21:00', 'Thu': '10:00-21:00', 'Fri': '08:00-21:00', 'Sat': '08:00-21:00'}}",,20780,103,,https://www.lidl.fi/s/fi-FI/myymaelaet/kaarina/lautakunnankatu-7/
Myllytie 3,Lidl,Kempele,Finland,"{'brand': 'Lidl', 'fascia': 'Lidl', 'category': 'Retail', 'edit_date': '2025-05-22', 'lat_lon_source': 'Third Party'}",64.90428,25.54307,Lidl Kempele,"{'opening_hours': {'Tue': '08:00-22:00', 'Wed': '08:00-21:00', 'Thu': '10:00-21:00', 'Fri': '08:00-22:00', 'Sat': '08:00-22:00'}}",,90450,104,,https://www.lidl.fi/s/fi-FI/myymaelaet/kempele/myllytie-3/
Myllymäenkatu 36,Lidl,Lappeenranta,Finland,"{'brand': 'Lidl', 'fascia': 'Lidl', 'category': 'Retail', 'edit_date': '2025-05-22', 'lat_lon_source': 'Third Party'}",61.04175,28.21792,Lidl Lappeenranta - Myllymäki,"{'opening_hours': {'Tue': '08:00-21:00', 'Wed': '08:00-20:00', 'Thu': '10:00-20:00', 'Fri': '08:00-21:00', 'Sat': '08:00-21:00'}}",,53550,105,,https://www.lidl.fi/s/fi-FI/myymaelaet/lappeenranta/myllymäenkatu-36/
Kaartotie 1,Lidl,Pirkkala,Finland,"{'brand': 'Lidl', 'fascia': 'Lidl', 'category': 'Retail', 'edit_date': '2025-05-22', 'lat_lon_source': 'Third Party'}",61.46925,23.71243,Lidl Pirkkala,"{'opening_hours': {'Tue': '08:00-21:00', 'Wed': '08:00-21:00', 'Thu': '09:00-21:00', 'Fri': '08:00-21:00', 'Sat': '08:00-21:00'}}",,33950,106,,https://www.lidl.fi/s/fi-FI/myymaelaet/pirkkala/kaartotie-1/
Kuhnamontie 5a,Lidl,Äänekoski,Finland,"{'brand': 'Lidl', 'fascia': 'Lidl', 'category': 'Retail', 'edit_date': '2025-05-22', 'lat_lon_source': 'Third Party'}",62.59893,25.72555,Lidl Äänekoski,"{'opening_hours': {'Tue': '08:00-21:00', 'Wed': '08:00-20:00', 'Thu': '10:00-20:00', 'Fri': '08:00-21:00', 'Sat': '08:00-21:00'}}",,44100,107,,https://www.lidl.fi/s/fi-FI/myymaelaet/äänekoski/kuhnamontie-5a/
Täikönkatu 4,Lidl,Kemi,Finland,"{'brand': 'Lidl', 'fascia': 'Lidl', 'category': 'Retail', 'edit_date': '2025-05-22', 'lat_lon_source': 'Third Party'}",65.7398,24.56756,Lidl Kemi,"{'opening_hours': {'Tue': '08:00-21:00', 'Wed': '08:00-20:00', 'Thu': '10:00-21:00', 'Fri': '08:00-21:00', 'Sat': '08:00-21:00'}}",,94100,108,,https://www.lidl.fi/s/fi-FI/myymaelaet/kemi/täikönkatu-4/
Laturinkatu 1,Lidl,Kouvola,Finland,"{'brand': 'Lidl', 'fascia': 'Lidl', 'category': 'Retail', 'edit_date': '2025-05-22', 'lat_lon_source': 'Third Party'}",60.86852,26.67041,Lidl Kouvola - Kellomäki,"{'opening_hours': {'Tue': '08:00-21:00', 'Wed': '08:00-21:00', 'Thu': '09:00-20:00', 'Fri': '08:00-21:00', 'Sat': '08:00-21:00'}}",,45130,109,,https://www.lidl.fi/s/fi-FI/myymaelaet/kouvola/laturinkatu-1/
Karankatu 15,Lidl,Riihimäki,Finland,"{'brand': 'Lidl', 'fascia': 'Lidl', 'category': 'Retail', 'edit_date': '2025-05-22', 'lat_lon_source': 'Third Party'}",60.74736,24.77967,Lidl Riihimäki - Petsamo,"{'opening_hours': {'Tue': '08:00-21:00', 'Wed': '08:00-20:00', 'Thu': '10:00-20:00', 'Fri': '08:00-21:00', 'Sat': '08:00-21:00'}}",,11120,111,,https://www.lidl.fi/s/fi-FI/myymaelaet/riihimäki/karankatu-15/
Petosentie 4,Lidl,Kuopio,Finland,"{'brand': 'Lidl', 'fascia': 'Lidl', 'category': 'Retail', 'edit_date': '2025-05-22', 'lat_lon_source': 'Third Party'}",62.84011,27.64889,Lidl Kuopio - Petonen,"{'opening_hours': {'Tue': '08:00-21:00', 'Wed': '08:00-20:00', 'Thu': '10:00-21:00', 'Fri': '08:00-21:00', 'Sat': '08:00-21:00'}}",,70820,112,,https://www.lidl.fi/s/fi-FI/myymaelaet/kuopio/petosentie-4/
Nuijamiestentie 2,Lidl,Nokia,Finland,"{'brand': 'Lidl', 'fascia': 'Lidl', 'category': 'Retail', 'edit_date': '2025-05-22', 'lat_lon_source': 'Third Party'}",61.46617,23.50641,Lidl Nokia,"{'opening_hours': {'Tue': '08:00-21:00', 'Wed': '08:00-21:00', 'Thu': '09:00-21:00', 'Fri': '08:00-21:00', 'Sat': '08:00-21:00'}}",,37120,113,,https://www.lidl.fi/s/fi-FI/myymaelaet/nokia/nuijamiestentie-2/
Kivistönkatu 1,Lidl,Lahti,Finland,"{'brand': 'Lidl', 'fascia': 'Lidl', 'category': 'Retail', 'edit_date': '2025-05-22', 'lat_lon_source': 'Third Party'}",60.99636,25.66692,Lidl Lahti - Kivimaa,"{'opening_hours': {'Tue': '08:00-21:00', 'Wed': '08:00-21:00', 'Thu': '09:00-21:00', 'Fri': '08:00-21:00', 'Sat': '08:00-21:00'}}",,15210,116,,https://www.lidl.fi/s/fi-FI/myymaelaet/lahti/kivistönkatu-1/
Paanakedonkatu 10,Lidl,Pori,Finland,"{'brand': 'Lidl', 'fascia': 'Lidl', 'category': 'Retail', 'edit_date': '2025-05-22', 'lat_lon_source': 'Third Party'}",61.4847,21.80969,Lidl Pori - Herralahti,"{'opening_hours': {'Tue': '08:00-22:00', 'Wed': '08:00-21:00', 'Thu': '09:00-21:00', 'Fri': '08:00-22:00', 'Sat': '08:00-22:00'}}",,28100,117,,https://www.lidl.fi/s/fi-FI/myymaelaet/pori/paanakedonkatu-10/
Mankkaantie 2-4,Lidl,Espoo,Finland,"{'brand': 'Lidl', 'fascia': 'Lidl', 'category': 'Retail', 'edit_date': '2025-05-22', 'lat_lon_source': 'Third Party'}",60.19468,24.7679,Lidl Espoo - Mankkaa,"{'opening_hours': {'Tue': '08:00-21:00', 'Wed': '08:00-21:00', 'Thu': '10:00-21:00', 'Fri': '08:00-21:00', 'Sat': '08:00-21:00'}}",,02180,118,,https://www.lidl.fi/s/fi-FI/myymaelaet/espoo/mankkaantie-2-4/
Fellmanin puistokatu 15,Lidl,Raahe,Finland,"{'brand': 'Lidl', 'fascia': 'Lidl', 'category': 'Retail', 'edit_date': '2025-05-22', 'lat_lon_source': 'Third Party'}",64.68312,24.4811,Lidl Raahe,"{'opening_hours': {'Tue': '08:00-21:00', 'Wed': '08:00-20:00', 'Thu': '10:00-20:00', 'Fri': '08:00-21:00', 'Sat': '08:00-21:00'}}",,92100,119,,https://www.lidl.fi/s/fi-FI/myymaelaet/raahe/fellmanin-puistokatu-15/
Papinhaankatu 7,Lidl,Rauma,Finland,"{'brand': 'Lidl', 'fascia': 'Lidl', 'category': 'Retail', 'edit_date': '2025-05-22', 'lat_lon_source': 'Third Party'}",61.13708,21.50255,Lidl Rauma,"{'opening_hours': {'Tue': '08:00-21:00', 'Wed': '08:00-21:00', 'Thu': '09:00-21:00', 'Fri': '08:00-21:00', 'Sat': '08:00-21:00'}}",,26100,120,,https://www.lidl.fi/s/fi-FI/myymaelaet/rauma/papinhaankatu-7/
Terveystie 49,Lidl,Hollola,Finland,"{'brand': 'Lidl', 'fascia': 'Lidl', 'category': 'Retail', 'edit_date': '2025-05-22', 'lat_lon_source': 'Third Party'}",60.98797,25.534,Lidl Hollola,"{'opening_hours': {'Tue': '08:00-21:00', 'Wed': '08:00-21:00', 'Thu': '10:00-20:00', 'Fri': '08:00-21:00', 'Sat': '08:00-21:00'}}",,15860,121,,https://www.lidl.fi/s/fi-FI/myymaelaet/hollola/terveystie-49/
Puistotie 60,Lidl,Kauhajoki,Finland,"{'brand': 'Lidl', 'fascia': 'Lidl', 'category': 'Retail', 'edit_date': '2025-05-22', 'lat_lon_source': 'Third Party'}",62.43188,22.17901,Lidl Kauhajoki,"{'opening_hours': {'Tue': '08:00-21:00', 'Wed': '08:00-20:00', 'Thu': '10:00-20:00', 'Fri': '08:00-21:00', 'Sat': '08:00-21:00'}}",,61800,122,,https://www.lidl.fi/s/fi-FI/myymaelaet/kauhajoki/puistotie-60/
Ostostie 4,Lidl,Helsinki,Finland,"{'brand': 'Lidl', 'fascia': 'Lidl', 'category': 'Retail', 'edit_date': '2025-05-22', 'lat_lon_source': 'Third Party'}",60.23809,25.08298,Lidl Helsinki - Kontula,"{'opening_hours': {'Tue': '07:00-21:00', 'Wed': '08:00-21:00', 'Thu': '09:00-21:00', 'Fri': '07:00-21:00', 'Sat': '07:00-21:00'}}",,00940,123,,https://www.lidl.fi/s/fi-FI/myymaelaet/helsinki/ostostie-4/
Harjuntausta 11,Lidl,Tampere,Finland,"{'brand': 'Lidl', 'fascia': 'Lidl', 'category': 'Retail', 'edit_date': '2025-05-22', 'lat_lon_source': 'Third Party'}",61.51618,23.66682,Lidl Tampere - Lielahti,"{'opening_hours': {'Tue': '08:00-22:00', 'Wed': '08:00-21:00', 'Thu': '09:00-21:00', 'Fri': '08:00-22:00', 'Sat': '08:00-22:00'}}",,33400,124,,https://www.lidl.fi/s/fi-FI/myymaelaet/tampere/harjuntausta-11/
Tervahovintie 4,Lidl,Kokkola,Finland,"{'brand': 'Lidl', 'fascia': 'Lidl', 'category': 'Retail', 'edit_date': '2025-05-22', 'lat_lon_source': 'Third Party'}",63.83605,23.11693,Lidl Kokkola - Keskusta,"{'opening_hours': {'Tue': '08:00-21:00', 'Wed': '08:00-20:00', 'Thu': '10:00-20:00', 'Fri': '08:00-21:00', 'Sat': '08:00-21:00'}}",,67100,125,,https://www.lidl.fi/s/fi-FI/myymaelaet/kokkola/tervahovintie-4/
Levysepänkatu 2,Lidl,Uusikaupunki,Finland,"{'brand': 'Lidl', 'fascia': 'Lidl', 'category': 'Retail', 'edit_date': '2025-05-22', 'lat_lon_source': 'Third Party'}",60.80659,21.42823,Lidl Uusikaupunki,"{'opening_hours': {'Tue': '08:00-21:00', 'Wed': '08:00-21:00', 'Thu': '09:00-21:00', 'Fri': '08:00-21:00', 'Sat': '08:00-21:00'}}",,23500,126,,https://www.lidl.fi/s/fi-FI/myymaelaet/uusikaupunki/levysepänkatu-2/
Oikotie 2,Lidl,Raasepori,Finland,"{'brand': 'Lidl', 'fascia': 'Lidl', 'category': 'Retail', 'edit_date': '2025-05-22', 'lat_lon_source': 'Third Party'}",59.98103,23.45661,Lidl Raasepori - Tammisaari,"{'opening_hours': {'Tue': '08:00-21:00', 'Wed': '08:00-20:00', 'Thu': '09:00-20:00', 'Fri': '08:00-21:00', 'Sat': '08:00-21:00'}}",,10650,127,,https://www.lidl.fi/s/fi-FI/myymaelaet/raasepori/oikotie-2/
Kuiluntie 6,Lidl,Siilinjärvi,Finland,"{'brand': 'Lidl', 'fascia': 'Lidl', 'category': 'Retail', 'edit_date': '2025-05-22', 'lat_lon_source': 'Third Party'}",63.07294,27.65788,Lidl Siilinjärvi,"{'opening_hours': {'Tue': '08:00-21:00', 'Wed': '08:00-20:00', 'Thu': '10:00-21:00', 'Fri': '08:00-21:00', 'Sat': '08:00-21:00'}}",,71800,128,,https://www.lidl.fi/s/fi-FI/myymaelaet/siilinjärvi/kuiluntie-6/
Nuutilankatu 1,Lidl,Sastamala,Finland,"{'brand': 'Lidl', 'fascia': 'Lidl', 'category': 'Retail', 'edit_date': '2025-05-22', 'lat_lon_source': 'Third Party'}",61.32648,22.91691,Lidl Sastamala,"{'opening_hours': {'Tue': '08:00-21:00', 'Wed': '08:00-20:00', 'Thu': '10:00-19:00', 'Fri': '08:00-21:00', 'Sat': '08:00-21:00'}}",,38200,129,,https://www.lidl.fi/s/fi-FI/myymaelaet/sastamala/nuutilankatu-1/
Siltakatu 21,Lidl,Heinola,Finland,"{'brand': 'Lidl', 'fascia': 'Lidl', 'category': 'Retail', 'edit_date': '2025-05-22', 'lat_lon_source': 'Third Party'}",61.20457,26.03719,Lidl Heinola,"{'opening_hours': {'Tue': '08:00-21:00', 'Wed': '08:00-21:00', 'Thu': '09:00-20:00', 'Fri': '08:00-21:00', 'Sat': '08:00-21:00'}}",,18100,130,,https://www.lidl.fi/s/fi-FI/myymaelaet/heinola/siltakatu-21/
Santaniitynkatu 7,Lidl,Kerava,Finland,"{'brand': 'Lidl', 'fascia': 'Lidl', 'category': 'Retail', 'edit_date': '2025-05-22', 'lat_lon_source': 'Third Party'}",60.39927,25.11193,Lidl Kerava,"{'opening_hours': {'Tue': '07:00-22:00', 'Wed': '08:00-22:00', 'Thu': '09:00-22:00', 'Fri': '07:00-22:00', 'Sat': '07:00-22:00'}}",,04250,131,,https://www.lidl.fi/s/fi-FI/myymaelaet/kerava/santaniitynkatu-7/
Lentolankuja 8,Lidl,Kangasala,Finland,"{'brand': 'Lidl', 'fascia': 'Lidl', 'category': 'Retail', 'edit_date': '2025-05-22', 'lat_lon_source': 'Third Party'}",61.47277,23.98973,Lidl Kangasala,"{'opening_hours': {'Tue': '08:00-21:00', 'Wed': '08:00-21:00', 'Thu': '10:00-21:00', 'Fri': '08:00-21:00', 'Sat': '08:00-21:00'}}",,36220,132,,https://www.lidl.fi/s/fi-FI/myymaelaet/kangasala/lentolankuja-8/
Risto Rytin katu 12,Lidl,Huittinen,Finland,"{'brand': 'Lidl', 'fascia': 'Lidl', 'category': 'Retail', 'edit_date': '2025-05-22', 'lat_lon_source': 'Third Party'}",61.17386,22.68847,Lidl Huittinen,"{'opening_hours': {'Tue': '08:00-21:00', 'Wed': '08:00-20:00', 'Thu': '10:00-19:00', 'Fri': '08:00-21:00', 'Sat': '08:00-21:00'}}",,32700,134,,https://www.lidl.fi/s/fi-FI/myymaelaet/huittinen/risto-rytin-katu-12/
Maariankatu 20,Lidl,Hamina,Finland,"{'brand': 'Lidl', 'fascia': 'Lidl', 'category': 'Retail', 'edit_date': '2025-05-22', 'lat_lon_source': 'Third Party'}",60.56586,27.19321,Lidl Hamina,"{'opening_hours': {'Tue': '08:00-21:00', 'Wed': '08:00-21:00', 'Thu': '09:00-21:00', 'Fri': '08:00-21:00', 'Sat': '08:00-21:00'}}",,49400,136,,https://www.lidl.fi/s/fi-FI/myymaelaet/hamina/maariankatu-20/
Maistraatinkatu 2,Lidl,Porvoo,Finland,"{'brand': 'Lidl', 'fascia': 'Lidl', 'category': 'Retail', 'edit_date': '2025-05-22', 'lat_lon_source': 'Third Party'}",60.39037,25.65201,Lidl Porvoo - Näsi,"{'opening_hours': {'Tue': '07:00-22:00', 'Wed': '08:00-21:00', 'Thu': '09:00-22:00', 'Fri': '07:00-22:00', 'Sat': '07:00-22:00'}}",,06100,137,,https://www.lidl.fi/s/fi-FI/myymaelaet/porvoo/maistraatinkatu-2/
Vuojärventie 1,Lidl,Laukaa,Finland,"{'brand': 'Lidl', 'fascia': 'Lidl', 'category': 'Retail', 'edit_date': '2025-05-22', 'lat_lon_source': 'Third Party'}",62.41461,25.9475,Lidl Laukaa,"{'opening_hours': {'Tue': '08:00-21:00', 'Wed': '08:00-20:00', 'Thu': '10:00-20:00', 'Fri': '08:00-21:00', 'Sat': '08:00-21:00'}}",,41340,138,,https://www.lidl.fi/s/fi-FI/myymaelaet/laukaa/vuojärventie-1/
Airotie 13,Lidl,Kuusamo,Finland,"{'brand': 'Lidl', 'fascia': 'Lidl', 'category': 'Retail', 'edit_date': '2025-05-22', 'lat_lon_source': 'Third Party'}",65.9589,29.162,Lidl Kuusamo,"{'opening_hours': {'Tue': '08:00-21:00', 'Wed': '08:00-20:00', 'Thu': '10:00-20:00', 'Fri': '08:00-21:00', 'Sat': '08:00-21:00'}}",,93600,139,,https://www.lidl.fi/s/fi-FI/myymaelaet/kuusamo/airotie-13/
Rakentajantie 4,Lidl,Lapua,Finland,"{'brand': 'Lidl', 'fascia': 'Lidl', 'category': 'Retail', 'edit_date': '2025-05-22', 'lat_lon_source': 'Third Party'}",62.97391,23.02712,Lidl Lapua,"{'opening_hours': {'Tue': '08:00-21:00', 'Wed': '08:00-20:00', 'Thu': '10:00-20:00', 'Fri': '08:00-21:00', 'Sat': '08:00-21:00'}}",,62100,140,,https://www.lidl.fi/s/fi-FI/myymaelaet/lapua/rakentajantie-4/
Tegelbruksvägen 2,Lidl,Närpes,Finland,"{'brand': 'Lidl', 'fascia': 'Lidl', 'category': 'Retail', 'edit_date': '2025-05-22', 'lat_lon_source': 'Third Party'}",62.47582,21.39491,Lidl Närpiö,"{'opening_hours': {'Tue': '08:00-21:00', 'Wed': '08:00-20:00', 'Thu': '10:00-20:00', 'Fri': '08:00-21:00', 'Sat': '08:00-21:00'}}",,64230,141,,https://www.lidl.fi/s/fi-FI/myymaelaet/närpes/tegelbruksvägen-2/
Töyrynummentie 2,Lidl,Mäntsälä,Finland,"{'brand': 'Lidl', 'fascia': 'Lidl', 'category': 'Retail', 'edit_date': '2025-05-22', 'lat_lon_source': 'Third Party'}",60.62373,25.2923,Lidl Mäntsälä,"{'opening_hours': {'Tue': '08:00-21:00', 'Wed': '08:00-21:00', 'Thu': '09:00-21:00', 'Fri': '08:00-21:00', 'Sat': '08:00-21:00'}}",,04600,142,,https://www.lidl.fi/s/fi-FI/myymaelaet/mäntsälä/töyrynummentie-2/
Esankatu 4,Lidl,Jämsä,Finland,"{'brand': 'Lidl', 'fascia': 'Lidl', 'category': 'Retail', 'edit_date': '2025-05-22', 'lat_lon_source': 'Third Party'}",61.86263,25.17811,Lidl Jämsä,"{'opening_hours': {'Tue': '08:00-21:00', 'Wed': '08:00-20:00', 'Thu': '10:00-20:00', 'Fri': '08:00-21:00', 'Sat': '08:00-21:00'}}",,42100,143,,https://www.lidl.fi/s/fi-FI/myymaelaet/jämsä/esankatu-4/
Esplanaadi 134,Lidl,Hanko,Finland,"{'brand': 'Lidl', 'fascia': 'Lidl', 'category': 'Retail', 'edit_date': '2025-05-22', 'lat_lon_source': 'Third Party'}",59.83111,22.98826,Lidl Hanko,"{'opening_hours': {'Tue': '08:00-21:00', 'Wed': '08:00-20:00', 'Thu': '09:00-19:00', 'Fri': '08:00-21:00', 'Sat': '08:00-21:00'}}",,10960,144,,https://www.lidl.fi/s/fi-FI/myymaelaet/hanko/esplanaadi-134/
Kärsämäentie 2,Lidl,Turku,Finland,"{'brand': 'Lidl', 'fascia': 'Lidl', 'category': 'Retail', 'edit_date': '2025-05-22', 'lat_lon_source': 'Third Party'}",60.47362,22.28341,Lidl Turku - Kärsämäki,"{'opening_hours': {'Tue': '08:00-21:00', 'Wed': '08:00-21:00', 'Thu': '09:00-21:00', 'Fri': '08:00-21:00', 'Sat': '08:00-21:00'}}",,20300,145,,https://www.lidl.fi/s/fi-FI/myymaelaet/turku/kärsämäentie-2/
Oijustie 2,Lidl,Rovaniemi,Finland,"{'brand': 'Lidl', 'fascia': 'Lidl', 'category': 'Retail', 'edit_date': '2025-05-22', 'lat_lon_source': 'Third Party'}",66.49165,25.69461,Lidl Rovaniemi - Teollisuuskylä,"{'opening_hours': {'Tue': '08:00-22:00', 'Wed': '08:00-21:00', 'Thu': '09:00-21:00', 'Fri': '08:00-22:00', 'Sat': '08:00-22:00'}}",,96320,146,,https://www.lidl.fi/s/fi-FI/myymaelaet/rovaniemi/oijustie-2/
Asemakatu 2,Lidl,Kankaanpää,Finland,"{'brand': 'Lidl', 'fascia': 'Lidl', 'category': 'Retail', 'edit_date': '2025-05-22', 'lat_lon_source': 'Third Party'}",61.81295,22.37705,Lidl Kankaanpää,"{'opening_hours': {'Tue': '08:00-21:00', 'Wed': '08:00-21:00', 'Thu': '10:00-20:00', 'Fri': '08:00-21:00', 'Sat': '08:00-21:00'}}",,38700,147,,https://www.lidl.fi/s/fi-FI/myymaelaet/kankaanpää/asemakatu-2/
Vapaudenkatu 23,Lidl,Lahti,Finland,"{'brand': 'Lidl', 'fascia': 'Lidl', 'category': 'Retail', 'edit_date': '2025-05-22', 'lat_lon_source': 'Third Party'}",60.98313,25.66565,Lidl Lahti - Keskusta,"{'opening_hours': {'Tue': '08:00-21:00', 'Wed': '08:00-20:00', 'Thu': '11:00-19:00', 'Fri': '08:00-21:00', 'Sat': '08:00-21:00'}}",,15140,148,,https://www.lidl.fi/s/fi-FI/myymaelaet/lahti/vapaudenkatu-23/
Yrittäjäntie 1,Lidl,Alajärvi,Finland,"{'brand': 'Lidl', 'fascia': 'Lidl', 'category': 'Retail', 'edit_date': '2025-05-22', 'lat_lon_source': 'Third Party'}",63.00346,23.80326,Lidl Alajärvi,"{'opening_hours': {'Tue': '08:00-21:00', 'Wed': '08:00-20:00', 'Thu': '10:00-20:00', 'Fri': '08:00-21:00', 'Sat': '08:00-21:00'}}",,62900,150,,https://www.lidl.fi/s/fi-FI/myymaelaet/alajärvi/yrittäjäntie-1/
Tarhurintie 3,Lidl,Leppävirta,Finland,"{'brand': 'Lidl', 'fascia': 'Lidl', 'category': 'Retail', 'edit_date': '2025-05-22', 'lat_lon_source': 'Third Party'}",62.49036,27.77016,Lidl Leppävirta,"{'opening_hours': {'Tue': '08:00-21:00', 'Wed': '08:00-20:00', 'Thu': '10:00-20:00', 'Fri': '08:00-21:00', 'Sat': '08:00-21:00'}}",,79100,151,,https://www.lidl.fi/s/fi-FI/myymaelaet/leppävirta/tarhurintie-3/
Launeenkatu 86,Lidl,Lahti,Finland,"{'brand': 'Lidl', 'fascia': 'Lidl', 'category': 'Retail', 'edit_date': '2025-05-22', 'lat_lon_source': 'Third Party'}",60.95955,25.65226,Lidl Lahti - Laune,"{'opening_hours': {'Tue': '08:00-21:00', 'Wed': '08:00-21:00', 'Thu': '09:00-21:00', 'Fri': '08:00-21:00', 'Sat': '08:00-21:00'}}",,15610,152,,https://www.lidl.fi/s/fi-FI/myymaelaet/lahti/launeenkatu-86/
Kyläpajankatu 2,Lidl,Raisio,Finland,"{'brand': 'Lidl', 'fascia': 'Lidl', 'category': 'Retail', 'edit_date': '2025-05-22', 'lat_lon_source': 'Third Party'}",60.48021,22.16085,Lidl Raisio,"{'opening_hours': {'Tue': '07:00-21:00', 'Wed': '07:00-21:00', 'Thu': '09:00-21:00', 'Fri': '07:00-21:00', 'Sat': '07:00-21:00'}}",,21200,153,,https://www.lidl.fi/s/fi-FI/myymaelaet/raisio/kyläpajankatu-2/
Kaarnatie 1,Lidl,Vaasa,Finland,"{'brand': 'Lidl', 'fascia': 'Lidl', 'category': 'Retail', 'edit_date': '2025-05-22', 'lat_lon_source': 'Third Party'}",63.08567,21.69836,Lidl Vaasa - Melaniemi,"{'opening_hours': {'Tue': '08:00-21:00', 'Wed': '08:00-20:00', 'Thu': '10:00-21:00', 'Fri': '08:00-21:00', 'Sat': '08:00-21:00'}}",,65320,154,,https://www.lidl.fi/s/fi-FI/myymaelaet/vaasa/kaarnatie-1/
Kinnarinkatu 6,Lidl,Järvenpää,Finland,"{'brand': 'Lidl', 'fascia': 'Lidl', 'category': 'Retail', 'edit_date': '2025-05-22', 'lat_lon_source': 'Third Party'}",60.47459,25.11194,Lidl Järvenpää - Terhola,"{'opening_hours': {'Tue': '08:00-22:00', 'Wed': '08:00-21:00', 'Thu': '09:00-21:00', 'Fri': '08:00-22:00', 'Sat': '08:00-22:00'}}",,04430,155,,https://www.lidl.fi/s/fi-FI/myymaelaet/järvenpää/kinnarinkatu-6/
Teollisuuskatu 4a,Lidl,Harjavalta,Finland,"{'brand': 'Lidl', 'fascia': 'Lidl', 'category': 'Retail', 'edit_date': '2025-05-22', 'lat_lon_source': 'Third Party'}",61.31001,22.13714,Lidl Harjavalta,"{'opening_hours': {'Tue': '08:00-21:00', 'Wed': '08:00-20:00', 'Thu': '10:00-19:00', 'Fri': '08:00-21:00', 'Sat': '08:00-21:00'}}",,29200,156,,https://www.lidl.fi/s/fi-FI/myymaelaet/harjavalta/teollisuuskatu-4a/
Heimolankuja 2,Lidl,Kauhava,Finland,"{'brand': 'Lidl', 'fascia': 'Lidl', 'category': 'Retail', 'edit_date': '2025-05-22', 'lat_lon_source': 'Third Party'}",63.10046,23.05424,Lidl Kauhava,"{'opening_hours': {'Tue': '08:00-21:00', 'Wed': '08:00-20:00', 'Thu': '10:00-20:00', 'Fri': '08:00-21:00', 'Sat': '08:00-21:00'}}",,62200,157,,https://www.lidl.fi/s/fi-FI/myymaelaet/kauhava/heimolankuja-2/
Pyhänkorvantie 2,Lidl,Kokemäki,Finland,"{'brand': 'Lidl', 'fascia': 'Lidl', 'category': 'Retail', 'edit_date': '2025-05-22', 'lat_lon_source': 'Third Party'}",61.25662,22.33938,Lidl Kokemäki,"{'opening_hours': {'Tue': '08:00-21:00', 'Wed': '09:00-19:00', 'Thu': '10:00-20:00', 'Fri': '08:00-21:00', 'Sat': '08:00-21:00'}}",,32800,159,,https://www.lidl.fi/s/fi-FI/myymaelaet/kokemäki/pyhänkorvantie-2/
Haapaniementie 2,Lidl,Viitasaari,Finland,"{'brand': 'Lidl', 'fascia': 'Lidl', 'category': 'Retail', 'edit_date': '2025-05-22', 'lat_lon_source': 'Third Party'}",63.07666,25.86281,Lidl Viitasaari,"{'opening_hours': {'Tue': '08:00-21:00', 'Wed': '08:00-20:00', 'Thu': '10:00-20:00', 'Fri': '08:00-21:00', 'Sat': '08:00-21:00'}}",,44500,160,,https://www.lidl.fi/s/fi-FI/myymaelaet/viitasaari/haapaniementie-2/
Setrikatu 3,Lidl,Mikkeli,Finland,"{'brand': 'Lidl', 'fascia': 'Lidl', 'category': 'Retail', 'edit_date': '2025-05-22', 'lat_lon_source': 'Third Party'}",61.67868,27.26963,Lidl Mikkeli - Urpola,"{'opening_hours': {'Tue': '08:00-22:00', 'Wed': '08:00-21:00', 'Thu': '09:00-21:00', 'Fri': '08:00-22:00', 'Sat': '08:00-22:00'}}",,50100,161,,https://www.lidl.fi/s/fi-FI/myymaelaet/mikkeli/setrikatu-3/
Murmelikuja 11,Lidl,Vantaa,Finland,"{'brand': 'Lidl', 'fascia': 'Lidl', 'category': 'Retail', 'edit_date': '2025-05-22', 'lat_lon_source': 'Third Party'}",60.34552,25.10536,Lidl Vantaa - Korso,"{'opening_hours': {'Tue': '08:00-22:00', 'Wed': '08:00-22:00', 'Thu': '09:00-22:00', 'Fri': '08:00-22:00', 'Sat': '08:00-22:00'}}",,01480,163,,https://www.lidl.fi/s/fi-FI/myymaelaet/vantaa/murmelikuja-11/
Kollikatu 1,Lidl,Turku,Finland,"{'brand': 'Lidl', 'fascia': 'Lidl', 'category': 'Retail', 'edit_date': '2025-05-22', 'lat_lon_source': 'Third Party'}",60.45467,22.24159,Lidl Turku - Pitkämäki,"{'opening_hours': {'Tue': '08:00-21:00', 'Wed': '08:00-21:00', 'Thu': '09:00-21:00', 'Fri': '08:00-21:00', 'Sat': '08:00-21:00'}}",,20250,164,,https://www.lidl.fi/s/fi-FI/myymaelaet/turku/kollikatu-1/
Kauppakatu 74,Lidl,Varkaus,Finland,"{'brand': 'Lidl', 'fascia': 'Lidl', 'category': 'Retail', 'edit_date': '2025-05-22', 'lat_lon_source': 'Third Party'}",62.31834,27.86129,Lidl Varkaus,"{'opening_hours': {'Tue': '08:00-21:00', 'Wed': '08:00-20:00', 'Thu': '10:00-20:00', 'Fri': '08:00-21:00', 'Sat': '08:00-21:00'}}",,78200,165,,https://www.lidl.fi/s/fi-FI/myymaelaet/varkaus/kauppakatu-74/
Pulkamontie 2,Lidl,Rovaniemi,Finland,"{'brand': 'Lidl', 'fascia': 'Lidl', 'category': 'Retail', 'edit_date': '2025-05-22', 'lat_lon_source': 'Third Party'}",66.51755,25.75845,Lidl Rovaniemi - Saarenkylä,"{'opening_hours': {'Tue': '08:00-21:00', 'Wed': '08:00-20:00', 'Thu': '09:00-21:00', 'Fri': '08:00-21:00', 'Sat': '08:00-21:00'}}",,96900,166,,https://www.lidl.fi/s/fi-FI/myymaelaet/rovaniemi/pulkamontie-2/
Aamuruskontie 1,Lidl,Helsinki,Finland,"{'brand': 'Lidl', 'fascia': 'Lidl', 'category': 'Retail', 'edit_date': '2025-05-22', 'lat_lon_source': 'Third Party'}",60.28426,25.0277,Lidl Helsinki - Ala-Tikkurila,"{'opening_hours': {'Tue': '07:00-22:00', 'Wed': '08:00-22:00', 'Thu': '09:00-22:00', 'Fri': '07:00-22:00', 'Sat': '07:00-22:00'}}",,00750,168,,https://www.lidl.fi/s/fi-FI/myymaelaet/helsinki/aamuruskontie-1/
Pirkantie 2,Lidl,Ikaalinen,Finland,"{'brand': 'Lidl', 'fascia': 'Lidl', 'category': 'Retail', 'edit_date': '2025-05-22', 'lat_lon_source': 'Third Party'}",61.76316,23.06862,Lidl Ikaalinen,"{'opening_hours': {'Tue': '08:00-21:00', 'Wed': '08:00-20:00', 'Thu': '10:00-20:00', 'Fri': '08:00-21:00', 'Sat': '08:00-21:00'}}",,39500,169,,https://www.lidl.fi/s/fi-FI/myymaelaet/ikaalinen/pirkantie-2/
Kuurnankatu 3,Lidl,Joensuu,Finland,"{'brand': 'Lidl', 'fascia': 'Lidl', 'category': 'Retail', 'edit_date': '2025-05-22', 'lat_lon_source': 'Third Party'}",62.61834,29.77011,Lidl Joensuu - Käpykangas,"{'opening_hours': {'Tue': '08:00-22:00', 'Wed': '08:00-21:00', 'Thu': '09:00-21:00', 'Fri': '08:00-22:00', 'Sat': '08:00-22:00'}}",,80100,170,,https://www.lidl.fi/s/fi-FI/myymaelaet/joensuu/kuurnankatu-3/
Sepäntie 2,Lidl,Kouvola,Finland,"{'brand': 'Lidl', 'fascia': 'Lidl', 'category': 'Retail', 'edit_date': '2025-05-22', 'lat_lon_source': 'Third Party'}",60.9049,26.60823,Lidl Kouvola - Kuusankoski,"{'opening_hours': {'Tue': '08:00-21:00', 'Wed': '08:00-21:00', 'Thu': '09:00-20:00', 'Fri': '08:00-21:00', 'Sat': '08:00-21:00'}}",,45700,171,,https://www.lidl.fi/s/fi-FI/myymaelaet/kouvola/sepäntie-2/
Niittymaantie 2,Lidl,Espoo,Finland,"{'brand': 'Lidl', 'fascia': 'Lidl', 'category': 'Retail', 'edit_date': '2025-05-22', 'lat_lon_source': 'Third Party'}",60.17052,24.77564,Lidl Espoo - Niittykumpu,"{'opening_hours': {'Tue': '08:00-22:00', 'Wed': '08:00-22:00', 'Thu': '09:00-22:00', 'Fri': '08:00-22:00', 'Sat': '08:00-22:00'}}",,02200,172,,https://www.lidl.fi/s/fi-FI/myymaelaet/espoo/niittymaantie-2/
Verkatehtaankatu 12,Lidl,Seinäjoki,Finland,"{'brand': 'Lidl', 'fascia': 'Lidl', 'category': 'Retail', 'edit_date': '2025-05-22', 'lat_lon_source': 'Third Party'}",62.79481,22.83085,Lidl Seinäjoki - Keskusta,"{'opening_hours': {'Tue': '08:00-21:00', 'Wed': '08:00-20:00', 'Thu': '10:00-21:00', 'Fri': '08:00-21:00', 'Sat': '08:00-21:00'}}",,60100,173,,https://www.lidl.fi/s/fi-FI/myymaelaet/seinäjoki/verkatehtaankatu-12/
Linnanrakentajantie 4,Lidl,Helsinki,Finland,"{'brand': 'Lidl', 'fascia': 'Lidl', 'category': 'Retail', 'edit_date': '2025-05-22', 'lat_lon_source': 'Third Party'}",60.19388,25.03548,Lidl Helsinki - Herttoniemi,"{'opening_hours': {'Tue': '08:00-22:00', 'Wed': '08:00-21:00', 'Thu': '10:00-21:00', 'Fri': '08:00-22:00', 'Sat': '08:00-22:00'}}",,00880,174,,https://www.lidl.fi/s/fi-FI/myymaelaet/helsinki/linnanrakentajantie-4/
Lahnuksentie 2,Lidl,Nurmijärvi,Finland,"{'brand': 'Lidl', 'fascia': 'Lidl', 'category': 'Retail', 'edit_date': '2025-05-22', 'lat_lon_source': 'Third Party'}",60.373,24.75996,Lidl Nurmijärvi - Klaukkala,"{'opening_hours': {'Tue': '08:00-22:00', 'Wed': '08:00-22:00', 'Thu': '09:00-21:00', 'Fri': '08:00-22:00', 'Sat': '08:00-22:00'}}",,01840,175,,https://www.lidl.fi/s/fi-FI/myymaelaet/nurmijärvi/lahnuksentie-2/
Rastaspuistontie 1,Lidl,Espoo,Finland,"{'brand': 'Lidl', 'fascia': 'Lidl', 'category': 'Retail', 'edit_date': '2025-05-22', 'lat_lon_source': 'Third Party'}",60.23066,24.77779,Lidl Espoo - Karakallio,"{'opening_hours': {'Tue': '08:00-22:00', 'Wed': '08:00-22:00', 'Thu': '09:00-21:00', 'Fri': '08:00-22:00', 'Sat': '08:00-22:00'}}",,02620,176,,https://www.lidl.fi/s/fi-FI/myymaelaet/espoo/rastaspuistontie-1/
Sammon Valtatie 16,Lidl,Tampere,Finland,"{'brand': 'Lidl', 'fascia': 'Lidl', 'category': 'Retail', 'edit_date': '2025-05-22', 'lat_lon_source': 'Third Party'}",61.4918,23.8448,Lidl Tampere - Janka,"{'opening_hours': {'Tue': '08:00-22:00', 'Wed': '08:00-22:00', 'Thu': '09:00-22:00', 'Fri': '08:00-22:00', 'Sat': '08:00-22:00'}}",,33560,177,,https://www.lidl.fi/s/fi-FI/myymaelaet/tampere/sammon-valtatie-16/
Malmin Kauppatie 18,Lidl,Helsinki,Finland,"{'brand': 'Lidl', 'fascia': 'Lidl', 'category': 'Retail', 'edit_date': '2025-05-22', 'lat_lon_source': 'Third Party'}",60.25198,25.01145,Lidl Helsinki - Malmintori,"{'opening_hours': {'Tue': '08:00-21:00', 'Wed': '08:00-21:00', 'Thu': '10:00-21:00', 'Fri': '08:00-21:00', 'Sat': '08:00-21:00'}}",,00700,178,,https://www.lidl.fi/s/fi-FI/myymaelaet/helsinki/malmin-kauppatie-18/
Karttatie 2,Lidl,Oulu,Finland,"{'brand': 'Lidl', 'fascia': 'Lidl', 'category': 'Retail', 'edit_date': '2025-05-22', 'lat_lon_source': 'Third Party'}",65.0254,25.54779,Lidl Oulu - Haapalehto,"{'opening_hours': {'Tue': '08:00-22:00', 'Wed': '08:00-22:00', 'Thu': '09:00-22:00', 'Fri': '08:00-22:00', 'Sat': '08:00-22:00'}}",,90650,179,,https://www.lidl.fi/s/fi-FI/myymaelaet/oulu/karttatie-2/
Sotkamontie 7,Lidl,Kajaani,Finland,"{'brand': 'Lidl', 'fascia': 'Lidl', 'category': 'Retail', 'edit_date': '2025-05-22', 'lat_lon_source': 'Third Party'}",64.21753,27.72994,Lidl Kajaani,"{'opening_hours': {'Tue': '08:00-21:00', 'Wed': '08:00-21:00', 'Thu': '09:00-21:00', 'Fri': '08:00-21:00', 'Sat': '08:00-21:00'}}",,87100,182,,https://www.lidl.fi/s/fi-FI/myymaelaet/kajaani/sotkamontie-7/
Reunakatu 1,Lidl,Lohja,Finland,"{'brand': 'Lidl', 'fascia': 'Lidl', 'category': 'Retail', 'edit_date': '2025-05-22', 'lat_lon_source': 'Third Party'}",60.22587,24.02853,Lidl Lohja - Tynninharju,"{'opening_hours': {'Tue': '08:00-21:00', 'Wed': '08:00-21:00', 'Thu': '09:00-21:00', 'Fri': '08:00-21:00', 'Sat': '08:00-21:00'}}",,08200,183,,https://www.lidl.fi/s/fi-FI/myymaelaet/lohja/reunakatu-1/
Kalevantie 19,Lidl,Turku,Finland,"{'brand': 'Lidl', 'fascia': 'Lidl', 'category': 'Retail', 'edit_date': '2025-05-22', 'lat_lon_source': 'Third Party'}",60.44919,22.3095,Lidl Turku - Itäharju,"{'opening_hours': {'Tue': '08:00-21:00', 'Wed': '08:00-21:00', 'Thu': '09:00-21:00', 'Fri': '08:00-21:00', 'Sat': '08:00-21:00'}}",,20520,184,,https://www.lidl.fi/s/fi-FI/myymaelaet/turku/kalevantie-19/
Yrittäjäntie 4,Lidl,Karkkila,Finland,"{'brand': 'Lidl', 'fascia': 'Lidl', 'category': 'Retail', 'edit_date': '2025-05-22', 'lat_lon_source': 'Third Party'}",60.533,24.23419,Lidl Karkkila,"{'opening_hours': {'Tue': '08:00-21:00', 'Wed': '08:00-20:00', 'Thu': '09:00-20:00', 'Fri': '08:00-21:00', 'Sat': '08:00-21:00'}}",,03600,185,,https://www.lidl.fi/s/fi-FI/myymaelaet/karkkila/yrittäjäntie-4/
Säätökuja 2,Lidl,Vantaa,Finland,"{'brand': 'Lidl', 'fascia': 'Lidl', 'category': 'Retail', 'edit_date': '2025-05-22', 'lat_lon_source': 'Third Party'}",60.27424,24.96936,Lidl Vantaa - Tammisto,"{'opening_hours': {'Tue': '08:00-22:00', 'Wed': '08:00-21:00', 'Thu': '09:00-21:00', 'Fri': '08:00-22:00', 'Sat': '08:00-22:00'}}",,01520,186,,https://www.lidl.fi/s/fi-FI/myymaelaet/vantaa/säätökuja-2/
Tuirantie 14,Lidl,Oulu,Finland,"{'brand': 'Lidl', 'fascia': 'Lidl', 'category': 'Retail', 'edit_date': '2025-05-22', 'lat_lon_source': 'Third Party'}",65.02694,25.46831,Lidl Oulu - Tuira,"{'opening_hours': {'Tue': '08:00-22:00', 'Wed': '08:00-22:00', 'Thu': '09:00-22:00', 'Fri': '08:00-22:00', 'Sat': '08:00-22:00'}}",,90500,187,,https://www.lidl.fi/s/fi-FI/myymaelaet/oulu/tuirantie-14/
Ratakatu 50,Lidl,Raseborg,Finland,"{'brand': 'Lidl', 'fascia': 'Lidl', 'category': 'Retail', 'edit_date': '2025-05-22', 'lat_lon_source': 'Third Party'}",60.07078,23.66432,Lidl Raasepori - Karjaa,"{'opening_hours': {'Tue': '08:00-21:00', 'Wed': '08:00-20:00', 'Thu': '09:00-19:00', 'Fri': '08:00-21:00', 'Sat': '08:00-21:00'}}",,10300,188,,https://www.lidl.fi/s/fi-FI/myymaelaet/raseborg/ratakatu-50/
Humalankatu 2,Lidl,Parkano,Finland,"{'brand': 'Lidl', 'fascia': 'Lidl', 'category': 'Retail', 'edit_date': '2025-05-22', 'lat_lon_source': 'Third Party'}",62.00694,23.01133,Lidl Parkano,"{'opening_hours': {'Tue': '08:00-21:00', 'Wed': '08:00-20:00', 'Thu': '10:00-20:00', 'Fri': '08:00-21:00', 'Sat': '08:00-21:00'}}",,39700,191,,https://www.lidl.fi/s/fi-FI/myymaelaet/parkano/humalankatu-2/
Asemantie 4,Lidl,Vihti,Finland,"{'brand': 'Lidl', 'fascia': 'Lidl', 'category': 'Retail', 'edit_date': '2025-05-22', 'lat_lon_source': 'Third Party'}",60.3322,24.31974,Lidl Vihti - Nummela,"{'opening_hours': {'Tue': '08:00-21:00', 'Wed': '08:00-21:00', 'Thu': '09:00-21:00', 'Fri': '08:00-21:00', 'Sat': '08:00-21:00'}}",,03100,192,,https://www.lidl.fi/s/fi-FI/myymaelaet/vihti/asemantie-4/
Revontie 38,Lidl,Oulu,Finland,"{'brand': 'Lidl', 'fascia': 'Lidl', 'category': 'Retail', 'edit_date': '2025-05-22', 'lat_lon_source': 'Third Party'}",65.16619,25.34518,Lidl Haukipudas,"{'opening_hours': {'Tue': '08:00-22:00', 'Wed': '08:00-21:00', 'Thu': '09:00-21:00', 'Fri': '08:00-22:00', 'Sat': '08:00-22:00'}}",,90830,196,,https://www.lidl.fi/s/fi-FI/myymaelaet/oulu/revontie-38/
Valvatinkatu 8,Lidl,Imatra,Finland,"{'brand': 'Lidl', 'fascia': 'Lidl', 'category': 'Retail', 'edit_date': '2025-05-22', 'lat_lon_source': 'Third Party'}",61.22436,28.84031,Lidl Imatra - Vuoksenniska,"{'opening_hours': {'Tue': '08:00-21:00', 'Wed': '08:00-20:00', 'Thu': '10:00-20:00', 'Fri': '08:00-21:00', 'Sat': '08:00-21:00'}}",,55800,197,,https://www.lidl.fi/s/fi-FI/myymaelaet/imatra/valvatinkatu-8/
Hämeentie 6,Lidl,Somero,Finland,"{'brand': 'Lidl', 'fascia': 'Lidl', 'category': 'Retail', 'edit_date': '2025-05-22', 'lat_lon_source': 'Third Party'}",60.63084,23.51717,Lidl Somero,"{'opening_hours': {'Tue': '08:00-21:00', 'Wed': '08:00-20:00', 'Thu': '10:00-19:00', 'Fri': '08:00-21:00', 'Sat': '08:00-21:00'}}",,31400,199,,https://www.lidl.fi/s/fi-FI/myymaelaet/somero/hämeentie-6/
Vanha Helsingintie 4,Lidl,Ulvila,Finland,"{'brand': 'Lidl', 'fascia': 'Lidl', 'category': 'Retail', 'edit_date': '2025-05-22', 'lat_lon_source': 'Third Party'}",61.42787,21.87725,Lidl Ulvila,"{'opening_hours': {'Tue': '08:00-21:00', 'Wed': '08:00-20:00', 'Thu': '10:00-20:00', 'Fri': '08:00-21:00', 'Sat': '08:00-21:00'}}",,28400,200,,https://www.lidl.fi/s/fi-FI/myymaelaet/ulvila/vanha-helsingintie-4/
Ruukinkuja 1,Lidl,Oulu,Finland,"{'brand': 'Lidl', 'fascia': 'Lidl', 'category': 'Retail', 'edit_date': '2025-05-22', 'lat_lon_source': 'Third Party'}",64.98553,25.51413,Lidl Oulu - Hiironen,"{'opening_hours': {'Tue': '08:00-21:00', 'Wed': '08:00-20:00', 'Thu': '09:00-21:00', 'Fri': '08:00-21:00', 'Sat': '08:00-21:00'}}",,90250,201,,https://www.lidl.fi/s/fi-FI/myymaelaet/oulu/ruukinkuja-1/
Ratatie 17,Lidl,Sotkamo,Finland,"{'brand': 'Lidl', 'fascia': 'Lidl', 'category': 'Retail', 'edit_date': '2025-05-22', 'lat_lon_source': 'Third Party'}",64.13521,28.34621,Lidl Sotkamo,"{'opening_hours': {'Tue': '08:00-21:00', 'Wed': '08:00-19:00', 'Thu': '10:00-19:00', 'Fri': '08:00-21:00', 'Sat': '08:00-21:00'}}",,88600,202,,https://www.lidl.fi/s/fi-FI/myymaelaet/sotkamo/ratatie-17/
Lapintie 1,Lidl,Sodankylä,Finland,"{'brand': 'Lidl', 'fascia': 'Lidl', 'category': 'Retail', 'edit_date': '2025-05-22', 'lat_lon_source': 'Third Party'}",67.41515,26.58744,Lidl Sodankylä,"{'opening_hours': {'Tue': '08:00-21:00', 'Wed': '08:00-20:00', 'Thu': '10:00-20:00', 'Fri': '08:00-21:00', 'Sat': '08:00-21:00'}}",,99600,203,,https://www.lidl.fi/s/fi-FI/myymaelaet/sodankylä/lapintie-1/
Liikekatu 3,Lidl,Lempäälä,Finland,"{'brand': 'Lidl', 'fascia': 'Lidl', 'category': 'Retail', 'edit_date': '2025-05-22', 'lat_lon_source': 'Third Party'}",61.31412,23.7603,Lidl Lempäälä - Keskusta,"{'opening_hours': {'Tue': '08:00-21:00', 'Wed': '08:00-21:00', 'Thu': '10:00-21:00', 'Fri': '08:00-21:00', 'Sat': '08:00-21:00'}}",,37500,204,,https://www.lidl.fi/s/fi-FI/myymaelaet/lempäälä/liikekatu-3/
Karhukuja 4,Lidl,Kotka,Finland,"{'brand': 'Lidl', 'fascia': 'Lidl', 'category': 'Retail', 'edit_date': '2025-05-22', 'lat_lon_source': 'Third Party'}",60.51269,26.93501,Lidl Kotka - Karhula,"{'opening_hours': {'Tue': '08:00-21:00', 'Wed': '08:00-21:00', 'Thu': '10:00-20:00', 'Fri': '08:00-21:00', 'Sat': '08:00-21:00'}}",,48600,208,,https://www.lidl.fi/s/fi-FI/myymaelaet/kotka/karhukuja-4/
Kukkaromäki 2,Lidl,Espoo,Finland,"{'brand': 'Lidl', 'fascia': 'Lidl', 'category': 'Retail', 'edit_date': '2025-05-22', 'lat_lon_source': 'Third Party'}",60.20788,24.63556,Lidl Espoo - Mikkelä,"{'opening_hours': {'Tue': '08:00-22:00', 'Wed': '08:00-22:00', 'Thu': '09:00-21:00', 'Fri': '08:00-22:00', 'Sat': '08:00-22:00'}}",,02770,210,,https://www.lidl.fi/s/fi-FI/myymaelaet/espoo/kukkaromäki-2/
Laaksotie 4,Lidl,Kouvola,Finland,"{'brand': 'Lidl', 'fascia': 'Lidl', 'category': 'Retail', 'edit_date': '2025-05-22', 'lat_lon_source': 'Third Party'}",60.69836,26.84542,Lidl Kouvola - Inkeroinen,"{'opening_hours': {'Tue': '08:00-21:00', 'Wed': '08:00-21:00', 'Thu': '10:00-19:00', 'Fri': '08:00-21:00', 'Sat': '08:00-21:00'}}",,46900,211,,https://www.lidl.fi/s/fi-FI/myymaelaet/kouvola/laaksotie-4/
Eteläväylä 9,Lidl,Pori,Finland,"{'brand': 'Lidl', 'fascia': 'Lidl', 'category': 'Retail', 'edit_date': '2025-05-22', 'lat_lon_source': 'Third Party'}",61.47475,21.75339,Lidl Pori - Musa,"{'opening_hours': {'Tue': '08:00-21:00', 'Wed': '08:00-21:00', 'Thu': '10:00-21:00', 'Fri': '08:00-21:00', 'Sat': '08:00-21:00'}}",,28610,212,,https://www.lidl.fi/s/fi-FI/myymaelaet/pori/eteläväylä-9/
Harvialantie 11,Lidl,Janakkala,Finland,"{'brand': 'Lidl', 'fascia': 'Lidl', 'category': 'Retail', 'edit_date': '2025-05-22', 'lat_lon_source': 'Third Party'}",60.92654,24.64265,Lidl Janakkala,"{'opening_hours': {'Tue': '08:00-21:00', 'Wed': '08:00-20:00', 'Thu': '10:00-20:00', 'Fri': '08:00-21:00', 'Sat': '08:00-21:00'}}",,14200,214,,https://www.lidl.fi/s/fi-FI/myymaelaet/janakkala/harvialantie-11/
Kääjäntie 5,Lidl,Orivesi,Finland,"{'brand': 'Lidl', 'fascia': 'Lidl', 'category': 'Retail', 'edit_date': '2025-05-22', 'lat_lon_source': 'Third Party'}",61.67586,24.35202,Lidl Orivesi,"{'opening_hours': {'Tue': '08:00-21:00', 'Wed': '08:00-20:00', 'Thu': '10:00-20:00', 'Fri': '08:00-21:00', 'Sat': '08:00-21:00'}}",,35300,215,,https://www.lidl.fi/s/fi-FI/myymaelaet/orivesi/kääjäntie-5/
Majavantie 1,Lidl,Tuusula,Finland,"{'brand': 'Lidl', 'fascia': 'Lidl', 'category': 'Retail', 'edit_date': '2025-05-22', 'lat_lon_source': 'Third Party'}",60.37385,25.02318,Lidl Tuusula - Riihikallio,"{'opening_hours': {'Tue': '08:00-21:00', 'Wed': '08:00-21:00', 'Thu': '09:00-21:00', 'Fri': '08:00-21:00', 'Sat': '08:00-21:00'}}",,04320,217,,https://www.lidl.fi/s/fi-FI/myymaelaet/tuusula/majavantie-1/
Kauppalankatu 20,Lidl,Hyvinkää,Finland,"{'brand': 'Lidl', 'fascia': 'Lidl', 'category': 'Retail', 'edit_date': '2025-05-22', 'lat_lon_source': 'Third Party'}",60.63654,24.85224,Lidl Hyvinkää - Keskusta,"{'opening_hours': {'Tue': '08:00-21:00', 'Wed': '08:00-21:00', 'Thu': '09:00-21:00', 'Fri': '08:00-21:00', 'Sat': '08:00-21:00'}}",,05800,218,,https://www.lidl.fi/s/fi-FI/myymaelaet/hyvinkää/kauppalankatu-20/
Simpukkatie 4,Lidl,Lieto,Finland,"{'brand': 'Lidl', 'fascia': 'Lidl', 'category': 'Retail', 'edit_date': '2025-05-22', 'lat_lon_source': 'Third Party'}",60.50279,22.46139,Lidl Lieto,"{'opening_hours': {'Tue': '08:00-21:00', 'Wed': '08:00-20:00', 'Thu': '10:00-20:00', 'Fri': '08:00-21:00', 'Sat': '08:00-21:00'}}",,21420,221,,https://www.lidl.fi/s/fi-FI/myymaelaet/lieto/simpukkatie-4/
Mastontie 6,Lidl,Ylöjärvi,Finland,"{'brand': 'Lidl', 'fascia': 'Lidl', 'category': 'Retail', 'edit_date': '2025-05-22', 'lat_lon_source': 'Third Party'}",61.54813,23.59366,Lidl Ylöjärvi,"{'opening_hours': {'Tue': '08:00-21:00', 'Wed': '08:00-21:00', 'Thu': '09:00-20:00', 'Fri': '08:00-21:00', 'Sat': '08:00-21:00'}}",,33470,222,,https://www.lidl.fi/s/fi-FI/myymaelaet/ylöjärvi/mastontie-6/
Rastilantie 1,Lidl,Helsinki,Finland,"{'brand': 'Lidl', 'fascia': 'Lidl', 'category': 'Retail', 'edit_date': '2025-05-22', 'lat_lon_source': 'Third Party'}",60.21361,25.13321,Lidl Helsinki - Vuosaari,"{'opening_hours': {'Tue': '08:00-21:00', 'Wed': '08:00-21:00', 'Thu': '09:00-21:00', 'Fri': '08:00-21:00', 'Sat': '08:00-21:00'}}",,00980,224,,https://www.lidl.fi/s/fi-FI/myymaelaet/helsinki/rastilantie-1/
Liikekatu 1,Lidl,Hämeenlinna,Finland,"{'brand': 'Lidl', 'fascia': 'Lidl', 'category': 'Retail', 'edit_date': '2025-05-22', 'lat_lon_source': 'Third Party'}",61.00072,24.48772,Lidl Hämeenlinna - Hätilä,"{'opening_hours': {'Tue': '08:00-21:00', 'Wed': '08:00-21:00', 'Thu': '09:00-21:00', 'Fri': '08:00-21:00', 'Sat': '08:00-21:00'}}",,13210,226,,https://www.lidl.fi/s/fi-FI/myymaelaet/hämeenlinna/liikekatu-1/
Pakilantie 46,Lidl,Helsinki,Finland,"{'brand': 'Lidl', 'fascia': 'Lidl', 'category': 'Retail', 'edit_date': '2025-05-22', 'lat_lon_source': 'Third Party'}",60.23647,24.9288,Lidl Helsinki - Pakila,"{'opening_hours': {'Tue': '08:00-22:00', 'Wed': '08:00-21:00', 'Thu': '09:00-22:00', 'Fri': '08:00-22:00', 'Sat': '08:00-22:00'}}",,00660,227,,https://www.lidl.fi/s/fi-FI/myymaelaet/helsinki/pakilantie-46/
Itäkatu 7,Lidl,Helsinki,Finland,"{'brand': 'Lidl', 'fascia': 'Lidl', 'category': 'Retail', 'edit_date': '2025-05-22', 'lat_lon_source': 'Third Party'}",60.21035,25.08047,Lidl Helsinki - Itis,"{'opening_hours': {'Tue': '08:00-21:00', 'Wed': '08:00-21:00', 'Thu': '10:00-21:00', 'Fri': '08:00-21:00', 'Sat': '08:00-21:00'}}",,00930,228,,https://www.lidl.fi/s/fi-FI/myymaelaet/helsinki/itäkatu-7/
Vanha Kaarelantie 33b,Lidl,Vantaa,Finland,"{'brand': 'Lidl', 'fascia': 'Lidl', 'category': 'Retail', 'edit_date': '2025-05-22', 'lat_lon_source': 'Third Party'}",60.26123,24.87333,Lidl Vantaa - Kaivoksela,"{'opening_hours': {'Tue': '08:00-21:00', 'Wed': '08:00-21:00', 'Thu': '09:00-21:00', 'Fri': '08:00-21:00', 'Sat': '08:00-21:00'}}",,01610,229,,https://www.lidl.fi/s/fi-FI/myymaelaet/vantaa/vanha-kaarelantie-33b/
Teollisuuskatu 12,Lidl,Tornio,Finland,"{'brand': 'Lidl', 'fascia': 'Lidl', 'category': 'Retail', 'edit_date': '2025-05-22', 'lat_lon_source': 'Third Party'}",65.84378,24.18622,Lidl Tornio,"{'opening_hours': {'Tue': '08:00-21:00', 'Wed': '08:00-20:00', 'Thu': '09:00-21:00', 'Fri': '08:00-21:00', 'Sat': '08:00-21:00'}}",,95420,230,,https://www.lidl.fi/s/fi-FI/myymaelaet/tornio/teollisuuskatu-12/
Viitakuja 1,Lidl,Vantaa,Finland,"{'brand': 'Lidl', 'fascia': 'Lidl', 'category': 'Retail', 'edit_date': '2025-05-22', 'lat_lon_source': 'Third Party'}",60.3218,25.0615,Lidl Vantaa - Koivukylä,"{'opening_hours': {'Tue': '07:00-22:00', 'Wed': '07:00-22:00', 'Thu': '09:00-22:00', 'Fri': '07:00-22:00', 'Sat': '07:00-22:00'}}",,01360,231,,https://www.lidl.fi/s/fi-FI/myymaelaet/vantaa/viitakuja-1/
Asemantie 1,Lidl,Valkeakoski,Finland,"{'brand': 'Lidl', 'fascia': 'Lidl', 'category': 'Retail', 'edit_date': '2025-05-22', 'lat_lon_source': 'Third Party'}",61.27561,24.01708,Lidl Valkeakoski,"{'opening_hours': {'Tue': '08:00-21:00', 'Wed': '08:00-21:00', 'Thu': '09:00-20:00', 'Fri': '08:00-21:00', 'Sat': '08:00-21:00'}}",,37630,232,,https://www.lidl.fi/s/fi-FI/myymaelaet/valkeakoski/asemantie-1/
Ristipellontie 9,Lidl,Helsinki,Finland,"{'brand': 'Lidl', 'fascia': 'Lidl', 'category': 'Retail', 'edit_date': '2025-05-22', 'lat_lon_source': 'Third Party'}",60.23861,24.85239,Lidl Helsinki - Konala,"{'opening_hours': {'Tue': '08:00-22:00', 'Wed': '08:00-22:00', 'Thu': '09:00-22:00', 'Fri': '08:00-22:00', 'Sat': '08:00-22:00'}}",,00390,233,,https://www.lidl.fi/s/fi-FI/myymaelaet/helsinki/ristipellontie-9/
Rautakatu 1,Lidl,Naantali,Finland,"{'brand': 'Lidl', 'fascia': 'Lidl', 'category': 'Retail', 'edit_date': '2025-05-22', 'lat_lon_source': 'Third Party'}",60.47581,22.04856,Lidl Naantali,"{'opening_hours': {'Tue': '08:00-21:00', 'Wed': '08:00-21:00', 'Thu': '09:00-21:00', 'Fri': '08:00-21:00', 'Sat': '08:00-21:00'}}",,21110,235,,https://www.lidl.fi/s/fi-FI/myymaelaet/naantali/rautakatu-1/
Itäinen Rengastie 31,Lidl,Pietarsaari,Finland,"{'brand': 'Lidl', 'fascia': 'Lidl', 'category': 'Retail', 'edit_date': '2025-05-22', 'lat_lon_source': 'Third Party'}",63.67753,22.72177,Lidl Pietarsaari,"{'opening_hours': {'Tue': '08:00-21:00', 'Wed': '08:00-20:00', 'Thu': '10:00-21:00', 'Fri': '08:00-21:00', 'Sat': '08:00-21:00'}}",,68600,236,,https://www.lidl.fi/s/fi-FI/myymaelaet/pietarsaari/itäinen-rengastie-31/
Heikkiläntie 4,Lidl,Helsinki,Finland,"{'brand': 'Lidl', 'fascia': 'Lidl', 'category': 'Retail', 'edit_date': '2025-05-22', 'lat_lon_source': 'Third Party'}",60.15468,24.88033,Lidl Helsinki - Lauttasaari,"{'opening_hours': {'Tue': '08:00-21:00', 'Wed': '08:00-21:00', 'Thu': '09:00-21:00', 'Fri': '08:00-21:00', 'Sat': '08:00-21:00'}}",,00210,238,,https://www.lidl.fi/s/fi-FI/myymaelaet/helsinki/heikkiläntie-4/
Mönninkatu 2,Lidl,Lieksa,Finland,"{'brand': 'Lidl', 'fascia': 'Lidl', 'category': 'Retail', 'edit_date': '2025-05-22', 'lat_lon_source': 'Third Party'}",63.3177,30.02384,Lidl Lieksa,"{'opening_hours': {'Tue': '08:00-21:00', 'Wed': '08:00-20:00', 'Thu': '10:00-20:00', 'Fri': '08:00-21:00', 'Sat': '08:00-21:00'}}",,81700,239,,https://www.lidl.fi/s/fi-FI/myymaelaet/lieksa/mönninkatu-2/
Kampinkuja 2,Lidl,Helsinki,Finland,"{'brand': 'Lidl', 'fascia': 'Lidl', 'category': 'Retail', 'edit_date': '2025-05-22', 'lat_lon_source': 'Third Party'}",60.16844,24.93015,Lidl Helsinki - Sähkötalo,"{'opening_hours': {'Tue': '08:00-21:00', 'Wed': '09:00-21:00', 'Thu': '11:00-21:00', 'Fri': '08:00-21:00', 'Sat': '08:00-21:00'}}",,00100,240,,https://www.lidl.fi/s/fi-FI/myymaelaet/helsinki/kampinkuja-2/
Kirkkokatu 2-4,Lidl,Kemijärvi,Finland,"{'brand': 'Lidl', 'fascia': 'Lidl', 'category': 'Retail', 'edit_date': '2025-05-22', 'lat_lon_source': 'Third Party'}",66.71623,27.42826,Lidl Kemijärvi,"{'opening_hours': {'Tue': '08:00-21:00', 'Wed': '08:00-20:00', 'Thu': '10:00-20:00', 'Fri': '08:00-21:00', 'Sat': '08:00-21:00'}}",,98100,241,,https://www.lidl.fi/s/fi-FI/myymaelaet/kemijärvi/kirkkokatu-2-4/
Isokatu 51,Lidl,Oulu,Finland,"{'brand': 'Lidl', 'fascia': 'Lidl', 'category': 'Retail', 'edit_date': '2025-05-22', 'lat_lon_source': 'Third Party'}",65.00843,25.46837,Lidl Oulu - Keskusta,"{'opening_hours': {'Tue': '08:00-21:00', 'Wed': '08:00-20:00', 'Thu': '10:00-21:00', 'Fri': '08:00-21:00', 'Sat': '08:00-21:00'}}",,90100,242,,https://www.lidl.fi/s/fi-FI/myymaelaet/oulu/isokatu-51/
Hallituskatu 14-16,Lidl,Tampere,Finland,"{'brand': 'Lidl', 'fascia': 'Lidl', 'category': 'Retail', 'edit_date': '2025-05-22', 'lat_lon_source': 'Third Party'}",61.49646,23.7564,Lidl Tampere - Hallituskatu,"{'opening_hours': {'Tue': '08:00-21:00', 'Wed': '08:00-21:00', 'Thu': '10:00-21:00', 'Fri': '08:00-21:00', 'Sat': '08:00-21:00'}}",,33200,243,,https://www.lidl.fi/s/fi-FI/myymaelaet/tampere/hallituskatu-14-16/
Insinöörinkatu 23,Lidl,Tampere,Finland,"{'brand': 'Lidl', 'fascia': 'Lidl', 'category': 'Retail', 'edit_date': '2025-05-22', 'lat_lon_source': 'Third Party'}",61.45099,23.851,Lidl Tampere - Hervanta Duo,"{'opening_hours': {'Tue': '08:00-22:00', 'Wed': '08:00-21:00', 'Thu': '09:00-21:00', 'Fri': '08:00-22:00', 'Sat': '08:00-22:00'}}",,33720,244,,https://www.lidl.fi/s/fi-FI/myymaelaet/tampere/insinöörinkatu-23/
Ilokallionkatu 4,Lidl,Savonlinna,Finland,"{'brand': 'Lidl', 'fascia': 'Lidl', 'category': 'Retail', 'edit_date': '2025-05-22', 'lat_lon_source': 'Third Party'}",61.86979,28.92205,Lidl Savonlinna - Miekkoniemi,"{'opening_hours': {'Tue': '08:00-21:00', 'Wed': '08:00-20:00', 'Thu': '10:00-20:00', 'Fri': '08:00-21:00', 'Sat': '08:00-21:00'}}",,57200,245,,https://www.lidl.fi/s/fi-FI/myymaelaet/savonlinna/ilokallionkatu-4/
Asentajantie 5,Lidl,Porvoo,Finland,"{'brand': 'Lidl', 'fascia': 'Lidl', 'category': 'Retail', 'edit_date': '2025-05-22', 'lat_lon_source': 'Third Party'}",60.40173,25.68776,Lidl Porvoo - Tarmola,"{'opening_hours': {'Tue': '07:00-22:00', 'Wed': '08:00-21:00', 'Thu': '09:00-21:00', 'Fri': '07:00-22:00', 'Sat': '07:00-22:00'}}",,06150,246,,https://www.lidl.fi/s/fi-FI/myymaelaet/porvoo/asentajantie-5/
Ratsukatu 3,Lidl,Espoo,Finland,"{'brand': 'Lidl', 'fascia': 'Lidl', 'category': 'Retail', 'edit_date': '2025-05-22', 'lat_lon_source': 'Third Party'}",60.21829,24.8083,Lidl Espoo - Sello,"{'opening_hours': {'Tue': '08:00-21:00', 'Wed': '08:00-21:00', 'Thu': '10:00-21:00', 'Fri': '08:00-21:00', 'Sat': '08:00-21:00'}}",,02600,248,,https://www.lidl.fi/s/fi-FI/myymaelaet/espoo/ratsukatu-3/
Toritie 18,Lidl,Nivala,Finland,"{'brand': 'Lidl', 'fascia': 'Lidl', 'category': 'Retail', 'edit_date': '2025-05-22', 'lat_lon_source': 'Third Party'}",63.92979,24.965,Lidl Nivala,"{'opening_hours': {'Tue': '08:00-21:00', 'Wed': '08:00-20:00', 'Thu': '11:00-20:00', 'Fri': '08:00-21:00', 'Sat': '08:00-21:00'}}",,85500,249,,https://www.lidl.fi/s/fi-FI/myymaelaet/nivala/toritie-18/
Porvoonkatu 7,Lidl,Loviisa,Finland,"{'brand': 'Lidl', 'fascia': 'Lidl', 'category': 'Retail', 'edit_date': '2025-05-22', 'lat_lon_source': 'Third Party'}",60.45701,26.20139,Lidl Loviisa,"{'opening_hours': {'Tue': '08:00-21:00', 'Wed': '08:00-21:00', 'Thu': '10:00-20:00', 'Fri': '08:00-21:00', 'Sat': '08:00-21:00'}}",,07900,251,,https://www.lidl.fi/s/fi-FI/myymaelaet/loviisa/porvoonkatu-7/
Tietäjänkatu 1,Lidl,Imatra,Finland,"{'brand': 'Lidl', 'fascia': 'Lidl', 'category': 'Retail', 'edit_date': '2025-05-22', 'lat_lon_source': 'Third Party'}",61.18728,28.76809,Lidl Imatra - Mansikkala,"{'opening_hours': {'Tue': '08:00-21:00', 'Wed': '08:00-20:00', 'Thu': '10:00-20:00', 'Fri': '08:00-21:00', 'Sat': '08:00-21:00'}}",,55120,252,,https://www.lidl.fi/s/fi-FI/myymaelaet/imatra/tietäjänkatu-1/
Savipajankatu 3,Lidl,Salo,Finland,"{'brand': 'Lidl', 'fascia': 'Lidl', 'category': 'Retail', 'edit_date': '2025-05-22', 'lat_lon_source': 'Third Party'}",60.39477,23.12662,Lidl Salo - Tyynelä,"{'opening_hours': {'Tue': '08:00-21:00', 'Wed': '08:00-20:00', 'Thu': '09:00-21:00', 'Fri': '08:00-21:00', 'Sat': '08:00-21:00'}}",,24240,253,,https://www.lidl.fi/s/fi-FI/myymaelaet/salo/savipajankatu-3/
Tehtaantie 6,Lidl,Keuruu,Finland,"{'brand': 'Lidl', 'fascia': 'Lidl', 'category': 'Retail', 'edit_date': '2025-05-22', 'lat_lon_source': 'Third Party'}",62.26061,24.69724,Lidl Keuruu,"{'opening_hours': {'Tue': '08:00-21:00', 'Wed': '08:00-20:00', 'Thu': '10:00-20:00', 'Fri': '08:00-21:00', 'Sat': '08:00-21:00'}}",,42700,254,,https://www.lidl.fi/s/fi-FI/myymaelaet/keuruu/tehtaantie-6/
Puhakankatu 1,Lidl,Lappeenranta,Finland,"{'brand': 'Lidl', 'fascia': 'Lidl', 'category': 'Retail', 'edit_date': '2025-05-22', 'lat_lon_source': 'Third Party'}",61.0493,28.17533,Lidl Lappeenranta - Leiri,"{'opening_hours': {'Tue': '08:00-22:00', 'Wed': '08:00-21:00', 'Thu': '09:00-21:00', 'Fri': '08:00-22:00', 'Sat': '08:00-22:00'}}",,53600,255,,https://www.lidl.fi/s/fi-FI/myymaelaet/lappeenranta/puhakankatu-1/
Eerikinkatu 4,Lidl,Turku,Finland,"{'brand': 'Lidl', 'fascia': 'Lidl', 'category': 'Retail', 'edit_date': '2025-05-22', 'lat_lon_source': 'Third Party'}",60.45235,22.27224,Lidl Turku - Keskusta,"{'opening_hours': {'Tue': '08:00-21:00', 'Wed': '08:00-21:00', 'Thu': '10:00-21:00', 'Fri': '08:00-21:00', 'Sat': '08:00-21:00'}}",,20100,257,,https://www.lidl.fi/s/fi-FI/myymaelaet/turku/eerikinkatu-4/
Räävelintie 2,Lidl,Espoo,Finland,"{'brand': 'Lidl', 'fascia': 'Lidl', 'category': 'Retail', 'edit_date': '2025-05-22', 'lat_lon_source': 'Third Party'}",60.18797,24.58766,Lidl Espoo - Kauklahti,"{'opening_hours': {'Tue': '08:00-22:00', 'Wed': '08:00-22:00', 'Thu': '09:00-21:00', 'Fri': '08:00-22:00', 'Sat': '08:00-22:00'}}",,02780,258,,https://www.lidl.fi/s/fi-FI/myymaelaet/espoo/räävelintie-2/
Hämeentie 33,Lidl,Helsinki,Finland,"{'brand': 'Lidl', 'fascia': 'Lidl', 'category': 'Retail', 'edit_date': '2025-05-22', 'lat_lon_source': 'Third Party'}",60.18799,24.96392,Lidl Helsinki - Sörnäinen,"{'opening_hours': {'Tue': '08:00-22:00', 'Wed': '09:00-22:00', 'Thu': '10:00-22:00', 'Fri': '08:00-22:00', 'Sat': '08:00-22:00'}}",,00500,259,,https://www.lidl.fi/s/fi-FI/myymaelaet/helsinki/hämeentie-33/
Niementie 1,Lidl,Orimattila,Finland,"{'brand': 'Lidl', 'fascia': 'Lidl', 'category': 'Retail', 'edit_date': '2025-05-22', 'lat_lon_source': 'Third Party'}",60.80616,25.72755,Lidl Orimattila,"{'opening_hours': {'Tue': '08:00-21:00', 'Wed': '08:00-21:00', 'Thu': '09:00-21:00', 'Fri': '08:00-21:00', 'Sat': '08:00-21:00'}}",,16300,260,,https://www.lidl.fi/s/fi-FI/myymaelaet/orimattila/niementie-1/
Jyväskyläntie 31a,Lidl,Saarijärvi,Finland,"{'brand': 'Lidl', 'fascia': 'Lidl', 'category': 'Retail', 'edit_date': '2025-05-22', 'lat_lon_source': 'Third Party'}",62.69703,25.28919,Lidl Saarijärvi,"{'opening_hours': {'Tue': '08:00-21:00', 'Wed': '08:00-20:00', 'Thu': '10:00-20:00', 'Fri': '08:00-21:00', 'Sat': '08:00-21:00'}}",,43100,263,,https://www.lidl.fi/s/fi-FI/myymaelaet/saarijärvi/jyväskyläntie-31a/
Saarijärventie 63,Lidl,Jyväskylä,Finland,"{'brand': 'Lidl', 'fascia': 'Lidl', 'category': 'Retail', 'edit_date': '2025-05-22', 'lat_lon_source': 'Third Party'}",62.29047,25.7156,Lidl Jyväskylä - Palokka,"{'opening_hours': {'Tue': '08:00-22:00', 'Wed': '08:00-21:00', 'Thu': '09:00-21:00', 'Fri': '08:00-22:00', 'Sat': '08:00-22:00'}}",,40270,264,,https://www.lidl.fi/s/fi-FI/myymaelaet/jyväskylä/saarijärventie-63/
Väliahontie 49,Lidl,Oulu,Finland,"{'brand': 'Lidl', 'fascia': 'Lidl', 'category': 'Retail', 'edit_date': '2025-05-22', 'lat_lon_source': 'Third Party'}",65.08017,25.40592,Lidl Oulu - Pateniemi,"{'opening_hours': {'Tue': '08:00-22:00', 'Wed': '08:00-21:00', 'Thu': '09:00-21:00', 'Fri': '08:00-22:00', 'Sat': '08:00-22:00'}}",,90800,265,,https://www.lidl.fi/s/fi-FI/myymaelaet/oulu/väliahontie-49/
Akkalankuja 2,Lidl,Jyväskylä,Finland,"{'brand': 'Lidl', 'fascia': 'Lidl', 'category': 'Retail', 'edit_date': '2025-05-22', 'lat_lon_source': 'Third Party'}",62.23764,25.81755,Lidl Jyväskylä - Jyskä,"{'opening_hours': {'Tue': '08:00-22:00', 'Wed': '08:00-21:00', 'Thu': '09:00-21:00', 'Fri': '08:00-22:00', 'Sat': '08:00-22:00'}}",,40420,266,,https://www.lidl.fi/s/fi-FI/myymaelaet/jyväskylä/akkalankuja-2/
Viilarinkatu,Lidl,Turku,Finland,"{'brand': 'Lidl', 'fascia': 'Lidl', 'category': 'Retail', 'edit_date': '2025-05-22', 'lat_lon_source': 'Third Party'}",60.4727,22.22066,Lidl Turku - Länsikeskus,"{'opening_hours': {'Tue': '08:00-21:00', 'Wed': '08:00-21:00', 'Thu': '09:00-21:00', 'Fri': '08:00-21:00', 'Sat': '08:00-21:00'}}",,20320,267,,https://www.lidl.fi/s/fi-FI/myymaelaet/turku/viilarinkatu/
Vanha Talvitie 12,Lidl,Helsinki,Finland,"{'brand': 'Lidl', 'fascia': 'Lidl', 'category': 'Retail', 'edit_date': '2025-05-22', 'lat_lon_source': 'Third Party'}",60.19157,24.97657,Lidl Helsinki - Tukkutori,"{'opening_hours': {'Tue': '08:00-21:00', 'Wed': '08:00-21:00', 'Thu': '10:00-21:00', 'Fri': '08:00-21:00', 'Sat': '08:00-21:00'}}",,00580,268,,https://www.lidl.fi/s/fi-FI/myymaelaet/helsinki/vanha-talvitie-12/
Pelkolankatu 3,Lidl,Lappeenranta,Finland,"{'brand': 'Lidl', 'fascia': 'Lidl', 'category': 'Retail', 'edit_date': '2025-05-22', 'lat_lon_source': 'Third Party'}",61.04967,28.34514,Lidl Lappeenranta - Mustola,"{'opening_hours': {'Tue': '09:00-20:00', 'Wed': '09:00-19:00', 'Thu': '11:00-19:00', 'Fri': '09:00-20:00', 'Sat': '09:00-20:00'}}",,53420,269,,https://www.lidl.fi/s/fi-FI/myymaelaet/lappeenranta/pelkolankatu-3/
Keskuskatu 3,Lidl,Pieksämäki,Finland,"{'brand': 'Lidl', 'fascia': 'Lidl', 'category': 'Retail', 'edit_date': '2025-05-22', 'lat_lon_source': 'Third Party'}",62.30149,27.16123,Lidl Pieksämäki,"{'opening_hours': {'Tue': '08:00-21:00', 'Wed': '08:00-20:00', 'Thu': '10:00-20:00', 'Fri': '08:00-21:00', 'Sat': '08:00-21:00'}}",,76100,270,,https://www.lidl.fi/s/fi-FI/myymaelaet/pieksämäki/keskuskatu-3/
Halikontie 1,Lidl,Salo,Finland,"{'brand': 'Lidl', 'fascia': 'Lidl', 'category': 'Retail', 'edit_date': '2025-05-22', 'lat_lon_source': 'Third Party'}",60.39593,23.08212,Lidl Salo - Halikko,"{'opening_hours': {'Tue': '08:00-21:00', 'Wed': '08:00-20:00', 'Thu': '09:00-21:00', 'Fri': '08:00-21:00', 'Sat': '08:00-21:00'}}",,24800,271,,https://www.lidl.fi/s/fi-FI/myymaelaet/salo/halikontie-1/
Hakatie 6,Lidl,Ylivieska,Finland,"{'brand': 'Lidl', 'fascia': 'Lidl', 'category': 'Retail', 'edit_date': '2025-05-22', 'lat_lon_source': 'Third Party'}",64.06231,24.54768,Lidl Ylivieska,"{'opening_hours': {'Tue': '08:00-21:00', 'Wed': '08:00-20:00', 'Thu': '11:00-20:00', 'Fri': '08:00-21:00', 'Sat': '08:00-21:00'}}",,84100,272,,https://www.lidl.fi/s/fi-FI/myymaelaet/ylivieska/hakatie-6/
Kartanomäenkatu 4,Lidl,Loimaa,Finland,"{'brand': 'Lidl', 'fascia': 'Lidl', 'category': 'Retail', 'edit_date': '2025-05-22', 'lat_lon_source': 'Third Party'}",60.85453,23.03542,Lidl Loimaa,"{'opening_hours': {'Tue': '08:00-21:00', 'Wed': '08:00-19:00', 'Thu': '10:00-19:00', 'Fri': '08:00-21:00', 'Sat': '08:00-21:00'}}",,32200,273,,https://www.lidl.fi/s/fi-FI/myymaelaet/loimaa/kartanomäenkatu-4/
Linjatie 1,Lidl,Joensuu,Finland,"{'brand': 'Lidl', 'fascia': 'Lidl', 'category': 'Retail', 'edit_date': '2025-05-22', 'lat_lon_source': 'Third Party'}",62.62902,29.70566,Lidl Joensuu - Pilkko,"{'opening_hours': {'Tue': '08:00-21:00', 'Wed': '08:00-20:00', 'Thu': '09:00-21:00', 'Fri': '08:00-21:00', 'Sat': '08:00-21:00'}}",,80140,274,,https://www.lidl.fi/s/fi-FI/myymaelaet/joensuu/linjatie-1/
Eteläkatu 14,Lidl,Hämeenlinna,Finland,"{'brand': 'Lidl', 'fascia': 'Lidl', 'category': 'Retail', 'edit_date': '2025-05-22', 'lat_lon_source': 'Third Party'}",60.99357,24.45993,Lidl Hämeenlinna - Tavastila,"{'opening_hours': {'Tue': '08:00-21:00', 'Wed': '08:00-20:00', 'Thu': '10:00-20:00', 'Fri': '08:00-21:00', 'Sat': '08:00-21:00'}}",,13100,275,,https://www.lidl.fi/s/fi-FI/myymaelaet/hämeenlinna/eteläkatu-14/
Setäläntie 3b,Lidl,Muurame,Finland,"{'brand': 'Lidl', 'fascia': 'Lidl', 'category': 'Retail', 'edit_date': '2025-05-22', 'lat_lon_source': 'Third Party'}",62.13645,25.67221,Lidl Muurame,"{'opening_hours': {'Tue': '08:00-21:00', 'Wed': '08:00-20:00', 'Thu': '10:00-20:00', 'Fri': '08:00-21:00', 'Sat': '08:00-21:00'}}",,40950,276,,https://www.lidl.fi/s/fi-FI/myymaelaet/muurame/setäläntie-3b/
Gneissikuja 1,Lidl,Vaasa,Finland,"{'brand': 'Lidl', 'fascia': 'Lidl', 'category': 'Retail', 'edit_date': '2025-05-22', 'lat_lon_source': 'Third Party'}",63.11365,21.65959,Lidl Vaasa - Kivihaka,"{'opening_hours': {'Tue': '08:00-22:00', 'Wed': '08:00-21:00', 'Thu': '10:00-21:00', 'Fri': '08:00-22:00', 'Sat': '08:00-22:00'}}",,65300,277,,https://www.lidl.fi/s/fi-FI/myymaelaet/vaasa/gneissikuja-1/
Hermannin rantatie 5,Lidl,Helsinki,Finland,"{'brand': 'Lidl', 'fascia': 'Lidl', 'category': 'Retail', 'edit_date': '2025-05-22', 'lat_lon_source': 'Third Party'}",60.18759,24.97763,Lidl Helsinki - Redi,"{'opening_hours': {'Tue': '08:00-22:00', 'Wed': '09:00-21:00', 'Thu': '10:00-21:00', 'Fri': '08:00-22:00', 'Sat': '08:00-22:00'}}",,00580,278,,https://www.lidl.fi/s/fi-FI/myymaelaet/helsinki/hermannin-rantatie-5/
Piispansilta 11,Lidl,Espoo,Finland,"{'brand': 'Lidl', 'fascia': 'Lidl', 'category': 'Retail', 'edit_date': '2025-05-22', 'lat_lon_source': 'Third Party'}",60.16149,24.7372,Lidl Espoo - Iso Omena,"{'opening_hours': {'Tue': '08:00-22:00', 'Wed': '08:00-22:00', 'Thu': '09:00-22:00', 'Fri': '08:00-22:00', 'Sat': '08:00-22:00'}}",,02230,279,,https://www.lidl.fi/s/fi-FI/myymaelaet/espoo/piispansilta-11/
Realparkinkatu 1,Lidl,Lempäälä,Finland,"{'brand': 'Lidl', 'fascia': 'Lidl', 'category': 'Retail', 'edit_date': '2025-05-22', 'lat_lon_source': 'Third Party'}",61.36777,23.79958,Lidl Lempäälä - Marjamäki,"{'opening_hours': {'Tue': '08:00-21:00', 'Wed': '08:00-20:00', 'Thu': '10:00-20:00', 'Fri': '08:00-21:00', 'Sat': '08:00-21:00'}}",,37570,280,,https://www.lidl.fi/s/fi-FI/myymaelaet/lempäälä/realparkinkatu-1/
Vuolteenkatu 1,Lidl,Tampere,Finland,"{'brand': 'Lidl', 'fascia': 'Lidl', 'category': 'Retail', 'edit_date': '2025-05-22', 'lat_lon_source': 'Third Party'}",61.49242,23.7677,Lidl Tampere - Ratina,"{'opening_hours': {'Tue': '08:00-21:00', 'Wed': '08:00-21:00', 'Thu': '10:00-21:00', 'Fri': '08:00-21:00', 'Sat': '08:00-21:00'}}",,33100,281,,https://www.lidl.fi/s/fi-FI/myymaelaet/tampere/vuolteenkatu-1/
Etelän Viertotie 8,Lidl,Riihimäki,Finland,"{'brand': 'Lidl', 'fascia': 'Lidl', 'category': 'Retail', 'edit_date': '2025-05-22', 'lat_lon_source': 'Third Party'}",60.72944,24.76747,Lidl Riihimäki - Peltokylä,"{'opening_hours': {'Tue': '08:00-21:00', 'Wed': '08:00-20:00', 'Thu': '09:00-20:00', 'Fri': '08:00-21:00', 'Sat': '08:00-21:00'}}",,11100,282,,https://www.lidl.fi/s/fi-FI/myymaelaet/riihimäki/etelän-viertotie-8/
Tehdaskatu 12,Lidl,Kuopio,Finland,"{'brand': 'Lidl', 'fascia': 'Lidl', 'category': 'Retail', 'edit_date': '2025-05-22', 'lat_lon_source': 'Third Party'}",62.88078,27.66652,Lidl Kuopio - Haapaniemi,"{'opening_hours': {'Tue': '08:00-22:00', 'Wed': '08:00-21:00', 'Thu': '09:00-21:00', 'Fri': '08:00-22:00', 'Sat': '08:00-22:00'}}",,70620,283,,https://www.lidl.fi/s/fi-FI/myymaelaet/kuopio/tehdaskatu-12/
Höyläämötie 1,Lidl,Helsinki,Finland,"{'brand': 'Lidl', 'fascia': 'Lidl', 'category': 'Retail', 'edit_date': '2025-05-22', 'lat_lon_source': 'Third Party'}",60.21479,24.87855,Lidl Helsinki - Pitäjänmäki,"{'opening_hours': {'Tue': '08:00-22:00', 'Wed': '08:00-21:00', 'Thu': '09:00-21:00', 'Fri': '08:00-22:00', 'Sat': '08:00-22:00'}}",,00380,284,,https://www.lidl.fi/s/fi-FI/myymaelaet/helsinki/höyläämötie-1/
Sillankorva 3,Lidl,Espoo,Finland,"{'brand': 'Lidl', 'fascia': 'Lidl', 'category': 'Retail', 'edit_date': '2025-05-22', 'lat_lon_source': 'Third Party'}",60.15519,24.66803,Lidl Espoo - Nöykkiö,"{'opening_hours': {'Tue': '08:00-22:00', 'Wed': '08:00-21:00', 'Thu': '10:00-21:00', 'Fri': '08:00-22:00', 'Sat': '08:00-22:00'}}",,02300,285,,https://www.lidl.fi/s/fi-FI/myymaelaet/espoo/sillankorva-3/
Laasmäenkatu 6,Lidl,Kaarina,Finland,"{'brand': 'Lidl', 'fascia': 'Lidl', 'category': 'Retail', 'edit_date': '2025-05-22', 'lat_lon_source': 'Third Party'}",60.42008,22.37962,Lidl Kaarina - Krossi,"{'opening_hours': {'Tue': '08:00-21:00', 'Wed': '08:00-21:00', 'Thu': '10:00-21:00', 'Fri': '08:00-21:00', 'Sat': '08:00-21:00'}}",,20780,287,,https://www.lidl.fi/s/fi-FI/myymaelaet/kaarina/laasmäenkatu-6/
Lönnrotinkatu 20,Lidl,Helsinki,Finland,"{'brand': 'Lidl', 'fascia': 'Lidl', 'category': 'Retail', 'edit_date': '2025-05-22', 'lat_lon_source': 'Third Party'}",60.16494,24.93437,Lidl Helsinki - Lönnrotinkatu,"{'opening_hours': {'Tue': '08:00-21:00', 'Wed': '09:00-21:00', 'Thu': '10:00-21:00', 'Fri': '08:00-21:00', 'Sat': '08:00-21:00'}}",,00120,288,,https://www.lidl.fi/s/fi-FI/myymaelaet/helsinki/lönnrotinkatu-20/
Paljekuja 5,Lidl,Oulu,Finland,"{'brand': 'Lidl', 'fascia': 'Lidl', 'category': 'Retail', 'edit_date': '2025-05-22', 'lat_lon_source': 'Third Party'}",65.00027,25.47947,Lidl Oulu - Karjasilta,"{'opening_hours': {'Tue': '08:00-22:00', 'Wed': '08:00-22:00', 'Thu': '09:00-22:00', 'Fri': '08:00-22:00', 'Sat': '08:00-22:00'}}",,90150,289,,https://www.lidl.fi/s/fi-FI/myymaelaet/oulu/paljekuja-5/
Kaivokatu 8,Lidl,Helsinki,Finland,"{'brand': 'Lidl', 'fascia': 'Lidl', 'category': 'Retail', 'edit_date': '2025-05-22', 'lat_lon_source': 'Third Party'}",60.16972,24.94253,Lidl Helsinki - Citycenter,"{'opening_hours': {'Tue': '07:00-22:00', 'Wed': '08:00-22:00', 'Thu': '10:00-22:00', 'Fri': '07:00-22:00', 'Sat': '07:00-22:00'}}",,00100,290,,https://www.lidl.fi/s/fi-FI/myymaelaet/helsinki/kaivokatu-8/
Espoonlahdenkatu 4,Lidl,Espoo,Finland,"{'brand': 'Lidl', 'fascia': 'Lidl', 'category': 'Retail', 'edit_date': '2025-05-22', 'lat_lon_source': 'Third Party'}",60.14975,24.65468,Lidl ,"{'opening_hours': {'Tue': '08:00-22:00', 'Wed': '08:00-21:00', 'Thu': '10:00-21:00', 'Fri': '08:00-22:00', 'Sat': '08:00-22:00'}}",,02320,291,,https://www.lidl.fi/s/fi-FI/myymaelaet/espoo/espoonlahdenkatu-4/
Pitkätanhuankatu 4,Lidl,Hämeenlinna,Finland,"{'brand': 'Lidl', 'fascia': 'Lidl', 'category': 'Retail', 'edit_date': '2025-05-22', 'lat_lon_source': 'Third Party'}",61.00841,24.41469,Lidl Hämeenlinna - Tiiriö,"{'opening_hours': {'Tue': '08:00-21:00', 'Wed': '08:00-21:00', 'Thu': '09:00-21:00', 'Fri': '08:00-21:00', 'Sat': '08:00-21:00'}}",,13130,292,,https://www.lidl.fi/s/fi-FI/myymaelaet/hämeenlinna/pitkätanhuankatu-4/
Vasarakatu 4,Lidl,Jyväskylä,Finland,"{'brand': 'Lidl', 'fascia': 'Lidl', 'category': 'Retail', 'edit_date': '2025-05-22', 'lat_lon_source': 'Third Party'}",62.25482,25.77191,Lidl Jyväskylä - Seppälä,"{'opening_hours': {'Tue': '08:00-22:00', 'Wed': '08:00-21:00', 'Thu': '09:00-21:00', 'Fri': '08:00-22:00', 'Sat': '08:00-22:00'}}",,40320,293,,https://www.lidl.fi/s/fi-FI/myymaelaet/jyväskylä/vasarakatu-4/
Finlaysoninkatu 7,Lidl,Tampere,Finland,"{'brand': 'Lidl', 'fascia': 'Lidl', 'category': 'Retail', 'edit_date': '2025-05-22', 'lat_lon_source': 'Third Party'}",61.50215,23.75846,Lidl Tampere - Finlayson,"{'opening_hours': {'Tue': '08:00-21:00', 'Wed': '08:00-21:00', 'Thu': '11:00-21:00', 'Fri': '08:00-21:00', 'Sat': '08:00-21:00'}}",,33210,294,,https://www.lidl.fi/s/fi-FI/myymaelaet/tampere/finlaysoninkatu-7/
Kurjenkellontie 1,Lidl,Espoo,Finland,"{'brand': 'Lidl', 'fascia': 'Lidl', 'category': 'Retail', 'edit_date': '2025-05-22', 'lat_lon_source': 'Third Party'}",60.15804,24.70445,Lidl Espoo - Hannus,"{'opening_hours': {'Tue': '08:00-22:00', 'Wed': '08:00-21:00', 'Thu': '10:00-21:00', 'Fri': '08:00-22:00', 'Sat': '08:00-22:00'}}",,02270,295,,https://www.lidl.fi/s/fi-FI/myymaelaet/espoo/kurjenkellontie-1/
Hämeentie 109-111,Lidl,Helsinki,Finland,"{'brand': 'Lidl', 'fascia': 'Lidl', 'category': 'Retail', 'edit_date': '2025-05-22', 'lat_lon_source': 'Third Party'}",60.20311,24.9694,Lidl Helsinki - Arabia,"{'opening_hours': {'Tue': '08:00-22:00', 'Wed': '08:00-21:00', 'Thu': '09:00-21:00', 'Fri': '08:00-22:00', 'Sat': '08:00-22:00'}}",,00550,296,,https://www.lidl.fi/s/fi-FI/myymaelaet/helsinki/hämeentie-109-111/
Neljäs linja 3,Lidl,Helsinki,Finland,"{'brand': 'Lidl', 'fascia': 'Lidl', 'category': 'Retail', 'edit_date': '2025-05-22', 'lat_lon_source': 'Third Party'}",60.18211,24.9534,Lidl Helsinki - Kallio,"{'opening_hours': {'Tue': '08:00-22:00', 'Wed': '08:00-22:00', 'Thu': '10:00-22:00', 'Fri': '08:00-22:00', 'Sat': '08:00-22:00'}}",,00530,299,,https://www.lidl.fi/s/fi-FI/myymaelaet/helsinki/neljäs-linja-3/
Uusi Porvoontie 1143,Lidl,Sipoo,Finland,"{'brand': 'Lidl', 'fascia': 'Lidl', 'category': 'Retail', 'edit_date': '2025-05-22', 'lat_lon_source': 'Third Party'}",60.29779,25.32643,Lidl Sipoo - Söderkulla,"{'opening_hours': {'Tue': '08:00-21:00', 'Wed': '08:00-21:00', 'Thu': '09:00-21:00', 'Fri': '08:00-21:00', 'Sat': '08:00-21:00'}}",,01150,300,,https://www.lidl.fi/s/fi-FI/myymaelaet/sipoo/uusi-porvoontie-1143/
Tehtaantie 4 B,Lidl,Seinäjoki,Finland,"{'brand': 'Lidl', 'fascia': 'Lidl', 'category': 'Retail', 'edit_date': '2025-05-22', 'lat_lon_source': 'Third Party'}",62.79087,22.88122,Lidl Seinäjoki - Kapernaumi,"{'opening_hours': {'Tue': '08:00-21:00', 'Wed': '08:00-20:00', 'Thu': '10:00-21:00', 'Fri': '08:00-21:00', 'Sat': '08:00-21:00'}}",,60100,301,,https://www.lidl.fi/s/fi-FI/myymaelaet/seinäjoki/tehtaantie-4-b/
Firdonkatu 2B,Lidl,Helsinki,Finland,"{'brand': 'Lidl', 'fascia': 'Lidl', 'category': 'Retail', 'edit_date': '2025-05-22', 'lat_lon_source': 'Third Party'}",60.19821,24.92968,Lidl Helsinki - Tripla,"{'opening_hours': {'Tue': '08:00-22:00', 'Wed': '08:00-22:00', 'Thu': '10:00-21:00', 'Fri': '08:00-22:00', 'Sat': '08:00-22:00'}}",,00520,302,,https://www.lidl.fi/s/fi-FI/myymaelaet/helsinki/firdonkatu-2b/
Strangintie 1,Lidl,Kokkola,Finland,"{'brand': 'Lidl', 'fascia': 'Lidl', 'category': 'Retail', 'edit_date': '2025-05-22', 'lat_lon_source': 'Third Party'}",63.84647,23.17555,Lidl Kokkola - Intiaanikylä,"{'opening_hours': {'Tue': '08:00-21:00', 'Wed': '08:00-20:00', 'Thu': '10:00-21:00', 'Fri': '08:00-21:00', 'Sat': '08:00-21:00'}}",,67400,303,,https://www.lidl.fi/s/fi-FI/myymaelaet/kokkola/strangintie-1/
Jaakonkatu 3,Lidl,Helsinki,Finland,"{'brand': 'Lidl', 'fascia': 'Lidl', 'category': 'Retail', 'edit_date': '2025-05-22', 'lat_lon_source': 'Third Party'}",60.1696,24.93208,Lidl Helsinki - Graniittitalo,"{'opening_hours': {'Tue': '07:00-22:00', 'Wed': '08:00-22:00', 'Thu': '10:00-22:00', 'Fri': '07:00-22:00', 'Sat': '07:00-22:00'}}",,00100,305,,https://www.lidl.fi/s/fi-FI/myymaelaet/helsinki/jaakonkatu-3/
Lehtomäenkatu 1,Lidl,Kouvola,Finland,"{'brand': 'Lidl', 'fascia': 'Lidl', 'category': 'Retail', 'edit_date': '2025-05-22', 'lat_lon_source': 'Third Party'}",60.87605,26.73111,Lidl Kouvola - Tornionmäki,"{'opening_hours': {'Tue': '08:00-21:00', 'Wed': '08:00-21:00', 'Thu': '09:00-21:00', 'Fri': '08:00-21:00', 'Sat': '08:00-21:00'}}",,45200,306,,https://www.lidl.fi/s/fi-FI/myymaelaet/kouvola/lehtomäenkatu-1/
Siltakatu 11,Lidl,Espoo,Finland,"{'brand': 'Lidl', 'fascia': 'Lidl', 'category': 'Retail', 'edit_date': '2025-05-22', 'lat_lon_source': 'Third Party'}",60.20337,24.65831,Lidl Espoo - Entresse,"{'opening_hours': {'Tue': '08:00-22:00', 'Wed': '08:00-21:00', 'Thu': '09:00-21:00', 'Fri': '08:00-22:00', 'Sat': '08:00-22:00'}}",,02770,307,,https://www.lidl.fi/s/fi-FI/myymaelaet/espoo/siltakatu-11/
Rautatienkatu 21,Lidl,Tampere,Finland,"{'brand': 'Lidl', 'fascia': 'Lidl', 'category': 'Retail', 'edit_date': '2025-05-22', 'lat_lon_source': 'Third Party'}",61.5,23.7717,Lidl Tampere - Rautatienkatu,"{'opening_hours': {'Tue': '08:00-21:00', 'Wed': '08:00-21:00', 'Thu': '10:00-21:00', 'Fri': '08:00-21:00', 'Sat': '08:00-21:00'}}",,33100,308,,https://www.lidl.fi/s/fi-FI/myymaelaet/tampere/rautatienkatu-21/
Mustionkatu 31,Lidl,Turku,Finland,"{'brand': 'Lidl', 'fascia': 'Lidl', 'category': 'Retail', 'edit_date': '2025-05-22', 'lat_lon_source': 'Third Party'}",60.43263,22.33277,Lidl Turku - Skanssi,"{'opening_hours': {'Tue': '08:00-21:00', 'Wed': '08:00-21:00', 'Thu': '10:00-21:00', 'Fri': '08:00-21:00', 'Sat': '08:00-21:00'}}",,20520,310,,https://www.lidl.fi/s/fi-FI/myymaelaet/turku/mustionkatu-31/
Sinimäentie 16,Lidl,Espoo,Finland,"{'brand': 'Lidl', 'fascia': 'Lidl', 'category': 'Retail', 'edit_date': '2025-05-22', 'lat_lon_source': 'Third Party'}",60.20163,24.7831,Lidl Espoo - Laajalahti Bredis,"{'opening_hours': {'Tue': '08:00-22:00', 'Wed': '08:00-22:00', 'Thu': '09:00-21:00', 'Fri': '08:00-22:00', 'Sat': '08:00-22:00'}}",,02180,311,,https://www.lidl.fi/s/fi-FI/myymaelaet/espoo/sinimäentie-16/
Tulppatie 2,Lidl,Helsinki,Finland,"{'brand': 'Lidl', 'fascia': 'Lidl', 'category': 'Retail', 'edit_date': '2025-05-22', 'lat_lon_source': 'Third Party'}",60.21026,25.05796,Lidl Helsinki - Roihupelto,"{'opening_hours': {'Tue': '08:00-22:00', 'Wed': '08:00-21:00', 'Thu': '09:00-21:00', 'Fri': '08:00-22:00', 'Sat': '08:00-22:00'}}",,08800,312,,https://www.lidl.fi/s/fi-FI/myymaelaet/helsinki/tulppatie-2/
Antaksentie 4,Lidl,Vantaa,Finland,"{'brand': 'Lidl', 'fascia': 'Lidl', 'category': 'Retail', 'edit_date': '2025-05-22', 'lat_lon_source': 'Third Party'}",60.29422,24.94808,Lidl Vantaa - Vantaanportti,"{'opening_hours': {'Tue': '08:00-22:00', 'Wed': '08:00-22:00', 'Thu': '09:00-21:00', 'Fri': '08:00-22:00', 'Sat': '08:00-22:00'}}",,01510,313,,https://www.lidl.fi/s/fi-FI/myymaelaet/vantaa/antaksentie-4/
Kauppatie 2,Lidl,Paimio,Finland,"{'brand': 'Lidl', 'fascia': 'Lidl', 'category': 'Retail', 'edit_date': '2025-05-22', 'lat_lon_source': 'Third Party'}",60.45414,22.68303,Lidl Paimio,"{'opening_hours': {'Tue': '08:00-21:00', 'Wed': '08:00-20:00', 'Thu': '10:00-19:00', 'Fri': '08:00-21:00', 'Sat': '08:00-21:00'}}",,21530,314,,https://www.lidl.fi/s/fi-FI/myymaelaet/paimio/kauppatie-2/
Sutelantie 151,Lidl,Kotka,Finland,"{'brand': 'Lidl', 'fascia': 'Lidl', 'category': 'Retail', 'edit_date': '2025-05-22', 'lat_lon_source': 'Third Party'}",60.50242,26.87373,Lidl Kotka - Sutela,"{'opening_hours': {'Tue': '08:00-21:00', 'Wed': '08:00-21:00', 'Thu': '09:00-21:00', 'Fri': '08:00-21:00', 'Sat': '08:00-21:00'}}",,48400,315,,https://www.lidl.fi/s/fi-FI/myymaelaet/kotka/sutelantie-151/
Länsisatamankatu 35,Lidl,Helsinki,Finland,"{'brand': 'Lidl', 'fascia': 'Lidl', 'category': 'Retail', 'edit_date': '2025-05-22', 'lat_lon_source': 'Third Party'}",60.1548,24.91483,Lidl Helsinki - Jätkäsaari,"{'opening_hours': {'Tue': '08:00-22:00', 'Wed': '08:00-22:00', 'Thu': '09:00-22:00', 'Fri': '08:00-22:00', 'Sat': '08:00-22:00'}}",,00180,316,,https://www.lidl.fi/s/fi-FI/myymaelaet/helsinki/länsisatamankatu-35/
Suurmetsäntie 6,Lidl,Helsinki,Finland,"{'brand': 'Lidl', 'fascia': 'Lidl', 'category': 'Retail', 'edit_date': '2025-05-22', 'lat_lon_source': 'Third Party'}",60.26273,25.07201,Lidl Helsinki - Alppikylä,"{'opening_hours': {'Tue': '07:00-22:00', 'Wed': '07:00-22:00', 'Thu': '09:00-22:00', 'Fri': '07:00-22:00', 'Sat': '07:00-22:00'}}",,00770,317,,https://www.lidl.fi/s/fi-FI/myymaelaet/helsinki/suurmetsäntie-6/
Vähäheikkiläntie 58,Lidl,Turku,Finland,"{'brand': 'Lidl', 'fascia': 'Lidl', 'category': 'Retail', 'edit_date': '2025-05-22', 'lat_lon_source': 'Third Party'}",60.43106,22.24727,Lidl Turku - Vähäheikkilä,"{'opening_hours': {'Tue': '08:00-22:00', 'Wed': '08:00-21:00', 'Thu': '09:00-21:00', 'Fri': '08:00-22:00', 'Sat': '08:00-22:00'}}",,20810,318,,https://www.lidl.fi/s/fi-FI/myymaelaet/turku/vähäheikkiläntie-58/
Työkeskuksenkatu 4,Lidl,Mikkeli,Finland,"{'brand': 'Lidl', 'fascia': 'Lidl', 'category': 'Retail', 'edit_date': '2025-05-22', 'lat_lon_source': 'Third Party'}",61.69666,27.28826,Lidl ,"{'opening_hours': {'Tue': '08:00-21:00', 'Wed': '08:00-20:00', 'Thu': '09:00-21:00', 'Fri': '08:00-21:00', 'Sat': '08:00-21:00'}}",,50170,319,,https://www.lidl.fi/s/fi-FI/myymaelaet/mikkeli/työkeskuksenkatu-4/
Vapaalantie 4,Lidl,Vantaa,Finland,"{'brand': 'Lidl', 'fascia': 'Lidl', 'category': 'Retail', 'edit_date': '2025-05-22', 'lat_lon_source': 'Third Party'}",60.25577,24.8245,Lidl Vantaa - Vapaala,"{'opening_hours': {'Tue': '08:00-22:00', 'Wed': '08:00-22:00', 'Thu': '09:00-22:00', 'Fri': '08:00-22:00', 'Sat': '08:00-22:00'}}",,01650,320,,https://www.lidl.fi/s/fi-FI/myymaelaet/vantaa/vapaalantie-4/
Autovarikonkatu 13,Lidl,Tampere,Finland,"{'brand': 'Lidl', 'fascia': 'Lidl', 'category': 'Retail', 'edit_date': '2025-05-22', 'lat_lon_source': 'Third Party'}",61.45391,23.7636,Lidl Tampere - Lakalaiva,"{'opening_hours': {'Tue': '08:00-22:00', 'Wed': '08:00-21:00', 'Thu': '09:00-21:00', 'Fri': '08:00-22:00', 'Sat': '08:00-22:00'}}",,33840,321,,https://www.lidl.fi/s/fi-FI/myymaelaet/tampere/autovarikonkatu-13/
Heikkilänkatu 14,Lidl,Tampere,Finland,"{'brand': 'Lidl', 'fascia': 'Lidl', 'category': 'Retail', 'edit_date': '2025-05-22', 'lat_lon_source': 'Third Party'}",61.49778,23.87961,Lidl ,"{'opening_hours': {'Tue': '08:00-22:00', 'Wed': '08:00-21:00', 'Thu': '10:00-21:00', 'Fri': '08:00-22:00', 'Sat': '08:00-22:00'}}",,33560,322,,https://www.lidl.fi/s/fi-FI/myymaelaet/tampere/heikkilänkatu-14/
Tesoman Valtatie 30,Lidl,Tampere,Finland,"{'brand': 'Lidl', 'fascia': 'Lidl', 'category': 'Retail', 'edit_date': '2025-05-22', 'lat_lon_source': 'Third Party'}",61.50269,23.63554,Lidl ,"{'opening_hours': {'Tue': '08:00-21:00', 'Wed': '08:00-21:00', 'Thu': '09:00-21:00', 'Fri': '08:00-21:00', 'Sat': '08:00-21:00'}}",,33300,323,,https://www.lidl.fi/s/fi-FI/myymaelaet/tampere/tesoman-valtatie-30/
Vuotie 45,Lidl,Helsinki,Finland,"{'brand': 'Lidl', 'fascia': 'Lidl', 'category': 'Retail', 'edit_date': '2025-05-22', 'lat_lon_source': 'Third Party'}",60.20735,25.14511,Lidl Helsinki - Columbus,"{'opening_hours': {'Tue': '08:00-22:00', 'Wed': '08:00-22:00', 'Thu': '10:00-21:00', 'Fri': '08:00-22:00', 'Sat': '08:00-22:00'}}",,00980,324,,https://www.lidl.fi/s/fi-FI/myymaelaet/helsinki/vuotie-45/
Turuntie  207,Lidl,Espoo,Finland,"{'brand': 'Lidl', 'fascia': 'Lidl', 'category': 'Retail', 'edit_date': '2025-05-22', 'lat_lon_source': 'Third Party'}",60.22158,24.67091,Lidl Espoo - Bemböle,"{'opening_hours': {'Tue': '08:00-22:00', 'Wed': '08:00-22:00', 'Thu': '09:00-22:00', 'Fri': '08:00-22:00', 'Sat': '08:00-22:00'}}",,02740,325,,https://www.lidl.fi/s/fi-FI/myymaelaet/espoo/turuntie--207/
Mäkikuumolantie 3,Lidl,Hyvinkää,Finland,"{'brand': 'Lidl', 'fascia': 'Lidl', 'category': 'Retail', 'edit_date': '2025-05-22', 'lat_lon_source': 'Third Party'}",60.62241,24.80471,Lidl Hyvinkää - Sveitsin Portaali,"{'opening_hours': {'Tue': '08:00-21:00', 'Wed': '08:00-20:00', 'Thu': '09:00-20:00', 'Fri': '08:00-21:00', 'Sat': '08:00-21:00'}}",,05800,326,,https://www.lidl.fi/s/fi-FI/myymaelaet/hyvinkää/mäkikuumolantie-3/
Vapparintie 1-3,Lidl,Parainen,Finland,"{'brand': 'Lidl', 'fascia': 'Lidl', 'category': 'Retail', 'edit_date': '2025-05-22', 'lat_lon_source': 'Third Party'}",60.3077,22.30052,Lidl Parainen,"{'opening_hours': {'Tue': '08:00-21:00', 'Wed': '08:00-20:00', 'Thu': '10:00-20:00', 'Fri': '08:00-21:00', 'Sat': '08:00-21:00'}}",,21600,327,,https://www.lidl.fi/s/fi-FI/myymaelaet/parainen/vapparintie-1-3/
Kauppakaari 1,Lidl,Lahti,Finland,"{'brand': 'Lidl', 'fascia': 'Lidl', 'category': 'Retail', 'edit_date': '2025-05-22', 'lat_lon_source': 'Third Party'}",60.94706,25.88996,Lidl Lahti - Nastola,"{'opening_hours': {'Tue': '08:00-21:00', 'Wed': '08:00-21:00', 'Thu': '10:00-20:00', 'Fri': '08:00-21:00', 'Sat': '08:00-21:00'}}",,15560,329,,https://www.lidl.fi/s/fi-FI/myymaelaet/lahti/kauppakaari-1/
Valovirrankatu 1,Lidl,Järvenpää,Finland,"{'brand': 'Lidl', 'fascia': 'Lidl', 'category': 'Retail', 'edit_date': '2025-05-22', 'lat_lon_source': 'Third Party'}",60.48461,25.08936,Lidl Järvenpää - Pajala,"{'opening_hours': {'Tue': '08:00-22:00', 'Wed': '08:00-21:00', 'Thu': '09:00-21:00', 'Fri': '08:00-22:00', 'Sat': '08:00-22:00'}}",,04410,330,,https://www.lidl.fi/s/fi-FI/myymaelaet/järvenpää/valovirrankatu-1/
Munkinmäentie 3,Lidl,Kirkkonummi,Finland,"{'brand': 'Lidl', 'fascia': 'Lidl', 'category': 'Retail', 'edit_date': '2025-05-22', 'lat_lon_source': 'Third Party'}",60.1177,24.43115,Lidl ,"{'opening_hours': {'Tue': '08:00-22:00', 'Wed': '08:00-21:00', 'Thu': '09:00-21:00', 'Fri': '08:00-22:00', 'Sat': '08:00-22:00'}}",,02400,331,,https://www.lidl.fi/s/fi-FI/myymaelaet/kirkkonummi/munkinmäentie-3/
Bruno Granholmin kuja 2,Lidl,Helsinki,Finland,"{'brand': 'Lidl', 'fascia': 'Lidl', 'category': 'Retail', 'edit_date': '2025-05-22', 'lat_lon_source': 'Third Party'}",60.19281,24.94684,Lidl Helsinki - Vallila,"{'opening_hours': {'Tue': '08:00-21:00', 'Wed': '09:00-21:00', 'Thu': '10:00-21:00', 'Fri': '08:00-21:00', 'Sat': '08:00-21:00'}}",,00510,332,,https://www.lidl.fi/s/fi-FI/myymaelaet/helsinki/bruno-granholmin-kuja-2/
Sairaalantie 3,Lidl,Nurmijärvi,Finland,"{'brand': 'Lidl', 'fascia': 'Lidl', 'category': 'Retail', 'edit_date': '2025-05-22', 'lat_lon_source': 'Third Party'}",60.46658,24.80829,Lidl ,"{'opening_hours': {'Tue': '08:00-21:00', 'Wed': '08:00-21:00', 'Thu': '10:00-21:00', 'Fri': '08:00-21:00', 'Sat': '08:00-21:00'}}",,01900,333,,https://www.lidl.fi/s/fi-FI/myymaelaet/nurmijärvi/sairaalantie-3/
Vapaudenkatu 49,Lidl,Jyväskylä,Finland,"{'brand': 'Lidl', 'fascia': 'Lidl', 'category': 'Retail', 'edit_date': '2025-05-22', 'lat_lon_source': 'Third Party'}",62.24155,25.74906,Lidl ,"{'opening_hours': {'Tue': '08:00-22:00', 'Wed': '08:00-21:00', 'Thu': '10:00-21:00', 'Fri': '08:00-22:00', 'Sat': '08:00-22:00'}}",,40100,334,,https://www.lidl.fi/s/fi-FI/myymaelaet/jyväskylä/vapaudenkatu-49/
Sairaskodinkatu 1,Lidl,Vaasa,Finland,"{'brand': 'Lidl', 'fascia': 'Lidl', 'category': 'Retail', 'edit_date': '2025-05-22', 'lat_lon_source': 'Third Party'}",63.0991,21.63432,Lidl Vaasa - Keskusta,"{'opening_hours': {'Tue': '08:00-22:00', 'Wed': '08:00-21:00', 'Thu': '10:00-21:00', 'Fri': '08:00-22:00', 'Sat': '08:00-22:00'}}",,65100,335,,https://www.lidl.fi/s/fi-FI/myymaelaet/vaasa/sairaskodinkatu-1/
Vantaanlaaksontie 34,Lidl,Vantaa,Finland,"{'brand': 'Lidl', 'fascia': 'Lidl', 'category': 'Retail', 'edit_date': '2025-05-22', 'lat_lon_source': 'Third Party'}",60.27883,24.87237,Lidl Vantaa - Vantaanlaakso,"{'opening_hours': {'Tue': '08:00-22:00', 'Wed': '08:00-22:00', 'Thu': '09:00-22:00', 'Fri': '08:00-22:00', 'Sat': '08:00-22:00'}}",,01670,336,,https://www.lidl.fi/s/fi-FI/myymaelaet/vantaa/vantaanlaaksontie-34/
Meripihkatie 1,Lidl,Helsinki,Finland,"{'brand': 'Lidl', 'fascia': 'Lidl', 'category': 'Retail', 'edit_date': '2025-05-22', 'lat_lon_source': 'Third Party'}",60.23397,25.01111,Lidl ,"{'opening_hours': {'Tue': '08:00-21:00', 'Wed': '08:00-21:00', 'Thu': '10:00-21:00', 'Fri': '08:00-21:00', 'Sat': '08:00-21:00'}}",,00710,337,,https://www.lidl.fi/s/fi-FI/myymaelaet/helsinki/meripihkatie-1/
Sisustajantie 8,Lidl,Kuopio,Finland,"{'brand': 'Lidl', 'fascia': 'Lidl', 'category': 'Retail', 'edit_date': '2025-05-22', 'lat_lon_source': 'Third Party'}",62.90589,27.68294,Lidl ,"{'opening_hours': {'Tue': '08:00-22:00', 'Wed': '08:00-21:00', 'Thu': '09:00-21:00', 'Fri': '08:00-22:00', 'Sat': '08:00-22:00'}}",,70300,338,,https://www.lidl.fi/s/fi-FI/myymaelaet/kuopio/sisustajantie-8/
Töölöntullinkatu 8,Lidl,Helsinki,Finland,"{'brand': 'Lidl', 'fascia': 'Lidl', 'category': 'Retail', 'edit_date': '2025-05-22', 'lat_lon_source': 'Third Party'}",60.19032,24.91266,Lidl ,"{'opening_hours': {'Tue': '08:00-22:00', 'Wed': '09:00-22:00', 'Thu': '10:00-22:00', 'Fri': '08:00-22:00', 'Sat': '08:00-22:00'}}",,00250,339,,https://www.lidl.fi/s/fi-FI/myymaelaet/helsinki/töölöntullinkatu-8/
Vantaankoskentie 69,Lidl,Vantaa,Finland,"{'brand': 'Lidl', 'fascia': 'Lidl', 'category': 'Retail', 'edit_date': '2025-05-22', 'lat_lon_source': 'Third Party'}",60.3125,24.84646,Lidl ,"{'opening_hours': {'Tue': '08:00-22:00', 'Wed': '08:00-22:00', 'Thu': '10:00-21:00', 'Fri': '08:00-22:00', 'Sat': '08:00-22:00'}}",,01730,340,,https://www.lidl.fi/s/fi-FI/myymaelaet/vantaa/vantaankoskentie-69/
Pihatörmä 1,Lidl,Espoo,Finland,"{'brand': 'Lidl', 'fascia': 'Lidl', 'category': 'Retail', 'edit_date': '2025-05-22', 'lat_lon_source': 'Third Party'}",60.16546,24.73115,Lidl ,"{'opening_hours': {'Tue': '08:00-21:00', 'Wed': '09:00-21:00', 'Thu': '10:00-20:00', 'Fri': '08:00-21:00', 'Sat': '08:00-21:00'}}",,02240,342,,https://www.lidl.fi/s/fi-FI/myymaelaet/espoo/pihatörmä-1/
Iskoskuja 3,Lidl,Vantaa,Finland,"{'brand': 'Lidl', 'fascia': 'Lidl', 'category': 'Retail', 'edit_date': '2025-05-22', 'lat_lon_source': 'Third Party'}",60.25998,24.85155,Lidl ,"{'opening_hours': {'Tue': '08:00-21:00', 'Wed': '08:00-21:00', 'Thu': '09:00-21:00', 'Fri': '08:00-21:00', 'Sat': '08:00-21:00'}}",,01600,343,,https://www.lidl.fi/s/fi-FI/myymaelaet/vantaa/iskoskuja-3/
Satamakatu 8,Lidl,Iisalmi,Finland,"{'brand': 'Lidl', 'fascia': 'Lidl', 'category': 'Retail', 'edit_date': '2025-05-22', 'lat_lon_source': 'Third Party'}",63.55572,27.18784,Lidl Iisalmi - Iisa,"{'opening_hours': {'Tue': '08:00-21:00', 'Wed': '08:00-19:00', 'Thu': '11:00-19:00', 'Fri': '08:00-21:00', 'Sat': '08:00-21:00'}}",,74100,344,,https://www.lidl.fi/s/fi-FI/myymaelaet/iisalmi/satamakatu-8/
Elmontie 1,Lidl,Vantaa,Finland,"{'brand': 'Lidl', 'fascia': 'Lidl', 'category': 'Retail', 'edit_date': '2025-05-22', 'lat_lon_source': 'Third Party'}",60.33571,25.06276,Lidl ,"{'opening_hours': {'Tue': '08:00-22:00', 'Wed': '08:00-21:00', 'Thu': '09:00-21:00', 'Fri': '08:00-22:00', 'Sat': '08:00-22:00'}}",,01400,345,,https://www.lidl.fi/s/fi-FI/myymaelaet/vantaa/elmontie-1/
Vuoritie 2,Lidl,Akaa,Finland,"{'brand': 'Lidl', 'fascia': 'Lidl', 'category': 'Retail', 'edit_date': '2025-05-22', 'lat_lon_source': 'Third Party'}",61.17987,23.8887,Lidl Akaa,"{'opening_hours': {'Tue': '08:00-21:00', 'Wed': '08:00-21:00', 'Thu': '09:00-21:00', 'Fri': '08:00-21:00', 'Sat': '08:00-21:00'}}",,37800,346,,https://www.lidl.fi/s/fi-FI/myymaelaet/akaa/vuoritie-2/
Lauri Korpisen katu 9,Lidl,Vantaa,Finland,"{'brand': 'Lidl', 'fascia': 'Lidl', 'category': 'Retail', 'edit_date': '2025-05-22', 'lat_lon_source': 'Third Party'}",60.29457,25.04798,Lidl ,"{'opening_hours': {'Tue': '07:00-22:00', 'Wed': '08:00-21:00', 'Thu': '09:00-21:00', 'Fri': '07:00-22:00', 'Sat': '07:00-22:00'}}",,01370,348,,https://www.lidl.fi/s/fi-FI/myymaelaet/vantaa/lauri-korpisen-katu-9/
Autoasemankatu 6,Lidl,Tuusula,Finland,"{'brand': 'Lidl', 'fascia': 'Lidl', 'category': 'Retail', 'edit_date': '2025-05-22', 'lat_lon_source': 'Third Party'}",60.40266,25.02922,Lidl ,"{'opening_hours': {'Tue': '08:00-21:00', 'Wed': '08:00-21:00', 'Thu': '09:00-21:00', 'Fri': '08:00-21:00', 'Sat': '08:00-21:00'}}",,04300,350,,https://www.lidl.fi/s/fi-FI/myymaelaet/tuusula/autoasemankatu-6/
Metsokankaantie 1,Lidl,Oulu,Finland,"{'brand': 'Lidl', 'fascia': 'Lidl', 'category': 'Retail', 'edit_date': '2025-05-22', 'lat_lon_source': 'Third Party'}",64.95861,25.52409,Lidl ,"{'opening_hours': {'Tue': '08:00-22:00', 'Wed': '08:00-22:00', 'Thu': '10:00-22:00', 'Fri': '08:00-22:00', 'Sat': '08:00-22:00'}}",,90420,353,,https://www.lidl.fi/s/fi-FI/myymaelaet/oulu/metsokankaantie-1/
