addr_full,city,country,brand,extras,lat,lon,opening_hours,phone,ref,postcode,name,state,website
"BLVD. ZACATECAS NORTE, 849, TROJES DE ALONSO, NDF, AGUASCALIENTES",AGUASCALIENTES,Mexico,La Comer,"{'brand': 'La Comer', 'fascia': 'La Comer', 'category': 'Retail', 'edit_date': '20250426', 'lat_lon_source': 'Website'}",21.922078,-102.291628,"{'opening_hours': {'Mon': '07:30-22:00', 'Tue': '07:30-22:00', 'Wed': '07:30-22:00', 'Thu': '07:30-22:00', 'Fri': '07:30-22:00', 'Sat': '07:30-22:00', 'Sun': '07:30-22:00'}}",01 800 3777 333,430,20116,LA COMER ALTARIA AGUASCALIENTES,AGUASCALIENTES,https://www.lacomer.com.mx/lacomer/#!/conocenos/
"BOSQUE DE ARRAYAN MZ 5 LT 1,  , FRACC. CONJUNTO URBANO BOSQUE ESMERALDA, ATIZAPAN DE ZARAGOZA, ESTADO DE MEXICO",ZONA ESMERALDA,Mexico,La Comer,"{'brand': 'La Comer', 'fascia': 'La Comer', 'category': 'Retail', 'edit_date': '20250426', 'lat_lon_source': 'Website'}",19.549235,-99.287138,"{'opening_hours': {'Mon': '07:00-22:00', 'Tue': '07:00-22:00', 'Wed': '07:00-22:00', 'Thu': '07:00-22:00', 'Fri': '07:00-22:00', 'Sat': '07:00-22:00', 'Sun': '07:00-22:00'}}",01 800 3777 333,375,52973,LA COMER BOSQUE ESMERALDA,ESTADO DE MEXICO,https://www.lacomer.com.mx/lacomer/#!/conocenos/
"BOULEVARD BOSQUE REAL, MZA III-A, BOSQUE REAL, NAUCALPAN DE JUAREZ, ESTADO DE MEXICO",NAUCALPAN,Mexico,La Comer,"{'brand': 'La Comer', 'fascia': 'La Comer', 'category': 'Retail', 'edit_date': '20250426', 'lat_lon_source': 'Website'}",19.422514,-99.297063,"{'opening_hours': {'Mon': '07:00-22:00', 'Tue': '07:00-22:00', 'Wed': '07:00-22:00', 'Thu': '07:00-22:00', 'Fri': '07:00-22:00', 'Sat': '07:00-22:00', 'Sun': '07:00-22:00'}}",01 800 3777 333,444,52774,LA COMER BOSQUE REAL,ESTADO DE MEXICO,https://www.lacomer.com.mx/lacomer/#!/conocenos/
"AV. HIDALGO, 1055, LOMAS DEL FARO, CABO SAN LUCAS, BAJA CALIFORNIA SUR",CABO SAN LUCAS,Mexico,La Comer,"{'brand': 'La Comer', 'fascia': 'La Comer', 'category': 'Retail', 'edit_date': '20250426', 'lat_lon_source': 'Website'}",22.893606,-109.932783,"{'opening_hours': {'Mon': '07:00-23:00', 'Tue': '07:00-23:00', 'Wed': '07:00-23:00', 'Thu': '07:00-23:00', 'Fri': '07:00-23:00', 'Sat': '07:00-23:00', 'Sun': '07:00-23:00'}}",01 800 3777 333,398,23472,LA COMER CABO SAN LUCAS,BAJA CALIFORNIA SUR,https://www.lacomer.com.mx/lacomer/#!/conocenos/
"BLVD MAURICIO CASTRO , 4650, ZONA HOTELERA, SAN JOSE DEL CABO, BAJA CALIFORNIA SUR",SAN JOSE DEL CABO,Mexico,La Comer,"{'brand': 'La Comer', 'fascia': 'La Comer', 'category': 'Retail', 'edit_date': '20250426', 'lat_lon_source': 'Website'}",23.044261,-109.705423,"{'opening_hours': {'Mon': '07:00-23:00', 'Tue': '07:00-23:00', 'Wed': '07:00-23:00', 'Thu': '07:00-23:00', 'Fri': '07:00-23:00', 'Sat': '07:00-23:00', 'Sun': '07:00-23:00'}}",01 800 3777 333,153,23400,LA COMER CASCADA LOS CABOS,BAJA CALIFORNIA SUR,https://www.lacomer.com.mx/lacomer/#!/conocenos/
"MIGUEL ANGEL DE QUEVEDO , 443, ROMERO DE TERREROS, COYOACAN, CIUDAD DE MÉXICO",MEXICO,Mexico,La Comer,"{'brand': 'La Comer', 'fascia': 'La Comer', 'category': 'Retail', 'edit_date': '20250426', 'lat_lon_source': 'Website'}",19.345059,-99.171953,"{'opening_hours': {'Mon': '07:00-23:00', 'Tue': '07:00-23:00', 'Wed': '07:00-23:00', 'Thu': '07:00-23:00', 'Fri': '07:00-23:00', 'Sat': '07:00-23:00', 'Sun': '07:00-23:00'}}",01 800 3777 333,5001,4310,LA COMER CDMX SUR,CIUDAD DE MÉXICO,https://www.lacomer.com.mx/lacomer/#!/conocenos/
"MIGUEL ANGEL DE QUEVEDO , 443, ROMERO DE TERREROS, COYOACAN, CIUDAD DE MÉXICO",MEXICO,Mexico,La Comer,"{'brand': 'La Comer', 'fascia': 'La Comer', 'category': 'Retail', 'edit_date': '20250426', 'lat_lon_source': 'Website'}",19.345059,-99.171953,"{'opening_hours': {'Mon': '07:00-23:00', 'Tue': '07:00-23:00', 'Wed': '07:00-23:00', 'Thu': '07:00-23:00', 'Fri': '07:00-23:00', 'Sat': '07:00-23:00', 'Sun': '07:00-23:00'}}",01 800 3777 333,287,4310,LA COMER COYOACÁN,CIUDAD DE MÉXICO,https://www.lacomer.com.mx/lacomer/#!/conocenos/
"C. GABRIEL MANCERA, 1311, DEL VALLE SUR, BENITO JUAREZ, CIUDAD DE MEXICO",MEXICO,Mexico,La Comer,"{'brand': 'La Comer', 'fascia': 'La Comer', 'category': 'Retail', 'edit_date': '20250426', 'lat_lon_source': 'Website'}",19.375138,-99.16712,"{'opening_hours': {'Mon': '07:00-22:00', 'Tue': '07:00-22:00', 'Wed': '07:00-22:00', 'Thu': '07:00-22:00', 'Fri': '07:00-22:00', 'Sat': '07:00-22:00', 'Sun': '07:00-22:00'}}",01 800 3777 333,431,03100,LA COMER DEL VALLE,CIUDAD DE MEXICO,https://www.lacomer.com.mx/lacomer/#!/conocenos/
"CARRETERA MEXICO-ACAPULCO KM 87.5 ,  , FLORES MAGON , CUERNAVACA, MORELOS",CUERNAVACA,Mexico,La Comer,"{'brand': 'La Comer', 'fascia': 'La Comer', 'category': 'Retail', 'edit_date': '20250426', 'lat_lon_source': 'Website'}",18.934263,-99.195277,"{'opening_hours': {'Mon': '07:00-23:00', 'Tue': '07:00-23:00', 'Wed': '07:00-23:00', 'Thu': '07:00-23:00', 'Fri': '07:00-23:00', 'Sat': '07:00-23:00', 'Sun': '07:00-23:00'}}",01 800 3777 333,163,62370,LA COMER DIANA CUERNAVACA,MORELOS,https://www.lacomer.com.mx/lacomer/#!/conocenos/
"PROL. CORREGIDORA NORTE, 1116, BLVD. BERNARDO QUINTANA ESQUINA, EL REFUGIO, QUERETARO",MEXICO,Mexico,La Comer,"{'brand': 'La Comer', 'fascia': 'La Comer', 'category': 'Retail', 'edit_date': '20250426', 'lat_lon_source': 'Website'}",20.642985,-100.348107,"{'opening_hours': {'Mon': '07:30-22:00', 'Tue': '07:30-22:00', 'Wed': '07:30-22:00', 'Thu': '07:30-22:00', 'Fri': '07:30-22:00', 'Sat': '07:30-22:00', 'Sun': '07:30-22:00'}}",,429,76146,LA COMER EL REFUGIO QRO,QUERETARO,https://www.lacomer.com.mx/lacomer/#!/conocenos/
"AV LUIS VEGA Y MONROY ESQ AV CIMATORIO, 1300, PLAZAS DEL SOL, QUERETARO, QUERETARO",QUERETARO,Mexico,La Comer,"{'brand': 'La Comer', 'fascia': 'La Comer', 'category': 'Retail', 'edit_date': '20250426', 'lat_lon_source': 'Website'}",20.575381,-100.377424,"{'opening_hours': {'Mon': '07:00-22:30', 'Tue': '07:00-22:30', 'Wed': '07:00-22:30', 'Thu': '07:00-22:30', 'Fri': '07:00-22:30', 'Sat': '07:00-22:30', 'Sun': '07:00-22:30'}}",01 800 3777 333,168,76090,LA COMER ESTADIO QRO,QUERETARO,https://www.lacomer.com.mx/lacomer/#!/conocenos/
"PERIFERICO NORTE , 25, FRACC. DEL RIO, IGUALA DE LA INDEPENDENCIA, GUERRERO",IGUALA DE LA INDEPENDENCIA,Mexico,La Comer,"{'brand': 'La Comer', 'fascia': 'La Comer', 'category': 'Retail', 'edit_date': '20250426', 'lat_lon_source': 'Website'}",18.342171,-99.522938,"{'opening_hours': {'Mon': '07:00-23:00', 'Tue': '07:00-23:00', 'Wed': '07:00-23:00', 'Thu': '07:00-23:00', 'Fri': '07:00-23:00', 'Sat': '07:00-23:00', 'Sun': '07:00-23:00'}}",01 800 3777 333,324,40050,LA COMER IGUALA,GUERRERO,https://www.lacomer.com.mx/lacomer/#!/conocenos/
"PERPETUA , 35, SAN JOSE INSURGENTES, BENITO JUAREZ, CIUDAD DE MÉXICO",MEXICO,Mexico,La Comer,"{'brand': 'La Comer', 'fascia': 'La Comer', 'category': 'Retail', 'edit_date': '20250426', 'lat_lon_source': 'Website'}",19.366407,-99.182221,"{'opening_hours': {'Mon': '07:00-22:00', 'Tue': '07:00-22:00', 'Wed': '07:00-22:00', 'Thu': '07:00-22:00', 'Fri': '07:00-22:00', 'Sat': '07:00-22:00', 'Sun': '07:00-22:00'}}",01 800 3777 333,420,3900,LA COMER INSURGENTES,CIUDAD DE MÉXICO,https://www.lacomer.com.mx/lacomer/#!/conocenos/
"BLVD DEL BOSQUE , 1, FRACC. LAS REYNAS, IRAPUATO, GUANAJUATO",IRAPUATO,Mexico,La Comer,"{'brand': 'La Comer', 'fascia': 'La Comer', 'category': 'Retail', 'edit_date': '20250426', 'lat_lon_source': 'Website'}",20.689995,-101.357535,"{'opening_hours': {'Mon': '07:00-22:00', 'Tue': '07:00-22:00', 'Wed': '07:00-22:00', 'Thu': '07:00-22:00', 'Fri': '07:00-22:00', 'Sat': '07:00-22:00', 'Sun': '07:00-22:00'}}",01 800 3777 333,10,36660,LA COMER IRAPUATO,GUANAJUATO,https://www.lacomer.com.mx/lacomer/#!/conocenos/
"CALZ ERMITA IZTAPALAPA , 3865, SANTA MARIA AZTAHUACAN, IZTAPALAPA, CIUDAD DE MÉXICO",IZTAPALAPA,Mexico,La Comer,"{'brand': 'La Comer', 'fascia': 'La Comer', 'category': 'Retail', 'edit_date': '20250426', 'lat_lon_source': 'Website'}",19.351781,-99.012716,"{'opening_hours': {'Mon': '07:00-22:00', 'Tue': '07:00-22:00', 'Wed': '07:00-22:00', 'Thu': '07:00-22:00', 'Fri': '07:00-22:00', 'Sat': '07:00-22:00', 'Sun': '07:00-22:00'}}",01 800 3777 333,149,9730,LA COMER IZTAPALAPA LAS TORRES,CIUDAD DE MÉXICO,https://www.lacomer.com.mx/lacomer/#!/conocenos/
"BOULEVARD UNIVERSITARIO, 400, PROVINCIA JURIQUILLA, SANTIAGO DE QUERÉTARO, QUERETARO",SANTA ROSA JÁUREGUI,Mexico,La Comer,"{'brand': 'La Comer', 'fascia': 'La Comer', 'category': 'Retail', 'edit_date': '20250426', 'lat_lon_source': 'Website'}",20.720283,-100.448122,"{'opening_hours': {'Mon': '07:00-22:00', 'Tue': '07:00-22:00', 'Wed': '07:00-22:00', 'Thu': '07:00-22:00', 'Fri': '07:00-22:00', 'Sat': '07:00-22:00', 'Sun': '07:00-22:00'}}",01 800 3777 333,445,76230,LA COMER JURIQUILLA,QUERETARO,https://www.lacomer.com.mx/lacomer/#!/conocenos/
"XOCHIMILCO, 343, ANAHUAC, MIGUEL HIDALGO, CIUDAD DE MÉXICO",MEXICO,Mexico,La Comer,"{'brand': 'La Comer', 'fascia': 'La Comer', 'category': 'Retail', 'edit_date': '20250426', 'lat_lon_source': 'Website'}",19.438409,-99.179435,"{'opening_hours': {'Mon': '07:00-22:00', 'Tue': '07:00-22:00', 'Wed': '07:00-22:00', 'Thu': '07:00-22:00', 'Fri': '07:00-22:00', 'Sat': '07:00-22:00', 'Sun': '07:00-22:00'}}",01 800 3777 333,400,11320,LA COMER LAGO ALBERTO,CIUDAD DE MÉXICO,https://www.lacomer.com.mx/lacomer/#!/conocenos/
"BOULEVARD. ATLIXCO, 3156, FRACCIONAMIENTO LAS ANIMAS, PUEBLA, PUEBLA",PUEBLA,Mexico,La Comer,"{'brand': 'La Comer', 'fascia': 'La Comer', 'category': 'Retail', 'edit_date': '20250426', 'lat_lon_source': 'Website'}",19.045623,-98.233416,"{'opening_hours': {'Mon': '07:30-22:00', 'Tue': '07:30-22:00', 'Wed': '07:30-22:00', 'Thu': '07:30-22:00', 'Fri': '07:30-22:00', 'Sat': '07:30-22:00', 'Sun': '07:30-22:00'}}",,441,72400,LA COMER LAS ANIMAS,PUEBLA,https://www.lacomer.com.mx/lacomer/#!/conocenos/
"AV MAGNOCENTRO LT 1 MZ 2,  , SAN FERNANDO HUIXQUILUCAN, HUIXQUILUCAN, ESTADO DE MEXICO",HUIXQUILUCAN,Mexico,La Comer,"{'brand': 'La Comer', 'fascia': 'La Comer', 'category': 'Retail', 'edit_date': '20250426', 'lat_lon_source': 'Website'}",19.399431,-99.276667,"{'opening_hours': {'Mon': '07:00-22:00', 'Tue': '07:00-22:00', 'Wed': '07:00-22:00', 'Thu': '07:00-22:00', 'Fri': '07:00-22:00', 'Sat': '07:00-22:00', 'Sun': '07:00-22:00'}}",01 800 3777 333,14,52796,LA COMER LOMAS ANÁHUAC,ESTADO DE MEXICO,https://www.lacomer.com.mx/lacomer/#!/conocenos/
"BLVD COSTERA MIGUEL DE LA MADRID KM 115,  , SALAHUA, MANZANILLO, COLIMA",MANZANILLO,Mexico,La Comer,"{'brand': 'La Comer', 'fascia': 'La Comer', 'category': 'Retail', 'edit_date': '20250426', 'lat_lon_source': 'Website'}",19.105139,-104.334422,"{'opening_hours': {'Mon': '07:00-23:00', 'Tue': '07:00-23:00', 'Wed': '07:00-23:00', 'Thu': '07:00-23:00', 'Fri': '07:00-23:00', 'Sat': '07:00-23:00', 'Sun': '07:00-23:00'}}",01 800 3777 333,107,28860,LA COMER MANZANILLO,COLIMA,https://www.lacomer.com.mx/lacomer/#!/conocenos/
"PERIFÉRICO PASEO DE LA REPÚBLICA, 5030, JARDÍN DEL RINCÓN, MORELIA, MICHOACÁN",MEXICO,Mexico,La Comer,"{'brand': 'La Comer', 'fascia': 'La Comer', 'category': 'Retail', 'edit_date': '20250426', 'lat_lon_source': 'Website'}",19.689551,-101.150447,"{'opening_hours': {'Mon': '07:00-22:00', 'Tue': '07:00-22:00', 'Wed': '07:00-22:00', 'Thu': '07:00-22:00', 'Fri': '07:00-22:00', 'Sat': '07:00-22:00', 'Sun': '07:00-22:00'}}",01 800 3777 333,442,58270,LA COMER MORELIA,MICHOACÁN,https://www.lacomer.com.mx/lacomer/#!/conocenos/
"PASEO FLAMINGOS ESQ. PASEO VALLARTA, LOTE 8-1 y 8-1A, COLONIA FLAMINGOS CLUB RESIDENCIAL, NDF, NAYARIT",PUERTO VALLARTA,Mexico,La Comer,"{'brand': 'La Comer', 'fascia': 'La Comer', 'category': 'Retail', 'edit_date': '20250426', 'lat_lon_source': 'Website'}",20.747114,-105.310828,"{'opening_hours': {'Mon': '07:00-23:00', 'Tue': '07:00-23:00', 'Wed': '07:00-23:00', 'Thu': '07:00-23:00', 'Fri': '07:00-23:00', 'Sat': '07:00-23:00', 'Sun': '07:00-23:00'}}",01 800 3777 333,413,63732,LA COMER NUEVO VALLARTA,NAYARIT,https://www.lacomer.com.mx/lacomer/#!/conocenos/
"AV DE LAS TORRES , 446, SAN JOSE DEL OLIVAR, ALVARO OBREGON, CIUDAD DE MÉXICO",MEXICO,Mexico,La Comer,"{'brand': 'La Comer', 'fascia': 'La Comer', 'category': 'Retail', 'edit_date': '20250426', 'lat_lon_source': 'Website'}",19.334662,-99.226928,"{'opening_hours': {'Mon': '07:00-22:00', 'Tue': '07:00-22:00', 'Wed': '07:00-22:00', 'Thu': '07:00-22:00', 'Fri': '07:00-22:00', 'Sat': '07:00-22:00', 'Sun': '07:00-22:00'}}",01 800 3777 333,131,1770,LA COMER OLIVAR,CIUDAD DE MÉXICO,https://www.lacomer.com.mx/lacomer/#!/conocenos/
"BLVD POZUELOS S/N,  , LOMAS DE POZUELOS, GUANAJUATO, GUANAJUATO",MINERAL DEL CEDRO,Mexico,La Comer,"{'brand': 'La Comer', 'fascia': 'La Comer', 'category': 'Retail', 'edit_date': '20250426', 'lat_lon_source': 'Website'}",21.013142,-101.263284,"{'opening_hours': {'Mon': '08:00-22:00', 'Tue': '08:00-22:00', 'Wed': '08:00-22:00', 'Thu': '08:00-22:00', 'Fri': '08:00-22:00', 'Sat': '08:00-22:00', 'Sun': '08:00-22:00'}}",01 800 3777 333,309,36000,LA COMER POZUELOS GUANAJUATO,GUANAJUATO,https://www.lacomer.com.mx/lacomer/#!/conocenos/
"BLVD. INTERAMERICANO, 108, Lomas de Angelópolis, Tlaxcalancingo, PUEBLA",Tlaxcalancingo,Mexico,La Comer,"{'brand': 'La Comer', 'fascia': 'La Comer', 'category': 'Retail', 'edit_date': '20250426', 'lat_lon_source': 'Website'}",18.99886,-98.274246,"{'opening_hours': {'Mon': '07:00-22:00', 'Tue': '07:00-22:00', 'Wed': '07:00-22:00', 'Thu': '07:00-22:00', 'Fri': '07:00-22:00', 'Sat': '07:00-22:00', 'Sun': '07:00-22:00'}}",01 800 3777 333,422,72828,LA COMER PUEBLA,PUEBLA,https://www.lacomer.com.mx/lacomer/#!/conocenos/
"AV PASEO CONSTITUYENTES , 1470, FRACC. PUEBLO NUEVO, CORREGIDORA, QUERETARO",QUERETARO,Mexico,La Comer,"{'brand': 'La Comer', 'fascia': 'La Comer', 'category': 'Retail', 'edit_date': '20250426', 'lat_lon_source': 'Website'}",20.54405,-100.430339,"{'opening_hours': {'Mon': '07:00-23:00', 'Tue': '07:00-23:00', 'Wed': '07:00-23:00', 'Thu': '07:00-23:00', 'Fri': '07:00-23:00', 'Sat': '07:00-23:00', 'Sun': '07:00-23:00'}}",01 800 3777 333,346,76900,LA COMER PUEBLO NUEVO QRO,QUERETARO,https://www.lacomer.com.mx/lacomer/#!/conocenos/
"AV JUAREZ PONIENTE , 140, CENTRO, SAN JUAN DEL RIO, QUERETARO",SAN JUAN DEL RIO,Mexico,La Comer,"{'brand': 'La Comer', 'fascia': 'La Comer', 'category': 'Retail', 'edit_date': '20250426', 'lat_lon_source': 'Website'}",20.385048,-100.010024,"{'opening_hours': {'Mon': '07:00-22:00', 'Tue': '07:00-22:00', 'Wed': '07:00-22:00', 'Thu': '07:00-22:00', 'Fri': '07:00-22:00', 'Sat': '07:00-22:00', 'Sun': '07:00-22:00'}}",01 800 3777 333,134,76800,LA COMER SAN JUAN DEL RIO,QUERETARO,https://www.lacomer.com.mx/lacomer/#!/conocenos/
"CARRETERA A CELAYA , 2, FRACC LA LEJONA 2DA SECCION , SAN MIGUEL DE ALLENDE, GUANAJUATO",SAN MIGUEL DE ALLENDE,Mexico,La Comer,"{'brand': 'La Comer', 'fascia': 'La Comer', 'category': 'Retail', 'edit_date': '20250426', 'lat_lon_source': 'Website'}",20.8981,-100.752634,"{'opening_hours': {'Mon': '07:00-22:00', 'Tue': '07:00-22:00', 'Wed': '07:00-22:00', 'Thu': '07:00-22:00', 'Fri': '07:00-22:00', 'Sat': '07:00-22:00', 'Sun': '07:00-22:00'}}",01 800 3777 333,317,37765,LA COMER SAN MIGUEL DE ALLENDE,GUANAJUATO,https://www.lacomer.com.mx/lacomer/#!/conocenos/
"NOGAL , 212, SANTA MARIA LA RIBERA, CUAUHTEMOC, CIUDAD DE MÉXICO",MEXICO,Mexico,La Comer,"{'brand': 'La Comer', 'fascia': 'La Comer', 'category': 'Retail', 'edit_date': '20250426', 'lat_lon_source': 'Website'}",19.451717,-99.164089,"{'opening_hours': {'Mon': '07:00-22:00', 'Tue': '07:00-22:00', 'Wed': '07:00-22:00', 'Thu': '07:00-22:00', 'Fri': '07:00-22:00', 'Sat': '07:00-22:00', 'Sun': '07:00-22:00'}}",01 800 3777 333,112,6400,LA COMER SANTA MARÍA LA RIBERA,CIUDAD DE MÉXICO,https://www.lacomer.com.mx/lacomer/#!/conocenos/
"AV. TECNOLÓGICO, 1448 NORTE, SAN SALVADOR TIZATLANI, METEPEC, MEXICO",MEXICO,Mexico,La Comer,"{'brand': 'La Comer', 'fascia': 'La Comer', 'category': 'Retail', 'edit_date': '20250426', 'lat_lon_source': 'Website'}",19.272554,-99.574575,"{'opening_hours': {'Mon': '07:00-22:00', 'Tue': '07:00-22:00', 'Wed': '07:00-22:00', 'Thu': '07:00-22:00', 'Fri': '07:00-22:00', 'Sat': '07:00-22:00', 'Sun': '07:00-22:00'}}",,432,52172,LA COMER TECNOLÓGICO TOLUCA,MEXICO,https://www.lacomer.com.mx/lacomer/#!/conocenos/
"PLAZUELA DE LA FAMA , 1, LA FAMA, TLALPAN, CIUDAD DE MEXICO",MEXICO,Mexico,La Comer,"{'brand': 'La Comer', 'fascia': 'La Comer', 'category': 'Retail', 'edit_date': '20250426', 'lat_lon_source': 'Website'}",19.288725,-99.17926,"{'opening_hours': {'Mon': '07:00-22:00', 'Tue': '07:00-22:00', 'Wed': '07:00-22:00', 'Thu': '07:00-22:00', 'Fri': '07:00-22:00', 'Sat': '07:00-22:00', 'Sun': '07:00-22:00'}}",01 800 3777 333,17,14410,LA COMER TLALPAN,CIUDAD DE MEXICO,https://www.lacomer.com.mx/lacomer/#!/conocenos/
"BLVD MANUEL AVILA CAMACHO , 3228, BOULEVARES, NAUCALPAN DE JUAREZ, ESTADO DE MEXICO",NAUCALPAN,Mexico,La Comer,"{'brand': 'La Comer', 'fascia': 'La Comer', 'category': 'Retail', 'edit_date': '20250426', 'lat_lon_source': 'Website'}",19.49807,-99.237735,"{'opening_hours': {'Mon': '07:00-22:00', 'Tue': '07:00-22:00', 'Wed': '07:00-22:00', 'Thu': '07:00-22:00', 'Fri': '07:00-22:00', 'Sat': '07:00-22:00', 'Sun': '07:00-22:00'}}",01 800 3777 333,289,53100,LA COMER TORRES DE SATÉLITE,ESTADO DE MEXICO,https://www.lacomer.com.mx/lacomer/#!/conocenos/
"AV PRADOS Y PRADERAS  S/N,  , SAN PABLO DE LAS SALINAS, TULTITLAN, ESTADO DE MEXICO",TULTITLAN,Mexico,La Comer,"{'brand': 'La Comer', 'fascia': 'La Comer', 'category': 'Retail', 'edit_date': '20250426', 'lat_lon_source': 'Website'}",19.666513,-99.080458,"{'opening_hours': {'Mon': '07:00-22:30', 'Tue': '07:00-22:30', 'Wed': '07:00-22:30', 'Thu': '07:00-22:30', 'Fri': '07:00-22:30', 'Sat': '07:00-22:30', 'Sun': '07:00-22:30'}}",01 800 3777 333,127,54930,LA COMER TULTITLAN,ESTADO DE MEXICO,https://www.lacomer.com.mx/lacomer/#!/conocenos/
"PASEO LAZARO CARDENAS , 1800, LOS ANGELES, URUAPAN, MICHOACAN",URUAPAN,Mexico,La Comer,"{'brand': 'La Comer', 'fascia': 'La Comer', 'category': 'Retail', 'edit_date': '20250426', 'lat_lon_source': 'Website'}",19.401081,-102.05462,"{'opening_hours': {'Mon': '07:00-22:00', 'Tue': '07:00-22:00', 'Wed': '07:00-22:00', 'Thu': '07:00-22:00', 'Fri': '07:00-22:00', 'Sat': '07:00-22:00', 'Sun': '07:00-22:00'}}",01 800 3777 333,34,60160,LA COMER URUAPAN,MICHOACAN,https://www.lacomer.com.mx/lacomer/#!/conocenos/
"AV. FRANCISCO VILLA, 1285, FLUVIAL, NDF, JALISCO",PUERTO VALLARTA,Mexico,La Comer,"{'brand': 'La Comer', 'fascia': 'La Comer', 'category': 'Retail', 'edit_date': '20250426', 'lat_lon_source': 'Website'}",20.640322,-105.222017,"{'opening_hours': {'Mon': '07:00-22:00', 'Tue': '07:00-22:00', 'Wed': '07:00-22:00', 'Thu': '07:00-22:00', 'Fri': '07:00-22:00', 'Sat': '07:00-22:00', 'Sun': '07:00-22:00'}}",01 800 3777 333,415,48312,LA COMER VALLARTA FLUVIAL,JALISCO,https://www.lacomer.com.mx/lacomer/#!/conocenos/
"ATENAS , 6, FRACC. VALLE DORADO, TLALNEPANTLA, ESTADO DE MEXICO",TLALNEPANTLA,Mexico,La Comer,"{'brand': 'La Comer', 'fascia': 'La Comer', 'category': 'Retail', 'edit_date': '20250426', 'lat_lon_source': 'Website'}",19.551419,-99.209783,"{'opening_hours': {'Mon': '07:00-22:00', 'Tue': '07:00-22:00', 'Wed': '07:00-22:00', 'Thu': '07:00-22:00', 'Fri': '07:00-22:00', 'Sat': '07:00-22:00', 'Sun': '07:00-22:00'}}",01 800 3777 333,12,54020,LA COMER VALLE DORADO,ESTADO DE MEXICO,https://www.lacomer.com.mx/lacomer/#!/conocenos/
"CALZ DEL HUESO , 530, FRACC. LOS GIRASOLES, COYOACAN, CIUDAD DE MÉXICO",MEXICO,Mexico,La Comer,"{'brand': 'La Comer', 'fascia': 'La Comer', 'category': 'Retail', 'edit_date': '20250426', 'lat_lon_source': 'Website'}",19.305362,-99.126098,"{'opening_hours': {'Mon': '07:00-22:00', 'Tue': '07:00-22:00', 'Wed': '07:00-22:00', 'Thu': '07:00-22:00', 'Fri': '07:00-22:00', 'Sat': '07:00-22:00', 'Sun': '07:00-22:00'}}",01 800 3777 333,55,4929,LA COMER VILLA COAPA,CIUDAD DE MÉXICO,https://www.lacomer.com.mx/lacomer/#!/conocenos/
"CALZ ZARAGOZA , 150, CENTRO, QUERETARO, QUERETARO",QUERETARO,Mexico,La Comer,"{'brand': 'La Comer', 'fascia': 'La Comer', 'category': 'Retail', 'edit_date': '20250426', 'lat_lon_source': 'Website'}",20.585475,-100.400475,"{'opening_hours': {'Mon': '07:00-22:00', 'Tue': '07:00-22:00', 'Wed': '07:00-22:00', 'Thu': '07:00-22:00', 'Fri': '07:00-22:00', 'Sat': '07:00-22:00', 'Sun': '07:00-22:00'}}",01 800 3777 333,6,76000,LA COMER ZARAGOZA QRO,QUERETARO,https://www.lacomer.com.mx/lacomer/#!/conocenos/
"AV. PROLONGACION CORREGIDORA, 487, ALAMOS 2DA SECCION, QUERETARO, QUERETARO",QUERETARO,Mexico,La Comer,"{'brand': 'La Comer', 'fascia': 'La Comer', 'category': 'Retail', 'edit_date': '20250426', 'lat_lon_source': 'Website'}",20.607902,-100.38686,"{'opening_hours': {'Mon': '07:30-22:00', 'Tue': '07:30-22:00', 'Wed': '07:30-22:00', 'Thu': '07:30-22:00', 'Fri': '07:30-22:00', 'Sat': '07:30-22:00', 'Sun': '07:30-22:00'}}",01 800 3777 333,453,76160,LA COMER ÁLAMOS PARQUE QRO,QUERETARO,https://www.lacomer.com.mx/lacomer/#!/conocenos/
"CARR QRO SAN LUIS POTOSI, 12401, EJIDO SALITRE, FELIX OSORES, QUERETARO",MEXICO,Mexico,City Market,"{'brand': 'City Market', 'fascia': 'City Market', 'category': 'Retail', 'edit_date': '20250426', 'lat_lon_source': 'Website'}",20.674638,-100.438557,"{'opening_hours': {'Mon': '07:30-22:00', 'Tue': '07:30-22:00', 'Wed': '07:30-22:00', 'Thu': '07:30-22:00', 'Fri': '07:30-22:00', 'Sat': '07:30-22:00', 'Sun': '07:30-22:00'}}",01 800 3777 333,408,73215,CITY MARKET ANTEA QRO,QUERETARO,https://www.lacomer.com.mx/lacomer/#!/conocenos/
"BLVD MAGNOCENTRO 26 MANZANA 1 LOTE 2 ,  , SAN FERNANDO LA HERRADURA, HUIXQUILUCAN, ESTADO DE MEXICO",HUIXQUILUCAN,Mexico,City Market,"{'brand': 'City Market', 'fascia': 'City Market', 'category': 'Retail', 'edit_date': '20250426', 'lat_lon_source': 'Website'}",19.407041,-99.272236,"{'opening_hours': {'Mon': '07:30-22:00', 'Tue': '07:30-22:00', 'Wed': '07:30-22:00', 'Thu': '07:30-22:00', 'Fri': '07:30-22:00', 'Sat': '07:30-22:00', 'Sun': '07:30-22:00'}}",01 800 3777 333,305,52765,CITY MARKET INTERLOMAS,ESTADO DE MEXICO,https://www.lacomer.com.mx/lacomer/#!/conocenos/
"MONTE ATHOS, 340, LOMAS DE CHAPULTEPEC, MIGUEL HIDALGO, CIUDAD DE MÉXICO",MEXICO,Mexico,City Market,"{'brand': 'City Market', 'fascia': 'City Market', 'category': 'Retail', 'edit_date': '20250426', 'lat_lon_source': 'Website'}",19.41884,-99.214826,"{'opening_hours': {'Mon': '07:30-22:00', 'Tue': '07:30-22:00', 'Wed': '07:30-22:00', 'Thu': '07:30-22:00', 'Fri': '07:30-22:00', 'Sat': '07:30-22:00', 'Sun': '07:30-22:00'}}",01 800 3777 333,377,11000,CITY MARKET LOMAS CHAPULTEPEC,CIUDAD DE MÉXICO,https://www.lacomer.com.mx/lacomer/#!/conocenos/
"AV. LÓPEZ MATEOS SUR, 2121, RINCONADA DEL SOL, ZAPOPAN , JALISCO",ZAPOPAN,Mexico,City Market,"{'brand': 'City Market', 'fascia': 'City Market', 'category': 'Retail', 'edit_date': '20250426', 'lat_lon_source': 'Website'}",20.656374,-103.399141,"{'opening_hours': {'Mon': '07:00-22:00', 'Tue': '07:00-22:00', 'Wed': '07:00-22:00', 'Thu': '07:00-22:00', 'Fri': '07:00-22:00', 'Sat': '07:00-22:00', 'Sun': '07:00-22:00'}}",01 800 3777 333,454,45055,CITY MARKET LÓPEZ MATEOS GDL,JALISCO,https://www.lacomer.com.mx/lacomer/#!/conocenos/
"LEONA VICARIO, 22, LA ASUNCION, METEPEC, ESTADO DE MEXICO",MEXICO,Mexico,City Market,"{'brand': 'City Market', 'fascia': 'City Market', 'category': 'Retail', 'edit_date': '20250426', 'lat_lon_source': 'Website'}",19.261552,-99.619554,"{'opening_hours': {'Mon': '07:30-22:00', 'Tue': '07:30-22:00', 'Wed': '07:30-22:00', 'Thu': '07:30-22:00', 'Fri': '07:30-22:00', 'Sat': '07:30-22:00', 'Sun': '07:30-22:00'}}",,417,52140,CITY MARKET METEPEC,ESTADO DE MEXICO,https://www.lacomer.com.mx/lacomer/#!/conocenos/
"AV.GOÓMEZ MORÍN SUR, 265, VALLE DEL CAMPESTRE, SAN PEDRO GARZA GARCIA , NUEVO LEÓN",MEXICO,Mexico,City Market,"{'brand': 'City Market', 'fascia': 'City Market', 'category': 'Retail', 'edit_date': '20250426', 'lat_lon_source': 'Website'}",25.654502,-100.358032,"{'opening_hours': {'Mon': '07:30-22:00', 'Tue': '07:30-22:00', 'Wed': '07:30-22:00', 'Thu': '07:30-22:00', 'Fri': '07:30-22:00', 'Sat': '07:30-22:00', 'Sun': '07:30-22:00'}}",,419,66265,CITY MARKET MONTERREY,NUEVO LEÓN,https://www.lacomer.com.mx/lacomer/#!/conocenos/
"AV. PATRIA, S/N, JACARANDAS, NDF, JALISCO",ZAPOPAN,Mexico,City Market,"{'brand': 'City Market', 'fascia': 'City Market', 'category': 'Retail', 'edit_date': '20250426', 'lat_lon_source': 'Website'}",20.712805,-103.378283,"{'opening_hours': {'Mon': '07:30-22:00', 'Tue': '07:30-22:00', 'Wed': '07:30-22:00', 'Thu': '07:30-22:00', 'Fri': '07:30-22:00', 'Sat': '07:30-22:00', 'Sun': '07:30-22:00'}}",01 800 3777 333,409,45160,CITY MARKET PATRIA GDL,JALISCO,https://www.lacomer.com.mx/lacomer/#!/conocenos/
"AV COYOACAN , 1061, DEL VALLE, BENITO JUAREZ, CIUDAD DE MÉXICO",MEXICO,Mexico,City Market,"{'brand': 'City Market', 'fascia': 'City Market', 'category': 'Retail', 'edit_date': '20250426', 'lat_lon_source': 'Website'}",19.378811,-99.169386,"{'opening_hours': {'Mon': '07:30-22:00', 'Tue': '07:30-22:00', 'Wed': '07:30-22:00', 'Thu': '07:30-22:00', 'Fri': '07:30-22:00', 'Sat': '07:30-22:00', 'Sun': '07:30-22:00'}}",01 800 3777 333,363,3100,CITY MARKET PILARES,CIUDAD DE MÉXICO,https://www.lacomer.com.mx/lacomer/#!/conocenos/
"LAGO ZURICH, 245, AMPLIACION GRANADA, MIGUEL HIDALGO, CIUDAD DE MÉXICO",MEXICO,Mexico,City Market,"{'brand': 'City Market', 'fascia': 'City Market', 'category': 'Retail', 'edit_date': '20250426', 'lat_lon_source': 'Website'}",19.443247,-99.203136,"{'opening_hours': {'Mon': '07:30-22:00', 'Tue': '07:30-22:00', 'Wed': '07:30-22:00', 'Thu': '07:30-22:00', 'Fri': '07:30-22:00', 'Sat': '07:30-22:00', 'Sun': '07:30-22:00'}}",01 800 3777 333,403,11528,CITY MARKET PLAZA CARSO,CIUDAD DE MÉXICO,https://www.lacomer.com.mx/lacomer/#!/conocenos/
"C. P.º DE LAS LILAS, 92, LOMAS DE BEZARES, MIGUEL HIDALGO, CIUDAD DE MÉXICO",MEXICO,Mexico,City Market,"{'brand': 'City Market', 'fascia': 'City Market', 'category': 'Retail', 'edit_date': '20250426', 'lat_lon_source': 'Website'}",19.387646,-99.247798,"{'opening_hours': {'Mon': '07:00-22:00', 'Tue': '07:00-22:00', 'Wed': '07:00-22:00', 'Thu': '07:00-22:00', 'Fri': '07:00-22:00', 'Sat': '07:00-22:00', 'Sun': '07:00-22:00'}}",01 800 3777 333,449,11910,CITY MARKET PLAZA LILAS,CIUDAD DE MÉXICO,https://www.lacomer.com.mx/lacomer/#!/conocenos/
"RÍO YAQUI, 28, VISTA HERMOSA, CUERNAVACA, MORELOS",MEXICO,Mexico,City Market,"{'brand': 'City Market', 'fascia': 'City Market', 'category': 'Retail', 'edit_date': '20250426', 'lat_lon_source': 'Website'}",18.933645,-99.21619,"{'opening_hours': {'Mon': '07:30-22:00', 'Tue': '07:30-22:00', 'Wed': '07:30-22:00', 'Thu': '07:30-22:00', 'Fri': '07:30-22:00', 'Sat': '07:30-22:00', 'Sun': '07:30-22:00'}}",01 800 3777 333,418,62290,CITY MARKET RIO MAYO CUERNAVACA,MORELOS,https://www.lacomer.com.mx/lacomer/#!/conocenos/
"AV SAN JERONIMO, 190, LA OTRA BANDA, COYOACAN, CIUDAD DE MÉXICO",MEXICO,Mexico,City Market,"{'brand': 'City Market', 'fascia': 'City Market', 'category': 'Retail', 'edit_date': '20250426', 'lat_lon_source': 'Website'}",19.333351,-99.199339,"{'opening_hours': {'Mon': '07:30-22:00', 'Tue': '07:30-22:00', 'Wed': '07:30-22:00', 'Thu': '07:30-22:00', 'Fri': '07:30-22:00', 'Sat': '07:30-22:00', 'Sun': '07:30-22:00'}}",01 800 3777 333,380,4510,CITY MARKET SAN JERÓNIMO,CIUDAD DE MÉXICO,https://www.lacomer.com.mx/lacomer/#!/conocenos/
"SALIDA A CELAYA, 82, LA LEJONA, SAN MIGUEL DE ALLENDE, GUANAJUATO",MEXICO,Mexico,City Market,"{'brand': 'City Market', 'fascia': 'City Market', 'category': 'Retail', 'edit_date': '20250426', 'lat_lon_source': 'Website'}",20.899157,-100.751354,"{'opening_hours': {'Mon': '07:30-22:00', 'Tue': '07:30-22:00', 'Wed': '07:30-22:00', 'Thu': '07:30-22:00', 'Fri': '07:30-22:00', 'Sat': '07:30-22:00', 'Sun': '07:30-22:00'}}",,428,37765,CITY MARKET SAN MIGUEL DE ALLENDE,GUANAJUATO,https://www.lacomer.com.mx/lacomer/#!/conocenos/
"AV SANTA FE, 20498, SANTA FE CUAJIMALPA, CUAJIMALPA, CIUDAD DE MÉXICO",MEXICO,Mexico,City Market,"{'brand': 'City Market', 'fascia': 'City Market', 'category': 'Retail', 'edit_date': '20250426', 'lat_lon_source': 'Website'}",19.35808,-99.272032,"{'opening_hours': {'Mon': '07:30-22:00', 'Tue': '07:30-22:00', 'Wed': '07:30-22:00', 'Thu': '07:30-22:00', 'Fri': '07:30-22:00', 'Sat': '07:30-22:00', 'Sun': '07:30-22:00'}}",01 800 3777 333,379,5348,CITY MARKET SANTA FE,CIUDAD DE MÉXICO,https://www.lacomer.com.mx/lacomer/#!/conocenos/
"CIRCUITO CENTRO COMERCIAL, 20 , CIUDAD SATELITE, NAUCALPAN DE JUAREZ, ESTADO DE MEXICO",NAUCALPAN,Mexico,City Market,"{'brand': 'City Market', 'fascia': 'City Market', 'category': 'Retail', 'edit_date': '20250426', 'lat_lon_source': 'Website'}",19.514153,-99.231426,"{'opening_hours': {'Mon': '07:00-22:00', 'Tue': '07:00-22:00', 'Wed': '07:00-22:00', 'Thu': '07:00-22:00', 'Fri': '07:00-22:00', 'Sat': '07:00-22:00', 'Sun': '07:00-22:00'}}",01 800 3777 333,455,53100,CITY MARKET SATÉLITE,ESTADO DE MEXICO,https://www.lacomer.com.mx/lacomer/#!/conocenos/
"VIA ATLIXCAYOTL, 4931, UNIDAD TERRITORAIL ATLIXCAYOTL XX, NDF, PUEBLA",PUEBLA,Mexico,City Market,"{'brand': 'City Market', 'fascia': 'City Market', 'category': 'Retail', 'edit_date': '20250426', 'lat_lon_source': 'Website'}",19.034268,-98.229516,"{'opening_hours': {'Mon': '07:00-22:00', 'Tue': '07:00-22:00', 'Wed': '07:00-22:00', 'Thu': '07:00-22:00', 'Fri': '07:00-22:00', 'Sat': '07:00-22:00', 'Sun': '07:00-22:00'}}",01 800 3777 333,414,72197,CITY MARKET SOLESTA PUEBLA,PUEBLA,https://www.lacomer.com.mx/lacomer/#!/conocenos/
"AV. DEL CARMEN, 335, FRACCIONAMIENTO  AVANDARO, VALLE DE BRAVO, ESTADO DE MEXICO",MEXICO,Mexico,Fresko,"{'brand': 'Fresko', 'fascia': 'Fresko', 'category': 'Retail', 'edit_date': '20250426', 'lat_lon_source': 'Website'}",19.164647,-100.125499,"{'opening_hours': {'Mon': '07:30-22:00', 'Tue': '07:30-22:00', 'Wed': '07:30-22:00', 'Thu': '07:30-22:00', 'Fri': '07:30-22:00', 'Sat': '07:30-22:00', 'Sun': '07:30-22:00'}}",,424,51200,FRESKO AVANDARO,ESTADO DE MEXICO,https://www.lacomer.com.mx/lacomer/#!/conocenos/
"AV. MIGUEL ANGEL DE QUEVEDO, 1144, PARQUE SAN ANDRES, COYOACAN, CIUDAD DE MEXICO",MEXICO,Mexico,Fresko,"{'brand': 'Fresko', 'fascia': 'Fresko', 'category': 'Retail', 'edit_date': '20250426', 'lat_lon_source': 'Website'}",19.342414,-99.146439,"{'opening_hours': {'Mon': '07:30-22:00', 'Tue': '07:30-22:00', 'Wed': '07:30-22:00', 'Thu': '07:30-22:00', 'Fri': '07:30-22:00', 'Sat': '07:30-22:00', 'Sun': '07:30-22:00'}}",,423,4040,FRESKO COYOACÁN,CIUDAD DE MEXICO,https://www.lacomer.com.mx/lacomer/#!/conocenos/
"AVENIDA PASEO DE LOS LEONES, 1261, CUMBRES MEDITERRÁNEO, MONTERREY, NUEVO LEON",MEXICO,Mexico,Fresko,"{'brand': 'Fresko', 'fascia': 'Fresko', 'category': 'Retail', 'edit_date': '20250426', 'lat_lon_source': 'Website'}",25.732042,-100.401708,"{'opening_hours': {'Mon': '07:30-22:00', 'Tue': '07:30-22:00', 'Wed': '07:30-22:00', 'Thu': '07:30-22:00', 'Fri': '07:30-22:00', 'Sat': '07:30-22:00', 'Sun': '07:30-22:00'}}",,438,64619,FRESKO CUMBRES MONTERREY,NUEVO LEON,https://www.lacomer.com.mx/lacomer/#!/conocenos/
"CARRETERA NACIONAL KM 268, 245, FRAC.CITY CENTER ESFERA, MONTERREY, NUEVO LEÓN",MEXICO,Mexico,Fresko,"{'brand': 'Fresko', 'fascia': 'Fresko', 'category': 'Retail', 'edit_date': '20250426', 'lat_lon_source': 'Website'}",25.57581,-100.244273,"{'opening_hours': {'Mon': '07:30-22:00', 'Tue': '07:30-22:00', 'Wed': '07:30-22:00', 'Thu': '07:30-22:00', 'Fri': '07:30-22:00', 'Sat': '07:30-22:00', 'Sun': '07:30-22:00'}}",,439,64984,FRESKO ESFERA MONTERREY,NUEVO LEÓN,https://www.lacomer.com.mx/lacomer/#!/conocenos/
"AV. JESUS DEL MONTE, 271, JESUS DEL MONTE, HUIXQUILUCAN, ESTADO DE MEXICO",HUIXQUILUCAN,Mexico,Fresko,"{'brand': 'Fresko', 'fascia': 'Fresko', 'category': 'Retail', 'edit_date': '20250426', 'lat_lon_source': 'Website'}",19.388773,-99.293377,"{'opening_hours': {'Mon': '07:00-22:00', 'Tue': '07:00-22:00', 'Wed': '07:00-22:00', 'Thu': '07:00-22:00', 'Fri': '07:00-22:00', 'Sat': '07:00-22:00', 'Sun': '07:00-22:00'}}",01 800 3777 333,402,52764,FRESKO JESUS DEL MONTE,ESTADO DE MEXICO,https://www.lacomer.com.mx/lacomer/#!/conocenos/
"BLVD. EQUESTRE, 1, RESIDENCIAL CALETTO, QUERETARO, QUERETARO",JURIQUILLA,Mexico,Fresko,"{'brand': 'Fresko', 'fascia': 'Fresko', 'category': 'Retail', 'edit_date': '20250426', 'lat_lon_source': 'Website'}",20.706098,-100.443934,"{'opening_hours': {'Mon': '07:00-22:00', 'Tue': '07:00-22:00', 'Wed': '07:00-22:00', 'Thu': '07:00-22:00', 'Fri': '07:00-22:00', 'Sat': '07:00-22:00', 'Sun': '07:00-22:00'}}",01 800 3777 333,401,50000,FRESKO JURIQUILLA,QUERETARO,https://www.lacomer.com.mx/lacomer/#!/conocenos/
"BOSQUES DE MOCTEZUMA 1B,  , FRACC. LA HERRADURA, HUIXQUILUCAN, ESTADO DE MEXICO",HUIXQUILUCAN,Mexico,Fresko,"{'brand': 'Fresko', 'fascia': 'Fresko', 'category': 'Retail', 'edit_date': '20250426', 'lat_lon_source': 'Website'}",19.416897,-99.248879,"{'opening_hours': {'Mon': '07:00-22:00', 'Tue': '07:00-22:00', 'Wed': '07:00-22:00', 'Thu': '07:00-22:00', 'Fri': '07:00-22:00', 'Sat': '07:00-22:00', 'Sun': '07:00-22:00'}}",,435,53920,FRESKO LA HERRADURA,ESTADO DE MEXICO,https://www.lacomer.com.mx/lacomer/#!/conocenos/
"AV. LOPEZ MATEOS SUR, 7000, FRACC.LA RIOJA, NDF, JALISCO",TLAJOMULCO,Mexico,Fresko,"{'brand': 'Fresko', 'fascia': 'Fresko', 'category': 'Retail', 'edit_date': '20250426', 'lat_lon_source': 'Website'}",20.5708,-103.45695,"{'opening_hours': {'Mon': '07:00-23:00', 'Tue': '07:00-23:00', 'Wed': '07:00-23:00', 'Thu': '07:00-23:00', 'Fri': '07:00-23:00', 'Sat': '07:00-23:00', 'Sun': '07:00-23:00'}}",01 800 3777 333,407,45645,FRESKO LA RIOJA GDL,JALISCO,https://www.lacomer.com.mx/lacomer/#!/conocenos/
"BLVD. ANTONIO ROCHA CORDERO, 392, VILLANTIGUA, SAN LUIS, SAN LUIS POTOSÍ",MEXICO,Mexico,Fresko,"{'brand': 'Fresko', 'fascia': 'Fresko', 'category': 'Retail', 'edit_date': '20250426', 'lat_lon_source': 'Website'}",22.130633,-101.022527,"{'opening_hours': {'Mon': '07:00-22:00', 'Tue': '07:00-22:00', 'Wed': '07:00-22:00', 'Thu': '07:00-22:00', 'Fri': '07:00-22:00', 'Sat': '07:00-22:00', 'Sun': '07:00-22:00'}}",01 800 3777 333,443,78214,FRESKO LOMAS SAN LUIS POTOSÍ,SAN LUIS POTOSÍ,https://www.lacomer.com.mx/lacomer/#!/conocenos/
"AV. ADOLFO LOPEZ MATEOS NORTE, 2405, ITALIA PROVIDENCIA, GUADALAJARA, JALISCO MEXICO",MEXICO,Mexico,Fresko,"{'brand': 'Fresko', 'fascia': 'Fresko', 'category': 'Retail', 'edit_date': '20250426', 'lat_lon_source': 'Website'}",20.69389,-103.375305,"{'opening_hours': {'Mon': '07:30-22:00', 'Tue': '07:30-22:00', 'Wed': '07:30-22:00', 'Thu': '07:30-22:00', 'Fri': '07:30-22:00', 'Sat': '07:30-22:00', 'Sun': '07:30-22:00'}}",,426,44648,FRESKO MIDTOWN GDL,JALISCO MEXICO,https://www.lacomer.com.mx/lacomer/#!/conocenos/
"CAMINO REAL A CARRETAS, 386, MILENIO III, QUERETARO",QUERETARO,Mexico,Fresko,"{'brand': 'Fresko', 'fascia': 'Fresko', 'category': 'Retail', 'edit_date': '20250426', 'lat_lon_source': 'Website'}",20.595373,-100.348432,"{'opening_hours': {'Mon': '07:30-22:00', 'Tue': '07:30-22:00', 'Wed': '07:30-22:00', 'Thu': '07:30-22:00', 'Fri': '07:30-22:00', 'Sat': '07:30-22:00', 'Sun': '07:30-22:00'}}",,425,76060,FRESKO MILENIO QRO,QUERETARO,https://www.lacomer.com.mx/lacomer/#!/conocenos/
"PROLONGACION BOSQUES DE REFORMA , 1813, VISTA HERMOSA, CUAJIMALPA, CIUDAD DE MÉXICO",MEXICO,Mexico,Fresko,"{'brand': 'Fresko', 'fascia': 'Fresko', 'category': 'Retail', 'edit_date': '20250426', 'lat_lon_source': 'Website'}",19.38288,-99.267815,"{'opening_hours': {'Mon': '07:00-22:00', 'Tue': '07:00-22:00', 'Wed': '07:00-22:00', 'Thu': '07:00-22:00', 'Fri': '07:00-22:00', 'Sat': '07:00-22:00', 'Sun': '07:00-22:00'}}",01 800 3777 333,137,5109,FRESKO PABELLÓN BOSQUES,CIUDAD DE MÉXICO,https://www.lacomer.com.mx/lacomer/#!/conocenos/
"CARRETERA KM 24.5, FRACCC C-1, SAN JOSE DEL CABO, SAN JOSE DEL CABO, BAJA CALIFORNIA SUR",MEXICO,Mexico,Fresko,"{'brand': 'Fresko', 'fascia': 'Fresko', 'category': 'Retail', 'edit_date': '20250426', 'lat_lon_source': 'Website'}",23.005843,-109.73166,"{'opening_hours': {'Mon': '07:00-22:00', 'Tue': '07:00-22:00', 'Wed': '07:00-22:00', 'Thu': '07:00-22:00', 'Fri': '07:00-22:00', 'Sat': '07:00-22:00', 'Sun': '07:00-22:00'}}",01 800 3777 333,421,23405,FRESKO PALMILLA,BAJA CALIFORNIA SUR,https://www.lacomer.com.mx/lacomer/#!/conocenos/
"RIO BALSAS, 2 A, LOMAS DE LA SELVA, NDF, MORELOS",CUERNAVACA,Mexico,Fresko,"{'brand': 'Fresko', 'fascia': 'Fresko', 'category': 'Retail', 'edit_date': '20250426', 'lat_lon_source': 'Website'}",18.933207,-99.230886,"{'opening_hours': {'Mon': '07:00-22:00', 'Tue': '07:00-22:00', 'Wed': '07:00-22:00', 'Thu': '07:00-22:00', 'Fri': '07:00-22:00', 'Sat': '07:00-22:00', 'Sun': '07:00-22:00'}}",01 800 3777 333,412,62270,FRESKO PLAZA CUERNAVACA,MORELOS,https://www.lacomer.com.mx/lacomer/#!/conocenos/
"JUAN ALONSO DE TORRES, 2002, VALLE DEL CAMPESTRE, EL DESAGUE, GUANAJUATO",LEON,Mexico,Fresko,"{'brand': 'Fresko', 'fascia': 'Fresko', 'category': 'Retail', 'edit_date': '20250426', 'lat_lon_source': 'Website'}",21.155436,-101.698531,"{'opening_hours': {'Mon': '07:00-22:00', 'Tue': '07:00-22:00', 'Wed': '07:00-22:00', 'Thu': '07:00-22:00', 'Fri': '07:00-22:00', 'Sat': '07:00-22:00', 'Sun': '07:00-22:00'}}",01 800 3777 333,404,37150,FRESKO PLAZA MAYOR LEÓN,GUANAJUATO,https://www.lacomer.com.mx/lacomer/#!/conocenos/
"AV RAFAEL SANZIO, 5506, ARCOS DE GUADALUPE, NDF, JALISCO",ZAPOPAN,Mexico,Fresko,"{'brand': 'Fresko', 'fascia': 'Fresko', 'category': 'Retail', 'edit_date': '20250426', 'lat_lon_source': 'Website'}",20.664143,-103.431973,"{'opening_hours': {'Mon': '07:00-23:00', 'Tue': '07:00-23:00', 'Wed': '07:00-23:00', 'Thu': '07:00-23:00', 'Fri': '07:00-23:00', 'Sat': '07:00-23:00', 'Sun': '07:00-23:00'}}",01 800 3777 333,411,45037,FRESKO RAFAEL SANZIO ZAPOPAN,JALISCO,https://www.lacomer.com.mx/lacomer/#!/conocenos/
"CARRETERA TRANSPENINSULAR BENITO JUAREZ KM 6.5, LOTE 2, FRACCIONAMIENTO CABO BELLO, LOS CABOS, BAJA CALIFORNIA SUR",MEXICO,Mexico,Fresko,"{'brand': 'Fresko', 'fascia': 'Fresko', 'category': 'Retail', 'edit_date': '20250426', 'lat_lon_source': 'Website'}",22.90722,-109.868763,"{'opening_hours': {'Mon': '07:30-22:00', 'Tue': '07:30-22:00', 'Wed': '07:30-22:00', 'Thu': '07:30-22:00', 'Fri': '07:30-22:00', 'Sat': '07:30-22:00', 'Sun': '07:30-22:00'}}",,427,23410,FRESKO SAN LUCAS,BAJA CALIFORNIA SUR,https://www.lacomer.com.mx/lacomer/#!/conocenos/
"AV. IGNACIO L. VALLARTA, 3090, VALLARTA NORTE, NDF, JALISCO",GUADALAJARA,Mexico,Fresko,"{'brand': 'Fresko', 'fascia': 'Fresko', 'category': 'Retail', 'edit_date': '20250426', 'lat_lon_source': 'Website'}",20.674587,-103.394926,"{'opening_hours': {'Mon': '08:00-23:00', 'Tue': '08:00-23:00', 'Wed': '08:00-23:00', 'Thu': '08:00-23:00', 'Fri': '08:00-23:00', 'Sat': '08:00-23:00', 'Sun': '08:00-23:00'}}",01 800 3777 333,406,44690,FRESKO SANIA GDL,JALISCO,https://www.lacomer.com.mx/lacomer/#!/conocenos/
"CIRCUITO MEDICOS , 35, CIUDAD SATELITE, NAUCALPAN DE JUAREZ, ESTADO DE MEXICO",NAUCALPAN,Mexico,Fresko,"{'brand': 'Fresko', 'fascia': 'Fresko', 'category': 'Retail', 'edit_date': '20250426', 'lat_lon_source': 'Website'}",19.509476,-99.232939,"{'opening_hours': {'Mon': '07:00-22:00', 'Tue': '07:00-22:00', 'Wed': '07:00-22:00', 'Thu': '07:00-22:00', 'Fri': '07:00-22:00', 'Sat': '07:00-22:00', 'Sun': '07:00-22:00'}}",01 800 3777 333,446,53100,FRESKO SATÉLITE,ESTADO DE MEXICO,https://www.lacomer.com.mx/lacomer/#!/conocenos/
"AV DE LAS FUENTES , 190, LOMAS DE TECAMACHALCO, NAUCALPAN DE JUAREZ, ESTADO DE MEXICO",NAUCALPAN ,Mexico,Fresko,"{'brand': 'Fresko', 'fascia': 'Fresko', 'category': 'Retail', 'edit_date': '20250426', 'lat_lon_source': 'Website'}",19.421526,-99.238166,"{'opening_hours': {'Mon': '07:00-22:00', 'Tue': '07:00-22:00', 'Wed': '07:00-22:00', 'Thu': '07:00-22:00', 'Fri': '07:00-22:00', 'Sat': '07:00-22:00', 'Sun': '07:00-22:00'}}",01 800 3777 333,376,53950,FRESKO TECAMACHALCO,ESTADO DE MEXICO,https://www.lacomer.com.mx/lacomer/#!/conocenos/
"CIRCUITO CIRCUNVALACION PONIENTE , 146, CIUDAD SATELITE, NAUCALPAN DE JUAREZ, ESTADO DE MEXICO",ZONA AZUL ,Mexico,Fresko,"{'brand': 'Fresko', 'fascia': 'Fresko', 'category': 'Retail', 'edit_date': '20250426', 'lat_lon_source': 'Website'}",19.504101,-99.24971,"{'opening_hours': {'Mon': '07:00-22:00', 'Tue': '07:00-22:00', 'Wed': '07:00-22:00', 'Thu': '07:00-22:00', 'Fri': '07:00-22:00', 'Sat': '07:00-22:00', 'Sun': '07:00-22:00'}}",01 800 3777 333,76,53100,FRESKO VALLARTA CD SATELITE,ESTADO DE MEXICO,https://www.lacomer.com.mx/lacomer/#!/conocenos/
"AV. AVIACIÓN, 4120, SAN JUAN DE OCOTAN, ZAPOPAN, JALISCO",ZAPOPAN,Mexico,Fresko,"{'brand': 'Fresko', 'fascia': 'Fresko', 'category': 'Retail', 'edit_date': '20250426', 'lat_lon_source': 'Website'}",20.727449,-103.452348,"{'opening_hours': {'Mon': '07:00-22:00', 'Tue': '07:00-22:00', 'Wed': '07:00-22:00', 'Thu': '07:00-22:00', 'Fri': '07:00-22:00', 'Sat': '07:00-22:00', 'Sun': '07:00-22:00'}}",01 800 3777 333,451,45010,FRESKO VALLE REAL GDL,JALISCO,https://www.lacomer.com.mx/lacomer/#!/conocenos/
"CALZ DE LOS JINETES , 155, FRACC. LAS ARBOLEDAS, ATIZAPAN DE ZARAGOZA, ESTADO DE MEXICO",ATIZAPAN DE ZARAGOZA,Mexico,Sumesa,"{'brand': 'Sumesa', 'fascia': 'Sumesa', 'category': 'Retail', 'edit_date': '20250426', 'lat_lon_source': 'Website'}",19.559477,-99.219568,"{'opening_hours': {'Mon': '07:00-23:00', 'Tue': '07:00-23:00', 'Wed': '07:00-23:00', 'Thu': '07:00-23:00', 'Fri': '07:00-23:00', 'Sat': '07:00-23:00', 'Sun': '07:00-23:00'}}",01 800 3777 333,239,52950,SUMESA ARBOLEDAS,ESTADO DE MEXICO,https://www.lacomer.com.mx/lacomer/#!/conocenos/
"BAJIO Y TLACOTALPAN , 266, ROMA SUR, CUAUHTEMOC, CIUDAD DE MÉXICO",MEXICO,Mexico,Sumesa,"{'brand': 'Sumesa', 'fascia': 'Sumesa', 'category': 'Retail', 'edit_date': '20250426', 'lat_lon_source': 'Website'}",19.403752,-99.16565,"{'opening_hours': {'Mon': '07:00-22:00', 'Tue': '07:00-22:00', 'Wed': '07:00-22:00', 'Thu': '07:00-22:00', 'Fri': '07:00-22:00', 'Sat': '07:00-22:00', 'Sun': '07:00-22:00'}}",01 800 3777 333,227,6760,SUMESA BAJÍO,CIUDAD DE MÉXICO,https://www.lacomer.com.mx/lacomer/#!/conocenos/
"CENTENARIO , 227, DEL CARMEN, COYOACAN, CIUDAD DE MÉXICO",MEXICO,Mexico,Sumesa,"{'brand': 'Sumesa', 'fascia': 'Sumesa', 'category': 'Retail', 'edit_date': '20250426', 'lat_lon_source': 'Website'}",19.357682,-99.163059,"{'opening_hours': {'Mon': '07:00-23:00', 'Tue': '07:00-23:00', 'Wed': '07:00-23:00', 'Thu': '07:00-23:00', 'Fri': '07:00-23:00', 'Sat': '07:00-23:00', 'Sun': '07:00-23:00'}}",01 800 3777 333,237,4100,SUMESA CENTENARIO,CIUDAD DE MÉXICO,https://www.lacomer.com.mx/lacomer/#!/conocenos/
"COLIMA , 115, ROMA NORTE, CUAUHTEMOC, CIUDAD DE MÉXICO",MEXICO,Mexico,Sumesa,"{'brand': 'Sumesa', 'fascia': 'Sumesa', 'category': 'Retail', 'edit_date': '20250426', 'lat_lon_source': 'Website'}",19.420833,-99.158231,"{'opening_hours': {'Mon': '07:00-22:00', 'Tue': '07:00-22:00', 'Wed': '07:00-22:00', 'Thu': '07:00-22:00', 'Fri': '07:00-22:00', 'Sat': '07:00-22:00', 'Sun': '07:00-22:00'}}",01 800 3777 333,230,6700,SUMESA COLIMA,CIUDAD DE MÉXICO,https://www.lacomer.com.mx/lacomer/#!/conocenos/
"LONDRES Y BRUSELAS ,  , JUAREZ, CUAUHTEMOC, CIUDAD DE MÉXICO",MEXICO,Mexico,Sumesa,"{'brand': 'Sumesa', 'fascia': 'Sumesa', 'category': 'Retail', 'edit_date': '20250426', 'lat_lon_source': 'Website'}",19.428644,-99.156595,"{'opening_hours': {'Mon': '07:00-22:00', 'Tue': '07:00-22:00', 'Wed': '07:00-22:00', 'Thu': '07:00-22:00', 'Fri': '07:00-22:00', 'Sat': '07:00-22:00', 'Sun': '07:00-22:00'}}",01 800 3777 333,232,6600,SUMESA LONDRES,CIUDAD DE MÉXICO,https://www.lacomer.com.mx/lacomer/#!/conocenos/
"PLUTARCO ELIAS CALLES , 1160, MARTE, IZTACALCO, CIUDAD DE MÉXICO",MEXICO,Mexico,Sumesa,"{'brand': 'Sumesa', 'fascia': 'Sumesa', 'category': 'Retail', 'edit_date': '20250426', 'lat_lon_source': 'Website'}",19.383371,-99.133624,"{'opening_hours': {'Mon': '07:00-22:00', 'Tue': '07:00-22:00', 'Wed': '07:00-22:00', 'Thu': '07:00-22:00', 'Fri': '07:00-22:00', 'Sat': '07:00-22:00', 'Sun': '07:00-22:00'}}",01 800 3777 333,252,8450,SUMESA MARTE,CIUDAD DE MÉXICO,https://www.lacomer.com.mx/lacomer/#!/conocenos/
"MIER Y PESADO , 319, DEL VALLE, BENITO JUAREZ, CIUDAD DE MÉXICO",MEXICO,Mexico,Sumesa,"{'brand': 'Sumesa', 'fascia': 'Sumesa', 'category': 'Retail', 'edit_date': '20250426', 'lat_lon_source': 'Website'}",19.393967,-99.165827,"{'opening_hours': {'Mon': '07:00-22:00', 'Tue': '07:00-22:00', 'Wed': '07:00-22:00', 'Thu': '07:00-22:00', 'Fri': '07:00-22:00', 'Sat': '07:00-22:00', 'Sun': '07:00-22:00'}}",01 800 3777 333,229,3100,SUMESA MIER Y PESADO,CIUDAD DE MÉXICO,https://www.lacomer.com.mx/lacomer/#!/conocenos/
"OAXACA Y ALVARO OBREGON , 120, ROMA NORTE, CUAUHTEMOC, CIUDAD DE MÉXICO",MEXICO,Mexico,Sumesa,"{'brand': 'Sumesa', 'fascia': 'Sumesa', 'category': 'Retail', 'edit_date': '20250426', 'lat_lon_source': 'Website'}",19.417135,-99.168714,"{'opening_hours': {'Mon': '07:00-23:00', 'Tue': '07:00-23:00', 'Wed': '07:00-23:00', 'Thu': '07:00-23:00', 'Fri': '07:00-23:00', 'Sat': '07:00-23:00', 'Sun': '07:00-23:00'}}",01 800 3777 333,233,6700,SUMESA OAXACA,CIUDAD DE MÉXICO,https://www.lacomer.com.mx/lacomer/#!/conocenos/
"AV SAN DIEGO , 326, FRACC. VISTA HERMOSA, CUERNAVACA, MORELOS",CUERNAVACA,Mexico,Sumesa,"{'brand': 'Sumesa', 'fascia': 'Sumesa', 'category': 'Retail', 'edit_date': '20250426', 'lat_lon_source': 'Website'}",18.940656,-99.216854,"{'opening_hours': {'Mon': '07:00-23:00', 'Tue': '07:00-23:00', 'Wed': '07:00-23:00', 'Thu': '07:00-23:00', 'Fri': '07:00-23:00', 'Sat': '07:00-23:00', 'Sun': '07:00-23:00'}}",01 800 3777 333,240,62290,SUMESA PLAZA SAN DIEGO,MORELOS,https://www.lacomer.com.mx/lacomer/#!/conocenos/
"VIRGILIO , 15, POLANCO , MIGUEL HIDALGO, CIUDAD DE MÉXICO",MEXICO,Mexico,Sumesa,"{'brand': 'Sumesa', 'fascia': 'Sumesa', 'category': 'Retail', 'edit_date': '20250426', 'lat_lon_source': 'Website'}",19.430886,-99.196597,"{'opening_hours': {'Mon': '07:00-22:00', 'Tue': '07:00-22:00', 'Wed': '07:00-22:00', 'Thu': '07:00-22:00', 'Fri': '07:00-22:00', 'Sat': '07:00-22:00', 'Sun': '07:00-22:00'}}",01 800 3777 333,231,11560,SUMESA POLANCO,CIUDAD DE MÉXICO,https://www.lacomer.com.mx/lacomer/#!/conocenos/
"CRACOVIA , 97, SAN ANGEL, ALVARO OBREGON, CIUDAD DE MÉXICO",MEXICO,Mexico,Sumesa,"{'brand': 'Sumesa', 'fascia': 'Sumesa', 'category': 'Retail', 'edit_date': '20250426', 'lat_lon_source': 'Website'}",19.348946,-99.187349,"{'opening_hours': {'Mon': '07:00-22:00', 'Tue': '07:00-22:00', 'Wed': '07:00-22:00', 'Thu': '07:00-22:00', 'Fri': '07:00-22:00', 'Sat': '07:00-22:00', 'Sun': '07:00-22:00'}}",01 800 3777 333,238,1000,SUMESA SAN ÁNGEL,CIUDAD DE MÉXICO,https://www.lacomer.com.mx/lacomer/#!/conocenos/
"PEDRO ROMERO DE TERREROS Y DIAGONAL SAN ANTONIO DEL VALLE , 1102, NARVARTE PONIENTE, BENITO JUAREZ, CIUDAD DE MÉXICO",MEXICO,Mexico,Sumesa,"{'brand': 'Sumesa', 'fascia': 'Sumesa', 'category': 'Retail', 'edit_date': '20250426', 'lat_lon_source': 'Website'}",19.394382,-99.159529,"{'opening_hours': {'Mon': '07:00-22:00', 'Tue': '07:00-22:00', 'Wed': '07:00-22:00', 'Thu': '07:00-22:00', 'Fri': '07:00-22:00', 'Sat': '07:00-22:00', 'Sun': '07:00-22:00'}}",01 800 3777 333,235,3020,SUMESA VALLE,CIUDAD DE MÉXICO,https://www.lacomer.com.mx/lacomer/#!/conocenos/
"YUCATAN Y CHIAPAS , 133, ROMA NORTE , CUAUHTEMOC, CIUDAD DE MÉXICO",MEXICO,Mexico,Sumesa,"{'brand': 'Sumesa', 'fascia': 'Sumesa', 'category': 'Retail', 'edit_date': '20250426', 'lat_lon_source': 'Website'}",19.412465,-99.160742,"{'opening_hours': {'Mon': '07:00-22:00', 'Tue': '07:00-22:00', 'Wed': '07:00-22:00', 'Thu': '07:00-22:00', 'Fri': '07:00-22:00', 'Sat': '07:00-22:00', 'Sun': '07:00-22:00'}}",01 800 3777 333,234,6700,SUMESA YUCATÁN,CIUDAD DE MÉXICO,https://www.lacomer.com.mx/lacomer/#!/conocenos/
