addr_full,brand,city,country,extras,lat,lon,name,opening_hours,phone,postcode,ref,state,website
"Barriada Santa Cruz, Ave. Belisario Porras, Centro Comercial Federal Mall, Local B-17",Farmacias Arrocha,,Panama,"{'brand': ' Farmacias Arrocha', 'fascia': 'Farmacias Arrocha', 'category': 'Other', 'edit_date': '20250413', 'lat_lon_source': 'Website'}",8.4561,-82.4257,Farmacia Arrocha Federal Mall,"{'opening_hours': {'Mon': '7:00-10:00', 'Tue': '7:00-10:00', 'Wed': '7:00-10:00', 'Thu': '7:00-10:00', 'Fri': '7:00-10:00', 'Sat': '7:00-10:00', 'Sun': '7:00-10:00'}}",,,"8.456100,-82.425700",,https://www.arrochaparati.com/es/tiendas-app/farmacia-arrocha-federal-mall
"Urb. Agencia del Area Economica, calle Panamá Pacìfico, EDIF. Torre Mosaic, local L11, L12 y L13",Farmacias Arrocha,,Panama,"{'brand': ' Farmacias Arrocha', 'fascia': 'Farmacias Arrocha', 'category': 'Other', 'edit_date': '20250413', 'lat_lon_source': 'Website'}",8.916971418,-79.591326,Farmacia Arrocha Panamá Pacífico,"{'opening_hours': {'Mon': '7:00-7:30', 'Tue': '7:00-7:30', 'Wed': '7:00-7:30', 'Thu': '7:00-7:30', 'Fri': '7:00-7:30', 'Sat': '7:00-7:30', 'Sun': '7:00-7:30'}}",,,"8.916971417589146,-79.59132600159793",,https://www.arrochaparati.com/es/tiendas-app/farmacia-arrocha-panama-pacifico
"Urb. San Mateo, Calle F Sur, Edificio PH F Sur 507, Local  11 Y 12",Farmacias Arrocha,,Panama,"{'brand': ' Farmacias Arrocha', 'fascia': 'Farmacias Arrocha', 'category': 'Other', 'edit_date': '20250413', 'lat_lon_source': 'Website'}",8.427391201,-82.43882023,Farmacia Arrocha Plaza F507,"{'opening_hours': {'Mon': '7:00-10:00', 'Tue': '7:00-10:00', 'Wed': '7:00-10:00', 'Thu': '7:00-10:00', 'Fri': '7:00-10:00', 'Sat': '7:00-10:00', 'Sun': '7:00-10:00'}}",,,"8.42739120102267,-82.4388202309885",,https://www.arrochaparati.com/es/tiendas-app/farmacia-arrocha-plaza-f507
"Centro Comercial Westland Mall Los Pueblos, carretera Panama -Arraijan,  Planta baja 5",Farmacias Arrocha,,Panama,"{'brand': ' Farmacias Arrocha', 'fascia': 'Farmacias Arrocha', 'category': 'Other', 'edit_date': '20250413', 'lat_lon_source': 'Website'}",8.922702931,-79.70320085,Farmacia Arrocha Westland Mall,"{'opening_hours': {'Mon': '7:00-10:00', 'Tue': '7:00-10:00', 'Wed': '7:00-10:00', 'Thu': '7:00-10:00', 'Fri': '7:00-10:00', 'Sat': '7:00-10:00', 'Sun': '7:00-10:00'}}",,,"8.922702930659181,-79.70320085421292",,https://www.arrochaparati.com/es/tiendas-app/farmacia-arrocha-westland-mall
"Centro Comercial El Terronal, calle Via Panamericana, local 26, planta baja",Farmacias Arrocha,,Panama,"{'brand': ' Farmacias Arrocha', 'fascia': 'Farmacias Arrocha', 'category': 'Other', 'edit_date': '20250413', 'lat_lon_source': 'Website'}",8.444702382,-82.4192511,Farmacia Arrocha Plaza Terronal ,"{'opening_hours': {'Mon': '7:00-10:00', 'Tue': '7:00-10:00', 'Wed': '7:00-10:00', 'Thu': '7:00-10:00', 'Fri': '7:00-10:00', 'Sat': '7:00-10:00', 'Sun': '7:00-10:00'}}",,,"8.444702381717235,-82.41925109888497",,https://www.arrochaparati.com/es/tiendas-app/farmacia-arrocha-plaza-terronal
"PH Terrazas de Coronado, Via Panamericana, Local Sub Ancla N1 Local 2 y3",Farmacias Arrocha,,Panama,"{'brand': ' Farmacias Arrocha', 'fascia': 'Farmacias Arrocha', 'category': 'Other', 'edit_date': '20250413', 'lat_lon_source': 'Website'}",8.551609,-79.90903,Farmacia Arrocha Terrazas de Coronado,"{'opening_hours': {'Mon': '7:00-10:00', 'Tue': '7:00-10:00', 'Wed': '7:00-10:00', 'Thu': '7:00-10:00', 'Fri': '7:00-10:00', 'Sat': '7:00-10:00', 'Sun': '7:00-10:00'}}",,,"8.551609,-79.909030",,https://www.arrochaparati.com/es/tiendas-app/farmacia-arrocha-terrazas-de-coronado
"Paseo Central Mall, calle Carretera Nacional, interseccion Calle F Monagrillo, Locales 12, 3, 24.",Farmacias Arrocha,,Panama,"{'brand': ' Farmacias Arrocha', 'fascia': 'Farmacias Arrocha', 'category': 'Other', 'edit_date': '20250413', 'lat_lon_source': 'Website'}",7.969651998,-80.44681642,Farmacia Arrocha Chitre,"{'opening_hours': {'Mon': '7:00-10:00', 'Tue': '7:00-10:00', 'Wed': '7:00-10:00', 'Thu': '7:00-10:00', 'Fri': '7:00-10:00', 'Sat': '7:00-10:00', 'Sun': '7:00-10:00'}}",,,"7.969651997628207,-80.44681641604274",,https://www.arrochaparati.com/es/tiendas-app/farmacia-arrocha-chitre
"Calle Principal, Edificio Centro Comercial Brisas del Golf Arraijan, Local 11",Farmacias Arrocha,,Panama,"{'brand': ' Farmacias Arrocha', 'fascia': 'Farmacias Arrocha', 'category': 'Other', 'edit_date': '20250413', 'lat_lon_source': 'Website'}",8.974059,-79.706883,Farmacia Arrocha Brisas del Golf Arraijan,"{'opening_hours': {'Mon': '7:00-10:00', 'Tue': '7:00-10:00', 'Wed': '7:00-10:00', 'Thu': '7:00-10:00', 'Fri': '7:00-10:00', 'Sat': '7:00-10:00', 'Sun': '7:00-10:00'}}",,,"8.974059,-79.706883",,https://www.arrochaparati.com/es/tiendas-app/farmacia-arrocha-brisas-del-golf-arraijan
"Barrio Sur, Avenida Roosevelt, calle 11 y 12, Edificio Centro Médico Caribe. Colón,Provincia de Colón Panamá.",Farmacias Arrocha,,Panama,"{'brand': ' Farmacias Arrocha', 'fascia': 'Farmacias Arrocha', 'category': 'Other', 'edit_date': '20250413', 'lat_lon_source': 'Website'}",9.357032098,-79.89451425,Farmacia Arrocha Centro Medico Colon,"{'opening_hours': {'Mon': '', 'Tue': '', 'Wed': '', 'Thu': '', 'Fri': '', 'Sat': '', 'Sun': ''}}",,,"9.357032098011615,-79.89451425205237",,https://www.arrochaparati.com/es/tiendas-app/farmacia-arrocha-centro-medico-colon
"Calle Intermericana, Edificio PH NOVOTRADE, local L39, 39A, 39B, 39C, 39D y 39E",Farmacias Arrocha,,Panama,"{'brand': ' Farmacias Arrocha', 'fascia': 'Farmacias Arrocha', 'category': 'Other', 'edit_date': '20250413', 'lat_lon_source': 'Website'}",8.374369194,-80.15474908,Farmacia Arrocha Mareas Mall,"{'opening_hours': {'Mon': '7:00-10:00', 'Tue': '7:00-10:00', 'Wed': '7:00-10:00', 'Thu': '7:00-10:00', 'Fri': '7:00-10:00', 'Sat': '7:00-10:00', 'Sun': '7:00-10:00'}}",,,"8.374369193948036,-80.15474907656467",,https://www.arrochaparati.com/es/tiendas-app/farmacia-arrocha-mareas-mall
Urb. Sabanitas Calle Ave. Simon Bolivar (Transistmica) PH Terrazas de Sabanitas Local 23,Farmacias Arrocha,,Panama,"{'brand': ' Farmacias Arrocha', 'fascia': 'Farmacias Arrocha', 'category': 'Other', 'edit_date': '20250413', 'lat_lon_source': 'Website'}",9.349897046,-79.81050351,Farmacia Arrocha Sabanitas,"{'opening_hours': {'Mon': '7:00-10:00', 'Tue': '7:00-10:00', 'Wed': '7:00-10:00', 'Thu': '7:00-10:00', 'Fri': '7:00-10:00', 'Sat': '7:00-10:00', 'Sun': '7:00-10:00'}}",,,"9.349897045548804,-79.81050351381482",,https://www.arrochaparati.com/es/tiendas-app/farmacia-arrocha-sabanitas
Ave. Central Apartamento N. 18-42,Farmacias Arrocha,,Panama,"{'brand': ' Farmacias Arrocha', 'fascia': 'Farmacias Arrocha', 'category': 'Other', 'edit_date': '20250413', 'lat_lon_source': 'Website'}",8.95913,-79.54114,Farmacia Arrocha Ave Central,"{'opening_hours': {'Mon': '7:00-5:00', 'Tue': '7:00-5:00', 'Wed': '7:00-5:00', 'Thu': '7:00-5:00', 'Fri': '7:00-5:00', 'Sat': '7:00-5:00', 'Sun': '7:00-5:00'}}",,,"8.95913,-79.54114",,https://www.arrochaparati.com/es/tiendas-app/farmacia-arrocha-ave-central
"Edif. Farmacia Arrocha, Calle Eric del Valle y Vía Argentina",Farmacias Arrocha,,Panama,"{'brand': ' Farmacias Arrocha', 'fascia': 'Farmacias Arrocha', 'category': 'Other', 'edit_date': '20250413', 'lat_lon_source': 'Website'}",8.988197,-79.528684,Farmacia Arrocha Via Argentina,"{'opening_hours': {'Mon': '7:00-9:30', 'Tue': '7:00-9:30', 'Wed': '7:00-9:30', 'Thu': '7:00-9:30', 'Fri': '7:00-9:30', 'Sat': '7:00-9:30', 'Sun': '7:00-9:30'}}",,,"8.988197,-79.528684",,https://www.arrochaparati.com/es/tiendas-app/farmacia-arrocha-via-argentina
"Urbanizacion Costa del Este, Ave. Centenario, Edificio Centro Comercial Costa Del Este, Local N?2",Farmacias Arrocha,,Panama,"{'brand': ' Farmacias Arrocha', 'fascia': 'Farmacias Arrocha', 'category': 'Other', 'edit_date': '20250413', 'lat_lon_source': 'Website'}",9.016957,-79.46291,Farmacia Arrocha Costa del Este,"{'opening_hours': {'Mon': '7:00-10:00', 'Tue': '7:00-10:00', 'Wed': '7:00-10:00', 'Thu': '7:00-10:00', 'Fri': '7:00-10:00', 'Sat': '7:00-10:00', 'Sun': '7:00-10:00'}}",,,"9.016957,-79.46291",,https://www.arrochaparati.com/es/tiendas-app/farmacia-arrocha-costa-del-este
"Urb. El Bosque, Via Ricardo J. Alfaro, P.H. Greenwood Plaza, Local 3,4,5,11,12 y 13",Farmacias Arrocha,,Panama,"{'brand': ' Farmacias Arrocha', 'fascia': 'Farmacias Arrocha', 'category': 'Other', 'edit_date': '20250413', 'lat_lon_source': 'Website'}",9.032706093,-79.51364162,Farmacia Arrocha El Bosque,"{'opening_hours': {'Mon': '7:00-9:30', 'Tue': '7:00-9:30', 'Wed': '7:00-9:30', 'Thu': '7:00-9:30', 'Fri': '7:00-9:30', 'Sat': '7:00-9:30', 'Sun': '7:00-9:30'}}",,,"9.032706092708409,-79.51364162000407",,https://www.arrochaparati.com/es/tiendas-app/farmacia-arrocha-el-bosque
"Calle Via Panamericana, Fase 2, Centro Comercial 2412, local # 2D y 2E",Farmacias Arrocha,,Panama,"{'brand': ' Farmacias Arrocha', 'fascia': 'Farmacias Arrocha', 'category': 'Other', 'edit_date': '20250413', 'lat_lon_source': 'Website'}",9.078965,-79.399416,Farmacia Arrocha Centro Comercial 2412,"{'opening_hours': {'Mon': '7:00-9:30', 'Tue': '7:00-9:30', 'Wed': '7:00-9:30', 'Thu': '7:00-9:30', 'Fri': '7:00-9:30', 'Sat': '7:00-9:30', 'Sun': '7:00-9:30'}}",,,"9.078965,-79.399416",,https://www.arrochaparati.com/es/tiendas-app/farmacia-arrocha-centro-comercial-2412
"Centro Comercial Boulevard Penonome, calle Interamericana, Local L-15",Farmacias Arrocha,,Panama,"{'brand': ' Farmacias Arrocha', 'fascia': 'Farmacias Arrocha', 'category': 'Other', 'edit_date': '20250413', 'lat_lon_source': 'Website'}",8.502703131,-80.3645353,Farmacia Arrocha Boulevard Penonome,"{'opening_hours': {'Mon': '7:00-10:00', 'Tue': '7:00-10:00', 'Wed': '7:00-10:00', 'Thu': '7:00-10:00', 'Fri': '7:00-10:00', 'Sat': '7:00-10:00', 'Sun': '7:00-10:00'}}",,,"8.502703130852403,-80.36453530367616",,https://www.arrochaparati.com/es/tiendas-app/farmacia-arrocha-boulevard-penonome
"Ancón, Canfield Residencial Albrook 11351 Plaza Albrook local 10,11. Panamá,Panamá Panamá",Farmacias Arrocha,,Panama,"{'brand': ' Farmacias Arrocha', 'fascia': 'Farmacias Arrocha', 'category': 'Other', 'edit_date': '20250413', 'lat_lon_source': 'Website'}",8.97507068,-79.55833137,Farmacia Arrocha Plaza Albrook,"{'opening_hours': {'Mon': '7:00-9:30', 'Tue': '7:00-9:30', 'Wed': '7:00-9:30', 'Thu': '7:00-9:30', 'Fri': '7:00-9:30', 'Sat': '7:00-9:30', 'Sun': '7:00-9:30'}}",,,"8.975070680153882,-79.55833136959909",,https://www.arrochaparati.com/es/tiendas-app/farmacia-arrocha-plaza-albrook
"Centro Comercial Boulevard , calle carretera Interamericana, Local 15.",Farmacias Arrocha,,Panama,"{'brand': ' Farmacias Arrocha', 'fascia': 'Farmacias Arrocha', 'category': 'Other', 'edit_date': '20250413', 'lat_lon_source': 'Website'}",8.106111,-80.969301,Farmacia Arrocha Santiago,"{'opening_hours': {'Mon': '7:00-10:00', 'Tue': '7:00-10:00', 'Wed': '7:00-10:00', 'Thu': '7:00-10:00', 'Fri': '7:00-10:00', 'Sat': '7:00-10:00', 'Sun': '7:00-10:00'}}",,,"8.106111,-80.969301",,https://www.arrochaparati.com/es/tiendas-app/farmacia-arrocha-santiago
"Avenida Santa Elena, calle Gil Blas Tejeiera, Plaza Comercial Santa Elena Strip, Loc. 6,7, 8PB, 14PA",Farmacias Arrocha,,Panama,"{'brand': ' Farmacias Arrocha', 'fascia': 'Farmacias Arrocha', 'category': 'Other', 'edit_date': '20250413', 'lat_lon_source': 'Website'}",8.998326951,-79.50325103,Farmacia Arrocha Santa Elena,"{'opening_hours': {'Mon': '7:00-10:00', 'Tue': '7:00-10:00', 'Wed': '7:00-10:00', 'Thu': '7:00-10:00', 'Fri': '7:00-10:00', 'Sat': '7:00-10:00', 'Sun': '7:00-10:00'}}",,,"8.998326951295173,-79.50325103321943",,https://www.arrochaparati.com/es/tiendas-app/farmacia-arrocha-santa-elena
"Urb. Villa Zaita Calle Carretera Transistmica, Edif. PH Plaza Zaita Local Ancla A",Farmacias Arrocha,,Panama,"{'brand': ' Farmacias Arrocha', 'fascia': 'Farmacias Arrocha', 'category': 'Other', 'edit_date': '20250413', 'lat_lon_source': 'Website'}",9.080074,-79.526462,Farmacia Arrocha Villa Zaita,"{'opening_hours': {'Mon': '7:00-10:00', 'Tue': '7:00-10:00', 'Wed': '7:00-10:00', 'Thu': '7:00-10:00', 'Fri': '7:00-10:00', 'Sat': '7:00-10:00', 'Sun': '7:00-10:00'}}",,,"9.080074,-79.526462",,https://www.arrochaparati.com/es/tiendas-app/farmacia-arrocha-villa-zaita
"Calle Ave. 14C Norte, Edificio S/N, departamento:  805",Farmacias Arrocha,,Panama,"{'brand': ' Farmacias Arrocha', 'fascia': 'Farmacias Arrocha', 'category': 'Other', 'edit_date': '20250413', 'lat_lon_source': 'Website'}",9.011056099,-79.52540484,Farmacia Arrocha Betania,"{'opening_hours': {'Mon': '7:00-10:00', 'Tue': '7:00-10:00', 'Wed': '7:00-10:00', 'Thu': '7:00-10:00', 'Fri': '7:00-10:00', 'Sat': '7:00-10:00', 'Sun': '7:00-10:00'}}",,,"9.011056098902861,-79.52540484254082",,https://www.arrochaparati.com/es/tiendas-app/farmacia-arrocha-betania
"Villa Lucre,Calle Avenida Rafael Aleman,Centro Comercial Villa Lucre Mall, Local #1,",Farmacias Arrocha,,Panama,"{'brand': ' Farmacias Arrocha', 'fascia': 'Farmacias Arrocha', 'category': 'Other', 'edit_date': '20250413', 'lat_lon_source': 'Website'}",9.040773274,-79.47944212,Farmacia Arrocha Villa Lucre,"{'opening_hours': {'Mon': '7:00-10:00', 'Tue': '7:00-10:00', 'Wed': '7:00-10:00', 'Thu': '7:00-10:00', 'Fri': '7:00-10:00', 'Sat': '7:00-10:00', 'Sun': '7:00-10:00'}}",,,"9.0407732738173,-79.47944212092636",,https://www.arrochaparati.com/es/tiendas-app/farmacia-arrocha-villa-lucre
"Ub. Lote B, Quintas de Versalles II, Calle Ave. Costanera, Edif. PH Venversalles Local 12",Farmacias Arrocha,,Panama,"{'brand': ' Farmacias Arrocha', 'fascia': 'Farmacias Arrocha', 'category': 'Other', 'edit_date': '20250413', 'lat_lon_source': 'Website'}",9.043309031,-79.41469631,Farmacia Arrocha Versalles,"{'opening_hours': {'Mon': '7:00-10:00', 'Tue': '7:00-10:00', 'Wed': '7:00-10:00', 'Thu': '7:00-10:00', 'Fri': '7:00-10:00', 'Sat': '7:00-10:00', 'Sun': '7:00-10:00'}}",,,"9.0433090313347,-79.41469631485575",,https://www.arrochaparati.com/es/tiendas-app/farmacia-arrocha-versalles
"Calle Ave. Paseo del Mar, Edificio Town Center, Local R2-418; R1-501, R1-502",Farmacias Arrocha,,Panama,"{'brand': ' Farmacias Arrocha', 'fascia': 'Farmacias Arrocha', 'category': 'Other', 'edit_date': '20250413', 'lat_lon_source': 'Website'}",9.012972461,-79.46433588,Farmacia Arrocha Town Center Costa del Este,"{'opening_hours': {'Mon': '7:00-10:00', 'Tue': '7:00-10:00', 'Wed': '7:00-10:00', 'Thu': '7:00-10:00', 'Fri': '7:00-10:00', 'Sat': '7:00-10:00', 'Sun': '7:00-10:00'}}",,,"9.012972460574376,-79.46433587822233",,https://www.arrochaparati.com/es/tiendas-app/farmacia-arrocha-town-center-costa-del-este
"Urbanizacion Brisas del Golf, Ave Samuel Zarate, PH Signature Plaza  Local 1 y 1A",Farmacias Arrocha,,Panama,"{'brand': ' Farmacias Arrocha', 'fascia': 'Farmacias Arrocha', 'category': 'Other', 'edit_date': '20250413', 'lat_lon_source': 'Website'}",9.069637,-79.459805,Farmacia Arrocha Signature Plaza,"{'opening_hours': {'Mon': '7:00-10:00', 'Tue': '7:00-10:00', 'Wed': '7:00-10:00', 'Thu': '7:00-10:00', 'Fri': '7:00-10:00', 'Sat': '7:00-10:00', 'Sun': '7:00-10:00'}}",,,"9.069637,-79.459805",,https://www.arrochaparati.com/es/tiendas-app/farmacia-arrocha-signature-plaza
"Urb. Santa Maria Business District, Calle Boulevarad Oeste y Corredor Sur",Farmacias Arrocha,,Panama,"{'brand': ' Farmacias Arrocha', 'fascia': 'Farmacias Arrocha', 'category': 'Other', 'edit_date': '20250413', 'lat_lon_source': 'Website'}",9.026786892,-79.4686458,Farmacia Arrocha Santa Maria Plaza,"{'opening_hours': {'Mon': '7:00-10:00', 'Tue': '7:00-10:00', 'Wed': '7:00-10:00', 'Thu': '7:00-10:00', 'Fri': '7:00-10:00', 'Sat': '7:00-10:00', 'Sun': '7:00-10:00'}}",,,"9.02678689212985,-79.46864580415706",,https://www.arrochaparati.com/es/tiendas-app/farmacia-arrocha-santa-maria-plaza
"Via Tocumen, a un costado del Centro Comercial Los Pueblos.",Farmacias Arrocha,,Panama,"{'brand': ' Farmacias Arrocha', 'fascia': 'Farmacias Arrocha', 'category': 'Other', 'edit_date': '20250413', 'lat_lon_source': 'Website'}",9.049766,-79.451997,Farmacia Arrocha Los Pueblos,"{'opening_hours': {'Mon': '7:00-10:00', 'Tue': '7:00-10:00', 'Wed': '7:00-10:00', 'Thu': '7:00-10:00', 'Fri': '7:00-10:00', 'Sat': '7:00-10:00', 'Sun': '7:00-10:00'}}",,,"9.049766,-79.451997",,https://www.arrochaparati.com/es/tiendas-app/farmacia-arrocha-los-pueblos
"calle Via España  A, Aquilino De la Guardia N?6.",Farmacias Arrocha,,Panama,"{'brand': ' Farmacias Arrocha', 'fascia': 'Farmacias Arrocha', 'category': 'Other', 'edit_date': '20250413', 'lat_lon_source': 'Website'}",8.981566,-79.526772,Farmacia Arrocha Via España,"{'opening_hours': {'Mon': '7:00-9:30', 'Tue': '7:00-9:30', 'Wed': '7:00-9:30', 'Thu': '7:00-9:30', 'Fri': '7:00-9:30', 'Sat': '7:00-9:30', 'Sun': '7:00-9:30'}}",,,"8.981566,-79.526772",,https://www.arrochaparati.com/es/tiendas-app/farmacia-arrocha-via-espa%C3%B1a
"Urbanizacion Centro comercial Los Andes, locales H-1 al H-26,Via Boyd Roosevelt",Farmacias Arrocha,,Panama,"{'brand': ' Farmacias Arrocha', 'fascia': 'Farmacias Arrocha', 'category': 'Other', 'edit_date': '20250413', 'lat_lon_source': 'Website'}",9.046892163,-79.50621785,Farmacia Arrocha Los Andes,"{'opening_hours': {'Mon': '7:00-10:00', 'Tue': '7:00-10:00', 'Wed': '7:00-10:00', 'Thu': '7:00-10:00', 'Fri': '7:00-10:00', 'Sat': '7:00-10:00', 'Sun': '7:00-10:00'}}",,,"9.04689216253984,-79.50621785382405",,https://www.arrochaparati.com/es/tiendas-app/farmacia-arrocha-los-andes
Farmacia Arrocha Ricardo J. Alfaro,Farmacias Arrocha,,Panama,"{'brand': ' Farmacias Arrocha', 'fascia': 'Farmacias Arrocha', 'category': 'Other', 'edit_date': '20250413', 'lat_lon_source': 'Website'}",9.004385442,-79.53284556,Farmacia Arrocha Ricardo J. Alfaro,"{'opening_hours': {'Mon': '7:00-11:00', 'Tue': '7:00-11:00', 'Wed': '7:00-11:00', 'Thu': '7:00-11:00', 'Fri': '7:00-11:00', 'Sat': '7:00-11:00', 'Sun': '7:00-11:00'}}",,,"9.004385441947079,-79.53284556434043",,https://www.arrochaparati.com/es/tiendas-app/farmacia-arrocha-ricardo-j-alfaro-1
"Complejo Urbanístico Centennial Park, Calle Avenida hacia Cerro Patacón.",Farmacias Arrocha,,Panama,"{'brand': ' Farmacias Arrocha', 'fascia': 'Farmacias Arrocha', 'category': 'Other', 'edit_date': '20250413', 'lat_lon_source': 'Website'}",9.031553641,-79.53320384,Farmacia Arrocha Centennial Park,"{'opening_hours': {'Mon': '7:00-10:00', 'Tue': '7:00-10:00', 'Wed': '7:00-10:00', 'Thu': '7:00-10:00', 'Fri': '7:00-10:00', 'Sat': '7:00-10:00', 'Sun': '7:00-10:00'}}",,,"9.03155364093171,-79.53320383730454",,https://www.arrochaparati.com/es/tiendas-app/farmacia-arrocha-centennial-park
"PH Centro comercial Los Pueblos Albrook, Apto. Local 23 U",Farmacias Arrocha,,Panama,"{'brand': ' Farmacias Arrocha', 'fascia': 'Farmacias Arrocha', 'category': 'Other', 'edit_date': '20250413', 'lat_lon_source': 'Website'}",8.970563127,-79.55277613,Farmacia Arrocha Albrook Mall,"{'opening_hours': {'Mon': '7:00-10:00', 'Tue': '7:00-10:00', 'Wed': '7:00-10:00', 'Thu': '7:00-10:00', 'Fri': '7:00-10:00', 'Sat': '7:00-10:00', 'Sun': '7:00-10:00'}}",,,"8.970563126526576,-79.5527761279256",,https://www.arrochaparati.com/es/tiendas-app/farmacia-arrocha-albrook-mall
"Urbanizacion Marbella, Calle 47 Este, Edificio Punto Marbella, Local E.",Farmacias Arrocha,,Panama,"{'brand': ' Farmacias Arrocha', 'fascia': 'Farmacias Arrocha', 'category': 'Other', 'edit_date': '20250413', 'lat_lon_source': 'Website'}",8.977360263,-79.52172888,Farmacia Arrocha Punto Marbella,"{'opening_hours': {'Mon': '7:00-10:00', 'Tue': '7:00-10:00', 'Wed': '7:00-10:00', 'Thu': '7:00-10:00', 'Fri': '7:00-10:00', 'Sat': '7:00-10:00', 'Sun': '7:00-10:00'}}",,,"8.97736026325485,-79.52172888203194",,https://www.arrochaparati.com/es/tiendas-app/farmacia-arrocha-punto-marbella
"Urbanización Obarrio, Calle Abel Bravo, Edif. Plaza Times Square Plaza local 12, 13 y 13B",Farmacias Arrocha,,Panama,"{'brand': ' Farmacias Arrocha', 'fascia': 'Farmacias Arrocha', 'category': 'Other', 'edit_date': '20250413', 'lat_lon_source': 'Website'}",8.987699518,-79.51989055,Farmacia Arrocha Plaza Time Square Obarrio,"{'opening_hours': {'Mon': '7:00-10:00', 'Tue': '7:00-10:00', 'Wed': '7:00-10:00', 'Thu': '7:00-10:00', 'Fri': '7:00-10:00', 'Sat': '7:00-10:00', 'Sun': '7:00-10:00'}}",,,"8.987699518362131,-79.51989055243561",,https://www.arrochaparati.com/es/tiendas-app/farmacia-arrocha-plaza-time-square-obarrio
"Avenida Balboa, entre almacén Gran Morrinson y Popeye's",Farmacias Arrocha,,Panama,"{'brand': ' Farmacias Arrocha', 'fascia': 'Farmacias Arrocha', 'category': 'Other', 'edit_date': '20250413', 'lat_lon_source': 'Website'}",8.976105261,-79.51596545,Farmacia Arrocha Paitilla,"{'opening_hours': {'Mon': '7:00-11:00', 'Tue': '7:00-11:00', 'Wed': '7:00-11:00', 'Thu': '7:00-11:00', 'Fri': '7:00-11:00', 'Sat': '7:00-11:00', 'Sun': '7:00-11:00'}}",,,"8.97610526076076,-79.51596545369256",,https://www.arrochaparati.com/es/tiendas-app/farmacia-arrocha-paitilla
"Urbanizacion Punta Pacifica,  Calle Punta Darien, PH Aqualina Local 2",Farmacias Arrocha,,Panama,"{'brand': ' Farmacias Arrocha', 'fascia': 'Farmacias Arrocha', 'category': 'Other', 'edit_date': '20250413', 'lat_lon_source': 'Website'}",8.976046578,-79.50844548,Farmacia Arrocha P.H. Aqualina,"{'opening_hours': {'Mon': '7:00-10:00', 'Tue': '7:00-10:00', 'Wed': '7:00-10:00', 'Thu': '7:00-10:00', 'Fri': '7:00-10:00', 'Sat': '7:00-10:00', 'Sun': '7:00-10:00'}}",,,"8.97604657797171,-79.50844547843879",,https://www.arrochaparati.com/es/tiendas-app/farmacia-arrocha-ph-aqualina
"Urb. Vista Hermosa, calle Fernández de Córdoba Edif. PH FC Plaa, Local 9-10PB y Local 11",Farmacias Arrocha,,Panama,"{'brand': ' Farmacias Arrocha', 'fascia': 'Farmacias Arrocha', 'category': 'Other', 'edit_date': '20250413', 'lat_lon_source': 'Website'}",9.003084729,-79.51955435,Farmacia Arrocha Fernandez de Cordoba,"{'opening_hours': {'Mon': '7:00-10:00', 'Tue': '7:00-10:00', 'Wed': '7:00-10:00', 'Thu': '7:00-10:00', 'Fri': '7:00-10:00', 'Sat': '7:00-10:00', 'Sun': '7:00-10:00'}}",,,"9.003084728503282,-79.51955434759088",,https://www.arrochaparati.com/es/tiendas-app/farmacia-arrocha-fernandez-de-cordoba
"Centro comercial PH Embassy Club, calle Camino Las Cruces. Local N?1.",Farmacias Arrocha,,Panama,"{'brand': ' Farmacias Arrocha', 'fascia': 'Farmacias Arrocha', 'category': 'Other', 'edit_date': '20250413', 'lat_lon_source': 'Website'}",8.99484,-79.558654,Farmacia Arrocha Clayton,"{'opening_hours': {'Mon': '7:00-10:00', 'Tue': '7:00-10:00', 'Wed': '7:00-10:00', 'Thu': '7:00-10:00', 'Fri': '7:00-10:00', 'Sat': '7:00-10:00', 'Sun': '7:00-10:00'}}",,,"8.994840,-79.558654",,https://www.arrochaparati.com/es/tiendas-app/farmacia-arrocha-clayton
"Calle 58 Este, Avenida Ricardo Arango, PH Plaza 58, Local 1,2,3,4 y 5",Farmacias Arrocha,,Panama,"{'brand': ' Farmacias Arrocha', 'fascia': 'Farmacias Arrocha', 'category': 'Other', 'edit_date': '20250413', 'lat_lon_source': 'Website'}",8.985914994,-79.51781043,Farmacia Arrocha Plaza 58,"{'opening_hours': {'Mon': '7:00-10:00', 'Tue': '7:00-10:00', 'Wed': '7:00-10:00', 'Thu': '7:00-10:00', 'Fri': '7:00-10:00', 'Sat': '7:00-10:00', 'Sun': '7:00-10:00'}}",,,"8.985914993512793,-79.51781042860244",,https://www.arrochaparati.com/es/tiendas-app/farmacia-arrocha-plaza-58
"Vía España, Galeria Obarrio y Vía Brasil",Farmacias Arrocha,,Panama,"{'brand': ' Farmacias Arrocha', 'fascia': 'Farmacias Arrocha', 'category': 'Other', 'edit_date': '20250413', 'lat_lon_source': 'Website'}",8.99112755,-79.52094522,Farmacia Arrocha Galerías Obarrio,"{'opening_hours': {'Mon': '7:00-10:00', 'Tue': '7:00-10:00', 'Wed': '7:00-10:00', 'Thu': '7:00-10:00', 'Fri': '7:00-10:00', 'Sat': '7:00-10:00', 'Sun': '7:00-10:00'}}",,,"8.991127549846665,-79.5209452155079",,https://www.arrochaparati.com/es/tiendas-app/farmacia-arrocha-galerias-obarrio
"Via Simon Bolivar, Urb. Herbruger, Antiguo Tecno Auto",Farmacias Arrocha,,Panama,"{'brand': ' Farmacias Arrocha', 'fascia': 'Farmacias Arrocha', 'category': 'Other', 'edit_date': '20250413', 'lat_lon_source': 'Website'}",8.997624084,-79.52611325,Farmacia Arrocha Transístmica,"{'opening_hours': {'Mon': '7:00-10:00', 'Tue': '7:00-10:00', 'Wed': '7:00-10:00', 'Thu': '7:00-10:00', 'Fri': '7:00-10:00', 'Sat': '7:00-10:00', 'Sun': '7:00-10:00'}}",,,"8.997624083708429,-79.52611324550044",,https://www.arrochaparati.com/es/tiendas-app/farmacia-arrocha-transistmica
"Calle 50 y calle 92 , San Francisco",Farmacias Arrocha,,Panama,"{'brand': ' Farmacias Arrocha', 'fascia': 'Farmacias Arrocha', 'category': 'Other', 'edit_date': '20250413', 'lat_lon_source': 'Website'}",8.991997022,-79.50743934,Farmacia Arrocha Calle 50,"{'opening_hours': {'Mon': '7:00-11:00', 'Tue': '7:00-11:00', 'Wed': '7:00-11:00', 'Thu': '7:00-11:00', 'Fri': '7:00-11:00', 'Sat': '7:00-11:00', 'Sun': '7:00-11:00'}}",,,"8.991997021965975,-79.5074393434884",,https://www.arrochaparati.com/es/tiendas-app/farmacia-arrocha-calle-50
"Hato Pintado, Avenida 12 de Octubre frente al KFC, al lado del Banco General",Farmacias Arrocha,,Panama,"{'brand': ' Farmacias Arrocha', 'fascia': 'Farmacias Arrocha', 'category': 'Other', 'edit_date': '20250413', 'lat_lon_source': 'Website'}",9.012093942,-79.51143824,Farmacia Arrocha 12 De Octubre,"{'opening_hours': {'Mon': '7:00-10:00', 'Tue': '7:00-10:00', 'Wed': '7:00-10:00', 'Thu': '7:00-10:00', 'Fri': '7:00-10:00', 'Sat': '7:00-10:00', 'Sun': '7:00-10:00'}}",,,"9.012093942226137,-79.51143824337728",,https://www.arrochaparati.com/es/tiendas-app/farmacia-arrocha-12-de-octubre
"Urb. PH BOULEVARD, Costa Verde, Local Sub Ancla 2.",Farmacias Arrocha,,Panama,"{'brand': ' Farmacias Arrocha', 'fascia': 'Farmacias Arrocha', 'category': 'Other', 'edit_date': '20250413', 'lat_lon_source': 'Website'}",8.89406755,-79.75119393,Farmacia Arrocha Costa Verde,"{'opening_hours': {'Mon': '7:00-10:00', 'Tue': '7:00-10:00', 'Wed': '7:00-10:00', 'Thu': '7:00-10:00', 'Fri': '7:00-10:00', 'Sat': '7:00-10:00', 'Sun': '7:00-10:00'}}",,,"8.894067549681253,-79.75119393210139",,https://www.arrochaparati.com/es/tiendas-app/farmacia-arrocha-costa-verde
"Urbanizacion Vista Mar, Calle Del Puerto, Edif PH Centor Comercial Vista Mar Local 12y12A",Farmacias Arrocha,,Panama,"{'brand': ' Farmacias Arrocha', 'fascia': 'Farmacias Arrocha', 'category': 'Other', 'edit_date': '20250413', 'lat_lon_source': 'Website'}",8.866772204,-79.76570322,Farmacia Arrocha C.C. Vista Mar,"{'opening_hours': {'Mon': '7:00-10:00', 'Tue': '7:00-10:00', 'Wed': '7:00-10:00', 'Thu': '7:00-10:00', 'Fri': '7:00-10:00', 'Sat': '7:00-10:00', 'Sun': '7:00-10:00'}}",,,"8.866772204159275,-79.76570322393054",,https://www.arrochaparati.com/es/tiendas-app/farmacia-arrocha-cc-vista-mar
