addr_full,brand,city,country,extras,lat,lon,name,opening_hours,phone,postcode,ref,state,website
東京都千代田区有楽町2-5-1<br>ルミネ有楽町店 ルミネ2 2F,UNITED ARROWS,関東,Japan,"{'brand': 'UNITED ARROWS', 'fascia': 'ユナイテッドアローズ', 'category': 'Fashion', 'edit_date': '20250305', 'lat_lon_source': 'website'}",35.6735723065374,139.763680860466,ユナイテッドアローズ 有楽町店,"{'opening_hours': {'Mon': '11:00-21:00', 'Tue': '11:00-21:00', 'Wed': '11:00-21:00', 'Thu': '11:00-21:00', 'Fri': '11:00-21:00', 'Sat': '11:00-21:00', 'Sun': '11:00-21:00'}}","050-8892-0763,050-8892-0764",100-0006,0120,東京都,https://store.united-arrows.co.jp/stores/map.html
東京都千代田区丸の内1-5-1<br>新丸の内ビルディング 1F,UNITED ARROWS,関東,Japan,"{'brand': 'UNITED ARROWS', 'fascia': 'ユナイテッドアローズ', 'category': 'Fashion', 'edit_date': '20250305', 'lat_lon_source': 'website'}",35.6824269969758,139.764078964239,ユナイテッドアローズ 丸の内店,{'opening_hours': {}},050-8885-8756,100-6501,0122,東京都,https://store.united-arrows.co.jp/stores/map.html
東京都千代田区丸の内1-9-1<br>大丸東京店　4F,UNITED ARROWS,関東,Japan,"{'brand': 'UNITED ARROWS', 'fascia': 'ユナイテッドアローズ', 'category': 'Fashion', 'edit_date': '20250305', 'lat_lon_source': 'website'}",35.6812051336678,139.768787195183,ユナイテッドアローズ 大丸東京 ウィメンズストア,{'opening_hours': {}},050-8893-4201,100-6701,0137,東京都,https://store.united-arrows.co.jp/stores/map.html
東京都中央区日本橋1-4-1<br>COREDO 日本橋 1F,UNITED ARROWS,関東,Japan,"{'brand': 'UNITED ARROWS', 'fascia': 'ユナイテッドアローズ', 'category': 'Fashion', 'edit_date': '20250305', 'lat_lon_source': 'website'}",35.6826617717482,139.774220673442,ユナイテッドアローズ 日本橋店,{'opening_hours': {}},050-8893-4199,103-0027,0123,東京都,https://store.united-arrows.co.jp/stores/map.html
東京都港区麻布台1-3-1 麻布台ヒルズ タワープラザ 2F,UNITED ARROWS,関東,Japan,"{'brand': 'UNITED ARROWS', 'fascia': 'ユナイテッドアローズ', 'category': 'Fashion', 'edit_date': '20250305', 'lat_lon_source': 'website'}",35.6609951570243,139.740188224379,ユナイテッドアローズ 麻布台ヒルズ ウィメンズストア,{'opening_hours': {}},03-5575-1335,106-0041,0128,東京都,https://store.united-arrows.co.jp/stores/map.html
東京都港区六本木6-10-3<br>六本木ヒルズ ウェストウォーク 2F-3F,UNITED ARROWS,関東,Japan,"{'brand': 'UNITED ARROWS', 'fascia': 'ユナイテッドアローズ', 'category': 'Fashion', 'edit_date': '20250305', 'lat_lon_source': 'website'}",35.6596828753015,139.729067143381,ユナイテッドアローズ 六本木ヒルズ店,"{'opening_hours': {'Mon': '11:00-20:00', 'Tue': '11:00-20:00', 'Wed': '11:00-20:00', 'Thu': '11:00-20:00', 'Fri': '11:00-20:00', 'Sat': '11:00-20:00', 'Sun': '11:00-20:00'}}","050-8893-4218,050-8893-4217,050-8893-4219",106-0032,0129,東京都,https://store.united-arrows.co.jp/stores/map.html
東京都新宿区西新宿1-1-5<br>ルミネ新宿 ルミネ1 B1・1F,UNITED ARROWS,関東,Japan,"{'brand': 'UNITED ARROWS', 'fascia': 'ユナイテッドアローズ', 'category': 'Fashion', 'edit_date': '20250305', 'lat_lon_source': 'website'}",35.6892072,139.6993,ユナイテッドアローズ 新宿店,{'opening_hours': {}},"050-8893-4221,050-8893-4220",160-0023,0130,東京都,https://store.united-arrows.co.jp/stores/map.html
東京都世田谷区玉川3-17-1<br>玉川高島屋S･C 南館 2F,UNITED ARROWS,関東,Japan,"{'brand': 'UNITED ARROWS', 'fascia': 'ユナイテッドアローズ', 'category': 'Fashion', 'edit_date': '20250305', 'lat_lon_source': 'website'}",35.613311727851,139.62621175191,ユナイテッドアローズ 二子玉川店,{'opening_hours': {}},050-8893-1894,158-0094,0150,東京都,https://store.united-arrows.co.jp/stores/map.html
東京都渋谷区神宮前3-28-1 B1F-3F,UNITED ARROWS,関東,Japan,"{'brand': 'UNITED ARROWS', 'fascia': 'ユナイテッドアローズ', 'category': 'Fashion', 'edit_date': '20250305', 'lat_lon_source': 'website'}",35.6720346461949,139.709445347084,ユナイテッドアローズ 原宿本店（1F:ユナイテッドアローズ＆サンズ / 2F:ディストリクト ユナイテッドアローズ）,{'opening_hours': {}},,150-0001,0100,東京都,https://store.united-arrows.co.jp/stores/map.html
東京都渋谷区渋谷2-24-12 <br>渋谷スクランブルスクエア 8F,UNITED ARROWS,関東,Japan,"{'brand': 'UNITED ARROWS', 'fascia': 'ユナイテッドアローズ', 'category': 'Fashion', 'edit_date': '20250305', 'lat_lon_source': 'website'}",35.658442,139.702124,ユナイテッドアローズ 渋谷スクランブルスクエア店,"{'opening_hours': {'Mon': '10:00-21:00', 'Tue': '10:00-21:00', 'Wed': '10:00-21:00', 'Thu': '10:00-21:00', 'Fri': '10:00-21:00', 'Sat': '10:00-21:00', 'Sun': '10:00-21:00'}}",03-5774-1030,150-6101,0103,東京都,https://store.united-arrows.co.jp/stores/map.html
東京都渋谷区渋谷2-21-1 <br>渋谷ヒカリエ ShinQs 3F,UNITED ARROWS,関東,Japan,"{'brand': 'UNITED ARROWS', 'fascia': 'ユナイテッドアローズ', 'category': 'Fashion', 'edit_date': '20250305', 'lat_lon_source': 'website'}",35.6587755761966,139.703190056875,ユナイテッドアローズ 渋谷シンクス ウィメンズストア,"{'opening_hours': {'Mon': '10:00-21:00', 'Tue': '10:00-21:00', 'Wed': '10:00-21:00', 'Thu': '10:00-21:00', 'Fri': '10:00-21:00', 'Sat': '10:00-21:00', 'Sun': '10:00-21:00'}}",050-8893-4195,150-8509,0110,東京都,https://store.united-arrows.co.jp/stores/map.html
東京都渋谷区恵比寿南1-5-5 <br>アトレ 恵比寿 3F,UNITED ARROWS,関東,Japan,"{'brand': 'UNITED ARROWS', 'fascia': 'ユナイテッドアローズ', 'category': 'Fashion', 'edit_date': '20250305', 'lat_lon_source': 'website'}",35.6473277461625,139.709719785098,ユナイテッドアローズ アトレ恵比寿 ウィメンズストア,"{'opening_hours': {'Mon': '10:00-21:00', 'Tue': '10:00-21:00', 'Wed': '10:00-21:00', 'Thu': '10:00-21:00', 'Fri': '10:00-21:00', 'Sat': '10:00-21:00', 'Sun': '10:00-21:00'}}",050-8890-9505,150-0022,0115,東京都,https://store.united-arrows.co.jp/stores/map.html
東京都豊島区南池袋1-28-2<br>池袋パルコ 3F,UNITED ARROWS,関東,Japan,"{'brand': 'UNITED ARROWS', 'fascia': 'ユナイテッドアローズ', 'category': 'Fashion', 'edit_date': '20250305', 'lat_lon_source': 'website'}",35.73075861,139.7124374,ユナイテッドアローズ 池袋店,"{'opening_hours': {'Mon': '10:00-21:00', 'Tue': '10:00-21:00', 'Wed': '10:00-21:00', 'Thu': '10:00-21:00', 'Fri': '10:00-21:00', 'Sat': '10:00-21:00', 'Sun': '10:00-21:00'}}","050-8893-4204,050-8893-4205",171-0022,0140,東京都,https://store.united-arrows.co.jp/stores/map.html
東京都豊島区西池袋1-11-1 <br>ルミネ池袋 B1F,UNITED ARROWS,関東,Japan,"{'brand': 'UNITED ARROWS', 'fascia': 'ユナイテッドアローズ', 'category': 'Fashion', 'edit_date': '20250305', 'lat_lon_source': 'website'}",35.7294546175663,139.709398821335,ユナイテッドアローズ 池袋 ウィメンズストア,{'opening_hours': {}},03-5928-1226,171-0021,0142,東京都,https://store.united-arrows.co.jp/stores/map.html
東京都足立区千住旭町42-2 <br>ルミネ北千住 3F,UNITED ARROWS,関東,Japan,"{'brand': 'UNITED ARROWS', 'fascia': 'ユナイテッドアローズ', 'category': 'Fashion', 'edit_date': '20250305', 'lat_lon_source': 'website'}",35.7501001356068,139.805016313925,ユナイテッドアローズ 北千住 ウィメンズストア,"{'opening_hours': {'Mon': '10:00-20:30', 'Tue': '10:00-20:30', 'Wed': '10:00-20:30', 'Thu': '10:00-20:30', 'Fri': '10:00-20:30', 'Sat': '10:00-20:30', 'Sun': '10:00-20:30'}}",03-5244-6030,120-0026,0145,東京都,https://store.united-arrows.co.jp/stores/map.html
東京都立川市曙町2-1-1<br>ルミネ立川店 2F,UNITED ARROWS,関東,Japan,"{'brand': 'UNITED ARROWS', 'fascia': 'ユナイテッドアローズ', 'category': 'Fashion', 'edit_date': '20250305', 'lat_lon_source': 'website'}",35.6983922330285,139.414035266696,ユナイテッドアローズ 立川店,{'opening_hours': {}},050-8893-4155,190-0012,0180,東京都,https://store.united-arrows.co.jp/stores/map.html
埼玉県さいたま市大宮区錦町630<br>ルミネ大宮店 ルミネ2 西口別館 2F,UNITED ARROWS,関東,Japan,"{'brand': 'UNITED ARROWS', 'fascia': 'ユナイテッドアローズ', 'category': 'Fashion', 'edit_date': '20250305', 'lat_lon_source': 'website'}",35.906327,139.623677,ユナイテッドアローズ 大宮店,{'opening_hours': {}},048-650-7270,330-0853,0190,埼玉県,https://store.united-arrows.co.jp/stores/map.html
千葉県柏市末広町1-1<br>柏髙島屋ステーションモール 新館 専門店4F,UNITED ARROWS,関東,Japan,"{'brand': 'UNITED ARROWS', 'fascia': 'ユナイテッドアローズ', 'category': 'Fashion', 'edit_date': '20250305', 'lat_lon_source': 'website'}",35.8621154401389,139.969600583537,ユナイテッドアローズ 柏店,"{'opening_hours': {'Mon': '10:00-21:00', 'Tue': '10:00-21:00', 'Wed': '10:00-21:00', 'Thu': '10:00-21:00', 'Fri': '10:00-21:00', 'Sat': '10:00-21:00', 'Sun': '10:00-21:00'}}",04-7148-2332,277-8550,0160,千葉県,https://store.united-arrows.co.jp/stores/map.html
神奈川県横浜市西区高島2-16-1 ルミネ横浜 B1F,UNITED ARROWS,関東,Japan,"{'brand': 'UNITED ARROWS', 'fascia': 'ユナイテッドアローズ', 'category': 'Fashion', 'edit_date': '20250305', 'lat_lon_source': 'website'}",35.46516156,139.622798,ユナイテッドアローズ 横浜店,{'opening_hours': {}},"050-8890-9495,050-8890-9496",220-0011,0170,神奈川県,https://store.united-arrows.co.jp/stores/map.html
神奈川県横浜市西区高島2-18-1 <br>そごう横浜店 4F,UNITED ARROWS,関東,Japan,"{'brand': 'UNITED ARROWS', 'fascia': 'ユナイテッドアローズ', 'category': 'Fashion', 'edit_date': '20250305', 'lat_lon_source': 'website'}",35.4655008787857,139.625129997371,ユナイテッドアローズ そごう横浜 ウィメンズストア,"{'opening_hours': {'Mon': '10:00-20:00', 'Tue': '10:00-20:00', 'Wed': '10:00-20:00', 'Thu': '10:00-20:00', 'Fri': '10:00-20:00', 'Sat': '10:00-20:00', 'Sun': '10:00-20:00'}}",045-450-1172,220-8510,0177,神奈川県,https://store.united-arrows.co.jp/stores/map.html
北海道札幌市中央区南1条西3丁目<br>札幌パルコ 1・2F,UNITED ARROWS,北海道・東北,Japan,"{'brand': 'UNITED ARROWS', 'fascia': 'ユナイテッドアローズ', 'category': 'Fashion', 'edit_date': '20250305', 'lat_lon_source': 'website'}",43.0588590480682,141.352892225863,ユナイテッドアローズ 札幌店,"{'opening_hours': {'Mon': '10:00-20:00', 'Tue': '10:00-20:00', 'Wed': '10:00-20:00', 'Thu': '10:00-20:00', 'Fri': '10:00-20:00', 'Sat': '10:00-20:00', 'Sun': '10:00-20:00'}}","011-218-6001,011-218-5577",060-8502,0303,北海道,https://store.united-arrows.co.jp/stores/map.html
北海道旭川市1条通8-108 <br>フィール旭川 1F,UNITED ARROWS,北海道・東北,Japan,"{'brand': 'UNITED ARROWS', 'fascia': 'ユナイテッドアローズ', 'category': 'Fashion', 'edit_date': '20250305', 'lat_lon_source': 'website'}",43.7656899449832,142.360021773303,ユナイテッドアローズ 旭川店,"{'opening_hours': {'Mon': '10:00-19:30', 'Tue': '10:00-19:30', 'Wed': '10:00-19:30', 'Thu': '10:00-19:30', 'Fri': '10:00-19:30', 'Sat': '10:00-19:30', 'Sun': '10:00-19:30'}}",,070-0031,0305,北海道,https://store.united-arrows.co.jp/stores/map.html
宮城県仙台市青葉区中央1-1-1 <br>エスパル仙台本館 2F,UNITED ARROWS,北海道・東北,Japan,"{'brand': 'UNITED ARROWS', 'fascia': 'ユナイテッドアローズ', 'category': 'Fashion', 'edit_date': '20250305', 'lat_lon_source': 'website'}",38.2595512329477,140.881841373532,ユナイテッドアローズ 仙台店,{'opening_hours': {}},"050-8893-4183,050-8893-4184",980-8477,0310,宮城県,https://store.united-arrows.co.jp/stores/map.html
新潟県新潟市中央区八千代2-1-2<br>万代シテイビルボードプレイス 1F,UNITED ARROWS,北陸・東海,Japan,"{'brand': 'UNITED ARROWS', 'fascia': 'ユナイテッドアローズ', 'category': 'Fashion', 'edit_date': '20250305', 'lat_lon_source': 'website'}",37.9160428,139.0537727,ユナイテッドアローズ 新潟店,{'opening_hours': {}},025-240-4606,950-0909,0322,新潟県,https://store.united-arrows.co.jp/stores/map.html
石川県金沢市香林坊2-1-1 <br>香林坊東急スクエア 1F,UNITED ARROWS,北陸・東海,Japan,"{'brand': 'UNITED ARROWS', 'fascia': 'ユナイテッドアローズ', 'category': 'Fashion', 'edit_date': '20250305', 'lat_lon_source': 'website'}",36.5623232338844,136.653405064899,ユナイテッドアローズ 金沢店,"{'opening_hours': {'Mon': '10:00-20:00', 'Tue': '10:00-20:00', 'Wed': '10:00-20:00', 'Thu': '10:00-20:00', 'Fri': '10:00-20:00', 'Sat': '10:00-20:00', 'Sun': '10:00-20:00'}}",076-222-5140,920-0961,0324,石川県,https://store.united-arrows.co.jp/stores/map.html
愛知県名古屋市中区栄3-6-1<br>ラシック 2F,UNITED ARROWS,北陸・東海,Japan,"{'brand': 'UNITED ARROWS', 'fascia': 'ユナイテッドアローズ', 'category': 'Fashion', 'edit_date': '20250305', 'lat_lon_source': 'website'}",35.167387158771,136.907442947016,ユナイテッドアローズ 名古屋店,"{'opening_hours': {'Mon': '11:00-21:00', 'Tue': '11:00-21:00', 'Wed': '11:00-21:00', 'Thu': '11:00-21:00', 'Fri': '11:00-21:00', 'Sat': '11:00-21:00', 'Sun': '11:00-21:00'}}","052-265-1580,052-265-1582",460-0008,0330,愛知県,https://store.united-arrows.co.jp/stores/map.html
愛知県名古屋市中村区名駅1-1-3 <br>タカシマヤ ゲートタワーモール 2F,UNITED ARROWS,北陸・東海,Japan,"{'brand': 'UNITED ARROWS', 'fascia': 'ユナイテッドアローズ', 'category': 'Fashion', 'edit_date': '20250305', 'lat_lon_source': 'website'}",35.1719298940778,136.883190693089,ユナイテッドアローズ 名古屋駅店,"{'opening_hours': {'Mon': '10:00-21:00', 'Tue': '10:00-21:00', 'Wed': '10:00-21:00', 'Thu': '10:00-21:00', 'Fri': '10:00-21:00', 'Sat': '10:00-21:00', 'Sun': '10:00-21:00'}}","052-589-8259,052-589-8261",450-6602,0336,愛知県,https://store.united-arrows.co.jp/stores/map.html
京都府京都市下京区寺町通四条下ル貞安前之町605番地<br>藤井大丸　1F・2F,UNITED ARROWS,関西,Japan,"{'brand': 'UNITED ARROWS', 'fascia': 'ユナイテッドアローズ', 'category': 'Fashion', 'edit_date': '20250305', 'lat_lon_source': 'website'}",35.0034076691514,135.76650182562,ユナイテッドアローズ 京都店,{'opening_hours': {}},"075-223-0833,075-253-6953",600-8031,0260,京都府,https://store.united-arrows.co.jp/stores/map.html
大阪府大阪市中央区心斎橋筋1-8-3<br>心斎橋パルコ 2F,UNITED ARROWS,関西,Japan,"{'brand': 'UNITED ARROWS', 'fascia': 'ユナイテッドアローズ', 'category': 'Fashion', 'edit_date': '20250305', 'lat_lon_source': 'website'}",34.67386,135.50096,ユナイテッドアローズ 心斎橋店,{'opening_hours': {}},"06-6241-6695,06-6241-6696",542-0085,0215,大阪府,https://store.united-arrows.co.jp/stores/map.html
大阪府大阪市北区梅田3-1-3<br> ルクア 1F,UNITED ARROWS,関西,Japan,"{'brand': 'UNITED ARROWS', 'fascia': 'ユナイテッドアローズ', 'category': 'Fashion', 'edit_date': '20250305', 'lat_lon_source': 'website'}",34.7031294490786,135.495722754376,ユナイテッドアローズ ルクア大阪 ウィメンズストア,"{'opening_hours': {'Mon': '10:30-20:30', 'Tue': '10:30-20:30', 'Wed': '10:30-20:30', 'Thu': '10:30-20:30', 'Fri': '10:30-20:30', 'Sat': '10:30-20:30', 'Sun': '10:30-20:30'}}",050-8893-4192,530-8217,0223,大阪府,https://store.united-arrows.co.jp/stores/map.html
大阪府大阪市浪速区難波中2-10-70 <br>なんばパークス 2F,UNITED ARROWS,関西,Japan,"{'brand': 'UNITED ARROWS', 'fascia': 'ユナイテッドアローズ', 'category': 'Fashion', 'edit_date': '20250305', 'lat_lon_source': 'website'}",34.6618073266911,135.502137068642,ユナイテッドアローズ なんば店,"{'opening_hours': {'Mon': '11:00-21:00', 'Tue': '11:00-21:00', 'Wed': '11:00-21:00', 'Thu': '11:00-21:00', 'Fri': '11:00-21:00', 'Sat': '11:00-21:00', 'Sun': '11:00-21:00'}}",050-8893-4198,556-0011,0231,大阪府,https://store.united-arrows.co.jp/stores/map.html
大阪府大阪市北区大深町4-20 <br>グランフロント大阪 ショップ＆レストラン 南館 1F,UNITED ARROWS,関西,Japan,"{'brand': 'UNITED ARROWS', 'fascia': 'ユナイテッドアローズ', 'category': 'Fashion', 'edit_date': '20250305', 'lat_lon_source': 'website'}",34.7041296751883,135.494661774711,ユナイテッドアローズ 大阪 メンズストア,"{'opening_hours': {'Mon': '10:00-21:00', 'Tue': '10:00-21:00', 'Wed': '10:00-21:00', 'Thu': '10:00-21:00', 'Fri': '10:00-21:00', 'Sat': '10:00-21:00', 'Sun': '10:00-21:00'}}",06-6372-7293,530-0011,0235,大阪府,https://store.united-arrows.co.jp/stores/map.html
兵庫県神戸市中央区明石町40<br>大丸神戸店 3F,UNITED ARROWS,関西,Japan,"{'brand': 'UNITED ARROWS', 'fascia': 'ユナイテッドアローズ', 'category': 'Fashion', 'edit_date': '20250305', 'lat_lon_source': 'website'}",34.688583419395,135.190136578931,ユナイテッドアローズ 大丸神戸 ウィメンズストア,"{'opening_hours': {'Mon': '10:00-20:00', 'Tue': '10:00-20:00', 'Wed': '10:00-20:00', 'Thu': '10:00-20:00', 'Fri': '10:00-20:00', 'Sat': '10:00-20:00', 'Sun': '10:00-20:00'}}",078-335-2081,650-0037,0203,兵庫県,https://store.united-arrows.co.jp/stores/map.html
兵庫県神戸市中央区明石町40 <br>大丸神戸店 6F,UNITED ARROWS,関西,Japan,"{'brand': 'UNITED ARROWS', 'fascia': 'ユナイテッドアローズ', 'category': 'Fashion', 'edit_date': '20250305', 'lat_lon_source': 'website'}",34.6889198803512,135.190300096723,ユナイテッドアローズ 大丸神戸 メンズストア,{'opening_hours': {}},078-325-3930,650-0037,0205,兵庫県,https://store.united-arrows.co.jp/stores/map.html
兵庫県神戸市中央区雲井通7-1-1 <br>ミント神戸 2F,UNITED ARROWS,関西,Japan,"{'brand': 'UNITED ARROWS', 'fascia': 'ユナイテッドアローズ', 'category': 'Fashion', 'edit_date': '20250305', 'lat_lon_source': 'website'}",34.6945872843736,135.196139912065,ユナイテッドアローズ 神戸三宮店,"{'opening_hours': {'Mon': '11:00-21:00', 'Tue': '11:00-21:00', 'Wed': '11:00-21:00', 'Thu': '11:00-21:00', 'Fri': '11:00-21:00', 'Sat': '11:00-21:00', 'Sun': '11:00-21:00'}}","078-265-0870,078-265-1447",651-0096,0206,兵庫県,https://store.united-arrows.co.jp/stores/map.html
広島県広島市中区新天地2-1<br>広島パルコ 新館 B1・1F,UNITED ARROWS,中国・四国・九州,Japan,"{'brand': 'UNITED ARROWS', 'fascia': 'ユナイテッドアローズ', 'category': 'Fashion', 'edit_date': '20250305', 'lat_lon_source': 'website'}",34.3919837597886,132.462672537821,ユナイテッドアローズ 広島店,"{'opening_hours': {'Mon': '10:00-20:30', 'Tue': '10:00-20:30', 'Wed': '10:00-20:30', 'Thu': '10:00-20:30', 'Fri': '10:00-20:30', 'Sat': '10:00-20:30', 'Sun': '10:00-20:30'}}","082-542-2401,082-542-2411",730-0034,0360,広島県,https://store.united-arrows.co.jp/stores/map.html
広島県広島市南区松原町2-37  ミナモア 2F,UNITED ARROWS,中国・四国・九州,Japan,"{'brand': 'UNITED ARROWS', 'fascia': 'ユナイテッドアローズ', 'category': 'Fashion', 'edit_date': '20250305', 'lat_lon_source': 'website'}",34.39746815976217,132.47528633068293,ユナイテッドアローズ 広島 ウィメンズストア（2025年3月24日オープン予定）,{'opening_hours': {}},,732-0822 ,0361,広島県,https://store.united-arrows.co.jp/stores/map.html
福岡県福岡市中央区天神2-10-3<br>VIORO B1・1F,UNITED ARROWS,中国・四国・九州,Japan,"{'brand': 'UNITED ARROWS', 'fascia': 'ユナイテッドアローズ', 'category': 'Fashion', 'edit_date': '20250305', 'lat_lon_source': 'website'}",33.5896797,130.3983935,ユナイテッドアローズ 福岡店,"{'opening_hours': {'Mon': '11:00-21:00', 'Tue': '11:00-21:00', 'Wed': '11:00-21:00', 'Thu': '11:00-21:00', 'Fri': '11:00-21:00', 'Sat': '11:00-21:00', 'Sun': '11:00-21:00'}}",092-716-3322,810-0001,0370,福岡県,https://store.united-arrows.co.jp/stores/map.html
福岡県福岡市博多区博多駅中央街1-1 アミュプラザ博多 3F,UNITED ARROWS,中国・四国・九州,Japan,"{'brand': 'UNITED ARROWS', 'fascia': 'ユナイテッドアローズ', 'category': 'Fashion', 'edit_date': '20250305', 'lat_lon_source': 'website'}",33.5902747399633,130.4204315,ユナイテッドアローズ アミュプラザ博多 ウィメンズストア,"{'opening_hours': {'Mon': '10:00-20:00', 'Tue': '10:00-20:00', 'Wed': '10:00-20:00', 'Thu': '10:00-20:00', 'Fri': '10:00-20:00', 'Sat': '10:00-20:00', 'Sun': '10:00-20:00'}}",092-408-8125,812-0012,0371,福岡県,https://store.united-arrows.co.jp/stores/map.html
熊本県熊本市中央区手取本町6番1号 <br>鶴屋百貨店東館 1F,UNITED ARROWS,中国・四国・九州,Japan,"{'brand': 'UNITED ARROWS', 'fascia': 'ユナイテッドアローズ', 'category': 'Fashion', 'edit_date': '20250305', 'lat_lon_source': 'website'}",32.801999,130.712176,ユナイテッドアローズ 熊本店,{'opening_hours': {}},050-8893-4178,860-8586,0384,熊本県,https://store.united-arrows.co.jp/stores/map.html
大分県大分市府内町3-7-26<br>Bガレージビル,UNITED ARROWS,中国・四国・九州,Japan,"{'brand': 'UNITED ARROWS', 'fascia': 'ユナイテッドアローズ', 'category': 'Fashion', 'edit_date': '20250305', 'lat_lon_source': 'website'}",33.237383,131.6115829,ユナイテッドアローズ 大分店,"{'opening_hours': {'Mon': '11:00-20:00', 'Tue': '11:00-20:00', 'Wed': '11:00-20:00', 'Thu': '11:00-20:00', 'Fri': '11:00-20:00', 'Sat': '11:00-20:00', 'Sun': '11:00-20:00'}}",097-537-1526,870-0021,0375,大分県,https://store.united-arrows.co.jp/stores/map.html
台北市大安區仁愛路四段71巷30號及32號1樓,UNITED ARROWS,海外,Japan,"{'brand': 'UNITED ARROWS', 'fascia': 'ユナイテッドアローズ', 'category': 'Fashion', 'edit_date': '20250305', 'lat_lon_source': 'website'}",25.04038,121.54721,ユナイテッドアローズ 台北大安店,{'opening_hours': {}},,,0010,台湾,https://store.united-arrows.co.jp/stores/map.html
台北市信義區忠孝東路五段68號 微風信義 3F,UNITED ARROWS,海外,Japan,"{'brand': 'UNITED ARROWS', 'fascia': 'ユナイテッドアローズ', 'category': 'Fashion', 'edit_date': '20250305', 'lat_lon_source': 'website'}",25.040504,121.566896,ユナイテッドアローズ 台北微風信義店,{'opening_hours': {}},,,0000,台湾,https://store.united-arrows.co.jp/stores/map.html
台北市信義區松智路17號 微風南山 3F,UNITED ARROWS,海外,Japan,"{'brand': 'UNITED ARROWS', 'fascia': 'ユナイテッドアローズ', 'category': 'Fashion', 'edit_date': '20250305', 'lat_lon_source': 'website'}",25.034631,121.566522,ユナイテッドアローズ 台北微風南山 ウィメンズストア,{'opening_hours': {}},,,0000,台湾,https://store.united-arrows.co.jp/stores/map.html
上海市南京西路静安嘉里中心南区1楼S1-02，03商铺，2楼S2-02，03商铺,UNITED ARROWS,海外,Japan,"{'brand': 'UNITED ARROWS', 'fascia': 'ユナイテッドアローズ', 'category': 'Fashion', 'edit_date': '20250305', 'lat_lon_source': 'website'}",31.223162643336398,121.44917868105026,ユナイテッドアローズ 上海静安嘉里中心店,{'opening_hours': {}},"021-6041-0225,021-6041-0029",,0000,中国本土,https://store.united-arrows.co.jp/stores/map.html
"628 Sukhumvit Road, Khlong Tan, Khlong Toei, Bangkok 10110 MF",UNITED ARROWS,海外,Japan,"{'brand': 'UNITED ARROWS', 'fascia': 'ユナイテッドアローズ', 'category': 'Fashion', 'edit_date': '20250305', 'lat_lon_source': 'website'}",13.7321729191555,100.565902498109,ユナイテッドアローズ エムスフィア（バンコク）,{'opening_hours': {}},,,0000,タイ,https://store.united-arrows.co.jp/stores/map.html
東京都千代田区丸の内2-4-1 <br>丸ビル 2F,BEAUTY&YOUTH UNITED ARROWS,関東,Japan,"{'brand': 'BEAUTY&YOUTH UNITED ARROWS', 'fascia': 'ビューティー&ユース ユナイテッドアローズ', 'category': 'Fashion', 'edit_date': '20250305', 'lat_lon_source': 'website'}",35.681123444548,139.763511671145,ビューティー＆ユース ユナイテッドアローズ 丸の内店,{'opening_hours': {}},"03-6212-1500,03-6212-1501",100-6302,0144,東京都,https://store.united-arrows.co.jp/stores/map.html
東京都新宿区新宿3-38-1<br>ルミネエスト新宿 B2F,BEAUTY&YOUTH UNITED ARROWS,関東,Japan,"{'brand': 'BEAUTY&YOUTH UNITED ARROWS', 'fascia': 'ビューティー&ユース ユナイテッドアローズ', 'category': 'Fashion', 'edit_date': '20250305', 'lat_lon_source': 'website'}",35.6913237,139.7011442,ビューティー＆ユース ユナイテッドアローズ 新宿ウィメンズストア,{'opening_hours': {}},03-5367-2290,160-0022,0133,東京都,https://store.united-arrows.co.jp/stores/map.html
東京都墨田区押上1-1-2 <br>東京スカイツリータウン・ソラマチ 2F,BEAUTY&YOUTH UNITED ARROWS,関東,Japan,"{'brand': 'BEAUTY&YOUTH UNITED ARROWS', 'fascia': 'ビューティー&ユース ユナイテッドアローズ', 'category': 'Fashion', 'edit_date': '20250305', 'lat_lon_source': 'website'}",35.7105439846474,139.812681678961,ビューティー＆ユース ユナイテッドアローズ 東京スカイツリータウン・ソラマチ店,"{'opening_hours': {'Mon': '10:00-21:00', 'Tue': '10:00-21:00', 'Wed': '10:00-21:00', 'Thu': '10:00-21:00', 'Fri': '10:00-21:00', 'Sat': '10:00-21:00', 'Sun': '10:00-21:00'}}","050-8893-4206,050-8893-4207",131-0045,0147,東京都,https://store.united-arrows.co.jp/stores/map.html
東京都江東区青海1-1-10 <br>ダイバーシティ東京 プラザ 3F 31200,BEAUTY&YOUTH UNITED ARROWS,関東,Japan,"{'brand': 'BEAUTY&YOUTH UNITED ARROWS', 'fascia': 'ビューティー&ユース ユナイテッドアローズ', 'category': 'Fashion', 'edit_date': '20250305', 'lat_lon_source': 'website'}",35.6253459527667,139.775775161816,ビューティー＆ユース ユナイテッドアローズ お台場店,"{'opening_hours': {'Mon': '10:00-21:00', 'Tue': '10:00-21:00', 'Wed': '10:00-21:00', 'Thu': '10:00-21:00', 'Fri': '10:00-21:00', 'Sat': '10:00-21:00', 'Sun': '10:00-21:00'}}",03-3527-6615,135-0064,0158,東京都,https://store.united-arrows.co.jp/stores/map.html
"東京都足立区千住旭町42-2<br>ルミネ北千住 2F<br><br><font color=""red"">※ 改装に伴い、2025年1月20日(月)から4F仮店舗区画にて仮店舗営業いたします</font>",BEAUTY&YOUTH UNITED ARROWS,関東,Japan,"{'brand': 'BEAUTY&YOUTH UNITED ARROWS', 'fascia': 'ビューティー&ユース ユナイテッドアローズ', 'category': 'Fashion', 'edit_date': '20250305', 'lat_lon_source': 'website'}",35.7511768392857,139.805364205859,ビューティー＆ユース ユナイテッドアローズ 北千住店,"{'opening_hours': {'Mon': '10:00-20:30', 'Tue': '10:00-20:30', 'Wed': '10:00-20:30', 'Thu': '10:00-20:30', 'Fri': '10:00-20:30', 'Sat': '10:00-20:30', 'Sun': '10:00-20:30'}}",050-8892-0792,120-0026,0146,東京都,https://store.united-arrows.co.jp/stores/map.html
東京都武蔵野市吉祥寺本町1-11-5<br>コピス吉祥寺 A館 1F,BEAUTY&YOUTH UNITED ARROWS,関東,Japan,"{'brand': 'BEAUTY&YOUTH UNITED ARROWS', 'fascia': 'ビューティー&ユース ユナイテッドアローズ', 'category': 'Fashion', 'edit_date': '20250305', 'lat_lon_source': 'website'}",35.7046362634565,139.579438055652,ビューティー＆ユース ユナイテッドアローズ 吉祥寺店,"{'opening_hours': {'Mon': '10:00-21:00', 'Tue': '10:00-21:00', 'Wed': '10:00-21:00', 'Thu': '10:00-21:00', 'Fri': '10:00-21:00', 'Sat': '10:00-21:00', 'Sun': '10:00-21:00'}}",,180-0004,0183,東京都,https://store.united-arrows.co.jp/stores/map.html
東京都町田市原町田6-1-11<br>ルミネ町田店 3F,BEAUTY&YOUTH UNITED ARROWS,関東,Japan,"{'brand': 'BEAUTY&YOUTH UNITED ARROWS', 'fascia': 'ビューティー&ユース ユナイテッドアローズ', 'category': 'Fashion', 'edit_date': '20250305', 'lat_lon_source': 'website'}",35.54206547,139.4461155,ビューティー＆ユース ユナイテッドアローズ 町田店,{'opening_hours': {}},042-710-2597,194-0013,0185,東京都,https://store.united-arrows.co.jp/stores/map.html
埼玉県さいたま市大宮区錦町630<br>ルミネ大宮店 ルミネ2 西口別館 2F,BEAUTY&YOUTH UNITED ARROWS,関東,Japan,"{'brand': 'BEAUTY&YOUTH UNITED ARROWS', 'fascia': 'ビューティー&ユース ユナイテッドアローズ', 'category': 'Fashion', 'edit_date': '20250305', 'lat_lon_source': 'website'}",35.906041,139.623715,ビューティー＆ユース ユナイテッドアローズ 大宮店,{'opening_hours': {}},048-650-3127,330-0853,0195,埼玉県,https://store.united-arrows.co.jp/stores/map.html
埼玉県富士見市山室1-1313<br>ららぽーと富士見 2F,BEAUTY&YOUTH UNITED ARROWS,関東,Japan,"{'brand': 'BEAUTY&YOUTH UNITED ARROWS', 'fascia': 'ビューティー&ユース ユナイテッドアローズ', 'category': 'Fashion', 'edit_date': '20250305', 'lat_lon_source': 'website'}",35.8594276287733,139.547809486319,ビューティー＆ユース ユナイテッドアローズ 富士見店,"{'opening_hours': {'Mon': '10:00-21:00', 'Tue': '10:00-21:00', 'Wed': '10:00-21:00', 'Thu': '10:00-21:00', 'Fri': '10:00-21:00', 'Sat': '10:00-21:00', 'Sun': '10:00-21:00'}}","049-268-1050,049-268-1051",354-8560,0196,埼玉県,https://store.united-arrows.co.jp/stores/map.html
埼玉県さいたま市浦和区東高砂町11-1 浦和パルコ 1F,BEAUTY&YOUTH UNITED ARROWS,関東,Japan,"{'brand': 'BEAUTY&YOUTH UNITED ARROWS', 'fascia': 'ビューティー&ユース ユナイテッドアローズ', 'category': 'Fashion', 'edit_date': '20250305', 'lat_lon_source': 'website'}",35.8588041393763,139.658958753166,ビューティー＆ユース ユナイテッドアローズ 浦和店,"{'opening_hours': {'Mon': '10:00-21:00', 'Tue': '10:00-21:00', 'Wed': '10:00-21:00', 'Thu': '10:00-21:00', 'Fri': '10:00-21:00', 'Sat': '10:00-21:00', 'Sun': '10:00-21:00'}}",048-811-1170,330-0055,0197,埼玉県,https://store.united-arrows.co.jp/stores/map.html
埼玉県越谷市レイクタウン4-2-2<br>イオンレイクタウン kaze 2F,BEAUTY&YOUTH UNITED ARROWS,関東,Japan,"{'brand': 'BEAUTY&YOUTH UNITED ARROWS', 'fascia': 'ビューティー&ユース ユナイテッドアローズ', 'category': 'Fashion', 'edit_date': '20250305', 'lat_lon_source': 'website'}",35.8770899616169,139.824279367404,ビューティー＆ユース ユナイテッドアローズ 越谷店,{'opening_hours': {}},050-8893-3349,343-0828,0198,埼玉県,https://store.united-arrows.co.jp/stores/map.html
千葉県柏市末広町1-1<br>柏高島屋ステーションモール S館 専門店3F,BEAUTY&YOUTH UNITED ARROWS,関東,Japan,"{'brand': 'BEAUTY&YOUTH UNITED ARROWS', 'fascia': 'ビューティー&ユース ユナイテッドアローズ', 'category': 'Fashion', 'edit_date': '20250305', 'lat_lon_source': 'website'}",35.8624170747092,139.970296165624,ビューティー＆ユース ユナイテッドアローズ 柏店,"{'opening_hours': {'Mon': '10:00-21:00', 'Tue': '10:00-21:00', 'Wed': '10:00-21:00', 'Thu': '10:00-21:00', 'Fri': '10:00-21:00', 'Sat': '10:00-21:00', 'Sun': '10:00-21:00'}}",04-7141-7230,277-8550,0162,千葉県,https://store.united-arrows.co.jp/stores/map.html
千葉県船橋市浜町2-1-1<br>ららぽーとTOKYO-BAY 南館 2F,BEAUTY&YOUTH UNITED ARROWS,関東,Japan,"{'brand': 'BEAUTY&YOUTH UNITED ARROWS', 'fascia': 'ビューティー&ユース ユナイテッドアローズ', 'category': 'Fashion', 'edit_date': '20250305', 'lat_lon_source': 'website'}",35.6853391369334,139.991015663323,ビューティー＆ユース ユナイテッドアローズ 船橋店,{'opening_hours': {}},047-495-1961,273-8530,0165,千葉県,https://store.united-arrows.co.jp/stores/map.html
千葉県千葉市中央区新千葉1-1-1 <br>ペリエ千葉 4F,BEAUTY&YOUTH UNITED ARROWS,関東,Japan,"{'brand': 'BEAUTY&YOUTH UNITED ARROWS', 'fascia': 'ビューティー&ユース ユナイテッドアローズ', 'category': 'Fashion', 'edit_date': '20250305', 'lat_lon_source': 'website'}",35.6126351362249,140.113694453178,ビューティー＆ユース ユナイテッドアローズ 千葉店,{'opening_hours': {}},043-202-5720,260-0031,0166,千葉県,https://store.united-arrows.co.jp/stores/map.html
神奈川県横浜市青葉区美しが丘1-1-2<br>たまプラーザ テラス ゲートプラザ 1F,BEAUTY&YOUTH UNITED ARROWS,関東,Japan,"{'brand': 'BEAUTY&YOUTH UNITED ARROWS', 'fascia': 'ビューティー&ユース ユナイテッドアローズ', 'category': 'Fashion', 'edit_date': '20250305', 'lat_lon_source': 'website'}",35.5776377,139.5578829,ビューティー＆ユース ユナイテッドアローズ たまプラーザウィメンズストア,"{'opening_hours': {'Mon': '10:00-20:00', 'Tue': '10:00-20:00', 'Wed': '10:00-20:00', 'Thu': '10:00-20:00', 'Fri': '10:00-20:00', 'Sat': '10:00-20:00', 'Sun': '10:00-20:00'}}",045-905-0787,225-8535,0156,神奈川県,https://store.united-arrows.co.jp/stores/map.html
神奈川県川崎市幸区堀川町72-1 <br>ラゾーナ川崎プラザ 2F #25110,BEAUTY&YOUTH UNITED ARROWS,関東,Japan,"{'brand': 'BEAUTY&YOUTH UNITED ARROWS', 'fascia': 'ビューティー&ユース ユナイテッドアローズ', 'category': 'Fashion', 'edit_date': '20250305', 'lat_lon_source': 'website'}",35.5325111448111,139.695426827789,ビューティー＆ユース ユナイテッドアローズ 川崎店,"{'opening_hours': {'Mon': '10:00-21:00', 'Tue': '10:00-21:00', 'Wed': '10:00-21:00', 'Thu': '10:00-21:00', 'Fri': '10:00-21:00', 'Sat': '10:00-21:00', 'Sun': '10:00-21:00'}}",050-8893-4210,212-8576,0173,神奈川県,https://store.united-arrows.co.jp/stores/map.html
神奈川県川崎市中原区新丸子東3-1135-1 グランツリー武蔵小杉 1F,BEAUTY&YOUTH UNITED ARROWS,関東,Japan,"{'brand': 'BEAUTY&YOUTH UNITED ARROWS', 'fascia': 'ビューティー&ユース ユナイテッドアローズ', 'category': 'Fashion', 'edit_date': '20250305', 'lat_lon_source': 'website'}",35.5740062825611,139.660465327758,ビューティー＆ユース ユナイテッドアローズ 武蔵小杉店,"{'opening_hours': {'Mon': '10:00-21:00', 'Tue': '10:00-21:00', 'Wed': '10:00-21:00', 'Thu': '10:00-21:00', 'Fri': '10:00-21:00', 'Sat': '10:00-21:00', 'Sun': '10:00-21:00'}}",044-431-0515,211-0004,0174,神奈川県,https://store.united-arrows.co.jp/stores/map.html
神奈川県横浜市西区みなとみらい3-5-1 <br>マークイズみなとみらい 1F,BEAUTY&YOUTH UNITED ARROWS,関東,Japan,"{'brand': 'BEAUTY&YOUTH UNITED ARROWS', 'fascia': 'ビューティー&ユース ユナイテッドアローズ', 'category': 'Fashion', 'edit_date': '20250305', 'lat_lon_source': 'website'}",35.4572695551715,139.63254456615,ビューティー＆ユース ユナイテッドアローズ みなとみらい店,{'opening_hours': {}},050-8893-4211,220-0012,0176,神奈川県,https://store.united-arrows.co.jp/stores/map.html
神奈川県藤沢市辻堂神台1-3-1 <br>テラスモール湘南 2F,BEAUTY&YOUTH UNITED ARROWS,関東,Japan,"{'brand': 'BEAUTY&YOUTH UNITED ARROWS', 'fascia': 'ビューティー&ユース ユナイテッドアローズ', 'category': 'Fashion', 'edit_date': '20250305', 'lat_lon_source': 'website'}",35.3379831324113,139.446263632908,ビューティー＆ユース ユナイテッドアローズ 湘南店,"{'opening_hours': {'Mon': '10:00-21:00', 'Tue': '10:00-21:00', 'Wed': '10:00-21:00', 'Thu': '10:00-21:00', 'Fri': '10:00-21:00', 'Sat': '10:00-21:00', 'Sun': '10:00-21:00'}}",,251-0041,0179,神奈川県,https://store.united-arrows.co.jp/stores/map.html
宮城県仙台市青葉区中央1-1-1 <br>エスパル仙台本館 2F,BEAUTY&YOUTH UNITED ARROWS,北海道・東北,Japan,"{'brand': 'BEAUTY&YOUTH UNITED ARROWS', 'fascia': 'ビューティー&ユース ユナイテッドアローズ', 'category': 'Fashion', 'edit_date': '20250305', 'lat_lon_source': 'website'}",38.2593826893466,140.881837235355,ビューティー＆ユース ユナイテッドアローズ 仙台店,"{'opening_hours': {'Mon': '10:00-21:00', 'Tue': '10:00-21:00', 'Wed': '10:00-21:00', 'Thu': '10:00-21:00', 'Fri': '10:00-21:00', 'Sat': '10:00-21:00', 'Sun': '10:00-21:00'}}",022-722-3457,980-8477,0315,宮城県,https://store.united-arrows.co.jp/stores/map.html
石川県金沢市堀川新町3-1<br> 金沢フォーラス 1F,BEAUTY&YOUTH UNITED ARROWS,北陸・東海,Japan,"{'brand': 'BEAUTY&YOUTH UNITED ARROWS', 'fascia': 'ビューティー&ユース ユナイテッドアローズ', 'category': 'Fashion', 'edit_date': '20250305', 'lat_lon_source': 'website'}",36.5786682857433,136.649535038583,ビューティー＆ユース ユナイテッドアローズ 金沢店,"{'opening_hours': {'Mon': '10:00-21:00', 'Tue': '10:00-21:00', 'Wed': '10:00-21:00', 'Thu': '10:00-21:00', 'Fri': '10:00-21:00', 'Sat': '10:00-21:00', 'Sun': '10:00-21:00'}}",076-222-3955,920-0849,0325,石川県,https://store.united-arrows.co.jp/stores/map.html
静岡県静岡市葵区鷹匠1-1-1<br>新静岡セノバ 1F,BEAUTY&YOUTH UNITED ARROWS,北陸・東海,Japan,"{'brand': 'BEAUTY&YOUTH UNITED ARROWS', 'fascia': 'ビューティー&ユース ユナイテッドアローズ', 'category': 'Fashion', 'edit_date': '20250305', 'lat_lon_source': 'website'}",34.97541422,138.3869019,ビューティー＆ユース ユナイテッドアローズ 静岡店,"{'opening_hours': {'Mon': '10:00-20:00', 'Tue': '10:00-20:00', 'Wed': '10:00-20:00', 'Thu': '10:00-20:00', 'Fri': '10:00-20:00', 'Sat': '10:00-20:00', 'Sun': '10:00-20:00'}}","050-8893-4187,050-8893-4186",420-8508,0340,静岡県,https://store.united-arrows.co.jp/stores/map.html
愛知県名古屋市中村区名駅1-1-3 <br>タカシマヤ ゲートタワーモール 4F,BEAUTY&YOUTH UNITED ARROWS,北陸・東海,Japan,"{'brand': 'BEAUTY&YOUTH UNITED ARROWS', 'fascia': 'ビューティー&ユース ユナイテッドアローズ', 'category': 'Fashion', 'edit_date': '20250305', 'lat_lon_source': 'website'}",35.1723386193891,136.882021364701,ビューティー＆ユース ユナイテッドアローズ 名古屋駅店,"{'opening_hours': {'Mon': '10:00-21:00', 'Tue': '10:00-21:00', 'Wed': '10:00-21:00', 'Thu': '10:00-21:00', 'Fri': '10:00-21:00', 'Sat': '10:00-21:00', 'Sun': '10:00-21:00'}}","052-589-8198,052-589-8214",450-6604,0337,愛知県,https://store.united-arrows.co.jp/stores/map.html
京都府京都市下京区烏丸通塩小路下る東塩小路町902番地 京都ポルタ B1F,BEAUTY&YOUTH UNITED ARROWS,関西,Japan,"{'brand': 'BEAUTY&YOUTH UNITED ARROWS', 'fascia': 'ビューティー&ユース ユナイテッドアローズ', 'category': 'Fashion', 'edit_date': '20250305', 'lat_lon_source': 'website'}",34.9866351751817,135.759691757502,ビューティー＆ユース ユナイテッドアローズ 京都ウィメンズストア,"{'opening_hours': {'Mon': '10:00-21:00', 'Tue': '10:00-21:00', 'Wed': '10:00-21:00', 'Thu': '10:00-21:00', 'Fri': '10:00-21:00', 'Sat': '10:00-21:00', 'Sun': '10:00-21:00'}}",075-353-5361,600-8216,0256,京都府,https://store.united-arrows.co.jp/stores/map.html
"大阪府大阪市北区大深町4-20 <br>グランフロント大阪 ショップ＆レストラン 南館 3F<br><br><font color=""red"">改装に伴い、下記の期間<u><a href=""https://store-pre.united-arrows.co.jp/brand/glr/storelocator/gsb.html"">ユナイテッドアローズ グリーンレーベルリラクシング 阪急三番街店</a></u> 店内一部にて商品を展開いたします。<br>・2025年1月30日（木）～ 3月2日（日）</font>",BEAUTY&YOUTH UNITED ARROWS,関西,Japan,"{'brand': 'BEAUTY&YOUTH UNITED ARROWS', 'fascia': 'ビューティー&ユース ユナイテッドアローズ', 'category': 'Fashion', 'edit_date': '20250305', 'lat_lon_source': 'website'}",34.7039942689921,135.494596007767,ビューティー＆ユース ユナイテッドアローズ 大阪店,"{'opening_hours': {'Mon': '10:00-21:00', 'Tue': '10:00-21:00', 'Wed': '10:00-21:00', 'Thu': '10:00-21:00', 'Fri': '10:00-21:00', 'Sat': '10:00-21:00', 'Sun': '10:00-21:00'}}","050-8893-4193,050-8893-4194",530-0011,0227,大阪府,https://store.united-arrows.co.jp/stores/map.html
大阪府吹田市千里万博公園 2-1 <br>ららぽーとEXPOCITY 2F 20160,BEAUTY&YOUTH UNITED ARROWS,関西,Japan,"{'brand': 'BEAUTY&YOUTH UNITED ARROWS', 'fascia': 'ビューティー&ユース ユナイテッドアローズ', 'category': 'Fashion', 'edit_date': '20250305', 'lat_lon_source': 'website'}",34.8049070823392,135.535699802915,ビューティー＆ユース ユナイテッドアローズ EXPOCITY店,"{'opening_hours': {'Mon': '10:00-21:00', 'Tue': '10:00-21:00', 'Wed': '10:00-21:00', 'Thu': '10:00-21:00', 'Fri': '10:00-21:00', 'Sat': '10:00-21:00', 'Sun': '10:00-21:00'}}",06-4864-8285,565-0826,0229,大阪府,https://store.united-arrows.co.jp/stores/map.html
大阪府大阪市中央区難波5-1-60 <br>なんばCITY本館 B1F,BEAUTY&YOUTH UNITED ARROWS,関西,Japan,"{'brand': 'BEAUTY&YOUTH UNITED ARROWS', 'fascia': 'ビューティー&ユース ユナイテッドアローズ', 'category': 'Fashion', 'edit_date': '20250305', 'lat_lon_source': 'website'}",34.6642390737047,135.501014405488,ビューティー＆ユース ユナイテッドアローズ なんば店,"{'opening_hours': {'Mon': '10:00-21:00', 'Tue': '10:00-21:00', 'Wed': '10:00-21:00', 'Thu': '10:00-21:00', 'Fri': '10:00-21:00', 'Sat': '10:00-21:00', 'Sun': '10:00-21:00'}}",050-8893-4197,542-0076,0230,大阪府,https://store.united-arrows.co.jp/stores/map.html
大阪府枚方市岡東町19-1 枚方モール 2F,BEAUTY&YOUTH UNITED ARROWS,関西,Japan,"{'brand': 'BEAUTY&YOUTH UNITED ARROWS', 'fascia': 'ビューティー&ユース ユナイテッドアローズ', 'category': 'Fashion', 'edit_date': '20250305', 'lat_lon_source': 'website'}",34.817361879933,135.650148745707,ビューティー＆ユース ユナイテッドアローズ 枚方ウィメンズストア,{'opening_hours': {}},050-8893-3340,573-0032,0237,大阪府,https://store.united-arrows.co.jp/stores/map.html
兵庫県西宮市高松町14-2 <br>阪急西宮ガーデンズ 2F,BEAUTY&YOUTH UNITED ARROWS,関西,Japan,"{'brand': 'BEAUTY&YOUTH UNITED ARROWS', 'fascia': 'ビューティー&ユース ユナイテッドアローズ', 'category': 'Fashion', 'edit_date': '20250305', 'lat_lon_source': 'website'}",34.7439654167966,135.359273806472,ビューティー＆ユース ユナイテッドアローズ 西宮店,"{'opening_hours': {'Mon': '10:00-21:00', 'Tue': '10:00-21:00', 'Wed': '10:00-21:00', 'Thu': '10:00-21:00', 'Fri': '10:00-21:00', 'Sat': '10:00-21:00', 'Sun': '10:00-21:00'}}",,663-8204,0240,兵庫県,https://store.united-arrows.co.jp/stores/map.html
岡山県岡山市北区駅元町一番街地下5号<br>岡山一番街,BEAUTY&YOUTH UNITED ARROWS,中国・四国・九州,Japan,"{'brand': 'BEAUTY&YOUTH UNITED ARROWS', 'fascia': 'ビューティー&ユース ユナイテッドアローズ', 'category': 'Fashion', 'edit_date': '20250305', 'lat_lon_source': 'website'}",34.665185506921,133.91814436114,ビューティー＆ユース ユナイテッドアローズ 岡山店,"{'opening_hours': {'Mon': '10:00-20:00', 'Tue': '10:00-20:00', 'Wed': '10:00-20:00', 'Thu': '10:00-20:00', 'Fri': '10:00-20:00', 'Sat': '10:00-20:00', 'Sun': '10:00-20:00'}}",086-235-4812,700-0024,0355,岡山県,https://store.united-arrows.co.jp/stores/map.html
愛媛県松山市一番町3-2-1　<br>ANAクラウンプラザホテル松山 3F,BEAUTY&YOUTH UNITED ARROWS,中国・四国・九州,Japan,"{'brand': 'BEAUTY&YOUTH UNITED ARROWS', 'fascia': 'ビューティー&ユース ユナイテッドアローズ', 'category': 'Fashion', 'edit_date': '20250305', 'lat_lon_source': 'website'}",33.8408669181968,132.768399978904,ビューティー＆ユース ユナイテッドアローズ 松山店,"{'opening_hours': {'Mon': '11:00-20:00', 'Tue': '11:00-20:00', 'Wed': '11:00-20:00', 'Thu': '11:00-20:00', 'Fri': '11:00-20:00', 'Sat': '11:00-20:00', 'Sun': '11:00-20:00'}}",050-8893-4215,790-0001,0390,愛媛県,https://store.united-arrows.co.jp/stores/map.html
福岡県福岡市中央区天神2-2-43<br> ソラリアプラザ 2F,BEAUTY&YOUTH UNITED ARROWS,中国・四国・九州,Japan,"{'brand': 'BEAUTY&YOUTH UNITED ARROWS', 'fascia': 'ビューティー&ユース ユナイテッドアローズ', 'category': 'Fashion', 'edit_date': '20250305', 'lat_lon_source': 'website'}",33.5892740548837,130.398673604648,ビューティー＆ユース ユナイテッドアローズ 福岡店,"{'opening_hours': {'Mon': '10:00-20:30', 'Tue': '10:00-20:30', 'Wed': '10:00-20:30', 'Thu': '10:00-20:30', 'Fri': '10:00-20:30', 'Sat': '10:00-20:30', 'Sun': '10:00-20:30'}}",050-8893-1893,810-0001,0373,福岡県,https://store.united-arrows.co.jp/stores/map.html
福岡県福岡市博多区那珂6-23-1 ららぽーと福岡 2F,BEAUTY&YOUTH UNITED ARROWS,中国・四国・九州,Japan,"{'brand': 'BEAUTY&YOUTH UNITED ARROWS', 'fascia': 'ビューティー&ユース ユナイテッドアローズ', 'category': 'Fashion', 'edit_date': '20250305', 'lat_lon_source': 'website'}",33.5652842079603,130.440355108977,ビューティー＆ユース ユナイテッドアローズ ららぽーと福岡店,{'opening_hours': {}},092-588-7025,812-0893,0380,福岡県,https://store.united-arrows.co.jp/stores/map.html
福岡県北九州市小倉北区船場町1-1<br>小倉井筒屋　新館3F,BEAUTY&YOUTH UNITED ARROWS,中国・四国・九州,Japan,"{'brand': 'BEAUTY&YOUTH UNITED ARROWS', 'fascia': 'ビューティー&ユース ユナイテッドアローズ', 'category': 'Fashion', 'edit_date': '20250305', 'lat_lon_source': 'website'}",33.8839125534361,130.878117261115,ビューティー＆ユース ユナイテッドアローズ 小倉店,"{'opening_hours': {'Mon': '10:00-19:00', 'Tue': '10:00-19:00', 'Wed': '10:00-19:00', 'Thu': '10:00-19:00', 'Fri': '10:00-19:00', 'Sat': '10:00-19:00', 'Sun': '10:00-19:00'}}",093-512-0935,802-8511,0381,福岡県,https://store.united-arrows.co.jp/stores/map.html
長崎県長崎市尾上町1-1 アミュプラザ長崎 新館 1F,BEAUTY&YOUTH UNITED ARROWS,中国・四国・九州,Japan,"{'brand': 'BEAUTY&YOUTH UNITED ARROWS', 'fascia': 'ビューティー&ユース ユナイテッドアローズ', 'category': 'Fashion', 'edit_date': '20250305', 'lat_lon_source': 'website'}",32.7520153953704,129.869734386916,ビューティー＆ユース ユナイテッドアローズ 長崎店,"{'opening_hours': {'Mon': '10:00-21:00', 'Tue': '10:00-21:00', 'Wed': '10:00-21:00', 'Thu': '10:00-21:00', 'Fri': '10:00-21:00', 'Sat': '10:00-21:00', 'Sun': '10:00-21:00'}}",095-811-0215,850-0058,0394,長崎県,https://store.united-arrows.co.jp/stores/map.html
熊本県熊本市西区春日3-15-26 アミュプラザくまもと 1F,BEAUTY&YOUTH UNITED ARROWS,中国・四国・九州,Japan,"{'brand': 'BEAUTY&YOUTH UNITED ARROWS', 'fascia': 'ビューティー&ユース ユナイテッドアローズ', 'category': 'Fashion', 'edit_date': '20250305', 'lat_lon_source': 'website'}",32.7889245,130.6884576,ビューティー＆ユース ユナイテッドアローズ 熊本店,{'opening_hours': {}},096-319-1118,860-0047,0385,熊本県,https://store.united-arrows.co.jp/stores/map.html
大分県大分市要町1番14号<br>アミュプラザおおいた1F,BEAUTY&YOUTH UNITED ARROWS,中国・四国・九州,Japan,"{'brand': 'BEAUTY&YOUTH UNITED ARROWS', 'fascia': 'ビューティー&ユース ユナイテッドアローズ', 'category': 'Fashion', 'edit_date': '20250305', 'lat_lon_source': 'website'}",33.2328662239707,131.606758548785,ビューティー＆ユース ユナイテッドアローズ 大分店,{'opening_hours': {}},"097-513-1845,097-513-1846",870-0831,0382,大分県,https://store.united-arrows.co.jp/stores/map.html
鹿児島県鹿児島市呉服町6-5<br>マルヤガーデンズ 1F,BEAUTY&YOUTH UNITED ARROWS,中国・四国・九州,Japan,"{'brand': 'BEAUTY&YOUTH UNITED ARROWS', 'fascia': 'ビューティー&ユース ユナイテッドアローズ', 'category': 'Fashion', 'edit_date': '20250305', 'lat_lon_source': 'website'}",31.5911328485527,130.556851755522,ビューティー＆ユース ユナイテッドアローズ 鹿児島店,"{'opening_hours': {'Mon': '10:00-20:00', 'Tue': '10:00-20:00', 'Wed': '10:00-20:00', 'Thu': '10:00-20:00', 'Fri': '10:00-20:00', 'Sat': '10:00-20:00', 'Sun': '10:00-20:00'}}",099-216-8887,892-0826,0395,鹿児島県,https://store.united-arrows.co.jp/stores/map.html
東京都千代田区丸の内2-4-1 <br>丸ビル 3F,UNITED ARROWS green label relaxing,関東,Japan,"{'brand': 'UNITED ARROWS green label relaxing', 'fascia': 'ユナイテッドアローズ グリーンレーベル リラクシング', 'category': 'Fashion', 'edit_date': '20250305', 'lat_lon_source': 'website'}",35.681186,139.763774,ユナイテッドアローズ グリーンレーベル リラクシング 丸の内店,{'opening_hours': {}},050-8893-4161,100-6303,0520,東京都,https://store.united-arrows.co.jp/stores/map.html
東京都千代田区有楽町2-5-1<br>ルミネ有楽町店 ルミネ1 4F,UNITED ARROWS green label relaxing,関東,Japan,"{'brand': 'UNITED ARROWS green label relaxing', 'fascia': 'ユナイテッドアローズ グリーンレーベル リラクシング', 'category': 'Fashion', 'edit_date': '20250305', 'lat_lon_source': 'website'}",35.673546,139.763438,ユナイテッドアローズ グリーンレーベル リラクシング  ルミネ有楽町店,"{'opening_hours': {'Mon': '11:00-21:00', 'Tue': '11:00-21:00', 'Wed': '11:00-21:00', 'Thu': '11:00-21:00', 'Fri': '11:00-21:00', 'Sat': '11:00-21:00', 'Sun': '11:00-21:00'}}",03-5220-4680,100-0006,0524,東京都,https://store.united-arrows.co.jp/stores/map.html
東京都中央区八重洲2-1 <br>ヤエチカ 外堀地下2番通り,UNITED ARROWS green label relaxing,関東,Japan,"{'brand': 'UNITED ARROWS green label relaxing', 'fascia': 'ユナイテッドアローズ グリーンレーベル リラクシング', 'category': 'Fashion', 'edit_date': '20250305', 'lat_lon_source': 'website'}",35.6805255403508,139.76911006792,ユナイテッドアローズ グリーンレーベル リラクシング ヤエチカ店,"{'opening_hours': {'Mon': '10:00-20:00', 'Tue': '10:00-20:00', 'Wed': '10:00-20:00', 'Thu': '10:00-20:00', 'Fri': '10:00-20:00', 'Sat': '10:00-20:00', 'Sun': '10:00-20:00'}}",03-3517-3310,104-0028,2200,東京都,https://store.united-arrows.co.jp/stores/map.html
東京都港区新橋2丁目 <br>東口地下街1号 ウィング新橋 B1F,UNITED ARROWS green label relaxing,関東,Japan,"{'brand': 'UNITED ARROWS green label relaxing', 'fascia': 'ユナイテッドアローズ グリーンレーベル リラクシング', 'category': 'Fashion', 'edit_date': '20250305', 'lat_lon_source': 'website'}",35.6662950909797,139.759019846631,ユナイテッドアローズ グリーンレーベル リラクシング ウィング新橋店,{'opening_hours': {}},03-3575-5585,105-0004　,2201,東京都,https://store.united-arrows.co.jp/stores/map.html
東京都新宿区新宿3-38-2<br> ルミネ新宿店 ルミネ2 5F,UNITED ARROWS green label relaxing,関東,Japan,"{'brand': 'UNITED ARROWS green label relaxing', 'fascia': 'ユナイテッドアローズ グリーンレーベル リラクシング', 'category': 'Fashion', 'edit_date': '20250305', 'lat_lon_source': 'website'}",35.6895295916452,139.701153952485,ユナイテッドアローズ グリーンレーベル リラクシング ルミネ新宿店,{'opening_hours': {}},03-3345-9655,160-0022,0500,東京都,https://store.united-arrows.co.jp/stores/map.html
東京都台東区上野7-1-1 <br>アトレ上野店 1F,UNITED ARROWS green label relaxing,関東,Japan,"{'brand': 'UNITED ARROWS green label relaxing', 'fascia': 'ユナイテッドアローズ グリーンレーベル リラクシング', 'category': 'Fashion', 'edit_date': '20250305', 'lat_lon_source': 'website'}",35.7124222785288,139.775413865028,ユナイテッドアローズ グリーンレーベル リラクシング アトレ上野店,"{'opening_hours': {'Mon': '10:00-21:00', 'Tue': '10:00-21:00', 'Wed': '10:00-21:00', 'Thu': '10:00-21:00', 'Fri': '10:00-21:00', 'Sat': '10:00-21:00', 'Sun': '10:00-21:00'}}",03-5806-7361,110-0005,0526,東京都,https://store.united-arrows.co.jp/stores/map.html
東京都墨田区押上1-1-2 <br>東京スカイツリータウン・ソラマチ 3F,UNITED ARROWS green label relaxing,関東,Japan,"{'brand': 'UNITED ARROWS green label relaxing', 'fascia': 'ユナイテッドアローズ グリーンレーベル リラクシング', 'category': 'Fashion', 'edit_date': '20250305', 'lat_lon_source': 'website'}",35.7101091516015,139.812003067309,ユナイテッドアローズ グリーンレーベル リラクシング 東京スカイツリータウン ソラマチ店,"{'opening_hours': {'Mon': '10:00-21:00', 'Tue': '10:00-21:00', 'Wed': '10:00-21:00', 'Thu': '10:00-21:00', 'Fri': '10:00-21:00', 'Sat': '10:00-21:00', 'Sun': '10:00-21:00'}}",03-5619-1676,131-0045,0528,東京都,https://store.united-arrows.co.jp/stores/map.html
東京都墨田区錦糸1-2-47 <br>テルミナ2ラ・ガール 1F,UNITED ARROWS green label relaxing,関東,Japan,"{'brand': 'UNITED ARROWS green label relaxing', 'fascia': 'ユナイテッドアローズ グリーンレーベル リラクシング', 'category': 'Fashion', 'edit_date': '20250305', 'lat_lon_source': 'website'}",35.69715,139.813973,ユナイテッドアローズ グリーンレーベル リラクシング ウィメンズストア 錦糸町テルミナ店,"{'opening_hours': {'Mon': '10:00-21:00', 'Tue': '10:00-21:00', 'Wed': '10:00-21:00', 'Thu': '10:00-21:00', 'Fri': '10:00-21:00', 'Sat': '10:00-21:00', 'Sun': '10:00-21:00'}}",03-5637-910,130-0013,2251,東京都,https://store.united-arrows.co.jp/stores/map.html
東京都江東区豊洲2-4-9<br>アーバンドックららぽーと豊洲1 10910,UNITED ARROWS green label relaxing,関東,Japan,"{'brand': 'UNITED ARROWS green label relaxing', 'fascia': 'ユナイテッドアローズ グリーンレーベル リラクシング', 'category': 'Fashion', 'edit_date': '20250305', 'lat_lon_source': 'website'}",35.655077206284,139.792890886916,ユナイテッドアローズ グリーンレーベル リラクシング ららぽーと豊洲店,"{'opening_hours': {'Mon': '10:00-21:00', 'Tue': '10:00-21:00', 'Wed': '10:00-21:00', 'Thu': '10:00-21:00', 'Fri': '10:00-21:00', 'Sat': '10:00-21:00', 'Sun': '10:00-21:00'}}",03-5547-3391,135-8614,0527,東京都,https://store.united-arrows.co.jp/stores/map.html
東京都江東区亀戸6-31-6 カメイドクロック 1F,UNITED ARROWS green label relaxing,関東,Japan,"{'brand': 'UNITED ARROWS green label relaxing', 'fascia': 'ユナイテッドアローズ グリーンレーベル リラクシング', 'category': 'Fashion', 'edit_date': '20250305', 'lat_lon_source': 'website'}",35.6962493393361,139.829356237248,ユナイテッドアローズ グリーンレーベル リラクシング カメイドクロック店,{'opening_hours': {}},03-5609-7488,136-0071,0531,東京都,https://store.united-arrows.co.jp/stores/map.html
東京都品川区大井1-2-1 アトレ大井町 2F,UNITED ARROWS green label relaxing,関東,Japan,"{'brand': 'UNITED ARROWS green label relaxing', 'fascia': 'ユナイテッドアローズ グリーンレーベル リラクシング', 'category': 'Fashion', 'edit_date': '20250305', 'lat_lon_source': 'website'}",35.606362984775,139.734816039361,ユナイテッドアローズ グリーンレーベル リラクシング アトレ大井町店,"{'opening_hours': {'Mon': '10:00-21:00', 'Tue': '10:00-21:00', 'Wed': '10:00-21:00', 'Thu': '10:00-21:00', 'Fri': '10:00-21:00', 'Sat': '10:00-21:00', 'Sun': '10:00-21:00'}}",03-6451-8031,140-0014,0522,東京都,https://store.united-arrows.co.jp/stores/map.html
東京都世田谷区奥沢5-25-13,UNITED ARROWS green label relaxing,関東,Japan,"{'brand': 'UNITED ARROWS green label relaxing', 'fascia': 'ユナイテッドアローズ グリーンレーベル リラクシング', 'category': 'Fashion', 'edit_date': '20250305', 'lat_lon_source': 'website'}",35.6069958745687,139.67042056362,ユナイテッドアローズ グリーンレーベル リラクシング 自由が丘店,"{'opening_hours': {'Mon': '11:00-20:00', 'Tue': '11:00-20:00', 'Wed': '11:00-20:00', 'Thu': '11:00-20:00', 'Fri': '11:00-20:00', 'Sat': '11:00-20:00', 'Sun': '11:00-20:00'}}",03-5731-8531,158-0083,0501,東京都,https://store.united-arrows.co.jp/stores/map.html
東京都世田谷区玉川2-21-1<br>二子玉川ライズ・ショッピングセンター・タウンフロント 3F,UNITED ARROWS green label relaxing,関東,Japan,"{'brand': 'UNITED ARROWS green label relaxing', 'fascia': 'ユナイテッドアローズ グリーンレーベル リラクシング', 'category': 'Fashion', 'edit_date': '20250305', 'lat_lon_source': 'website'}",35.6126568228215,139.628650301847,ユナイテッドアローズ グリーンレーベル リラクシング 二子玉川ライズ店,"{'opening_hours': {'Mon': '10:00-21:00', 'Tue': '10:00-21:00', 'Wed': '10:00-21:00', 'Thu': '10:00-21:00', 'Fri': '10:00-21:00', 'Sat': '10:00-21:00', 'Sun': '10:00-21:00'}}",03-5797-5340,158-0094,0513,東京都,https://store.united-arrows.co.jp/stores/map.html
東京都豊島区西池袋1-11-1 <br>ルミネ池袋 6F,UNITED ARROWS green label relaxing,関東,Japan,"{'brand': 'UNITED ARROWS green label relaxing', 'fascia': 'ユナイテッドアローズ グリーンレーベル リラクシング', 'category': 'Fashion', 'edit_date': '20250305', 'lat_lon_source': 'website'}",35.7292042425655,139.709367851894,ユナイテッドアローズ グリーンレーベル リラクシング ルミネ池袋店,{'opening_hours': {}},03-5956-5133,171-0021,0523,東京都,https://store.united-arrows.co.jp/stores/map.html
東京都練馬区光が丘5-1-1 <br>光が丘IMA イマミセ 1F,UNITED ARROWS green label relaxing,関東,Japan,"{'brand': 'UNITED ARROWS green label relaxing', 'fascia': 'ユナイテッドアローズ グリーンレーベル リラクシング', 'category': 'Fashion', 'edit_date': '20250305', 'lat_lon_source': 'website'}",35.7591221803803,139.628556778971,ユナイテッドアローズ グリーンレーベル リラクシング 光が丘IMA店,"{'opening_hours': {'Mon': '10:00-21:00', 'Tue': '10:00-21:00', 'Wed': '10:00-21:00', 'Thu': '10:00-21:00', 'Fri': '10:00-21:00', 'Sat': '10:00-21:00', 'Sun': '10:00-21:00'}}",03-6909-8602,179-0072,0539,東京都,https://store.united-arrows.co.jp/stores/map.html
東京都足立区千住旭町42-2<br>ルミネ北千住 4F,UNITED ARROWS green label relaxing,関東,Japan,"{'brand': 'UNITED ARROWS green label relaxing', 'fascia': 'ユナイテッドアローズ グリーンレーベル リラクシング', 'category': 'Fashion', 'edit_date': '20250305', 'lat_lon_source': 'website'}",35.7501278945179,139.804978052486,ユナイテッドアローズ グリーンレーベル リラクシング ルミネ北千住店,"{'opening_hours': {'Mon': '10:00-20:30', 'Tue': '10:00-20:30', 'Wed': '10:00-20:30', 'Thu': '10:00-20:30', 'Fri': '10:00-20:30', 'Sat': '10:00-20:30', 'Sun': '10:00-20:30'}}",03-5813-0447,120-0026,0530,東京都,https://store.united-arrows.co.jp/stores/map.html
東京都八王子市旭町1-1 <br>セレオ八王子 北館 2F,UNITED ARROWS green label relaxing,関東,Japan,"{'brand': 'UNITED ARROWS green label relaxing', 'fascia': 'ユナイテッドアローズ グリーンレーベル リラクシング', 'category': 'Fashion', 'edit_date': '20250305', 'lat_lon_source': 'website'}",35.656103821522194,139.339159049538,ユナイテッドアローズ グリーンレーベル リラクシング セレオ八王子店,"{'opening_hours': {'Mon': '10:00-21:00', 'Tue': '10:00-21:00', 'Wed': '10:00-21:00', 'Thu': '10:00-21:00', 'Fri': '10:00-21:00', 'Sat': '10:00-21:00', 'Sun': '10:00-21:00'}}",042-686-3261,192-0083,0534,東京都,https://store.united-arrows.co.jp/stores/map.html
東京都立川市曙町2-1-1<br>ルミネ立川店 3F<br>,UNITED ARROWS green label relaxing,関東,Japan,"{'brand': 'UNITED ARROWS green label relaxing', 'fascia': 'ユナイテッドアローズ グリーンレーベル リラクシング', 'category': 'Fashion', 'edit_date': '20250305', 'lat_lon_source': 'website'}",35.6985091063876,139.413163288516,ユナイテッドアローズ グリーンレーベル リラクシング ルミネ立川店,{'opening_hours': {}},050-8893-4163,190-0012,0535,東京都,https://store.united-arrows.co.jp/stores/map.html
東京都立川市泉町935-1 <br>ららぽーと立川立飛 2F 23900,UNITED ARROWS green label relaxing,関東,Japan,"{'brand': 'UNITED ARROWS green label relaxing', 'fascia': 'ユナイテッドアローズ グリーンレーベル リラクシング', 'category': 'Fashion', 'edit_date': '20250305', 'lat_lon_source': 'website'}",35.7129897290503,139.417472796757,ユナイテッドアローズ グリーンレーベル リラクシング ららぽーと立川立飛店,"{'opening_hours': {'Mon': '10:00-21:00', 'Tue': '10:00-21:00', 'Wed': '10:00-21:00', 'Thu': '10:00-21:00', 'Fri': '10:00-21:00', 'Sat': '10:00-21:00', 'Sun': '10:00-21:00'}}",042-540-0021,190-0015,0536,東京都,https://store.united-arrows.co.jp/stores/map.html
東京都武蔵野市吉祥寺本町1-11-5<br>コピス吉祥寺 B館 1F,UNITED ARROWS green label relaxing,関東,Japan,"{'brand': 'UNITED ARROWS green label relaxing', 'fascia': 'ユナイテッドアローズ グリーンレーベル リラクシング', 'category': 'Fashion', 'edit_date': '20250305', 'lat_lon_source': 'website'}",35.7050065152016,139.579711017559,ユナイテッドアローズ グリーンレーベル リラクシング コピス吉祥寺店,"{'opening_hours': {'Mon': '10:00-21:00', 'Tue': '10:00-21:00', 'Wed': '10:00-21:00', 'Thu': '10:00-21:00', 'Fri': '10:00-21:00', 'Sat': '10:00-21:00', 'Sun': '10:00-21:00'}}",050-8893-4223,180-0004,0532,東京都,https://store.united-arrows.co.jp/stores/map.html
東京都調布市布田4-4-22 <br>トリエ京王調布 2F,UNITED ARROWS green label relaxing,関東,Japan,"{'brand': 'UNITED ARROWS green label relaxing', 'fascia': 'ユナイテッドアローズ グリーンレーベル リラクシング', 'category': 'Fashion', 'edit_date': '20250305', 'lat_lon_source': 'website'}",35.6517209842047,139.545072843399,ユナイテッドアローズ グリーンレーベル リラクシング 調布店,"{'opening_hours': {'Mon': '10:00-21:00', 'Tue': '10:00-21:00', 'Wed': '10:00-21:00', 'Thu': '10:00-21:00', 'Fri': '10:00-21:00', 'Sat': '10:00-21:00', 'Sun': '10:00-21:00'}}",042-443-5948,182-0024,0537,東京都,https://store.united-arrows.co.jp/stores/map.html
東京都町田市原町田6-1-11<br> ルミネ町田店 6F,UNITED ARROWS green label relaxing,関東,Japan,"{'brand': 'UNITED ARROWS green label relaxing', 'fascia': 'ユナイテッドアローズ グリーンレーベル リラクシング', 'category': 'Fashion', 'edit_date': '20250305', 'lat_lon_source': 'website'}",35.54204016,139.4460946,ユナイテッドアローズ グリーンレーベル リラクシング  ルミネ町田店,{'opening_hours': {}},050-8893-4157,194-0013,0510,東京都,https://store.united-arrows.co.jp/stores/map.html
茨城県水戸市宮町1-1-1  <br>水戸駅ビル エクセル本館 2Ｆプラムストリート,UNITED ARROWS green label relaxing,関東,Japan,"{'brand': 'UNITED ARROWS green label relaxing', 'fascia': 'ユナイテッドアローズ グリーンレーベル リラクシング', 'category': 'Fashion', 'edit_date': '20250305', 'lat_lon_source': 'website'}",36.3710586514692,140.475610667331,ユナイテッドアローズ グリーンレーベル リラクシング 水戸エクセル店,"{'opening_hours': {'Mon': '10:00-20:00', 'Tue': '10:00-20:00', 'Wed': '10:00-20:00', 'Thu': '10:00-20:00', 'Fri': '10:00-20:00', 'Sat': '10:00-20:00', 'Sun': '10:00-20:00'}}",029-302-3035,310-0015,0575,茨城県,https://store.united-arrows.co.jp/stores/map.html
群馬県高崎市八島町222  <br>高崎モントレー コンコースF,UNITED ARROWS green label relaxing,関東,Japan,"{'brand': 'UNITED ARROWS green label relaxing', 'fascia': 'ユナイテッドアローズ グリーンレーベル リラクシング', 'category': 'Fashion', 'edit_date': '20250305', 'lat_lon_source': 'website'}",36.3224437375109,139.012092590031,ユナイテッドアローズ グリーンレーベル リラクシング 高崎モントレー店,"{'opening_hours': {'Mon': '10:00-20:30', 'Tue': '10:00-20:30', 'Wed': '10:00-20:30', 'Thu': '10:00-20:30', 'Fri': '10:00-20:30', 'Sat': '10:00-20:30', 'Sun': '10:00-20:30'}}",027-310-5100,370-0849,0576,群馬県,https://store.united-arrows.co.jp/stores/map.html
埼玉県所沢市くすのき台1-14-5<br> グランエミオ所沢 2F,UNITED ARROWS green label relaxing,関東,Japan,"{'brand': 'UNITED ARROWS green label relaxing', 'fascia': 'ユナイテッドアローズ グリーンレーベル リラクシング', 'category': 'Fashion', 'edit_date': '20250305', 'lat_lon_source': 'website'}",35.786812628157,139.474007843386,ユナイテッドアローズ グリーンレーベル リラクシング グランエミオ所沢店,"{'opening_hours': {'Mon': '10:00-21:00', 'Tue': '10:00-21:00', 'Wed': '10:00-21:00', 'Thu': '10:00-21:00', 'Fri': '10:00-21:00', 'Sat': '10:00-21:00', 'Sun': '10:00-21:00'}}",04-2991-0205,359-0037,0538,埼玉県,https://store.united-arrows.co.jp/stores/map.html
埼玉県さいたま市大宮区錦町630<br>ルミネ大宮2 3F,UNITED ARROWS green label relaxing,関東,Japan,"{'brand': 'UNITED ARROWS green label relaxing', 'fascia': 'ユナイテッドアローズ グリーンレーベル リラクシング', 'category': 'Fashion', 'edit_date': '20250305', 'lat_lon_source': 'website'}",35.9065034172327,139.62368204339,ユナイテッドアローズ グリーンレーベル リラクシング ルミネ大宮店,{'opening_hours': {}},048-640-7171,330-0853,0541,埼玉県,https://store.united-arrows.co.jp/stores/map.html
埼玉県さいたま市大宮区吉敷町 4-263-1 コクーンシティ cocoon2 2F,UNITED ARROWS green label relaxing,関東,Japan,"{'brand': 'UNITED ARROWS green label relaxing', 'fascia': 'ユナイテッドアローズ グリーンレーベル リラクシング', 'category': 'Fashion', 'edit_date': '20250305', 'lat_lon_source': 'website'}",35.8958140377398,139.635910175951,ユナイテッドアローズ グリーンレーベル リラクシング コクーンシティ さいたま新都心店,{'opening_hours': {}},048-657-6681,330-9559,0547,埼玉県,https://store.united-arrows.co.jp/stores/map.html
埼玉県さいたま市浦和区東高砂町11-1<br>浦和パルコ1F,UNITED ARROWS green label relaxing,関東,Japan,"{'brand': 'UNITED ARROWS green label relaxing', 'fascia': 'ユナイテッドアローズ グリーンレーベル リラクシング', 'category': 'Fashion', 'edit_date': '20250305', 'lat_lon_source': 'website'}",35.8588666108337,139.658588737866,ユナイテッドアローズ グリーンレーベル リラクシング 浦和パルコ店,"{'opening_hours': {'Mon': '10:00-21:00', 'Tue': '10:00-21:00', 'Wed': '10:00-21:00', 'Thu': '10:00-21:00', 'Fri': '10:00-21:00', 'Sat': '10:00-21:00', 'Sun': '10:00-21:00'}}",048-871-2742,330-0055,0548,埼玉県,https://store.united-arrows.co.jp/stores/map.html
埼玉県川越市脇田町105<br> アトレマルヒロ 2F,UNITED ARROWS green label relaxing,関東,Japan,"{'brand': 'UNITED ARROWS green label relaxing', 'fascia': 'ユナイテッドアローズ グリーンレーベル リラクシング', 'category': 'Fashion', 'edit_date': '20250305', 'lat_lon_source': 'website'}",35.9086806014971,139.483018314554,ユナイテッドアローズ グリーンレーベル リラクシング 川越店,"{'opening_hours': {'Mon': '10:00-21:00', 'Tue': '10:00-21:00', 'Wed': '10:00-21:00', 'Thu': '10:00-21:00', 'Fri': '10:00-21:00', 'Sat': '10:00-21:00', 'Sun': '10:00-21:00'}}",050-8893-4168,350-1122,0549,埼玉県,https://store.united-arrows.co.jp/stores/map.html
埼玉県越谷市レイクタウン4-2-2 イオンレイクタウン KAZE 2F,UNITED ARROWS green label relaxing,関東,Japan,"{'brand': 'UNITED ARROWS green label relaxing', 'fascia': 'ユナイテッドアローズ グリーンレーベル リラクシング', 'category': 'Fashion', 'edit_date': '20250305', 'lat_lon_source': 'website'}",35.8788418133854,139.825869583219,ユナイテッドアローズ グリーンレーベル リラクシング 越谷レイクタウン店,"{'opening_hours': {'Mon': '10:00-21:00', 'Tue': '10:00-21:00', 'Wed': '10:00-21:00', 'Thu': '10:00-21:00', 'Fri': '10:00-21:00', 'Sat': '10:00-21:00', 'Sun': '10:00-21:00'}}",048-990-5040,343-0828,0568,埼玉県,https://store.united-arrows.co.jp/stores/map.html
埼玉県富士見市山室1-1313<br>ららぽーと富士見 2F,UNITED ARROWS green label relaxing,関東,Japan,"{'brand': 'UNITED ARROWS green label relaxing', 'fascia': 'ユナイテッドアローズ グリーンレーベル リラクシング', 'category': 'Fashion', 'edit_date': '20250305', 'lat_lon_source': 'website'}",35.8592308704001,139.548045414553,ユナイテッドアローズ グリーンレーベル リラクシング ららぽーと富士見店,"{'opening_hours': {'Mon': '10:00-21:00', 'Tue': '10:00-21:00', 'Wed': '10:00-21:00', 'Thu': '10:00-21:00', 'Fri': '10:00-21:00', 'Sat': '10:00-21:00', 'Sun': '10:00-21:00'}}",049-268-0105,354-8560,0562,埼玉県,https://store.united-arrows.co.jp/stores/map.html
千葉県柏市若柴175 <br>ららぽーと柏の葉 2F,UNITED ARROWS green label relaxing,関東,Japan,"{'brand': 'UNITED ARROWS green label relaxing', 'fascia': 'ユナイテッドアローズ グリーンレーベル リラクシング', 'category': 'Fashion', 'edit_date': '20250305', 'lat_lon_source': 'website'}",35.8932856302415,139.951023367927,ユナイテッドアローズ グリーンレーベル リラクシング ららぽーと柏の葉店,"{'opening_hours': {'Mon': '10:00-21:00', 'Tue': '10:00-21:00', 'Wed': '10:00-21:00', 'Thu': '10:00-21:00', 'Fri': '10:00-21:00', 'Sat': '10:00-21:00', 'Sun': '10:00-21:00'}}",050-8893-4159,277-8518,0514,千葉県,https://store.united-arrows.co.jp/stores/map.html
千葉県柏市末広町1-1<br>柏髙島屋ステーションモール S館 専門店6F,UNITED ARROWS green label relaxing,関東,Japan,"{'brand': 'UNITED ARROWS green label relaxing', 'fascia': 'ユナイテッドアローズ グリーンレーベル リラクシング', 'category': 'Fashion', 'edit_date': '20250305', 'lat_lon_source': 'website'}",35.8625483098259,139.970731202259,ユナイテッドアローズ グリーンレーベル リラクシング 柏髙島屋ステーションモール店,"{'opening_hours': {'Mon': '10:00-21:00', 'Tue': '10:00-21:00', 'Wed': '10:00-21:00', 'Thu': '10:00-21:00', 'Fri': '10:00-21:00', 'Sat': '10:00-21:00', 'Sun': '10:00-21:00'}}",050-8893-4160,277-8550,0515,千葉県,https://store.united-arrows.co.jp/stores/map.html
千葉県船橋市浜町2-1-1<br>ららぽーとTOKYO-BAY 南館 1F,UNITED ARROWS green label relaxing,関東,Japan,"{'brand': 'UNITED ARROWS green label relaxing', 'fascia': 'ユナイテッドアローズ グリーンレーベル リラクシング', 'category': 'Fashion', 'edit_date': '20250305', 'lat_lon_source': 'website'}",35.6860964805484,139.989424406664,ユナイテッドアローズ グリーンレーベル リラクシング 船橋店　※こちらは、ららぽーとTOKYO-BAY店です,{'opening_hours': {}},050-8893-4156,273-8530,0517,千葉県,https://store.united-arrows.co.jp/stores/map.html
千葉県千葉市中央区新千葉1-1-1 <br>ペリエ千葉 5F,UNITED ARROWS green label relaxing,関東,Japan,"{'brand': 'UNITED ARROWS green label relaxing', 'fascia': 'ユナイテッドアローズ グリーンレーベル リラクシング', 'category': 'Fashion', 'edit_date': '20250305', 'lat_lon_source': 'website'}",35.612435,140.114582,ユナイテッドアローズ グリーンレーベル リラクシング ペリエ千葉店,{'opening_hours': {}},043-202-0044,260-0031,0542,千葉県,https://store.united-arrows.co.jp/stores/map.html
千葉県船橋市本町7-1-1 <br>シャポー船橋 1F,UNITED ARROWS green label relaxing,関東,Japan,"{'brand': 'UNITED ARROWS green label relaxing', 'fascia': 'ユナイテッドアローズ グリーンレーベル リラクシング', 'category': 'Fashion', 'edit_date': '20250305', 'lat_lon_source': 'website'}",35.7017641588639,139.986018158356,ユナイテッドアローズ グリーンレーベル リラクシング ウィメンズストア シャポー船橋店,"{'opening_hours': {'Mon': '10:00-21:00', 'Tue': '10:00-21:00', 'Wed': '10:00-21:00', 'Thu': '10:00-21:00', 'Fri': '10:00-21:00', 'Sat': '10:00-21:00', 'Sun': '10:00-21:00'}}",047-460-0170,273-0005,2253,千葉県,https://store.united-arrows.co.jp/stores/map.html
神奈川県横浜市都筑区中川中央1-31-1<br>モザイクモール港北 1F,UNITED ARROWS green label relaxing,関東,Japan,"{'brand': 'UNITED ARROWS green label relaxing', 'fascia': 'ユナイテッドアローズ グリーンレーベル リラクシング', 'category': 'Fashion', 'edit_date': '20250305', 'lat_lon_source': 'website'}",35.5549860515209,139.578513342191,ユナイテッドアローズ グリーンレーベル リラクシング  モザイクモール港北店,"{'opening_hours': {'Mon': '10:00-20:00', 'Tue': '10:00-20:00', 'Wed': '10:00-20:00', 'Thu': '10:00-20:00', 'Fri': '10:00-20:00', 'Sat': '10:00-20:00', 'Sun': '10:00-20:00'}}",045-914-2929,224-0003,0511,神奈川県,https://store.united-arrows.co.jp/stores/map.html
神奈川県横浜市青葉区美しが丘1-1-2<br>たまプラーザ テラス ゲートプラザ 2F,UNITED ARROWS green label relaxing,関東,Japan,"{'brand': 'UNITED ARROWS green label relaxing', 'fascia': 'ユナイテッドアローズ グリーンレーベル リラクシング', 'category': 'Fashion', 'edit_date': '20250305', 'lat_lon_source': 'website'}",35.5778286031232,139.558564378913,ユナイテッドアローズ グリーンレーベル リラクシング たまプラーザテラス店,"{'opening_hours': {'Mon': '10:00-20:00', 'Tue': '10:00-20:00', 'Wed': '10:00-20:00', 'Thu': '10:00-20:00', 'Fri': '10:00-20:00', 'Sat': '10:00-20:00', 'Sun': '10:00-20:00'}}",050-8893-4158,225-8535,0512,神奈川県,https://store.united-arrows.co.jp/stores/map.html
神奈川県横浜市青葉区青葉台2-1-1 <br>青葉台東急スクエア South-2 1F,UNITED ARROWS green label relaxing,関東,Japan,"{'brand': 'UNITED ARROWS green label relaxing', 'fascia': 'ユナイテッドアローズ グリーンレーベル リラクシング', 'category': 'Fashion', 'edit_date': '20250305', 'lat_lon_source': 'website'}",35.5427490001133,139.517051689399,ユナイテッドアローズ グリーンレーベル リラクシング 青葉台東急スクエア店,"{'opening_hours': {'Mon': '10:00-21:00', 'Tue': '10:00-21:00', 'Wed': '10:00-21:00', 'Thu': '10:00-21:00', 'Fri': '10:00-21:00', 'Sat': '10:00-21:00', 'Sun': '10:00-21:00'}}",045-985-5030,227-8555,0519,神奈川県,https://store.united-arrows.co.jp/stores/map.html
神奈川県横浜市西区高島2-16-1<br>ルミネ横浜 5F,UNITED ARROWS green label relaxing,関東,Japan,"{'brand': 'UNITED ARROWS green label relaxing', 'fascia': 'ユナイテッドアローズ グリーンレーベル リラクシング', 'category': 'Fashion', 'edit_date': '20250305', 'lat_lon_source': 'website'}",35.465388,139.622808,ユナイテッドアローズ グリーンレーベル リラクシング ルミネ横浜店,{'opening_hours': {}},050-8893-4164,220-0011,0540,神奈川県,https://store.united-arrows.co.jp/stores/map.html
神奈川県横浜市西区みなとみらい3-5-1<br>マークイズみなとみらい2F,UNITED ARROWS green label relaxing,関東,Japan,"{'brand': 'UNITED ARROWS green label relaxing', 'fascia': 'ユナイテッドアローズ グリーンレーベル リラクシング', 'category': 'Fashion', 'edit_date': '20250305', 'lat_lon_source': 'website'}",35.4571100654205,139.632386315828,ユナイテッドアローズ グリーンレーベル リラクシング マークイズみなとみらい店,{'opening_hours': {}},045-228-3262,220-0012,0543,神奈川県,https://store.united-arrows.co.jp/stores/map.html
神奈川県川崎市幸区堀川町72-1 <br>ラゾーナ川崎プラザ 2F,UNITED ARROWS green label relaxing,関東,Japan,"{'brand': 'UNITED ARROWS green label relaxing', 'fascia': 'ユナイテッドアローズ グリーンレーベル リラクシング', 'category': 'Fashion', 'edit_date': '20250305', 'lat_lon_source': 'website'}",35.5328513273358,139.694884167903,ユナイテッドアローズ グリーンレーベル リラクシング  ラゾーナ川崎プラザ店,"{'opening_hours': {'Mon': '10:00-21:00', 'Tue': '10:00-21:00', 'Wed': '10:00-21:00', 'Thu': '10:00-21:00', 'Fri': '10:00-21:00', 'Sat': '10:00-21:00', 'Sun': '10:00-21:00'}}",044-520-0223,212-8576,0544,神奈川県,https://store.united-arrows.co.jp/stores/map.html
神奈川県横浜市都筑区池辺町4035-1<br>ららぽ-と横浜 1F #13010,UNITED ARROWS green label relaxing,関東,Japan,"{'brand': 'UNITED ARROWS green label relaxing', 'fascia': 'ユナイテッドアローズ グリーンレーベル リラクシング', 'category': 'Fashion', 'edit_date': '20250305', 'lat_lon_source': 'website'}",35.517632168227,139.565875461168,ユナイテッドアローズ グリーンレーベル リラクシング ららぽーと横浜店,"{'opening_hours': {'Mon': '10:00-21:00', 'Tue': '10:00-21:00', 'Wed': '10:00-21:00', 'Thu': '10:00-21:00', 'Fri': '10:00-21:00', 'Sat': '10:00-21:00', 'Sun': '10:00-21:00'}}",045-929-2389,224-0053,0545,神奈川県,https://store.united-arrows.co.jp/stores/map.html
神奈川県藤沢市辻堂神台1-3-1<br>テラスモール湘南 2F,UNITED ARROWS green label relaxing,関東,Japan,"{'brand': 'UNITED ARROWS green label relaxing', 'fascia': 'ユナイテッドアローズ グリーンレーベル リラクシング', 'category': 'Fashion', 'edit_date': '20250305', 'lat_lon_source': 'website'}",35.3383693176492,139.446680716404,ユナイテッドアローズ グリーンレーベル リラクシング テラスモール湘南店,"{'opening_hours': {'Mon': '10:00-21:00', 'Tue': '10:00-21:00', 'Wed': '10:00-21:00', 'Thu': '10:00-21:00', 'Fri': '10:00-21:00', 'Sat': '10:00-21:00', 'Sun': '10:00-21:00'}}",050-8893-4166,251-0041,0546,神奈川県,https://store.united-arrows.co.jp/stores/map.html
神奈川県鎌倉市大船1-4-1 <br>大船ルミネウィング 3F,UNITED ARROWS green label relaxing,関東,Japan,"{'brand': 'UNITED ARROWS green label relaxing', 'fascia': 'ユナイテッドアローズ グリーンレーベル リラクシング', 'category': 'Fashion', 'edit_date': '20250305', 'lat_lon_source': 'website'}",35.35275,139.531458,ユナイテッドアローズ グリーンレーベル リラクシング  大船ルミネウィング店,{'opening_hours': {}},050-8893-4170,247-0056,0560,神奈川県,https://store.united-arrows.co.jp/stores/map.html
神奈川県川崎市中原区新丸子東3-1302 <br>ららテラス 武蔵小杉 2F,UNITED ARROWS green label relaxing,関東,Japan,"{'brand': 'UNITED ARROWS green label relaxing', 'fascia': 'ユナイテッドアローズ グリーンレーベル リラクシング', 'category': 'Fashion', 'edit_date': '20250305', 'lat_lon_source': 'website'}",35.5751590068787,139.660083614539,ユナイテッドアローズ グリーンレーベル リラクシング  武蔵小杉店,"{'opening_hours': {'Mon': '10:00-21:00', 'Tue': '10:00-21:00', 'Wed': '10:00-21:00', 'Thu': '10:00-21:00', 'Fri': '10:00-21:00', 'Sat': '10:00-21:00', 'Sun': '10:00-21:00'}}",044-430-1571,211-0004,0561,神奈川県,https://store.united-arrows.co.jp/stores/map.html
神奈川県海老名市扇町13-1 <br>ららぽーと海老名 2F,UNITED ARROWS green label relaxing,関東,Japan,"{'brand': 'UNITED ARROWS green label relaxing', 'fascia': 'ユナイテッドアローズ グリーンレーベル リラクシング', 'category': 'Fashion', 'edit_date': '20250305', 'lat_lon_source': 'website'}",35.4556950340794,139.389077414649,ユナイテッドアローズ グリーンレーベル リラクシング ららぽーと海老名店,"{'opening_hours': {'Mon': '10:00-21:00', 'Tue': '10:00-21:00', 'Wed': '10:00-21:00', 'Thu': '10:00-21:00', 'Fri': '10:00-21:00', 'Sat': '10:00-21:00', 'Sun': '10:00-21:00'}}",046-292-3931,243-0482,0563,神奈川県,https://store.united-arrows.co.jp/stores/map.html
神奈川県横浜市港南区上大岡西1-6-1<br>ウィング上大岡 3F,UNITED ARROWS green label relaxing,関東,Japan,"{'brand': 'UNITED ARROWS green label relaxing', 'fascia': 'ユナイテッドアローズ グリーンレーベル リラクシング', 'category': 'Fashion', 'edit_date': '20250305', 'lat_lon_source': 'website'}",35.408101,139.596055,ユナイテッドアローズ グリーンレーベル リラクシング ウィング上大岡店,"{'opening_hours': {'Mon': '10:00-20:00', 'Tue': '10:00-20:00', 'Wed': '10:00-20:00', 'Thu': '10:00-20:00', 'Fri': '10:00-20:00', 'Sat': '10:00-20:00', 'Sun': '10:00-20:00'}}",045-840-2021,233-8555,0564,神奈川県,https://store.united-arrows.co.jp/stores/map.html
神奈川県横浜市泉区ゆめが丘31 ゆめが丘ソラトス 1 2F,UNITED ARROWS green label relaxing,関東,Japan,"{'brand': 'UNITED ARROWS green label relaxing', 'fascia': 'ユナイテッドアローズ グリーンレーベル リラクシング', 'category': 'Fashion', 'edit_date': '20250305', 'lat_lon_source': 'website'}",35.4054909313514,139.48297565326,ユナイテッドアローズ グリーンレーベル リラクシング ゆめが丘ソラトス店,"{'opening_hours': {'Mon': '10:00-20:00', 'Tue': '10:00-20:00', 'Wed': '10:00-20:00', 'Thu': '10:00-20:00', 'Fri': '10:00-20:00', 'Sat': '10:00-20:00', 'Sun': '10:00-20:00'}}",045-719-5401,245-0019,2210,神奈川県,https://store.united-arrows.co.jp/stores/map.html
神奈川県川崎市川崎区駅前本町26-1 <br>アトレ川崎 1F,UNITED ARROWS green label relaxing,関東,Japan,"{'brand': 'UNITED ARROWS green label relaxing', 'fascia': 'ユナイテッドアローズ グリーンレーベル リラクシング', 'category': 'Fashion', 'edit_date': '20250305', 'lat_lon_source': 'website'}",35.5310930574232,139.698005855633,ユナイテッドアローズ グリーンレーベル リラクシング ウィメンズストア アトレ川崎店,"{'opening_hours': {'Mon': '10:00-21:00', 'Tue': '10:00-21:00', 'Wed': '10:00-21:00', 'Thu': '10:00-21:00', 'Fri': '10:00-21:00', 'Sat': '10:00-21:00', 'Sun': '10:00-21:00'}}",044-221-8177,210-0007,2250,神奈川県,https://store.united-arrows.co.jp/stores/map.html
北海道札幌市中央区北5条西2・3丁目<br>札幌ステラプレイス イースト B1F,UNITED ARROWS green label relaxing,北海道・東北,Japan,"{'brand': 'UNITED ARROWS green label relaxing', 'fascia': 'ユナイテッドアローズ グリーンレーベル リラクシング', 'category': 'Fashion', 'edit_date': '20250305', 'lat_lon_source': 'website'}",43.0679838757444,141.351882397565,ユナイテッドアローズ グリーンレーベル リラクシング 札幌ステラプレイス店,"{'opening_hours': {'Mon': '10:00-21:00', 'Tue': '10:00-21:00', 'Wed': '10:00-21:00', 'Thu': '10:00-21:00', 'Fri': '10:00-21:00', 'Sat': '10:00-21:00', 'Sun': '10:00-21:00'}}",050-8889-0145,060-0005,0570,北海道,https://store.united-arrows.co.jp/stores/map.html
青森県五所川原市大字唐笠柳字藤巻517-1 エルム 1F,UNITED ARROWS green label relaxing,北海道・東北,Japan,"{'brand': 'UNITED ARROWS green label relaxing', 'fascia': 'ユナイテッドアローズ グリーンレーベル リラクシング', 'category': 'Fashion', 'edit_date': '20250305', 'lat_lon_source': 'website'}",40.7983652719552,140.453907503067,ユナイテッドアローズ グリーンレーベル リラクシング 青森ELM店,"{'opening_hours': {'Mon': '10:00-20:00', 'Tue': '10:00-20:00', 'Wed': '10:00-20:00', 'Thu': '10:00-20:00', 'Fri': '10:00-20:00', 'Sat': '10:00-20:00', 'Sun': '10:00-20:00'}}",,037-0004,0577,青森県,https://store.united-arrows.co.jp/stores/map.html
岩手県盛岡市盛岡駅前通1-44 <br>フェザン 2F,UNITED ARROWS green label relaxing,北海道・東北,Japan,"{'brand': 'UNITED ARROWS green label relaxing', 'fascia': 'ユナイテッドアローズ グリーンレーベル リラクシング', 'category': 'Fashion', 'edit_date': '20250305', 'lat_lon_source': 'website'}",39.702778134857,141.135560666832,ユナイテッドアローズ グリーンレーベル リラクシング 盛岡フェザン店,"{'opening_hours': {'Mon': '10:00-20:00', 'Tue': '10:00-20:00', 'Wed': '10:00-20:00', 'Thu': '10:00-20:00', 'Fri': '10:00-20:00', 'Sat': '10:00-20:00', 'Sun': '10:00-20:00'}}",019-624-8909,020-0034,0574,岩手県,https://store.united-arrows.co.jp/stores/map.html
宮城県仙台市青葉区中央1-1-1 <br>エスパル仙台東館 3F,UNITED ARROWS green label relaxing,北海道・東北,Japan,"{'brand': 'UNITED ARROWS green label relaxing', 'fascia': 'ユナイテッドアローズ グリーンレーベル リラクシング', 'category': 'Fashion', 'edit_date': '20250305', 'lat_lon_source': 'website'}",38.2595878631319,140.882373217545,ユナイテッドアローズ グリーンレーベル リラクシング エスパル仙台店,"{'opening_hours': {'Mon': '10:00-21:00', 'Tue': '10:00-21:00', 'Wed': '10:00-21:00', 'Thu': '10:00-21:00', 'Fri': '10:00-21:00', 'Sat': '10:00-21:00', 'Sun': '10:00-21:00'}}",022-791-2131,980-8487,0571,宮城県,https://store.united-arrows.co.jp/stores/map.html
新潟県新潟市中央区万代1-4-8 ラブラ2 2F,UNITED ARROWS green label relaxing,北陸・東海,Japan,"{'brand': 'UNITED ARROWS green label relaxing', 'fascia': 'ユナイテッドアローズ グリーンレーベル リラクシング', 'category': 'Fashion', 'edit_date': '20250305', 'lat_lon_source': 'website'}",37.916631,139.056808,ユナイテッドアローズ グリーンレーベル リラクシング ラブラ2新潟店,"{'opening_hours': {'Mon': '10:00-20:00', 'Tue': '10:00-20:00', 'Wed': '10:00-20:00', 'Thu': '10:00-20:00', 'Fri': '10:00-20:00', 'Sat': '10:00-20:00', 'Sun': '10:00-20:00'}}",025-290-5802,950-0088,0572,新潟県,https://store.united-arrows.co.jp/stores/map.html
石川県金沢市堀川新町3-1<br>金沢フォーラス 2F,UNITED ARROWS green label relaxing,北陸・東海,Japan,"{'brand': 'UNITED ARROWS green label relaxing', 'fascia': 'ユナイテッドアローズ グリーンレーベル リラクシング', 'category': 'Fashion', 'edit_date': '20250305', 'lat_lon_source': 'website'}",36.5788460118647,136.649150673409,ユナイテッドアローズ グリーンレーベル リラクシング 金沢フォーラス店,"{'opening_hours': {'Mon': '10:00-21:00', 'Tue': '10:00-21:00', 'Wed': '10:00-21:00', 'Thu': '10:00-21:00', 'Fri': '10:00-21:00', 'Sat': '10:00-21:00', 'Sun': '10:00-21:00'}}",076-231-8621,920-0849,0582,石川県,https://store.united-arrows.co.jp/stores/map.html
長野県長野市南千歳1-22-6 <br>MIDORI長野 2F,UNITED ARROWS green label relaxing,北陸・東海,Japan,"{'brand': 'UNITED ARROWS green label relaxing', 'fascia': 'ユナイテッドアローズ グリーンレーベル リラクシング', 'category': 'Fashion', 'edit_date': '20250305', 'lat_lon_source': 'website'}",36.6433043533301,138.188428115281,ユナイテッドアローズ グリーンレーベル リラクシング 長野店,"{'opening_hours': {'Mon': '10:00-20:00', 'Tue': '10:00-20:00', 'Wed': '10:00-20:00', 'Thu': '10:00-20:00', 'Fri': '10:00-20:00', 'Sat': '10:00-20:00', 'Sun': '10:00-20:00'}}",050-8893-4172,380-8543,0573,長野県,https://store.united-arrows.co.jp/stores/map.html
静岡県静岡市葵区黒金町49<br>パルシェ1F,UNITED ARROWS green label relaxing,北陸・東海,Japan,"{'brand': 'UNITED ARROWS green label relaxing', 'fascia': 'ユナイテッドアローズ グリーンレーベル リラクシング', 'category': 'Fashion', 'edit_date': '20250305', 'lat_lon_source': 'website'}",34.972143364369,138.388740367284,ユナイテッドアローズ グリーンレーベル リラクシング ウィメンズストア 静岡パルシェ店,"{'opening_hours': {'Mon': '10:00-20:00', 'Tue': '10:00-20:00', 'Wed': '10:00-20:00', 'Thu': '10:00-20:00', 'Fri': '10:00-20:00', 'Sat': '10:00-20:00', 'Sun': '10:00-20:00'}}",054-275-0663,420-0851,0581,静岡県,https://store.united-arrows.co.jp/stores/map.html
静岡県静岡市葵区鷹匠1-1-1<br>新静岡セノバ 2F,UNITED ARROWS green label relaxing,北陸・東海,Japan,"{'brand': 'UNITED ARROWS green label relaxing', 'fascia': 'ユナイテッドアローズ グリーンレーベル リラクシング', 'category': 'Fashion', 'edit_date': '20250305', 'lat_lon_source': 'website'}",34.9756036507719,138.386355202244,ユナイテッドアローズ グリーンレーベル リラクシング 新静岡セノバ店,"{'opening_hours': {'Mon': '10:00-20:00', 'Tue': '10:00-20:00', 'Wed': '10:00-20:00', 'Thu': '10:00-20:00', 'Fri': '10:00-20:00', 'Sat': '10:00-20:00', 'Sun': '10:00-20:00'}}",050-8893-4189,420-8508,0584,静岡県,https://store.united-arrows.co.jp/stores/map.html
静岡県浜松市中央区砂山町6-1 <br>メイワン 1F,UNITED ARROWS green label relaxing,北陸・東海,Japan,"{'brand': 'UNITED ARROWS green label relaxing', 'fascia': 'ユナイテッドアローズ グリーンレーベル リラクシング', 'category': 'Fashion', 'edit_date': '20250305', 'lat_lon_source': 'website'}",34.7042194161524,137.734449988024,ユナイテッドアローズ グリーンレーベル リラクシング 浜松メイワン店,"{'opening_hours': {'Mon': '10:00-20:00', 'Tue': '10:00-20:00', 'Wed': '10:00-20:00', 'Thu': '10:00-20:00', 'Fri': '10:00-20:00', 'Sat': '10:00-20:00', 'Sun': '10:00-20:00'}}",050-8893-4191,430-0926,0585,静岡県,https://store.united-arrows.co.jp/stores/map.html
愛知県愛知郡東郷町 東郷中央土地区画整理事業 62街区1・3 <br>ららぽーと愛知東郷 1F,UNITED ARROWS green label relaxing,北陸・東海,Japan,"{'brand': 'UNITED ARROWS green label relaxing', 'fascia': 'ユナイテッドアローズ グリーンレーベル リラクシング', 'category': 'Fashion', 'edit_date': '20250305', 'lat_lon_source': 'website'}",35.099035,137.046656,ユナイテッドアローズ グリーンレーベル リラクシング ららぽーと愛知東郷店,"{'opening_hours': {'Mon': '10:00-21:00', 'Tue': '10:00-21:00', 'Wed': '10:00-21:00', 'Thu': '10:00-21:00', 'Fri': '10:00-21:00', 'Sat': '10:00-21:00', 'Sun': '10:00-21:00'}}",,470-0186,0567,愛知県,https://store.united-arrows.co.jp/stores/map.html
愛知県名古屋市中区栄3-6-1 <br>ラシック 4F,UNITED ARROWS green label relaxing,北陸・東海,Japan,"{'brand': 'UNITED ARROWS green label relaxing', 'fascia': 'ユナイテッドアローズ グリーンレーベル リラクシング', 'category': 'Fashion', 'edit_date': '20250305', 'lat_lon_source': 'website'}",35.1675047322279,136.907383661156,ユナイテッドアローズ グリーンレーベル リラクシング 名古屋ラシック店,"{'opening_hours': {'Mon': '11:00-21:00', 'Tue': '11:00-21:00', 'Wed': '11:00-21:00', 'Thu': '11:00-21:00', 'Fri': '11:00-21:00', 'Sat': '11:00-21:00', 'Sun': '11:00-21:00'}}",050-8893-4153,460-0008,0580,愛知県,https://store.united-arrows.co.jp/stores/map.html
愛知県名古屋市千種区星が丘元町16-50<br>星が丘テラス EAST 1・2F,UNITED ARROWS green label relaxing,北陸・東海,Japan,"{'brand': 'UNITED ARROWS green label relaxing', 'fascia': 'ユナイテッドアローズ グリーンレーベル リラクシング', 'category': 'Fashion', 'edit_date': '20250305', 'lat_lon_source': 'website'}",35.161057,136.985472,ユナイテッドアローズ グリーンレーベル リラクシング 星が丘テラス店,"{'opening_hours': {'Mon': '10:00-20:00', 'Tue': '10:00-20:00', 'Wed': '10:00-20:00', 'Thu': '10:00-20:00', 'Fri': '10:00-20:00', 'Sat': '10:00-20:00', 'Sun': '10:00-20:00'}}",052-789-0851,464-0802,0583,愛知県,https://store.united-arrows.co.jp/stores/map.html
愛知県名古屋市中村区名駅1-1-3 <br>タカシマヤ ゲートタワーモール 6F,UNITED ARROWS green label relaxing,北陸・東海,Japan,"{'brand': 'UNITED ARROWS green label relaxing', 'fascia': 'ユナイテッドアローズ グリーンレーベル リラクシング', 'category': 'Fashion', 'edit_date': '20250305', 'lat_lon_source': 'website'}",35.1719463181382,136.882614015091,ユナイテッドアローズ グリーンレーベル リラクシング 名古屋タカシマヤ ゲートタワーモール店,"{'opening_hours': {'Mon': '10:00-21:00', 'Tue': '10:00-21:00', 'Wed': '10:00-21:00', 'Thu': '10:00-21:00', 'Fri': '10:00-21:00', 'Sat': '10:00-21:00', 'Sun': '10:00-21:00'}}",052-589-2156,450-6606,0586,愛知県,https://store.united-arrows.co.jp/stores/map.html
京都府京都市南区西九条鳥居口町1番地<br>イオンモールKYOTO 2F,UNITED ARROWS green label relaxing,関西,Japan,"{'brand': 'UNITED ARROWS green label relaxing', 'fascia': 'ユナイテッドアローズ グリーンレーベル リラクシング', 'category': 'Fashion', 'edit_date': '20250305', 'lat_lon_source': 'website'}",34.9824965545405,135.754993592963,ユナイテッドアローズ グリーンレーベル リラクシング 京都店,{'opening_hours': {}},050-8893-4202,601-8417,0551,京都府,https://store.united-arrows.co.jp/stores/map.html
京都府京都市下京区烏丸通塩小路下る東塩小路町902番地 <br/>京都駅前地下街ポルタ,UNITED ARROWS green label relaxing,関西,Japan,"{'brand': 'UNITED ARROWS green label relaxing', 'fascia': 'ユナイテッドアローズ グリーンレーベル リラクシング', 'category': 'Fashion', 'edit_date': '20250305', 'lat_lon_source': 'website'}",34.9864626366805,135.758625999309,ユナイテッドアローズ グリーンレーベル リラクシング ウィメンズストア 京都駅前地下街ポルタ店,{'opening_hours': {}},075-354-7210,600-8216,2254,京都府,https://store.united-arrows.co.jp/stores/map.html
大阪府大阪市北区大深町4-20 <br>グランフロント大阪 ショップ＆レストラン 南館 3F,UNITED ARROWS green label relaxing,関西,Japan,"{'brand': 'UNITED ARROWS green label relaxing', 'fascia': 'ユナイテッドアローズ グリーンレーベル リラクシング', 'category': 'Fashion', 'edit_date': '20250305', 'lat_lon_source': 'website'}",34.7041061689353,135.495229218812,ユナイテッドアローズ グリーンレーベル リラクシング  グランフロント大阪店,"{'opening_hours': {'Mon': '10:00-21:00', 'Tue': '10:00-21:00', 'Wed': '10:00-21:00', 'Thu': '10:00-21:00', 'Fri': '10:00-21:00', 'Sat': '10:00-21:00', 'Sun': '10:00-21:00'}}",06-6359-1303,530-0011,0550,大阪府,https://store.united-arrows.co.jp/stores/map.html
大阪府大阪市浪速区難波中2-10-70<br>なんばパークス 3F,UNITED ARROWS green label relaxing,関西,Japan,"{'brand': 'UNITED ARROWS green label relaxing', 'fascia': 'ユナイテッドアローズ グリーンレーベル リラクシング', 'category': 'Fashion', 'edit_date': '20250305', 'lat_lon_source': 'website'}",34.6616005512905,135.501841019409,ユナイテッドアローズ グリーンレーベル リラクシング なんばパークス店,{'opening_hours': {}},06-6634-1265,556-0011,0552,大阪府,https://store.united-arrows.co.jp/stores/map.html
大阪府大阪市北区芝田1-1-3 <br>阪急三番街 南館 B1F,UNITED ARROWS green label relaxing,関西,Japan,"{'brand': 'UNITED ARROWS green label relaxing', 'fascia': 'ユナイテッドアローズ グリーンレーベル リラクシング', 'category': 'Fashion', 'edit_date': '20250305', 'lat_lon_source': 'website'}",34.7048442207399,135.498452296723,ユナイテッドアローズ グリーンレーベル リラクシング  阪急三番街店,"{'opening_hours': {'Mon': '10:00-21:00', 'Tue': '10:00-21:00', 'Wed': '10:00-21:00', 'Thu': '10:00-21:00', 'Fri': '10:00-21:00', 'Sat': '10:00-21:00', 'Sun': '10:00-21:00'}}",050-8893-4203,530-0012,0553,大阪府,https://store.united-arrows.co.jp/stores/map.html
大阪府枚方市楠葉花園町15-1 <br>くずはモール本館 ハナノモール 1F,UNITED ARROWS green label relaxing,関西,Japan,"{'brand': 'UNITED ARROWS green label relaxing', 'fascia': 'ユナイテッドアローズ グリーンレーベル リラクシング', 'category': 'Fashion', 'edit_date': '20250305', 'lat_lon_source': 'website'}",34.862218,135.67649,ユナイテッドアローズ グリーンレーベル リラクシング くずはモール店,"{'opening_hours': {'Mon': '10:00-21:00', 'Tue': '10:00-21:00', 'Wed': '10:00-21:00', 'Thu': '10:00-21:00', 'Fri': '10:00-21:00', 'Sat': '10:00-21:00', 'Sun': '10:00-21:00'}}",072-864-5360,573-1121,0554,大阪府,https://store.united-arrows.co.jp/stores/map.html
大阪府大阪市阿倍野区阿倍野筋1-6-1 <br>あべのキューズモール 2F,UNITED ARROWS green label relaxing,関西,Japan,"{'brand': 'UNITED ARROWS green label relaxing', 'fascia': 'ユナイテッドアローズ グリーンレーベル リラクシング', 'category': 'Fashion', 'edit_date': '20250305', 'lat_lon_source': 'website'}",34.6451313716716,135.511292614512,ユナイテッドアローズ グリーンレーベル リラクシング あべのキューズモール店,"{'opening_hours': {'Mon': '10:00-21:00', 'Tue': '10:00-21:00', 'Wed': '10:00-21:00', 'Thu': '10:00-21:00', 'Fri': '10:00-21:00', 'Sat': '10:00-21:00', 'Sun': '10:00-21:00'}}",06-4396-6180,545-0052,0555,大阪府,https://store.united-arrows.co.jp/stores/map.html
大阪府和泉市あゆみ野4-4-7 <br>ららぽーと和泉 3F 34100,UNITED ARROWS green label relaxing,関西,Japan,"{'brand': 'UNITED ARROWS green label relaxing', 'fascia': 'ユナイテッドアローズ グリーンレーベル リラクシング', 'category': 'Fashion', 'edit_date': '20250305', 'lat_lon_source': 'website'}",34.4370500645518,135.447797132297,ユナイテッドアローズ グリーンレーベル リラクシング ららぽーと和泉店,"{'opening_hours': {'Mon': '10:00-21:00', 'Tue': '10:00-21:00', 'Wed': '10:00-21:00', 'Thu': '10:00-21:00', 'Fri': '10:00-21:00', 'Sat': '10:00-21:00', 'Sun': '10:00-21:00'}}",,594-1157,0565,大阪府,https://store.united-arrows.co.jp/stores/map.html
大阪府吹田市千里万博公園2-1 ららぽーとEXPOCITY 1F 10450,UNITED ARROWS green label relaxing,関西,Japan,"{'brand': 'UNITED ARROWS green label relaxing', 'fascia': 'ユナイテッドアローズ グリーンレーベル リラクシング', 'category': 'Fashion', 'edit_date': '20250305', 'lat_lon_source': 'website'}",34.8052365901899,135.534980958001,ユナイテッドアローズ グリーンレーベル リラクシング ららぽーとEXPOCITY店,"{'opening_hours': {'Mon': '10:00-21:00', 'Tue': '10:00-21:00', 'Wed': '10:00-21:00', 'Thu': '10:00-21:00', 'Fri': '10:00-21:00', 'Sat': '10:00-21:00', 'Sun': '10:00-21:00'}}",06-4864-8306,565-0826,0566,大阪府,https://store.united-arrows.co.jp/stores/map.html
"兵庫県西宮市高松町14-2-210<br>阪急西宮ガーデンズ 2F<br><br><font color=""red"">※ 改装に伴い、2025年1月16日(木)から3Fウェルカムガーデンにて仮店舗営業いたします</font>",UNITED ARROWS green label relaxing,関西,Japan,"{'brand': 'UNITED ARROWS green label relaxing', 'fascia': 'ユナイテッドアローズ グリーンレーベル リラクシング', 'category': 'Fashion', 'edit_date': '20250305', 'lat_lon_source': 'website'}",34.7446615868125,135.359551227385,ユナイテッドアローズ グリーンレーベル リラクシング 西宮ガーデンズ店,"{'opening_hours': {'Mon': '10:00-21:00', 'Tue': '10:00-21:00', 'Wed': '10:00-21:00', 'Thu': '10:00-21:00', 'Fri': '10:00-21:00', 'Sat': '10:00-21:00', 'Sun': '10:00-21:00'}}",,663-8204,0556,兵庫県,https://store.united-arrows.co.jp/stores/map.html
兵庫県姫路市駅前町188-1 <br>ピオレ姫路 1F,UNITED ARROWS green label relaxing,関西,Japan,"{'brand': 'UNITED ARROWS green label relaxing', 'fascia': 'ユナイテッドアローズ グリーンレーベル リラクシング', 'category': 'Fashion', 'edit_date': '20250305', 'lat_lon_source': 'website'}",34.8274348151499,134.690980078936,ユナイテッドアローズ グリーンレーベル リラクシング ピオレ姫路店,"{'opening_hours': {'Mon': '10:00-20:00', 'Tue': '10:00-20:00', 'Wed': '10:00-20:00', 'Thu': '10:00-20:00', 'Fri': '10:00-20:00', 'Sat': '10:00-20:00', 'Sun': '10:00-20:00'}}",050-8893-4208,670-0927,0558,兵庫県,https://store.united-arrows.co.jp/stores/map.html
岡山県岡山市北区駅元町一番街地下2号 岡山一番街,UNITED ARROWS green label relaxing,中国・四国・九州,Japan,"{'brand': 'UNITED ARROWS green label relaxing', 'fascia': 'ユナイテッドアローズ グリーンレーベル リラクシング', 'category': 'Fashion', 'edit_date': '20250305', 'lat_lon_source': 'website'}",34.665323109883,133.918946637821,ユナイテッドアローズ グリーンレーベル リラクシング 岡山一番街店,"{'opening_hours': {'Mon': '10:00-20:00', 'Tue': '10:00-20:00', 'Wed': '10:00-20:00', 'Thu': '10:00-20:00', 'Fri': '10:00-20:00', 'Sat': '10:00-20:00', 'Sun': '10:00-20:00'}}",050-8893-1926,700-0024,0593,岡山県,https://store.united-arrows.co.jp/stores/map.html
広島県福山市三之丸町30-1<br>サンステーションテラス福山 1Ｆ,UNITED ARROWS green label relaxing,中国・四国・九州,Japan,"{'brand': 'UNITED ARROWS green label relaxing', 'fascia': 'ユナイテッドアローズ グリーンレーベル リラクシング', 'category': 'Fashion', 'edit_date': '20250305', 'lat_lon_source': 'website'}",34.489213709844,133.362782385699,ユナイテッドアローズ グリーンレーベル リラクシング サンステーションテラス福山店,"{'opening_hours': {'Mon': '10:00-20:00', 'Tue': '10:00-20:00', 'Wed': '10:00-20:00', 'Thu': '10:00-20:00', 'Fri': '10:00-20:00', 'Sat': '10:00-20:00', 'Sun': '10:00-20:00'}}",084-973-3900,720-0066,0587,広島県,https://store.united-arrows.co.jp/stores/map.html
広島県広島市中区新天地2-1 <br>広島パルコ 新館 4F,UNITED ARROWS green label relaxing,中国・四国・九州,Japan,"{'brand': 'UNITED ARROWS green label relaxing', 'fascia': 'ユナイテッドアローズ グリーンレーベル リラクシング', 'category': 'Fashion', 'edit_date': '20250305', 'lat_lon_source': 'website'}",34.3920039131348,132.462668625548,ユナイテッドアローズ グリーンレーベル リラクシング 広島パルコ店,{'opening_hours': {}},082-545-8750,730-0034,0595,広島県,https://store.united-arrows.co.jp/stores/map.html
香川県高松市丸亀町8-23<br>丸亀町グリーン 東館1F,UNITED ARROWS green label relaxing,中国・四国・九州,Japan,"{'brand': 'UNITED ARROWS green label relaxing', 'fascia': 'ユナイテッドアローズ グリーンレーベル リラクシング', 'category': 'Fashion', 'edit_date': '20250305', 'lat_lon_source': 'website'}",34.3419816709721,134.049792273398,ユナイテッドアローズ グリーンレーベル リラクシング 高松店,"{'opening_hours': {'Mon': '11:00-20:00', 'Tue': '11:00-20:00', 'Wed': '11:00-20:00', 'Thu': '11:00-20:00', 'Fri': '11:00-20:00', 'Sat': '11:00-20:00', 'Sun': '11:00-20:00'}}",050-8893-4216,760-0029,0588,香川県,https://store.united-arrows.co.jp/stores/map.html
愛媛県伊予郡松前町筒井 850 <br>エミフル MASAKI 1F,UNITED ARROWS green label relaxing,中国・四国・九州,Japan,"{'brand': 'UNITED ARROWS green label relaxing', 'fascia': 'ユナイテッドアローズ グリーンレーベル リラクシング', 'category': 'Fashion', 'edit_date': '20250305', 'lat_lon_source': 'website'}",33.7901427141511,132.716270221219,ユナイテッドアローズ グリーンレーベル リラクシング 松山エミフルMASAKI店,"{'opening_hours': {'Mon': '10:00-21:00', 'Tue': '10:00-21:00', 'Wed': '10:00-21:00', 'Thu': '10:00-21:00', 'Fri': '10:00-21:00', 'Sat': '10:00-21:00', 'Sun': '10:00-21:00'}}",089-961-7080,791-3120,0589,愛媛県,https://store.united-arrows.co.jp/stores/map.html
福岡県福岡市博多区博多駅中央街1-1 <br>アミュプラザ博多 6F,UNITED ARROWS green label relaxing,中国・四国・九州,Japan,"{'brand': 'UNITED ARROWS green label relaxing', 'fascia': 'ユナイテッドアローズ グリーンレーベル リラクシング', 'category': 'Fashion', 'edit_date': '20250305', 'lat_lon_source': 'website'}",33.590545,130.419924,ユナイテッドアローズ グリーンレーベル リラクシング アミュプラザ博多店,"{'opening_hours': {'Mon': '10:00-20:00', 'Tue': '10:00-20:00', 'Wed': '10:00-20:00', 'Thu': '10:00-20:00', 'Fri': '10:00-20:00', 'Sat': '10:00-20:00', 'Sun': '10:00-20:00'}}",092-413-5362,812-0012,0590,福岡県,https://store.united-arrows.co.jp/stores/map.html
福岡県北九州市小倉北区浅野1-1-1<br>アミュプラザ小倉 東館 3F,UNITED ARROWS green label relaxing,中国・四国・九州,Japan,"{'brand': 'UNITED ARROWS green label relaxing', 'fascia': 'ユナイテッドアローズ グリーンレーベル リラクシング', 'category': 'Fashion', 'edit_date': '20250305', 'lat_lon_source': 'website'}",33.886783051997,130.882848471075,ユナイテッドアローズ グリーンレーベル リラクシング  アミュプラザ小倉店,{'opening_hours': {}},050-8893-4181,802-0001,0591,福岡県,https://store.united-arrows.co.jp/stores/map.html
福岡県福岡市博多区那珂6-23-1 ららぽーと福岡 2F,UNITED ARROWS green label relaxing,中国・四国・九州,Japan,"{'brand': 'UNITED ARROWS green label relaxing', 'fascia': 'ユナイテッドアローズ グリーンレーベル リラクシング', 'category': 'Fashion', 'edit_date': '20250305', 'lat_lon_source': 'website'}",33.5652842079603,130.440355108977,ユナイテッドアローズ グリーンレーベル リラクシング ららぽーと福岡店,{'opening_hours': {}},092-588-2030,812-0893,0598,福岡県,https://store.united-arrows.co.jp/stores/map.html
長崎県長崎市尾上町1-1<br>アミュプラザ長崎 本館 2F,UNITED ARROWS green label relaxing,中国・四国・九州,Japan,"{'brand': 'UNITED ARROWS green label relaxing', 'fascia': 'ユナイテッドアローズ グリーンレーベル リラクシング', 'category': 'Fashion', 'edit_date': '20250305', 'lat_lon_source': 'website'}",32.751674,129.870889,ユナイテッドアローズ グリーンレーベル リラクシング  アミュプラザ長崎店,"{'opening_hours': {'Mon': '10:00-21:00', 'Tue': '10:00-21:00', 'Wed': '10:00-21:00', 'Thu': '10:00-21:00', 'Fri': '10:00-21:00', 'Sat': '10:00-21:00', 'Sun': '10:00-21:00'}}",095-818-7270,850-0058,0597,長崎県,https://store.united-arrows.co.jp/stores/map.html
熊本県熊本市中央区上通町2-2 <br>鶴屋New-S 1F,UNITED ARROWS green label relaxing,中国・四国・九州,Japan,"{'brand': 'UNITED ARROWS green label relaxing', 'fascia': 'ユナイテッドアローズ グリーンレーベル リラクシング', 'category': 'Fashion', 'edit_date': '20250305', 'lat_lon_source': 'website'}",32.803407,130.711086,ユナイテッドアローズ　グリーンレーベル リラクシング 熊本鶴屋New-S店,"{'opening_hours': {'Mon': '10:30-20:00', 'Tue': '10:30-20:00', 'Wed': '10:30-20:00', 'Thu': '10:30-20:00', 'Fri': '10:30-20:00', 'Sat': '10:30-20:00', 'Sun': '10:30-20:00'}}",096-312-6201,860-0845,0592,熊本県,https://store.united-arrows.co.jp/stores/map.html
大分県大分市要町1番14号<br>アミュプラザおおいた2F,UNITED ARROWS green label relaxing,中国・四国・九州,Japan,"{'brand': 'UNITED ARROWS green label relaxing', 'fascia': 'ユナイテッドアローズ グリーンレーベル リラクシング', 'category': 'Fashion', 'edit_date': '20250305', 'lat_lon_source': 'website'}",33.2330575311337,131.60761010772,ユナイテッドアローズ グリーンレーベル リラクシング アミュプラザおおいた店,{'opening_hours': {}},097-513-2880,870-0831,0594,大分県,https://store.united-arrows.co.jp/stores/map.html
鹿児島県鹿児島市中央町1-1<br>アミュプラザ鹿児島 プレミアム館3F,UNITED ARROWS green label relaxing,中国・四国・九州,Japan,"{'brand': 'UNITED ARROWS green label relaxing', 'fascia': 'ユナイテッドアローズ グリーンレーベル リラクシング', 'category': 'Fashion', 'edit_date': '20250305', 'lat_lon_source': 'website'}",31.58464,130.54264,ユナイテッドアローズ グリーンレーベル リラクシング  アミュプラザ鹿児島店,{'opening_hours': {}},050-8893-4177,890-0053,0596,鹿児島県,https://store.united-arrows.co.jp/stores/map.html
台北市信義區松智路17號 微風南山 4F,UNITED ARROWS green label relaxing,海外,Japan,"{'brand': 'UNITED ARROWS green label relaxing', 'fascia': 'ユナイテッドアローズ グリーンレーベル リラクシング', 'category': 'Fashion', 'edit_date': '20250305', 'lat_lon_source': 'website'}",25.034631,121.566522,ユナイテッドアローズ グリーンレーベル リラクシング 台北微風南山店,{'opening_hours': {}},02-2722-8581,,0000,台湾,https://store.united-arrows.co.jp/stores/map.html
東京都千代田区有楽町1-9-4<br>蚕糸会館 1F,DRAWER,関東,Japan,"{'brand': 'DRAWER', 'fascia': 'ドゥロワー', 'category': 'Fashion', 'edit_date': '20250305', 'lat_lon_source': 'website'}",35.675121,139.760948,ドゥロワー 丸の内店,"{'opening_hours': {'Mon': '11:00-20:00', 'Tue': '11:00-20:00', 'Wed': '11:00-20:00', 'Thu': '11:00-20:00', 'Fri': '11:00-20:00', 'Sat': '11:00-20:00', 'Sun': '11:00-20:00'}}",050-8893-4169,100-0006,0660,東京都,https://store.united-arrows.co.jp/stores/map.html
東京都中央区日本橋2-5-1<br>日本橋髙島屋S.C. 新館 2F,DRAWER,関東,Japan,"{'brand': 'DRAWER', 'fascia': 'ドゥロワー', 'category': 'Fashion', 'edit_date': '20250305', 'lat_lon_source': 'website'}",35.681218,139.774119,ドゥロワー 日本橋店,"{'opening_hours': {'Mon': '10:30-20:00', 'Tue': '10:30-20:00', 'Wed': '10:30-20:00', 'Thu': '10:30-20:00', 'Fri': '10:30-20:00', 'Sat': '10:30-20:00', 'Sun': '10:30-20:00'}}",03-6214-1553,103-6102,0124,東京都,https://store.united-arrows.co.jp/stores/map.html
東京都港区南青山5-12-4 1F,DRAWER,関東,Japan,"{'brand': 'DRAWER', 'fascia': 'ドゥロワー', 'category': 'Fashion', 'edit_date': '20250305', 'lat_lon_source': 'website'}",35.661467,139.713305,ドゥロワー 青山店,"{'opening_hours': {'Mon': '12:00-20:00', 'Tue': '12:00-20:00', 'Wed': '12:00-20:00', 'Thu': '12:00-20:00', 'Fri': '12:00-20:00', 'Sat': '12:00-20:00', 'Sun': '12:00-20:00'}}",050-8893-4196,107-0062,0114,東京都,https://store.united-arrows.co.jp/stores/map.html
東京都港区赤坂9-7-4 <br/>東京ミッドタウン ガレリア 1F,DRAWER,関東,Japan,"{'brand': 'DRAWER', 'fascia': 'ドゥロワー', 'category': 'Fashion', 'edit_date': '20250305', 'lat_lon_source': 'website'}",35.6662049396727,139.730332837903,ドゥロワー 六本木店,"{'opening_hours': {'Mon': '11:00-21:00', 'Tue': '11:00-21:00', 'Wed': '11:00-21:00', 'Thu': '11:00-21:00', 'Fri': '11:00-21:00', 'Sat': '11:00-21:00', 'Sun': '11:00-21:00'}}",03-5786-4844,107-0052,0663,東京都,https://store.united-arrows.co.jp/stores/map.html
東京都世田谷区玉川3-17-1 玉川高島屋S・C 本館 1F,DRAWER,関東,Japan,"{'brand': 'DRAWER', 'fascia': 'ドゥロワー', 'category': 'Fashion', 'edit_date': '20250305', 'lat_lon_source': 'website'}",35.6140052194348,139.626310720081,ドゥロワー 二子玉川店,"{'opening_hours': {'Mon': '10:00-20:00', 'Tue': '10:00-20:00', 'Wed': '10:00-20:00', 'Thu': '10:00-20:00', 'Fri': '10:00-20:00', 'Sat': '10:00-20:00', 'Sun': '10:00-20:00'}}",03-5797-5780,158-0094,0664,東京都,https://store.united-arrows.co.jp/stores/map.html
愛知県名古屋市中村区名駅4-7-1 <br>ミッドランドスクエア 3F,DRAWER,北陸・東海,Japan,"{'brand': 'DRAWER', 'fascia': 'ドゥロワー', 'category': 'Fashion', 'edit_date': '20250305', 'lat_lon_source': 'website'}",35.1696117316611,136.885069385694,ドゥロワー 名古屋店,"{'opening_hours': {'Mon': '11:00-20:00', 'Tue': '11:00-20:00', 'Wed': '11:00-20:00', 'Thu': '11:00-20:00', 'Fri': '11:00-20:00', 'Sat': '11:00-20:00', 'Sun': '11:00-20:00'}}",050-8893-4154,450-0002,0661,愛知県,https://store.united-arrows.co.jp/stores/map.html
大阪府大阪市中央区南船場4-12-8<br>関西心斎橋ビル 1F,DRAWER,関西,Japan,"{'brand': 'DRAWER', 'fascia': 'ドゥロワー', 'category': 'Fashion', 'edit_date': '20250305', 'lat_lon_source': 'website'}",34.675506,135.498721,ドゥロワー 心斎橋店,{'opening_hours': {}},06-6121-8847,542-0081,0224,大阪府,https://store.united-arrows.co.jp/stores/map.html
大阪府大阪市北区大深町4-20 <br>グランフロント大阪 ショップ＆レストラン 南館 1F,DRAWER,関西,Japan,"{'brand': 'DRAWER', 'fascia': 'ドゥロワー', 'category': 'Fashion', 'edit_date': '20250305', 'lat_lon_source': 'website'}",34.703911269034,135.494790261141,ドゥロワー 梅田店,"{'opening_hours': {'Mon': '10:00-21:00', 'Tue': '10:00-21:00', 'Wed': '10:00-21:00', 'Thu': '10:00-21:00', 'Fri': '10:00-21:00', 'Sat': '10:00-21:00', 'Sun': '10:00-21:00'}}",050-8893-4209,530-0011,0662,大阪府,https://store.united-arrows.co.jp/stores/map.html
福岡県福岡市中央区天神2-4-15<br>プリオ天神ビル 1F,DRAWER,中国・四国・九州,Japan,"{'brand': 'DRAWER', 'fascia': 'ドゥロワー', 'category': 'Fashion', 'edit_date': '20250305', 'lat_lon_source': 'website'}",33.587171,130.397484,ドゥロワー 福岡店,{'opening_hours': {}},092-739-3900,810-0001,0374,福岡県,https://store.united-arrows.co.jp/stores/map.html
東京都中央区日本橋室町1-4-1 <br>日本橋三越本店 新館2F,BLAMINK,関東,Japan,"{'brand': 'BLAMINK', 'fascia': 'ブラミンク', 'category': 'Fashion', 'edit_date': '20250305', 'lat_lon_source': 'website'}",35.68504,139.774226,ブラミンク 日本橋三越,"{'opening_hours': {'Mon': '10:00-19:00', 'Tue': '10:00-19:00', 'Wed': '10:00-19:00', 'Thu': '10:00-19:00', 'Fri': '10:00-19:00', 'Sat': '10:00-19:00', 'Sun': '10:00-19:00'}}",03-3548-8660,103-8001,9501,東京都,https://store.united-arrows.co.jp/stores/map.html
東京都港区南青山6-3-16,BLAMINK,関東,Japan,"{'brand': 'BLAMINK', 'fascia': 'ブラミンク', 'category': 'Fashion', 'edit_date': '20250305', 'lat_lon_source': 'website'}",35.660963,139.716265,ブラミンク トーキョー,{'opening_hours': {}},03-5774-9899,107-0062,9500,東京都,https://store.united-arrows.co.jp/stores/map.html
大阪府大阪市北区角田町8番7号<br>阪急うめだ本店 6F,BLAMINK,関西,Japan,"{'brand': 'BLAMINK', 'fascia': 'ブラミンク', 'category': 'Fashion', 'edit_date': '20250305', 'lat_lon_source': 'website'}",34.7031270507122,135.498279677122,ブラミンク 梅田阪急,{'opening_hours': {}},06-6313-7292,530-8350,9503,大阪府,https://store.united-arrows.co.jp/stores/map.html
東京都港区南青山3-14-17,H BEAUTY＆YOUTH,関東,Japan,"{'brand': 'H BEAUTY＆YOUTH', 'fascia': 'エイチ ビューティー＆ユース', 'category': 'Fashion', 'edit_date': '20250305', 'lat_lon_source': 'website'}",35.664787,139.714737,エイチ ビューティー＆ユース,"{'opening_hours': {'Mon': '11:00-20:00', 'Tue': '11:00-20:00', 'Wed': '11:00-20:00', 'Thu': '11:00-20:00', 'Fri': '11:00-20:00', 'Sat': '11:00-20:00', 'Sun': '11:00-20:00'}}",050-8890-9491,107-0062,2100,東京都,https://store.united-arrows.co.jp/stores/map.html
東京都渋谷区神宮前3-28-1 ユナイテッドアローズ 原宿本店 メンズ館 1F,UNITED ARROWS & SONS,関東,Japan,"{'brand': 'UNITED ARROWS & SONS', 'fascia': 'ユナイテッドアローズ＆サンズ', 'category': 'Fashion', 'edit_date': '20250305', 'lat_lon_source': 'website'}",35.6720428429159,139.709483571555,ユナイテッドアローズ＆サンズ,{'opening_hours': {}},,150-0001,100_sons,東京都,https://store.united-arrows.co.jp/stores/map.html
東京都港区南青山3-14-17 B1,6（ROKU）,関東,Japan,"{'brand': '6（ROKU）', 'fascia': 'ロク', 'category': 'Fashion', 'edit_date': '20250305', 'lat_lon_source': 'website'}",35.6648083952784,139.714641496755,ロク アオヤマ,{'opening_hours': {}},03-5413-6615,107-0062,0116,東京都,https://store.united-arrows.co.jp/stores/map.html
東京都新宿区新宿4-1-6 <br>NEWoMan SHINJUKU M2F,6（ROKU）,関東,Japan,"{'brand': '6（ROKU）', 'fascia': 'ロク', 'category': 'Fashion', 'edit_date': '20250305', 'lat_lon_source': 'website'}",35.6886218105389,139.701976071787,ロク シンジュク,{'opening_hours': {}},03-5361-6130,160-0022,0143,東京都,https://store.united-arrows.co.jp/stores/map.html
愛知県名古屋市中区栄3-6-1 <br>ラシック 2F,6（ROKU）,北陸・東海,Japan,"{'brand': '6（ROKU）', 'fascia': 'ロク', 'category': 'Fashion', 'edit_date': '20250305', 'lat_lon_source': 'website'}",35.1674289498756,136.907580853741,ロク ナゴヤ,"{'opening_hours': {'Mon': '11:00-21:00', 'Tue': '11:00-21:00', 'Wed': '11:00-21:00', 'Thu': '11:00-21:00', 'Fri': '11:00-21:00', 'Sat': '11:00-21:00', 'Sun': '11:00-21:00'}}",052-249-3766,460-0008,0333,愛知県,https://store.united-arrows.co.jp/stores/map.html
大阪府大阪市北区梅田3-1-3 <br>ルクア 2F,6（ROKU）,関西,Japan,"{'brand': '6（ROKU）', 'fascia': 'ロク', 'category': 'Fashion', 'edit_date': '20250305', 'lat_lon_source': 'website'}",34.7030354031638,135.495774125502,ロク オオサカ,"{'opening_hours': {'Mon': '10:30-20:30', 'Tue': '10:30-20:30', 'Wed': '10:30-20:30', 'Thu': '10:30-20:30', 'Fri': '10:30-20:30', 'Sat': '10:30-20:30', 'Sun': '10:30-20:30'}}",06-6341-7701,530-8217,0236,大阪府,https://store.united-arrows.co.jp/stores/map.html
東京都新宿区新宿3-38-2<br>ルミネ新宿 ルミネ2 2F,ATTISESSION,関東,Japan,"{'brand': 'ATTISESSION', 'fascia': 'アティセッション', 'category': 'Fashion', 'edit_date': '20250305', 'lat_lon_source': 'website'}",35.6899100349223,139.701085267471,ATTISESSION 新宿店,{'opening_hours': {}},050-8893-3324,160-0022,0131,東京都,https://store.united-arrows.co.jp/stores/map.html
大阪府大阪市北区梅田3-1-3 ルクア 2F,ATTISESSION,関西,Japan,"{'brand': 'ATTISESSION', 'fascia': 'アティセッション', 'category': 'Fashion', 'edit_date': '20250305', 'lat_lon_source': 'website'}",34.70288878139613,135.4952297012451,ATTISESSION 大阪店,{'opening_hours': {}},050-8893-9251,530-8217,0226,大阪府,https://store.united-arrows.co.jp/stores/map.html
東京都千代田区有楽町2-5-1 ルミネ有楽町店 ルミネ2 4F,STEVEN ALAN,関東,Japan,"{'brand': 'STEVEN ALAN', 'fascia': 'スティーブン アラン', 'category': 'Fashion', 'edit_date': '20250305', 'lat_lon_source': 'website'}",35.673500149497585,139.7634665724513,スティーブン アラン ユウラクチョウ（2025年3月10日オープン予定）,{'opening_hours': {}},,100-0006,0148,東京都,https://store.united-arrows.co.jp/stores/map.html
東京都新宿区新宿3-38-2 <br>ルミネ新宿店 ルミネ2 3F,STEVEN ALAN,関東,Japan,"{'brand': 'STEVEN ALAN', 'fascia': 'スティーブン アラン', 'category': 'Fashion', 'edit_date': '20250305', 'lat_lon_source': 'website'}",35.6894861754321,139.701237,スティーブン アラン シンジュク,{'opening_hours': {}},03-5321-9970,160-0022,0138,東京都,https://store.united-arrows.co.jp/stores/map.html
東京都世田谷区玉川2-21-1 <br>二子玉川ライズ S.C. タウンフロント 2F,STEVEN ALAN,関東,Japan,"{'brand': 'STEVEN ALAN', 'fascia': 'スティーブン アラン', 'category': 'Fashion', 'edit_date': '20250305', 'lat_lon_source': 'website'}",35.6121877492193,139.628717296753,スティーブン アラン フタコタマガワ,"{'opening_hours': {'Mon': '10:00-21:00', 'Tue': '10:00-21:00', 'Wed': '10:00-21:00', 'Thu': '10:00-21:00', 'Fri': '10:00-21:00', 'Sat': '10:00-21:00', 'Sun': '10:00-21:00'}}",03-5491-7511,158-0094,0153,東京都,https://store.united-arrows.co.jp/stores/map.html
神奈川県横浜市西区南幸1-1-1<br/>NEWoMan YOKOHAMA 6F,STEVEN ALAN,関東,Japan,"{'brand': 'STEVEN ALAN', 'fascia': 'スティーブン アラン', 'category': 'Fashion', 'edit_date': '20250305', 'lat_lon_source': 'website'}",35.4671561875256,139.623013426196,スティーブン アラン ヨコハマ,{'opening_hours': {}},045-290-0081,220-0005,0178,神奈川県,https://store.united-arrows.co.jp/stores/map.html
大阪府大阪市北区大深町4-20 <br>グランフロント大阪 ショップ＆レストラン 南館 3F,STEVEN ALAN,関西,Japan,"{'brand': 'STEVEN ALAN', 'fascia': 'スティーブン アラン', 'category': 'Fashion', 'edit_date': '20250305', 'lat_lon_source': 'website'}",34.7041017347547,135.494501546373,スティーブン アラン オオサカ,"{'opening_hours': {'Mon': '10:00-21:00', 'Tue': '10:00-21:00', 'Wed': '10:00-21:00', 'Thu': '10:00-21:00', 'Fri': '10:00-21:00', 'Sat': '10:00-21:00', 'Sun': '10:00-21:00'}}",06-6359-3883,530-0011,0228,大阪府,https://store.united-arrows.co.jp/stores/map.html
東京都港区南青山5-10-5 1F,conte,関東,Japan,"{'brand': 'conte', 'fascia': 'コンテ', 'category': 'Fashion', 'edit_date': '20250305', 'lat_lon_source': 'website'}",35.6626226691575,139.711450359242,conte 青山店,{'opening_hours': {}},050-8893-3341,107-0062,2700,東京都,https://store.united-arrows.co.jp/stores/map.html
東京都新宿区西新宿1-1-5<br>ルミネ新宿 ルミネ1 2F,conte,関東,Japan,"{'brand': 'conte', 'fascia': 'コンテ', 'category': 'Fashion', 'edit_date': '20250305', 'lat_lon_source': 'website'}",35.6892044465497,139.69929025532,conte 新宿店,{'opening_hours': {}},050-8893-3350,160-0023,2701,東京都,https://store.united-arrows.co.jp/stores/map.html
東京都新宿区新宿4-1-6 <br>NEWoMan SHINJUKU 2F<br>,ASTRAET,関東,Japan,"{'brand': 'ASTRAET', 'fascia': 'アストラット', 'category': 'Fashion', 'edit_date': '20250305', 'lat_lon_source': 'website'}",35.688645071005,139.702060859976,アストラット 新宿店,{'opening_hours': {}},03-5366-6560,160-0022,1301,東京都,https://store.united-arrows.co.jp/stores/map.html
東京都千代田区有楽町2-5-1<br>ルミネ有楽町店 ルミネ1 3F,ODETTE E ODILE,関東,Japan,"{'brand': 'ODETTE E ODILE', 'fascia': 'オデット エ オディール', 'category': 'Fashion', 'edit_date': '20250305', 'lat_lon_source': 'website'}",35.6734896983217,139.762922932338,オデット エ オディール ルミネ有楽町店,"{'opening_hours': {'Mon': '11:00-21:00', 'Tue': '11:00-21:00', 'Wed': '11:00-21:00', 'Thu': '11:00-21:00', 'Fri': '11:00-21:00', 'Sat': '11:00-21:00', 'Sun': '11:00-21:00'}}",050-8893-4171,100-0006,0616,東京都,https://store.united-arrows.co.jp/stores/map.html
東京都新宿区西新宿1-1-5<br>ルミネ新宿 ルミネ1 3F<br>,ODETTE E ODILE,関東,Japan,"{'brand': 'ODETTE E ODILE', 'fascia': 'オデット エ オディール', 'category': 'Fashion', 'edit_date': '20250305', 'lat_lon_source': 'website'}",35.689143,139.699273,オデット エ オディール 新宿店,{'opening_hours': {}},050-8893-4165,160-0023,0600,東京都,https://store.united-arrows.co.jp/stores/map.html
東京都新宿区新宿3丁目14-1　伊勢丹新宿本店本館2階婦人靴,ODETTE E ODILE,関東,Japan,"{'brand': 'ODETTE E ODILE', 'fascia': 'オデット エ オディール', 'category': 'Fashion', 'edit_date': '20250305', 'lat_lon_source': 'website'}",35.6917442566243,139.704693926816,オデット エ オディール 新宿伊勢丹店,{'opening_hours': {}},03-3352-1111,160-0022,0602,東京都,https://store.united-arrows.co.jp/stores/map.html
東京都渋谷区渋谷2-21-1 <br>渋谷ヒカリエ ShinQs 3F,ODETTE E ODILE,関東,Japan,"{'brand': 'ODETTE E ODILE', 'fascia': 'オデット エ オディール', 'category': 'Fashion', 'edit_date': '20250305', 'lat_lon_source': 'website'}",35.6590052103973,139.703718456263,オデット エ オディール 渋谷シンクス店,"{'opening_hours': {'Mon': '10:00-21:00', 'Tue': '10:00-21:00', 'Wed': '10:00-21:00', 'Thu': '10:00-21:00', 'Fri': '10:00-21:00', 'Sat': '10:00-21:00', 'Sun': '10:00-21:00'}}",050-8893-4167,150-8509,0606,東京都,https://store.united-arrows.co.jp/stores/map.html
神奈川県横浜市西区高島2-16-1<br>ルミネ横浜 3F,ODETTE E ODILE,関東,Japan,"{'brand': 'ODETTE E ODILE', 'fascia': 'オデット エ オディール', 'category': 'Fashion', 'edit_date': '20250305', 'lat_lon_source': 'website'}",35.465205,139.622744,オデット エ オディール 横浜店,{'opening_hours': {}},045-444-0650,220-0011,0610,神奈川県,https://store.united-arrows.co.jp/stores/map.html
北海道札幌市中央区北5条西2・3丁目<br>札幌ステラプレイス／センター 2F,ODETTE E ODILE,北海道・東北,Japan,"{'brand': 'ODETTE E ODILE', 'fascia': 'オデット エ オディール', 'category': 'Fashion', 'edit_date': '20250305', 'lat_lon_source': 'website'}",43.067997560574,141.351380614924,オデット エ オディール 札幌店,"{'opening_hours': {'Mon': '10:00-21:00', 'Tue': '10:00-21:00', 'Wed': '10:00-21:00', 'Thu': '10:00-21:00', 'Fri': '10:00-21:00', 'Sat': '10:00-21:00', 'Sun': '10:00-21:00'}}",050-8893-4175,060-0005,0621,北海道,https://store.united-arrows.co.jp/stores/map.html
愛知県名古屋市中村区名駅1-1-3 <br>タカシマヤ ゲートタワーモール 3F,ODETTE E ODILE,北陸・東海,Japan,"{'brand': 'ODETTE E ODILE', 'fascia': 'オデット エ オディール', 'category': 'Fashion', 'edit_date': '20250305', 'lat_lon_source': 'website'}",35.1724016118182,136.88253146961,オデット エ オディール 名古屋タカシマヤ ゲートタワーモール店,"{'opening_hours': {'Mon': '10:00-21:00', 'Tue': '10:00-21:00', 'Wed': '10:00-21:00', 'Thu': '10:00-21:00', 'Fri': '10:00-21:00', 'Sat': '10:00-21:00', 'Sun': '10:00-21:00'}}",052-589-8187,450-6603,0620,愛知県,https://store.united-arrows.co.jp/stores/map.html
東京都港区北青山3-6-12 東京メトロ表参道駅構内 Echika表参道,CITEN,関東,Japan,"{'brand': 'CITEN', 'fascia': 'シテン', 'category': 'Fashion', 'edit_date': '20250305', 'lat_lon_source': 'website'}",35.6655178459107,139.711867262498,シテン ユナイテッドアローズ Echika表参道リミテッドストア,{'opening_hours': {}},070-1442-1059,107-0061,1050,東京都,https://store.united-arrows.co.jp/stores/map.html
東京都新宿区新宿3-38-2 ルミネ新宿 ルミネ2 4F,CITEN,関東,Japan,"{'brand': 'CITEN', 'fascia': 'シテン', 'category': 'Fashion', 'edit_date': '20250305', 'lat_lon_source': 'website'}",35.6896671266236,139.701040734099,シテン ユナイテッドアローズ 新宿ストア,"{'opening_hours': {'Mon': '11:00-21:00', 'Tue': '11:00-21:00', 'Wed': '11:00-21:00', 'Thu': '11:00-21:00', 'Fri': '11:00-21:00', 'Sat': '11:00-21:00', 'Sun': '11:00-21:00'}}",03-5325-5015,160-0022,2570,東京都,https://store.united-arrows.co.jp/stores/map.html
東京都江東区青海1-1-10 ダイバーシティ東京 プラザ 3F,CITEN,関東,Japan,"{'brand': 'CITEN', 'fascia': 'シテン', 'category': 'Fashion', 'edit_date': '20250305', 'lat_lon_source': 'website'}",35.6253687382526,139.775899620856,シテン ユナイテッドアローズ お台場リミテッドストア,{'opening_hours': {}},070-1270-2537,135-0064,1051,東京都,https://store.united-arrows.co.jp/stores/map.html
東京都豊島区西池袋1-11-1 ルミネ池袋 6F,CITEN,関東,Japan,"{'brand': 'CITEN', 'fascia': 'シテン', 'category': 'Fashion', 'edit_date': '20250305', 'lat_lon_source': 'website'}",35.72912021688148,139.70968973068327,シテン ユナイテッドアローズ ルミネ池袋店（2025年3月5日オープン予定）,{'opening_hours': {}},050-8893-9256,171-0021,2571,東京都,https://store.united-arrows.co.jp/stores/map.html
東京都立川市泉町935-1 ららぽーと立川立飛 2F,CITEN,関東,Japan,"{'brand': 'CITEN', 'fascia': 'シテン', 'category': 'Fashion', 'edit_date': '20250305', 'lat_lon_source': 'website'}",35.7135702434787,139.41853961754,シテン ユナイテッドアローズ 立川立飛店,{'opening_hours': {}},042-540-3165,190-0015,2501,東京都,https://store.united-arrows.co.jp/stores/map.html
埼玉県富士見市山室1-1313 ららぽーと富士見 1F,CITEN,関東,Japan,"{'brand': 'CITEN', 'fascia': 'シテン', 'category': 'Fashion', 'edit_date': '20250305', 'lat_lon_source': 'website'}",35.8600011203271,139.548567272829,シテン ユナイテッドアローズ 富士見店,{'opening_hours': {}},049-268-3500,354-8560,2505,埼玉県,https://store.united-arrows.co.jp/stores/map.html
埼玉県所沢市東住吉10-1 エミテラス所沢 2F,CITEN,関東,Japan,"{'brand': 'CITEN', 'fascia': 'シテン', 'category': 'Fashion', 'edit_date': '20250305', 'lat_lon_source': 'website'}",35.7854182608217,139.470999114119,シテン ユナイテッドアローズ 所沢店,{'opening_hours': {}},050-8893-3339,359-1124,2506,埼玉県,https://store.united-arrows.co.jp/stores/map.html
千葉県柏市若柴175 ららぽーと柏の葉 2F,CITEN,関東,Japan,"{'brand': 'CITEN', 'fascia': 'シテン', 'category': 'Fashion', 'edit_date': '20250305', 'lat_lon_source': 'website'}",35.8934106478491,139.950759932904,シテン ユナイテッドアローズ 柏の葉店,"{'opening_hours': {'Mon': '10:00-21:00', 'Tue': '10:00-21:00', 'Wed': '10:00-21:00', 'Thu': '10:00-21:00', 'Fri': '10:00-21:00', 'Sat': '10:00-21:00', 'Sun': '10:00-21:00'}}",04-7131-1530,277-8518,2504,千葉県,https://store.united-arrows.co.jp/stores/map.html
千葉県船橋市浜町2-1-1 ららぽーとTOKYO-BAY 北館 1F,CITEN,関東,Japan,"{'brand': 'CITEN', 'fascia': 'シテン', 'category': 'Fashion', 'edit_date': '20250305', 'lat_lon_source': 'website'}",35.6866535368078,139.98936201263,シテン ユナイテッドアローズ 船橋リミテッドストア,{'opening_hours': {}},047-420-8111,273-8530,2507,千葉県,https://store.united-arrows.co.jp/stores/map.html
神奈川県平塚市天沼10-1 ららぽ-と湘南平塚 2F,CITEN,関東,Japan,"{'brand': 'CITEN', 'fascia': 'シテン', 'category': 'Fashion', 'edit_date': '20250305', 'lat_lon_source': 'website'}",35.3368868397555,139.355100248893,シテン ユナイテッドアローズ 湘南平塚店,"{'opening_hours': {'Mon': '10:00-21:00', 'Tue': '10:00-21:00', 'Wed': '10:00-21:00', 'Thu': '10:00-21:00', 'Fri': '10:00-21:00', 'Sat': '10:00-21:00', 'Sun': '10:00-21:00'}}",,254-8510,2502,神奈川県,https://store.united-arrows.co.jp/stores/map.html
神奈川県海老名市扇町13-1 ららぽーと海老名 2F,CITEN,関東,Japan,"{'brand': 'CITEN', 'fascia': 'シテン', 'category': 'Fashion', 'edit_date': '20250305', 'lat_lon_source': 'website'}",35.4557039139981,139.389317754917,シテン ユナイテッドアローズ 海老名店,{'opening_hours': {}},046-236-0125,243-0482,2503,神奈川県,https://store.united-arrows.co.jp/stores/map.html
神奈川県横浜市西区高島2-16-1 ルミネ横浜 5F        ,CITEN,関東,Japan,"{'brand': 'CITEN', 'fascia': 'シテン', 'category': 'Fashion', 'edit_date': '20250305', 'lat_lon_source': 'website'}",35.46556265277576,139.62292088325503,シテン ユナイテッドアローズ ルミネ横浜店（2025年3月6日オープン予定）,{'opening_hours': {}},,220-0011,2572,神奈川県,https://store.united-arrows.co.jp/stores/map.html
神奈川県藤沢市鵠沼海岸1-2-17,California General Store,関東,Japan,"{'brand': 'California General Store', 'fascia': 'カリフォルニア ジェネラルストア', 'category': 'Fashion', 'edit_date': '20250305', 'lat_lon_source': 'website'}",35.3139676207378,139.476636226396,カリフォルニア ジェネラルストア,{'opening_hours': {}},,251-0037,2150,神奈川県,https://store.united-arrows.co.jp/stores/map.html
東京都八王子市南大沢1-600<br>三井アウトレットパーク 多摩南大沢 ＃159,UNITED ARROWS OUTLET,関東,Japan,"{'brand': 'UNITED ARROWS OUTLET', 'fascia': 'ユナイテッドアローズ アウトレット', 'category': 'Fashion', 'edit_date': '20250305', 'lat_lon_source': 'website'}",35.6144420534156,139.376994725406,ユナイテッドアローズ アウトレット 南大沢店,"{'opening_hours': {'Mon': '10:00-20:00', 'Tue': '10:00-20:00', 'Wed': '10:00-20:00', 'Thu': '10:00-20:00', 'Fri': '10:00-20:00', 'Sat': '10:00-20:00', 'Sun': '10:00-20:00'}}",042-670-5026,192-0364,0720,東京都,https://store.united-arrows.co.jp/stores/map.html
東京都町田市鶴間3-4-1 <br>グランベリーパーク I103,UNITED ARROWS OUTLET,関東,Japan,"{'brand': 'UNITED ARROWS OUTLET', 'fascia': 'ユナイテッドアローズ アウトレット', 'category': 'Fashion', 'edit_date': '20250305', 'lat_lon_source': 'website'}",35.51030819071,139.470997566152,ユナイテッドアローズ アウトレット 南町田店,"{'opening_hours': {'Mon': '10:00-20:00', 'Tue': '10:00-20:00', 'Wed': '10:00-20:00', 'Thu': '10:00-20:00', 'Fri': '10:00-20:00', 'Sat': '10:00-20:00', 'Sun': '10:00-20:00'}}",042-788-1530,194-8589,0725,東京都,https://store.united-arrows.co.jp/stores/map.html
栃木県佐野市越名町2058<br>佐野プレミアム・アウトレット 735,UNITED ARROWS OUTLET,関東,Japan,"{'brand': 'UNITED ARROWS OUTLET', 'fascia': 'ユナイテッドアローズ アウトレット', 'category': 'Fashion', 'edit_date': '20250305', 'lat_lon_source': 'website'}",36.2934679475443,139.604240061194,ユナイテッドアローズ アウトレット 佐野店,"{'opening_hours': {'Mon': '10:00-20:00', 'Tue': '10:00-20:00', 'Wed': '10:00-20:00', 'Thu': '10:00-20:00', 'Fri': '10:00-20:00', 'Sat': '10:00-20:00', 'Sun': '10:00-20:00'}}",,327-0822,0730,栃木県,https://store.united-arrows.co.jp/stores/map.html
埼玉県入間市宮寺3169-1<br>三井アウトレットパーク 入間 1F 1170区画,UNITED ARROWS OUTLET,関東,Japan,"{'brand': 'UNITED ARROWS OUTLET', 'fascia': 'ユナイテッドアローズ アウトレット', 'category': 'Fashion', 'edit_date': '20250305', 'lat_lon_source': 'website'}",35.8099138419928,139.380295677776,ユナイテッドアローズ アウトレット シュー ストック 入間店,"{'opening_hours': {'Mon': '10:00-20:00', 'Tue': '10:00-20:00', 'Wed': '10:00-20:00', 'Thu': '10:00-20:00', 'Fri': '10:00-20:00', 'Sat': '10:00-20:00', 'Sun': '10:00-20:00'}}",04-2934-1070,358-8515,0714,埼玉県,https://store.united-arrows.co.jp/stores/map.html
埼玉県入間市宮寺3169-1 <br>三井アウトレットパーク 入間 1F 1108区画,UNITED ARROWS OUTLET,関東,Japan,"{'brand': 'UNITED ARROWS OUTLET', 'fascia': 'ユナイテッドアローズ アウトレット', 'category': 'Fashion', 'edit_date': '20250305', 'lat_lon_source': 'website'}",35.8095761514244,139.380035584426,ユナイテッドアローズ アウトレット 入間店,"{'opening_hours': {'Mon': '10:00-20:00', 'Tue': '10:00-20:00', 'Wed': '10:00-20:00', 'Thu': '10:00-20:00', 'Fri': '10:00-20:00', 'Sat': '10:00-20:00', 'Sun': '10:00-20:00'}}",04-2935-1781,358-8515,0715,埼玉県,https://store.united-arrows.co.jp/stores/map.html
埼玉県越谷市レイクタウン4-1-1 <br>レイクタウンアウトレット 1F,UNITED ARROWS OUTLET,関東,Japan,"{'brand': 'UNITED ARROWS OUTLET', 'fascia': 'ユナイテッドアローズ アウトレット', 'category': 'Fashion', 'edit_date': '20250305', 'lat_lon_source': 'website'}",35.88077147328,139.825019214633,ユナイテッドアローズ アウトレット 越谷店,"{'opening_hours': {'Mon': '10:00-20:00', 'Tue': '10:00-20:00', 'Wed': '10:00-20:00', 'Thu': '10:00-20:00', 'Fri': '10:00-20:00', 'Sat': '10:00-20:00', 'Sun': '10:00-20:00'}}",050-8886-8944,343-0828,0716,埼玉県,https://store.united-arrows.co.jp/stores/map.html
埼玉県深谷市花園1番地 ふかや花園プレミアム・アウトレット 2240区,UNITED ARROWS OUTLET,関東,Japan,"{'brand': 'UNITED ARROWS OUTLET', 'fascia': 'ユナイテッドアローズ アウトレット', 'category': 'Fashion', 'edit_date': '20250305', 'lat_lon_source': 'website'}",36.1331184317079,139.249427803718,ユナイテッドアローズ アウトレット ふかや花園店,{'opening_hours': {}},048-584-7588,369-1248,0718,埼玉県,https://store.united-arrows.co.jp/stores/map.html
千葉県千葉市美浜区ひび野2-8<br>三井アウトレットパーク 幕張 3060,UNITED ARROWS OUTLET,関東,Japan,"{'brand': 'UNITED ARROWS OUTLET', 'fascia': 'ユナイテッドアローズ アウトレット', 'category': 'Fashion', 'edit_date': '20250305', 'lat_lon_source': 'website'}",35.6466171151622,140.041736612584,ユナイテッドアローズ アウトレット 幕張店,"{'opening_hours': {'Mon': '10:00-20:00', 'Tue': '10:00-20:00', 'Wed': '10:00-20:00', 'Thu': '10:00-20:00', 'Fri': '10:00-20:00', 'Sat': '10:00-20:00', 'Sun': '10:00-20:00'}}",043-213-3670,261-0021,0710,千葉県,https://store.united-arrows.co.jp/stores/map.html
千葉県木更津市金田東3-1-1 <br>三井アウトレットパーク 木更津 1F,UNITED ARROWS OUTLET,関東,Japan,"{'brand': 'UNITED ARROWS OUTLET', 'fascia': 'ユナイテッドアローズ アウトレット', 'category': 'Fashion', 'edit_date': '20250305', 'lat_lon_source': 'website'}",35.4343599782889,139.937462147715,ユナイテッドアローズ アウトレット 木更津店,"{'opening_hours': {'Mon': '10:00-20:00', 'Tue': '10:00-20:00', 'Wed': '10:00-20:00', 'Thu': '10:00-20:00', 'Fri': '10:00-20:00', 'Sat': '10:00-20:00', 'Sun': '10:00-20:00'}}",050-8893-4173,292-0009,0711,千葉県,https://store.united-arrows.co.jp/stores/map.html
千葉県印旛郡酒々井町飯積2-4-1 <br> 酒々井プレミアム・アウトレット 1500区,UNITED ARROWS OUTLET,関東,Japan,"{'brand': 'UNITED ARROWS OUTLET', 'fascia': 'ユナイテッドアローズ アウトレット', 'category': 'Fashion', 'edit_date': '20250305', 'lat_lon_source': 'website'}",35.7142197656646,140.293560262985,ユナイテッドアローズ アウトレット 酒々井店,{'opening_hours': {}},050-8893-4174,285-0912,0712,千葉県,https://store.united-arrows.co.jp/stores/map.html
神奈川県横浜市金沢区白帆5-2<br>三井アウトレットパーク 横浜ベイサイド Aブロック 2F 11140,UNITED ARROWS OUTLET,関東,Japan,"{'brand': 'UNITED ARROWS OUTLET', 'fascia': 'ユナイテッドアローズ アウトレット', 'category': 'Fashion', 'edit_date': '20250305', 'lat_lon_source': 'website'}",35.379956,139.646335,ユナイテッドアローズ アウトレット 横浜店,"{'opening_hours': {'Mon': '10:00-20:00', 'Tue': '10:00-20:00', 'Wed': '10:00-20:00', 'Thu': '10:00-20:00', 'Fri': '10:00-20:00', 'Sat': '10:00-20:00', 'Sun': '10:00-20:00'}}",045-773-8770,236-8666,0700,神奈川県,https://store.united-arrows.co.jp/stores/map.html
北海道北広島市大曲幸町3-7-6<br>三井アウトレットパーク 札幌北広島,UNITED ARROWS OUTLET,北海道・東北,Japan,"{'brand': 'UNITED ARROWS OUTLET', 'fascia': 'ユナイテッドアローズ アウトレット', 'category': 'Fashion', 'edit_date': '20250305', 'lat_lon_source': 'website'}",42.9715362641362,141.471030416031,ユナイテッドアローズ アウトレット 札幌北広島店,"{'opening_hours': {'Mon': '10:00-20:00', 'Tue': '10:00-20:00', 'Wed': '10:00-20:00', 'Thu': '10:00-20:00', 'Fri': '10:00-20:00', 'Sat': '10:00-20:00', 'Sun': '10:00-20:00'}}",050-8893-4176,061-1278,0795,北海道,https://store.united-arrows.co.jp/stores/map.html
宮城県仙台市泉区寺岡6-1<br>仙台泉プレミアム･アウトレット 1100,UNITED ARROWS OUTLET,北海道・東北,Japan,"{'brand': 'UNITED ARROWS OUTLET', 'fascia': 'ユナイテッドアローズ アウトレット', 'category': 'Fashion', 'edit_date': '20250305', 'lat_lon_source': 'website'}",38.341546,140.837259,ユナイテッドアローズ アウトレット 仙台店,"{'opening_hours': {'Mon': '10:00-20:00', 'Tue': '10:00-20:00', 'Wed': '10:00-20:00', 'Thu': '10:00-20:00', 'Fri': '10:00-20:00', 'Sat': '10:00-20:00', 'Sun': '10:00-20:00'}}",050-8893-4182,981-3204,0780,宮城県,https://store.united-arrows.co.jp/stores/map.html
宮城県仙台市宮城野区中野3-7-2 <br>三井アウトレットパーク 仙台港 1170,UNITED ARROWS OUTLET,北海道・東北,Japan,"{'brand': 'UNITED ARROWS OUTLET', 'fascia': 'ユナイテッドアローズ アウトレット', 'category': 'Fashion', 'edit_date': '20250305', 'lat_lon_source': 'website'}",38.2748861159924,140.989016032874,ユナイテッドアローズ アウトレット 仙台港店,{'opening_hours': {}},022-388-5005,983-0013,0785,宮城県,https://store.united-arrows.co.jp/stores/map.html
富山県小矢部市西中野972-1 <br>三井アウトレットパーク 北陸小矢部 1F,UNITED ARROWS OUTLET,北陸・東海,Japan,"{'brand': 'UNITED ARROWS OUTLET', 'fascia': 'ユナイテッドアローズ アウトレット', 'category': 'Fashion', 'edit_date': '20250305', 'lat_lon_source': 'website'}",36.6891072,136.8811691,ユナイテッドアローズ アウトレット 北陸小矢部店,"{'opening_hours': {'Mon': '10:00-20:00', 'Tue': '10:00-20:00', 'Wed': '10:00-20:00', 'Thu': '10:00-20:00', 'Fri': '10:00-20:00', 'Sat': '10:00-20:00', 'Sun': '10:00-20:00'}}",050-8893-4222,932-8538,0755,富山県,https://store.united-arrows.co.jp/stores/map.html
長野県北佐久郡軽井沢町軽井沢<br>軽井沢・プリンスショッピングプラザ・ニューイースト ガーデンモール NEG20,UNITED ARROWS OUTLET,北陸・東海,Japan,"{'brand': 'UNITED ARROWS OUTLET', 'fascia': 'ユナイテッドアローズ アウトレット', 'category': 'Fashion', 'edit_date': '20250305', 'lat_lon_source': 'website'}",36.339914280818,138.636731996328,ユナイテッドアローズ アウトレット 軽井沢店,{'opening_hours': {}},050-8886-8951,389-0102,0750,長野県,https://store.united-arrows.co.jp/stores/map.html
岐阜県土岐市土岐ヶ丘1-2 2420区,UNITED ARROWS OUTLET,北陸・東海,Japan,"{'brand': 'UNITED ARROWS OUTLET', 'fascia': 'ユナイテッドアローズ アウトレット', 'category': 'Fashion', 'edit_date': '20250305', 'lat_lon_source': 'website'}",35.3400767479356,137.164304881411,ユナイテッドアローズ アウトレット 土岐店,"{'opening_hours': {'Mon': '10:00-20:00', 'Tue': '10:00-20:00', 'Wed': '10:00-20:00', 'Thu': '10:00-20:00', 'Fri': '10:00-20:00', 'Sat': '10:00-20:00', 'Sun': '10:00-20:00'}}",,509-5127,0741,岐阜県,https://store.united-arrows.co.jp/stores/map.html
静岡県御殿場市深沢1312 <br>御殿場プレミアム・アウトレット 2800区,UNITED ARROWS OUTLET,北陸・東海,Japan,"{'brand': 'UNITED ARROWS OUTLET', 'fascia': 'ユナイテッドアローズ アウトレット', 'category': 'Fashion', 'edit_date': '20250305', 'lat_lon_source': 'website'}",35.3070808952514,138.968665075137,ユナイテッドアローズ アウトレット 御殿場店,{'opening_hours': {}},050-8893-4179,412-0023,0705,静岡県,https://store.united-arrows.co.jp/stores/map.html
三重県桑名市長島町浦安368<br>三井アウトレットパーク ジャズドリーム長島 1151,UNITED ARROWS OUTLET,北陸・東海,Japan,"{'brand': 'UNITED ARROWS OUTLET', 'fascia': 'ユナイテッドアローズ アウトレット', 'category': 'Fashion', 'edit_date': '20250305', 'lat_lon_source': 'website'}",35.0298593713187,136.726011587537,ユナイテッドアローズ アウトレット 長島店,"{'opening_hours': {'Mon': '10:00-20:00', 'Tue': '10:00-20:00', 'Wed': '10:00-20:00', 'Thu': '10:00-20:00', 'Fri': '10:00-20:00', 'Sat': '10:00-20:00', 'Sun': '10:00-20:00'}}",,511-1135,0740,三重県,https://store.united-arrows.co.jp/stores/map.html
"滋賀県蒲生郡竜王町大字薬師字砂山1178-694<br>三井アウトレットパーク 滋賀竜王<br><br><font color=""red"">※ 改装のため、2025年1月21日(火)から2F仮店舗区画にて仮店舗営業いたします</font>",UNITED ARROWS OUTLET,関西,Japan,"{'brand': 'UNITED ARROWS OUTLET', 'fascia': 'ユナイテッドアローズ アウトレット', 'category': 'Fashion', 'edit_date': '20250305', 'lat_lon_source': 'website'}",35.0583695069687,136.098662128113,ユナイテッドアローズ アウトレット 竜王店,"{'opening_hours': {'Mon': '10:00-20:00', 'Tue': '10:00-20:00', 'Wed': '10:00-20:00', 'Thu': '10:00-20:00', 'Fri': '10:00-20:00', 'Sat': '10:00-20:00', 'Sun': '10:00-20:00'}}",050-8893-4213,520-2551,0745,滋賀県,https://store.united-arrows.co.jp/stores/map.html
大阪府泉佐野市りんくう往来南3-28<br>りんくうプレミアム・アウトレット シーサイドエリア2F 7200区画,UNITED ARROWS OUTLET,関西,Japan,"{'brand': 'UNITED ARROWS OUTLET', 'fascia': 'ユナイテッドアローズ アウトレット', 'category': 'Fashion', 'edit_date': '20250305', 'lat_lon_source': 'website'}",34.4079543382703,135.295336388354,ユナイテッドアローズ アウトレット りんくう店,"{'opening_hours': {'Mon': '10:00-20:00', 'Tue': '10:00-20:00', 'Wed': '10:00-20:00', 'Thu': '10:00-20:00', 'Fri': '10:00-20:00', 'Sat': '10:00-20:00', 'Sun': '10:00-20:00'}}",050-8893-4151,598-8508,0760,大阪府,https://store.united-arrows.co.jp/stores/map.html
大阪府門真市松生町1-11 三井アウトレットパーク大阪門真 2F 22500,UNITED ARROWS OUTLET,関西,Japan,"{'brand': 'UNITED ARROWS OUTLET', 'fascia': 'ユナイテッドアローズ アウトレット', 'category': 'Fashion', 'edit_date': '20250305', 'lat_lon_source': 'website'}",34.7312945,135.583471,ユナイテッドアローズ アウトレット 門真店,{'opening_hours': {}},06-6991-9340,571-8620,0765,大阪府,https://store.united-arrows.co.jp/stores/map.html
兵庫県神戸市垂水区海岸通12－2 三井アウトレットパーク マリンピア神戸 1F 1190,UNITED ARROWS OUTLET,関西,Japan,"{'brand': 'UNITED ARROWS OUTLET', 'fascia': 'ユナイテッドアローズ アウトレット', 'category': 'Fashion', 'edit_date': '20250305', 'lat_lon_source': 'website'}",34.6261897355078,135.04907536414,ユナイテッドアローズ アウトレット 神戸店,{'opening_hours': {}},050-8893-3351,655-0036,0770,兵庫県,https://store.united-arrows.co.jp/stores/map.html
兵庫県神戸市北区上津台7-3 <br>神戸三田プレミアム・アウトレット 3030区,UNITED ARROWS OUTLET,関西,Japan,"{'brand': 'UNITED ARROWS OUTLET', 'fascia': 'ユナイテッドアローズ アウトレット', 'category': 'Fashion', 'edit_date': '20250305', 'lat_lon_source': 'website'}",34.8582541291506,135.190344425564,ユナイテッドアローズ アウトレット 神戸三田店,"{'opening_hours': {'Mon': '10:00-20:00', 'Tue': '10:00-20:00', 'Wed': '10:00-20:00', 'Thu': '10:00-20:00', 'Fri': '10:00-20:00', 'Sat': '10:00-20:00', 'Sun': '10:00-20:00'}}",050-8893-4152,651-1515,0775,兵庫県,https://store.united-arrows.co.jp/stores/map.html
岡山県倉敷市寿町12-3 <br>三井アウトレットパーク 倉敷 1F,UNITED ARROWS OUTLET,中国・四国・九州,Japan,"{'brand': 'UNITED ARROWS OUTLET', 'fascia': 'ユナイテッドアローズ アウトレット', 'category': 'Fashion', 'edit_date': '20250305', 'lat_lon_source': 'website'}",34.6037782583359,133.762569378929,ユナイテッドアローズ アウトレット 倉敷店,"{'opening_hours': {'Mon': '10:00-20:00', 'Tue': '10:00-20:00', 'Wed': '10:00-20:00', 'Thu': '10:00-20:00', 'Fri': '10:00-20:00', 'Sat': '10:00-20:00', 'Sun': '10:00-20:00'}}",086-430-4336,710-0813,0776,岡山県,https://store.united-arrows.co.jp/stores/map.html
広島県広島市佐伯区石内東4丁目1-1 <br>ジ アウトレット広島 238区画,UNITED ARROWS OUTLET,中国・四国・九州,Japan,"{'brand': 'UNITED ARROWS OUTLET', 'fascia': 'ユナイテッドアローズ アウトレット', 'category': 'Fashion', 'edit_date': '20250305', 'lat_lon_source': 'website'}",34.4091428080594,132.397205785669,ユナイテッドアローズ アウトレット 広島店,"{'opening_hours': {'Mon': '10:00-20:00', 'Tue': '10:00-20:00', 'Wed': '10:00-20:00', 'Thu': '10:00-20:00', 'Fri': '10:00-20:00', 'Sat': '10:00-20:00', 'Sun': '10:00-20:00'}}",082-941-5300,731-5196,0777,広島県,https://store.united-arrows.co.jp/stores/map.html
福岡県福岡市中央区地行浜2-2-1<br>MARK IS 福岡ももち 2F,UNITED ARROWS OUTLET,中国・四国・九州,Japan,"{'brand': 'UNITED ARROWS OUTLET', 'fascia': 'ユナイテッドアローズ アウトレット', 'category': 'Fashion', 'edit_date': '20250305', 'lat_lon_source': 'website'}",33.5929176839035,130.364561764359,ユナイテッドアローズ アウトレット 福岡店,"{'opening_hours': {'Mon': '10:00-21:00', 'Tue': '10:00-21:00', 'Wed': '10:00-21:00', 'Thu': '10:00-21:00', 'Fri': '10:00-21:00', 'Sat': '10:00-21:00', 'Sun': '10:00-21:00'}}",050-8893-3325,810-8639,0799,福岡県,https://store.united-arrows.co.jp/stores/map.html
佐賀県鳥栖市弥生が丘8-1 <br>鳥栖プレミアム・アウトレット  450,UNITED ARROWS OUTLET,中国・四国・九州,Japan,"{'brand': 'UNITED ARROWS OUTLET', 'fascia': 'ユナイテッドアローズ アウトレット', 'category': 'Fashion', 'edit_date': '20250305', 'lat_lon_source': 'website'}",33.4071368540249,130.511708127365,ユナイテッドアローズ アウトレット 鳥栖店,"{'opening_hours': {'Mon': '10:00-20:00', 'Tue': '10:00-20:00', 'Wed': '10:00-20:00', 'Thu': '10:00-20:00', 'Fri': '10:00-20:00', 'Sat': '10:00-20:00', 'Sun': '10:00-20:00'}}",,841-0005,0797,佐賀県,https://store.united-arrows.co.jp/stores/map.html
24448　新北市林口區文化三路一段356號 三井アウトレットパーク 台湾林口 1F 10390　（台湾）,UNITED ARROWS OUTLET,海外,Japan,"{'brand': 'UNITED ARROWS OUTLET', 'fascia': 'ユナイテッドアローズ アウトレット', 'category': 'Fashion', 'edit_date': '20250305', 'lat_lon_source': 'website'}",25.07138969,121.3636266,ユナイテッドアローズ アウトレット 林口（台湾）店,{'opening_hours': {}},,,0070,台湾,https://store.united-arrows.co.jp/stores/map.html
