addr_full,brand,city,country,extras,lat,lon,name,opening_hours,phone,postcode,ref,state,website
1ο χλμ Π.Ε.Ο Λαμίας - Άμφισσας 35100 Λαμία,JYSK,Λαμία,Greece,"{'brand': 'JYSK', 'fascia': 'JYSK', 'category': 'Retail', 'edit_date': '20250510', 'lat_lon_source': 'Third Party'}",38.874857290245,22.438703324784,JYSK Λαμία,"{'opening_hours': {'Mon': '00:00 - 24:00', 'Tue': '09:00 - 21:00', 'Wed': '09:00 - 21:00', 'Thu': '09:00 - 21:00', 'Fri': '09:00 - 21:00', 'Sat': '09:00 - 21:00', 'Sun': '09:00 - 20:00'}}",,35100,G011,,/stores-locator/lamia/1o-hlm-peo-lamias-amfissas
"Τσαμαδού, Κορώνης & Κανάρη 24100 Καλαμάτα",JYSK,Καλαμάτα,Greece,"{'brand': 'JYSK', 'fascia': 'JYSK', 'category': 'Retail', 'edit_date': '20250510', 'lat_lon_source': 'Third Party'}",37.025789800694,22.112126589024,JYSK Καλαμάτα,"{'opening_hours': {'Mon': '00:00 - 24:00', 'Tue': '09:00 - 21:00', 'Wed': '09:00 - 21:00', 'Thu': '09:00 - 21:00', 'Fri': '09:00 - 21:00', 'Sat': '09:00 - 21:00', 'Sun': '09:00 - 20:00'}}",,24100,G020,,/stores-locator/kalamata/tsamadoy-koronis-kanari
Χρυσοπηγής & Νεροκούρου 73100 Χανιά,JYSK,Χανιά,Greece,"{'brand': 'JYSK', 'fascia': 'JYSK', 'category': 'Retail', 'edit_date': '20250510', 'lat_lon_source': 'Third Party'}",35.498871542863,24.029932022095,JYSK Χανιά,"{'opening_hours': {'Mon': '00:00 - 24:00', 'Tue': '09:00 - 21:00', 'Wed': '09:00 - 21:00', 'Thu': '09:00 - 21:00', 'Fri': '09:00 - 21:00', 'Sat': '09:00 - 21:00', 'Sun': '09:00 - 20:00'}}",,73100,G026,,/stores-locator/hania/hrysopigis-nerokoyroy
3ο χλμ. Ε.Ο. Δράμας - Καβάλας 66100 Δράμα,JYSK,Δράμα,Greece,"{'brand': 'JYSK', 'fascia': 'JYSK', 'category': 'Retail', 'edit_date': '20250510', 'lat_lon_source': 'Third Party'}",41.1375947419,24.189701207528,JYSK Δράμα,"{'opening_hours': {'Mon': '00:00 - 24:00', 'Tue': '09:00 - 21:00', 'Wed': '09:00 - 21:00', 'Thu': '09:00 - 21:00', 'Fri': '09:00 - 21:00', 'Sat': '09:00 - 21:00', 'Sun': '09:00 - 20:00'}}",,66100,G031,,/stores-locator/drama/3o-hlm-eo-dramas-kabalas
Λ. Καραμανλή & Κερκίνης 41335 Λάρισα,JYSK,Λάρισα,Greece,"{'brand': 'JYSK', 'fascia': 'JYSK', 'category': 'Retail', 'edit_date': '20250510', 'lat_lon_source': 'Third Party'}",39.628374280492,22.432369942911,JYSK Λάρισα - Χαραυγή,"{'opening_hours': {'Mon': '00:00 - 24:00', 'Tue': '09:00 - 21:00', 'Wed': '09:00 - 21:00', 'Thu': '09:00 - 21:00', 'Fri': '00:00 - 24:00', 'Sat': '09:00 - 21:00', 'Sun': '09:00 - 20:00'}}",,41335,G017,,/stores-locator/larisa/l-karamanli-kerkinis
5ο χλμ Ε.Ο. Ιωαννίνων - Άρτας 45221 Ιωάννινα,JYSK,Ιωάννινα,Greece,"{'brand': 'JYSK', 'fascia': 'JYSK', 'category': 'Retail', 'edit_date': '20250510', 'lat_lon_source': 'Third Party'}",39.626231267391,20.860849968217,JYSK Ιωάννινα,"{'opening_hours': {'Mon': '00:00 - 24:00', 'Tue': '09:00 - 21:00', 'Wed': '09:00 - 21:00', 'Thu': '09:00 - 21:00', 'Fri': '09:00 - 21:00', 'Sat': '09:00 - 21:00', 'Sun': '09:00 - 20:00'}}",,45221,G019,,/stores-locator/ioannina/5o-hlm-eo-ioanninon-artas
Κουρτίδου 11145 Πατήσια,JYSK,Πατήσια,Greece,"{'brand': 'JYSK', 'fascia': 'JYSK', 'category': 'Retail', 'edit_date': '20250510', 'lat_lon_source': 'Third Party'}",38.015176221537,23.721820834394,JYSK Αθήνα - Πατήσια,"{'opening_hours': {'Mon': '00:00 - 24:00', 'Tue': '09:00 - 21:00', 'Wed': '09:00 - 21:00', 'Thu': '09:00 - 21:00', 'Fri': '09:00 - 21:00', 'Sat': '09:00 - 21:00', 'Sun': '09:00 - 20:00'}}",,11145,G002,,/stores-locator/patisia/koyrtidoy
7ο χλμ. Ε.Ο. Ρόδου - Λίνδου 85100 Ρόδος,JYSK,Ρόδος,Greece,"{'brand': 'JYSK', 'fascia': 'JYSK', 'category': 'Retail', 'edit_date': '20250510', 'lat_lon_source': 'Third Party'}",36.396399986044,28.199240710725,JYSK Ρόδος,"{'opening_hours': {'Mon': '00:00 - 24:00', 'Tue': '09:00 - 21:00', 'Wed': '09:00 - 21:00', 'Thu': '09:00 - 21:00', 'Fri': '09:00 - 21:00', 'Sat': '09:00 - 21:00', 'Sun': '09:00 - 20:00'}}",,85100,G022,,/stores-locator/rodos/7o-hlm-eo-rodoy-lindoy
Γεωργικής Σχολής 57001 Πυλαία,JYSK,Πυλαία,Greece,"{'brand': 'JYSK', 'fascia': 'JYSK', 'category': 'Retail', 'edit_date': '20250510', 'lat_lon_source': 'Third Party'}",40.552686896325,22.982959677663,JYSK Θεσσαλονίκη - Εμπορικό Πάρκο Florida,"{'opening_hours': {'Mon': '00:00 - 24:00', 'Tue': '09:00 - 21:00', 'Wed': '09:00 - 21:00', 'Thu': '09:00 - 21:00', 'Fri': '09:00 - 21:00', 'Sat': '09:00 - 21:00', 'Sun': '09:00 - 20:00'}}",,57001,G004,,/stores-locator/pylaia/georgikis-sholis
5o χλμ Ε.Ο. Λάρισας - Τρικάλων 42100 Τρίκαλα,JYSK,Τρίκαλα,Greece,"{'brand': 'JYSK', 'fascia': 'JYSK', 'category': 'Retail', 'edit_date': '20250510', 'lat_lon_source': 'Third Party'}",39.558117242016,21.824610689109,JYSK Τρίκαλα,"{'opening_hours': {'Mon': '00:00 - 24:00', 'Tue': '09:00 - 21:00', 'Wed': '09:00 - 21:00', 'Thu': '09:00 - 21:00', 'Fri': '09:00 - 21:00', 'Sat': '09:00 - 21:00', 'Sun': '09:00 - 20:00'}}",,42100,G018,,/stores-locator/trikala/5o-hlm-eo-larisas-trikalon
1ο χλμ. Ε.Ο. Πύργου - Πατρών 27131 Πύργος,JYSK,Πύργος,Greece,"{'brand': 'JYSK', 'fascia': 'JYSK', 'category': 'Retail', 'edit_date': '20250510', 'lat_lon_source': 'Third Party'}",37.684264121767,21.416796209526,JYSK Πύργος,"{'opening_hours': {'Mon': '00:00 - 24:00', 'Tue': '09:00 - 21:00', 'Wed': '09:00 - 21:00', 'Thu': '09:00 - 21:00', 'Fri': '09:00 - 21:00', 'Sat': '09:00 - 21:00', 'Sun': '09:00 - 20:00'}}",,27131,G021,,/stores-locator/pyrgos/1o-hlm-eo-pyrgoy-patron
Μοναστηρίου 54628 Αμπελόκηποι Θεσ/κης,JYSK,Αμπελόκηποι Θεσ/κης,Greece,"{'brand': 'JYSK', 'fascia': 'JYSK', 'category': 'Retail', 'edit_date': '20250510', 'lat_lon_source': 'Third Party'}",40.6548237,22.906993,JYSK Θεσσαλονίκη - West Gate,"{'opening_hours': {'Mon': '00:00 - 24:00', 'Tue': '09:00 - 21:00', 'Wed': '09:00 - 21:00', 'Thu': '09:00 - 21:00', 'Fri': '09:00 - 21:00', 'Sat': '09:00 - 21:00', 'Sun': '09:00 - 20:00'}}",,54628,G008,,/stores-locator/ampelokipoi-thes/kis/monastirioy
Φιλίππου & Γεωρ. Παπανδρέου 69100 Κομοτηνή,JYSK,Κομοτηνή,Greece,"{'brand': 'JYSK', 'fascia': 'JYSK', 'category': 'Retail', 'edit_date': '20250510', 'lat_lon_source': 'Third Party'}",41.125582970077,25.393518805504,JYSK Κομοτηνή,"{'opening_hours': {'Mon': '00:00 - 24:00', 'Tue': '09:00 - 21:00', 'Wed': '09:00 - 21:00', 'Thu': '00:00 - 24:00', 'Fri': '09:00 - 21:00', 'Sat': '09:00 - 21:00', 'Sun': '09:00 - 20:00'}}",,69100,G007,,/stores-locator/komotini/filippoy-geor-papandreoy
Καρπενησίου & Δερβενακίων 12131 Περιστέρι,JYSK,Περιστέρι,Greece,"{'brand': 'JYSK', 'fascia': 'JYSK', 'category': 'Retail', 'edit_date': '20250510', 'lat_lon_source': 'Third Party'}",38.0077718,23.689069809787,JYSK Αθήνα - Περιστέρι,"{'opening_hours': {'Mon': '00:00 - 24:00', 'Tue': '09:00 - 21:00', 'Wed': '09:00 - 21:00', 'Thu': '09:00 - 21:00', 'Fri': '09:00 - 21:00', 'Sat': '09:00 - 21:00', 'Sun': '09:00 - 20:00'}}",,12131,G013,,/stores-locator/peristeri/karpenisioy-derbenakion
Λ. Καραμανλή 13672 Αχαρνές,JYSK,Αχαρνές,Greece,"{'brand': 'JYSK', 'fascia': 'JYSK', 'category': 'Retail', 'edit_date': '20250510', 'lat_lon_source': 'Third Party'}",38.101618638583,23.741656243801,JYSK Αθήνα - Αχαρνές,"{'opening_hours': {'Mon': '00:00 - 24:00', 'Tue': '09:00 - 21:00', 'Wed': '09:00 - 21:00', 'Thu': '09:00 - 21:00', 'Fri': '09:00 - 21:00', 'Sat': '09:00 - 21:00', 'Sun': '09:00 - 20:00'}}",,13672,G006,,/stores-locator/aharnes/l-karamanli
Ακαδήμου 119 & 56224 Εύοσμος,JYSK,Εύοσμος,Greece,"{'brand': 'JYSK', 'fascia': 'JYSK', 'category': 'Retail', 'edit_date': '20250510', 'lat_lon_source': 'Third Party'}",40.677640194852,22.926843656783,JYSK Θεσσαλονίκη - Εύοσμος,"{'opening_hours': {'Mon': '00:00 - 24:00', 'Tue': '09:00 - 21:00', 'Wed': '09:00 - 21:00', 'Thu': '09:00 - 21:00', 'Fri': '09:00 - 21:00', 'Sat': '09:00 - 21:00', 'Sun': '09:00 - 20:00'}}",,56224,G064,,/stores-locator/eyosmos/akadimoy-119
Ν.Ε.Ο. Πατρών - Αθηνών 26441 Πάτρα,JYSK,Πάτρα,Greece,"{'brand': 'JYSK', 'fascia': 'JYSK', 'category': 'Retail', 'edit_date': '20250510', 'lat_lon_source': 'Third Party'}",38.2612959,21.749978,JYSK Πάτρα,"{'opening_hours': {'Mon': '00:00 - 24:00', 'Tue': '09:00 - 21:00', 'Wed': '09:00 - 21:00', 'Thu': '09:00 - 21:00', 'Fri': '09:00 - 21:00', 'Sat': '09:00 - 21:00', 'Sun': '09:00 - 20:00'}}",,26441,G009,,/stores-locator/patra/neo-patron-athinon
Πατρών Κλάους 26332 Πάτρα,JYSK,Πάτρα,Greece,"{'brand': 'JYSK', 'fascia': 'JYSK', 'category': 'Retail', 'edit_date': '20250510', 'lat_lon_source': 'Third Party'}",38.208542508376,21.760730084656,JYSK Πάτρα - Περιβόλα,"{'opening_hours': {'Mon': '00:00 - 24:00', 'Tue': '09:00 - 21:00', 'Wed': '09:00 - 21:00', 'Thu': '09:00 - 21:00', 'Fri': '09:00 - 21:00', 'Sat': '09:00 - 21:00', 'Sun': '09:00 - 20:00'}}",,26332,G066,,/stores-locator/patra/patron-klaoys
Μάννα 84100 Ερμούπολη,JYSK,Ερμούπολη,Greece,"{'brand': 'JYSK', 'fascia': 'JYSK', 'category': 'Retail', 'edit_date': '20250510', 'lat_lon_source': 'Third Party'}",37.425050196891,24.93494023603,JYSK Σύρος,"{'opening_hours': {'Mon': '00:00 - 24:00', 'Tue': '09:00 - 21:00', 'Wed': '09:00 - 21:00', 'Thu': '09:00 - 21:00', 'Fri': '09:00 - 21:00', 'Sat': '09:00 - 21:00', 'Sun': '09:00 - 20:00'}}",,84100,G065,,/stores-locator/ermoypoli/manna
Καραολή και Δημητρίου 23 56224 Σταυρούπολη,JYSK,Σταυρούπολη,Greece,"{'brand': 'JYSK', 'fascia': 'JYSK', 'category': 'Retail', 'edit_date': '20250510', 'lat_lon_source': 'Third Party'}",40.663963659293,22.9319259416,"JYSK Σταυρούπολη, Θεσσαλονίκη","{'opening_hours': {'Mon': '00:00 - 24:00', 'Tue': '09:00 - 21:00', 'Wed': '09:00 - 21:00', 'Thu': '09:00 - 21:00', 'Fri': '09:00 - 21:00', 'Sat': '09:00 - 21:00', 'Sun': '09:00 - 20:00'}}",,56224,G056,,/stores-locator/stayroypoli/karaoli-kai-dimitrioy-23
2ο χλμ Ιεράπετρας - Μακρύ Γιαλ 72200 Ιεράπετρα,JYSK,Ιεράπετρα,Greece,"{'brand': 'JYSK', 'fascia': 'JYSK', 'category': 'Retail', 'edit_date': '20250510', 'lat_lon_source': 'Third Party'}",35.00124683229,25.773393048129,JYSK Ιεράπετρα,"{'opening_hours': {'Mon': '00:00 - 24:00', 'Tue': '09:00 - 21:00', 'Wed': '09:00 - 21:00', 'Thu': '09:00 - 21:00', 'Fri': '09:00 - 21:00', 'Sat': '09:00 - 21:00', 'Sun': '09:00 - 20:00'}}",,72200,G062,,/stores-locator/ierapetra/2o-hlm-ierapetras-makry-gial
2ο χλμ ΕΟ Γιαννιτσών Θεσ/νίκης 58100 Γιαννιτσά,JYSK,Γιαννιτσά,Greece,"{'brand': 'JYSK', 'fascia': 'JYSK', 'category': 'Retail', 'edit_date': '20250510', 'lat_lon_source': 'Third Party'}",40.768091866163,22.434934812456,JYSK Γιαννιτσά,"{'opening_hours': {'Mon': '00:00 - 24:00', 'Tue': '09:00 - 21:00', 'Wed': '09:00 - 21:00', 'Thu': '09:00 - 21:00', 'Fri': '09:00 - 21:00', 'Sat': '09:00 - 21:00', 'Sun': '09:00 - 20:00'}}",,58100,G059,,/stores-locator/giannitsa/2o-hlm-eo-giannitson-thes/nikis
Ελ. Βενιζέλου & Θερίσου 74100 Ρέθυμνο,JYSK,Ρέθυμνο,Greece,"{'brand': 'JYSK', 'fascia': 'JYSK', 'category': 'Retail', 'edit_date': '20250510', 'lat_lon_source': 'Third Party'}",35.363071902633,24.44196596629,JYSK Ρέθυμνο,"{'opening_hours': {'Mon': '00:00 - 24:00', 'Tue': '09:00 - 21:00', 'Wed': '09:00 - 21:00', 'Thu': '09:00 - 21:00', 'Fri': '09:00 - 21:00', 'Sat': '09:00 - 21:00', 'Sun': '09:00 - 20:00'}}",,74100,G061,,/stores-locator/rethymno/el-benizeloy-therisoy
Λεωφ. 62 Μαρτύρων 71304 Ηράκλειο,JYSK,Ηράκλειο,Greece,"{'brand': 'JYSK', 'fascia': 'JYSK', 'category': 'Retail', 'edit_date': '20250510', 'lat_lon_source': 'Third Party'}",35.330893467329,25.111483730671,JYSK Ηράκλειο Βόρεια,"{'opening_hours': {'Mon': '00:00 - 24:00', 'Tue': '09:00 - 21:00', 'Wed': '09:00 - 21:00', 'Thu': '09:00 - 21:00', 'Fri': '09:00 - 21:00', 'Sat': '09:00 - 21:00', 'Sun': '09:00 - 20:00'}}",,71304,G063,,/stores-locator/irakleio/leof-62-martyron
Ναυπάκτου 30200 Μεσολόγγι,JYSK,Μεσολόγγι,Greece,"{'brand': 'JYSK', 'fascia': 'JYSK', 'category': 'Retail', 'edit_date': '20250510', 'lat_lon_source': 'Third Party'}",38.379837434764,21.451473231799,JYSK Μεσολόγγι,"{'opening_hours': {'Mon': '00:00 - 24:00', 'Tue': '09:00 - 21:00', 'Wed': '09:00 - 21:00', 'Thu': '09:00 - 21:00', 'Fri': '09:00 - 21:00', 'Sat': '09:00 - 21:00', 'Sun': '09:00 - 20:00'}}",,30200,G060,,/stores-locator/mesologgi/naypaktoy
Χαροκόπου 17671 Καλλιθέα,JYSK,Καλλιθέα,Greece,"{'brand': 'JYSK', 'fascia': 'JYSK', 'category': 'Retail', 'edit_date': '20250510', 'lat_lon_source': 'Third Party'}",37.9595658,23.7082568,JYSK Αθήνα - Καλλιθέα,"{'opening_hours': {'Mon': '00:00 - 24:00', 'Tue': '09:00 - 21:00', 'Wed': '09:00 - 21:00', 'Thu': '09:00 - 21:00', 'Fri': '09:00 - 21:00', 'Sat': '09:00 - 21:00', 'Sun': '09:00 - 20:00'}}",,17671,G027,,/stores-locator/kallithea/harokopoy
Αγίου Γερασίμου 17455 Άλιμος,JYSK,Άλιμος,Greece,"{'brand': 'JYSK', 'fascia': 'JYSK', 'category': 'Retail', 'edit_date': '20250510', 'lat_lon_source': 'Third Party'}",37.906424695754,23.724413700991,JYSK Αθήνα - Άλιμος,"{'opening_hours': {'Mon': '00:00 - 24:00', 'Tue': '09:00 - 21:00', 'Wed': '09:00 - 21:00', 'Thu': '09:00 - 21:00', 'Fri': '09:00 - 21:00', 'Sat': '09:00 - 21:00', 'Sun': '09:00 - 20:00'}}",,17455,G032,,/stores-locator/alimos/agioy-gerasimoy
Λεωφόρος Βουλιαγμένης 16674 Γλυφάδα,JYSK,Γλυφάδα,Greece,"{'brand': 'JYSK', 'fascia': 'JYSK', 'category': 'Retail', 'edit_date': '20250510', 'lat_lon_source': 'Third Party'}",37.866163110213,23.761280669975,JYSK Γλυφάδα,"{'opening_hours': {'Mon': '00:00 - 24:00', 'Tue': '09:00 - 21:00', 'Wed': '09:00 - 21:00', 'Thu': '09:00 - 21:00', 'Fri': '09:00 - 21:00', 'Sat': '09:00 - 21:00', 'Sun': '09:00 - 20:00'}}",,16674,G037,,/stores-locator/glyfada/leoforos-boyliagmenis
Λεωφόρος Μεσογείων 15231 Αθήνα,JYSK,Αθήνα,Greece,"{'brand': 'JYSK', 'fascia': 'JYSK', 'category': 'Retail', 'edit_date': '20250510', 'lat_lon_source': 'Third Party'}",38.0077882,23.8020999,JYSK Χαλάνδρι,"{'opening_hours': {'Mon': '00:00 - 24:00', 'Tue': '09:00 - 21:00', 'Wed': '09:00 - 21:00', 'Thu': '09:00 - 21:00', 'Fri': '09:00 - 21:00', 'Sat': '09:00 - 21:00', 'Sun': '09:00 - 20:00'}}",,15231,G038,,/stores-locator/athina/leoforos-mesogeion
Χρυσάνθου Τραπεζούντος 16777 Ελληνικό,JYSK,Ελληνικό,Greece,"{'brand': 'JYSK', 'fascia': 'JYSK', 'category': 'Retail', 'edit_date': '20250510', 'lat_lon_source': 'Third Party'}",37.89323454663,23.755238947247,JYSK Αθήνα - Ελληνικό,"{'opening_hours': {'Mon': '00:00 - 24:00', 'Tue': '09:00 - 21:00', 'Wed': '09:00 - 21:00', 'Thu': '09:00 - 21:00', 'Fri': '09:00 - 21:00', 'Sat': '09:00 - 21:00', 'Sun': '09:00 - 20:00'}}",,16777,G001,,/stores-locator/elliniko/hrysanthoy-trapezoyntos
"Αιγάλεω,Αιτωλικού, Σαλαμίνος 18545 Πειραιάς",JYSK,Πειραιάς,Greece,"{'brand': 'JYSK', 'fascia': 'JYSK', 'category': 'Retail', 'edit_date': '20250510', 'lat_lon_source': 'Third Party'}",37.953556359839,23.639274714357,JYSK Αθήνα - Πειραιάς,"{'opening_hours': {'Mon': '00:00 - 24:00', 'Tue': '09:00 - 21:00', 'Wed': '09:00 - 21:00', 'Thu': '09:00 - 21:00', 'Fri': '09:00 - 21:00', 'Sat': '09:00 - 21:00', 'Sun': '09:00 - 20:00'}}",,18545,G024,,/stores-locator/peiraias/aigaleoaitolikoy-salaminos
Τατοϊου 14451 Αθήνα,JYSK,Αθήνα,Greece,"{'brand': 'JYSK', 'fascia': 'JYSK', 'category': 'Retail', 'edit_date': '20250510', 'lat_lon_source': 'Third Party'}",38.0579761,23.7550654,JYSK Μεταμόρφωση,"{'opening_hours': {'Mon': '00:00 - 24:00', 'Tue': '09:00 - 21:00', 'Wed': '09:00 - 21:00', 'Thu': '09:00 - 21:00', 'Fri': '09:00 - 21:00', 'Sat': '09:00 - 21:00', 'Sun': '09:00 - 20:00'}}",,14451,G039,,/stores-locator/athina/tatoioy
2ο χλμ. Λεωφ. Βάρης - Κορωπίου 19400 Βάρη,JYSK,Βάρη,Greece,"{'brand': 'JYSK', 'fascia': 'JYSK', 'category': 'Retail', 'edit_date': '20250510', 'lat_lon_source': 'Third Party'}",37.845701939462,23.823608201205,JYSK Αθήνα - Βάρη,"{'opening_hours': {'Mon': '00:00 - 24:00', 'Tue': '09:00 - 21:00', 'Wed': '09:00 - 21:00', 'Thu': '09:00 - 21:00', 'Fri': '09:00 - 21:00', 'Sat': '09:00 - 21:00', 'Sun': '09:00 - 20:00'}}",,19400,G005,,/stores-locator/bari/2o-hlm-leof-baris-koropioy
Λεωφόρος Κηφισού 10442 Αθήνα,JYSK,Αθήνα,Greece,"{'brand': 'JYSK', 'fascia': 'JYSK', 'category': 'Retail', 'edit_date': '20250510', 'lat_lon_source': 'Third Party'}",38.000245889486,23.704057434749,JYSK Αθήνα - Κηφισσός,"{'opening_hours': {'Mon': '00:00 - 24:00', 'Tue': '09:00 - 21:00', 'Wed': '09:00 - 21:00', 'Thu': '09:00 - 21:00', 'Fri': '09:00 - 21:00', 'Sat': '09:00 - 21:00', 'Sun': '09:00 - 20:00'}}",,10442,G041,,/stores-locator/athina/leoforos-kifisoy
Κωνσταντίνου Σωτηρίου 19003 Μαρκόπουλο Μεσογαίας,JYSK,Μαρκόπουλο Μεσογαίας,Greece,"{'brand': 'JYSK', 'fascia': 'JYSK', 'category': 'Retail', 'edit_date': '20250510', 'lat_lon_source': 'Third Party'}",37.8740954,23.9333635,JYSK Μαρκόπουλο,"{'opening_hours': {'Mon': '00:00 - 24:00', 'Tue': '09:00 - 21:00', 'Wed': '09:00 - 21:00', 'Thu': '09:00 - 21:00', 'Fri': '09:00 - 21:00', 'Sat': '09:00 - 21:00', 'Sun': '09:00 - 20:00'}}",,19003,G057,,/stores-locator/markopoylo-mesogaias/konstantinoy-sotirioy
1ο χλμ Π.Ο. Πτολεμαίδας 50200 Πτολεμαϊδα,JYSK,Πτολεμαϊδα,Greece,"{'brand': 'JYSK', 'fascia': 'JYSK', 'category': 'Retail', 'edit_date': '20250510', 'lat_lon_source': 'Third Party'}",40.507648077157,21.690485179425,JYSK Πτολεμαϊδα,"{'opening_hours': {'Mon': '00:00 - 24:00', 'Tue': '09:00 - 21:00', 'Wed': '09:00 - 21:00', 'Thu': '09:00 - 21:00', 'Fri': '09:00 - 21:00', 'Sat': '09:00 - 21:00', 'Sun': '09:00 - 20:00'}}",,50200,G050,,/stores-locator/ptolemaida/1o-hlm-po-ptolemaidas
Λεωφορός Ελευθερίου Βενιζέλου 17675 Καλλιθέα,JYSK,Καλλιθέα,Greece,"{'brand': 'JYSK', 'fascia': 'JYSK', 'category': 'Retail', 'edit_date': '20250510', 'lat_lon_source': 'Third Party'}",37.9477523,23.6885986,JYSK Τζιτζιφιές,"{'opening_hours': {'Mon': '00:00 - 24:00', 'Tue': '09:00 - 21:00', 'Wed': '09:00 - 21:00', 'Thu': '09:00 - 21:00', 'Fri': '09:00 - 21:00', 'Sat': '09:00 - 21:00', 'Sun': '09:00 - 20:00'}}",,17675,G058,,/stores-locator/kallithea/leoforos-eleytherioy-benizeloy
Ε.Ο. Αλεξανδρούπολης - Φερρών 68100 Αλεξανδρούπολη,JYSK,Αλεξανδρούπολη,Greece,"{'brand': 'JYSK', 'fascia': 'JYSK', 'category': 'Retail', 'edit_date': '20250510', 'lat_lon_source': 'Third Party'}",40.859239485944,25.956045642483,JYSK Αλεξανδρούπολη,"{'opening_hours': {'Mon': '00:00 - 24:00', 'Tue': '09:00 - 21:00', 'Wed': '09:00 - 21:00', 'Thu': '00:00 - 24:00', 'Fri': '09:00 - 21:00', 'Sat': '09:00 - 21:00', 'Sun': '09:00 - 20:00'}}",,68100,G051,,/stores-locator/alexandroypoli/eo-alexandroypolis-ferron
Σαλαμινομάχων 2 18901 Σαλαμίνα,JYSK,Σαλαμίνα,Greece,"{'brand': 'JYSK', 'fascia': 'JYSK', 'category': 'Retail', 'edit_date': '20250510', 'lat_lon_source': 'Third Party'}",37.966359038877,23.52980196476,JYSK Σαλαμίνα,"{'opening_hours': {'Mon': '00:00 - 24:00', 'Tue': '09:00 - 21:00', 'Wed': '09:00 - 21:00', 'Thu': '09:00 - 21:00', 'Fri': '09:00 - 21:00', 'Sat': '09:00 - 21:00', 'Sun': '09:00 - 20:00'}}",,18901,G054,,/stores-locator/salamina/salaminomahon-2
Εθνική Οδός Άρτας - Ιωαννίνων 47100 Άρτα,JYSK,Άρτα,Greece,"{'brand': 'JYSK', 'fascia': 'JYSK', 'category': 'Retail', 'edit_date': '20250510', 'lat_lon_source': 'Third Party'}",39.154223637194,20.966498471347,JYSK Άρτα,"{'opening_hours': {'Mon': '00:00 - 24:00', 'Tue': '09:00 - 21:00', 'Wed': '09:00 - 21:00', 'Thu': '09:00 - 21:00', 'Fri': '09:00 - 21:00', 'Sat': '09:00 - 21:00', 'Sun': '09:00 - 20:00'}}",,47100,G055,,/stores-locator/arta/ethniki-odos-artas-ioanninon
Πειραιώς & Φλέμινγκ 18233 Άγιος Ιωάννης Ρέντης,JYSK,Άγιος Ιωάννης Ρέντης,Greece,"{'brand': 'JYSK', 'fascia': 'JYSK', 'category': 'Retail', 'edit_date': '20250510', 'lat_lon_source': 'Third Party'}",37.954984314772,23.671465516091,JYSK Αθήνα - Αγ. Ι. Ρέντης,"{'opening_hours': {'Mon': '00:00 - 24:00', 'Tue': '09:00 - 21:00', 'Wed': '09:00 - 21:00', 'Thu': '09:00 - 21:00', 'Fri': '09:00 - 21:00', 'Sat': '09:00 - 21:00', 'Sun': '09:00 - 20:00'}}",,18233,G012,,/stores-locator/agios-ioannis-rentis/peiraios-flemingk
Περιφερειακή οδός Βέροιας 59132 Βέροια,JYSK,Βέροια,Greece,"{'brand': 'JYSK', 'fascia': 'JYSK', 'category': 'Retail', 'edit_date': '20250510', 'lat_lon_source': 'Third Party'}",40.528492,22.21192464418,JYSK Βέροια,"{'opening_hours': {'Mon': '00:00 - 24:00', 'Tue': '09:00 - 21:00', 'Wed': '09:00 - 21:00', 'Thu': '09:00 - 21:00', 'Fri': '09:00 - 21:00', 'Sat': '09:00 - 21:00', 'Sun': '09:00 - 20:00'}}",,59132,G052,,/stores-locator/beroia/perifereiaki-odos-beroias
Σταυροπόδι 29100 Ζακύνθος,JYSK,Ζακύνθος,Greece,"{'brand': 'JYSK', 'fascia': 'JYSK', 'category': 'Retail', 'edit_date': '20250510', 'lat_lon_source': 'Third Party'}",37.774411730451,20.893141010837,JYSK Ζάκυνθος,"{'opening_hours': {'Mon': '00:00 - 24:00', 'Tue': '09:00 - 21:00', 'Wed': '09:00 - 21:00', 'Thu': '09:00 - 21:00', 'Fri': '09:00 - 21:00', 'Sat': '09:00 - 21:00', 'Sun': '09:00 - 20:00'}}",,29100,G049,,/stores-locator/zakynthos/stayropodi
Αναπαύσεως 15238 Βριλήσσια,JYSK,Βριλήσσια,Greece,"{'brand': 'JYSK', 'fascia': 'JYSK', 'category': 'Retail', 'edit_date': '20250510', 'lat_lon_source': 'Third Party'}",38.0461229,23.8405803,JYSK Βριλήσσια,"{'opening_hours': {'Mon': '00:00 - 24:00', 'Tue': '09:00 - 21:00', 'Wed': '09:00 - 21:00', 'Thu': '09:00 - 21:00', 'Fri': '09:00 - 21:00', 'Sat': '09:00 - 21:00', 'Sun': '09:00 - 20:00'}}",,15238,G047,,/stores-locator/brilissia/anapayseos
1o χλμ Αφύτου - Ν. Μουδανιών 63077 Χαλκιδική,JYSK,Χαλκιδική,Greece,"{'brand': 'JYSK', 'fascia': 'JYSK', 'category': 'Retail', 'edit_date': '20250510', 'lat_lon_source': 'Third Party'}",40.104833,23.427499,JYSK Χαλκιδική,"{'opening_hours': {'Mon': '00:00 - 24:00', 'Tue': '09:00 - 21:00', 'Wed': '09:00 - 21:00', 'Thu': '09:00 - 21:00', 'Fri': '09:00 - 21:00', 'Sat': '09:00 - 21:00', 'Sun': '09:00 - 20:00'}}",,63077,G053,,/stores-locator/halkidiki/1o-hlm-afytoy-n-moydanion
Κορίνθου Παρνασσού και 26222 Πάτρα,JYSK,Πάτρα,Greece,"{'brand': 'JYSK', 'fascia': 'JYSK', 'category': 'Retail', 'edit_date': '20250510', 'lat_lon_source': 'Third Party'}",38.232656547961,21.728111481684,JYSK Πάτρα Νότος,"{'opening_hours': {'Mon': '00:00 - 24:00', 'Tue': '09:00 - 21:00', 'Wed': '09:00 - 21:00', 'Thu': '09:00 - 21:00', 'Fri': '09:00 - 21:00', 'Sat': '09:00 - 21:00', 'Sun': '09:00 - 20:00'}}",,26222,G046,,/stores-locator/patra/korinthoy-parnassoy-kai
"Μητρόπολίτου Γρηγορίου, 38334 Βόλος",JYSK,Βόλος,Greece,"{'brand': 'JYSK', 'fascia': 'JYSK', 'category': 'Retail', 'edit_date': '20250510', 'lat_lon_source': 'Third Party'}",39.365570396792,22.93468831157,JYSK Βόλος,"{'opening_hours': {'Mon': '00:00 - 24:00', 'Tue': '09:00 - 21:00', 'Wed': '09:00 - 21:00', 'Thu': '09:00 - 21:00', 'Fri': '09:00 - 21:00', 'Sat': '09:00 - 21:00', 'Sun': '09:00 - 20:00'}}",,38334,G048,,/stores-locator/bolos/mitropolitoy-grigorioy
1ο χλμ Άργους Ναυπλίου 21200 Άργος,JYSK,Άργος,Greece,"{'brand': 'JYSK', 'fascia': 'JYSK', 'category': 'Retail', 'edit_date': '20250510', 'lat_lon_source': 'Third Party'}",37.626493787042,22.739806580112,JYSK Άργος,"{'opening_hours': {'Mon': '00:00 - 24:00', 'Tue': '09:00 - 21:00', 'Wed': '09:00 - 21:00', 'Thu': '09:00 - 21:00', 'Fri': '09:00 - 21:00', 'Sat': '09:00 - 21:00', 'Sun': '09:00 - 20:00'}}",,21200,G042,,/stores-locator/argos/1o-hlm-argoys-nayplioy
Λεωφόρος Κηφισσού 12241 Αιγάλεω,JYSK,Αιγάλεω,Greece,"{'brand': 'JYSK', 'fascia': 'JYSK', 'category': 'Retail', 'edit_date': '20250510', 'lat_lon_source': 'Third Party'}",37.9813528,23.6791517,JYSK Αθήνα River West,"{'opening_hours': {'Mon': '00:00 - 24:00', 'Tue': '09:00 - 21:00', 'Wed': '09:00 - 21:00', 'Thu': '09:00 - 21:00', 'Fri': '09:00 - 21:00', 'Sat': '09:00 - 21:00', 'Sun': '09:00 - 20:00'}}",,12241,G045,,/stores-locator/aigaleo/leoforos-kifissoy
3ο χλμ Χαλκίδας - Νέας Αρτάκης 34100 Χαλκίδα,JYSK,Χαλκίδα,Greece,"{'brand': 'JYSK', 'fascia': 'JYSK', 'category': 'Retail', 'edit_date': '20250510', 'lat_lon_source': 'Third Party'}",38.481332245089,23.628967886663,JYSK Χαλκίδα,"{'opening_hours': {'Mon': '00:00 - 24:00', 'Tue': '09:00 - 21:00', 'Wed': '09:00 - 21:00', 'Thu': '09:00 - 21:00', 'Fri': '09:00 - 21:00', 'Sat': '09:00 - 21:00', 'Sun': '09:00 - 20:00'}}",,34100,G036,,/stores-locator/halkida/3o-hlm-halkidas-neas-artakis
Λεωφόρος Εθνικής Αντιστάσεως 19200 Ελευσίνα,JYSK,Ελευσίνα,Greece,"{'brand': 'JYSK', 'fascia': 'JYSK', 'category': 'Retail', 'edit_date': '20250510', 'lat_lon_source': 'Third Party'}",38.05188735498,23.526566820632,JYSK Ελευσίνα,"{'opening_hours': {'Mon': '00:00 - 24:00', 'Tue': '09:00 - 21:00', 'Wed': '09:00 - 21:00', 'Thu': '09:00 - 21:00', 'Fri': '09:00 - 21:00', 'Sat': '09:00 - 21:00', 'Sun': '09:00 - 20:00'}}",,19200,G043,,/stores-locator/eleysina/leoforos-ethnikis-antistaseos
Παπαναστασίου και Νεφέλης 71409 Ηράκλειο,JYSK,Ηράκλειο,Greece,"{'brand': 'JYSK', 'fascia': 'JYSK', 'category': 'Retail', 'edit_date': '20250510', 'lat_lon_source': 'Third Party'}",35.313889503984,25.1416902609,JYSK Ηράκλειο,"{'opening_hours': {'Mon': '00:00 - 24:00', 'Tue': '09:00 - 21:00', 'Wed': '09:00 - 21:00', 'Thu': '09:00 - 21:00', 'Fri': '09:00 - 21:00', 'Sat': '09:00 - 21:00', 'Sun': '09:00 - 20:00'}}",,71409,G040,,/stores-locator/irakleio/papanastasioy-kai-nefelis
Λεωφόρος Μαραθώνος 19009 Πικέρμι,JYSK,Πικέρμι,Greece,"{'brand': 'JYSK', 'fascia': 'JYSK', 'category': 'Retail', 'edit_date': '20250510', 'lat_lon_source': 'Third Party'}",37.9991113,23.9330637,JYSK Πικέρμι,"{'opening_hours': {'Mon': '00:00 - 24:00', 'Tue': '09:00 - 21:00', 'Wed': '09:00 - 21:00', 'Thu': '09:00 - 21:00', 'Fri': '09:00 - 21:00', 'Sat': '09:00 - 21:00', 'Sun': '09:00 - 20:00'}}",,19009,G044,,/stores-locator/pikermi/leoforos-marathonos
Πλαστήρα & Αθηνών Θεσσαλονίκης 60100 Κατερίνη,JYSK,Κατερίνη,Greece,"{'brand': 'JYSK', 'fascia': 'JYSK', 'category': 'Retail', 'edit_date': '20250510', 'lat_lon_source': 'Third Party'}",40.284485558102,22.519193172861,JYSK Κατερίνη,"{'opening_hours': {'Mon': '00:00 - 24:00', 'Tue': '09:00 - 21:00', 'Wed': '09:00 - 21:00', 'Thu': '09:00 - 21:00', 'Fri': '09:00 - 21:00', 'Sat': '09:00 - 21:00', 'Sun': '09:00 - 20:00'}}",,60100,G023,,/stores-locator/katerini/plastira-athinon-thessalonikis
Ρήγα Φεραίου & Μουτζουροπούλου 22100 Τρίπολη,JYSK,Τρίπολη,Greece,"{'brand': 'JYSK', 'fascia': 'JYSK', 'category': 'Retail', 'edit_date': '20250510', 'lat_lon_source': 'Third Party'}",37.5166484,22.3829174,JYSK Τρίπολη,"{'opening_hours': {'Mon': '00:00 - 24:00', 'Tue': '09:00 - 21:00', 'Wed': '09:00 - 21:00', 'Thu': '09:00 - 21:00', 'Fri': '09:00 - 21:00', 'Sat': '09:00 - 21:00', 'Sun': '09:00 - 20:00'}}",,22100,G025,,/stores-locator/tripoli/riga-feraioy-moytzoyropoyloy
"Βερμίου, Νέας Κάρδιας, 50100 Κοζάνη",JYSK,Κοζάνη,Greece,"{'brand': 'JYSK', 'fascia': 'JYSK', 'category': 'Retail', 'edit_date': '20250510', 'lat_lon_source': 'Third Party'}",40.306293576672,21.807365119457,JYSK Κοζάνη,"{'opening_hours': {'Mon': '00:00 - 24:00', 'Tue': '09:00 - 21:00', 'Wed': '09:00 - 21:00', 'Thu': '09:00 - 21:00', 'Fri': '09:00 - 21:00', 'Sat': '09:00 - 21:00', 'Sun': '09:00 - 20:00'}}",,50100,G033,,/stores-locator/kozani/bermioy-neas-kardias
4ο χλμ. Ξάνθης - Κομοτηνής 67100 Ξάνθη,JYSK,Ξάνθη,Greece,"{'brand': 'JYSK', 'fascia': 'JYSK', 'category': 'Retail', 'edit_date': '20250510', 'lat_lon_source': 'Third Party'}",41.108281494315,24.926261901855,JYSK Ξάνθη,"{'opening_hours': {'Mon': '00:00 - 24:00', 'Tue': '09:00 - 21:00', 'Wed': '09:00 - 21:00', 'Thu': '09:00 - 21:00', 'Fri': '09:00 - 21:00', 'Sat': '09:00 - 21:00', 'Sun': '09:00 - 20:00'}}",,67100,G014,,/stores-locator/xanthi/4o-hlm-xanthis-komotinis
1ο χλμ. Σερρών - Δράμας 62124 Σέρρες,JYSK,Σέρρες,Greece,"{'brand': 'JYSK', 'fascia': 'JYSK', 'category': 'Retail', 'edit_date': '20250510', 'lat_lon_source': 'Third Party'}",41.092578658102,23.570680659427,JYSK Σέρρες,"{'opening_hours': {'Mon': '00:00 - 24:00', 'Tue': '09:00 - 21:00', 'Wed': '09:00 - 21:00', 'Thu': '09:00 - 21:00', 'Fri': '09:00 - 21:00', 'Sat': '09:00 - 21:00', 'Sun': '09:00 - 20:00'}}",,62124,G016,,/stores-locator/serres/1o-hlm-serron-dramas
3ο χλμ. Κέρκυρας - Πέλεκα 49100 Κέρκυρα,JYSK,Κέρκυρα,Greece,"{'brand': 'JYSK', 'fascia': 'JYSK', 'category': 'Retail', 'edit_date': '20250510', 'lat_lon_source': 'Third Party'}",39.613684925688,19.887682544819,JYSK Κέρκυρα,"{'opening_hours': {'Mon': '00:00 - 24:00', 'Tue': '09:00 - 21:00', 'Wed': '09:00 - 21:00', 'Thu': '09:00 - 21:00', 'Fri': '09:00 - 21:00', 'Sat': '09:00 - 21:00', 'Sun': '09:00 - 20:00'}}",,49100,G028,,/stores-locator/kerkyra/3o-hlm-kerkyras-peleka
Σάμου & Κεφαλληνίας 65201 Καβάλα,JYSK,Καβάλα,Greece,"{'brand': 'JYSK', 'fascia': 'JYSK', 'category': 'Retail', 'edit_date': '20250510', 'lat_lon_source': 'Third Party'}",40.945002886491,24.423590406676,JYSK Καβάλα,"{'opening_hours': {'Mon': '00:00 - 24:00', 'Tue': '09:00 - 21:00', 'Wed': '09:00 - 21:00', 'Thu': '09:00 - 21:00', 'Fri': '09:00 - 21:00', 'Sat': '09:00 - 21:00', 'Sun': '09:00 - 20:00'}}",,65201,G034,,/stores-locator/kabala/samoy-kefallinias
Δημοκρατίας 61100 Κιλκίς,JYSK,Κιλκίς,Greece,"{'brand': 'JYSK', 'fascia': 'JYSK', 'category': 'Retail', 'edit_date': '20250510', 'lat_lon_source': 'Third Party'}",40.983801939163,22.86350262991,JYSK Κιλκίς,"{'opening_hours': {'Mon': '00:00 - 24:00', 'Tue': '09:00 - 21:00', 'Wed': '09:00 - 21:00', 'Thu': '09:00 - 21:00', 'Fri': '09:00 - 21:00', 'Sat': '09:00 - 21:00', 'Sun': '09:00 - 20:00'}}",,61100,G035,,/stores-locator/kilkis/dimokratias
Γέφυρα Ισθμού 20100 Κόρινθος,JYSK,Κόρινθος,Greece,"{'brand': 'JYSK', 'fascia': 'JYSK', 'category': 'Retail', 'edit_date': '20250510', 'lat_lon_source': 'Third Party'}",37.924763398201,22.988380393212,JYSK Κόρινθος,"{'opening_hours': {'Mon': '00:00 - 24:00', 'Tue': '09:00 - 21:00', 'Wed': '09:00 - 21:00', 'Thu': '09:00 - 21:00', 'Fri': '09:00 - 21:00', 'Sat': '09:00 - 21:00', 'Sun': '09:00 - 20:00'}}",,20100,G029,,/stores-locator/korinthos/gefyra-isthmoy
Ηρώων Πολυτεχνείου 15121 Πεύκη,JYSK,Πεύκη,Greece,"{'brand': 'JYSK', 'fascia': 'JYSK', 'category': 'Retail', 'edit_date': '20250510', 'lat_lon_source': 'Third Party'}",38.059985971855,23.788209521108,JYSK Αθήνα - Πεύκη,"{'opening_hours': {'Mon': '00:00 - 24:00', 'Tue': '09:00 - 21:00', 'Wed': '09:00 - 21:00', 'Thu': '09:00 - 21:00', 'Fri': '09:00 - 21:00', 'Sat': '09:00 - 21:00', 'Sun': '09:00 - 20:00'}}",,15121,G030,,/stores-locator/peyki/iroon-polytehneioy
Λεωφόρος Μαραθώνος 15344 Αθήνα,JYSK,Αθήνα,Greece,"{'brand': 'JYSK', 'fascia': 'JYSK', 'category': 'Retail', 'edit_date': '20250510', 'lat_lon_source': 'Third Party'}",38.007016955656,23.863418228836,JYSK Αθήνα - Γέρακας,"{'opening_hours': {'Mon': '00:00 - 24:00', 'Tue': '09:00 - 21:00', 'Wed': '09:00 - 21:00', 'Thu': '09:00 - 21:00', 'Fri': '09:00 - 21:00', 'Sat': '09:00 - 21:00', 'Sun': '09:00 - 20:00'}}",,15344,G015,,/stores-locator/athina/leoforos-marathonos
Ε.Ο. Αγρινίου - Θέρμου 30131 Αγρίνιο,JYSK,Αγρίνιο,Greece,"{'brand': 'JYSK', 'fascia': 'JYSK', 'category': 'Retail', 'edit_date': '20250510', 'lat_lon_source': 'Third Party'}",38.614448498153,21.431462913752,JYSK Αγρίνιο,"{'opening_hours': {'Mon': '00:00 - 24:00', 'Tue': '09:00 - 21:00', 'Wed': '09:00 - 21:00', 'Thu': '09:00 - 21:00', 'Fri': '09:00 - 21:00', 'Sat': '09:00 - 21:00', 'Sun': '09:00 - 20:00'}}",,30131,G010,,/stores-locator/agrinio/eo-agrinioy-thermoy
