addr_full,brand,city,country,extras,lat,lon,name,opening_hours,phone,postcode,ref,state,website
Λεωφ. Δωδώνης2,Kotsovolos,Ιωάννινα,Greece,"{'brand': 'Kotsovolos', 'fascia': 'Kosovolos', 'category': 'Retail', 'edit_date': '20250510', 'lat_lon_source': 'Third Party'}",39.66274,20.84955,Kotsovolos K spot Ιωάννινα,"{'opening_hours': {'Mon': '09:00-21:00', 'Tue': '09:00-21:00', 'Wed': '09:00-21:00', 'Thu': '09:00-21:00', 'Fri': '09:00-21:00', 'Sat': '09:00 -20:00', 'Sun': '11:00-16:00'}}",2102899999,45332,13001,,https://www.kotsovolos.gr/store/ioannina-spot
1ο ΧΛΜ. Επαρ. Οδ. Νέων Μουδανιών – Τριγλίας,Kotsovolos,Μουδανιά,Greece,"{'brand': 'Kotsovolos', 'fascia': 'Kosovolos', 'category': 'Retail', 'edit_date': '20250510', 'lat_lon_source': 'Third Party'}",40.24965,23.27920,Kotsovolos Mουδανιά ,"{'opening_hours': {'Mon': '09:00-21:00', 'Tue': '09:00-21:00', 'Wed': '09:00-21:00', 'Thu': '09:00-21:00', 'Fri': '09:00-21:00', 'Sat': '09:00-20:00', 'Sun': '11:00-16:00'}}",2102899999,63200,32001,,https://www.kotsovolos.gr/store/moudanianew
Λεωφ. Κηφισού96-98 ,Kotsovolos,Αιγάλεω,Greece,"{'brand': 'Kotsovolos', 'fascia': 'Kosovolos', 'category': 'Retail', 'edit_date': '20250510', 'lat_lon_source': 'Third Party'}",37.98015,23.67875,Kotsovolos River West,"{'opening_hours': {'Mon': '09:00-21:00', 'Tue': '09:00-21:00', 'Wed': '09:00-21:00', 'Thu': '09:00-21:00', 'Fri': '09:00-21:00', 'Sat': '09:00 -20:00', 'Sun': '11:00-20:00'}}",2102899999,12241,10093,,https://www.kotsovolos.gr/store/river-west
Marina Sani0,Kotsovolos,Κασσάνδρα,Greece,"{'brand': 'Kotsovolos', 'fascia': 'Kosovolos', 'category': 'Retail', 'edit_date': '20250510', 'lat_lon_source': 'Third Party'}",40.09909,23.31190,Kotsovolos Sani Resort,"{'opening_hours': {'Mon': '10:00-22:00', 'Tue': '10:00-22:00', 'Wed': '10:00-22:00', 'Thu': '10:00-22:00', 'Fri': '10:00-22:00', 'Sat': '10:00-22:00', 'Sun': '10:00-22:00'}}",2102899999,63077,18501,,https://www.kotsovolos.gr/store/sani-resort
Λεωφ. Μεσογείων448,Kotsovolos,Αγία Παρασκευή,Greece,"{'brand': 'Kotsovolos', 'fascia': 'Kosovolos', 'category': 'Retail', 'edit_date': '20250510', 'lat_lon_source': 'Third Party'}",38.01383,23.82929,Kotsovolos Αγία Παρασκευή,"{'opening_hours': {'Mon': '09:00-21:00', 'Tue': '09:00-21:00', 'Wed': '09:00-21:00', 'Thu': '09:00-21:00', 'Fri': '09:00-21:00', 'Sat': '09:00 -20:00', 'Sun': '11:00-20:00'}}",2102899999,15343,9030551,,https://www.kotsovolos.gr/store/agia-paraskevi
Λεωφ. Δημοκρατίας266 ,Kotsovolos,Άγιοι Ανάργυροι,Greece,"{'brand': 'Kotsovolos', 'fascia': 'Kosovolos', 'category': 'Retail', 'edit_date': '20250510', 'lat_lon_source': 'Third Party'}",38.04372,23.72773,Kotsovolos Άγιοι Ανάργυροι,"{'opening_hours': {'Mon': '09:00-21:00', 'Tue': '09:00-21:00', 'Wed': '09:00-21:00', 'Thu': '09:00-21:00', 'Fri': '09:00-21:00', 'Sat': '09:00 -20:00', 'Sun': '11:00-20:00'}}",2102899999,13562,10003,,https://www.kotsovolos.gr/store/agioi-anargiroi
Κ. Καραμανλή 51,Kotsovolos,Άγιος Νικόλαος Κρήτης,Greece,"{'brand': 'Kotsovolos', 'fascia': 'Kosovolos', 'category': 'Retail', 'edit_date': '20250510', 'lat_lon_source': 'Third Party'}",35.18605,25.70743,Kotsovolos Άγιος Νικόλαος,"{'opening_hours': {'Mon': '09:00-21:00', 'Tue': '09:00-21:00', 'Wed': '09:00-21:00', 'Thu': '09:00-21:00', 'Fri': '09:00-21:00', 'Sat': '09:00-20:00', 'Sun': '11:00-18:00'}}",2841022224,72100,24001,,https://www.kotsovolos.gr/store/agiosnikolaos
Χαριλάου Τρικούπη & Μάκρη12 ,Kotsovolos,Αγρίνιο,Greece,"{'brand': 'Kotsovolos', 'fascia': 'Kosovolos', 'category': 'Retail', 'edit_date': '20250510', 'lat_lon_source': 'Third Party'}",38.62250,21.41016,Kotsovolos Αγρίνιο,"{'opening_hours': {'Mon': '09:00-21:00', 'Tue': '09:00-21:00', 'Wed': '09:00-21:00', 'Thu': '09:00-21:00', 'Fri': '09:00-21:00', 'Sat': '09:00 -20:00', 'Sun': '11:00-16:00'}}",2102899999,30100,10005,,https://www.kotsovolos.gr/store/agrinio
Εμπορικό Πάρκο Αεροδρομίου  ,Kotsovolos,Σπάτα,Greece,"{'brand': 'Kotsovolos', 'fascia': 'Kosovolos', 'category': 'Retail', 'edit_date': '20250510', 'lat_lon_source': 'Third Party'}",37.92324,23.93001,Kotsovolos Αεροδρόμιο Ελ. Βενιζέλος,"{'opening_hours': {'Mon': '10:00-21:00', 'Tue': '10:00-21:00', 'Wed': '10:00-21:00', 'Thu': '10:00-21:00', 'Fri': '10:00-21:00', 'Sat': '10:00-20:00', 'Sun': '11:00-20:00'}}",2102899999,19019,10006,,https://www.kotsovolos.gr/store/aerodromio-el-venizelos
Κορίνθου 52 & Αγίας Κυριακής  ,Kotsovolos,Αίγιο,Greece,"{'brand': 'Kotsovolos', 'fascia': 'Kosovolos', 'category': 'Retail', 'edit_date': '20250510', 'lat_lon_source': 'Third Party'}",38.24338,22.09279,Kotsovolos Αίγιο,"{'opening_hours': {'Mon': '09:00-21:00', 'Tue': '09:00-21:00', 'Wed': '09:00-21:00', 'Thu': '09:00-21:00', 'Fri': '09:00-21:00', 'Sat': '09:00 -20:00', 'Sun': '11:00-16:00'}}",2102899999,25100,10008,,https://www.kotsovolos.gr/store/aigio
Λεωφ.Δημοκρατίας294,Kotsovolos,Αλεξανδρούπολη,Greece,"{'brand': 'Kotsovolos', 'fascia': 'Kosovolos', 'category': 'Retail', 'edit_date': '20250510', 'lat_lon_source': 'Third Party'}",40.84599,25.87494,Kotsovolos Αλεξανδρούπολη - Λ.Δημοκρατίας 294,"{'opening_hours': {'Mon': '09:00-21:00', 'Tue': '09:00-21:00', 'Wed': '09:00-21:00', 'Thu': '09:00-21:00', 'Fri': '09:00-21:00', 'Sat': '09:00-20:00', 'Sun': '11:00-16:00'}}",2102899999,68100,19001,,https://www.kotsovolos.gr/store/alexandroupoly
Λεωφ. Κηφισίας124 ,Kotsovolos,Αμπελόκηποι,Greece,"{'brand': 'Kotsovolos', 'fascia': 'Kosovolos', 'category': 'Retail', 'edit_date': '20250510', 'lat_lon_source': 'Third Party'}",37.99547,23.76839,Kotsovolos Αμπελόκηποι,"{'opening_hours': {'Mon': '09:00-21:00', 'Tue': '09:00-21:00', 'Wed': '09:00-21:00', 'Thu': '09:00-21:00', 'Fri': '09:00-21:00', 'Sat': '09:00 -20:00', 'Sun': '11:00-20:00'}}",2102899999,11526,10044,,https://www.kotsovolos.gr/store/ampelokipoi-kifisias
Λεωφ. Καραμανλή20 ,Kotsovolos,Ανάβυσσος,Greece,"{'brand': 'Kotsovolos', 'fascia': 'Kosovolos', 'category': 'Retail', 'edit_date': '20250510', 'lat_lon_source': 'Third Party'}",37.72621,23.94416,Kotsovolos Ανάβυσσος,"{'opening_hours': {'Mon': '09:00-21:00', 'Tue': '09:00-21:00', 'Wed': '09:00-21:00', 'Thu': '09:00-21:00', 'Fri': '09:00-21:00', 'Sat': '09:00 -20:00', 'Sun': '11:00-20:00'}}",2102899999,19013,10010,,https://www.kotsovolos.gr/store/anavissos
4ο ΧΛΜ Άργους - Ναυπλίου  ,Kotsovolos,Άργος,Greece,"{'brand': 'Kotsovolos', 'fascia': 'Kosovolos', 'category': 'Retail', 'edit_date': '20250510', 'lat_lon_source': 'Third Party'}",37.61954,22.76099,Kotsovolos Άργος,"{'opening_hours': {'Mon': '09:00-21:00', 'Tue': '09:00-21:00', 'Wed': '09:00-21:00', 'Thu': '09:00-21:00', 'Fri': '09:00-21:00', 'Sat': '09:00 -20:00', 'Sun': '11:00-16:00'}}",2102899999,21100,10011,,https://www.kotsovolos.gr/store/argos
Σπ. Σπύρου και Πούλιου Δράκου4 ,Kotsovolos,Άρτα,Greece,"{'brand': 'Kotsovolos', 'fascia': 'Kosovolos', 'category': 'Retail', 'edit_date': '20250510', 'lat_lon_source': 'Third Party'}",39.15548,20.98170,Kotsovolos Άρτα,"{'opening_hours': {'Mon': '09:00-21:00', 'Tue': '09:00-21:00', 'Wed': '09:00-21:00', 'Thu': '09:00-21:00', 'Fri': '09:00-21:00', 'Sat': '09:00 -20:00', 'Sun': '11:00-16:00'}}",2102899999,47100,10012,,https://www.kotsovolos.gr/store/arta
Βενιζέλου1,Kotsovolos,Βέροια,Greece,"{'brand': 'Kotsovolos', 'fascia': 'Kosovolos', 'category': 'Retail', 'edit_date': '20250510', 'lat_lon_source': 'Third Party'}",40.52381,22.20500,Kotsovolos Βέροια,"{'opening_hours': {'Mon': '09:00-21:00', 'Tue': '09:00-21:00', 'Wed': '09:00-21:00', 'Thu': '09:00-21:00', 'Fri': '09:00-21:00', 'Sat': '09:00 -20:00', 'Sun': '11:00-16:00'}}",2102899999,59132,13501,,https://www.kotsovolos.gr/store/Veroia
Ιάσωνος 58 & Ιωλκού  ,Kotsovolos,Βόλος,Greece,"{'brand': 'Kotsovolos', 'fascia': 'Kosovolos', 'category': 'Retail', 'edit_date': '20250510', 'lat_lon_source': 'Third Party'}",39.36054,22.94507,Kotsovolos Βόλος,"{'opening_hours': {'Mon': '09:00-21:00', 'Tue': '09:00-21:00', 'Wed': '09:00-21:00', 'Thu': '09:00-21:00', 'Fri': '09:00-21:00', 'Sat': '09:00 -20:00', 'Sun': '11:00-16:00'}}",2102899999,38221,10013,,https://www.kotsovolos.gr/store/volos
Λεωφ. Πεντέλης57 ,Kotsovolos,Βριλήσσια,Greece,"{'brand': 'Kotsovolos', 'fascia': 'Kosovolos', 'category': 'Retail', 'edit_date': '20250510', 'lat_lon_source': 'Third Party'}",38.04167,23.83254,Kotsovolos Βριλήσσια,"{'opening_hours': {'Mon': '09:00-21:00', 'Tue': '09:00-21:00', 'Wed': '09:00-21:00', 'Thu': '09:00-21:00', 'Fri': '09:00-21:00', 'Sat': '09:00 -20:00', 'Sun': '11:00-20:00'}}",2102899999,15235,10014,,https://www.kotsovolos.gr/store/vrilissia-pentelis
20ής Οκτωβρίου & Δουβατζή,Kotsovolos,Γιαννιτσά,Greece,"{'brand': 'Kotsovolos', 'fascia': 'Kosovolos', 'category': 'Retail', 'edit_date': '20250510', 'lat_lon_source': 'Third Party'}",40.79245,22.40841,Kotsovolos Γιαννιτσά,"{'opening_hours': {'Mon': '09:00-17:00', 'Tue': '09:00-21:00', 'Wed': '09:00-17:00', 'Thu': '09:00-21:00', 'Fri': '09:00-21:00', 'Sat': '09:00-17:00', 'Sun': '11:00-17:00'}}",2382023379,58100,29001,,https://www.kotsovolos.gr/store/giannitsanew
Λεωφ. Βουλιαγμένης 83 & Προφήτη Ηλία 18 & Εμμ. Δημελά 12  ,Kotsovolos,Γλυφάδα,Greece,"{'brand': 'Kotsovolos', 'fascia': 'Kosovolos', 'category': 'Retail', 'edit_date': '20250510', 'lat_lon_source': 'Third Party'}",37.87277,23.75879,Kotsovolos Γλυφάδα - Λ.Βουλιαγμένης,"{'opening_hours': {'Mon': '09:00-21:00', 'Tue': '09:00-21:00', 'Wed': '09:00-21:00', 'Thu': '09:00-21:00', 'Fri': '09:00-21:00', 'Sat': '09:00 -20:00', 'Sun': '11:00-20:00'}}",2102899999,16674,10017,,https://www.kotsovolos.gr/store/glifada-vouliagmenis
Γεωργίου Παπανδρέου 35 & Περικλέους  ,Kotsovolos,Δράμα,Greece,"{'brand': 'Kotsovolos', 'fascia': 'Kosovolos', 'category': 'Retail', 'edit_date': '20250510', 'lat_lon_source': 'Third Party'}",41.15191,24.15113,Kotsovolos Δράμα,"{'opening_hours': {'Mon': '09:00-21:00', 'Tue': '09:00-21:00', 'Wed': '09:00-21:00', 'Thu': '09:00-21:00', 'Fri': '09:00-21:00', 'Sat': '09:00 -20:00', 'Sun': '11:00-16:00'}}",2102899999,66100,10018,,https://www.kotsovolos.gr/store/drama
Ιερά οδός 32 ,Kotsovolos,Ελευσίνα,Greece,"{'brand': 'Kotsovolos', 'fascia': 'Kosovolos', 'category': 'Retail', 'edit_date': '20250510', 'lat_lon_source': 'Third Party'}",38.04389,23.54398,Kotsovolos Ελευσίνα,"{'opening_hours': {'Mon': '09:00-21:00', 'Tue': '09:00-21:00', 'Wed': '09:00-21:00', 'Thu': '09:00-21:00', 'Fri': '09:00-21:00', 'Sat': '09:00 -20:00', 'Sun': '11:00-20:00'}}",2102899999,19200,10019,,https://www.kotsovolos.gr/store/elefsina
"Ανδρέα Παπανδρέου 35,θέση Ψαλίδι  ",Kotsovolos,Μαρούσι,Greece,"{'brand': 'Kotsovolos', 'fascia': 'Kosovolos', 'category': 'Retail', 'edit_date': '20250510', 'lat_lon_source': 'Third Party'}",38.04520,23.79005,Kotsovolos Εμπορικό κέντρο The Mall Athens,"{'opening_hours': {'Mon': '10:00-21:00', 'Tue': '10:00-21:00', 'Wed': '10:00-21:00', 'Thu': '10:00-21:00', 'Fri': '10:00-21:00', 'Sat': '10:00-20:00', 'Sun': '11:00-20:00'}}",2102899999,15122,10020,,https://www.kotsovolos.gr/store/the-mall-athens
19ο ΧΛΜ. Ε.Ο. Αθηνών - Λαμίας  ,Kotsovolos,Νέα Ερυθραία,Greece,"{'brand': 'Kotsovolos', 'fascia': 'Kosovolos', 'category': 'Retail', 'edit_date': '20250510', 'lat_lon_source': 'Third Party'}",38.11416,23.82712,Kotsovolos Ερυθραία - Εθν. Οδός,"{'opening_hours': {'Mon': '09:00-21:00', 'Tue': '09:00-21:00', 'Wed': '09:00-21:00', 'Thu': '09:00-21:00', 'Fri': '09:00-21:00', 'Sat': '09:00 -20:00', 'Sun': '11:00-20:00'}}",2102899999,14671,10063,,https://www.kotsovolos.gr/store/erithraia-ethniki-odos
"Περιφερειακή Οδός Θεσσαλονίκης & Λεωφ. Στρατού,Κόμβος Ευκαρπίας   ",Kotsovolos,Θεσσαλονίκη,Greece,"{'brand': 'Kotsovolos', 'fascia': 'Kosovolos', 'category': 'Retail', 'edit_date': '20250510', 'lat_lon_source': 'Third Party'}",40.67955,22.94760,Kotsovolos Ευκαρπία,"{'opening_hours': {'Mon': '09:00-21:00', 'Tue': '09:00-21:00', 'Wed': '09:00-21:00', 'Thu': '09:00-21:00', 'Fri': '09:00-21:00', 'Sat': '09:00 -20:00', 'Sun': '11:00-20:00'}}",2102899999,57013,10026,,https://www.kotsovolos.gr/store/efkarpia
Καραολή Δημητρίου 96 και Αργυροκάστρου  ,Kotsovolos,Εύοσμος,Greece,"{'brand': 'Kotsovolos', 'fascia': 'Kosovolos', 'category': 'Retail', 'edit_date': '20250510', 'lat_lon_source': 'Third Party'}",40.66701,22.91331,Kotsovolos Εύοσμος,"{'opening_hours': {'Mon': '09:00-21:00', 'Tue': '09:00-21:00', 'Wed': '09:00-21:00', 'Thu': '09:00-21:00', 'Fri': '09:00-21:00', 'Sat': '09:00 -20:00', 'Sun': '11:00-20:00'}}",2102899999,56224,10027,,https://www.kotsovolos.gr/store/evosmos
ΘΕΣΗ ΦΛΟΚΑ,Kotsovolos,Ζάκυνθος,Greece,"{'brand': 'Kotsovolos', 'fascia': 'Kosovolos', 'category': 'Retail', 'edit_date': '20250510', 'lat_lon_source': 'Third Party'}",37.78143,20.87887,Kotsovolos Ζάκυνθος,"{'opening_hours': {'Mon': '09:00-21:00', 'Tue': '09:00-21:00', 'Wed': '09:00-21:00', 'Thu': '09:00-21:00', 'Fri': '09:00-21:00', 'Sat': '09:00 -20:00', 'Sun': '11:00-16:00'}}",2102899999,29100,21001,,https://www.kotsovolos.gr/store/zakynthos
Λεωφ. Παπάγου30 ,Kotsovolos,Ζωγράφου,Greece,"{'brand': 'Kotsovolos', 'fascia': 'Kosovolos', 'category': 'Retail', 'edit_date': '20250510', 'lat_lon_source': 'Third Party'}",37.97890,23.76549,Kotsovolos Ζωγράφου,"{'opening_hours': {'Mon': '09:00-21:00', 'Tue': '09:00-21:00', 'Wed': '09:00-21:00', 'Thu': '09:00-21:00', 'Fri': '09:00-21:00', 'Sat': '09:00 -20:00', 'Sun': '11:00-20:00'}}",2102899999,15771,10021,,https://www.kotsovolos.gr/store/zografou
Λεωφ. Βουλιαγμένης519 ,Kotsovolos,Ηλιούπολη,Greece,"{'brand': 'Kotsovolos', 'fascia': 'Kosovolos', 'category': 'Retail', 'edit_date': '20250510', 'lat_lon_source': 'Third Party'}",37.92401,23.74484,Kotsovolos Ηλιούπολη,"{'opening_hours': {'Mon': '09:00-21:00', 'Tue': '09:00-21:00', 'Wed': '09:00-21:00', 'Thu': '09:00-21:00', 'Fri': '09:00-21:00', 'Sat': '09:00 -20:00', 'Sun': '11:00-20:00'}}",2102899999,16341,10022,,https://www.kotsovolos.gr/store/ilioupoli-vouliagmenis
Λεωφ. 62 Μαρτύρων166 ,Kotsovolos,Ηράκλειο Κρήτης,Greece,"{'brand': 'Kotsovolos', 'fascia': 'Kosovolos', 'category': 'Retail', 'edit_date': '20250510', 'lat_lon_source': 'Third Party'}",35.33162,25.11204,Kotsovolos Ηράκλειο - Κέντρο,"{'opening_hours': {'Mon': '09:00-21:00', 'Tue': '09:00-21:00', 'Wed': '09:00-21:00', 'Thu': '09:00-21:00', 'Fri': '09:00-21:00', 'Sat': '09:00 -20:00', 'Sun': '11:00-19:00'}}",2102899999,71303,10023,,https://www.kotsovolos.gr/store/kriti-iraklio
Λεωφ. Κνωσσού123 ,Kotsovolos,Ηράκλειο Κρήτης,Greece,"{'brand': 'Kotsovolos', 'fascia': 'Kosovolos', 'category': 'Retail', 'edit_date': '20250510', 'lat_lon_source': 'Third Party'}",35.32005,25.14426,Kotsovolos Ηράκλειο - Λ. Κνωσσού 123,"{'opening_hours': {'Mon': '09:00-21:00', 'Tue': '09:00-21:00', 'Wed': '09:00-21:00', 'Thu': '09:00-21:00', 'Fri': '09:00-21:00', 'Sat': '09:00 -20:00', 'Sun': '11:00-19:00'}}",2102899999,71409,10024,,https://www.kotsovolos.gr/store/kriti-iraklio-knossou
Τσιμισκή43 ,Kotsovolos,Θεσσαλονίκη,Greece,"{'brand': 'Kotsovolos', 'fascia': 'Kosovolos', 'category': 'Retail', 'edit_date': '20250510', 'lat_lon_source': 'Third Party'}",40.63325,22.94240,Kotsovolos Θεσσαλονίκη Κέντρο - Τσιμισκή,"{'opening_hours': {'Mon': '09:00-21:00', 'Tue': '09:00-21:00', 'Wed': '09:00-21:00', 'Thu': '09:00-21:00', 'Fri': '09:00-21:00', 'Sat': '09:00 -20:00', 'Sun': '11:00-19:00'}}",2102899999,54621,10028,,https://www.kotsovolos.gr/store/thessaloniki-tsimiski
Οπλαρχηγού Βόγκλη7 ,Kotsovolos,Θήβα,Greece,"{'brand': 'Kotsovolos', 'fascia': 'Kosovolos', 'category': 'Retail', 'edit_date': '20250510', 'lat_lon_source': 'Third Party'}",38.32360,23.32395,Kotsovolos Θήβα,"{'opening_hours': {'Mon': '09:00-21:00', 'Tue': '09:00-21:00', 'Wed': '09:00-21:00', 'Thu': '09:00-21:00', 'Fri': '09:00-21:00', 'Sat': '09:00 -20:00', 'Sun': '11:00-16:00'}}",2102899999,32200,10030,,https://www.kotsovolos.gr/store/thiva
1ο ΧΛΜ Ιεράπετρας – Αγ. Νικολάου,Kotsovolos,Ιεραπετρα,Greece,"{'brand': 'Kotsovolos', 'fascia': 'Kosovolos', 'category': 'Retail', 'edit_date': '20250510', 'lat_lon_source': 'Third Party'}",35.02341,25.75152,Kotsovolos Ιεράπετρα,"{'opening_hours': {'Mon': '09:00-16:00', 'Tue': '09:00-14:00,17:00-21:00', 'Wed': '09:00-16:00', 'Thu': '09:00-14:00,17:00-21:00', 'Fri': '09:00-14:00,17:00-21:00', 'Sat': '09:00-16:00', 'Sun': '11:00-19:00'}}",2842023186,72200,25001,,https://www.kotsovolos.gr/store/ierapetrakriti
Σταύρου Νιάρχου8 ,Kotsovolos,Ιωάννινα,Greece,"{'brand': 'Kotsovolos', 'fascia': 'Kosovolos', 'category': 'Retail', 'edit_date': '20250510', 'lat_lon_source': 'Third Party'}",39.64268,20.84972,Kotsovolos Ιωάννινα,"{'opening_hours': {'Mon': '09:00-21:00', 'Tue': '09:00-21:00', 'Wed': '09:00-21:00', 'Thu': '09:00-21:00', 'Fri': '09:00-21:00', 'Sat': '09:00 -20:00', 'Sun': '11:00-16:00'}}",2102899999,45332,10033,,https://www.kotsovolos.gr/store/ioannina
Εθνάρχου Μακαρίου 46,Kotsovolos,Ρόδος ,Greece,"{'brand': 'Kotsovolos', 'fascia': 'Kosovolos', 'category': 'Retail', 'edit_date': '20250510', 'lat_lon_source': 'Third Party'}",36.44862,28.22159,Kotsovolos Κ spot Ρόδος,"{'opening_hours': {'Mon': '09:00-21:00', 'Tue': '09:00-21:00', 'Wed': '09:00-21:00', 'Thu': '09:00-21:00', 'Fri': '09:00-21:00', 'Sat': '09:00 -20:00', 'Sun': '11:00-16:00'}}",2102899999,85100,9029551,,https://www.kotsovolos.gr/store/rodos-spot
Μ. Αλεξάνδρου 30 & Αβέρωφ  ,Kotsovolos,Καβάλα,Greece,"{'brand': 'Kotsovolos', 'fascia': 'Kosovolos', 'category': 'Retail', 'edit_date': '20250510', 'lat_lon_source': 'Third Party'}",40.93790,24.41038,Kotsovolos Καβάλα,"{'opening_hours': {'Mon': '09:00-21:00', 'Tue': '09:00-21:00', 'Wed': '09:00-21:00', 'Thu': '09:00-21:00', 'Fri': '09:00-21:00', 'Sat': '09:00 -20:00', 'Sun': '11:00-16:00'}}",2102899999,65302,10034,,https://www.kotsovolos.gr/store/kavala
Εθνικής Αντιστάσεως16,Kotsovolos,Καλαμαριά,Greece,"{'brand': 'Kotsovolos', 'fascia': 'Kosovolos', 'category': 'Retail', 'edit_date': '20250510', 'lat_lon_source': 'Third Party'}",40.58863,22.96055,Kotsovolos Καλαμαριά,"{'opening_hours': {'Mon': '09:00-21:00', 'Tue': '09:00-21:00', 'Wed': '09:00-21:00', 'Thu': '09:00-21:00', 'Fri': '09:00-21:00', 'Sat': '09:00 -20:00', 'Sun': '11:00-20:00'}}",2102899999,55133,19501,,https://www.kotsovolos.gr/store/Kalamaria
Αριστομένους4 ,Kotsovolos,Καλαμάτα,Greece,"{'brand': 'Kotsovolos', 'fascia': 'Kosovolos', 'category': 'Retail', 'edit_date': '20250510', 'lat_lon_source': 'Third Party'}",37.04247,22.11198,Kotsovolos Καλαμάτα,"{'opening_hours': {'Mon': '09:00-21:00', 'Tue': '09:00-21:00', 'Wed': '09:00-21:00', 'Thu': '09:00-21:00', 'Fri': '09:00 -21:00', 'Sat': '09:00 -20:00', 'Sun': '11:00-16:00'}}",2102899999,24100,10035,,https://www.kotsovolos.gr/store/kalamata
Λεωφ. Ελευθερίου Βενιζέλου262,Kotsovolos,Καλλιθέα,Greece,"{'brand': 'Kotsovolos', 'fascia': 'Kosovolos', 'category': 'Retail', 'edit_date': '20250510', 'lat_lon_source': 'Third Party'}",37.94924,23.69052,Kotsovolos Καλλιθέα,"{'opening_hours': {'Mon': '09:00-21:00', 'Tue': '09:00-21:00', 'Wed': '09:00-21:00', 'Thu': '09:00-21:00', 'Fri': '09:00-21:00', 'Sat': '09:00 -20:00', 'Sun': '11:00-20:00'}}",2102899999,17675,16501,,https://www.kotsovolos.gr/store/kallithea
Πλατεία Στράτα,Kotsovolos,Κάλυμνος,Greece,"{'brand': 'Kotsovolos', 'fascia': 'Kosovolos', 'category': 'Retail', 'edit_date': '20250510', 'lat_lon_source': 'Third Party'}",36.95821,26.96852,Kotsovolos Κάλυμνος,"{'opening_hours': {'Mon': '09:00-20:00', 'Tue': '09:00-20:00', 'Wed': '09:00-20:00', 'Thu': '09:00-20:00', 'Fri': '09:00-20:00', 'Sat': '09:00-14:00', 'Sun': '11:00-18:00'}}",2243059330,85200,28001,,https://www.kotsovolos.gr/store/kalimnosnew
Πλαστήρα 27 & Βασιαρδάνη  ,Kotsovolos,Καρδίτσα,Greece,"{'brand': 'Kotsovolos', 'fascia': 'Kosovolos', 'category': 'Retail', 'edit_date': '20250510', 'lat_lon_source': 'Third Party'}",39.36369,21.92271,Kotsovolos Καρδίτσα,"{'opening_hours': {'Mon': '09:00-21:00', 'Tue': '09:00-21:00', 'Wed': '09:00-21:00', 'Thu': '09:00-21:00', 'Fri': '09:00-21:00', 'Sat': '09:00 -20:00', 'Sun': '11:00-16:00'}}",2102899999,43100,10038,,https://www.kotsovolos.gr/store/karditsa
Βάρναλη8 ,Kotsovolos,Κατερίνη,Greece,"{'brand': 'Kotsovolos', 'fascia': 'Kosovolos', 'category': 'Retail', 'edit_date': '20250510', 'lat_lon_source': 'Third Party'}",40.27209,22.50537,Kotsovolos Κατερίνη,"{'opening_hours': {'Mon': '09:00-21:00', 'Tue': '09:00-21:00', 'Wed': '09:00-21:00', 'Thu': '09:00-21:00', 'Fri': '09:00-21:00', 'Sat': '09:00 -20:00', 'Sun': '11:00-16:00'}}",2102899999,60100,10040,,https://www.kotsovolos.gr/store/katerini
Λεωφ. Δημοκρατίας 137 & Κομνηνών  ,Kotsovolos,Κερατσίνι,Greece,"{'brand': 'Kotsovolos', 'fascia': 'Kosovolos', 'category': 'Retail', 'edit_date': '20250510', 'lat_lon_source': 'Third Party'}",37.95876,23.61754,Kotsovolos Κερατσίνι,"{'opening_hours': {'Mon': '09:00-21:00', 'Tue': '09:00-21:00', 'Wed': '09:00-21:00', 'Thu': '09:00-21:00', 'Fri': '09:00-21:00', 'Sat': '09:00 -20:00', 'Sun': '11:00-20:00'}}",2102899999,18755,10041,,https://www.kotsovolos.gr/store/keratsini
Ε. Ο. Κέρκυρας - Παλαιοκαστρίτσας100 ,Kotsovolos,Σολάρι Κέρκυρας,Greece,"{'brand': 'Kotsovolos', 'fascia': 'Kosovolos', 'category': 'Retail', 'edit_date': '20250510', 'lat_lon_source': 'Third Party'}",39.62430,19.92170,Kotsovolos Κέρκυρα,"{'opening_hours': {'Mon': '09:00-21:00', 'Tue': '09:00-21:00', 'Wed': '09:00-21:00', 'Thu': '09:00-21:00', 'Fri': '09:00-21:00', 'Sat': '09:00 -20:00', 'Sun': '11:00-16:00'}}",2102899999,49100,10042,,https://www.kotsovolos.gr/store/kerkira
Κυριαζή 36,Kotsovolos,Κηφισιά,Greece,"{'brand': 'Kotsovolos', 'fascia': 'Kosovolos', 'category': 'Retail', 'edit_date': '20250510', 'lat_lon_source': 'Third Party'}",38.07139,23.81349,Kotsovolos Κηφισιά,"{'opening_hours': {'Mon': '', 'Tue': '', 'Wed': '', 'Thu': '', 'Fri': '', 'Sat': '', 'Sun': ''}}",2102899999,14562,32501,,https://www.kotsovolos.gr/store/Kifisianew
Ομήρου55,Kotsovolos,Κιλκίς,Greece,"{'brand': 'Kotsovolos', 'fascia': 'Kosovolos', 'category': 'Retail', 'edit_date': '20250510', 'lat_lon_source': 'Third Party'}",40.98219,22.86451,Kotsovolos Κιλκίς,"{'opening_hours': {'Mon': '09:00-21:00', 'Tue': '09:00-21:00', 'Wed': '09:00-21:00', 'Thu': '09:00-21:00', 'Fri': '09:00-21:00', 'Sat': '09:00 -20:00', 'Sun': '11:00-16:00'}}",2102899999,61100,17001,,https://www.kotsovolos.gr/store/kilkis
11ης Οκτωβρίου & Αλιάκμονος2 ,Kotsovolos,Κοζάνη,Greece,"{'brand': 'Kotsovolos', 'fascia': 'Kosovolos', 'category': 'Retail', 'edit_date': '20250510', 'lat_lon_source': 'Third Party'}",40.29891,21.79710,Kotsovolos Κοζάνη,"{'opening_hours': {'Mon': '09:00-21:00', 'Tue': '09:00-21:00', 'Wed': '09:00-21:00', 'Thu': '09:00-21:00', 'Fri': '09:00-21:00', 'Sat': '09:00 -20:00', 'Sun': '11:00-16:00'}}",2102899999,50100,10045,,https://www.kotsovolos.gr/store/kozani
Ορφέως20-22 ,Kotsovolos,Κομοτηνή,Greece,"{'brand': 'Kotsovolos', 'fascia': 'Kosovolos', 'category': 'Retail', 'edit_date': '20250510', 'lat_lon_source': 'Third Party'}",41.11881,25.40260,Kotsovolos Κομοτηνή,"{'opening_hours': {'Mon': '09:00-21:00', 'Tue': '09:00-21:00', 'Wed': '09:00-21:00', 'Thu': '09:00-21:00', 'Fri': '09:00-21:00', 'Sat': '09:00 -20:00', 'Sun': '11:00-16:00'}}",2102899999,69100,10046,,https://www.kotsovolos.gr/store/komotini
Δαμασκηνού 55 ,Kotsovolos,Κόρινθος,Greece,"{'brand': 'Kotsovolos', 'fascia': 'Kosovolos', 'category': 'Retail', 'edit_date': '20250510', 'lat_lon_source': 'Third Party'}",37.94106,22.93300,Kotsovolos Κόρινθος,"{'opening_hours': {'Mon': '09:00-21:00', 'Tue': '09:00-21:00', 'Wed': '09:00-21:00', 'Thu': '09:00-21:00', 'Fri': '09:00-21:00', 'Sat': '09:00 -20:00', 'Sun': '11:00-16:00'}}",2102899999,20100,10047,,https://www.kotsovolos.gr/store/korinthos
Ταξιαρχών44 ,Kotsovolos,Κορυδαλλός,Greece,"{'brand': 'Kotsovolos', 'fascia': 'Kosovolos', 'category': 'Retail', 'edit_date': '20250510', 'lat_lon_source': 'Third Party'}",37.97805,23.65160,Kotsovolos Κορυδαλλός,"{'opening_hours': {'Mon': '09:00-21:00', 'Tue': '09:00-21:00', 'Wed': '09:00-21:00', 'Thu': '09:00-21:00', 'Fri': '09:00-21:00', 'Sat': '09:00 -20:00', 'Sun': '11:00-20:00'}}",2102899999,18120,10048,,https://www.kotsovolos.gr/store/koridallos
"Παπαναστασίου,Αγ. Μαρίνα",Kotsovolos,Κως,Greece,"{'brand': 'Kotsovolos', 'fascia': 'Kosovolos', 'category': 'Retail', 'edit_date': '20250510', 'lat_lon_source': 'Third Party'}",36.88790,27.29838,Kotsovolos Κως,"{'opening_hours': {'Mon': '09:00-21:00', 'Tue': '09:00-21:00', 'Wed': '09:00-21:00', 'Thu': '09:00-21:00', 'Fri': '09:00-21:00', 'Sat': '09:00-20:00', 'Sun': '09:00-17:00'}}",2242024450,85300,9050551,,https://www.kotsovolos.gr/store/kos
1ο ΧΛΜ Ν.Ε.Ο. ΛΑΜΙΑΣ-ΑΘΗΝΩΝ,Kotsovolos,Λαμία,Greece,"{'brand': 'Kotsovolos', 'fascia': 'Kosovolos', 'category': 'Retail', 'edit_date': '20250510', 'lat_lon_source': 'Third Party'}",38.88044,22.43900,Kotsovolos Λαμία,"{'opening_hours': {'Mon': '09:00-21:00', 'Tue': '09:00-21:00', 'Wed': '09:00-21:00', 'Thu': '09:00-21:00', 'Fri': '09:00-21:00', 'Sat': '09:00 -20:00', 'Sun': '11:00-16:00'}}",2102899999,35133,25501,,https://www.kotsovolos.gr/store/lamianew
Παπαναστασίου52 ,Kotsovolos,Λάρισα,Greece,"{'brand': 'Kotsovolos', 'fascia': 'Kosovolos', 'category': 'Retail', 'edit_date': '20250510', 'lat_lon_source': 'Third Party'}",39.63834,22.41513,Kotsovolos Λάρισα,"{'opening_hours': {'Mon': '09:00-21:00', 'Tue': '09:00-21:00', 'Wed': '09:00-21:00', 'Thu': '09:00-21:00', 'Fri': '09:00-21:00', 'Sat': '09:00 -20:00', 'Sun': '11:00-16:00'}}",2102899999,41222,10051,,https://www.kotsovolos.gr/store/larisa
1o ΧΛΜ Λευκάδας - Νυδρίου,Kotsovolos,Λευκάδα,Greece,"{'brand': 'Kotsovolos', 'fascia': 'Kosovolos', 'category': 'Retail', 'edit_date': '20250510', 'lat_lon_source': 'Third Party'}",38.82323,20.70196,Kotsovolos Λευκάδα,"{'opening_hours': {'Mon': '09:00-21:00', 'Tue': '09:00-21:00', 'Wed': '09:00-17:00', 'Thu': '09:00-21:00', 'Fri': '09:00-21:00', 'Sat': '09:00-17:00', 'Sun': '11:00-16:00'}}",2645025676,31100,27001,,https://www.kotsovolos.gr/store/lefkadanew
1o ΧΛΜ. Μύρινας - Μούνδρου,Kotsovolos,Λήμνος,Greece,"{'brand': 'Kotsovolos', 'fascia': 'Kosovolos', 'category': 'Retail', 'edit_date': '20250510', 'lat_lon_source': 'Third Party'}",39.88799,25.07570,Kotsovolos Λήμνος - Επαρ. Οδ. Μύρινας - Μούνδρου,"{'opening_hours': {'Mon': '08:30-15:00,18:30-21:00', 'Tue': '08:30-15:00,18:30-21:00', 'Wed': '08:30-15:00,18:30-21:00', 'Thu': '08:30-15:00,18:30-21:00', 'Fri': '08:30-15:00,18:30-20:00', 'Sat': '08:30-15:00', 'Sun': '11:00-17:00'}}",2254025502,,29501,,https://www.kotsovolos.gr/store/limnosnew
Πλατεία Υψιπύλης1,Kotsovolos,Λήμνος,Greece,"{'brand': 'Kotsovolos', 'fascia': 'Kosovolos', 'category': 'Retail', 'edit_date': '20250510', 'lat_lon_source': 'Third Party'}",39.87730,25.06008,Kotsovolos Λήμνος - Μύρινα,"{'opening_hours': {'Mon': '08:30-15:00,18:00-21:00', 'Tue': '08:30-15:00,18:00-21:00', 'Wed': '08:30-15:00,18:00-21:00', 'Thu': '08:30-15:00,18:00-21:00', 'Fri': '08:30-15:00,18:00-20:00', 'Sat': '08:30-15:00', 'Sun': '11:00-17:00'}}",2254022230,81400,28503,,https://www.kotsovolos.gr/store/limnosmirinanew
Ρούμελης & Έρκυνας  ,Kotsovolos,Λιβαδειά,Greece,"{'brand': 'Kotsovolos', 'fascia': 'Kosovolos', 'category': 'Retail', 'edit_date': '20250510', 'lat_lon_source': 'Third Party'}",38.44353,22.87552,Kotsovolos Λιβαδειά,"{'opening_hours': {'Mon': '09:00-21:00', 'Tue': '09:00-21:00', 'Wed': '09:00-21:00', 'Thu': '09:00-21:00', 'Fri': '09:00-21:00', 'Sat': '09:00 -20:00', 'Sun': '11:00-16:00'}}",2102899999,32100,10055,,https://www.kotsovolos.gr/store/livadia
Λιοσίων71 ,Kotsovolos,Μενίδι,Greece,"{'brand': 'Kotsovolos', 'fascia': 'Kosovolos', 'category': 'Retail', 'edit_date': '20250510', 'lat_lon_source': 'Third Party'}",38.07895,23.72876,Kotsovolos Μενίδι,"{'opening_hours': {'Mon': '09:00-21:00', 'Tue': '09:00-21:00', 'Wed': '09:00-21:00', 'Thu': '09:00-21:00', 'Fri': '09:00-21:00', 'Sat': '09:00 -20:00', 'Sun': '11:00-20:00'}}",2102899999,13675,10056,,https://www.kotsovolos.gr/store/menidi
1ο ΧΛΜ. Μοιρών – Πόμπιας,Kotsovolos,Μοίρες Κρήτης,Greece,"{'brand': 'Kotsovolos', 'fascia': 'Kosovolos', 'category': 'Retail', 'edit_date': '20250510', 'lat_lon_source': 'Third Party'}",35.04309,24.87321,Kotsovolos Μοίρες,"{'opening_hours': {'Mon': '09:00-14:30', 'Tue': '09:00-14:30,17:30-21:00', 'Wed': '09:00-14:30', 'Thu': '09:00-14:00,17:30-21:00', 'Fri': '09:00-14:00,17:30-21:00', 'Sat': '09:00-15:00', 'Sun': '11:00-18:00'}}",2892029033,70400,24501,,https://www.kotsovolos.gr/store/moires
Βενιζέλου Ελευθερίου 6,Kotsovolos,Μυτιληνη,Greece,"{'brand': 'Kotsovolos', 'fascia': 'Kosovolos', 'category': 'Retail', 'edit_date': '20250510', 'lat_lon_source': 'Third Party'}",39.03370,26.19548,Kotsovolos ΜΥΤΙΛΗΝΗ,"{'opening_hours': {'Mon': '09:00-21:00', 'Tue': '09:00-21:00', 'Wed': '09:00-21:00', 'Thu': '09:00-21:00', 'Fri': '09:00-21:00', 'Sat': '09:00-15:00', 'Sun': '11:00-15:00'}}",,81100,9051551,,https://www.kotsovolos.gr/store/mitilini
5o ΧΛΜ Νάουσας - Βέροιας5,Kotsovolos,Νάουσα,Greece,"{'brand': 'Kotsovolos', 'fascia': 'Kosovolos', 'category': 'Retail', 'edit_date': '20250510', 'lat_lon_source': 'Third Party'}",40.61846,22.12245,Kotsovolos Νάουσα,"{'opening_hours': {'Mon': '09:00-21:00', 'Tue': '09:00-21:00', 'Wed': '09:00-21:00', 'Thu': '09:00-21:00', 'Fri': '09:00-21:00', 'Sat': '09:00-20:00', 'Sun': '11:00-18:00'}}",2332043090,59200,28502,,https://www.kotsovolos.gr/store/naousanew
Χ. Τρικούπη135 ,Kotsovolos,Νέα Ερυθραία,Greece,"{'brand': 'Kotsovolos', 'fascia': 'Kosovolos', 'category': 'Retail', 'edit_date': '20250510', 'lat_lon_source': 'Third Party'}",38.08834,23.81479,Kotsovolos Νέα Ερυθραία - Κέντρο,"{'opening_hours': {'Mon': '09:00-21:00', 'Tue': '09:00-21:00', 'Wed': '09:00-21:00', 'Thu': '09:00-21:00', 'Fri': '09:00-21:00', 'Sat': '09:00 -20:00', 'Sun': '11:00-20:00'}}",2102899999,14671,10064,,https://www.kotsovolos.gr/store/nea-erithraia-kentro
Ιφιγενείας 7 & Πεύκων  ,Kotsovolos,Νέα Ιωνία,Greece,"{'brand': 'Kotsovolos', 'fascia': 'Kosovolos', 'category': 'Retail', 'edit_date': '20250510', 'lat_lon_source': 'Third Party'}",38.05063,23.75131,Kotsovolos Νέα Ιωνία,"{'opening_hours': {'Mon': '09:00-21:00', 'Tue': '09:00-21:00', 'Wed': '09:00-21:00', 'Thu': '09:00-21:00', 'Fri': '09:00-21:00', 'Sat': '09:00 -20:00', 'Sun': '11:00-20:00'}}",2102899999,14451,10057,,https://www.kotsovolos.gr/store/metamorfosi
Λεωφ. Μαραθώνος177 ,Kotsovolos,Νέα Μάκρη,Greece,"{'brand': 'Kotsovolos', 'fascia': 'Kosovolos', 'category': 'Retail', 'edit_date': '20250510', 'lat_lon_source': 'Third Party'}",38.08884,23.97530,Kotsovolos Νέα Μάκρη,"{'opening_hours': {'Mon': '09:00-21:00', 'Tue': '09:00-21:00', 'Wed': '09:00-21:00', 'Thu': '09:00-21:00', 'Fri': '09:00-21:00', 'Sat': '09:00 -20:00', 'Sun': '11:00-20:00'}}",2102899999,19005,10065,,https://www.kotsovolos.gr/store/nea-makri
Λεωφ. Ανδρέα Συγγρού257-259 ,Kotsovolos,Νέα Σμύρνη,Greece,"{'brand': 'Kotsovolos', 'fascia': 'Kosovolos', 'category': 'Retail', 'edit_date': '20250510', 'lat_lon_source': 'Third Party'}",37.94420,23.70131,Kotsovolos Νέα Σμύρνη,"{'opening_hours': {'Mon': '09:00-21:00', 'Tue': '09:00-21:00', 'Wed': '09:00-21:00', 'Thu': '09:00-21:00', 'Fri': '09:00-21:00', 'Sat': '09:00 -20:00', 'Sun': '11:00-20:00'}}",2102899999,17122,10066,,https://www.kotsovolos.gr/store/nea-smirni-singrou
Μαρίνου Αντύπα90,Kotsovolos,Νέο Ηράκλειο,Greece,"{'brand': 'Kotsovolos', 'fascia': 'Kosovolos', 'category': 'Retail', 'edit_date': '20250510', 'lat_lon_source': 'Third Party'}",38.04174,23.77465,Kotsovolos Νέο Ηράκλειο,"{'opening_hours': {'Mon': '09:00-21:00', 'Tue': '09:00-21:00', 'Wed': '09:00-21:00', 'Thu': '09:00-21:00', 'Fri': '09:00-21:00', 'Sat': '09:00 -20:00', 'Sun': '11:00-19:00'}}",2102899999,14121,12501,,https://www.kotsovolos.gr/store/Neo-irakleio-attikis
Μιχαήλ Καραολή 79-81,Kotsovolos,Ξάνθη,Greece,"{'brand': 'Kotsovolos', 'fascia': 'Kosovolos', 'category': 'Retail', 'edit_date': '20250510', 'lat_lon_source': 'Third Party'}",41.13592,24.89077,Kotsovolos Ξάνθη,"{'opening_hours': {'Mon': '09:00-21:00', 'Tue': '09:00-21:00', 'Wed': '09:00-21:00', 'Thu': '09:00-21:00', 'Fri': '09:00-21:00', 'Sat': '09:00-20:00', 'Sun': '11:00-16:00'}}",2102899999,67100,15501,,https://www.kotsovolos.gr/store/xanthi-new
Κωνσταντινουπόλεως 41,Kotsovolos,Ορεστιάδα,Greece,"{'brand': 'Kotsovolos', 'fascia': 'Kosovolos', 'category': 'Retail', 'edit_date': '20250510', 'lat_lon_source': 'Third Party'}",41.49037,26.53344,Kotsovolos Ορεστιάδα,"{'opening_hours': {'Mon': '09:00-21:00', 'Tue': '09:00-21:00', 'Wed': '09:00-21:00', 'Thu': '09:00-21:00', 'Fri': '09:00-21:00', 'Sat': '09:00 -20:00', 'Sun': '11:00-16:00'}}",2102899999,68200,21501,,https://www.kotsovolos.gr/store/orestiada
Μεσολογγίου 3 & Χρεμωνίδου 52 ,Kotsovolos,Παγκράτι,Greece,"{'brand': 'Kotsovolos', 'fascia': 'Kosovolos', 'category': 'Retail', 'edit_date': '20250510', 'lat_lon_source': 'Third Party'}",37.96472,23.75084,Kotsovolos Παγκράτι,"{'opening_hours': {'Mon': '09:00-21:00', 'Tue': '09:00-21:00', 'Wed': '09:00-21:00', 'Thu': '09:00-21:00', 'Fri': '09:00-21:00', 'Sat': '09:00 -20:00', 'Sun': '11:00-20:00'}}",2102899999,11633,10068,,https://www.kotsovolos.gr/store/pagkrati
Πατησίων  181 ,Kotsovolos,Αθήνα,Greece,"{'brand': 'Kotsovolos', 'fascia': 'Kosovolos', 'category': 'Retail', 'edit_date': '20250510', 'lat_lon_source': 'Third Party'}",38.00404,23.73439,Kotsovolos Πατησίων,"{'opening_hours': {'Mon': '09:00-21:00', 'Tue': '09:00-21:00', 'Wed': '09:00-21:00', 'Thu': '09:00-21:00', 'Fri': '09:00-21:00', 'Sat': '09:00 -20:00', 'Sun': '11:00-20:00'}}",2102899999,11252,10069,,https://www.kotsovolos.gr/store/patision
Γλαύκου 9 - Περιβόλα Πατρών  ,Kotsovolos,Πάτρα,Greece,"{'brand': 'Kotsovolos', 'fascia': 'Kosovolos', 'category': 'Retail', 'edit_date': '20250510', 'lat_lon_source': 'Third Party'}",38.20927,21.76341,Kotsovolos Πάτρα,"{'opening_hours': {'Mon': '09:00-21:00', 'Tue': '09:00-21:00', 'Wed': '09:00-21:00', 'Thu': '09:00-21:00', 'Fri': '09:00-21:00', 'Sat': '09:00 -20:00', 'Sun': '11:00-20:00'}}",2102899999,26332,10070,,https://www.kotsovolos.gr/store/patra
Ανθείας 15 (Εμπορικό Πάρκο Top Parks) ,Kotsovolos,Πάτρα,Greece,"{'brand': 'Kotsovolos', 'fascia': 'Kosovolos', 'category': 'Retail', 'edit_date': '20250510', 'lat_lon_source': 'Third Party'}",38.22378,21.72212,Kotsovolos Πάτρα (Top Park),"{'opening_hours': {'Mon': '09:00-21:00', 'Tue': '09:00-21:00', 'Wed': '09:00-21:00', 'Thu': '09:00-21:00', 'Fri': '09:00-21:00', 'Sat': '09:00 -20:00', 'Sun': '11:00-20:00'}}",2102899999,26333,31001,,https://www.kotsovolos.gr/store/patranew
Τσαμαδού 26 & Φίλωνος  ,Kotsovolos,Πειραιάς,Greece,"{'brand': 'Kotsovolos', 'fascia': 'Kosovolos', 'category': 'Retail', 'edit_date': '20250510', 'lat_lon_source': 'Third Party'}",37.94469,23.64622,Kotsovolos Πειραιάς,"{'opening_hours': {'Mon': '09:00-21:00', 'Tue': '09:00-21:00', 'Wed': '09:00-21:00', 'Thu': '09:00-21:00', 'Fri': '09:00-21:00', 'Sat': '09:00 -20:00', 'Sun': '11:00-20:00'}}",2102899999,18531,10072,,https://www.kotsovolos.gr/store/piraias-tsamadou
Λεωφ. Θηβών 205 & Καρκαβίτσα 2 & Ευγενών  ,Kotsovolos,Περιστέρι,Greece,"{'brand': 'Kotsovolos', 'fascia': 'Kosovolos', 'category': 'Retail', 'edit_date': '20250510', 'lat_lon_source': 'Third Party'}",38.01698,23.69162,Kotsovolos Περιστέρι,"{'opening_hours': {'Mon': '09:00-21:00', 'Tue': '09:00-21:00', 'Wed': '09:00-21:00', 'Thu': '09:00-21:00', 'Fri': '09:00-21:00', 'Sat': '09:00 -20:00', 'Sun': '11:00-20:00'}}",2102899999,12134,10073,,https://www.kotsovolos.gr/store/peristeri
Κωστή Παλαμά24,Kotsovolos,Πρέβεζα,Greece,"{'brand': 'Kotsovolos', 'fascia': 'Kosovolos', 'category': 'Retail', 'edit_date': '20250510', 'lat_lon_source': 'Third Party'}",38.95685,20.74892,Kotsovolos Πρέβεζα,"{'opening_hours': {'Mon': '09:00-14:00,18:00-21:00', 'Tue': '09:00-14:00,18:00-21:00', 'Wed': '09:00-14:00,18:00-21:00', 'Thu': '09:00-14:00,18:00-21:00', 'Fri': '09:00-14:00,18:00-21:00', 'Sat': '09:00-14:00', 'Sun': ''}}",2682025888,48100,27501,,https://www.kotsovolos.gr/store/prevezanew
10ο ΧΛΜ. Επαρχιακού δρόμου Θεσσαλονίκης  ,Kotsovolos,θεσσαλονίκη,Greece,"{'brand': 'Kotsovolos', 'fascia': 'Kosovolos', 'category': 'Retail', 'edit_date': '20250510', 'lat_lon_source': 'Third Party'}",40.55277,22.98565,Kotsovolos Πυλαία,"{'opening_hours': {'Mon': '09:00-21:00', 'Tue': '09:00-21:00', 'Wed': '09:00-21:00', 'Thu': '09:00-21:00', 'Fri': '09:00-21:00', 'Sat': '09:00 -20:00', 'Sun': '11:00-20:00'}}",2102899999,57001,10025,,https://www.kotsovolos.gr/store/pylaia
1ο ΧΛΜ Ε.Ο. Πύργου - Πατρών  ,Kotsovolos,Πύργος Ηλείας,Greece,"{'brand': 'Kotsovolos', 'fascia': 'Kosovolos', 'category': 'Retail', 'edit_date': '20250510', 'lat_lon_source': 'Third Party'}",37.68380,21.41728,Kotsovolos Πύργος,"{'opening_hours': {'Mon': '09:00-21:00', 'Tue': '09:00-21:00', 'Wed': '09:00-21:00', 'Thu': '09:00-21:00', 'Fri': '09:00-21:00', 'Sat': '09:00 -20:00', 'Sun': '11:00-18:00'}}",2102899999,27100,10076,,https://www.kotsovolos.gr/store/pirgos
Αντισμήναρχου Βασιλάκη 4,Kotsovolos,Ρέθυμνο,Greece,"{'brand': 'Kotsovolos', 'fascia': 'Kosovolos', 'category': 'Retail', 'edit_date': '20250510', 'lat_lon_source': 'Third Party'}",35.36505,24.48454,Kotsovolos Ρέθυμνο,"{'opening_hours': {'Mon': '09:00-21:00', 'Tue': '09:00-21:00', 'Wed': '09:00-21:00', 'Thu': '09:00-21:00', 'Fri': '09:00-21:00', 'Sat': '09:00 -20:00', 'Sun': '11:00-19:00'}}",2102899999,74100,20501,,https://www.kotsovolos.gr/store/rethymno
Εθνικής Αντίστασης42-44 ,Kotsovolos,Ρόδος,Greece,"{'brand': 'Kotsovolos', 'fascia': 'Kosovolos', 'category': 'Retail', 'edit_date': '20250510', 'lat_lon_source': 'Third Party'}",36.43438,28.22147,Kotsovolos Ρόδος,"{'opening_hours': {'Mon': '09:00-21:00', 'Tue': '09:00-21:00', 'Wed': '09:00-21:00', 'Thu': '09:00-21:00', 'Fri': '09:00-21:00', 'Sat': '09:00 -20:00', 'Sun': '11:00-16:00'}}",2102899999,85100,10078,,https://www.kotsovolos.gr/store/rodos
43ο χιλιόμετρο της Αθηνών-Λαμίας,Kotsovolos,Ωρωπός,Greece,"{'brand': 'Kotsovolos', 'fascia': 'Kosovolos', 'category': 'Retail', 'edit_date': '20250510', 'lat_lon_source': 'Third Party'}",38.25621,23.74991,Kotsovolos Σ.Ε.Α Σείριος,"{'opening_hours': {'Mon': '11:00-19:00', 'Tue': '11:00-19:00', 'Wed': '11:00-19:00', 'Thu': '11:00-19:00', 'Fri': '11:00- 19:00', 'Sat': '11:00-19:00', 'Sun': '11:00-16:00'}}",2102899999,19011,16001,,https://www.kotsovolos.gr/store/sea-seirios
Λεωφ. Σαλαμίνος99 ,Kotsovolos,Σαλαμίνα,Greece,"{'brand': 'Kotsovolos', 'fascia': 'Kosovolos', 'category': 'Retail', 'edit_date': '20250510', 'lat_lon_source': 'Third Party'}",37.96548,23.50672,Kotsovolos Σαλαμίνα,"{'opening_hours': {'Mon': '09:00-21:00', 'Tue': '09:00-21:00', 'Wed': '09:00-21:00', 'Thu': '09:00-21:00', 'Fri': '09:00-21:00', 'Sat': '09:00 -20:00', 'Sun': '11:00-20:00'}}",2102899999,18900,10079,,https://www.kotsovolos.gr/store/salamina
Μεσαριά,Kotsovolos,Σαντορίνη,Greece,"{'brand': 'Kotsovolos', 'fascia': 'Kosovolos', 'category': 'Retail', 'edit_date': '20250510', 'lat_lon_source': 'Third Party'}",36.40330,25.44858,Kotsovolos Σαντορίνη,"{'opening_hours': {'Mon': '09:00-21:00', 'Tue': '09:00-21:00', 'Wed': '09:00-21:00', 'Thu': '09:00-21:00', 'Fri': '09:00-21:00', 'Sat': '09:00-20:00', 'Sun': '11:00-18:00'}}",2286032353,84700,26501,,https://www.kotsovolos.gr/store/santorininew
Πλατεία Δήμητρας και Πλαταιών1 ,Kotsovolos,Σέρρες,Greece,"{'brand': 'Kotsovolos', 'fascia': 'Kosovolos', 'category': 'Retail', 'edit_date': '20250510', 'lat_lon_source': 'Third Party'}",41.09067,23.54702,Kotsovolos Σέρρες,"{'opening_hours': {'Mon': '09:00-21:00', 'Tue': '09:00-21:00', 'Wed': '09:00-21:00', 'Thu': '09:00-21:00', 'Fri': '09:00-21:00', 'Sat': '09:00 -20:00', 'Sun': '11:00-16:00'}}",2102899999,62121,10082,,https://www.kotsovolos.gr/store/serres
Των 118  73 & Όρθιας Αρτέμιδος,Kotsovolos,Σπάρτη,Greece,"{'brand': 'Kotsovolos', 'fascia': 'Kosovolos', 'category': 'Retail', 'edit_date': '20250510', 'lat_lon_source': 'Third Party'}",37.08151,22.43332,Kotsovolos Σπάρτη,"{'opening_hours': {'Mon': '09:00-21:00', 'Tue': '09:00-21:00', 'Wed': '09:00-21:00', 'Thu': '09:00-21:00', 'Fri': '09:00-21:00', 'Sat': '09:00 -20:00', 'Sun': '11:00-16:00'}}",2102899999,23100,14501,,https://www.kotsovolos.gr/store/sparti
Σταδίου 34 & Κοραή  ,Kotsovolos,Αθήνα,Greece,"{'brand': 'Kotsovolos', 'fascia': 'Kosovolos', 'category': 'Retail', 'edit_date': '20250510', 'lat_lon_source': 'Third Party'}",37.97999,23.73184,Kotsovolos Σταδίου,"{'opening_hours': {'Mon': '09:00-21:00', 'Tue': '09:00-21:00', 'Wed': '09:00-21:00', 'Thu': '09:00-21:00', 'Fri': '09:00-21:00', 'Sat': '09:00 -20:00', 'Sun': '11:00-20:00'}}",2102899999,10564,10007,,https://www.kotsovolos.gr/store/stadiou
Αεροδρομίου22,Kotsovolos,Σύρος,Greece,"{'brand': 'Kotsovolos', 'fascia': 'Kosovolos', 'category': 'Retail', 'edit_date': '20250510', 'lat_lon_source': 'Third Party'}",37.43000,24.94000,Kotsovolos Σύρος,"{'opening_hours': {'Mon': '09:00-21:00', 'Tue': '09:00-21:00', 'Wed': '09:00-21:00', 'Thu': '09:00-21:00', 'Fri': '09:00-21:00', 'Sat': '09:00 -20:00', 'Sun': '11:00-16:00'}}",2102899999,84100,9049551,,https://www.kotsovolos.gr/store/Syros
Γρηγορίου Λαμπράκη189 ,Kotsovolos,Θεσσαλονίκη,Greece,"{'brand': 'Kotsovolos', 'fascia': 'Kosovolos', 'category': 'Retail', 'edit_date': '20250510', 'lat_lon_source': 'Third Party'}",40.61254,22.98265,Kotsovolos Τούμπα,"{'opening_hours': {'Mon': '09:00-21:00', 'Tue': '09:00-21:00', 'Wed': '09:00-21:00', 'Thu': '09:00-21:00', 'Fri': '09:00-21:00', 'Sat': '09:00 -20:00', 'Sun': '11:00-20:00'}}",2102899999,54352,10029,,https://www.kotsovolos.gr/store/toumpa
Κολοκοτρώνη 1 & Πτολεμαίου  ,Kotsovolos,Τρίκαλα,Greece,"{'brand': 'Kotsovolos', 'fascia': 'Kosovolos', 'category': 'Retail', 'edit_date': '20250510', 'lat_lon_source': 'Third Party'}",39.55359,21.77016,Kotsovolos Τρίκαλα,"{'opening_hours': {'Mon': '09:00-21:00', 'Tue': '09:00-21:00', 'Wed': '09:00-21:00', 'Thu': '09:00-21:00', 'Fri': '09:00-21:00', 'Sat': '09:00 -20:00', 'Sun': '11:00-16:00'}}",2102899999,42100,10084,,https://www.kotsovolos.gr/store/trikala
Αλ. Σούτσου35 ,Kotsovolos,Τρίπολη,Greece,"{'brand': 'Kotsovolos', 'fascia': 'Kosovolos', 'category': 'Retail', 'edit_date': '20250510', 'lat_lon_source': 'Third Party'}",37.50911,22.38172,Kotsovolos Τρίπολη,"{'opening_hours': {'Mon': '09:00-21:00', 'Tue': '09:00-21:00', 'Wed': '09:00-21:00', 'Thu': '09:00-21:00', 'Fri': '09:00-21:00', 'Sat': '09:00 -20:00', 'Sun': '11:00-16:00'}}",2102899999,22100,10085,,https://www.kotsovolos.gr/store/tripoli
Λεωφ. Αθηνών 149 & Αναγεννήσεως  ,Kotsovolos,Χαϊδάρι,Greece,"{'brand': 'Kotsovolos', 'fascia': 'Kosovolos', 'category': 'Retail', 'edit_date': '20250510', 'lat_lon_source': 'Third Party'}",38.01055,23.66797,Kotsovolos Χαϊδάρι,"{'opening_hours': {'Mon': '09:00-21:00', 'Tue': '09:00-21:00', 'Wed': '09:00-21:00', 'Thu': '09:00-21:00', 'Fri': '09:00-21:00', 'Sat': '09:00 -20:00', 'Sun': '11:00-20:00'}}",2102899999,12461,10086,,https://www.kotsovolos.gr/store/chaidari
Αρεθούσης & Ι. Κιαπεκού  ,Kotsovolos,Χαλκίδα,Greece,"{'brand': 'Kotsovolos', 'fascia': 'Kosovolos', 'category': 'Retail', 'edit_date': '20250510', 'lat_lon_source': 'Third Party'}",38.45821,23.60978,Kotsovolos Χαλκίδα,"{'opening_hours': {'Mon': '09:00-21:00', 'Tue': '09:00-21:00', 'Wed': '09:00-21:00', 'Thu': '09:00-21:00', 'Fri': '09:00-21:00', 'Sat': '09:00 -20:00', 'Sun': '11:00-18:00'}}",2102899999,34100,10088,,https://www.kotsovolos.gr/store/chalkida
Σκαλίδη24 ,Kotsovolos,Χανιά Κρήτης,Greece,"{'brand': 'Kotsovolos', 'fascia': 'Kosovolos', 'category': 'Retail', 'edit_date': '20250510', 'lat_lon_source': 'Third Party'}",35.51369,24.01644,Kotsovolos Χανιά,"{'opening_hours': {'Mon': '09:00-21:00', 'Tue': '09:00-21:00', 'Wed': '09:00-21:00', 'Thu': '09:00-21:00', 'Fri': '09:00-21:00', 'Sat': '09:00 -20:00', 'Sun': '11:00-19:00'}}",2102899999,73100,10089,,https://www.kotsovolos.gr/store/chania
Λ.ΕΝΩΣΕΩΣ 48 - ΚΑΤΩ ΒΑΡΒΑΣΗ,Kotsovolos,Χίος,Greece,"{'brand': 'Kotsovolos', 'fascia': 'Kosovolos', 'category': 'Retail', 'edit_date': '20250510', 'lat_lon_source': 'Third Party'}",38.36076,26.14293,Kotsovolos Χίος,"{'opening_hours': {'Mon': '09:00-21:00', 'Tue': '09:00-21:00', 'Wed': '09:00-15:00', 'Thu': '09:00-21:00', 'Fri': '09:00-21:00', 'Sat': '09:00-15:00', 'Sun': '11:00-16:00'}}",,82100,9052551,,https://www.kotsovolos.gr/store/chios
Λεωφόρος Μεσογείων319 ,Kotsovolos,Χαλάνδρι,Greece,"{'brand': 'Kotsovolos', 'fascia': 'Kosovolos', 'category': 'Retail', 'edit_date': '20250510', 'lat_lon_source': 'Third Party'}",38.00728,23.80013,Kotsovolos Χολαργός,"{'opening_hours': {'Mon': '09:00-21:00', 'Tue': '09:00-21:00', 'Wed': '09:00-21:00', 'Thu': '09:00-21:00', 'Fri': '09:00-21:00', 'Sat': '09:00 -20:00', 'Sun': '11:00-20:00'}}",2102899999,15231,10087,,https://www.kotsovolos.gr/store/chalandri-cholargos
