addr_full,brand,city,country,extras,lat,lon,name,opening_hours,phone,postcode,ref,state,website
東京都渋谷区千駄ヶ谷2-11-1,Ron Herman,SENDAGAYA,Japan,"{'brand': 'Ron Herman', 'fascia': None, 'category': 'Fashion', 'edit_date': '20250305', 'lat_lon_source': 'Website'}",35.675517,139.710071,ロンハーマン千駄ヶ谷店,"{'opening_hours': {'Mon': '11:00-19:30', 'Tue': '11:00-19:30', 'Wed': '11:00-19:30', 'Thu': '11:00-19:30', 'Fri': '11:00-19:30', 'Sat': '11:00-19:30', 'Sun': '11:00-19:30'}}","0334026839,0334786839,0334706839",151-8575,1,,https://ronherman.jp/store
東京都世田谷区玉川4-1-25玉川髙島屋S・C　アイビーズプレイス,Ron Herman,FUTAKOTAMAGAWA,Japan,"{'brand': 'Ron Herman', 'fascia': None, 'category': 'Fashion', 'edit_date': '20250305', 'lat_lon_source': 'Website'}",35.615149,139.627229,ロンハーマン二子玉川店,"{'opening_hours': {'Mon': '10：00-20：00', 'Tue': '10：00-20：00', 'Wed': '10：00-20：00', 'Thu': '10：00-20：00', 'Fri': '10：00-20：00', 'Sat': '10：00-20：00', 'Sun': '10：00-20：00'}}",0337086839,158-0094,2,,https://ronherman.jp/store
兵庫県神戸市中央区三宮町3-6-1神戸BAL ANNEX,Ron Herman,KOBE,Japan,"{'brand': 'Ron Herman', 'fascia': None, 'category': 'Fashion', 'edit_date': '20250305', 'lat_lon_source': 'Website'}",34.689775,135.190165,ロンハーマン神戸店,"{'opening_hours': {'Mon': '11：00-20：00', 'Tue': '11：00-20：00', 'Wed': '11：00-20：00', 'Thu': '11：00-20：00', 'Fri': '11：00-20：00', 'Sat': '11：00-20：00', 'Sun': '11：00-20：00'}}",0783336839,650-0021,3,,https://ronherman.jp/store
東京都千代田区有楽町2-5-1ルミネ有楽町店 ルミネ１ 1F,Ron Herman,YURAKUCHO,Japan,"{'brand': 'Ron Herman', 'fascia': None, 'category': 'Fashion', 'edit_date': '20250305', 'lat_lon_source': 'Website'}",35.673562,139.763054,ロンハーマン有楽町店,"{'opening_hours': {'Mon': '11：00-21：00', 'Tue': '11：00-21：00', 'Wed': '11：00-21：00', 'Thu': '11：00-21：00', 'Fri': '11：00-21：00', 'Sat': '11：00-21：00', 'Sun': '11：00-21：00'}}",0352221739,100-0006,4,,https://ronherman.jp/store
神奈川県藤沢市辻堂神台1-3-1テラスモール湘南 湘南ヴィレッジ,Ron Herman,TSUJIDO,Japan,"{'brand': 'Ron Herman', 'fascia': None, 'category': 'Fashion', 'edit_date': '20250305', 'lat_lon_source': 'Website'}",35.33825,139.447216,ロンハーマン辻堂店,"{'opening_hours': {'Mon': '10：00-21：00', 'Tue': '10：00-21：00', 'Wed': '10：00-21：00', 'Thu': '10：00-21：00', 'Fri': '10：00-21：00', 'Sat': '10：00-21：00', 'Sun': '10：00-21：00'}}",0466381839,251-0041,5,,https://ronherman.jp/store
東京都港区赤坂9-7-4東京ミッドタウン　ガーデンテラスB1F,Ron Herman,ROPPONGI,Japan,"{'brand': 'Ron Herman', 'fascia': None, 'category': 'Fashion', 'edit_date': '20250305', 'lat_lon_source': 'Website'}",35.666852,139.730537,ロンハーマン六本木店,"{'opening_hours': {'Mon': '11：00-20：00', 'Tue': '11：00-20：00', 'Wed': '11：00-20：00', 'Thu': '11：00-20：00', 'Fri': '11：00-20：00', 'Sat': '11：00-20：00', 'Sun': '11：00-20：00'}}",0364470561,107-0052,7,,https://ronherman.jp/store
大阪府大阪市北区大深町4-20グランフロント大阪ショップ＆レストラン　南館1F,Ron Herman,OSAKA,Japan,"{'brand': 'Ron Herman', 'fascia': None, 'category': 'Fashion', 'edit_date': '20250305', 'lat_lon_source': 'Website'}",34.704358,135.494392,ロンハーマン大阪店,"{'opening_hours': {'Mon': '11：00-21：00', 'Tue': '11：00-21：00', 'Wed': '11：00-21：00', 'Thu': '11：00-21：00', 'Fri': '11：00-21：00', 'Sat': '11：00-21：00', 'Sun': '11：00-21：00'}}",0669406835,530-0011,8,,https://ronherman.jp/store
愛知県名古屋市中区栄3-6-1ラシック1F,Ron Herman,NAGOYA,Japan,"{'brand': 'Ron Herman', 'fascia': None, 'category': 'Fashion', 'edit_date': '20250305', 'lat_lon_source': 'Website'}",35.167421,136.907487,ロンハーマン名古屋店,"{'opening_hours': {'Mon': '11：00-21：00', 'Tue': '11：00-21：00', 'Wed': '11：00-21：00', 'Thu': '11：00-21：00', 'Fri': '11：00-21：00', 'Sat': '11：00-21：00', 'Sun': '11：00-21：00'}}",0526847652,460-0008,10,,https://ronherman.jp/store
福岡県福岡市中央区警固1-15-43,Ron Herman,FUKUOKA,Japan,"{'brand': 'Ron Herman', 'fascia': None, 'category': 'Fashion', 'edit_date': '20250305', 'lat_lon_source': 'Website'}",33.585437,130.394841,ロンハーマン福岡店,"{'opening_hours': {'Mon': '11：00-19：30', 'Tue': '11：00-19：30', 'Wed': '11：00-19：30', 'Thu': '11：00-19：30', 'Fri': '11：00-19：30', 'Sat': '11：00-19：30', 'Sun': '11：00-19：30'}}",0924064790,810-0023,11,,https://ronherman.jp/store
神奈川県逗子市小坪5-23-10リビエラ逗子マリーナ本館1F,Ron Herman,ZUSHI MARINA,Japan,"{'brand': 'Ron Herman', 'fascia': None, 'category': 'Fashion', 'edit_date': '20250305', 'lat_lon_source': 'Website'}",35.295969,139.552179,ロンハーマン逗子マリーナ店,"{'opening_hours': {'Mon': '11：00-19：30', 'Tue': '11：00-19：30', 'Wed': '11：00-19：30', 'Thu': '11：00-19：30', 'Fri': '11：00-19：30', 'Sat': '11：00-19：30', 'Sun': '11：00-19：30'}}",0467387260,249-0008,12,,https://ronherman.jp/store
京都府京都市中京区河原町通三条下ル山崎町251 京都BAL 6F,Ron Herman,KYOTO,Japan,"{'brand': 'Ron Herman', 'fascia': None, 'category': 'Fashion', 'edit_date': '20250305', 'lat_lon_source': 'Website'}",35.006912,135.769545,ロンハーマン京都店,"{'opening_hours': {'Mon': '11：00-20：00', 'Tue': '11：00-20：00', 'Wed': '11：00-20：00', 'Thu': '11：00-20：00', 'Fri': '11：00-20：00', 'Sat': '11：00-20：00', 'Sun': '11：00-20：00'}}",0757083840,604-8032,13,,https://ronherman.jp/store
神奈川県横浜市中区新港1-3-1MARINE & WALK YOKOHAMA,Ron Herman,YOKOHAMA,Japan,"{'brand': 'Ron Herman', 'fascia': None, 'category': 'Fashion', 'edit_date': '20250305', 'lat_lon_source': 'Website'}",35.454889,139.642011,ロンハーマン横浜店,"{'opening_hours': {'Mon': '11：00-20：00', 'Tue': '11：00-20：00', 'Wed': '11：00-20：00', 'Thu': '11：00-20：00', 'Fri': '11：00-20：00', 'Sat': '11：00-20：00', 'Sun': '11：00-20：00'}}",0453196751,231-0001,17,,https://ronherman.jp/store
宮城県仙台市青葉区中央1-1-1　エスパル仙台Ⅱ,Ron Herman,SENDAI,Japan,"{'brand': 'Ron Herman', 'fascia': None, 'category': 'Fashion', 'edit_date': '20250305', 'lat_lon_source': 'Website'}",38.1534236,140.5257792,ロンハーマン仙台店,"{'opening_hours': {'Mon': '10：00-20：00', 'Tue': '10：00-20：00', 'Wed': '10：00-20：00', 'Thu': '10：00-20：00', 'Fri': '10：00-20：00', 'Sat': '10：00-20：00', 'Sun': '10：00-20：00'}}",,980-8487,27,,https://ronherman.jp/store
長野県北佐久郡軽井沢町軽井沢　軽井沢・プリンスショッピングプラザ,Ron Herman,KARUIZAWA,Japan,"{'brand': 'Ron Herman', 'fascia': None, 'category': 'Fashion', 'edit_date': '20250305', 'lat_lon_source': 'Website'}",36.341122,138.633855,ロンハーマン軽井沢店,"{'opening_hours': {'Mon': '10：00-19：00', 'Tue': '10：00-19：00', 'Wed': '10：00-19：00', 'Thu': '10：00-19：00', 'Fri': '10：00-19：00', 'Sat': '10：00-19：00', 'Sun': '10：00-19：00'}}",0267416839,389-0102,24,,https://ronherman.jp/store
三重県桑名市長島町浦安368ジャズドリーム長島,Ron Herman,NAGASHIMA,Japan,"{'brand': 'Ron Herman', 'fascia': None, 'category': 'Fashion', 'edit_date': '20250305', 'lat_lon_source': 'Website'}",35.02771,136.72717,ロンハーマン長島店,"{'opening_hours': {'Mon': '10：00-20：00', 'Tue': '10：00-20：00', 'Wed': '10：00-20：00', 'Thu': '10：00-20：00', 'Fri': '10：00-20：00', 'Sat': '10：00-20：00', 'Sun': '10：00-20：00'}}",0594867572,511-1135,15,,https://ronherman.jp/store
静岡県御殿場市深沢1312御殿場プレミアム・アウトレット HILL SIDE,Ron Herman,GOTEMBA,Japan,"{'brand': 'Ron Herman', 'fascia': None, 'category': 'Fashion', 'edit_date': '20250305', 'lat_lon_source': 'Website'}",35.305864,138.965939,ロンハーマン御殿場店,"{'opening_hours': {'Mon': '10:00-20:00', 'Tue': '10:00-20:00', 'Wed': '10:00-20:00', 'Thu': '10:00-20:00', 'Fri': '10:00-20:00', 'Sat': '10:00-20:00', 'Sun': '10:00-20:00'}}",0550706270,412-0023,25,,https://ronherman.jp/store
栃木県佐野市越名町2058　佐野プレミアム・アウトレット,Ron Herman,SANO,Japan,"{'brand': 'Ron Herman', 'fascia': None, 'category': 'Fashion', 'edit_date': '20250305', 'lat_lon_source': 'Website'}",36.293427,139.604281,ロンハーマン佐野店,"{'opening_hours': {'Mon': '10:00-20:00', 'Tue': '10:00-20:00', 'Wed': '10:00-20:00', 'Thu': '10:00-20:00', 'Fri': '10:00-20:00', 'Sat': '10:00-20:00', 'Sun': '10:00-20:00'}}",0283867931,327-0822,28,,https://ronherman.jp/store
神戸市北区上津台7-3　神戸三田プレミアムアウトレット,Ron Herman,SANDA,Japan,"{'brand': 'Ron Herman', 'fascia': None, 'category': 'Fashion', 'edit_date': '20250305', 'lat_lon_source': 'Website'}",34.8595638,135.1891034,ロンハーマン三田店,"{'opening_hours': {'Mon': '10:00-20:00', 'Tue': '10:00-20:00', 'Wed': '10:00-20:00', 'Thu': '10:00-20:00', 'Fri': '10:00-20:00', 'Sat': '10:00-20:00', 'Sun': '10:00-20:00'}}",0785978350,651-1515,33,,https://ronherman.jp/store
千葉県匝瑳市飯塚3342,Ron Herman,SOSA,Japan,"{'brand': 'Ron Herman', 'fascia': None, 'category': 'Fashion', 'edit_date': '20250305', 'lat_lon_source': 'Website'}",35.727828,140.554379,ロンハーマン匝瑳店,{'opening_hours': {'\nOperating 24 hours 7 days a week\n'}},,289-2106,26,,https://ronherman.jp/store
