address,brand,city,postcode,country,extras,latitude,longitude,opening_hours,name,phone,ref,state,website
Avenue de la Boutillerie,Decathlon,SEQUEDIN,59320,FR,"{'brand': 'Decathlon', 'fascia': 'Decathlon', 'category': 'Sports', 'edit_date': '20250310', 'lat_lon_source': 'website'}",50.6289155,2.9718339,"{'opening_hours': {'Mon': '09:00-19:30', 'Tue': '09:00-19:30', 'Wed': '09:00-19:30', 'Thu': '09:00-19:30', 'Fri': '09:00-19:30', 'Sat': '09:00-20:00', 'Sun': ''}}",Decathlon Englos - Sequedin ,+33320001700,0070000100001,,https://www.decathlon.fr/store-locator
"3 Route du Petit Menin, ZAC du petit Menin",Decathlon,NEUVILLE EN FERRAIN,59960,FR,"{'brand': 'Decathlon', 'fascia': 'Decathlon', 'category': 'Sports', 'edit_date': '20250310', 'lat_lon_source': 'website'}",50.7410559626569,3.139125502732867,"{'opening_hours': {'Mon': '09:30-19:30', 'Tue': '09:30-19:30', 'Wed': '09:30-19:30', 'Thu': '09:30-19:30', 'Fri': '09:30-19:30', 'Sat': '09:30-19:30', 'Sun': ''}}",Decathlon Neuville en Ferrain - Roncq,+33320280460,0070000200002,,https://www.decathlon.fr/store-locator
1800 Chemin des Terriers Nord,Decathlon,ANTIBES,06600,FR,"{'brand': 'Decathlon', 'fascia': 'Decathlon', 'category': 'Sports', 'edit_date': '20250310', 'lat_lon_source': 'website'}",43.600207,7.076015,"{'opening_hours': {'Mon': '09:00-20:00', 'Tue': '09:00-20:00', 'Wed': '09:00-20:00', 'Thu': '09:00-20:00', 'Fri': '09:00-20:00', 'Sat': '09:00-20:00', 'Sun': ''}}",Decathlon Antibes,+33493741020,0070000400004,,https://www.decathlon.fr/store-locator
636 avenue de Draguignan,Decathlon,La Garde,83130,FR,"{'brand': 'Decathlon', 'fascia': 'Decathlon', 'category': 'Sports', 'edit_date': '20250310', 'lat_lon_source': 'website'}",43.1391379,6.032684499999999,"{'opening_hours': {'Mon': '09:00-19:30', 'Tue': '09:00-19:30', 'Wed': '09:00-19:30', 'Thu': '09:00-19:30', 'Fri': '09:00-19:30', 'Sat': '09:00-20:00', 'Sun': ''}}",Toulon La Garde,+33494147950,0070000500005,,https://www.decathlon.fr/store-locator
ZA La Carbonniere,Decathlon,Barentin,76360,FR,"{'brand': 'Decathlon', 'fascia': 'Decathlon', 'category': 'Sports', 'edit_date': '20250310', 'lat_lon_source': 'website'}",49.527580379171,0.96427905753328,"{'opening_hours': {'Mon': '09:00-20:00', 'Tue': '09:00-20:00', 'Wed': '09:00-20:00', 'Thu': '09:00-20:00', 'Fri': '09:00-20:00', 'Sat': '09:00-20:00', 'Sun': ''}}",Barentin,+33235920585,0070000600006,,https://www.decathlon.fr/store-locator
Carrefour POMPADOUR,Decathlon,Creteil,94000,FR,"{'brand': 'Decathlon', 'fascia': 'Decathlon', 'category': 'Sports', 'edit_date': '20250310', 'lat_lon_source': 'website'}",48.774977467972,2.4380066772461,"{'opening_hours': {'Mon': '10:00-20:00', 'Tue': '10:00-20:00', 'Wed': '10:00-20:00', 'Thu': '10:00-20:00', 'Fri': '10:00-20:00', 'Sat': '10:00-20:00', 'Sun': ''}}",Créteil,+33149804323,0070000800008,,https://www.decathlon.fr/store-locator
ZI les Paluds,Decathlon,AUBAGNE,13400,FR,"{'brand': 'Decathlon', 'fascia': 'Decathlon', 'category': 'Sports', 'edit_date': '20250310', 'lat_lon_source': 'website'}",43.29726687252901,5.593806635581959,"{'opening_hours': {'Mon': '09:00-20:00', 'Tue': '09:00-20:00', 'Wed': '09:00-20:00', 'Thu': '09:00-20:00', 'Fri': '09:00-20:00', 'Sat': '09:00-20:00', 'Sun': ''}}",Decathlon - Aubagne,+33442180101,0070001000010,,https://www.decathlon.fr/store-locator
12 mail des copistes,Decathlon,HERBLAY,95220,FR,"{'brand': 'Decathlon', 'fascia': 'Decathlon', 'category': 'Sports', 'edit_date': '20250310', 'lat_lon_source': 'website'}",49.0001986,2.1872624,"{'opening_hours': {'Mon': '09:30-20:00', 'Tue': '09:30-20:00', 'Wed': '09:30-20:00', 'Thu': '09:30-20:00', 'Fri': '09:30-20:00', 'Sat': '09:30-20:00', 'Sun': '09:30-20:00'}}",Herblay,+33134506650,0070001100011,,https://www.decathlon.fr/store-locator
"LE PERROLLIER , 21 RUE JEAN MARIE VIANNEY",Decathlon,Ecully,69130,FR,"{'brand': 'Decathlon', 'fascia': 'Decathlon', 'category': 'Sports', 'edit_date': '20250310', 'lat_lon_source': 'website'}",45.79028592716491,4.7777999729858545,"{'opening_hours': {'Mon': '09:00-20:00', 'Tue': '09:00-20:00', 'Wed': '09:00-20:00', 'Thu': '09:00-20:00', 'Fri': '09:00-20:00', 'Sat': '09:00-20:00', 'Sun': ''}}",Ecully,+33478333000,0070001200012,,https://www.decathlon.fr/store-locator
"63, route de la torchaise",Decathlon,Vouneuil sous Biard,86580,FR,"{'brand': 'Decathlon', 'fascia': 'Decathlon', 'category': 'Sports', 'edit_date': '20250310', 'lat_lon_source': 'website'}",46.559578059992,0.29985826187134,"{'opening_hours': {'Mon': '09:00-20:00', 'Tue': '09:00-20:00', 'Wed': '09:00-20:00', 'Thu': '09:00-20:00', 'Fri': '09:00-20:00', 'Sat': '09:00-20:00', 'Sun': ''}}",Poitiers - Vouneuil sous Biard ,+33549501475,0070001300013,,https://www.decathlon.fr/store-locator
Zone Industrielle de la Croix Blanche,Decathlon,Sainte Genevieve des Bois,91700,FR,"{'brand': 'Decathlon', 'fascia': 'Decathlon', 'category': 'Sports', 'edit_date': '20250310', 'lat_lon_source': 'website'}",48.625744451825,2.3438520416642,"{'opening_hours': {'Mon': '09:30-19:30', 'Tue': '09:30-19:30', 'Wed': '09:30-19:30', 'Thu': '09:30-19:30', 'Fri': '09:30-19:30', 'Sat': '09:30-19:30', 'Sun': '09:30-19:30'}}",Sainte Genevieve des Bois,+33160153313,0070001400014,,https://www.decathlon.fr/store-locator
"121, boulevard de Valmy",Decathlon,VILLENEUVE D'ASCQ,59650,FR,"{'brand': 'Decathlon', 'fascia': 'Decathlon', 'category': 'Sports', 'edit_date': '20250310', 'lat_lon_source': 'website'}",50.61622060000001,3.1275523,"{'opening_hours': {'Mon': '09:30-19:30', 'Tue': '09:30-19:30', 'Wed': '09:30-19:30', 'Thu': '09:30-19:30', 'Fri': '09:30-19:30', 'Sat': '09:30-19:30', 'Sun': ''}}",Decathlon Villeneuve d'Ascq ccial V2 - Lille,+33320916103,0070001500015,,https://www.decathlon.fr/store-locator
33 avenue de l'Europe,Decathlon,Velizy,78140,FR,"{'brand': 'Decathlon', 'fascia': 'Decathlon', 'category': 'Sports', 'edit_date': '20250310', 'lat_lon_source': 'website'}",48.782905,2.21939,"{'opening_hours': {'Mon': '09:30-20:00', 'Tue': '09:30-20:00', 'Wed': '09:30-20:00', 'Thu': '09:30-20:00', 'Fri': '09:30-20:00', 'Sat': '09:30-20:00', 'Sun': '09:30-19:30'}}",Vélizy,+33134650808,0070001600016,,https://www.decathlon.fr/store-locator
1072 Avenue Georges Méliès,Decathlon,MONTPELLIER,34000,FR,"{'brand': 'Decathlon', 'fascia': 'Decathlon', 'category': 'Sports', 'edit_date': '20250310', 'lat_lon_source': 'website'}",43.6057184401,3.9231993883606,"{'opening_hours': {'Mon': '09:00-20:00', 'Tue': '09:00-20:00', 'Wed': '09:00-20:00', 'Thu': '09:00-20:00', 'Fri': '09:00-20:00', 'Sat': '09:00-20:00', 'Sun': ''}}",Montpellier - Odysseum,+33499532424,0070001700017,,https://www.decathlon.fr/store-locator
4 avenue des Palanques,Decathlon,PORTET sur GARONNE,31120,FR,"{'brand': 'Decathlon', 'fascia': 'Decathlon', 'category': 'Sports', 'edit_date': '20250310', 'lat_lon_source': 'website'}",43.533238900898,1.4066804074097,"{'opening_hours': {'Mon': '09:00-19:30', 'Tue': '09:00-19:30', 'Wed': '09:00-19:30', 'Thu': '09:00-19:30', 'Fri': '09:00-19:30', 'Sat': '09:00-20:00', 'Sun': ''}}",Toulouse - Portet sur Garonne,+33561728181,0070001800018,,https://www.decathlon.fr/store-locator
182 Avenue Maréchal Leclerc,Decathlon,Le Pontet,84130,FR,"{'brand': 'Decathlon', 'fascia': 'Decathlon', 'category': 'Sports', 'edit_date': '20250310', 'lat_lon_source': 'website'}",43.972636275833,4.8634241910156,"{'opening_hours': {'Mon': '09:00-19:30', 'Tue': '09:00-19:30', 'Wed': '09:00-19:30', 'Thu': '09:00-19:30', 'Fri': '09:00-19:30', 'Sat': '09:00-19:30', 'Sun': ''}}",Avignon Nord - Le Pontet ,+33490030484,0070001900019,,https://www.decathlon.fr/store-locator
Place André Maurois,Decathlon,Strasbourg,67200,FR,"{'brand': 'Decathlon', 'fascia': 'Decathlon', 'category': 'Sports', 'edit_date': '20250310', 'lat_lon_source': 'website'}",48.5913569,7.6936074,"{'opening_hours': {'Mon': '09:30-19:30', 'Tue': '09:30-19:30', 'Wed': '09:30-19:30', 'Thu': '09:30-19:30', 'Fri': '09:30-19:30', 'Sat': '09:30-19:30', 'Sun': ''}}",Strasbourg Hautepierre,+330390204720,0070002000020,,https://www.decathlon.fr/store-locator
Avenue des 40 Journaux,Decathlon,Bordeaux,33300,FR,"{'brand': 'Decathlon', 'fascia': 'Decathlon', 'category': 'Sports', 'edit_date': '20250310', 'lat_lon_source': 'website'}",44.874862,-0.567562,"{'opening_hours': {'Mon': '09:30-19:30', 'Tue': '09:30-19:30', 'Wed': '09:30-19:30', 'Thu': '09:30-19:30', 'Fri': '09:30-19:30', 'Sat': '09:30-19:30', 'Sun': ''}}",Bordeaux Lac,+33557193939,0070002200022,,https://www.decathlon.fr/store-locator
9 rue du Drac,Decathlon,ECHIROLLES,38130,FR,"{'brand': 'Decathlon', 'fascia': 'Decathlon', 'category': 'Sports', 'edit_date': '20250310', 'lat_lon_source': 'website'}",45.146181564846,5.691407646141,"{'opening_hours': {'Mon': '09:00-20:00', 'Tue': '09:00-20:00', 'Wed': '09:00-20:00', 'Thu': '09:00-20:00', 'Fri': '09:00-20:00', 'Sat': '09:00-20:00', 'Sun': ''}}",Grenoble - Echirolles ,+33476400011,0070002300023,,https://www.decathlon.fr/store-locator
Zone Commerciale Auchan Petite-Forêt,Decathlon,PETITE-FORÊT,59494,FR,"{'brand': 'Decathlon', 'fascia': 'Decathlon', 'category': 'Sports', 'edit_date': '20250310', 'lat_lon_source': 'website'}",50.380009709485,3.4755738796234,"{'opening_hours': {'Mon': '09:30-19:30', 'Tue': '09:30-19:30', 'Wed': '09:30-19:30', 'Thu': '09:30-19:30', 'Fri': '09:30-19:30', 'Sat': '09:30-19:30', 'Sun': ''}}",Decathlon Valenciennes - Petite Forêt ,+33327141551,0070002400024,,https://www.decathlon.fr/store-locator
Rond point de l'Hippodrome,Decathlon,Chambray-lès-Tours,37170,FR,"{'brand': 'Decathlon', 'fascia': 'Decathlon', 'category': 'Sports', 'edit_date': '20250310', 'lat_lon_source': 'website'}",47.3299113,0.7066678,"{'opening_hours': {'Mon': '09:00-19:30', 'Tue': '09:00-19:30', 'Wed': '09:00-19:30', 'Thu': '09:00-19:30', 'Fri': '09:00-19:30', 'Sat': '09:00-19:30', 'Sun': ''}}",Chambray Les Tours,+33247282422,0070002500025,,https://www.decathlon.fr/store-locator
"212, rue de l´industrie",Decathlon,Cesson,77240,FR,"{'brand': 'Decathlon', 'fascia': 'Decathlon', 'category': 'Sports', 'edit_date': '20250310', 'lat_lon_source': 'website'}",48.590189870312,2.5982079219818,"{'opening_hours': {'Mon': '09:30-20:00', 'Tue': '09:30-20:00', 'Wed': '09:30-20:00', 'Thu': '09:30-20:00', 'Fri': '09:30-20:00', 'Sat': '09:30-20:00', 'Sun': '09:30-19:30'}}",Bois Sénart,+33164417221,0070002600026,,https://www.decathlon.fr/store-locator
"176 boulevard de l Europe, C.C Quartier Libre",Decathlon,LESCAR,64230,FR,"{'brand': 'Decathlon', 'fascia': 'Decathlon', 'category': 'Sports', 'edit_date': '20250310', 'lat_lon_source': 'website'}",43.3175868,-0.4341858,"{'opening_hours': {'Mon': '09:00-20:00', 'Tue': '09:00-20:00', 'Wed': '09:00-20:00', 'Thu': '09:00-20:00', 'Fri': '09:00-20:00', 'Sat': '09:00-20:00', 'Sun': ''}}",Pau - Lescar,+33559928500,0070002700027,,https://www.decathlon.fr/store-locator
1 Rond Point des Sports,Decathlon,Quétigny,21800,FR,"{'brand': 'Decathlon', 'fascia': 'Decathlon', 'category': 'Sports', 'edit_date': '20250310', 'lat_lon_source': 'website'}",47.3152219,5.0890362,"{'opening_hours': {'Mon': '09:00-19:30', 'Tue': '09:00-19:30', 'Wed': '09:00-19:30', 'Thu': '09:00-19:30', 'Fri': '09:00-19:30', 'Sat': '09:00-19:30', 'Sun': ''}}",Dijon - Quetigny ,+33380352540,0070002800028,,https://www.decathlon.fr/store-locator
4 boulevard des Enseignes,Decathlon,Mundolsheim,67450,FR,"{'brand': 'Decathlon', 'fascia': 'Decathlon', 'category': 'Sports', 'edit_date': '20250310', 'lat_lon_source': 'website'}",48.651994,7.729512,"{'opening_hours': {'Mon': '09:00-19:30', 'Tue': '09:00-19:30', 'Wed': '09:00-19:30', 'Thu': '09:00-19:30', 'Fri': '09:00-19:30', 'Sat': '09:00-19:30', 'Sun': ''}}",Mundolsheim,+33388819981,0070002900029,,https://www.decathlon.fr/store-locator
"5, Avenue du Grand Sablon",Decathlon,La Tronche,38700,FR,"{'brand': 'Decathlon', 'fascia': 'Decathlon', 'category': 'Sports', 'edit_date': '20250310', 'lat_lon_source': 'website'}",45.197546945398,5.7503715390396,"{'opening_hours': {'Mon': '09:00-20:00', 'Tue': '09:00-20:00', 'Wed': '09:00-20:00', 'Thu': '09:00-20:00', 'Fri': '09:00-20:00', 'Sat': '09:00-20:00', 'Sun': ''}}",Grenoble - La Tronche,+33476034400,0070003000030,,https://www.decathlon.fr/store-locator
Boulevard Alsace Lorraine,Decathlon,CORMONTREUIL,51350,FR,"{'brand': 'Decathlon', 'fascia': 'Decathlon', 'category': 'Sports', 'edit_date': '20250310', 'lat_lon_source': 'website'}",49.21737715980738,4.047911973571794,"{'opening_hours': {'Mon': '09:00-19:30', 'Tue': '09:00-19:30', 'Wed': '09:00-19:30', 'Thu': '09:00-19:30', 'Fri': '09:00-19:30', 'Sat': '09:00-19:30', 'Sun': ''}}",Decathlon Reims Cormontreuil,+33326823834,0070003100031,,https://www.decathlon.fr/store-locator
"105 rue Jakez Hélias, Les portes de Brest Guipavas",Decathlon,GUIPAVAS,29490,FR,"{'brand': 'Decathlon', 'fascia': 'Decathlon', 'category': 'Sports', 'edit_date': '20250310', 'lat_lon_source': 'website'}",48.416428,-4.4358132,"{'opening_hours': {'Mon': '09:00-19:30', 'Tue': '09:00-19:30', 'Wed': '09:00-19:30', 'Thu': '09:00-19:30', 'Fri': '09:00-19:30', 'Sat': '09:00-19:30', 'Sun': ''}}",Brest Guipavas,+33229612222,0070003200032,,https://www.decathlon.fr/store-locator
102 Avenue Jean Moulin,Decathlon,JAUX,60880,FR,"{'brand': 'Decathlon', 'fascia': 'Decathlon', 'category': 'Sports', 'edit_date': '20250310', 'lat_lon_source': 'website'}",49.4053542578876,2.779346500663782,"{'opening_hours': {'Mon': '09:30-19:30', 'Tue': '09:30-19:30', 'Wed': '09:30-19:30', 'Thu': '09:30-19:30', 'Fri': '09:30-19:30', 'Sat': '09:30-19:30', 'Sun': ''}}",Decathlon Compiègne - Jaux,+33344907500,0070003300033,,https://www.decathlon.fr/store-locator
Rue des Grands Chataigniers,Decathlon,VERTOU,44120,FR,"{'brand': 'Decathlon', 'fascia': 'Decathlon', 'category': 'Sports', 'edit_date': '20250310', 'lat_lon_source': 'website'}",47.1786475,-1.5019145,"{'opening_hours': {'Mon': '09:00-20:00', 'Tue': '09:00-20:00', 'Wed': '09:00-20:00', 'Thu': '09:00-20:00', 'Fri': '09:00-20:00', 'Sat': '09:00-20:00', 'Sun': ''}}",Decathlon Nantes - Vertou,+33251712323,0070003400034,,https://www.decathlon.fr/store-locator
3 rue Amédée Gordini,Decathlon,Limoges,87280,FR,"{'brand': 'Decathlon', 'fascia': 'Decathlon', 'category': 'Sports', 'edit_date': '20250310', 'lat_lon_source': 'website'}",45.892380783678,1.2778869444275,"{'opening_hours': {'Mon': '09:00-19:30', 'Tue': '09:00-19:30', 'Wed': '09:00-19:30', 'Thu': '09:00-19:30', 'Fri': '09:00-19:30', 'Sat': '09:00-19:30', 'Sun': ''}}",Limoges,+33555351036,0070003500035,,https://www.decathlon.fr/store-locator
"2, rue de Belgique, Zone Commerciale Beaulieu",Decathlon,Puilboreau,17138,FR,"{'brand': 'Decathlon', 'fascia': 'Decathlon', 'category': 'Sports', 'edit_date': '20250310', 'lat_lon_source': 'website'}",46.178106099992,-1.1210686144638,"{'opening_hours': {'Mon': '09:00-20:00', 'Tue': '09:00-20:00', 'Wed': '09:00-20:00', 'Thu': '09:00-20:00', 'Fri': '09:00-20:00', 'Sat': '09:00-20:00', 'Sun': ''}}",La Rochelle / Puilboreau,+33546680000,0070003600036,,https://www.decathlon.fr/store-locator
Avenue du Marechal Lyautey,Decathlon,MANDELIEU LA NAPOULE,06210,FR,"{'brand': 'Decathlon', 'fascia': 'Decathlon', 'category': 'Sports', 'edit_date': '20250310', 'lat_lon_source': 'website'}",43.5537517,6.9470675,"{'opening_hours': {'Mon': '09:00-19:30', 'Tue': '09:00-19:30', 'Wed': '09:00-19:30', 'Thu': '09:00-19:30', 'Fri': '09:00-19:30', 'Sat': '09:00-19:30', 'Sun': ''}}",Decathlon Cannes - Mandelieu,+33493902508,0070003700037,,https://www.decathlon.fr/store-locator
"5, rue Hipparque",Decathlon,Merignac,33700,FR,"{'brand': 'Decathlon', 'fascia': 'Decathlon', 'category': 'Sports', 'edit_date': '20250310', 'lat_lon_source': 'website'}",44.829945664984,-0.68063017196655,"{'opening_hours': {'Mon': '09:00-20:00', 'Tue': '09:00-20:00', 'Wed': '09:00-20:00', 'Thu': '09:00-20:00', 'Fri': '09:00-20:00', 'Sat': '09:00-20:00', 'Sun': ''}}",Bordeaux Merignac,+33556476647,0070003900039,,https://www.decathlon.fr/store-locator
78 chemin du Loudet,Decathlon,COLOMIERS,31770,FR,"{'brand': 'Decathlon', 'fascia': 'Decathlon', 'category': 'Sports', 'edit_date': '20250310', 'lat_lon_source': 'website'}",43.608075023304,1.3046952749252,"{'opening_hours': {'Mon': '09:00-19:30', 'Tue': '09:00-19:30', 'Wed': '09:00-19:30', 'Thu': '09:00-19:30', 'Fri': '09:00-19:30', 'Sat': '09:00-20:00', 'Sun': ''}}",Toulouse Colomiers,+33561318788,0070004000040,,https://www.decathlon.fr/store-locator
82 Route de Mantes,Decathlon,Chambourcy,78240,FR,"{'brand': 'Decathlon', 'fascia': 'Decathlon', 'category': 'Sports', 'edit_date': '20250310', 'lat_lon_source': 'website'}",48.91192840693058,2.0325497798705916,"{'opening_hours': {'Mon': '09:30-20:00', 'Tue': '09:30-20:00', 'Wed': '09:30-20:00', 'Thu': '09:30-20:00', 'Fri': '09:30-20:00', 'Sat': '09:30-20:00', 'Sun': '10:00-19:30'}}",Chambourcy,+33139792923,0070004100041,,https://www.decathlon.fr/store-locator
Zone Actisud - Route des Gravières,Decathlon,Augny,57685,FR,"{'brand': 'Decathlon', 'fascia': 'Decathlon', 'category': 'Sports', 'edit_date': '20250310', 'lat_lon_source': 'website'}",49.078650746812,6.1110975780487,"{'opening_hours': {'Mon': '09:00-19:30', 'Tue': '09:00-19:30', 'Wed': '09:00-19:30', 'Thu': '09:00-19:30', 'Fri': '09:00-19:30', 'Sat': '09:00-19:30', 'Sun': ''}}",Metz - Augny,+33387658300,0070004200042,,https://www.decathlon.fr/store-locator
ZAC Deves de la Condamine,Decathlon,Saint Jean de Védas,34430,FR,"{'brand': 'Decathlon', 'fascia': 'Decathlon', 'category': 'Sports', 'edit_date': '20250310', 'lat_lon_source': 'website'}",43.571323925561,3.8453186871719,"{'opening_hours': {'Mon': '09:00-19:30', 'Tue': '09:00-19:30', 'Wed': '09:00-19:30', 'Thu': '09:00-19:30', 'Fri': '09:00-19:30', 'Sat': '09:00-19:30', 'Sun': ''}}",Montpellier - Saint Jean de Vedas,+33499528900,0070004500045,,https://www.decathlon.fr/store-locator
Avenue Roger Secretain,Decathlon,ORLEANS,45000,FR,"{'brand': 'Decathlon', 'fascia': 'Decathlon', 'category': 'Sports', 'edit_date': '20250310', 'lat_lon_source': 'website'}",47.875381,1.911803,"{'opening_hours': {'Mon': '09:00-19:30', 'Tue': '09:00-19:30', 'Wed': '09:00-19:30', 'Thu': '09:00-19:30', 'Fri': '09:00-19:30', 'Sat': '09:00-19:30', 'Sun': ''}}",Orléans,+33238665555,0070004800048,,https://www.decathlon.fr/store-locator
"2, boulevard d Arcole",Decathlon,Toulouse,31000,FR,"{'brand': 'Decathlon', 'fascia': 'Decathlon', 'category': 'Sports', 'edit_date': '20250310', 'lat_lon_source': 'website'}",43.610906,1.4431,"{'opening_hours': {'Mon': '09:30-19:30', 'Tue': '09:30-19:30', 'Wed': '09:30-19:30', 'Thu': '09:30-19:30', 'Fri': '09:30-19:30', 'Sat': '09:30-19:30', 'Sun': ''}}",Toulouse Centre Ville,+33561622449,0070004900049,,https://www.decathlon.fr/store-locator
Chemin des Perdrix,Decathlon,Epagny,74330,FR,"{'brand': 'Decathlon', 'fascia': 'Decathlon', 'category': 'Sports', 'edit_date': '20250310', 'lat_lon_source': 'website'}",45.939979023462,6.0689691580581,"{'opening_hours': {'Mon': '09:00-19:30', 'Tue': '09:00-19:30', 'Wed': '09:00-19:30', 'Thu': '09:00-19:30', 'Fri': '09:00-19:30', 'Sat': '09:00-19:30', 'Sun': ''}}",Annecy - Epagny,+33450226243,0070005100051,,https://www.decathlon.fr/store-locator
155 Rue Paul LAURENT - CS 48239,Decathlon,NIMES NIMES Cedex 9,30900,FR,"{'brand': 'Decathlon', 'fascia': 'Decathlon', 'category': 'Sports', 'edit_date': '20250310', 'lat_lon_source': 'website'}",43.80873122718,4.3678857735718,"{'opening_hours': {'Mon': '09:00-20:00', 'Tue': '09:00-20:00', 'Wed': '09:00-20:00', 'Thu': '09:00-20:00', 'Fri': '09:00-20:00', 'Sat': '09:00-20:00', 'Sun': ''}}",Nîmes,+33466290222,0070005200052,,https://www.decathlon.fr/store-locator
21 rue des Barthes et 63 avenue de Bayonne,Decathlon,ANGLET,64600,FR,"{'brand': 'Decathlon', 'fascia': 'Decathlon', 'category': 'Sports', 'edit_date': '20250310', 'lat_lon_source': 'website'}",43.4849257,-1.5047525,"{'opening_hours': {'Mon': '09:00-20:00', 'Tue': '09:00-20:00', 'Wed': '09:00-20:00', 'Thu': '09:00-20:00', 'Fri': '09:00-20:00', 'Sat': '09:00-20:00', 'Sun': ''}}",Anglet Côte Basque,+33559575000,0070005300053,,https://www.decathlon.fr/store-locator
Avenue Padovani,Decathlon,VITROLLES,13127,FR,"{'brand': 'Decathlon', 'fascia': 'Decathlon', 'category': 'Sports', 'edit_date': '20250310', 'lat_lon_source': 'website'}",43.436265579592,5.2563218154526,"{'opening_hours': {'Mon': '09:00-19:30', 'Tue': '09:00-19:30', 'Wed': '09:00-19:30', 'Thu': '09:00-19:30', 'Fri': '09:00-19:30', 'Sat': '09:00-19:30', 'Sun': ''}}",Vitrolles,+33442151050,0070005400054,,https://www.decathlon.fr/store-locator
"70, Rue Henri Barbusse",Decathlon,Plaisir,78370,FR,"{'brand': 'Decathlon', 'fascia': 'Decathlon', 'category': 'Sports', 'edit_date': '20250310', 'lat_lon_source': 'website'}",48.82798,1.96602,"{'opening_hours': {'Mon': '09:30-20:00', 'Tue': '09:30-20:00', 'Wed': '09:30-20:00', 'Thu': '09:30-20:00', 'Fri': '09:30-20:00', 'Sat': '09:30-20:00', 'Sun': '10:00-19:30'}}",Plaisir,+33130075250,0070005500055,,https://www.decathlon.fr/store-locator
Avenue des drapeaux,Decathlon,Rots,14980,FR,"{'brand': 'Decathlon', 'fascia': 'Decathlon', 'category': 'Sports', 'edit_date': '20250310', 'lat_lon_source': 'website'}",49.19668851,-0.452939660049,"{'opening_hours': {'Mon': '09:00-19:30', 'Tue': '09:00-19:30', 'Wed': '09:00-19:30', 'Thu': '09:00-19:30', 'Fri': '09:00-19:30', 'Sat': '09:00-19:30', 'Sun': ''}}",Caen Rots,+33231060900,0070005700057,,https://www.decathlon.fr/store-locator
4/6 Rue Louis Armand,Decathlon,Paris,75015,FR,"{'brand': 'Decathlon', 'fascia': 'Decathlon', 'category': 'Sports', 'edit_date': '20250310', 'lat_lon_source': 'website'}",48.832790978809,2.2770991263199,"{'opening_hours': {'Mon': '09:30-20:00', 'Tue': '09:30-20:00', 'Wed': '09:30-20:00', 'Thu': '09:30-20:00', 'Fri': '09:30-20:00', 'Sat': '09:30-20:00', 'Sun': '10:00-20:00'}}",Paris Aquaboulevard,+33145586045,0070005800058,,https://www.decathlon.fr/store-locator
Centre Commercial La lézarde,Decathlon,Montivilliers,76290,FR,"{'brand': 'Decathlon', 'fascia': 'Decathlon', 'category': 'Sports', 'edit_date': '20250310', 'lat_lon_source': 'website'}",49.530163,0.187278,"{'opening_hours': {'Mon': '09:00-19:30', 'Tue': '09:00-19:30', 'Wed': '09:00-19:30', 'Thu': '09:00-19:30', 'Fri': '09:00-19:30', 'Sat': '09:00-19:30', 'Sun': ''}}",Montivilliers,+33232792626,0070006000060,,https://www.decathlon.fr/store-locator
Rue des montagnards,Decathlon,SAINT MAXIMIN,60740,FR,"{'brand': 'Decathlon', 'fascia': 'Decathlon', 'category': 'Sports', 'edit_date': '20250310', 'lat_lon_source': 'website'}",49.23851427120785,2.4689425939179,"{'opening_hours': {'Mon': '09:30-19:30', 'Tue': '09:30-19:30', 'Wed': '09:30-19:30', 'Thu': '09:30-19:30', 'Fri': '09:30-19:30', 'Sat': '09:30-19:30', 'Sun': ''}}",Decathlon Creil - Saint Maximin,+33344240086,0070006100061,,https://www.decathlon.fr/store-locator
Zone commerciale la Pardieu,Decathlon,Clermont Ferrand,63000,FR,"{'brand': 'Decathlon', 'fascia': 'Decathlon', 'category': 'Sports', 'edit_date': '20250310', 'lat_lon_source': 'website'}",45.7652142,3.1280585,"{'opening_hours': {'Mon': '09:00-19:30', 'Tue': '09:00-19:30', 'Wed': '09:00-19:30', 'Thu': '09:00-19:30', 'Fri': '09:00-19:30', 'Sat': '09:00-19:30', 'Sun': ''}}",Clermont Ferrand,+33473273614,0070006200062,,https://www.decathlon.fr/store-locator
140 avenue de petite synthe,Decathlon,GRANDE SYNTHE,59760,FR,"{'brand': 'Decathlon', 'fascia': 'Decathlon', 'category': 'Sports', 'edit_date': '20250310', 'lat_lon_source': 'website'}",51.01495799999999,2.319364423278798,"{'opening_hours': {'Mon': '09:30-19:00', 'Tue': '09:30-19:00', 'Wed': '09:30-19:00', 'Thu': '09:30-19:00', 'Fri': '09:30-19:00', 'Sat': '09:30-19:00', 'Sun': ''}}",Decathlon Dunkerque - Grande Synthe ,+33328248383,0070006300063,,https://www.decathlon.fr/store-locator
Centre Commercial Chante Merle 2,Decathlon,La Couronne,16400,FR,"{'brand': 'Decathlon', 'fascia': 'Decathlon', 'category': 'Sports', 'edit_date': '20250310', 'lat_lon_source': 'website'}",45.625172417198,0.11193870967865,"{'opening_hours': {'Mon': '09:00-19:30', 'Tue': '09:00-19:30', 'Wed': '09:00-19:30', 'Thu': '09:00-19:30', 'Fri': '09:00-19:30', 'Sat': '09:00-19:30', 'Sun': ''}}",Angoulême La Couronne,+33545677070,0070006400064,,https://www.decathlon.fr/store-locator
148 rue du Perray,Decathlon,NANTES,44300,FR,"{'brand': 'Decathlon', 'fascia': 'Decathlon', 'category': 'Sports', 'edit_date': '20250310', 'lat_lon_source': 'website'}",47.25151030000001,-1.5130288,"{'opening_hours': {'Mon': '09:00-20:00', 'Tue': '09:00-20:00', 'Wed': '09:00-20:00', 'Thu': '09:00-20:00', 'Fri': '09:00-20:00', 'Sat': '09:00-20:00', 'Sun': ''}}",Decathlon Nantes Paridis,+33240490809,0070006500065,,https://www.decathlon.fr/store-locator
"Avenue Jean Monnet, ZAC de la Méridienne",Decathlon,Villeneuve les Béziers,34420,FR,"{'brand': 'Decathlon', 'fascia': 'Decathlon', 'category': 'Sports', 'edit_date': '20250310', 'lat_lon_source': 'website'}",43.335004,3.284207,"{'opening_hours': {'Mon': '', 'Tue': '09:00-20:00', 'Wed': '09:00-20:00', 'Thu': '09:00-20:00', 'Fri': '09:00-20:00', 'Sat': '09:00-20:00', 'Sun': ''}}",Villeneuve les Béziers,+33467351820,0070006600066,,https://www.decathlon.fr/store-locator
ZAC du Carreau Anna,Decathlon,Wittenheim,68270,FR,"{'brand': 'Decathlon', 'fascia': 'Decathlon', 'category': 'Sports', 'edit_date': '20250310', 'lat_lon_source': 'website'}",47.796132427835,7.3075977275086,"{'opening_hours': {'Mon': '09:00-19:30', 'Tue': '09:00-19:30', 'Wed': '09:00-19:30', 'Thu': '09:00-19:30', 'Fri': '09:00-19:30', 'Sat': '09:00-19:30', 'Sun': ''}}",Wittenheim - Kingersheim,+33389570730,0070006700067,,https://www.decathlon.fr/store-locator
"Quartier QUIEZ, 118 Chemin des Canniers",Decathlon,Ollioules,83190,FR,"{'brand': 'Decathlon', 'fascia': 'Decathlon', 'category': 'Sports', 'edit_date': '20250310', 'lat_lon_source': 'website'}",43.124603387346,5.8807150701141,"{'opening_hours': {'Mon': '', 'Tue': '', 'Wed': '09:00-19:00', 'Thu': '09:00-19:00', 'Fri': '09:00-19:00', 'Sat': '09:00-19:00', 'Sun': ''}}",Toulon - Ollioules,+33494189540,0070006900069,,https://www.decathlon.fr/store-locator
592 boulevard du mercantour,Decathlon,NICE,06200,FR,"{'brand': 'Decathlon', 'fascia': 'Decathlon', 'category': 'Sports', 'edit_date': '20250310', 'lat_lon_source': 'website'}",43.72686661145037,7.1866185714111275,"{'opening_hours': {'Mon': '09:00-19:30', 'Tue': '09:00-19:30', 'Wed': '09:00-19:30', 'Thu': '09:00-19:30', 'Fri': '09:00-19:30', 'Sat': '09:00-20:00', 'Sun': ''}}",Decathlon Nice Lingostière,+33493181011,0070007000070,,https://www.decathlon.fr/store-locator
3 rue de la Trémouillière,Decathlon,Saint Egrève,38120,FR,"{'brand': 'Decathlon', 'fascia': 'Decathlon', 'category': 'Sports', 'edit_date': '20250310', 'lat_lon_source': 'website'}",45.240255,5.668488,"{'opening_hours': {'Mon': '09:00-19:30', 'Tue': '09:00-19:30', 'Wed': '09:00-19:30', 'Thu': '09:00-19:30', 'Fri': '09:00-19:30', 'Sat': '09:00-19:30', 'Sun': ''}}",Grenoble - Saint Egrève ,+33476750276,0070007100071,,https://www.decathlon.fr/store-locator
Centre Commercial Carrefour,Decathlon,Villiers en Biere,77190,FR,"{'brand': 'Decathlon', 'fascia': 'Decathlon', 'category': 'Sports', 'edit_date': '20250310', 'lat_lon_source': 'website'}",48.500564745962,2.5837826799011,"{'opening_hours': {'Mon': '09:30-20:00', 'Tue': '09:30-20:00', 'Wed': '09:30-20:00', 'Thu': '09:30-20:00', 'Fri': '09:30-20:00', 'Sat': '09:00-20:00', 'Sun': ''}}",Villiers en Bière,+33164390900,0070007200072,,https://www.decathlon.fr/store-locator
ZAC de Pluvignon,Decathlon,BETTON,35830,FR,"{'brand': 'Decathlon', 'fascia': 'Decathlon', 'category': 'Sports', 'edit_date': '20250310', 'lat_lon_source': 'website'}",48.16306468330173,-1.6381873022896976,"{'opening_hours': {'Mon': '09:00-20:00', 'Tue': '09:00-20:00', 'Wed': '09:00-20:00', 'Thu': '09:00-20:00', 'Fri': '09:00-20:00', 'Sat': '09:00-20:00', 'Sun': ''}}",Decathlon Rennes Betton,+33223274141,0070007300073,,https://www.decathlon.fr/store-locator
Rue Prosper Guilhem,Decathlon,Beaucouzé,49070,FR,"{'brand': 'Decathlon', 'fascia': 'Decathlon', 'category': 'Sports', 'edit_date': '20250310', 'lat_lon_source': 'website'}",47.467694948156,-0.61909174736023,"{'opening_hours': {'Mon': '09:00-19:30', 'Tue': '09:00-19:30', 'Wed': '09:00-19:30', 'Thu': '09:00-19:30', 'Fri': '09:00-19:30', 'Sat': '09:00-19:30', 'Sun': ''}}",Angers Beaucouzé,+33241730430,0070007400074,,https://www.decathlon.fr/store-locator
"43, rue marocaz",Decathlon,Saint Alban Leysse,73230,FR,"{'brand': 'Decathlon', 'fascia': 'Decathlon', 'category': 'Sports', 'edit_date': '20250310', 'lat_lon_source': 'website'}",45.574107710989,5.9491106428528,"{'opening_hours': {'Mon': '09:30-19:30', 'Tue': '09:30-19:30', 'Wed': '09:30-19:30', 'Thu': '09:30-19:30', 'Fri': '09:30-19:30', 'Sat': '09:30-19:30', 'Sun': ''}}",Chambéry - Saint Alban Leysse,+33479853785,0070007600076,,https://www.decathlon.fr/store-locator
Rue Fernand Sastre. A côté du stade Pierre Brisson. Sortie 15 sur A16.,Decathlon,BEAUVAIS,60000,FR,"{'brand': 'Decathlon', 'fascia': 'Decathlon', 'category': 'Sports', 'edit_date': '20250310', 'lat_lon_source': 'website'}",49.434834029732905,2.1139885740661413,"{'opening_hours': {'Mon': '09:30-19:30', 'Tue': '09:30-19:30', 'Wed': '09:30-19:30', 'Thu': '09:30-19:30', 'Fri': '09:30-19:30', 'Sat': '09:30-19:30', 'Sun': ''}}",Decathlon Beauvais,+33344459660,0070007700077,,https://www.decathlon.fr/store-locator
16 Rue de Lisbonne,Decathlon,Rosny-sous-Bois,93110,FR,"{'brand': 'Decathlon', 'fascia': 'Decathlon', 'category': 'Sports', 'edit_date': '20250310', 'lat_lon_source': 'website'}",48.882107,2.470933,"{'opening_hours': {'Mon': '10:00-20:00', 'Tue': '10:00-20:00', 'Wed': '10:00-20:00', 'Thu': '10:00-20:00', 'Fri': '10:00-20:00', 'Sat': '10:00-20:00', 'Sun': '10:00-20:00'}}",Domus - Rosny sous Bois,+33148024426,0070007800078,,https://www.decathlon.fr/store-locator
ZAC Actipolis,Decathlon,FOUQUIERES LES BETHUNE,62232,FR,"{'brand': 'Decathlon', 'fascia': 'Decathlon', 'category': 'Sports', 'edit_date': '20250310', 'lat_lon_source': 'website'}",50.514336490945055,2.6222957718276607,"{'opening_hours': {'Mon': '09:30-19:30', 'Tue': '09:30-19:30', 'Wed': '09:30-19:30', 'Thu': '09:30-19:30', 'Fri': '09:30-19:30', 'Sat': '09:30-19:30', 'Sun': ''}}",Decathlon Fouquières lès Béthune,+33321659300,0070007900079,,https://www.decathlon.fr/store-locator
26 rue Georges Meliès,Decathlon,TOURS,37100,FR,"{'brand': 'Decathlon', 'fascia': 'Decathlon', 'category': 'Sports', 'edit_date': '20250310', 'lat_lon_source': 'website'}",47.428158212354,0.7072684669342,"{'opening_hours': {'Mon': '09:30-19:30', 'Tue': '09:30-19:30', 'Wed': '09:30-19:30', 'Thu': '09:30-19:30', 'Fri': '09:30-19:30', 'Sat': '09:30-19:30', 'Sun': ''}}",Tours Nord,+33247490405,0070008000080,,https://www.decathlon.fr/store-locator
Rue André Breton,Decathlon,Besançon,25000,FR,"{'brand': 'Decathlon', 'fascia': 'Decathlon', 'category': 'Sports', 'edit_date': '20250310', 'lat_lon_source': 'website'}",47.215892439677,5.9507893029022,"{'opening_hours': {'Mon': '09:00-19:30', 'Tue': '09:00-19:30', 'Wed': '09:00-19:30', 'Thu': '09:00-19:30', 'Fri': '09:00-19:30', 'Sat': '09:00-19:30', 'Sun': ''}}",Besançon,+33381418500,0070008100081,,https://www.decathlon.fr/store-locator
"Autoroute A104, A1, et N3, Rue victor Drouet",Decathlon,Claye Souilly,77410,FR,"{'brand': 'Decathlon', 'fascia': 'Decathlon', 'category': 'Sports', 'edit_date': '20250310', 'lat_lon_source': 'website'}",48.94676722561,2.670301222229,"{'opening_hours': {'Mon': '09:30-20:00', 'Tue': '09:30-20:00', 'Wed': '09:30-20:00', 'Thu': '09:30-20:00', 'Fri': '09:30-20:00', 'Sat': '09:30-20:00', 'Sun': '10:00-19:30'}}",Claye Souilly,+33160276000,0070008200082,,https://www.decathlon.fr/store-locator
"Rue de Chabannes, ZAC de Montravel",Decathlon,Villars,42390,FR,"{'brand': 'Decathlon', 'fascia': 'Decathlon', 'category': 'Sports', 'edit_date': '20250310', 'lat_lon_source': 'website'}",45.468709691841,4.3436404920044,"{'opening_hours': {'Mon': '09:00-19:30', 'Tue': '09:00-19:30', 'Wed': '09:00-19:30', 'Thu': '09:00-19:30', 'Fri': '09:00-19:30', 'Sat': '09:00-19:30', 'Sun': ''}}",Saint Etienne - Villars,+33477930021,0070008300083,,https://www.decathlon.fr/store-locator
Rue des fréres Renault,Decathlon,La Chapelle Saint Aubin,72650,FR,"{'brand': 'Decathlon', 'fascia': 'Decathlon', 'category': 'Sports', 'edit_date': '20250310', 'lat_lon_source': 'website'}",48.04015853127,0.1740542824173,"{'opening_hours': {'Mon': '09:30-19:30', 'Tue': '09:30-19:30', 'Wed': '09:30-19:30', 'Thu': '09:30-19:30', 'Fri': '09:30-19:30', 'Sat': '09:30-19:30', 'Sun': ''}}",Le Mans Nord - La Chapelle Saint Aubin,+33243770808,0070008400084,,https://www.decathlon.fr/store-locator
Lieu dit Les Dames Blanches,Decathlon,TROYES-LAVAU,10150,FR,"{'brand': 'Decathlon', 'fascia': 'Decathlon', 'category': 'Sports', 'edit_date': '20250310', 'lat_lon_source': 'website'}",48.33283,4.103365,"{'opening_hours': {'Mon': '09:30-19:30', 'Tue': '09:30-19:30', 'Wed': '09:30-19:30', 'Thu': '09:30-19:30', 'Fri': '09:30-19:30', 'Sat': '09:30-19:30', 'Sun': ''}}",Decathlon Troyes - Lavau,+33325800222,0070008800088,,https://www.decathlon.fr/store-locator
ZAC du Clos aux Antes,Decathlon,Tourville La rivière,76410,FR,"{'brand': 'Decathlon', 'fascia': 'Decathlon', 'category': 'Sports', 'edit_date': '20250310', 'lat_lon_source': 'website'}",49.327556142729,1.0948720145416,"{'opening_hours': {'Mon': '09:00-20:00', 'Tue': '09:00-20:00', 'Wed': '09:00-20:00', 'Thu': '09:00-20:00', 'Fri': '09:00-20:00', 'Sat': '09:00-20:00', 'Sun': ''}}",Rouen - Tourville La rivière,+33232963100,0070008900089,,https://www.decathlon.fr/store-locator
26 Avenue de Wagram,Decathlon,Paris,75008,FR,"{'brand': 'Decathlon', 'fascia': 'Decathlon', 'category': 'Sports', 'edit_date': '20250310', 'lat_lon_source': 'website'}",48.876526449495,2.297394780426,"{'opening_hours': {'Mon': '09:00-20:00', 'Tue': '09:00-20:00', 'Wed': '09:00-20:00', 'Thu': '09:00-20:00', 'Fri': '09:00-20:00', 'Sat': '09:00-20:00', 'Sun': ''}}",Paris Wagram,+33145726688,0070009000090,,https://www.decathlon.fr/store-locator
5 rue Charles Darwin ZC des sports,Decathlon,Niort,79000,FR,"{'brand': 'Decathlon', 'fascia': 'Decathlon', 'category': 'Sports', 'edit_date': '20250310', 'lat_lon_source': 'website'}",46.316717022458,-0.41801729430389,"{'opening_hours': {'Mon': '09:00-18:00', 'Tue': '', 'Wed': '', 'Thu': '09:00-20:00', 'Fri': '09:00-20:00', 'Sat': '09:00-20:00', 'Sun': ''}}",Niort,+33549333497,0070009200092,,https://www.decathlon.fr/store-locator
Chemin du Roy d Espagne,Decathlon,Marseille,13009,FR,"{'brand': 'Decathlon', 'fascia': 'Decathlon', 'category': 'Sports', 'edit_date': '20250310', 'lat_lon_source': 'website'}",43.239744250986,5.396694142189,"{'opening_hours': {'Mon': '09:00-19:30', 'Tue': '09:00-19:30', 'Wed': '09:00-19:30', 'Thu': '09:00-19:30', 'Fri': '09:00-19:30', 'Sat': '09:00-19:30', 'Sun': ''}}",Marseille Bonneveine,+33491165240,0070009300093,,https://www.decathlon.fr/store-locator
50 Avenue de Grèce,Decathlon,AMIENS,80090,FR,"{'brand': 'Decathlon', 'fascia': 'Decathlon', 'category': 'Sports', 'edit_date': '20250310', 'lat_lon_source': 'website'}",49.86932609999999,2.2803219,"{'opening_hours': {'Mon': '09:30-19:30', 'Tue': '09:30-19:30', 'Wed': '09:30-19:30', 'Thu': '09:30-19:30', 'Fri': '09:30-19:30', 'Sat': '09:30-19:30', 'Sun': ''}}",Decathlon Amiens,+33322450045,0070009500095,,https://www.decathlon.fr/store-locator
1 Rue Jean Mermoz,Decathlon,VENDIN LE VIEIL,62880,FR,"{'brand': 'Decathlon', 'fascia': 'Decathlon', 'category': 'Sports', 'edit_date': '20250310', 'lat_lon_source': 'website'}",50.46339830527508,2.8290720370483147,"{'opening_hours': {'Mon': '09:30-19:30', 'Tue': '09:30-19:30', 'Wed': '09:30-19:30', 'Thu': '09:30-19:30', 'Fri': '09:30-19:30', 'Sat': '09:30-19:30', 'Sun': ''}}",Decathlon Lens - Vendin le Vieil,+33321706060,0070009600096,,https://www.decathlon.fr/store-locator
Zone d´activités commerciales du Bord des Eaux,Decathlon,HENIN BEAUMONT,62110,FR,"{'brand': 'Decathlon', 'fascia': 'Decathlon', 'category': 'Sports', 'edit_date': '20250310', 'lat_lon_source': 'website'}",50.4072972,2.9730116,"{'opening_hours': {'Mon': '09:30-19:30', 'Tue': '09:30-19:30', 'Wed': '09:30-19:30', 'Thu': '09:30-19:30', 'Fri': '09:30-19:30', 'Sat': '09:30-19:30', 'Sun': ''}}",Decathlon Henin Beaumont,+33391830340,0070009700097,,https://www.decathlon.fr/store-locator
"ZAC du Grand Noble, 9, allée Emile Zola",Decathlon,Blagnac,31700,FR,"{'brand': 'Decathlon', 'fascia': 'Decathlon', 'category': 'Sports', 'edit_date': '20250310', 'lat_lon_source': 'website'}",43.643483661595,1.3697865847671,"{'opening_hours': {'Mon': '09:30-19:30', 'Tue': '09:30-19:30', 'Wed': '09:30-19:30', 'Thu': '09:30-19:30', 'Fri': '09:30-19:30', 'Sat': '09:30-20:00', 'Sun': ''}}",Toulouse Blagnac,+33562747020,0070009800098,,https://www.decathlon.fr/store-locator
2 Rue de la Lujerneta,Decathlon,MONACO,98000,FR,"{'brand': 'Decathlon', 'fascia': 'Decathlon', 'category': 'Sports', 'edit_date': '20250310', 'lat_lon_source': 'website'}",43.729966,7.4160829,"{'opening_hours': {'Mon': '09:30-19:00', 'Tue': '09:30-19:00', 'Wed': '09:30-19:00', 'Thu': '09:30-19:00', 'Fri': '09:30-19:00', 'Sat': '09:30-19:00', 'Sun': ''}}",Decathlon Monaco,+37792050150,0070009900099,,https://www.decathlon.fr/store-locator
Zone Commerciale Atlantis - Place Océane,Decathlon,SAINT HERBLAIN,44800,FR,"{'brand': 'Decathlon', 'fascia': 'Decathlon', 'category': 'Sports', 'edit_date': '20250310', 'lat_lon_source': 'website'}",47.2256544,-1.6312789,"{'opening_hours': {'Mon': '09:00-20:00', 'Tue': '09:00-20:00', 'Wed': '09:00-20:00', 'Thu': '09:00-20:00', 'Fri': '09:00-20:00', 'Sat': '09:00-20:00', 'Sun': ''}}",Decathlon Nantes - Atlantis Saint Herblain,+33240920000,0070010000100,,https://www.decathlon.fr/store-locator
"Route Nationale 6                   , Zone Jacquard",Decathlon,Varennes les Macon,71000,FR,"{'brand': 'Decathlon', 'fascia': 'Decathlon', 'category': 'Sports', 'edit_date': '20250310', 'lat_lon_source': 'website'}",46.278271587841,4.8032217473602,"{'opening_hours': {'Mon': '09:00-19:30', 'Tue': '09:00-19:30', 'Wed': '09:00-19:30', 'Thu': '09:00-19:30', 'Fri': '09:00-19:30', 'Sat': '09:00-19:30', 'Sun': ''}}",Mâcon,+33385205100,0070011000110,,https://www.decathlon.fr/store-locator
"330, Avenue Marcou Delanglade, Zone commerciale Auchan Mistral 7",Decathlon,AVIGNON,84140,FR,"{'brand': 'Decathlon', 'fascia': 'Decathlon', 'category': 'Sports', 'edit_date': '20250310', 'lat_lon_source': 'website'}",43.919561658069,4.8675829470825,"{'opening_hours': {'Mon': '09:00-19:30', 'Tue': '09:00-19:30', 'Wed': '09:00-19:30', 'Thu': '09:00-19:30', 'Fri': '09:00-19:30', 'Sat': '09:00-19:30', 'Sun': ''}}",Avignon sud - mistral 7,+33490138080,0070011300113,,https://www.decathlon.fr/store-locator
Rue Saint Guy,Decathlon,Forbach,57600,FR,"{'brand': 'Decathlon', 'fascia': 'Decathlon', 'category': 'Sports', 'edit_date': '20250310', 'lat_lon_source': 'website'}",49.197189783381,6.9337149523925,"{'opening_hours': {'Mon': '09:00-19:00', 'Tue': '09:00-19:00', 'Wed': '09:00-19:00', 'Thu': '09:00-19:00', 'Fri': '09:00-19:00', 'Sat': '09:00-19:00', 'Sun': ''}}",Forbach,+33387293860,0070011500115,,https://www.decathlon.fr/store-locator
5 Rue du Fort,Decathlon,GEISPOLSHEIM,67118,FR,"{'brand': 'Decathlon', 'fascia': 'Decathlon', 'category': 'Sports', 'edit_date': '20250310', 'lat_lon_source': 'website'}",48.525451,7.688574,"{'opening_hours': {'Mon': '09:00-19:30', 'Tue': '09:00-19:30', 'Wed': '09:00-19:30', 'Thu': '09:00-19:30', 'Fri': '09:00-19:30', 'Sat': '09:00-19:30', 'Sun': ''}}",Strasbourg - Geispolsheim,+33388653900,0070011600116,,https://www.decathlon.fr/store-locator
4 Boulevard de Mons,Decathlon,VILLENEUVE D'ASCQ,59650,FR,"{'brand': 'Decathlon', 'fascia': 'Decathlon', 'category': 'Sports', 'edit_date': '20250310', 'lat_lon_source': 'website'}",50.64513702696318,3.141633794967662,"{'opening_hours': {'Mon': '09:00-20:00', 'Tue': '09:00-20:00', 'Wed': '09:00-20:00', 'Thu': '09:00-20:00', 'Fri': '09:00-20:00', 'Sat': '09:00-20:00', 'Sun': ''}}",Decathlon Villeneuve d'Ascq - Campus,+33320335022,0070011800118,,https://www.decathlon.fr/store-locator
26 rue de la resistance,Decathlon,Annemasse,74100,FR,"{'brand': 'Decathlon', 'fascia': 'Decathlon', 'category': 'Sports', 'edit_date': '20250310', 'lat_lon_source': 'website'}",46.1960801,6.2583658,"{'opening_hours': {'Mon': '09:00-19:30', 'Tue': '09:00-19:30', 'Wed': '09:00-19:30', 'Thu': '09:00-19:30', 'Fri': '09:00-19:30', 'Sat': '09:00-19:30', 'Sun': ''}}",Annemasse,+33450439300,0070011900119,,https://www.decathlon.fr/store-locator
332 avenue Général de Gaulle,Decathlon,Bron,69500,FR,"{'brand': 'Decathlon', 'fascia': 'Decathlon', 'category': 'Sports', 'edit_date': '20250310', 'lat_lon_source': 'website'}",45.7258711,4.9291861,"{'opening_hours': {'Mon': '09:00-20:00', 'Tue': '09:00-20:00', 'Wed': '09:00-20:00', 'Thu': '09:00-20:00', 'Fri': '09:00-20:00', 'Sat': '09:00-20:00', 'Sun': ''}}",Lyon Bron St Exupery,+33472158737,0070012100121,,https://www.decathlon.fr/store-locator
"3, rue du Moulin",Decathlon,CHANTEPIE,35135,FR,"{'brand': 'Decathlon', 'fascia': 'Decathlon', 'category': 'Sports', 'edit_date': '20250310', 'lat_lon_source': 'website'}",48.0901168,-1.6267919,"{'opening_hours': {'Mon': '09:00-20:00', 'Tue': '09:00-20:00', 'Wed': '09:00-20:00', 'Thu': '09:00-20:00', 'Fri': '09:00-20:00', 'Sat': '09:00-20:00', 'Sun': ''}}",Decathlon Rennes - Chantepie,+33299410303,0070012200122,,https://www.decathlon.fr/store-locator
Zone d activités Commerciales Les Closeaux 2000,Decathlon,BUCHELAY,78200,FR,"{'brand': 'Decathlon', 'fascia': 'Decathlon', 'category': 'Sports', 'edit_date': '20250310', 'lat_lon_source': 'website'}",49.002235,1.649881,"{'opening_hours': {'Mon': '09:30-19:30', 'Tue': '09:30-19:30', 'Wed': '09:30-19:30', 'Thu': '09:30-19:30', 'Fri': '09:30-19:30', 'Sat': '09:30-19:30', 'Sun': ''}}",Mantes La Jolie Buchelay,+33130638600,0070012500125,,https://www.decathlon.fr/store-locator
"Avenue d´Irlande, ZAC ALBASUD",Decathlon,Montauban,82000,FR,"{'brand': 'Decathlon', 'fascia': 'Decathlon', 'category': 'Sports', 'edit_date': '20250310', 'lat_lon_source': 'website'}",43.984650148794,1.3334748981476,"{'opening_hours': {'Mon': '09:00-19:30', 'Tue': '09:00-19:30', 'Wed': '09:00-19:30', 'Thu': '09:00-19:30', 'Fri': '09:00-19:30', 'Sat': '09:00-19:30', 'Sun': ''}}",Montauban,+33563918400,0070012700127,,https://www.decathlon.fr/store-locator
Les Carandes,Decathlon,Mondeville,14120,FR,"{'brand': 'Decathlon', 'fascia': 'Decathlon', 'category': 'Sports', 'edit_date': '20250310', 'lat_lon_source': 'website'}",49.154935865529,-0.28744121733551,"{'opening_hours': {'Mon': '09:00-20:00', 'Tue': '09:00-20:00', 'Wed': '09:00-20:00', 'Thu': '09:00-20:00', 'Fri': '09:00-20:00', 'Sat': '09:00-20:00', 'Sun': ''}}",Caen - Mondeville,+33231354646,0070012900129,,https://www.decathlon.fr/store-locator
Chemin des Tuileries,Decathlon,Limonest,69760,FR,"{'brand': 'Decathlon', 'fascia': 'Decathlon', 'category': 'Sports', 'edit_date': '20250310', 'lat_lon_source': 'website'}",45.822362624404,4.7677408148194,"{'opening_hours': {'Mon': '09:00-19:30', 'Tue': '09:00-19:30', 'Wed': '09:00-19:30', 'Thu': '09:00-19:30', 'Fri': '09:00-19:30', 'Sat': '09:00-19:30', 'Sun': ''}}",Limonest,+33478663100,0070013100131,,https://www.decathlon.fr/store-locator
2 allée des érables,Decathlon,Houdemont,54180,FR,"{'brand': 'Decathlon', 'fascia': 'Decathlon', 'category': 'Sports', 'edit_date': '20250310', 'lat_lon_source': 'website'}",48.642537804281,6.1834727976227,"{'opening_hours': {'Mon': '09:00-19:30', 'Tue': '09:00-19:30', 'Wed': '09:00-19:30', 'Thu': '09:00-19:30', 'Fri': '09:00-19:30', 'Sat': '09:00-19:30', 'Sun': ''}}",Nancy - Houdemont,+33383590000,0070013200132,,https://www.decathlon.fr/store-locator
"55, Route de Prix les Mezieres",Decathlon,CHARLEVILLE-MEZIERES,08000,FR,"{'brand': 'Decathlon', 'fascia': 'Decathlon', 'category': 'Sports', 'edit_date': '20250310', 'lat_lon_source': 'website'}",49.754107066438976,4.705349153442406,"{'opening_hours': {'Mon': '09:00-19:00', 'Tue': '09:00-19:00', 'Wed': '09:00-19:00', 'Thu': '09:00-19:00', 'Fri': '09:00-19:00', 'Sat': '09:00-19:00', 'Sun': ''}}",Decathlon Charleville-Mézières,+33324596400,0070013300133,,https://www.decathlon.fr/store-locator
7 Rue de la louvetière,Decathlon,PONTAULT COMBAULT,77340,FR,"{'brand': 'Decathlon', 'fascia': 'Decathlon', 'category': 'Sports', 'edit_date': '20250310', 'lat_lon_source': 'website'}",48.775486151318354,2.5995468406143107,"{'opening_hours': {'Mon': '09:30-20:00', 'Tue': '', 'Wed': '09:30-20:00', 'Thu': '09:30-20:00', 'Fri': '09:30-20:00', 'Sat': '09:30-20:00', 'Sun': '10:00-19:00'}}",Pontault Combault,+33164435910,0070013400134,,https://www.decathlon.fr/store-locator
65 Avenue Emile Didier,Decathlon,GAP,05000,FR,"{'brand': 'Decathlon', 'fascia': 'Decathlon', 'category': 'Sports', 'edit_date': '20250310', 'lat_lon_source': 'website'}",44.567418776089,6.0954560886383,"{'opening_hours': {'Mon': '09:00-19:30', 'Tue': '09:00-19:30', 'Wed': '09:00-19:30', 'Thu': '09:00-19:30', 'Fri': '09:00-19:30', 'Sat': '09:00-19:30', 'Sun': ''}}",Gap,+33492525700,0070013600136,,https://www.decathlon.fr/store-locator
ZAC de Mont-Joie,Decathlon,SAINT MARTIN BOULOGNE,62280,FR,"{'brand': 'Decathlon', 'fascia': 'Decathlon', 'category': 'Sports', 'edit_date': '20250310', 'lat_lon_source': 'website'}",50.729455758061455,1.6447750158691399,"{'opening_hours': {'Mon': '09:00-19:30', 'Tue': '09:00-19:30', 'Wed': '09:00-19:30', 'Thu': '09:00-19:30', 'Fri': '09:00-19:30', 'Sat': '09:00-19:30', 'Sun': ''}}",Decathlon Boulogne sur mer - Saint Martin Boulogne,+33321103900,0070013900139,,https://www.decathlon.fr/store-locator
L'AUTRE FAUBOURG,Decathlon,Cholet,49300,FR,"{'brand': 'Decathlon', 'fascia': 'Decathlon', 'category': 'Sports', 'edit_date': '20250310', 'lat_lon_source': 'website'}",47.074863775227,-0.83482796409607,"{'opening_hours': {'Mon': '09:30-19:30', 'Tue': '09:30-19:30', 'Wed': '09:30-19:30', 'Thu': '09:30-19:30', 'Fri': '09:30-19:30', 'Sat': '09:30-19:30', 'Sun': ''}}",Cholet,+33241560022,0070014800148,,https://www.decathlon.fr/store-locator
"Centre Commercial des Saisons de Meaux, 5 avenue Roland Moreno",Decathlon,Chauconin Neufmontiers,77124,FR,"{'brand': 'Decathlon', 'fascia': 'Decathlon', 'category': 'Sports', 'edit_date': '20250310', 'lat_lon_source': 'website'}",48.956570795601,2.8636577957703,"{'opening_hours': {'Mon': '10:00-20:00', 'Tue': '10:00-20:00', 'Wed': '10:00-20:00', 'Thu': '10:00-20:00', 'Fri': '10:00-20:00', 'Sat': '09:30-20:00', 'Sun': ''}}",Meaux,+33160099696,0070014900149,,https://www.decathlon.fr/store-locator
Pôle d'activités de la galoterie,Decathlon,Lisieux,14100,FR,"{'brand': 'Decathlon', 'fascia': 'Decathlon', 'category': 'Sports', 'edit_date': '20250310', 'lat_lon_source': 'website'}",49.144141394544,0.27928690345764,"{'opening_hours': {'Mon': '09:30-19:30', 'Tue': '09:30-19:30', 'Wed': '09:30-19:30', 'Thu': '09:30-19:30', 'Fri': '09:30-19:30', 'Sat': '09:30-19:30', 'Sun': ''}}",Lisieux,+33231486040,0070015000150,,https://www.decathlon.fr/store-locator
chemin Maquens,Decathlon,Carcassonne,11000,FR,"{'brand': 'Decathlon', 'fascia': 'Decathlon', 'category': 'Sports', 'edit_date': '20250310', 'lat_lon_source': 'website'}",43.204581916482,2.3138548710251,"{'opening_hours': {'Mon': '09:00-19:00', 'Tue': '09:00-19:00', 'Wed': '09:00-19:00', 'Thu': '09:00-19:00', 'Fri': '09:00-19:00', 'Sat': '09:00-19:00', 'Sun': ''}}",Carcassonne,+33468102240,0070015100151,,https://www.decathlon.fr/store-locator
90 Route du chateau de Beauregard,Decathlon,SAINT NAZAIRE,44600,FR,"{'brand': 'Decathlon', 'fascia': 'Decathlon', 'category': 'Sports', 'edit_date': '20250310', 'lat_lon_source': 'website'}",47.289599660602,-2.259009464032,"{'opening_hours': {'Mon': '09:00-19:30', 'Tue': '09:00-19:30', 'Wed': '09:00-19:30', 'Thu': '09:00-19:30', 'Fri': '09:00-19:30', 'Sat': '09:00-19:30', 'Sun': ''}}",Decathlon Saint Nazaire,+33251106000,0070015200152,,https://www.decathlon.fr/store-locator
Chemin des Bourgeois,Decathlon,AULNOY-LEZ-VALENCIENNES,59300,FR,"{'brand': 'Decathlon', 'fascia': 'Decathlon', 'category': 'Sports', 'edit_date': '20250310', 'lat_lon_source': 'website'}",50.33493665252072,3.511095771827688,"{'opening_hours': {'Mon': '09:30-19:30', 'Tue': '09:30-19:30', 'Wed': '09:30-19:30', 'Thu': '09:30-19:30', 'Fri': '09:30-19:30', 'Sat': '09:30-19:30', 'Sun': ''}}",Decathlon Aulnoy-Lez-Valenciennes,+33327200333,0070015400154,,https://www.decathlon.fr/store-locator
Zone d'activites commerciales du Mazaud,Decathlon,Brive La Gaillarde,19100,FR,"{'brand': 'Decathlon', 'fascia': 'Decathlon', 'category': 'Sports', 'edit_date': '20250310', 'lat_lon_source': 'website'}",45.143233782624,1.4752233250618,"{'opening_hours': {'Mon': '09:00-19:30', 'Tue': '09:00-19:30', 'Wed': '09:00-19:30', 'Thu': '09:00-19:30', 'Fri': '09:00-19:30', 'Sat': '09:00-19:30', 'Sun': ''}}",Brive,+33555889460,0070015500155,,https://www.decathlon.fr/store-locator
Route nationale 76,Decathlon,Saint Doulchard,18230,FR,"{'brand': 'Decathlon', 'fascia': 'Decathlon', 'category': 'Sports', 'edit_date': '20250310', 'lat_lon_source': 'website'}",47.11907101491719,2.3760888201293895,"{'opening_hours': {'Mon': '09:00-19:30', 'Tue': '09:00-19:30', 'Wed': '09:00-19:30', 'Thu': '09:00-19:30', 'Fri': '09:00-19:30', 'Sat': '09:00-19:30', 'Sun': ''}}",Bourges - Saint Doulchard,+33248230202,0070015600156,,https://www.decathlon.fr/store-locator
15 Avenue des Belges,Decathlon,Bourg-en-Bresse,01000,FR,"{'brand': 'Decathlon', 'fascia': 'Decathlon', 'category': 'Sports', 'edit_date': '20250310', 'lat_lon_source': 'website'}",46.207708,5.234605,"{'opening_hours': {'Mon': '09:00-19:30', 'Tue': '09:00-19:30', 'Wed': '09:00-19:30', 'Thu': '09:00-19:30', 'Fri': '09:00-19:30', 'Sat': '09:00-19:30', 'Sun': ''}}",Bourg en Bresse,+33474228750,0070015800158,,https://www.decathlon.fr/store-locator
"Zone Artisanale du Grand Launay, AR BRUG",Decathlon,Saint-Martin-des-Champs,29600,FR,"{'brand': 'Decathlon', 'fascia': 'Decathlon', 'category': 'Sports', 'edit_date': '20250310', 'lat_lon_source': 'website'}",48.577772205195,-3.856431951065,"{'opening_hours': {'Mon': '09:30-19:00', 'Tue': '09:30-19:00', 'Wed': '09:30-19:00', 'Thu': '09:30-19:00', 'Fri': '09:30-19:00', 'Sat': '09:30-19:00', 'Sun': ''}}",Morlaix,+33298634288,0070015900159,,https://www.decathlon.fr/store-locator
ZAC Meilbourg - Route d'Illange,Decathlon,Yutz,57970,FR,"{'brand': 'Decathlon', 'fascia': 'Decathlon', 'category': 'Sports', 'edit_date': '20250310', 'lat_lon_source': 'website'}",49.343177,6.17428,"{'opening_hours': {'Mon': '09:00-19:30', 'Tue': '09:00-19:30', 'Wed': '09:00-19:30', 'Thu': '09:00-19:30', 'Fri': '09:00-19:30', 'Sat': '09:00-19:30', 'Sun': ''}}",Thionville - Yutz,+33382882300,0070016200162,,https://www.decathlon.fr/store-locator
34 chemin de la Madeleine,Decathlon,GRASSE,06130,FR,"{'brand': 'Decathlon', 'fascia': 'Decathlon', 'category': 'Sports', 'edit_date': '20250310', 'lat_lon_source': 'website'}",43.6551019,6.936848299999999,"{'opening_hours': {'Mon': '09:00-19:30', 'Tue': '09:00-19:30', 'Wed': '09:00-19:30', 'Thu': '09:00-19:30', 'Fri': '09:00-19:30', 'Sat': '09:00-19:30', 'Sun': ''}}",Decathlon Grasse,+33492424949,0070016300163,,https://www.decathlon.fr/store-locator
15 avenue Yitzhak Rabin,Decathlon,La Roche sur Yon,85000,FR,"{'brand': 'Decathlon', 'fascia': 'Decathlon', 'category': 'Sports', 'edit_date': '20250310', 'lat_lon_source': 'website'}",46.691706,-1.430981,"{'opening_hours': {'Mon': '09:00-20:00', 'Tue': '09:00-20:00', 'Wed': '09:00-20:00', 'Thu': '09:00-20:00', 'Fri': '09:00-20:00', 'Sat': '09:00-20:00', 'Sun': ''}}",La Roche sur Yon,+33251478788,0070016700167,,https://www.decathlon.fr/store-locator
33 Route du plan,Decathlon,Trans en Provence,83720,FR,"{'brand': 'Decathlon', 'fascia': 'Decathlon', 'category': 'Sports', 'edit_date': '20250310', 'lat_lon_source': 'website'}",43.503825,6.482714,"{'opening_hours': {'Mon': '09:00-19:00', 'Tue': '09:00-19:00', 'Wed': '09:00-19:00', 'Thu': '09:00-19:00', 'Fri': '09:00-19:00', 'Sat': '09:00-19:00', 'Sun': ''}}",Draguignan - Trans en Provence,+33494509696,0070017100171,,https://www.decathlon.fr/store-locator
Zone Commerciale Fourchon,Decathlon,Arles,13200,FR,"{'brand': 'Decathlon', 'fascia': 'Decathlon', 'category': 'Sports', 'edit_date': '20250310', 'lat_lon_source': 'website'}",43.665026576026,4.6350185717582,"{'opening_hours': {'Mon': '', 'Tue': '', 'Wed': '09:30-19:00', 'Thu': '09:30-19:00', 'Fri': '09:30-19:00', 'Sat': '09:30-19:00', 'Sun': ''}}",Arles,+33490183070,0070017200172,,https://www.decathlon.fr/store-locator
170 Avenue André TOURNE,Decathlon,PERPIGNAN,66100,FR,"{'brand': 'Decathlon', 'fascia': 'Decathlon', 'category': 'Sports', 'edit_date': '20250310', 'lat_lon_source': 'website'}",42.66890614824697,2.895875506668104,"{'opening_hours': {'Mon': '09:00-20:00', 'Tue': '09:00-20:00', 'Wed': '09:00-20:00', 'Thu': '09:00-20:00', 'Fri': '09:00-20:00', 'Sat': '09:00-20:00', 'Sun': ''}}",Perpignan,+33468557272,0070017500175,,https://www.decathlon.fr/store-locator
Parc de la baie,Decathlon,Avranches,50300,FR,"{'brand': 'Decathlon', 'fascia': 'Decathlon', 'category': 'Sports', 'edit_date': '20250310', 'lat_lon_source': 'website'}",48.656799428712,-1.3553436441803,"{'opening_hours': {'Mon': '09:30-19:30', 'Tue': '09:30-19:30', 'Wed': '09:30-19:30', 'Thu': '09:30-19:30', 'Fri': '09:30-19:30', 'Sat': '09:30-19:30', 'Sun': ''}}",Avranches,+33233892850,0070017700177,,https://www.decathlon.fr/store-locator
14 - Les hauts vents,Decathlon,Tollevast,50470,FR,"{'brand': 'Decathlon', 'fascia': 'Decathlon', 'category': 'Sports', 'edit_date': '20250310', 'lat_lon_source': 'website'}",49.596890919888,-1.6034307830811,"{'opening_hours': {'Mon': '09:00-20:00', 'Tue': '09:00-20:00', 'Wed': '09:00-20:00', 'Thu': '09:00-20:00', 'Fri': '09:00-20:00', 'Sat': '09:00-20:00', 'Sun': ''}}",Cherbourg,+33233236030,0070017800178,,https://www.decathlon.fr/store-locator
Zone d'aménagement concerté Val Druel,Decathlon,Dieppe,76200,FR,"{'brand': 'Decathlon', 'fascia': 'Decathlon', 'category': 'Sports', 'edit_date': '20250310', 'lat_lon_source': 'website'}",49.90316384926188,1.0787429470825227,"{'opening_hours': {'Mon': '09:00-19:30', 'Tue': '09:00-19:30', 'Wed': '09:00-19:30', 'Thu': '09:00-19:30', 'Fri': '09:00-19:30', 'Sat': '09:00-19:30', 'Sun': ''}}",Dieppe,+33232144141,0070017900179,,https://www.decathlon.fr/store-locator
Rue Nicolas Rambourg,Decathlon,Montlucon,03100,FR,"{'brand': 'Decathlon', 'fascia': 'Decathlon', 'category': 'Sports', 'edit_date': '20250310', 'lat_lon_source': 'website'}",46.349782169109,2.6060998822784,"{'opening_hours': {'Mon': '09:00-19:30', 'Tue': '09:00-19:30', 'Wed': '09:00-19:30', 'Thu': '09:00-19:30', 'Fri': '09:00-19:30', 'Sat': '09:00-19:30', 'Sun': ''}}",Montluçon,+33470081160,0070018000180,,https://www.decathlon.fr/store-locator
1 rue Georges Charpak,Decathlon,La Teste de Buch,33260,FR,"{'brand': 'Decathlon', 'fascia': 'Decathlon', 'category': 'Sports', 'edit_date': '20250310', 'lat_lon_source': 'website'}",44.617021320185,-1.1282155231095,"{'opening_hours': {'Mon': '09:30-19:00', 'Tue': '09:30-19:00', 'Wed': '09:30-19:00', 'Thu': '09:30-19:00', 'Fri': '09:30-19:00', 'Sat': '09:30-19:00', 'Sun': ''}}",La Teste de Buch,+33557527363,0070018300183,,https://www.decathlon.fr/store-locator
Lieu-dit Blanche Roche,Decathlon,Saint Jouan des Guerets,35430,FR,"{'brand': 'Decathlon', 'fascia': 'Decathlon', 'category': 'Sports', 'edit_date': '20250310', 'lat_lon_source': 'website'}",48.60797171050698,-1.9798004563446026,"{'opening_hours': {'Mon': '09:00-19:30', 'Tue': '09:00-19:30', 'Wed': '09:00-19:30', 'Thu': '09:00-19:30', 'Fri': '09:00-19:30', 'Sat': '09:00-19:30', 'Sun': ''}}",Saint-Malo / Saint-Jouan,+33299191560,0070018400184,,https://www.decathlon.fr/store-locator
46 Avenue de la République - Accès RN1 ou par la ligne H du transilien,Decathlon,GROSLAY,95410,FR,"{'brand': 'Decathlon', 'fascia': 'Decathlon', 'category': 'Sports', 'edit_date': '20250310', 'lat_lon_source': 'website'}",48.983256802878,2.3607023267365,"{'opening_hours': {'Mon': '10:00-20:00', 'Tue': '10:00-20:00', 'Wed': '10:00-20:00', 'Thu': '10:00-20:00', 'Fri': '10:00-20:00', 'Sat': '10:00-20:00', 'Sun': '10:00-19:00'}}",Groslay - Sarcelles,+33134059595,0070018600186,,https://www.decathlon.fr/store-locator
ZAC du pont des rayons,Decathlon,L'ISLE ADAM,95290,FR,"{'brand': 'Decathlon', 'fascia': 'Decathlon', 'category': 'Sports', 'edit_date': '20250310', 'lat_lon_source': 'website'}",49.07941,2.198712,"{'opening_hours': {'Mon': '10:00-19:30', 'Tue': '10:00-19:30', 'Wed': '10:00-19:30', 'Thu': '10:00-19:30', 'Fri': '10:00-19:30', 'Sat': '10:00-19:30', 'Sun': ''}}",L´Isle Adam,+33134081880,0070018700187,,https://www.decathlon.fr/store-locator
ZAC de la Masquère,Decathlon,Escalquens,31750,FR,"{'brand': 'Decathlon', 'fascia': 'Decathlon', 'category': 'Sports', 'edit_date': '20250310', 'lat_lon_source': 'website'}",43.518099736415,1.5337953055573,"{'opening_hours': {'Mon': '09:30-19:30', 'Tue': '09:30-19:30', 'Wed': '09:30-19:30', 'Thu': '09:30-19:30', 'Fri': '09:30-19:30', 'Sat': '09:00-20:00', 'Sun': ''}}",Toulouse Escalquens,+33561360960,0070018800188,,https://www.decathlon.fr/store-locator
"23, boulevard de la Madeleine, Metro Madeleine",Decathlon,Paris,75001,FR,"{'brand': 'Decathlon', 'fascia': 'Decathlon', 'category': 'Sports', 'edit_date': '20250310', 'lat_lon_source': 'website'}",48.869257098696,2.3253604957009,"{'opening_hours': {'Mon': '09:00-20:00', 'Tue': '09:00-20:00', 'Wed': '09:00-20:00', 'Thu': '09:00-20:00', 'Fri': '09:00-20:00', 'Sat': '09:00-20:00', 'Sun': '10:00-20:00'}}",Paris La Madeleine ,+33155359755,0070018900189,,https://www.decathlon.fr/store-locator
2 Rue Jean Rostand,Decathlon,Mainvilliers,28300,FR,"{'brand': 'Decathlon', 'fascia': 'Decathlon', 'category': 'Sports', 'edit_date': '20250310', 'lat_lon_source': 'website'}",48.447775640017,1.4504549841309,"{'opening_hours': {'Mon': '09:00-19:30', 'Tue': '09:00-19:30', 'Wed': '09:00-19:30', 'Thu': '09:00-19:30', 'Fri': '09:00-19:30', 'Sat': '09:00-19:30', 'Sun': ''}}",Chartres - Mainvilliers,+33237840684,0070019100191,,https://www.decathlon.fr/store-locator
Zone du Dragon,Decathlon,Haudainville,55100,FR,"{'brand': 'Decathlon', 'fascia': 'Decathlon', 'category': 'Sports', 'edit_date': '20250310', 'lat_lon_source': 'website'}",49.142708144848,5.4114065277863,"{'opening_hours': {'Mon': '09:00-19:00', 'Tue': '09:00-19:00', 'Wed': '09:00-19:00', 'Thu': '09:00-19:00', 'Fri': '09:00-19:00', 'Sat': '09:00-19:00', 'Sun': ''}}",Verdun - Haudainville,+33329848500,0070019200192,,https://www.decathlon.fr/store-locator
Zone commercial Carrefour,Decathlon,MARZY,58180,FR,"{'brand': 'Decathlon', 'fascia': 'Decathlon', 'category': 'Sports', 'edit_date': '20250310', 'lat_lon_source': 'website'}",46.996066031236,3.108983383606,"{'opening_hours': {'Mon': '09:00-19:30', 'Tue': '09:00-19:30', 'Wed': '09:00-19:30', 'Thu': '09:00-19:30', 'Fri': '09:00-19:30', 'Sat': '09:00-19:30', 'Sun': ''}}",Nevers - Marzy,+33386716570,0070019300193,,https://www.decathlon.fr/store-locator
Zone d Activites Commerciales Euromoselle,Decathlon,Semécourt,57280,FR,"{'brand': 'Decathlon', 'fascia': 'Decathlon', 'category': 'Sports', 'edit_date': '20250310', 'lat_lon_source': 'website'}",49.190619467143,6.1438808736107,"{'opening_hours': {'Mon': '09:00-19:00', 'Tue': '09:00-19:00', 'Wed': '09:00-19:00', 'Thu': '09:00-19:00', 'Fri': '09:00-19:00', 'Sat': '09:00-19:00', 'Sun': ''}}",Metz - Semécourt,+33387512400,0070019500195,,https://www.decathlon.fr/store-locator
"1,rue Claude Sautet",Decathlon,Tregueux,22950,FR,"{'brand': 'Decathlon', 'fascia': 'Decathlon', 'category': 'Sports', 'edit_date': '20250310', 'lat_lon_source': 'website'}",48.491509903971,-2.7577974060821,"{'opening_hours': {'Mon': '09:30-19:30', 'Tue': '09:30-19:30', 'Wed': '09:30-19:30', 'Thu': '09:30-19:30', 'Fri': '09:30-19:30', 'Sat': '09:30-19:30', 'Sun': ''}}",Saint Brieuc Tregueux,+33296750408,0070019800198,,https://www.decathlon.fr/store-locator
Zone d activites du Ponteix,Decathlon,Boulazac,24750,FR,"{'brand': 'Decathlon', 'fascia': 'Decathlon', 'category': 'Sports', 'edit_date': '20250310', 'lat_lon_source': 'website'}",45.186564089938,0.76398682209015,"{'opening_hours': {'Mon': '09:00-19:30', 'Tue': '09:00-19:30', 'Wed': '09:00-19:30', 'Thu': '09:00-19:30', 'Fri': '09:00-19:30', 'Sat': '09:00-19:30', 'Sun': ''}}",Perigueux Boulazac,+33553033939,0070019900199,,https://www.decathlon.fr/store-locator
2/6 rue du mondial 98,Decathlon,Saint Denis,93210,FR,"{'brand': 'Decathlon', 'fascia': 'Decathlon', 'category': 'Sports', 'edit_date': '20250310', 'lat_lon_source': 'website'}",48.925526886994,2.3627921865082,"{'opening_hours': {'Mon': '10:00-20:00', 'Tue': '10:00-20:00', 'Wed': '10:00-20:00', 'Thu': '10:00-20:00', 'Fri': '10:00-20:00', 'Sat': '10:00-20:00', 'Sun': '10:00-20:00'}}",Saint-Denis - Stade de France,+33149464200,0070020000200,,https://www.decathlon.fr/store-locator
160 rue Guillaume du Vair,Decathlon,Aix en Provence cedex 4,13290,FR,"{'brand': 'Decathlon', 'fascia': 'Decathlon', 'category': 'Sports', 'edit_date': '20250310', 'lat_lon_source': 'website'}",43.508417636898,5.406422974205,"{'opening_hours': {'Mon': '09:30-19:30', 'Tue': '09:30-19:30', 'Wed': '09:30-19:30', 'Thu': '09:30-19:30', 'Fri': '09:30-19:30', 'Sat': '09:30-19:30', 'Sun': ''}}",Aix-en-Provence - Aix-Les-Milles,+33442957700,0070020100201,,https://www.decathlon.fr/store-locator
Zone d´activités Commerciales de Bonne Source,Decathlon,Narbonne,11100,FR,"{'brand': 'Decathlon', 'fascia': 'Decathlon', 'category': 'Sports', 'edit_date': '20250310', 'lat_lon_source': 'website'}",43.178180361513,3.0323160886383,"{'opening_hours': {'Mon': '09:00-19:30', 'Tue': '09:00-19:30', 'Wed': '09:00-19:30', 'Thu': '09:00-19:30', 'Fri': '09:00-19:30', 'Sat': '09:00-19:30', 'Sun': ''}}",Narbonne,+33468901140,0070020400204,,https://www.decathlon.fr/store-locator
Zone d Activites DES MONTAGNES,Decathlon,Champniers,16430,FR,"{'brand': 'Decathlon', 'fascia': 'Decathlon', 'category': 'Sports', 'edit_date': '20250310', 'lat_lon_source': 'website'}",45.692339884393,0.18581626060486,"{'opening_hours': {'Mon': '09:00-19:30', 'Tue': '09:00-19:30', 'Wed': '09:00-19:30', 'Thu': '09:00-19:30', 'Fri': '09:00-19:30', 'Sat': '09:00-19:30', 'Sun': ''}}",Angoulême - Champniers,+33545375464,0070020600206,,https://www.decathlon.fr/store-locator
Rue Georges Veve,Decathlon,Cavaillon,84300,FR,"{'brand': 'Decathlon', 'fascia': 'Decathlon', 'category': 'Sports', 'edit_date': '20250310', 'lat_lon_source': 'website'}",43.827647429669,5.0358234404755,"{'opening_hours': {'Mon': '09:30-19:30', 'Tue': '09:30-19:30', 'Wed': '09:30-19:30', 'Thu': '09:30-19:30', 'Fri': '09:30-19:30', 'Sat': '09:30-19:30', 'Sun': ''}}",Cavaillon,+33490063570,0070020800208,,https://www.decathlon.fr/store-locator
Rue des Buttes,Decathlon,Mably,42300,FR,"{'brand': 'Decathlon', 'fascia': 'Decathlon', 'category': 'Sports', 'edit_date': '20250310', 'lat_lon_source': 'website'}",46.063457270981,4.0586691322632,"{'opening_hours': {'Mon': '09:00-19:30', 'Tue': '09:00-19:30', 'Wed': '09:00-19:30', 'Thu': '09:00-19:30', 'Fri': '09:00-19:30', 'Sat': '09:00-19:30', 'Sun': ''}}",Roanne Mably,+33477232680,0070021000210,,https://www.decathlon.fr/store-locator
ZAC de CLARAC,Decathlon,AUCH,32000,FR,"{'brand': 'Decathlon', 'fascia': 'Decathlon', 'category': 'Sports', 'edit_date': '20250310', 'lat_lon_source': 'website'}",43.663195661843,0.5938433769989,"{'opening_hours': {'Mon': '09:00-19:30', 'Tue': '09:00-19:30', 'Wed': '09:00-19:30', 'Thu': '09:00-19:30', 'Fri': '09:00-19:30', 'Sat': '09:00-19:30', 'Sun': ''}}",Auch,+33562602590,0070021100211,,https://www.decathlon.fr/store-locator
"2, avenue de la plaine des sports",Decathlon,CERGY PONTOISE,95800,FR,"{'brand': 'Decathlon', 'fascia': 'Decathlon', 'category': 'Sports', 'edit_date': '20250310', 'lat_lon_source': 'website'}",49.0573309,2.0338396,"{'opening_hours': {'Mon': '09:30-20:00', 'Tue': '09:30-20:00', 'Wed': '09:30-20:00', 'Thu': '09:30-20:00', 'Fri': '09:30-20:00', 'Sat': '09:30-20:00', 'Sun': ''}}",Cergy Pontoise Osny,+33134351580,0070021200212,,https://www.decathlon.fr/store-locator
8 avenue Edouard Branly,Decathlon,Bourgoin Jallieu,38300,FR,"{'brand': 'Decathlon', 'fascia': 'Decathlon', 'category': 'Sports', 'edit_date': '20250310', 'lat_lon_source': 'website'}",45.591609846287,5.2478808419418,"{'opening_hours': {'Mon': '08:30-20:00', 'Tue': '08:30-20:00', 'Wed': '08:30-20:00', 'Thu': '08:30-20:00', 'Fri': '08:30-20:00', 'Sat': '08:30-20:00', 'Sun': ''}}",Bourgoin Jallieu,+33474435743,0070021400214,,https://www.decathlon.fr/store-locator
Rue du Colonel  Le Barillec,Decathlon,Lorient,56100,FR,"{'brand': 'Decathlon', 'fascia': 'Decathlon', 'category': 'Sports', 'edit_date': '20250310', 'lat_lon_source': 'website'}",47.764563,-3.400891,"{'opening_hours': {'Mon': '09:00-19:30', 'Tue': '09:00-19:30', 'Wed': '09:00-19:30', 'Thu': '09:00-19:30', 'Fri': '09:00-19:30', 'Sat': '09:00-19:30', 'Sun': ''}}",Lorient,+33297878700,0070021600216,,https://www.decathlon.fr/store-locator
Avenue des Sports,Decathlon,Toulouse   Fenouillet,31150,FR,"{'brand': 'Decathlon', 'fascia': 'Decathlon', 'category': 'Sports', 'edit_date': '20250310', 'lat_lon_source': 'website'}",43.686401577783684,1.4048765767211746,"{'opening_hours': {'Mon': '09:00-19:30', 'Tue': '09:00-19:30', 'Wed': '09:00-19:30', 'Thu': '09:00-19:30', 'Fri': '09:00-19:30', 'Sat': '09:00-19:30', 'Sun': ''}}",Toulouse - Fenouillet,+33562759720,0070021800218,,https://www.decathlon.fr/store-locator
Rue des Frères Lumières,Decathlon,BEGLES,33130,FR,"{'brand': 'Decathlon', 'fascia': 'Decathlon', 'category': 'Sports', 'edit_date': '20250310', 'lat_lon_source': 'website'}",44.792396,-0.536143,"{'opening_hours': {'Mon': '09:30-20:00', 'Tue': '09:30-20:00', 'Wed': '09:30-20:00', 'Thu': '09:30-20:00', 'Fri': '09:30-20:00', 'Sat': '09:30-20:00', 'Sun': ''}}",Bordeaux - Begles,+33557355757,0070021900219,,https://www.decathlon.fr/store-locator
Route de Louvroil,Decathlon,HAUTMONT,59330,FR,"{'brand': 'Decathlon', 'fascia': 'Decathlon', 'category': 'Sports', 'edit_date': '20250310', 'lat_lon_source': 'website'}",50.25705462637679,3.9302363286972186,"{'opening_hours': {'Mon': '09:30-19:30', 'Tue': '09:30-19:30', 'Wed': '09:30-19:30', 'Thu': '09:30-19:30', 'Fri': '09:30-19:30', 'Sat': '09:30-19:30', 'Sun': ''}}",Decathlon Maubeuge - Hautmont ,+33327392606,0070022100221,,https://www.decathlon.fr/store-locator
2 rue des saugées,Decathlon,Brétigny sur Orge,91220,FR,"{'brand': 'Decathlon', 'fascia': 'Decathlon', 'category': 'Sports', 'edit_date': '20250310', 'lat_lon_source': 'website'}",48.6229423,2.3011574,"{'opening_hours': {'Mon': '09:00-20:00', 'Tue': '09:00-20:00', 'Wed': '09:00-20:00', 'Thu': '09:00-20:00', 'Fri': '09:00-20:00', 'Sat': '09:00-20:00', 'Sun': ''}}",Brétigny sur Orge,+33160852777,0070022500225,,https://www.decathlon.fr/store-locator
ZAC D'HELLIEULE II,Decathlon,Saint Dié des Vosges,88100,FR,"{'brand': 'Decathlon', 'fascia': 'Decathlon', 'category': 'Sports', 'edit_date': '20250310', 'lat_lon_source': 'website'}",48.292940165907,6.9359337936401,"{'opening_hours': {'Mon': '09:00-19:00', 'Tue': '09:00-19:00', 'Wed': '09:00-19:00', 'Thu': '09:00-19:00', 'Fri': '09:00-19:00', 'Sat': '09:00-19:00', 'Sun': ''}}",Saint Dié des Vosges,+33329421240,0070022700227,,https://www.decathlon.fr/store-locator
"Avenue de Paris, RN 44",Decathlon,CAMBRAI,59400,FR,"{'brand': 'Decathlon', 'fascia': 'Decathlon', 'category': 'Sports', 'edit_date': '20250310', 'lat_lon_source': 'website'}",50.16024233742156,3.225202510416021,"{'opening_hours': {'Mon': '09:30-19:00', 'Tue': '09:30-19:00', 'Wed': '09:30-19:00', 'Thu': '09:30-19:00', 'Fri': '09:30-19:00', 'Sat': '09:30-19:00', 'Sun': ''}}",Decathlon Cambrai,+33327722090,0070022900229,,https://www.decathlon.fr/store-locator
1 Faubourg de Paris,Decathlon,LAMBRES LEZ DOUAI,59552,FR,"{'brand': 'Decathlon', 'fascia': 'Decathlon', 'category': 'Sports', 'edit_date': '20250310', 'lat_lon_source': 'website'}",50.34726277897281,3.092343286399819,"{'opening_hours': {'Mon': '', 'Tue': '09:30-19:30', 'Wed': '09:30-19:30', 'Thu': '09:30-19:30', 'Fri': '09:30-19:30', 'Sat': '09:30-19:30', 'Sun': ''}}",Decathlon Douai - Lambres Lez Douai,+33327080707,0070023000230,,https://www.decathlon.fr/store-locator
ZAC du Pied des Gouttes,Decathlon,Montbeliard,25200,FR,"{'brand': 'Decathlon', 'fascia': 'Decathlon', 'category': 'Sports', 'edit_date': '20250310', 'lat_lon_source': 'website'}",47.502031317938,6.811860583992,"{'opening_hours': {'Mon': '09:00-19:00', 'Tue': '09:00-19:00', 'Wed': '09:00-19:00', 'Thu': '09:00-19:00', 'Fri': '09:00-19:00', 'Sat': '09:00-19:00', 'Sun': ''}}",Montbéliard,+33381981516,0070023100231,,https://www.decathlon.fr/store-locator
170 avenue Léman Mont-Blanc,Decathlon,Passy,74190,FR,"{'brand': 'Decathlon', 'fascia': 'Decathlon', 'category': 'Sports', 'edit_date': '20250310', 'lat_lon_source': 'website'}",45.9165,6.690885,"{'opening_hours': {'Mon': '09:30-19:00', 'Tue': '09:30-19:00', 'Wed': '09:30-19:00', 'Thu': '09:30-19:00', 'Fri': '09:30-19:00', 'Sat': '09:30-19:00', 'Sun': ''}}",Passy - Mountain Store,+33450785000,0070023200232,,https://www.decathlon.fr/store-locator
"Rue Lucien Vidie, ZA du Cruguil",Decathlon,Lannion,22300,FR,"{'brand': 'Decathlon', 'fascia': 'Decathlon', 'category': 'Sports', 'edit_date': '20250310', 'lat_lon_source': 'website'}",48.761762,-3.44901,"{'opening_hours': {'Mon': '09:30-19:00', 'Tue': '09:30-19:00', 'Wed': '09:30-19:00', 'Thu': '09:30-19:00', 'Fri': '09:30-19:00', 'Sat': '09:30-19:00', 'Sun': ''}}",Lannion,+33296485052,0070023300233,,https://www.decathlon.fr/store-locator
60 rue du Frioul,Decathlon,Mulhouse,68200,FR,"{'brand': 'Decathlon', 'fascia': 'Decathlon', 'category': 'Sports', 'edit_date': '20250310', 'lat_lon_source': 'website'}",47.739646417871,7.2891743195045,"{'opening_hours': {'Mon': '09:30-19:00', 'Tue': '09:30-19:00', 'Wed': '09:30-19:00', 'Thu': '09:30-19:00', 'Fri': '09:30-19:00', 'Sat': '09:30-19:00', 'Sun': ''}}",Mulhouse,+33389334210,0070023600236,,https://www.decathlon.fr/store-locator
Zone d Activites Commerciales de figuerolles,Decathlon,Martigues,13500,FR,"{'brand': 'Decathlon', 'fascia': 'Decathlon', 'category': 'Sports', 'edit_date': '20250310', 'lat_lon_source': 'website'}",43.430995468368,5.0479290641098,"{'opening_hours': {'Mon': '09:30-19:00', 'Tue': '09:30-19:00', 'Wed': '09:30-19:00', 'Thu': '09:30-19:00', 'Fri': '09:30-19:00', 'Sat': '09:30-19:00', 'Sun': ''}}",Martigues,+33442413232,0070023700237,,https://www.decathlon.fr/store-locator
Zone d´activités Commerciales de Gardès,Decathlon,BOÉ,47550,FR,"{'brand': 'Decathlon', 'fascia': 'Decathlon', 'category': 'Sports', 'edit_date': '20250310', 'lat_lon_source': 'website'}",44.1754744,0.6388148,"{'opening_hours': {'Mon': '09:00-19:30', 'Tue': '09:00-19:30', 'Wed': '09:00-19:30', 'Thu': '09:00-19:30', 'Fri': '09:00-19:30', 'Sat': '09:00-19:30', 'Sun': ''}}",Agen Boé,+33553985566,0070023800238,,https://www.decathlon.fr/store-locator
7 Chemin Cognac,Decathlon,TARBES,65000,FR,"{'brand': 'Decathlon', 'fascia': 'Decathlon', 'category': 'Sports', 'edit_date': '20250310', 'lat_lon_source': 'website'}",43.236573,0.0470935,"{'opening_hours': {'Mon': '09:00-19:30', 'Tue': '09:00-19:30', 'Wed': '09:00-19:30', 'Thu': '09:00-19:30', 'Fri': '09:00-19:30', 'Sat': '09:00-19:30', 'Sun': ''}}",Tarbes,+33562563344,0070023900239,,https://www.decathlon.fr/store-locator
Avenue Bronislaw Geremek,Decathlon,Auxerre,89000,FR,"{'brand': 'Decathlon', 'fascia': 'Decathlon', 'category': 'Sports', 'edit_date': '20250310', 'lat_lon_source': 'website'}",47.815603734892,3.5665007473602,"{'opening_hours': {'Mon': '09:00-19:30', 'Tue': '09:00-19:30', 'Wed': '09:00-19:30', 'Thu': '09:00-19:30', 'Fri': '09:00-19:30', 'Sat': '09:00-19:30', 'Sun': ''}}",Auxerre,+33386180200,0070024100241,,https://www.decathlon.fr/store-locator
Rue de la Chevalerie,Decathlon,ARÇONNAY,72610,FR,"{'brand': 'Decathlon', 'fascia': 'Decathlon', 'category': 'Sports', 'edit_date': '20250310', 'lat_lon_source': 'website'}",48.40455165145111,0.0875016111144955,"{'opening_hours': {'Mon': '09:30-19:00', 'Tue': '09:30-19:00', 'Wed': '09:30-19:00', 'Thu': '09:30-19:00', 'Fri': '09:30-19:00', 'Sat': '09:30-19:30', 'Sun': ''}}",Alençon-Arçonnay,+33233802650,0070024200242,,https://www.decathlon.fr/store-locator
67bis/79 Rue de la République,Decathlon,Montreuil sous Bois,93100,FR,"{'brand': 'Decathlon', 'fascia': 'Decathlon', 'category': 'Sports', 'edit_date': '20250310', 'lat_lon_source': 'website'}",48.852016417023,2.4160881666564,"{'opening_hours': {'Mon': '09:00-20:00', 'Tue': '09:00-20:00', 'Wed': '09:00-20:00', 'Thu': '09:00-20:00', 'Fri': '09:00-20:00', 'Sat': '09:00-20:00', 'Sun': ''}}",Paris Porte de Montreuil,+33148182900,0070024300243,,https://www.decathlon.fr/store-locator
ZAC des frais fonds,Decathlon,LONGUENESSE,62219,FR,"{'brand': 'Decathlon', 'fascia': 'Decathlon', 'category': 'Sports', 'edit_date': '20250310', 'lat_lon_source': 'website'}",50.73436763995985,2.2723902896881043,"{'opening_hours': {'Mon': '09:30-19:00', 'Tue': '09:30-19:00', 'Wed': '09:30-19:00', 'Thu': '09:30-19:00', 'Fri': '09:30-19:00', 'Sat': '09:30-19:00', 'Sun': ''}}",Decathlon Saint-Omer - Longuenesse,+33321122898,0070024900249,,https://www.decathlon.fr/store-locator
Lieu-Dit Bonneau,Decathlon,Bouliac,33270,FR,"{'brand': 'Decathlon', 'fascia': 'Decathlon', 'category': 'Sports', 'edit_date': '20250310', 'lat_lon_source': 'website'}",44.814453434753,-0.52546144844055,"{'opening_hours': {'Mon': '09:30-19:30', 'Tue': '09:30-19:30', 'Wed': '09:30-19:30', 'Thu': '09:30-19:30', 'Fri': '09:30-19:30', 'Sat': '09:30-19:30', 'Sun': ''}}",Bordeaux Bouliac,+33557977868,0070025100251,,https://www.decathlon.fr/store-locator
Avenue de Saint Die,Decathlon,Epinal,88000,FR,"{'brand': 'Decathlon', 'fascia': 'Decathlon', 'category': 'Sports', 'edit_date': '20250310', 'lat_lon_source': 'website'}",48.187602635662,6.4736327930069,"{'opening_hours': {'Mon': '09:00-19:30', 'Tue': '09:00-19:30', 'Wed': '09:00-19:30', 'Thu': '09:00-19:30', 'Fri': '09:00-19:30', 'Sat': '09:00-19:30', 'Sun': ''}}",Epinal,+33329811870,0070025200252,,https://www.decathlon.fr/store-locator
96 rue des Pecheurs d Islande,Decathlon,Rochefort,17300,FR,"{'brand': 'Decathlon', 'fascia': 'Decathlon', 'category': 'Sports', 'edit_date': '20250310', 'lat_lon_source': 'website'}",45.947234583529,-0.9904082209015,"{'opening_hours': {'Mon': '09:00-19:30', 'Tue': '09:00-19:30', 'Wed': '09:00-19:30', 'Thu': '09:00-19:30', 'Fri': '09:00-19:30', 'Sat': '09:00-19:30', 'Sun': ''}}",Rochefort,+33546828981,0070025300253,,https://www.decathlon.fr/store-locator
ZAC Cap Sud,Decathlon,SAINT MAUR,36250,FR,"{'brand': 'Decathlon', 'fascia': 'Decathlon', 'category': 'Sports', 'edit_date': '20250310', 'lat_lon_source': 'website'}",46.775496450166,1.6452853055572,"{'opening_hours': {'Mon': '09:00-19:30', 'Tue': '09:00-19:30', 'Wed': '09:00-19:30', 'Thu': '09:00-19:30', 'Fri': '09:00-19:30', 'Sat': '09:00-19:30', 'Sun': ''}}",Chateauroux Saint Maur,+33254611313,0070025400254,,https://www.decathlon.fr/store-locator
"1227 Chemin de la Cassine, Zone Commerciale du Chiriac, Proche Intermarché",Decathlon,Albertville,73200,FR,"{'brand': 'Decathlon', 'fascia': 'Decathlon', 'category': 'Sports', 'edit_date': '20250310', 'lat_lon_source': 'website'}",45.65610449988185,6.369203893826301,"{'opening_hours': {'Mon': '09:00-19:30', 'Tue': '09:00-19:30', 'Wed': '09:00-19:30', 'Thu': '09:00-19:30', 'Fri': '09:00-19:30', 'Sat': '09:00-19:30', 'Sun': ''}}",Albertville,+33479374732,0070025500255,,https://www.decathlon.fr/store-locator
Boulevard Jean Moulin,Decathlon,Carhaix Plouguer,29270,FR,"{'brand': 'Decathlon', 'fascia': 'Decathlon', 'category': 'Sports', 'edit_date': '20250310', 'lat_lon_source': 'website'}",48.277461763537154,-3.5549918988586504,"{'opening_hours': {'Mon': '09:30-19:00', 'Tue': '', 'Wed': '09:30-19:00', 'Thu': '09:30-19:00', 'Fri': '09:30-19:00', 'Sat': '09:30-19:00', 'Sun': ''}}",Carhaix,+33298993337,0070025900259,,https://www.decathlon.fr/store-locator
240 rue Joseph Cugnot,Decathlon,Saint-Lô,50000,FR,"{'brand': 'Decathlon', 'fascia': 'Decathlon', 'category': 'Sports', 'edit_date': '20250310', 'lat_lon_source': 'website'}",49.112331,-1.048979,"{'opening_hours': {'Mon': '09:30-19:30', 'Tue': '09:30-19:30', 'Wed': '09:30-19:30', 'Thu': '09:30-19:30', 'Fri': '09:30-19:30', 'Sat': '09:30-19:30', 'Sun': ''}}",Saint-Lô,+33233773900,0070026400264,,https://www.decathlon.fr/store-locator
Avenue Jean Monnet,Decathlon,Pont Audemer,27500,FR,"{'brand': 'Decathlon', 'fascia': 'Decathlon', 'category': 'Sports', 'edit_date': '20250310', 'lat_lon_source': 'website'}",49.347830105407,0.54391130821228,"{'opening_hours': {'Mon': '09:30-19:00', 'Tue': '09:30-19:00', 'Wed': '09:30-19:00', 'Thu': '09:30-19:00', 'Fri': '09:30-19:00', 'Sat': '09:30-19:00', 'Sun': ''}}",Pont Audemer,+33232415212,0070026500265,,https://www.decathlon.fr/store-locator
Chemin des Coudres,Decathlon,EVREUX,27000,FR,"{'brand': 'Decathlon', 'fascia': 'Decathlon', 'category': 'Sports', 'edit_date': '20250310', 'lat_lon_source': 'website'}",49.000735419996,1.1571701177215,"{'opening_hours': {'Mon': '09:00-19:30', 'Tue': '09:00-19:30', 'Wed': '09:00-19:30', 'Thu': '09:00-19:30', 'Fri': '09:00-19:30', 'Sat': '09:00-19:30', 'Sun': ''}}",Evreux,+33232237100,0070026700267,,https://www.decathlon.fr/store-locator
"5, route de Marseille",Decathlon,Digne les Bains,04000,FR,"{'brand': 'Decathlon', 'fascia': 'Decathlon', 'category': 'Sports', 'edit_date': '20250310', 'lat_lon_source': 'website'}",44.069370797329,6.1787156357209,"{'opening_hours': {'Mon': '09:30-19:00', 'Tue': '09:30-19:00', 'Wed': '09:30-19:00', 'Thu': '09:30-19:00', 'Fri': '09:30-19:00', 'Sat': '09:30-19:00', 'Sun': ''}}",Digne les Bains,+33492366750,0070027500275,,https://www.decathlon.fr/store-locator
Zone artisanale les terrasses de la Sarre,Decathlon,Sarrebourg,57400,FR,"{'brand': 'Decathlon', 'fascia': 'Decathlon', 'category': 'Sports', 'edit_date': '20250310', 'lat_lon_source': 'website'}",48.719182553531,7.0427053445664,"{'opening_hours': {'Mon': '09:00-19:00', 'Tue': '09:00-19:00', 'Wed': '09:00-19:00', 'Thu': '09:00-19:00', 'Fri': '09:00-19:00', 'Sat': '09:00-19:00', 'Sun': ''}}",Sarrebourg,+33387257890,0070027600276,,https://www.decathlon.fr/store-locator
"Rue des Mérovingiens, Zone Commerciale du Chêne Saint Amand",Decathlon,Saint Dizier,52100,FR,"{'brand': 'Decathlon', 'fascia': 'Decathlon', 'category': 'Sports', 'edit_date': '20250310', 'lat_lon_source': 'website'}",48.622824,4.964678,"{'opening_hours': {'Mon': '09:00-19:00', 'Tue': '09:00-19:00', 'Wed': '09:00-19:00', 'Thu': '09:00-19:00', 'Fri': '09:00-19:00', 'Sat': '09:00-19:00', 'Sun': ''}}",Saint Dizier,+33325960250,0070027700277,,https://www.decathlon.fr/store-locator
Zone Industrielle Foix Nord,Decathlon,Foix,09000,FR,"{'brand': 'Decathlon', 'fascia': 'Decathlon', 'category': 'Sports', 'edit_date': '20250310', 'lat_lon_source': 'website'}",43.007467741009,1.6153431507874,"{'opening_hours': {'Mon': '09:00-19:30', 'Tue': '09:00-19:30', 'Wed': '09:00-19:30', 'Thu': '09:00-19:30', 'Fri': '09:00-19:30', 'Sat': '09:00-19:30', 'Sun': ''}}",Foix,+33561020630,0070027900279,,https://www.decathlon.fr/store-locator
ZAC des Hunaudières,Decathlon,RUAUDIN,72230,FR,"{'brand': 'Decathlon', 'fascia': 'Decathlon', 'category': 'Sports', 'edit_date': '20250310', 'lat_lon_source': 'website'}",47.956716810693,0.22934399272918,"{'opening_hours': {'Mon': '09:30-19:30', 'Tue': '09:30-19:30', 'Wed': '09:30-19:30', 'Thu': '09:30-19:30', 'Fri': '09:30-19:30', 'Sat': '09:30-19:30', 'Sun': ''}}",Le Mans Sud - Ruaudin,+33243500550,0070028200282,,https://www.decathlon.fr/store-locator
"Centre Commercial Part-Dieu, 17 rue du docteur Bouchut",Decathlon,Lyon,69003,FR,"{'brand': 'Decathlon', 'fascia': 'Decathlon', 'category': 'Sports', 'edit_date': '20250310', 'lat_lon_source': 'website'}",45.762658725176,4.8556141918183,"{'opening_hours': {'Mon': '09:30-20:00', 'Tue': '09:30-20:00', 'Wed': '09:30-20:00', 'Thu': '09:30-20:00', 'Fri': '09:30-20:00', 'Sat': '09:30-20:00', 'Sun': ''}}",Lyon La Part Dieu,+33478145770,0070028800288,,https://www.decathlon.fr/store-locator
CENTRE COMMERCIAL PARLY 2,Decathlon,Le Chesnay,78150,FR,"{'brand': 'Decathlon', 'fascia': 'Decathlon', 'category': 'Sports', 'edit_date': '20250310', 'lat_lon_source': 'website'}",48.826600297892,2.1155911997223,"{'opening_hours': {'Mon': '10:00-20:30', 'Tue': '10:00-20:30', 'Wed': '10:00-20:30', 'Thu': '10:00-20:30', 'Fri': '10:00-20:30', 'Sat': '10:00-20:30', 'Sun': '11:00-19:00'}}",Parly 2 - Versailles - Le Chesnay,+33139231040,0070028900289,,https://www.decathlon.fr/store-locator
La petite Bastide,Decathlon,Bouc Bel Air,13320,FR,"{'brand': 'Decathlon', 'fascia': 'Decathlon', 'category': 'Sports', 'edit_date': '20250310', 'lat_lon_source': 'website'}",43.4315,5.39811,"{'opening_hours': {'Mon': '09:00-20:00', 'Tue': '09:00-20:00', 'Wed': '09:00-20:00', 'Thu': '09:00-20:00', 'Fri': '09:00-20:00', 'Sat': '09:00-20:00', 'Sun': ''}}",Marseille - Bouc Bel Air,+33442940300,0070029200292,,https://www.decathlon.fr/store-locator
Rue du Commandant Cousteau,Decathlon,Changé,53810,FR,"{'brand': 'Decathlon', 'fascia': 'Decathlon', 'category': 'Sports', 'edit_date': '20250310', 'lat_lon_source': 'website'}",48.089736428797,-0.76370256679535,"{'opening_hours': {'Mon': '09:30-19:30', 'Tue': '09:30-19:30', 'Wed': '09:30-19:30', 'Thu': '09:30-19:30', 'Fri': '09:30-19:30', 'Sat': '09:30-19:30', 'Sun': ''}}",Laval,+33243497272,0070029600296,,https://www.decathlon.fr/store-locator
Route de Vendôme,Decathlon,VILLEBAROU,41000,FR,"{'brand': 'Decathlon', 'fascia': 'Decathlon', 'category': 'Sports', 'edit_date': '20250310', 'lat_lon_source': 'website'}",47.619434230951,1.3019644180298,"{'opening_hours': {'Mon': '09:00-19:30', 'Tue': '', 'Wed': '09:00-19:30', 'Thu': '09:00-19:30', 'Fri': '09:00-19:30', 'Sat': '09:00-19:30', 'Sun': ''}}",Blois,+33254335050,0070029700297,,https://www.decathlon.fr/store-locator
Avenue des Maréchaux,Decathlon,Saumur,49400,FR,"{'brand': 'Decathlon', 'fascia': 'Decathlon', 'category': 'Sports', 'edit_date': '20250310', 'lat_lon_source': 'website'}",47.263703506409,-0.09288142593384,"{'opening_hours': {'Mon': '09:00-19:30', 'Tue': '09:00-19:30', 'Wed': '09:00-19:30', 'Thu': '09:00-19:30', 'Fri': '09:00-19:30', 'Sat': '09:00-19:30', 'Sun': ''}}",Saumur,+33241537979,0070029800298,,https://www.decathlon.fr/store-locator
"Rue des Chardonnes, Zone de la Grange",Decathlon,ROMORANTIN,41200,FR,"{'brand': 'Decathlon', 'fascia': 'Decathlon', 'category': 'Sports', 'edit_date': '20250310', 'lat_lon_source': 'website'}",47.372281,1.714046,"{'opening_hours': {'Mon': '09:30-19:30', 'Tue': '09:30-19:30', 'Wed': '09:30-19:30', 'Thu': '09:30-19:30', 'Fri': '09:30-19:30', 'Sat': '09:30-19:30', 'Sun': ''}}",Romorantin-Lanthenay,+33254940940,0070030000300,,https://www.decathlon.fr/store-locator
Rue Carignan,Decathlon,Orange,84100,FR,"{'brand': 'Decathlon', 'fascia': 'Decathlon', 'category': 'Sports', 'edit_date': '20250310', 'lat_lon_source': 'website'}",44.1136538,4.8456729,"{'opening_hours': {'Mon': '09:30-19:00', 'Tue': '09:30-19:00', 'Wed': '09:30-19:00', 'Thu': '09:30-19:00', 'Fri': '09:30-19:00', 'Sat': '09:30-19:00', 'Sun': ''}}",Orange,+33490111750,0070030100301,,https://www.decathlon.fr/store-locator
"1 rue Jacques Rueff, Derrière E.Leclerc et Cinéville",Decathlon,Vannes,56000,FR,"{'brand': 'Decathlon', 'fascia': 'Decathlon', 'category': 'Sports', 'edit_date': '20250310', 'lat_lon_source': 'website'}",47.668234849339,-2.7885842605743,"{'opening_hours': {'Mon': '09:00-19:30', 'Tue': '09:00-19:30', 'Wed': '09:00-19:30', 'Thu': '09:00-19:30', 'Fri': '09:00-19:30', 'Sat': '09:00-19:30', 'Sun': ''}}",Vannes,+33297627878,0070030800308,,https://www.decathlon.fr/store-locator
"18 Avenue Hubert Ruffe, Route de Tonneins",Decathlon,MARMANDE,47200,FR,"{'brand': 'Decathlon', 'fascia': 'Decathlon', 'category': 'Sports', 'edit_date': '20250310', 'lat_lon_source': 'website'}",44.4919055,0.1759844,"{'opening_hours': {'Mon': '09:30-19:00', 'Tue': '09:30-19:00', 'Wed': '09:30-19:00', 'Thu': '09:30-19:00', 'Fri': '09:30-19:00', 'Sat': '09:30-19:00', 'Sun': ''}}",Marmande,+33553648250,0070032500325,,https://www.decathlon.fr/store-locator
Route de Charmeil,Decathlon,Bellerive sur Allier,03700,FR,"{'brand': 'Decathlon', 'fascia': 'Decathlon', 'category': 'Sports', 'edit_date': '20250310', 'lat_lon_source': 'website'}",46.128613177356,3.3995218968201,"{'opening_hours': {'Mon': '09:00-19:00', 'Tue': '09:00-19:00', 'Wed': '09:00-19:00', 'Thu': '09:00-19:00', 'Fri': '09:00-19:00', 'Sat': '09:00-19:00', 'Sun': ''}}",Vichy - Bellerive sur Allier,+33470329900,0070033600336,,https://www.decathlon.fr/store-locator
Zone de Kervilier,Decathlon,Quimper,29000,FR,"{'brand': 'Decathlon', 'fascia': 'Decathlon', 'category': 'Sports', 'edit_date': '20250310', 'lat_lon_source': 'website'}",47.977060906991,-4.0782386724915,"{'opening_hours': {'Mon': '09:30-19:30', 'Tue': '09:30-19:30', 'Wed': '09:30-19:30', 'Thu': '09:30-19:30', 'Fri': '09:30-19:30', 'Sat': '09:30-19:30', 'Sun': ''}}",Quimper,+33298103444,0070033800338,,https://www.decathlon.fr/store-locator
2 rue Georges Méliès,Decathlon,HAGUENAU,67500,FR,"{'brand': 'Decathlon', 'fascia': 'Decathlon', 'category': 'Sports', 'edit_date': '20250310', 'lat_lon_source': 'website'}",48.80225,7.833039,"{'opening_hours': {'Mon': '09:00-19:00', 'Tue': '09:00-19:00', 'Wed': '09:00-19:00', 'Thu': '09:00-19:00', 'Fri': '09:00-19:00', 'Sat': '09:00-19:00', 'Sun': ''}}",Haguenau,+33388053330,0070034400344,,https://www.decathlon.fr/store-locator
ZAC EST des Portes Occitanes,Decathlon,Le Puy en Velay,43000,FR,"{'brand': 'Decathlon', 'fascia': 'Decathlon', 'category': 'Sports', 'edit_date': '20250310', 'lat_lon_source': 'website'}",45.024043330745,3.883376002655,"{'opening_hours': {'Mon': '09:00-19:30', 'Tue': '09:00-19:30', 'Wed': '09:00-19:30', 'Thu': '09:00-19:30', 'Fri': '09:00-19:30', 'Sat': '09:00-19:30', 'Sun': ''}}",Le Puy en Velay,+33471060600,0070034500345,,https://www.decathlon.fr/store-locator
Zone d´Activités Commerciales la Ponétie,Decathlon,Aurillac,15000,FR,"{'brand': 'Decathlon', 'fascia': 'Decathlon', 'category': 'Sports', 'edit_date': '20250310', 'lat_lon_source': 'website'}",44.902999750666,2.4515360342545,"{'opening_hours': {'Mon': '09:30-19:00', 'Tue': '09:30-19:00', 'Wed': '09:30-19:00', 'Thu': '09:30-19:00', 'Fri': '09:30-19:00', 'Sat': '09:30-19:00', 'Sun': ''}}",Aurillac,+33471633510,0070034800348,,https://www.decathlon.fr/store-locator
Zone des Bonnettes,Decathlon,ARRAS,62000,FR,"{'brand': 'Decathlon', 'fascia': 'Decathlon', 'category': 'Sports', 'edit_date': '20250310', 'lat_lon_source': 'website'}",50.30294901117401,2.7307197374343906,"{'opening_hours': {'Mon': '09:30-19:30', 'Tue': '09:30-19:30', 'Wed': '09:30-19:30', 'Thu': '09:30-19:30', 'Fri': '09:30-19:30', 'Sat': '09:30-19:30', 'Sun': ''}}",Decathlon Arras,+33321168170,0070034900349,,https://www.decathlon.fr/store-locator
19 RUE MARCEL BARBU,Decathlon,VALENCE,26000,FR,"{'brand': 'Decathlon', 'fascia': 'Decathlon', 'category': 'Sports', 'edit_date': '20250310', 'lat_lon_source': 'website'}",44.9405565,4.917832000000001,"{'opening_hours': {'Mon': '09:00-19:30', 'Tue': '09:00-19:30', 'Wed': '09:00-19:30', 'Thu': '09:00-19:30', 'Fri': '09:00-19:30', 'Sat': '09:00-19:30', 'Sun': ''}}",Decathlon Valence,+33475862700,0070035300353,,https://www.decathlon.fr/store-locator
130 rue Sainte Catherine,Decathlon,Bordeaux,33000,FR,"{'brand': 'Decathlon', 'fascia': 'Decathlon', 'category': 'Sports', 'edit_date': '20250310', 'lat_lon_source': 'website'}",44.836969,-0.5736874,"{'opening_hours': {'Mon': '10:00-19:30', 'Tue': '10:00-19:30', 'Wed': '10:00-19:30', 'Thu': '10:00-19:30', 'Fri': '10:00-19:30', 'Sat': '10:00-19:30', 'Sun': '14:00-19:00'}}",Bordeaux Centre Ville - City,+33556793435,0070035400354,,https://www.decathlon.fr/store-locator
ZA des grands champs,Decathlon,Flers,61100,FR,"{'brand': 'Decathlon', 'fascia': 'Decathlon', 'category': 'Sports', 'edit_date': '20250310', 'lat_lon_source': 'website'}",48.726110665085,-0.58446177909851,"{'opening_hours': {'Mon': '09:30-19:00', 'Tue': '09:30-19:00', 'Wed': '09:30-19:00', 'Thu': '09:30-19:00', 'Fri': '09:30-19:00', 'Sat': '09:30-19:00', 'Sun': ''}}",Flers,+33233628220,0070036000360,,https://www.decathlon.fr/store-locator
"Quartier Saint Pierre , La planchette",Decathlon,Bollène,84500,FR,"{'brand': 'Decathlon', 'fascia': 'Decathlon', 'category': 'Sports', 'edit_date': '20250310', 'lat_lon_source': 'website'}",44.298789042327,4.7521673789596,"{'opening_hours': {'Mon': '09:00-19:00', 'Tue': '09:00-19:00', 'Wed': '09:00-19:00', 'Thu': '09:00-19:00', 'Fri': '09:00-19:00', 'Sat': '09:00-19:00', 'Sun': ''}}",Bollène,+33432803360,0070036300363,,https://www.decathlon.fr/store-locator
"8, Rue des orangers",Decathlon,HENDAYE,64700,FR,"{'brand': 'Decathlon', 'fascia': 'Decathlon', 'category': 'Sports', 'edit_date': '20250310', 'lat_lon_source': 'website'}",43.36846,-1.779806,"{'opening_hours': {'Mon': '09:00-19:00', 'Tue': '09:00-19:00', 'Wed': '09:00-19:00', 'Thu': '09:00-19:00', 'Fri': '09:00-19:00', 'Sat': '09:00-19:00', 'Sun': ''}}",Hendaye,+33559480202,0070036500365,,https://www.decathlon.fr/store-locator
Rue Henry Potez,Decathlon,Dreux,28100,FR,"{'brand': 'Decathlon', 'fascia': 'Decathlon', 'category': 'Sports', 'edit_date': '20250310', 'lat_lon_source': 'website'}",48.749340890418,1.3497877817535,"{'opening_hours': {'Mon': '10:00-19:30', 'Tue': '10:00-19:30', 'Wed': '10:00-19:30', 'Thu': '10:00-19:30', 'Fri': '10:00-19:30', 'Sat': '10:00-19:30', 'Sun': ''}}",Dreux,+33237648280,0070036600366,,https://www.decathlon.fr/store-locator
Boulevard Saint Vincent de Paul,Decathlon,SAINT PAUL LÈS DAX,40990,FR,"{'brand': 'Decathlon', 'fascia': 'Decathlon', 'category': 'Sports', 'edit_date': '20250310', 'lat_lon_source': 'website'}",43.728815005897786,-1.0386048963729766,"{'opening_hours': {'Mon': '09:00-19:30', 'Tue': '09:00-19:30', 'Wed': '09:00-19:30', 'Thu': '09:00-19:30', 'Fri': '09:00-19:30', 'Sat': '09:00-19:30', 'Sun': ''}}",Dax,+33558911313,0070038100381,,https://www.decathlon.fr/store-locator
Rue René CASSIN,Decathlon,St Marcel,71380,FR,"{'brand': 'Decathlon', 'fascia': 'Decathlon', 'category': 'Sports', 'edit_date': '20250310', 'lat_lon_source': 'website'}",46.771367282699,4.8677222724915,"{'opening_hours': {'Mon': '09:00-19:30', 'Tue': '09:00-19:30', 'Wed': '09:00-19:30', 'Thu': '09:00-19:30', 'Fri': '09:00-19:30', 'Sat': '09:00-19:30', 'Sun': ''}}",Chalon sur Saône,+33385908720,0070040300403,,https://www.decathlon.fr/store-locator
"ZI LA PALUD, Rue de l'Intendance, CS40140",Decathlon,Fréjus Cedex,83600,FR,"{'brand': 'Decathlon', 'fascia': 'Decathlon', 'category': 'Sports', 'edit_date': '20250310', 'lat_lon_source': 'website'}",43.438002257897,6.7198322043991,"{'opening_hours': {'Mon': '09:00-19:30', 'Tue': '09:00-19:30', 'Wed': '09:00-19:30', 'Thu': '09:00-19:30', 'Fri': '09:00-19:30', 'Sat': '09:00-19:30', 'Sun': ''}}",Fréjus,+33498127171,0070040500405,,https://www.decathlon.fr/store-locator
Route de Mazamet,Decathlon,Castres,81100,FR,"{'brand': 'Decathlon', 'fascia': 'Decathlon', 'category': 'Sports', 'edit_date': '20250310', 'lat_lon_source': 'website'}",43.588755664559,2.2722581891632,"{'opening_hours': {'Mon': '09:00-19:00', 'Tue': '09:00-19:00', 'Wed': '09:00-19:00', 'Thu': '09:00-19:00', 'Fri': '09:00-19:00', 'Sat': '09:00-19:00', 'Sun': ''}}",Castres,+33563625858,0070040800408,,https://www.decathlon.fr/store-locator
"Rue Pasteur, LMS",Decathlon,LOMPRET,59840,FR,"{'brand': 'Decathlon', 'fascia': 'Decathlon', 'category': 'Sports', 'edit_date': '20250310', 'lat_lon_source': 'website'}",50.655489,3.003372,"{'opening_hours': {'Mon': '07:00-19:30', 'Tue': '07:00-19:30', 'Wed': '07:00-19:30', 'Thu': '07:00-19:30', 'Fri': '07:00-19:30', 'Sat': '09:00-19:00', 'Sun': ''}}",Atelier Régional Nord,+33362148720,0070042500425,,https://www.decathlon.fr/store-locator
112 av. du Général De Gaulle,Decathlon,Gennevilliers,92230,FR,"{'brand': 'Decathlon', 'fascia': 'Decathlon', 'category': 'Sports', 'edit_date': '20250310', 'lat_lon_source': 'website'}",48.932422442487,2.3170861203765,"{'opening_hours': {'Mon': '10:00-20:00', 'Tue': '10:00-20:00', 'Wed': '10:00-20:00', 'Thu': '10:00-20:00', 'Fri': '10:00-20:00', 'Sat': '10:00-20:00', 'Sun': '10:00-19:00'}}",Gennevilliers,+33141214610,0070042600426,,https://www.decathlon.fr/store-locator
ZAC des Batterses centre commercial Beynost 2,Decathlon,Beynost,01700,FR,"{'brand': 'Decathlon', 'fascia': 'Decathlon', 'category': 'Sports', 'edit_date': '20250310', 'lat_lon_source': 'website'}",45.824702134773,4.9990472294998,"{'opening_hours': {'Mon': '09:00-19:30', 'Tue': '09:00-19:30', 'Wed': '09:00-19:30', 'Thu': '09:00-19:30', 'Fri': '09:00-19:30', 'Sat': '09:00-19:30', 'Sun': ''}}",Beynost,+33437855510,0070042700427,,https://www.decathlon.fr/store-locator
"113, Avenue de France",Decathlon,Paris,75013,FR,"{'brand': 'Decathlon', 'fascia': 'Decathlon', 'category': 'Sports', 'edit_date': '20250310', 'lat_lon_source': 'website'}",48.830211122105,2.3765668809509,"{'opening_hours': {'Mon': '09:30-20:00', 'Tue': '09:30-20:00', 'Wed': '09:30-20:00', 'Thu': '09:30-20:00', 'Fri': '09:30-20:00', 'Sat': '09:30-20:00', 'Sun': ''}}",Paris Rive Gauche,+33144068200,0070042900429,,https://www.decathlon.fr/store-locator
202 chemin Poivré,Decathlon,MARCQ EN BAROEUL,59700,FR,"{'brand': 'Decathlon', 'fascia': 'Decathlon', 'category': 'Sports', 'edit_date': '20250310', 'lat_lon_source': 'website'}",50.6879,3.1035,"{'opening_hours': {'Mon': '10:00-19:00', 'Tue': '10:00-19:00', 'Wed': '10:00-19:00', 'Thu': '10:00-19:00', 'Fri': '10:00-19:00', 'Sat': '10:00-18:30', 'Sun': ''}}",Marcq-en-Baroeul - INESIS Golf Park,+33328334990,0070043700437,,https://www.decathlon.fr/store-locator
Rue des Vignes Rouges,Decathlon,PUBLIER,74500,FR,"{'brand': 'Decathlon', 'fascia': 'Decathlon', 'category': 'Sports', 'edit_date': '20250310', 'lat_lon_source': 'website'}",46.388774097006,6.5220782567612,"{'opening_hours': {'Mon': '09:00-19:30', 'Tue': '09:00-19:30', 'Wed': '09:00-19:30', 'Thu': '09:00-19:30', 'Fri': '09:00-19:30', 'Sat': '09:00-19:30', 'Sun': ''}}",Thonon les Bains - Publier,+33450815400,0070044400444,,https://www.decathlon.fr/store-locator
Zone Commerciale AUCHAN,Decathlon,SAINT QUENTIN,02100,FR,"{'brand': 'Decathlon', 'fascia': 'Decathlon', 'category': 'Sports', 'edit_date': '20250310', 'lat_lon_source': 'website'}",49.8604891,3.2525008,"{'opening_hours': {'Mon': '09:00-19:00', 'Tue': '09:00-19:00', 'Wed': '09:00-19:00', 'Thu': '09:00-19:00', 'Fri': '09:00-19:00', 'Sat': '09:00-19:00', 'Sun': ''}}",Decathlon Saint Quentin,+33323503700,0070045000450,,https://www.decathlon.fr/store-locator
16 rue Emile Schwoerer,Decathlon,Colmar,68000,FR,"{'brand': 'Decathlon', 'fascia': 'Decathlon', 'category': 'Sports', 'edit_date': '20250310', 'lat_lon_source': 'website'}",48.102287118465,7.3640339979003,"{'opening_hours': {'Mon': '09:00-19:30', 'Tue': '09:00-19:30', 'Wed': '09:00-19:30', 'Thu': '09:00-19:30', 'Fri': '09:00-19:30', 'Sat': '09:00-19:30', 'Sun': ''}}",Colmar,+33389215530,0070045400454,,https://www.decathlon.fr/store-locator
Espace Roussillon Est C.C.Carrefour,Decathlon,Claira,66530,FR,"{'brand': 'Decathlon', 'fascia': 'Decathlon', 'category': 'Sports', 'edit_date': '20250310', 'lat_lon_source': 'website'}",42.773182201954,2.9174051289749,"{'opening_hours': {'Mon': '09:00-19:30', 'Tue': '09:00-19:30', 'Wed': '09:00-19:30', 'Thu': '09:00-19:30', 'Fri': '09:00-19:30', 'Sat': '09:00-19:30', 'Sun': ''}}",Perpignan - Claira,+33468287740,0070045600456,,https://www.decathlon.fr/store-locator
ZAC de la Tibourgère,Decathlon,Les Herbiers,85500,FR,"{'brand': 'Decathlon', 'fascia': 'Decathlon', 'category': 'Sports', 'edit_date': '20250310', 'lat_lon_source': 'website'}",46.87832903591,-1.0161196785736,"{'opening_hours': {'Mon': '09:30-12:30, 14:00-19:00', 'Tue': '09:30-12:30, 14:00-19:00', 'Wed': '09:30-12:30, 14:00-19:00', 'Thu': '09:30-12:30, 14:00-19:00', 'Fri': '09:30-12:30, 14:00-19:00', 'Sat': '09:30-19:00', 'Sun': ''}}",Les Herbiers,+33251610610,0070046100461,,https://www.decathlon.fr/store-locator
3 Rue de la resistance,Decathlon,Thiais,94320,FR,"{'brand': 'Decathlon', 'fascia': 'Decathlon', 'category': 'Sports', 'edit_date': '20250310', 'lat_lon_source': 'website'}",48.757856573639,2.3853814034271,"{'opening_hours': {'Mon': '10:00-20:00', 'Tue': '10:00-20:00', 'Wed': '10:00-20:00', 'Thu': '10:00-20:00', 'Fri': '10:00-20:00', 'Sat': '10:00-20:00', 'Sun': '10:00-20:00'}}",Thiais Village,+33157021120,0070046800468,,https://www.decathlon.fr/store-locator
"La Lande de Jauge , Parc de jarry II",Decathlon,CESTAS CEDEX,33610,FR,"{'brand': 'Decathlon', 'fascia': 'Decathlon', 'category': 'Sports', 'edit_date': '20250310', 'lat_lon_source': 'website'}",44.717366,-0.733429,"{'opening_hours': {'Mon': '09:00-19:00', 'Tue': '09:00-19:00', 'Wed': '09:00-19:00', 'Thu': '09:00-19:00', 'Fri': '09:00-19:00', 'Sat': '09:00-19:00', 'Sun': ''}}",Cestas - Decathlon Solognac Caperlan,+33556210720,0070047700477,,https://www.decathlon.fr/store-locator
Parc du nouveau monde,Decathlon,BAILLEUL,59270,FR,"{'brand': 'Decathlon', 'fascia': 'Decathlon', 'category': 'Sports', 'edit_date': '20250310', 'lat_lon_source': 'website'}",50.724428066903,2.7487244001389,"{'opening_hours': {'Mon': '09:30-19:30', 'Tue': '09:30-19:30', 'Wed': '09:30-19:30', 'Thu': '09:30-19:30', 'Fri': '09:30-19:30', 'Sat': '09:30-19:30', 'Sun': ''}}",Decathlon Bailleul,+33328503790,0070047900479,,https://www.decathlon.fr/store-locator
Rue de la Gravelle,Decathlon,SARCEAUX,61200,FR,"{'brand': 'Decathlon', 'fascia': 'Decathlon', 'category': 'Sports', 'edit_date': '20250310', 'lat_lon_source': 'website'}",48.730314814305,-0.039209608737183,"{'opening_hours': {'Mon': '09:30-12:30, 14:00-19:00', 'Tue': '09:30-12:30, 14:00-19:00', 'Wed': '09:30-12:30, 14:00-19:00', 'Thu': '09:30-12:30, 14:00-19:00', 'Fri': '09:30-12:30, 14:00-19:00', 'Sat': '09:30-19:00', 'Sun': ''}}",Argentan-Sarceaux,+33233121440,0070048100481,,https://www.decathlon.fr/store-locator
ZAC du Parc International des 3 Frontières (Pôle Européen),Decathlon,Mont Saint Martin,54350,FR,"{'brand': 'Decathlon', 'fascia': 'Decathlon', 'category': 'Sports', 'edit_date': '20250310', 'lat_lon_source': 'website'}",49.54468839538,5.8060787142944,"{'opening_hours': {'Mon': '09:00-19:00', 'Tue': '09:00-19:00', 'Wed': '09:00-19:00', 'Thu': '09:00-19:00', 'Fri': '09:00-19:00', 'Sat': '09:00-19:00', 'Sun': ''}}",Longwy - Mont Saint Martin,+33382448810,0070048300483,,https://www.decathlon.fr/store-locator
8 Rue Kellermann,Decathlon,SARREGUEMINES,57200,FR,"{'brand': 'Decathlon', 'fascia': 'Decathlon', 'category': 'Sports', 'edit_date': '20250310', 'lat_lon_source': 'website'}",49.113314512526,7.0942849298859,"{'opening_hours': {'Mon': '09:00-19:00', 'Tue': '09:00-19:00', 'Wed': '09:00-19:00', 'Thu': '09:00-19:00', 'Fri': '09:00-19:00', 'Sat': '09:00-19:00', 'Sun': ''}}",Sarreguemines,+33387286420,0070048400484,,https://www.decathlon.fr/store-locator
28 Route de Blois,Decathlon,CHÂTEAUDUN,28200,FR,"{'brand': 'Decathlon', 'fascia': 'Decathlon', 'category': 'Sports', 'edit_date': '20250310', 'lat_lon_source': 'website'}",48.058910400394,1.3357635476379,"{'opening_hours': {'Mon': '09:30-12:30, 14:00-19:00', 'Tue': '09:30-12:30, 14:00-19:00', 'Wed': '09:30-12:30, 14:00-19:00', 'Thu': '09:30-12:30, 14:00-19:00', 'Fri': '09:30-12:30, 14:00-19:00', 'Sat': '09:30-19:00', 'Sun': ''}}",Châteaudun,+33237458484,0070048600486,,https://www.decathlon.fr/store-locator
Route D'Epernay - Centre commercial Leclerc,Decathlon,FAGNIERES,51510,FR,"{'brand': 'Decathlon', 'fascia': 'Decathlon', 'category': 'Sports', 'edit_date': '20250310', 'lat_lon_source': 'website'}",48.959268,4.31745,"{'opening_hours': {'Mon': '09:30-19:00', 'Tue': '09:30-19:00', 'Wed': '09:30-19:00', 'Thu': '09:30-19:00', 'Fri': '09:30-19:00', 'Sat': '09:30-19:00', 'Sun': ''}}",Decathlon Châlons - Fagnières,+33326440200,0070049600496,,https://www.decathlon.fr/store-locator
358 route d'Uzès,Decathlon,ALÈS,30100,FR,"{'brand': 'Decathlon', 'fascia': 'Decathlon', 'category': 'Sports', 'edit_date': '20250310', 'lat_lon_source': 'website'}",44.113456333534,4.1024539067459,"{'opening_hours': {'Mon': '09:00-19:30', 'Tue': '09:00-19:30', 'Wed': '09:00-19:30', 'Thu': '09:00-19:30', 'Fri': '09:00-19:30', 'Sat': '09:00-19:30', 'Sun': ''}}",Alès,+33466922901,0070049800498,,https://www.decathlon.fr/store-locator
31 rue de Béthune,Decathlon,LILLE,59000,FR,"{'brand': 'Decathlon', 'fascia': 'Decathlon', 'category': 'Sports', 'edit_date': '20250310', 'lat_lon_source': 'website'}",50.63442802291519,3.063940283397666,"{'opening_hours': {'Mon': '10:00-19:30', 'Tue': '10:00-19:30', 'Wed': '10:00-19:30', 'Thu': '10:00-19:30', 'Fri': '10:00-19:30', 'Sat': '10:00-19:30', 'Sun': ''}}",Decathlon City Lille LE 31,+33320121275,0070050400504,,https://www.decathlon.fr/store-locator
25 allée du premier mai,Decathlon,CROISSY BEAUBOURG,77183,FR,"{'brand': 'Decathlon', 'fascia': 'Decathlon', 'category': 'Sports', 'edit_date': '20250310', 'lat_lon_source': 'website'}",48.82932049999999,2.6367163,"{'opening_hours': {'Mon': '09:00-20:00', 'Tue': '09:00-20:00', 'Wed': '09:00-20:00', 'Thu': '09:00-20:00', 'Fri': '09:00-20:00', 'Sat': '09:00-20:00', 'Sun': '10:00-19:30'}}",Croissy Beaubourg,+33160952470,0070050500505,,https://www.decathlon.fr/store-locator
1 rue du Pavé Stratégique,Decathlon,Marcq en Baroeul,59700,FR,"{'brand': 'Decathlon', 'fascia': 'Decathlon', 'category': 'Sports', 'edit_date': '20250310', 'lat_lon_source': 'website'}",50.6854,3.0895,"{'opening_hours': {'Mon': '09:30-19:30', 'Tue': '09:30-19:30', 'Wed': '09:30-19:30', 'Thu': '09:30-19:30', 'Fri': '09:30-19:30', 'Sat': '09:30-19:30', 'Sun': ''}}",Fitness Store,+33362722700,0070051800518,,https://www.decathlon.fr/store-locator
ROUTE DE MARSEILLE - ZAC DES PORTES DE PROVENCE,Decathlon,MONTÉLIMAR,26200,FR,"{'brand': 'Decathlon', 'fascia': 'Decathlon', 'category': 'Sports', 'edit_date': '20250310', 'lat_lon_source': 'website'}",44.52635748299064,4.744739461593661,"{'opening_hours': {'Mon': '09:00-19:30', 'Tue': '09:00-19:30', 'Wed': '09:00-19:30', 'Thu': '09:00-19:30', 'Fri': '09:00-19:30', 'Sat': '09:00-19:30', 'Sun': ''}}",MONTÉLIMAR ,+33475531990,0070052200522,,https://www.decathlon.fr/store-locator
2 Place de la défense,Decathlon,Puteaux,92800,FR,"{'brand': 'Decathlon', 'fascia': 'Decathlon', 'category': 'Sports', 'edit_date': '20250310', 'lat_lon_source': 'website'}",48.892725,2.23983,"{'opening_hours': {'Mon': '09:30-20:00', 'Tue': '09:30-20:00', 'Wed': '09:30-20:00', 'Thu': '09:30-20:00', 'Fri': '09:30-20:00', 'Sat': '09:30-20:00', 'Sun': '09:30-20:00'}}",Paris CNIT - LA DEFENSE,+33149037520,0070053900539,,https://www.decathlon.fr/store-locator
Route des Bauges,Decathlon,Grésy-sur-Aix,73100,FR,"{'brand': 'Decathlon', 'fascia': 'Decathlon', 'category': 'Sports', 'edit_date': '20250310', 'lat_lon_source': 'website'}",45.718899205212,5.9232903868638,"{'opening_hours': {'Mon': '09:30-19:00', 'Tue': '09:30-19:00', 'Wed': '09:30-19:00', 'Thu': '09:30-19:00', 'Fri': '09:30-19:00', 'Sat': '09:30-19:00', 'Sun': ''}}",Grésy sur Aix (Aix les Bains),+33479881990,0070054100541,,https://www.decathlon.fr/store-locator
22 Rue François-Xavier Bichat,Decathlon,DOLE,39100,FR,"{'brand': 'Decathlon', 'fascia': 'Decathlon', 'category': 'Sports', 'edit_date': '20250310', 'lat_lon_source': 'website'}",47.111461315625,5.5093952316437,"{'opening_hours': {'Mon': '09:30-19:00', 'Tue': '09:30-19:00', 'Wed': '09:30-19:00', 'Thu': '09:30-19:00', 'Fri': '09:30-19:00', 'Sat': '09:30-19:00', 'Sun': ''}}",Dole,+33384694590,0070054600546,,https://www.decathlon.fr/store-locator
Centre commercial du Bréau,Decathlon,VARENNES SUR SEINE,77130,FR,"{'brand': 'Decathlon', 'fascia': 'Decathlon', 'category': 'Sports', 'edit_date': '20250310', 'lat_lon_source': 'website'}",48.36295232443,2.9544894698029,"{'opening_hours': {'Mon': '09:30-19:30', 'Tue': '09:30-19:30', 'Wed': '09:30-19:30', 'Thu': '09:30-19:30', 'Fri': '09:30-19:30', 'Sat': '09:30-19:30', 'Sun': ''}}",Varennes Sur Seine,+33164695080,0070054900549,,https://www.decathlon.fr/store-locator
ZAC du Moulin Marcille.,Decathlon,Les Ponts de Cé,49130,FR,"{'brand': 'Decathlon', 'fascia': 'Decathlon', 'category': 'Sports', 'edit_date': '20250310', 'lat_lon_source': 'website'}",47.43276023094796,-0.49901655535887546,"{'opening_hours': {'Mon': '09:00-19:30', 'Tue': '09:00-19:30', 'Wed': '09:00-19:30', 'Thu': '09:00-19:30', 'Fri': '09:00-19:30', 'Sat': '09:00-19:30', 'Sun': ''}}",Angers - Les Ponts de Cé,+33241255280,0070055300553,,https://www.decathlon.fr/store-locator
ZA Les Sardines,Decathlon,BERGERAC,24100,FR,"{'brand': 'Decathlon', 'fascia': 'Decathlon', 'category': 'Sports', 'edit_date': '20250310', 'lat_lon_source': 'website'}",44.829045587963,0.47010579364014,"{'opening_hours': {'Mon': '09:00-19:30', 'Tue': '09:00-19:30', 'Wed': '09:00-19:30', 'Thu': '09:00-19:30', 'Fri': '09:00-19:30', 'Sat': '09:00-19:30', 'Sun': ''}}",Bergerac,+33553740340,0070055400554,,https://www.decathlon.fr/store-locator
PARC DES MOULINS - 79 route de Chevreux,Decathlon,SOISSONS,02200,FR,"{'brand': 'Decathlon', 'fascia': 'Decathlon', 'category': 'Sports', 'edit_date': '20250310', 'lat_lon_source': 'website'}",49.361692089766,3.3192306296387,"{'opening_hours': {'Mon': '09:30-19:00', 'Tue': '09:30-19:00', 'Wed': '09:30-19:00', 'Thu': '09:30-19:00', 'Fri': '09:30-19:00', 'Sat': '09:30-19:00', 'Sun': ''}}",Decathlon Soissons,+33364910013,0070060300603,,https://www.decathlon.fr/store-locator
25 rue de la Désirée,Decathlon,CHATELLERAULT,86100,FR,"{'brand': 'Decathlon', 'fascia': 'Decathlon', 'category': 'Sports', 'edit_date': '20250310', 'lat_lon_source': 'website'}",46.8359135,0.5405736999999999,"{'opening_hours': {'Mon': '09:00-19:00', 'Tue': '09:00-19:00', 'Wed': '09:00-19:00', 'Thu': '09:00-19:00', 'Fri': '09:00-19:00', 'Sat': '09:00-19:00', 'Sun': ''}}",Chatellerault,+33549903003,0070060500605,,https://www.decathlon.fr/store-locator
10 rue Jean Monnet,Decathlon,PORNIC,44210,FR,"{'brand': 'Decathlon', 'fascia': 'Decathlon', 'category': 'Sports', 'edit_date': '20250310', 'lat_lon_source': 'website'}",47.1268931,-2.1167052,"{'opening_hours': {'Mon': '09:00-19:00', 'Tue': '09:00-19:00', 'Wed': '09:00-19:00', 'Thu': '09:00-19:00', 'Fri': '09:00-19:00', 'Sat': '09:00-19:00', 'Sun': ''}}",Decathlon Pornic,+33249118000,0070061000610,,https://www.decathlon.fr/store-locator
1 De Melaudie ZAC de la Baute,Decathlon,Le Sequestre,81990,FR,"{'brand': 'Decathlon', 'fascia': 'Decathlon', 'category': 'Sports', 'edit_date': '20250310', 'lat_lon_source': 'website'}",43.9159597,2.1107253,"{'opening_hours': {'Mon': '09:00-19:30', 'Tue': '09:00-19:30', 'Wed': '09:00-19:30', 'Thu': '09:00-19:30', 'Fri': '09:00-19:30', 'Sat': '09:00-19:30', 'Sun': ''}}",Albi,+33563362967,0070064000640,,https://www.decathlon.fr/store-locator
1 Bis Rue de bellegarde,Decathlon,SAINTES,17100,FR,"{'brand': 'Decathlon', 'fascia': 'Decathlon', 'category': 'Sports', 'edit_date': '20250310', 'lat_lon_source': 'website'}",45.749749154152,-0.67598135714721,"{'opening_hours': {'Mon': '09:00-19:00', 'Tue': '09:00-19:00', 'Wed': '09:00-19:00', 'Thu': '09:00-19:00', 'Fri': '09:00-19:00', 'Sat': '09:00-19:00', 'Sun': ''}}",Saintes,+33546907865,0070064100641,,https://www.decathlon.fr/store-locator
4 rue du Professeur Langevin.,Decathlon,LILLE,59000,FR,"{'brand': 'Decathlon', 'fascia': 'Decathlon', 'category': 'Sports', 'edit_date': '20250310', 'lat_lon_source': 'website'}",50.617364135841,3.0844783888855,"{'opening_hours': {'Mon': '10:00-19:30', 'Tue': '10:00-19:30', 'Wed': '10:00-19:30', 'Thu': '10:00-19:30', 'Fri': '10:00-19:30', 'Sat': '10:00-19:30', 'Sun': ''}}",BTWIN Village - Decathlon Cycle Lille,+33320198080,0070064800648,,https://www.decathlon.fr/store-locator
1522 AVENUE D'ANTIBES,Decathlon,AMILLY,45200,FR,"{'brand': 'Decathlon', 'fascia': 'Decathlon', 'category': 'Sports', 'edit_date': '20250310', 'lat_lon_source': 'website'}",47.973216,2.732727,"{'opening_hours': {'Mon': '09:00-19:30', 'Tue': '09:00-19:30', 'Wed': '09:00-19:30', 'Thu': '09:00-19:30', 'Fri': '09:00-19:30', 'Sat': '09:00-19:30', 'Sun': ''}}",Montargis - Amilly,+33238940740,0070065200652,,https://www.decathlon.fr/store-locator
"Rue du 19 Mars 1962, Centre commercial Intermarché",Decathlon,Arbent,01100,FR,"{'brand': 'Decathlon', 'fascia': 'Decathlon', 'category': 'Sports', 'edit_date': '20250310', 'lat_lon_source': 'website'}",46.28253746478739,5.662237689007559,"{'opening_hours': {'Mon': '09:30-19:00', 'Tue': '09:30-19:00', 'Wed': '09:30-19:00', 'Thu': '09:30-19:00', 'Fri': '09:30-19:00', 'Sat': '09:30-19:00', 'Sun': ''}}",Oyonnax Arbent,+33474765645,0070065800658,,https://www.decathlon.fr/store-locator
18 Avenue Jean Burel,Decathlon,SAINT NICOLAS DE REDON,44460,FR,"{'brand': 'Decathlon', 'fascia': 'Decathlon', 'category': 'Sports', 'edit_date': '20250310', 'lat_lon_source': 'website'}",47.645322,-2.074717,"{'opening_hours': {'Mon': '09:00-19:00', 'Tue': '09:00-19:00', 'Wed': '09:00-19:00', 'Thu': '09:00-19:00', 'Fri': '09:00-19:00', 'Sat': '09:00-19:00', 'Sun': ''}}",Decathlon Redon,+33299933432,0070066200662,,https://www.decathlon.fr/store-locator
Pôle commercial du Comtal,Decathlon,ONET LE CHATEAU,12850,FR,"{'brand': 'Decathlon', 'fascia': 'Decathlon', 'category': 'Sports', 'edit_date': '20250310', 'lat_lon_source': 'website'}",44.395776,2.605752,"{'opening_hours': {'Mon': '09:00-19:30', 'Tue': '09:00-19:30', 'Wed': '09:00-19:30', 'Thu': '09:00-19:30', 'Fri': '09:00-19:30', 'Sat': '09:00-19:30', 'Sun': ''}}",Rodez - Onet le Château,+33565584540,0070069100691,,https://www.decathlon.fr/store-locator
"Rue Danton, ZAC des Cailloux ( Rue de Verdun)",Decathlon,CALAIS,62100,FR,"{'brand': 'Decathlon', 'fascia': 'Decathlon', 'category': 'Sports', 'edit_date': '20250310', 'lat_lon_source': 'website'}",50.939372420205466,1.839912815344249,"{'opening_hours': {'Mon': '09:30-19:30', 'Tue': '09:30-19:30', 'Wed': '09:30-19:30', 'Thu': '09:30-19:30', 'Fri': '09:30-19:30', 'Sat': '09:30-19:30', 'Sun': ''}}",Decathlon Calais,+33321000500,0070069200692,,https://www.decathlon.fr/store-locator
Zone du Tubé avenue clément Ader,Decathlon,Istres,13800,FR,"{'brand': 'Decathlon', 'fascia': 'Decathlon', 'category': 'Sports', 'edit_date': '20250310', 'lat_lon_source': 'website'}",43.526724163073,4.9589848121644,"{'opening_hours': {'Mon': '09:30-19:30', 'Tue': '09:30-19:30', 'Wed': '09:30-19:30', 'Thu': '09:30-19:30', 'Fri': '09:30-19:30', 'Sat': '09:30-19:30', 'Sun': ''}}",Istres,+33442474140,0070069300693,,https://www.decathlon.fr/store-locator
ZAC les Sauges Rue André Roz,Decathlon,Doubs,25300,FR,"{'brand': 'Decathlon', 'fascia': 'Decathlon', 'category': 'Sports', 'edit_date': '20250310', 'lat_lon_source': 'website'}",46.924682112256,6.3397762612381,"{'opening_hours': {'Mon': '09:30-19:00', 'Tue': '09:30-19:00', 'Wed': '09:30-19:00', 'Thu': '09:30-19:00', 'Fri': '09:30-19:00', 'Sat': '09:30-19:00', 'Sun': ''}}",Pontarlier - Doubs,+33381383030,0070069400694,,https://www.decathlon.fr/store-locator
"CAP RANCE, Route de Dinard",Decathlon,TADEN,22100,FR,"{'brand': 'Decathlon', 'fascia': 'Decathlon', 'category': 'Sports', 'edit_date': '20250310', 'lat_lon_source': 'website'}",48.475374079441,-2.0411662468796,"{'opening_hours': {'Mon': '09:30-19:00', 'Tue': '09:30-19:00', 'Wed': '09:30-19:00', 'Thu': '09:30-19:00', 'Fri': '09:30-19:00', 'Sat': '09:30-19:00', 'Sun': ''}}",Dinan - Taden,+33296417569,0070072000720,,https://www.decathlon.fr/store-locator
778 Boulevard de la prairie,Decathlon,ST GEREON,44150,FR,"{'brand': 'Decathlon', 'fascia': 'Decathlon', 'category': 'Sports', 'edit_date': '20250310', 'lat_lon_source': 'website'}",47.375406169684176,-1.1978351144332544,"{'opening_hours': {'Mon': '09:00-19:00', 'Tue': '09:00-19:00', 'Wed': '09:00-19:00', 'Thu': '09:00-19:00', 'Fri': '09:00-19:00', 'Sat': '09:00-19:00', 'Sun': ''}}",Decathlon Ancenis - Saint Géréon,+33240091829,0070072100721,,https://www.decathlon.fr/store-locator
19 avenue Michel Croz,Decathlon,CHAMONIX,74400,FR,"{'brand': 'Decathlon', 'fascia': 'Decathlon', 'category': 'Sports', 'edit_date': '20250310', 'lat_lon_source': 'website'}",45.92366452838822,6.8701325881481035,"{'opening_hours': {'Mon': '09:30-19:30', 'Tue': '09:30-19:30', 'Wed': '09:30-19:30', 'Thu': '09:30-19:30', 'Fri': '09:30-19:30', 'Sat': '09:30-19:30', 'Sun': '10:00-19:00'}}",Decathlon City Chamonix ,+33450936342,0070072300723,,https://www.decathlon.fr/store-locator
"Zone GREEN 7, RN7, Avenue Plein Sud",Decathlon,Salaise Sur Sanne,38150,FR,"{'brand': 'Decathlon', 'fascia': 'Decathlon', 'category': 'Sports', 'edit_date': '20250310', 'lat_lon_source': 'website'}",45.327709313817,4.8049222050324,"{'opening_hours': {'Mon': '09:00-19:30', 'Tue': '09:00-19:30', 'Wed': '09:00-19:30', 'Thu': '09:00-19:30', 'Fri': '09:00-19:30', 'Sat': '09:00-19:30', 'Sun': ''}}",Salaise Sur Sanne,+33474319215,0070072400724,,https://www.decathlon.fr/store-locator
24 Route de Champbenoist,Decathlon,Provins,77160,FR,"{'brand': 'Decathlon', 'fascia': 'Decathlon', 'category': 'Sports', 'edit_date': '20250310', 'lat_lon_source': 'website'}",48.554205919301,3.2988760527786,"{'opening_hours': {'Mon': '09:30-19:00', 'Tue': '09:30-19:00', 'Wed': '09:30-19:00', 'Thu': '09:30-19:00', 'Fri': '09:30-19:00', 'Sat': '09:30-19:00', 'Sun': ''}}",Provins,+33164609300,0070072700727,,https://www.decathlon.fr/store-locator
Zone commerciale Porte des Vosges,Decathlon,BESSONCOURT,90160,FR,"{'brand': 'Decathlon', 'fascia': 'Decathlon', 'category': 'Sports', 'edit_date': '20250310', 'lat_lon_source': 'website'}",47.64399881847,6.9158133172607,"{'opening_hours': {'Mon': '09:30-19:00', 'Tue': '09:30-19:00', 'Wed': '09:30-19:00', 'Thu': '09:30-19:00', 'Fri': '09:30-19:00', 'Sat': '09:30-19:00', 'Sun': ''}}",Belfort - Bessoncourt,+33384285418,0070075300753,,https://www.decathlon.fr/store-locator
"Rue Aimé Césaire, zone de Colguen",Decathlon,Concarneau,29900,FR,"{'brand': 'Decathlon', 'fascia': 'Decathlon', 'category': 'Sports', 'edit_date': '20250310', 'lat_lon_source': 'website'}",47.901903010947,-3.9074371268448,"{'opening_hours': {'Mon': '09:30-19:00', 'Tue': '09:30-19:00', 'Wed': '09:30-19:00', 'Thu': '09:30-19:00', 'Fri': '09:30-19:00', 'Sat': '09:30-19:00', 'Sun': ''}}",CONCARNEAU,+33222251250,0070076200762,,https://www.decathlon.fr/store-locator
1963 AVENUE FREDERIC MISTRAL,Decathlon,CHASSE SUR RHONE,38670,FR,"{'brand': 'Decathlon', 'fascia': 'Decathlon', 'category': 'Sports', 'edit_date': '20250310', 'lat_lon_source': 'website'}",45.572238310287,4.8128487743439,"{'opening_hours': {'Mon': '09:00-19:30', 'Tue': '09:00-19:30', 'Wed': '09:00-19:30', 'Thu': '09:00-19:30', 'Fri': '09:00-19:30', 'Sat': '09:00-19:30', 'Sun': ''}}",Chasse sur Rhône,+33481110040,0070076500765,,https://www.decathlon.fr/store-locator
15 Rue Marceau,Decathlon,GRENOBLE,38000,FR,"{'brand': 'Decathlon', 'fascia': 'Decathlon', 'category': 'Sports', 'edit_date': '20250310', 'lat_lon_source': 'website'}",45.184061674149,5.72370361996,"{'opening_hours': {'Mon': '10:00-19:30', 'Tue': '10:00-19:30', 'Wed': '10:00-19:30', 'Thu': '10:00-19:30', 'Fri': '10:00-19:30', 'Sat': '10:00-19:30', 'Sun': ''}}",Grenoble Centre-Ville (centre commercial Caserne de Bonne),+33480041320,0070077300773,,https://www.decathlon.fr/store-locator
Zone commerciale Porte de Bourgogne - Plaine de Champbertrand,Decathlon,Sens,89100,FR,"{'brand': 'Decathlon', 'fascia': 'Decathlon', 'category': 'Sports', 'edit_date': '20250310', 'lat_lon_source': 'website'}",48.171708131663,3.2879544196045,"{'opening_hours': {'Mon': '09:30-19:00', 'Tue': '09:30-19:00', 'Wed': '09:30-19:00', 'Thu': '09:30-19:00', 'Fri': '09:30-19:00', 'Sat': '09:30-19:00', 'Sun': ''}}",Sens,+33386831075,0070077400774,,https://www.decathlon.fr/store-locator
90A boulevard Jean XXIII,Decathlon,CHALLANS,85300,FR,"{'brand': 'Decathlon', 'fascia': 'Decathlon', 'category': 'Sports', 'edit_date': '20250310', 'lat_lon_source': 'website'}",46.837191602081646,-1.8737444334822984,"{'opening_hours': {'Mon': '09:30-19:00', 'Tue': '09:30-19:00', 'Wed': '09:30-19:00', 'Thu': '09:30-19:00', 'Fri': '09:30-19:00', 'Sat': '09:30-19:00', 'Sun': ''}}",Challans,+33251496705,0070077800778,,https://www.decathlon.fr/store-locator
112 QUAI DE LA REUNION,Decathlon,LE HAVRE,76600,FR,"{'brand': 'Decathlon', 'fascia': 'Decathlon', 'category': 'Sports', 'edit_date': '20250310', 'lat_lon_source': 'website'}",49.488812562967,0.13296680118866,"{'opening_hours': {'Mon': '10:00-20:00', 'Tue': '10:00-20:00', 'Wed': '10:00-20:00', 'Thu': '10:00-20:00', 'Fri': '10:00-20:00', 'Sat': '10:00-20:00', 'Sun': '10:00-19:00'}}",Le Havre Les Docks,+33277941240,0070077900779,,https://www.decathlon.fr/store-locator
40 Avenue des Citées Unies,Decathlon,PONTIVY,56300,FR,"{'brand': 'Decathlon', 'fascia': 'Decathlon', 'category': 'Sports', 'edit_date': '20250310', 'lat_lon_source': 'website'}",48.0542578,-2.9528502,"{'opening_hours': {'Mon': '09:00-19:00', 'Tue': '09:00-19:00', 'Wed': '09:00-19:00', 'Thu': '09:00-19:00', 'Fri': '09:00-19:00', 'Sat': '09:00-19:00', 'Sun': ''}}",Pontivy,+33297270650,0070081200812,,https://www.decathlon.fr/store-locator
Zone commerciale Le Forum - Rue des frères Lumière,Decathlon,Coignières,78310,FR,"{'brand': 'Decathlon', 'fascia': 'Decathlon', 'category': 'Sports', 'edit_date': '20250310', 'lat_lon_source': 'website'}",48.757978188321,1.9352526962952,"{'opening_hours': {'Mon': '10:00-19:30', 'Tue': '10:00-19:30', 'Wed': '10:00-19:30', 'Thu': '10:00-19:30', 'Fri': '10:00-19:30', 'Sat': '10:00-19:30', 'Sun': '10:00-19:00'}}",Coignières,+33179921370,0070081800818,,https://www.decathlon.fr/store-locator
"1840, Route de Frans",Decathlon,Villefranche sur Saône,69400,FR,"{'brand': 'Decathlon', 'fascia': 'Decathlon', 'category': 'Sports', 'edit_date': '20250310', 'lat_lon_source': 'website'}",45.982338582861,4.7439057632294,"{'opening_hours': {'Mon': '09:00-19:30', 'Tue': '09:00-19:30', 'Wed': '09:00-19:30', 'Thu': '09:00-19:30', 'Fri': '09:00-19:30', 'Sat': '09:00-19:30', 'Sun': ''}}",Villefranche sur Saône,+33469472820,0070083400834,,https://www.decathlon.fr/store-locator
"Les Terrasses du Port, 9 Quai du Lazaret, Lot 50117",Decathlon,Marseille Cedex 2,13002,FR,"{'brand': 'Decathlon', 'fascia': 'Decathlon', 'category': 'Sports', 'edit_date': '20250310', 'lat_lon_source': 'website'}",43.306066807376,5.3651014748688,"{'opening_hours': {'Mon': '10:00-20:00', 'Tue': '10:00-20:00', 'Wed': '10:00-20:00', 'Thu': '10:00-20:00', 'Fri': '10:00-20:00', 'Sat': '10:00-20:00', 'Sun': '10:00-20:00'}}",Marseille Terrasses du port,+330413420880,0070084600846,,https://www.decathlon.fr/store-locator
100 bld Oscar Niemeyer,Decathlon,SAINT PIERRE DU MONT,40280,FR,"{'brand': 'Decathlon', 'fascia': 'Decathlon', 'category': 'Sports', 'edit_date': '20250310', 'lat_lon_source': 'website'}",43.86728681303728,-0.4790716904602088,"{'opening_hours': {'Mon': '09:00-19:30', 'Tue': '09:00-19:30', 'Wed': '09:00-19:30', 'Thu': '09:00-19:30', 'Fri': '09:00-19:30', 'Sat': '09:00-19:30', 'Sun': ''}}",Mont-de-Marsan,+33533440070,0070086700867,,https://www.decathlon.fr/store-locator
32 Boulevard du Vendée Globe,Decathlon,Olonne-Sur-Mer,85340,FR,"{'brand': 'Decathlon', 'fascia': 'Decathlon', 'category': 'Sports', 'edit_date': '20250310', 'lat_lon_source': 'website'}",46.513652065137,-1.7880704012604,"{'opening_hours': {'Mon': '09:30-19:00', 'Tue': '09:30-19:00', 'Wed': '09:30-19:00', 'Thu': '09:30-19:00', 'Fri': '09:30-19:00', 'Sat': '09:30-19:00', 'Sun': ''}}",Les Sables d'Olonne - Olonne-sur-Mer,+330253320080,0070089900899,,https://www.decathlon.fr/store-locator
"Kipstadium, 70 rue de l'Union",Decathlon,Tourcoing,59200,FR,"{'brand': 'Decathlon', 'fascia': 'Decathlon', 'category': 'Sports', 'edit_date': '20250310', 'lat_lon_source': 'website'}",50.7099,3.1737,"{'opening_hours': {'Mon': '09:00-12:00, 13:30-18:30', 'Tue': '09:00-12:00, 13:30-18:30', 'Wed': '09:00-12:00, 13:30-18:30', 'Thu': '09:00-12:00, 13:30-18:30', 'Fri': '09:00-12:00, 13:30-18:30', 'Sat': '', 'Sun': ''}}",Point de collecte - Kipstadium -  Espace Clubs et Assos,+330969321442,0070093300933,,https://www.decathlon.fr/store-locator
"Centre commercial Atrium , lieu dit Pernicaggio",Decathlon,SARROLA CARCOPINO,20167,FR,"{'brand': 'Decathlon', 'fascia': 'Decathlon', 'category': 'Sports', 'edit_date': '20250310', 'lat_lon_source': 'website'}",41.9543,8.7961,"{'opening_hours': {'Mon': '09:30-19:00', 'Tue': '09:30-19:00', 'Wed': '09:30-19:00', 'Thu': '09:30-19:00', 'Fri': '09:30-19:00', 'Sat': '09:30-19:00', 'Sun': ''}}",Ajaccio,+33495211211,0070106701067,,https://www.decathlon.fr/store-locator
108 rue de Borolan,Decathlon,Chambéry,73000,FR,"{'brand': 'Decathlon', 'fascia': 'Decathlon', 'category': 'Sports', 'edit_date': '20250310', 'lat_lon_source': 'website'}",45.6081,5.8893,"{'opening_hours': {'Mon': '09:30-19:00', 'Tue': '09:30-19:00', 'Wed': '09:30-19:00', 'Thu': '09:30-19:00', 'Fri': '09:30-19:00', 'Sat': '09:30-19:00', 'Sun': ''}}",Chambéry Essentiel ,+33479751550,0070110701107,,https://www.decathlon.fr/store-locator
ROUTE DE MONTÉLIMAR -  ZAC LES TERRES DE MILLET,Decathlon,SAINT-DIDIER-SOUS-AUBENAS,07200,FR,"{'brand': 'Decathlon', 'fascia': 'Decathlon', 'category': 'Sports', 'edit_date': '20250310', 'lat_lon_source': 'website'}",44.6128326112089,4.410284014294437,"{'opening_hours': {'Mon': '09:00-19:00', 'Tue': '09:00-19:00', 'Wed': '09:00-19:00', 'Thu': '09:00-19:00', 'Fri': '09:00-19:00', 'Sat': '09:00-19:00', 'Sun': ''}}",AUBENAS,+33475938536,0070110801108,,https://www.decathlon.fr/store-locator
"Zone commerciale leclerc, Rue Descartes",Decathlon,CHAMBRY,02000,FR,"{'brand': 'Decathlon', 'fascia': 'Decathlon', 'category': 'Sports', 'edit_date': '20250310', 'lat_lon_source': 'website'}",49.58925410317992,3.649630915344253,"{'opening_hours': {'Mon': '09:30-19:00', 'Tue': '09:30-19:00', 'Wed': '09:30-19:00', 'Thu': '09:30-19:00', 'Fri': '09:30-19:00', 'Sat': '09:30-19:00', 'Sun': ''}}",Decathlon Essentiel Laon - Chambry,+33323213136,0070110901109,,https://www.decathlon.fr/store-locator
61 Avenue Division Leclerc,Decathlon,Coutances,50200,FR,"{'brand': 'Decathlon', 'fascia': 'Decathlon', 'category': 'Sports', 'edit_date': '20250310', 'lat_lon_source': 'website'}",49.063198,-1.433665,"{'opening_hours': {'Mon': '09:30-19:00', 'Tue': '09:30-19:00', 'Wed': '09:30-19:00', 'Thu': '09:30-19:00', 'Fri': '09:30-19:00', 'Sat': '09:30-19:00', 'Sun': ''}}",Coutances Essentiel ,+33233453123,0070111201112,,https://www.decathlon.fr/store-locator
Avenue du Général de Gaulle,Decathlon,ESSÔMES-SUR-MARNE,02400,FR,"{'brand': 'Decathlon', 'fascia': 'Decathlon', 'category': 'Sports', 'edit_date': '20250310', 'lat_lon_source': 'website'}",49.0339192862239,3.3795721058349804,"{'opening_hours': {'Mon': '09:30-19:00', 'Tue': '09:30-19:00', 'Wed': '09:30-19:00', 'Thu': '09:30-19:00', 'Fri': '09:30-19:00', 'Sat': '09:30-19:00', 'Sun': ''}}",Decathlon Essentiel Château-Thierry,+33323823113,0070111501115,,https://www.decathlon.fr/store-locator
Centre Commercial Citea  2 Quai Continsouza,Decathlon,Tulle,19000,FR,"{'brand': 'Decathlon', 'fascia': 'Decathlon', 'category': 'Sports', 'edit_date': '20250310', 'lat_lon_source': 'website'}",45.273139,1.774678,"{'opening_hours': {'Mon': '09:30-12:30, 13:30-19:00', 'Tue': '09:30-12:30, 13:30-19:00', 'Wed': '09:30-12:30, 13:30-19:00', 'Thu': '09:30-12:30, 13:30-19:00', 'Fri': '09:30-12:30, 13:30-19:00', 'Sat': '09:30-12:30, 13:30-19:00', 'Sun': ''}}",Tulle Essentiel ,+33555262850,0070111601116,,https://www.decathlon.fr/store-locator
Zone Commerciale de la Ville Es Meniers,Decathlon,Pleurtuit,35730,FR,"{'brand': 'Decathlon', 'fascia': 'Decathlon', 'category': 'Sports', 'edit_date': '20250310', 'lat_lon_source': 'website'}",48.614441,-2.061103,"{'opening_hours': {'Mon': '09:30-19:00', 'Tue': '09:30-19:00', 'Wed': '09:30-19:00', 'Thu': '', 'Fri': '09:30-19:00', 'Sat': '09:30-19:00', 'Sun': ''}}",Dinard Pleurtuit,+33299880210,0070112001120,,https://www.decathlon.fr/store-locator
Parc commercial val de durance,Decathlon,Sisteron,04200,FR,"{'brand': 'Decathlon', 'fascia': 'Decathlon', 'category': 'Sports', 'edit_date': '20250310', 'lat_lon_source': 'website'}",44.23659346866281,5.909529330160639,"{'opening_hours': {'Mon': '09:30-19:00', 'Tue': '09:30-19:00', 'Wed': '09:30-19:00', 'Thu': '09:30-19:00', 'Fri': '09:30-19:00', 'Sat': '09:30-19:00', 'Sun': ''}}",Sisteron Essentiel ,+33492301052,0070112301123,,https://www.decathlon.fr/store-locator
Centre Commercial Villebon 2 Avenue de la Plesse,Decathlon,Villebon-sur-Yvette,91140,FR,"{'brand': 'Decathlon', 'fascia': 'Decathlon', 'category': 'Sports', 'edit_date': '20250310', 'lat_lon_source': 'website'}",48.702524,2.25654,"{'opening_hours': {'Mon': '10:00-20:00', 'Tue': '10:00-20:00', 'Wed': '10:00-20:00', 'Thu': '10:00-20:00', 'Fri': '10:00-20:00', 'Sat': '10:00-20:00', 'Sun': '10:00-19:00'}}",Villebon Sur Yvette Essentiel ,+33169312722,0070112501125,,https://www.decathlon.fr/store-locator
"Rue Nationale Les Mazurieux, Zone Commerciale Saint Jacques",Decathlon,TRIE-CHÂTEAU,60590,FR,"{'brand': 'Decathlon', 'fascia': 'Decathlon', 'category': 'Sports', 'edit_date': '20250310', 'lat_lon_source': 'website'}",49.2879428,1.8015911,"{'opening_hours': {'Mon': '09:30-19:00', 'Tue': '09:30-19:00', 'Wed': '09:30-19:00', 'Thu': '09:30-19:00', 'Fri': '09:30-19:00', 'Sat': '09:30-19:00', 'Sun': ''}}",Decathlon Essentiel Trie-Château,+33344122498,0070112601126,,https://www.decathlon.fr/store-locator
Rue du Saule Gaillard,Decathlon,Frouard,54390,FR,"{'brand': 'Decathlon', 'fascia': 'Decathlon', 'category': 'Sports', 'edit_date': '20250310', 'lat_lon_source': 'website'}",48.747943068381474,6.14652400559617,"{'opening_hours': {'Mon': '09:30-19:00', 'Tue': '09:30-19:00', 'Wed': '09:30-19:00', 'Thu': '09:30-19:00', 'Fri': '09:30-19:00', 'Sat': '09:30-19:00', 'Sun': ''}}",Frouard Essentiel ,+33383546224,0070112801128,,https://www.decathlon.fr/store-locator
Rue de la Rochelle,Decathlon,Lempdes,63370,FR,"{'brand': 'Decathlon', 'fascia': 'Decathlon', 'category': 'Sports', 'edit_date': '20250310', 'lat_lon_source': 'website'}",45.78142100702335,3.2009182260337887,"{'opening_hours': {'Mon': '09:00-19:30', 'Tue': '09:00-19:30', 'Wed': '09:00-19:30', 'Thu': '09:00-19:30', 'Fri': '09:00-19:30', 'Sat': '09:00-19:30', 'Sun': ''}}",Lempdes Essentiel ,+33473615614,0070112901129,,https://www.decathlon.fr/store-locator
Rue René Collin,Decathlon,RENNES,35000,FR,"{'brand': 'Decathlon', 'fascia': 'Decathlon', 'category': 'Sports', 'edit_date': '20250310', 'lat_lon_source': 'website'}",48.1323062,-1.6900398,"{'opening_hours': {'Mon': '10:00-19:30', 'Tue': '10:00-19:30', 'Wed': '10:00-19:30', 'Thu': '10:00-19:30', 'Fri': '10:00-19:30', 'Sat': '09:30-19:30', 'Sun': ''}}",Decathlon Rennes Essentiel ,+33299335724,0070113001130,,https://www.decathlon.fr/store-locator
"Rue Cesar Vuarchex, ZC Val d'Arve",Decathlon,SCIONZIER,74950,FR,"{'brand': 'Decathlon', 'fascia': 'Decathlon', 'category': 'Sports', 'edit_date': '20250310', 'lat_lon_source': 'website'}",46.069548069323,6.5494477718277,"{'opening_hours': {'Mon': '09:30-19:00', 'Tue': '09:30-19:00', 'Wed': '09:30-19:00', 'Thu': '09:30-19:00', 'Fri': '09:30-19:00', 'Sat': '09:30-19:00', 'Sun': ''}}",Cluses - Scionzier,+33450479270,0070130201302,,https://www.decathlon.fr/store-locator
203 Boulevard Macdonald,Decathlon,Paris,75019,FR,"{'brand': 'Decathlon', 'fascia': 'Decathlon', 'category': 'Sports', 'edit_date': '20250310', 'lat_lon_source': 'website'}",48.89831,2.3724464,"{'opening_hours': {'Mon': '10:00-20:00', 'Tue': '10:00-20:00', 'Wed': '10:00-20:00', 'Thu': '10:00-20:00', 'Fri': '10:00-20:00', 'Sat': '10:00-20:00', 'Sun': ''}}",Paris 19 - Rosa Parks,+33140341975,0070137501375,,https://www.decathlon.fr/store-locator
ZAC les portes de l' Allier,Decathlon,Avermes,03000,FR,"{'brand': 'Decathlon', 'fascia': 'Decathlon', 'category': 'Sports', 'edit_date': '20250310', 'lat_lon_source': 'website'}",46.590449939636,3.3257589194489,"{'opening_hours': {'Mon': '09:00-19:30', 'Tue': '09:00-19:30', 'Wed': '09:00-19:30', 'Thu': '09:00-19:30', 'Fri': '09:00-19:30', 'Sat': '09:00-19:30', 'Sun': ''}}",Moulins Avermes,+33470465657,0070138401384,,https://www.decathlon.fr/store-locator
953 Bd d'alger,Decathlon,FREJUS,83600,FR,"{'brand': 'Decathlon', 'fascia': 'Decathlon', 'category': 'Sports', 'edit_date': '20250310', 'lat_lon_source': 'website'}",43.4238898,6.7559875,"{'opening_hours': {'Mon': '', 'Tue': '', 'Wed': '', 'Thu': '', 'Fri': '', 'Sat': '', 'Sun': ''}}",Fréjus Plage,+330661851041,0070140901409,,https://www.decathlon.fr/store-locator
"19 bis, rue Jean Monnet, Centre Commercial Les Armoiries",Decathlon,Bry-Sur-Marne,94360,FR,"{'brand': 'Decathlon', 'fascia': 'Decathlon', 'category': 'Sports', 'edit_date': '20250310', 'lat_lon_source': 'website'}",48.829385400103,2.530164022507,"{'opening_hours': {'Mon': '09:30-20:00', 'Tue': '09:30-20:00', 'Wed': '09:30-20:00', 'Thu': '09:30-20:00', 'Fri': '09:30-20:00', 'Sat': '09:30-20:00', 'Sun': '10:00-19:00'}}",Bry-Sur-Marne,+33157109994,0070160101601,,https://www.decathlon.fr/store-locator
"Zone d'Activité du Pré-Jacquet, Centre commercial Val Thoiry",Decathlon,Thoiry,01710,FR,"{'brand': 'Decathlon', 'fascia': 'Decathlon', 'category': 'Sports', 'edit_date': '20250310', 'lat_lon_source': 'website'}",46.228227631234,5.9937319296082,"{'opening_hours': {'Mon': '09:30-20:00', 'Tue': '09:30-20:00', 'Wed': '09:30-20:00', 'Thu': '09:30-20:00', 'Fri': '09:30-20:00', 'Sat': '09:00-20:00', 'Sun': ''}}",Val Thoiry,+33450427244,0070160201602,,https://www.decathlon.fr/store-locator
"La Galerie Val SEMNOZ  , Avenue d'Aix les Bains",Decathlon,SEYNOD,74600,FR,"{'brand': 'Decathlon', 'fascia': 'Decathlon', 'category': 'Sports', 'edit_date': '20250310', 'lat_lon_source': 'website'}",45.876008,6.08798,"{'opening_hours': {'Mon': '09:30-19:30', 'Tue': '09:30-19:30', 'Wed': '09:30-19:30', 'Thu': '09:30-19:30', 'Fri': '09:30-19:30', 'Sat': '09:30-19:30', 'Sun': ''}}",Annecy - Seynod,+33456410600,0070160701607,,https://www.decathlon.fr/store-locator
7 Avenue Saint Menet,Decathlon,Marseille,13011,FR,"{'brand': 'Decathlon', 'fascia': 'Decathlon', 'category': 'Sports', 'edit_date': '20250310', 'lat_lon_source': 'website'}",43.291036,5.482544,"{'opening_hours': {'Mon': '09:00-19:30', 'Tue': '09:00-19:30', 'Wed': '09:00-19:30', 'Thu': '09:00-19:30', 'Fri': '09:00-19:30', 'Sat': '09:00-19:30', 'Sun': ''}}",Marseille La Valentine,+33413423400,0070160801608,,https://www.decathlon.fr/store-locator
6 rue de l'égalité,Decathlon,ABBEVILLE,80100,FR,"{'brand': 'Decathlon', 'fascia': 'Decathlon', 'category': 'Sports', 'edit_date': '20250310', 'lat_lon_source': 'website'}",50.0963402,1.867183,"{'opening_hours': {'Mon': '09:30-19:00', 'Tue': '09:30-19:00', 'Wed': '09:30-19:00', 'Thu': '09:30-19:00', 'Fri': '09:30-19:00', 'Sat': '09:30-19:00', 'Sun': ''}}",Decathlon Abbeville,+33322092713,0070160901609,,https://www.decathlon.fr/store-locator
240 avenue Boucicaut,Decathlon,Saint-André de Cubzac,33240,FR,"{'brand': 'Decathlon', 'fascia': 'Decathlon', 'category': 'Sports', 'edit_date': '20250310', 'lat_lon_source': 'website'}",45.01,-0.4376,"{'opening_hours': {'Mon': '09:30-19:00', 'Tue': '09:30-19:00', 'Wed': '09:30-19:00', 'Thu': '09:30-19:00', 'Fri': '09:30-19:00', 'Sat': '09:30-19:00', 'Sun': ''}}",Saint André de Cubzac,+33524420070,0070161101611,,https://www.decathlon.fr/store-locator
"RN 90, ZA des îles, Centre commercial Val Plagne",Decathlon,aime la plagne,73210,FR,"{'brand': 'Decathlon', 'fascia': 'Decathlon', 'category': 'Sports', 'edit_date': '20250310', 'lat_lon_source': 'website'}",45.55242153285107,6.6444241549804595,"{'opening_hours': {'Mon': '09:00-19:00', 'Tue': '09:00-19:00', 'Wed': '09:00-19:00', 'Thu': '09:00-19:00', 'Fri': '09:00-19:00', 'Sat': '09:00-19:00', 'Sun': ''}}",Aime - La Plagne,+33479222859,0070180001800,,https://www.decathlon.fr/store-locator
21 avenue du Moulin Blanc,Decathlon,Saint-Pierre-d'Oléron,17310,FR,"{'brand': 'Decathlon', 'fascia': 'Decathlon', 'category': 'Sports', 'edit_date': '20250310', 'lat_lon_source': 'website'}",45.93467839541975,-1.3007764606384287,"{'opening_hours': {'Mon': '', 'Tue': '', 'Wed': '', 'Thu': '', 'Fri': '', 'Sat': '', 'Sun': ''}}",Ile d'Oléron Contact,+33762962678,0070187401874,,https://www.decathlon.fr/store-locator
"C.Cial Intermarché, 1 Parking",Decathlon,Saint-Marcel,27950,FR,"{'brand': 'Decathlon', 'fascia': 'Decathlon', 'category': 'Sports', 'edit_date': '20250310', 'lat_lon_source': 'website'}",49.10169,1.454199,"{'opening_hours': {'Mon': '09:00-19:00', 'Tue': '09:00-19:00', 'Wed': '09:00-19:00', 'Thu': '09:00-19:00', 'Fri': '09:00-19:00', 'Sat': '09:00-19:00', 'Sun': ''}}",Vernon - Saint-Marcel Essentiel ,+33232963109,0070187601876,,https://www.decathlon.fr/store-locator
"Z.A, Les Mandeliers",Decathlon,La Guérinière,85680,FR,"{'brand': 'Decathlon', 'fascia': 'Decathlon', 'category': 'Sports', 'edit_date': '20250310', 'lat_lon_source': 'website'}",46.974426759831154,-2.2422436991973815,"{'opening_hours': {'Mon': '09:30-12:30, 14:30-18:30', 'Tue': '09:30-12:30, 14:30-18:30', 'Wed': '09:30-12:30, 14:30-18:30', 'Thu': '09:30-12:30, 14:30-18:30', 'Fri': '09:30-12:30, 14:30-18:30', 'Sat': '09:30-12:30, 14:30-18:30', 'Sun': ''}}",Noirmoutier Contact,+33761541977,0070188201882,,https://www.decathlon.fr/store-locator
339 route des maisons blanches,Decathlon,Briançon,05100,FR,"{'brand': 'Decathlon', 'fascia': 'Decathlon', 'category': 'Sports', 'edit_date': '20250310', 'lat_lon_source': 'website'}",44.882639,6.623321,"{'opening_hours': {'Mon': '09:00-19:00', 'Tue': '09:00-19:00', 'Wed': '09:00-19:00', 'Thu': '09:00-19:00', 'Fri': '09:00-19:00', 'Sat': '09:00-19:00', 'Sun': ''}}",Briançon Essentiel ,+33413420882,0070191201912,,https://www.decathlon.fr/store-locator
"24, Place des Halles, Centre Commercial",Decathlon,STRASBOURG,67000,FR,"{'brand': 'Decathlon', 'fascia': 'Decathlon', 'category': 'Sports', 'edit_date': '20250310', 'lat_lon_source': 'website'}",48.586701,7.741823,"{'opening_hours': {'Mon': '09:00-20:00', 'Tue': '09:00-20:00', 'Wed': '09:00-20:00', 'Thu': '09:00-20:00', 'Fri': '09:00-20:00', 'Sat': '09:00-20:00', 'Sun': ''}}",Strasbourg Les Halles,+33367430042,0070192401924,,https://www.decathlon.fr/store-locator
"15 boulevard du Général Louis Delfino, Centre Commercial TNL",Decathlon,NICE,06000,FR,"{'brand': 'Decathlon', 'fascia': 'Decathlon', 'category': 'Sports', 'edit_date': '20250310', 'lat_lon_source': 'website'}",43.7055147,7.285103,"{'opening_hours': {'Mon': '09:00-20:00', 'Tue': '09:00-20:00', 'Wed': '09:00-20:00', 'Thu': '09:00-20:00', 'Fri': '09:00-20:00', 'Sat': '09:00-20:00', 'Sun': ''}}",Decathlon Nice TNL,+33493747570,0070193301933,,https://www.decathlon.fr/store-locator
"ZAC des Landes, 10 Avenue du Cagire",Decathlon,ESTANCARBON,31800,FR,"{'brand': 'Decathlon', 'fascia': 'Decathlon', 'category': 'Sports', 'edit_date': '20250310', 'lat_lon_source': 'website'}",43.117670489650706,0.7668350167022853,"{'opening_hours': {'Mon': '09:30-19:00', 'Tue': '', 'Wed': '09:30-19:00', 'Thu': '09:30-19:00', 'Fri': '09:30-19:00', 'Sat': '09:30-19:00', 'Sun': ''}}",Saint Gaudens,+33561951297,0070193701937,,https://www.decathlon.fr/store-locator
"38 route de lot , Centre commercial E.Leclerc",Decathlon,Sarlat-la-Canéda,24200,FR,"{'brand': 'Decathlon', 'fascia': 'Decathlon', 'category': 'Sports', 'edit_date': '20250310', 'lat_lon_source': 'website'}",44.875556,1.221876,"{'opening_hours': {'Mon': '09:30-12:30, 14:00-19:00', 'Tue': '09:30-12:30, 14:00-19:00', 'Wed': '09:30-12:30, 14:00-19:00', 'Thu': '09:30-12:30, 14:00-19:00', 'Fri': '09:30-12:30, 14:00-19:00', 'Sat': '09:30-19:00', 'Sun': ''}}",Sarlat-la-Canéda,+33533440072,0070194001940,,https://www.decathlon.fr/store-locator
"Avenue de l'Europe, ZAC des Charmes",Decathlon,Digoin,71160,FR,"{'brand': 'Decathlon', 'fascia': 'Decathlon', 'category': 'Sports', 'edit_date': '20250310', 'lat_lon_source': 'website'}",46.474095,4.005349,"{'opening_hours': {'Mon': '09:00-19:00', 'Tue': '09:00-19:00', 'Wed': '09:00-19:00', 'Thu': '09:00-19:00', 'Fri': '09:00-19:00', 'Sat': '09:00-19:00', 'Sun': ''}}",DIGOIN,+33385205016,0070194401944,,https://www.decathlon.fr/store-locator
AVENUE DES CORSAIRES,Decathlon,SAINT MARTIN DE RE,17410,FR,"{'brand': 'Decathlon', 'fascia': 'Decathlon', 'category': 'Sports', 'edit_date': '20250310', 'lat_lon_source': 'website'}",46.19842,-1.35306,"{'opening_hours': {'Mon': '10:00-13:00, 14:00-18:30', 'Tue': '10:00-13:00, 14:00-18:30', 'Wed': '10:00-13:00, 14:00-18:30', 'Thu': '10:00-13:00, 14:00-18:30', 'Fri': '10:00-13:00, 14:00-18:30', 'Sat': '10:00-13:00, 14:00-18:30', 'Sun': ''}}",Ile de Ré - SAINT MARTIN,+330548030004,0070195401954,,https://www.decathlon.fr/store-locator
2 rue saint jean,Decathlon,LE TOUQUET PARIS PLAGE,62520,FR,"{'brand': 'Decathlon', 'fascia': 'Decathlon', 'category': 'Sports', 'edit_date': '20250310', 'lat_lon_source': 'website'}",50.5247152,1.5822978,"{'opening_hours': {'Mon': '', 'Tue': '', 'Wed': '', 'Thu': '', 'Fri': '', 'Sat': '', 'Sun': ''}}",Decathlon Le Touquet,+33321103920,0070197101971,,https://www.decathlon.fr/store-locator
104 boulevard Saint Germain,Decathlon,PARIS,75006,FR,"{'brand': 'Decathlon', 'fascia': 'Decathlon', 'category': 'Sports', 'edit_date': '20250310', 'lat_lon_source': 'website'}",48.8515067,2.342638,"{'opening_hours': {'Mon': '10:00-20:00', 'Tue': '10:00-20:00', 'Wed': '10:00-20:00', 'Thu': '10:00-20:00', 'Fri': '10:00-20:00', 'Sat': '10:00-20:00', 'Sun': '13:00-20:00'}}",Paris - Bd Saint Germain City,+33187760330,0070197501975,,https://www.decathlon.fr/store-locator
26 RUE ANTOINE LAURENT LAVOISIER,Decathlon,ROYAN,17200,FR,"{'brand': 'Decathlon', 'fascia': 'Decathlon', 'category': 'Sports', 'edit_date': '20250310', 'lat_lon_source': 'website'}",45.63257,-0.9831259999999702,"{'opening_hours': {'Mon': '10:00-12:30, 13:30-19:00', 'Tue': '10:00-12:30, 13:30-19:00', 'Wed': '10:00-12:30, 13:30-19:00', 'Thu': '10:00-12:30, 13:30-19:00', 'Fri': '10:00-12:30, 13:30-19:00', 'Sat': '10:00-12:30, 13:30-19:00', 'Sun': ''}}",CONTACT ROYAN,+33586570018,0070198501985,,https://www.decathlon.fr/store-locator
3 rue président Carnot,Decathlon,LYON,69002,FR,"{'brand': 'Decathlon', 'fascia': 'Decathlon', 'category': 'Sports', 'edit_date': '20250310', 'lat_lon_source': 'website'}",45.762733,4.837637,"{'opening_hours': {'Mon': '10:00-19:30', 'Tue': '10:00-19:30', 'Wed': '10:00-19:30', 'Thu': '10:00-19:30', 'Fri': '10:00-19:30', 'Sat': '10:00-19:30', 'Sun': ''}}",Lyon Grolée-Carnot City,+33487340146,0070199401994,,https://www.decathlon.fr/store-locator
"Centre Commercial O'PARINOR, Le Haut De Galy",Decathlon,Aulnay-Sous-Bois,93600,FR,"{'brand': 'Decathlon', 'fascia': 'Decathlon', 'category': 'Sports', 'edit_date': '20250310', 'lat_lon_source': 'website'}",48.95648267646583,2.476099799952962,"{'opening_hours': {'Mon': '10:00-20:00', 'Tue': '10:00-20:00', 'Wed': '10:00-20:00', 'Thu': '10:00-20:00', 'Fri': '10:00-20:00', 'Sat': '10:00-20:00', 'Sun': '11:00-19:00'}}",O'Parinor,+33134059596,0070199501995,,https://www.decathlon.fr/store-locator
57 avenue Georges Pompidou,Decathlon,LIBOURNE,33500,FR,"{'brand': 'Decathlon', 'fascia': 'Decathlon', 'category': 'Sports', 'edit_date': '20250310', 'lat_lon_source': 'website'}",44.933039,-0.238972,"{'opening_hours': {'Mon': '09:30-19:00', 'Tue': '09:30-19:00', 'Wed': '09:30-19:00', 'Thu': '09:30-19:00', 'Fri': '09:30-19:00', 'Sat': '09:30-19:00', 'Sun': ''}}",Libourne,+33554200100,0070212902129,,https://www.decathlon.fr/store-locator
"Atlantic Wake Park, 3 Allée du Banc Cantin",Decathlon,L'Aiguillon-sur-Mer,85460,FR,"{'brand': 'Decathlon', 'fascia': 'Decathlon', 'category': 'Sports', 'edit_date': '20250310', 'lat_lon_source': 'website'}",46.3313186,-1.3077962,"{'opening_hours': {'Mon': '12:00-18:00', 'Tue': '', 'Wed': '', 'Thu': '', 'Fri': '12:00-18:00', 'Sat': '12:00-18:00', 'Sun': '12:00-18:00'}}",Pop-up Atlantic Wakepark,,0070219602196,,https://www.decathlon.fr/store-locator
"147bis rue Cardinet, ZAC Clichy Batignolles",Decathlon,PARIS,75017,FR,"{'brand': 'Decathlon', 'fascia': 'Decathlon', 'category': 'Sports', 'edit_date': '20250310', 'lat_lon_source': 'website'}",48.8908324,2.3177574999999706,"{'opening_hours': {'Mon': '09:00-20:00', 'Tue': '09:00-20:00', 'Wed': '09:00-20:00', 'Thu': '09:00-20:00', 'Fri': '09:00-20:00', 'Sat': '09:00-20:00', 'Sun': ''}}",Paris Batignolles City,+33187760361,0070232902329,,https://www.decathlon.fr/store-locator
"2 boulevard de l'Europe, centre commercial de l'agora",Decathlon,Evry,91000,FR,"{'brand': 'Decathlon', 'fascia': 'Decathlon', 'category': 'Sports', 'edit_date': '20250310', 'lat_lon_source': 'website'}",48.627481,2.427753,"{'opening_hours': {'Mon': '10:00-20:00', 'Tue': '10:00-20:00', 'Wed': '10:00-20:00', 'Thu': '10:00-20:00', 'Fri': '10:00-20:00', 'Sat': '10:00-20:00', 'Sun': '11:00-19:00'}}",Evry 2,+33186580500,0070236102361,,https://www.decathlon.fr/store-locator
"Route Nationale 151, la carte",Decathlon,Jardres,86800,FR,"{'brand': 'Decathlon', 'fascia': 'Decathlon', 'category': 'Sports', 'edit_date': '20250310', 'lat_lon_source': 'website'}",46.5677993,0.6186778000000004,"{'opening_hours': {'Mon': '14:30-19:00', 'Tue': '09:30-12:30, 14:30-19:00', 'Wed': '09:30-12:30, 14:30-19:00', 'Thu': '09:30-12:30, 14:30-19:00', 'Fri': '09:30-12:30, 14:30-19:00', 'Sat': '09:30-12:30, 14:30-19:00', 'Sun': ''}}",Chauvigny - Jardres,+33586540070,0070239402394,,https://www.decathlon.fr/store-locator
ZAC les Portes du Soleil - Route de Sète,Decathlon,AGDE,34300,FR,"{'brand': 'Decathlon', 'fascia': 'Decathlon', 'category': 'Sports', 'edit_date': '20250310', 'lat_lon_source': 'website'}",43.306802,3.494375,"{'opening_hours': {'Mon': '09:00-19:00', 'Tue': '09:00-19:00', 'Wed': '09:00-19:00', 'Thu': '09:00-19:00', 'Fri': '09:00-19:00', 'Sat': '09:00-19:00', 'Sun': ''}}",Agde Essentiel,+33448940024,0070240302403,,https://www.decathlon.fr/store-locator
0 Allée Nicéphore Niépce,Decathlon,MANOSQUE,04100,FR,"{'brand': 'Decathlon', 'fascia': 'Decathlon', 'category': 'Sports', 'edit_date': '20250310', 'lat_lon_source': 'website'}",43.8192,5.7986700000000155,"{'opening_hours': {'Mon': '09:30-19:00', 'Tue': '09:30-19:00', 'Wed': '09:30-19:00', 'Thu': '09:30-19:00', 'Fri': '09:30-19:00', 'Sat': '09:30-19:00', 'Sun': ''}}",Manosque,+33492521114,0070240402404,,https://www.decathlon.fr/store-locator
8 PLACE HOCHE,Decathlon,QUIBERON,56170,FR,"{'brand': 'Decathlon', 'fascia': 'Decathlon', 'category': 'Sports', 'edit_date': '20250310', 'lat_lon_source': 'website'}",47.4805,-3.12199,"{'opening_hours': {'Mon': '', 'Tue': '', 'Wed': '', 'Thu': '', 'Fri': '', 'Sat': '', 'Sun': ''}}",Contact Quiberon,+330764740521,0070240502405,,https://www.decathlon.fr/store-locator
"Chemin des Perches , Parc Commercial OASIS 3",Decathlon,Pusey,70000,FR,"{'brand': 'Decathlon', 'fascia': 'Decathlon', 'category': 'Sports', 'edit_date': '20250310', 'lat_lon_source': 'website'}",47.647225,6.1436914,"{'opening_hours': {'Mon': '09:30-19:00', 'Tue': '09:30-19:00', 'Wed': '09:30-19:00', 'Thu': '09:30-19:00', 'Fri': '09:30-19:00', 'Sat': '09:30-19:00', 'Sun': ''}}",Vesoul - Pusey Essentiel,+339770000,0070242802428,,https://www.decathlon.fr/store-locator
1 rue du général patton,Decathlon,CHÂTEAUBRIANT,44110,FR,"{'brand': 'Decathlon', 'fascia': 'Decathlon', 'category': 'Sports', 'edit_date': '20250310', 'lat_lon_source': 'website'}",47.70525983972764,-1.3858594219512854,"{'opening_hours': {'Mon': '09:30-19:00', 'Tue': '09:30-19:00', 'Wed': '09:30-19:00', 'Thu': '09:30-19:00', 'Fri': '09:30-19:00', 'Sat': '09:30-19:00', 'Sun': ''}}",Decathlon Essentiel Châteaubriant,+33255150000,0070244002440,,https://www.decathlon.fr/store-locator
"Centre Commercial ""Le Forum de Givet"", Route de Beauraing",Decathlon,GIVET,08600,FR,"{'brand': 'Decathlon', 'fascia': 'Decathlon', 'category': 'Sports', 'edit_date': '20250310', 'lat_lon_source': 'website'}",50.13469494361576,4.851796243034072,"{'opening_hours': {'Mon': '09:30-19:00', 'Tue': '09:30-19:00', 'Wed': '09:30-19:00', 'Thu': '09:30-19:00', 'Fri': '09:30-19:00', 'Sat': '09:30-19:00', 'Sun': ''}}",Decathlon Essentiel Givet,+33353330000,0070244202442,,https://www.decathlon.fr/store-locator
"1520 Avenue des matignons, route de villedieu",Decathlon,Granville,50400,FR,"{'brand': 'Decathlon', 'fascia': 'Decathlon', 'category': 'Sports', 'edit_date': '20250310', 'lat_lon_source': 'website'}",48.837978,-1.583932,"{'opening_hours': {'Mon': '10:00-19:00', 'Tue': '10:00-19:00', 'Wed': '10:00-19:00', 'Thu': '10:00-19:00', 'Fri': '10:00-19:00', 'Sat': '10:00-19:00', 'Sun': ''}}",Granville Essentiel,+33258140000,0070244502445,,https://www.decathlon.fr/store-locator
Avenue du Goëlo,Decathlon,Saint Agathon,22200,FR,"{'brand': 'Decathlon', 'fascia': 'Decathlon', 'category': 'Sports', 'edit_date': '20250310', 'lat_lon_source': 'website'}",48.560216237380544,-3.127096787696839,"{'opening_hours': {'Mon': '09:30-12:30, 14:00-19:00', 'Tue': '09:30-12:30, 14:00-19:00', 'Wed': '09:30-12:30, 14:00-19:00', 'Thu': '', 'Fri': '09:30-12:30, 14:00-19:00', 'Sat': '09:30-12:30, 14:00-19:00', 'Sun': ''}}",GUINGAMP ESSENTIEL,+33221360000,0070248502485,,https://www.decathlon.fr/store-locator
62 avenue Jean Médecin,Decathlon,NICE,06000,FR,"{'brand': 'Decathlon', 'fascia': 'Decathlon', 'category': 'Sports', 'edit_date': '20250310', 'lat_lon_source': 'website'}",43.705088,7.265433300000001,"{'opening_hours': {'Mon': '10:00-19:30', 'Tue': '10:00-19:30', 'Wed': '10:00-19:30', 'Thu': '10:00-19:30', 'Fri': '10:00-19:30', 'Sat': '10:00-19:30', 'Sun': '11:00-19:00'}}",Decathlon City Nice Jean-Médecin,+33423030162,0070249902499,,https://www.decathlon.fr/store-locator
9046 rue d'Aiga Bera,Decathlon,LARUNS,64440,FR,"{'brand': 'Decathlon', 'fascia': 'Decathlon', 'category': 'Sports', 'edit_date': '20250310', 'lat_lon_source': 'website'}",42.990513,-0.422194,"{'opening_hours': {'Mon': '09:00-12:30, 14:30-19:00', 'Tue': '', 'Wed': '09:00-12:30, 14:30-19:00', 'Thu': '', 'Fri': '', 'Sat': '09:00-12:30, 14:30-19:00', 'Sun': ''}}", MOUNTAIN Laruns,+33554200140,0070253002530,,https://www.decathlon.fr/store-locator
7 rue de la paix,Decathlon,Annecy,74000,FR,"{'brand': 'Decathlon', 'fascia': 'Decathlon', 'category': 'Sports', 'edit_date': '20250310', 'lat_lon_source': 'website'}",45.903433449616145,6.126318216323856,"{'opening_hours': {'Mon': '10:00-19:00', 'Tue': '10:00-19:00', 'Wed': '10:00-19:00', 'Thu': '10:00-19:00', 'Fri': '10:00-19:00', 'Sat': '10:00-19:00', 'Sun': ''}}",Annecy City Centre Ville,+33485720003,0070253102531,,https://www.decathlon.fr/store-locator
66 Rue des Carmes,Decathlon,Rouen,76000,FR,"{'brand': 'Decathlon', 'fascia': 'Decathlon', 'category': 'Sports', 'edit_date': '20250310', 'lat_lon_source': 'website'}",49.44196529478957,1.0948064254783674,"{'opening_hours': {'Mon': '10:00-19:30', 'Tue': '10:00-19:30', 'Wed': '10:00-19:30', 'Thu': '10:00-19:30', 'Fri': '10:00-19:30', 'Sat': '10:00-19:30', 'Sun': ''}}",ROUEN CENTRE VILLE,+33279970410,0070253202532,,https://www.decathlon.fr/store-locator
12-18 Rue des Pierres Précieuses,Decathlon,LE LAVANDOU,83980,FR,"{'brand': 'Decathlon', 'fascia': 'Decathlon', 'category': 'Sports', 'edit_date': '20250310', 'lat_lon_source': 'website'}",43.136804,6.367212,"{'opening_hours': {'Mon': '', 'Tue': '', 'Wed': '', 'Thu': '', 'Fri': '', 'Sat': '', 'Sun': ''}}",LAVANDOU POPUP,+330762924954,0070253302533,,https://www.decathlon.fr/store-locator
"Centre Commercial STEEL, 2 rue Ferrer",Decathlon,Saint-Etienne,42000,FR,"{'brand': 'Decathlon', 'fascia': 'Decathlon', 'category': 'Sports', 'edit_date': '20250310', 'lat_lon_source': 'website'}",45.4469769,4.4192168,"{'opening_hours': {'Mon': '09:30-19:30', 'Tue': '09:30-19:30', 'Wed': '09:30-19:30', 'Thu': '09:30-19:30', 'Fri': '09:30-19:30', 'Sat': '09:30-19:30', 'Sun': ''}}",Decathlon Saint Etienne Monthieu,+33487000060,0070253402534,,https://www.decathlon.fr/store-locator
"210, RD 1006 - ZAC DU CHESNES",Decathlon,Saint Quentin Fallavier,38070,FR,"{'brand': 'Decathlon', 'fascia': 'Decathlon', 'category': 'Sports', 'edit_date': '20250310', 'lat_lon_source': 'website'}",45.652414,5.113271399999999,"{'opening_hours': {'Mon': '06:00-20:00', 'Tue': '06:00-20:00', 'Wed': '06:00-20:00', 'Thu': '06:00-20:00', 'Fri': '06:00-20:00', 'Sat': '06:00-19:00', 'Sun': ''}}",Entrepôt Retrait Colis Decathlon - Saint Quentin Fallavier,+33474958090,0070253702537,,https://www.decathlon.fr/store-locator
"Intermarché Express, 47 rue faubourg Bannier",Decathlon,Orléans,45000,FR,"{'brand': 'Decathlon', 'fascia': 'Decathlon', 'category': 'Sports', 'edit_date': '20250310', 'lat_lon_source': 'website'}",47.9077666,1.9011761,"{'opening_hours': {'Mon': '08:30-19:30', 'Tue': '08:30-19:30', 'Wed': '08:30-19:30', 'Thu': '08:30-19:30', 'Fri': '08:30-19:30', 'Sat': '08:30-19:30', 'Sun': '09:00-12:30'}}",ORLEANS CENTRE RETRAIT COLIS,+33238665555,0070253802538,,https://www.decathlon.fr/store-locator
Rue Pasteur,Decathlon,Lompret,59840,FR,"{'brand': 'Decathlon', 'fascia': 'Decathlon', 'category': 'Sports', 'edit_date': '20250310', 'lat_lon_source': 'website'}",50.6562692,3.0084425,"{'opening_hours': {'Mon': '07:00-20:00', 'Tue': '07:00-20:00', 'Wed': '07:00-20:00', 'Thu': '07:00-20:00', 'Fri': '07:00-20:00', 'Sat': '07:00-12:00', 'Sun': ''}}",Lompret retrait colis,+33320188910,0070253902539,,https://www.decathlon.fr/store-locator
500 Avenue du Pech,Decathlon,MONTBARTIER,82700,FR,"{'brand': 'Decathlon', 'fascia': 'Decathlon', 'category': 'Sports', 'edit_date': '20250310', 'lat_lon_source': 'website'}",43.91209359924955,1.3073791837646365,"{'opening_hours': {'Mon': '06:30-19:30', 'Tue': '06:30-19:30', 'Wed': '06:30-19:30', 'Thu': '06:30-19:30', 'Fri': '06:30-19:30', 'Sat': '06:30-18:30', 'Sun': ''}}",Entrepôt Decathlon MONTBARTIER Retrait Colis,+330534273080,0070268502685,,https://www.decathlon.fr/store-locator
Avenue de Bastia,Decathlon,Porto-Vecchio,20137,FR,"{'brand': 'Decathlon', 'fascia': 'Decathlon', 'category': 'Sports', 'edit_date': '20250310', 'lat_lon_source': 'website'}",41.6053436,9.2751546,"{'opening_hours': {'Mon': '09:30-19:00', 'Tue': '09:30-19:00', 'Wed': '09:30-19:00', 'Thu': '09:30-19:00', 'Fri': '09:30-19:00', 'Sat': '09:30-19:00', 'Sun': ''}}",Decathlon Porto-Vecchio,+33495293029,0070270802708,,https://www.decathlon.fr/store-locator
2 Avenue de la Capitainerie,Decathlon,La Rochelle,17000,FR,"{'brand': 'Decathlon', 'fascia': 'Decathlon', 'category': 'Sports', 'edit_date': '20250310', 'lat_lon_source': 'website'}",46.1434913,-1.1657782,"{'opening_hours': {'Mon': '00:00-23:59', 'Tue': '00:00-23:59', 'Wed': '00:00-23:59', 'Thu': '00:00-23:59', 'Fri': '00:00-23:59', 'Sat': '00:00-23:59', 'Sun': '00:00-23:59'}}",La Rochelle / TRIBORD Les Minimes,+33546301881,0070272102721,,https://www.decathlon.fr/store-locator
RN 117 ZI Soarns Soleil,Decathlon,ORTHEZ,64300,FR,"{'brand': 'Decathlon', 'fascia': 'Decathlon', 'category': 'Sports', 'edit_date': '20250310', 'lat_lon_source': 'website'}",43.4815591,-0.7460002,"{'opening_hours': {'Mon': '09:30-13:00, 14:30-19:00', 'Tue': '09:30-13:00, 14:30-19:00', 'Wed': '09:30-13:00, 14:30-19:00', 'Thu': '09:30-13:00, 14:30-19:00', 'Fri': '09:30-13:00, 14:30-19:00', 'Sat': '09:30-13:00, 14:30-19:00', 'Sun': ''}}",CONTACT Orthez,+33525390000,0070277502775,,https://www.decathlon.fr/store-locator
4 RUE BONIVARD,Decathlon,CHAMBERY,73000,FR,"{'brand': 'Decathlon', 'fascia': 'Decathlon', 'category': 'Sports', 'edit_date': '20250310', 'lat_lon_source': 'website'}",45.5662714,5.9187118,"{'opening_hours': {'Mon': '10:00-19:00', 'Tue': '10:00-19:00', 'Wed': '10:00-19:00', 'Thu': '10:00-19:00', 'Fri': '10:00-19:00', 'Sat': '10:00-19:00', 'Sun': ''}}",CHAMBERY CONTACT CENTRE VILLE,+330485780032,0070286102861,,https://www.decathlon.fr/store-locator
ZA en Chantrans,Decathlon,Montmorot,39570,FR,"{'brand': 'Decathlon', 'fascia': 'Decathlon', 'category': 'Sports', 'edit_date': '20250310', 'lat_lon_source': 'website'}",46.670943175342764,5.526578879024906,"{'opening_hours': {'Mon': '09:30-19:00', 'Tue': '09:30-19:00', 'Wed': '09:30-19:00', 'Thu': '09:30-19:00', 'Fri': '09:30-19:00', 'Sat': '09:30-19:00', 'Sun': ''}}",LONS LE SAUNIER,+33339970004,0070286302863,,https://www.decathlon.fr/store-locator
221 route departementale residence Lauze,Decathlon,LA PLAGNE-TARENTAISE,73210,FR,"{'brand': 'Decathlon', 'fascia': 'Decathlon', 'category': 'Sports', 'edit_date': '20250310', 'lat_lon_source': 'website'}",45.5135562,6.678185,"{'opening_hours': {'Mon': '08:45-12:30, 14:00-19:00', 'Tue': '08:45-12:30, 14:00-19:00', 'Wed': '08:45-12:30, 14:00-19:00', 'Thu': '08:45-12:30, 14:00-19:00', 'Fri': '08:45-12:30, 13:30-19:00', 'Sat': '08:45-19:00', 'Sun': '08:45-19:00'}}",La Plagne Mountain station,+33479040091,0070292802928,,https://www.decathlon.fr/store-locator
108 Avenue de la Muzelle,Decathlon,Les Deux Alpes,38860,FR,"{'brand': 'Decathlon', 'fascia': 'Decathlon', 'category': 'Sports', 'edit_date': '20250310', 'lat_lon_source': 'website'}",45.0070026,6.1217921,"{'opening_hours': {'Mon': '08:30-19:30', 'Tue': '08:30-19:30', 'Wed': '08:30-19:30', 'Thu': '08:30-19:30', 'Fri': '08:30-19:30', 'Sat': '08:30-19:30', 'Sun': '08:30-19:30'}}",Les deux Alpes Mountain,+330476805084,0070293302933,,https://www.decathlon.fr/store-locator
"BP 36, 73440 Les Belleville",Decathlon,LES MENUIRES,73440,FR,"{'brand': 'Decathlon', 'fascia': 'Decathlon', 'category': 'Sports', 'edit_date': '20250310', 'lat_lon_source': 'website'}",45.31297454056808,6.541819665819184,"{'opening_hours': {'Mon': '08:30-19:30', 'Tue': '08:30-19:30', 'Wed': '08:30-19:30', 'Thu': '08:30-19:30', 'Fri': '08:30-19:30', 'Sat': '08:30-19:30', 'Sun': '08:30-19:30'}}",Les Menuires Mountain,+330479083581,0070319103191,,https://www.decathlon.fr/store-locator
lotissement camieta,Decathlon,URRUGNE,64122,FR,"{'brand': 'Decathlon', 'fascia': 'Decathlon', 'category': 'Sports', 'edit_date': '20250310', 'lat_lon_source': 'website'}",43.3756202,-1.6758349,"{'opening_hours': {'Mon': '09:30-19:30', 'Tue': '09:30-19:30', 'Wed': '09:30-19:30', 'Thu': '09:30-19:30', 'Fri': '09:30-19:30', 'Sat': '09:30-19:30', 'Sun': ''}}",Urrugne - Saint Jean de Luz ,+330523520010,0070319203192,,https://www.decathlon.fr/store-locator
"20, RUE CREBILLON",Decathlon,NANTES,44000,FR,"{'brand': 'Decathlon', 'fascia': 'Decathlon', 'category': 'Sports', 'edit_date': '20250310', 'lat_lon_source': 'website'}",47.21366550000002,-1.5612570294477401,"{'opening_hours': {'Mon': '12:00-19:00', 'Tue': '10:00-19:00', 'Wed': '10:00-19:00', 'Thu': '10:00-19:00', 'Fri': '10:00-19:00', 'Sat': '10:00-19:00', 'Sun': ''}}",Decathlon Nantes - Centre ville,+33279640110,0070325703257,,https://www.decathlon.fr/store-locator
2601 Route Nationale 20,Decathlon,Saran,45770,FR,"{'brand': 'Decathlon', 'fascia': 'Decathlon', 'category': 'Sports', 'edit_date': '20250310', 'lat_lon_source': 'website'}",47.962042870473496,1.881368789102189,"{'opening_hours': {'Mon': '09:30-20:00', 'Tue': '09:30-20:00', 'Wed': '09:30-20:00', 'Thu': '09:30-20:00', 'Fri': '09:30-20:00', 'Sat': '09:30-20:00', 'Sun': ''}}",Saran,+33279640130,0070326303263,,https://www.decathlon.fr/store-locator
584 Av du Pere Tasse Chamrousse,Decathlon,CHAMROUSSE,38410,FR,"{'brand': 'Decathlon', 'fascia': 'Decathlon', 'category': 'Sports', 'edit_date': '20250310', 'lat_lon_source': 'website'}",45.1105943,5.876490599999999,"{'opening_hours': {'Mon': '08:30-19:00', 'Tue': '08:30-19:00', 'Wed': '08:30-19:00', 'Thu': '08:30-19:00', 'Fri': '08:30-19:00', 'Sat': '08:30-19:00', 'Sun': '08:30-19:00'}}",Chamrousse Mountain,+33476899624,0070333203332,,https://www.decathlon.fr/store-locator
"01 Les Mathes, France",Decathlon,La Palmyre,17570,FR,"{'brand': 'Decathlon', 'fascia': 'Decathlon', 'category': 'Sports', 'edit_date': '20250310', 'lat_lon_source': 'website'}",45.690274,-1.179729,"{'opening_hours': {'Mon': '', 'Tue': '', 'Wed': '', 'Thu': '', 'Fri': '', 'Sat': '', 'Sun': ''}}",La Palmyre,+33000,0070336403364,,https://www.decathlon.fr/store-locator
0 Simastock Libercourt,Decathlon,Libercourt,62820,FR,"{'brand': 'Decathlon', 'fascia': 'Decathlon', 'category': 'Sports', 'edit_date': '20250310', 'lat_lon_source': 'website'}",50.4748437,2.9843978,"{'opening_hours': {'Mon': '', 'Tue': '', 'Wed': '', 'Thu': '', 'Fri': '', 'Sat': '', 'Sun': ''}}",SIMASTOCK,,0070342803428,,https://www.decathlon.fr/store-locator
