addr_full,brand,city,country,extras,lat,lon,name,opening_hours,phone,postcode,ref,state,website
"Finnoonlaaksontie 1, 02270 Espoo",Gigantti,Espoo,Finland,"{'brand': 'Gigantti', 'fascia': 'Gigantti', 'category': 'Retail', 'edit_date': '2025-05-22', 'lat_lon_source': 'Third Party'}",60.164604,24.704752,Gigantti Espoo Suomenoja,"{'opening_hours': {'Mon': '11:00-18:00', 'Tue': '10:00-20:00', 'Wed': '10:00-20:00', 'Thu': '10:00-20:00', 'Fri': '10:00-20:00', 'Sat': '10:00-20:00', 'Sun': '10:00-18:00'}}",,02270,4080,,https://www.gigantti.fi//store/gigantti-espoo-suomenoja
"Pehr Sommarin katu 14, 10600 Raseborg",Gigantti,Raseborg,Finland,"{'brand': 'Gigantti', 'fascia': 'Gigantti', 'category': 'Retail', 'edit_date': '2025-05-22', 'lat_lon_source': 'Third Party'}",59.98216734,23.45699109,Gigantti Tammisaari,"{'opening_hours': {'Mon': None, 'Tue': '10:00-18:00', 'Wed': '10:00-18:00', 'Thu': '10:00-18:00', 'Fri': '10:00-18:00', 'Sat': '10:00-18:00', 'Sun': '10:00-15:00'}}",,10600,4201,,https://www.gigantti.fi//store/gigantti-tammisaari
"Aleksis Kivenkatu 7, 32200 Loimaa",Gigantti,Loimaa,Finland,"{'brand': 'Gigantti', 'fascia': 'Gigantti', 'category': 'Retail', 'edit_date': '2025-05-22', 'lat_lon_source': 'Third Party'}",60.85663488,23.04398151,Gigantti Loimaa,"{'opening_hours': {'Mon': '11:00-15:00', 'Tue': '10:00-19:00', 'Wed': '10:00-19:00', 'Thu': '10:00-19:00', 'Fri': '10:00-19:00', 'Sat': '10:00-19:00', 'Sun': '10:00-16:00'}}",,32200,4202,,https://www.gigantti.fi//store/gigantti-loimaa
"Yrittäjänkatu 4, 50130 Mikkeli",Gigantti,Mikkeli,Finland,"{'brand': 'Gigantti', 'fascia': 'Gigantti', 'category': 'Retail', 'edit_date': '2025-05-22', 'lat_lon_source': 'Third Party'}",61.67997,27.25388,Gigantti Mikkeli,"{'opening_hours': {'Mon': '11:00-16:00', 'Tue': '10:00-19:00', 'Wed': '10:00-19:00', 'Thu': '10:00-19:00', 'Fri': '10:00-19:00', 'Sat': '10:00-19:00', 'Sun': '10:00-16:00'}}",,50130,4203,,https://www.gigantti.fi//store/gigantti-mikkeli
"Relanderinkatu 30, 78200 Varkaus",Gigantti,Varkaus,Finland,"{'brand': 'Gigantti', 'fascia': 'Gigantti', 'category': 'Retail', 'edit_date': '2025-05-22', 'lat_lon_source': 'Third Party'}",62.31432875,27.86893052,Gigantti Varkaus,"{'opening_hours': {'Mon': None, 'Tue': '10:00-18:00', 'Wed': '10:00-18:00', 'Thu': '10:00-18:00', 'Fri': '10:00-18:00', 'Sat': '10:00-18:00', 'Sun': '9:00-16:00'}}",,78200,4204,,https://www.gigantti.fi//store/gigantti-varkaus
"Niittykatu 3, 67100 Kokkola",Gigantti,Kokkola,Finland,"{'brand': 'Gigantti', 'fascia': 'Gigantti', 'category': 'Retail', 'edit_date': '2025-05-22', 'lat_lon_source': 'Third Party'}",63.83811,23.10321,Gigantti Kokkola,"{'opening_hours': {'Mon': None, 'Tue': '10:00-19:00', 'Wed': '10:00-19:00', 'Thu': '10:00-19:00', 'Fri': '10:00-19:00', 'Sat': '10:00-19:00', 'Sun': '10:00-16:00'}}",,67100,4210,,https://www.gigantti.fi//store/gigantti-kokkola
"Pohjolankatu 21, 74120 Iisalmi",Gigantti,Iisalmi,Finland,"{'brand': 'Gigantti', 'fascia': 'Gigantti', 'category': 'Retail', 'edit_date': '2025-05-22', 'lat_lon_source': 'Third Party'}",63.56517,27.18542,Gigantti Iisalmi,"{'opening_hours': {'Mon': None, 'Tue': '10:00-18:00', 'Wed': '10:00-18:00', 'Thu': '10:00-18:00', 'Fri': '10:00-18:00', 'Sat': '10:00-18:00', 'Sun': '10:00-15:00'}}",,74120,4222,,https://www.gigantti.fi//store/gigantti-iisalmi
"Torikatu 6, 76100 Pieksämäki",Gigantti,Pieksämäki,Finland,"{'brand': 'Gigantti', 'fascia': 'Gigantti', 'category': 'Retail', 'edit_date': '2025-05-22', 'lat_lon_source': 'Third Party'}",62.29895237,27.15586816,Gigantti Pieksämäki,"{'opening_hours': {'Mon': None, 'Tue': '10:00-18:00', 'Wed': '10:00-18:00', 'Thu': '10:00-18:00', 'Fri': '10:00-18:00', 'Sat': '10:00-18:00', 'Sun': '9:00-14:00'}}",,76100,4205,,https://www.gigantti.fi//store/gigantti-pieksamaki
"Rengastie 2b, 60120 Seinäjoki",Gigantti,Seinäjoki,Finland,"{'brand': 'Gigantti', 'fascia': 'Gigantti', 'category': 'Retail', 'edit_date': '2025-05-22', 'lat_lon_source': 'Third Party'}",62.79945336,22.84557078,Gigantti Seinäjoki,"{'opening_hours': {'Mon': '12:00-16:00', 'Tue': '10:00-19:00', 'Wed': '10:00-19:00', 'Thu': '10:00-19:00', 'Fri': '10:00-19:00', 'Sat': '10:00-19:00', 'Sun': '10:00-16:00'}}",,60120,4206,,https://www.gigantti.fi//store/gigantti-seinajoki
"Korjaamokuja 3, 08200 Lohja",Gigantti,Lohja,Finland,"{'brand': 'Gigantti', 'fascia': 'Gigantti', 'category': 'Retail', 'edit_date': '2025-05-22', 'lat_lon_source': 'Third Party'}",60.22594041,24.02925382,Gigantti Lohja,"{'opening_hours': {'Mon': '11:00-16:00', 'Tue': '10:00-19:00', 'Wed': '10:00-19:00', 'Thu': '10:00-19:00', 'Fri': '10:00-19:00', 'Sat': '10:00-19:00', 'Sun': '10:00-16:00'}}",,08200,4215,,https://www.gigantti.fi//store/gigantti-lohja
"Ratsumestarinkatu 9, 06500 Porvoo",Gigantti,Porvoo,Finland,"{'brand': 'Gigantti', 'fascia': 'Gigantti', 'category': 'Retail', 'edit_date': '2025-05-22', 'lat_lon_source': 'Third Party'}",60.38789079,25.60589413,Gigantti Porvoo,"{'opening_hours': {'Mon': '11:00-16:00', 'Tue': '10:00-19:00', 'Wed': '10:00-19:00', 'Thu': '10:00-19:00', 'Fri': '10:00-19:00', 'Sat': '10:00-19:00', 'Sun': '10:00-16:00'}}",,06500,4218,,https://www.gigantti.fi//store/gigantti-porvoo
"Hämeentie 37, 24100 Salo",Gigantti,Salo,Finland,"{'brand': 'Gigantti', 'fascia': 'Gigantti', 'category': 'Retail', 'edit_date': '2025-05-22', 'lat_lon_source': 'Third Party'}",60.39264347,23.13210633,Gigantti Salo,"{'opening_hours': {'Mon': '11:00-16:00', 'Tue': '10:00-19:00', 'Wed': '10:00-19:00', 'Thu': '10:00-19:00', 'Fri': '10:00-19:00', 'Sat': '10:00-19:00', 'Sun': '10:00-16:00'}}",,24100,4224,,https://www.gigantti.fi//store/gigantti-salo
"Länsiranta 10, 95400 Tornio",Gigantti,Tornio,Finland,"{'brand': 'Gigantti', 'fascia': 'Gigantti', 'category': 'Retail', 'edit_date': '2025-05-22', 'lat_lon_source': 'Third Party'}",65.84311647,24.14366221,Gigantti Tornio,"{'opening_hours': {'Mon': '12:00-16:00', 'Tue': '10:00-19:00', 'Wed': '10:00-19:00', 'Thu': '10:00-19:00', 'Fri': '10:00-19:00', 'Sat': '10:00-19:00', 'Sun': '10:00-18:00'}}",,95400,4225,,https://www.gigantti.fi//store/gigantti-tornio
"Teollisuustie 5, 96320 Rovaniemi",Gigantti,Rovaniemi,Finland,"{'brand': 'Gigantti', 'fascia': 'Gigantti', 'category': 'Retail', 'edit_date': '2025-05-22', 'lat_lon_source': 'Third Party'}",66.49104008,25.68425654,Gigantti Rovaniemi,"{'opening_hours': {'Mon': '11:00-16:00', 'Tue': '10:00-19:00', 'Wed': '10:00-19:00', 'Thu': '10:00-19:00', 'Fri': '10:00-19:00', 'Sat': '10:00-19:00', 'Sun': '10:00-17:00'}}",,96320,4216,,https://www.gigantti.fi//store/gigantti-rovaniemi
"Biolinja 27, 20750 Turku",Gigantti,Turku,Finland,"{'brand': 'Gigantti', 'fascia': 'Gigantti', 'category': 'Retail', 'edit_date': '2025-05-22', 'lat_lon_source': 'Third Party'}",60.43044,22.32819,Gigantti Turku Skanssi,"{'opening_hours': {'Mon': '11:00-18:00', 'Tue': '10:00-20:00', 'Wed': '10:00-20:00', 'Thu': '10:00-20:00', 'Fri': '10:00-20:00', 'Sat': '10:00-20:00', 'Sun': '10:00-18:00'}}",,20750,4015,,https://www.gigantti.fi//store/gigantti-turku-skanssi
"Sähkötie 3, 01510 Vantaa",Gigantti,Vantaa,Finland,"{'brand': 'Gigantti', 'fascia': 'Gigantti', 'category': 'Retail', 'edit_date': '2025-05-22', 'lat_lon_source': 'Third Party'}",60.27651797,24.97510568,Gigantti Vantaa Tammisto,"{'opening_hours': {'Mon': '11:00-18:00', 'Tue': '10:00-21:00', 'Wed': '10:00-21:00', 'Thu': '10:00-21:00', 'Fri': '10:00-21:00', 'Sat': '10:00-21:00', 'Sun': '10:00-18:00'}}",,01510,4010,,https://www.gigantti.fi//store/gigantti-vantaa-tammisto
"Itäniityntie 14, 21280 Raisio",Gigantti,Raisio,Finland,"{'brand': 'Gigantti', 'fascia': 'Gigantti', 'category': 'Retail', 'edit_date': '2025-05-22', 'lat_lon_source': 'Third Party'}",60.491273,22.222882,Gigantti Turku Raisio,"{'opening_hours': {'Mon': '11:00-19:00', 'Tue': '9:00-20:00', 'Wed': '9:00-20:00', 'Thu': '9:00-20:00', 'Fri': '9:00-20:00', 'Sat': '9:00-20:00', 'Sun': '10:00-19:00'}}",,21280,4030,,https://www.gigantti.fi//store/gigantti-turku-raisio
"Volttikatu 4, 70700 Kuopio",Gigantti,Kuopio,Finland,"{'brand': 'Gigantti', 'fascia': 'Gigantti', 'category': 'Retail', 'edit_date': '2025-05-22', 'lat_lon_source': 'Third Party'}",62.88348367,27.62893435,Gigantti Kuopio,"{'opening_hours': {'Mon': '11:00-17:00', 'Tue': '10:00-20:00', 'Wed': '10:00-20:00', 'Thu': '10:00-20:00', 'Fri': '10:00-20:00', 'Sat': '10:00-20:00', 'Sun': '10:00-18:00'}}",,70700,4035,,https://www.gigantti.fi//store/gigantti-kuopio
"Ahjokatu 11, 40320 Jyväskylä",Gigantti,Jyväskylä,Finland,"{'brand': 'Gigantti', 'fascia': 'Gigantti', 'category': 'Retail', 'edit_date': '2025-05-22', 'lat_lon_source': 'Third Party'}",62.26061968,25.77842039,Gigantti Jyväskylä,"{'opening_hours': {'Mon': '11:00-18:00', 'Tue': '10:00-20:00', 'Wed': '10:00-20:00', 'Thu': '10:00-20:00', 'Fri': '10:00-20:00', 'Sat': '10:00-20:00', 'Sun': '10:00-18:00'}}",,40320,4040,,https://www.gigantti.fi//store/gigantti-jyvaskyla
"Itis Itäkatu 1-5 B 107 , 00930 Helsinki",Gigantti,Helsinki,Finland,"{'brand': 'Gigantti', 'fascia': 'Gigantti', 'category': 'Retail', 'edit_date': '2025-05-22', 'lat_lon_source': 'Third Party'}",60.21187945,25.08407935,Gigantti Itäkeskus,"{'opening_hours': {'Mon': '12:00-18:00', 'Tue': '10:00-20:00', 'Wed': '10:00-20:00', 'Thu': '10:00-20:00', 'Fri': '10:00-20:00', 'Sat': '10:00-20:00', 'Sun': '10:00-19:00'}}",,00930,4045,,https://www.gigantti.fi//store/gigantti-itakeskus
"Kallisensuora 12, 90400 Oulu",Gigantti,Oulu,Finland,"{'brand': 'Gigantti', 'fascia': 'Gigantti', 'category': 'Retail', 'edit_date': '2025-05-22', 'lat_lon_source': 'Third Party'}",64.99226,25.45613,Gigantti Oulu,"{'opening_hours': {'Mon': '11:00-18:00', 'Tue': '10:00-20:00', 'Wed': '10:00-20:00', 'Thu': '10:00-20:00', 'Fri': '10:00-20:00', 'Sat': '10:00-20:00', 'Sun': '10:00-18:00'}}",,90400,4050,,https://www.gigantti.fi//store/gigantti-oulu
"Horninkatu 1, 28100 Pori",Gigantti,Pori,Finland,"{'brand': 'Gigantti', 'fascia': 'Gigantti', 'category': 'Retail', 'edit_date': '2025-05-22', 'lat_lon_source': 'Third Party'}",61.48146667,21.81720936,Gigantti Pori,"{'opening_hours': {'Mon': '11:00-16:00', 'Tue': '10:00-20:00', 'Wed': '10:00-20:00', 'Thu': '10:00-20:00', 'Fri': '10:00-20:00', 'Sat': '10:00-20:00', 'Sun': '10:00-18:00'}}",,28100,4055,,https://www.gigantti.fi//store/gigantti-pori
"Possijärvenkatu 2-4, 33400 Tampere",Gigantti,Tampere,Finland,"{'brand': 'Gigantti', 'fascia': 'Gigantti', 'category': 'Retail', 'edit_date': '2025-05-22', 'lat_lon_source': 'Third Party'}",61.51811,23.66558,Gigantti Tampere Lielahti,"{'opening_hours': {'Mon': '11:00-18:00', 'Tue': '10:00-20:00', 'Wed': '10:00-20:00', 'Thu': '10:00-20:00', 'Fri': '10:00-20:00', 'Sat': '10:00-20:00', 'Sun': '10:00-18:00'}}",,33400,4025,,https://www.gigantti.fi//store/gigantti-tampere-lielahti
"Sammonkatu 75, 33540 Tampere",Gigantti,Tampere,Finland,"{'brand': 'Gigantti', 'fascia': 'Gigantti', 'category': 'Retail', 'edit_date': '2025-05-22', 'lat_lon_source': 'Third Party'}",61.4902516,23.82186014,Gigantti Tampere Kaleva,"{'opening_hours': {'Mon': '11:00-18:00', 'Tue': '10:00-20:00', 'Wed': '10:00-20:00', 'Thu': '10:00-20:00', 'Fri': '10:00-20:00', 'Sat': '10:00-20:00', 'Sun': '10:00-18:00'}}",,33540,4020,,https://www.gigantti.fi//store/gigantti-tampere-kaleva
"Katsastusmiehenkuja 5, 13130 Hämeenlinna",Gigantti,Hämeenlinna,Finland,"{'brand': 'Gigantti', 'fascia': 'Gigantti', 'category': 'Retail', 'edit_date': '2025-05-22', 'lat_lon_source': 'Third Party'}",61.00621,24.41603,Gigantti Hämeenlinna,"{'opening_hours': {'Mon': '12:00-17:00', 'Tue': '10:00-19:00', 'Wed': '10:00-19:00', 'Thu': '10:00-19:00', 'Fri': '10:00-19:00', 'Sat': '10:00-19:00', 'Sun': '10:00-18:00'}}",,13130,4065,,https://www.gigantti.fi//store/gigantti-hameenlinna
"Myyntimiehenkatu 2, 15700 Lahti",Gigantti,Lahti,Finland,"{'brand': 'Gigantti', 'fascia': 'Gigantti', 'category': 'Retail', 'edit_date': '2025-05-22', 'lat_lon_source': 'Third Party'}",60.935285,25.631023,Gigantti Lahti,"{'opening_hours': {'Mon': '11:00-17:00', 'Tue': '10:00-20:00', 'Wed': '10:00-20:00', 'Thu': '10:00-20:00', 'Fri': '10:00-20:00', 'Sat': '10:00-20:00', 'Sun': '10:00-18:00'}}",,15700,4060,,https://www.gigantti.fi//store/gigantti-lahti
"Myllärinkatu 12, 53550 Lappeenranta",Gigantti,Lappeenranta,Finland,"{'brand': 'Gigantti', 'fascia': 'Gigantti', 'category': 'Retail', 'edit_date': '2025-05-22', 'lat_lon_source': 'Third Party'}",61.04353,28.21205,Gigantti Lappeenranta,"{'opening_hours': {'Mon': '11:00-17:00', 'Tue': '10:00-20:00', 'Wed': '10:00-20:00', 'Thu': '10:00-20:00', 'Fri': '10:00-20:00', 'Sat': '10:00-20:00', 'Sun': '10:00-17:00'}}",,53550,4070,,https://www.gigantti.fi//store/gigantti-lappeenranta
"Voimatie 8, 80100 Joensuu",Gigantti,Joensuu,Finland,"{'brand': 'Gigantti', 'fascia': 'Gigantti', 'category': 'Retail', 'edit_date': '2025-05-22', 'lat_lon_source': 'Third Party'}",62.61771,29.78152,Gigantti Joensuu,"{'opening_hours': {'Mon': '11:00-17:00', 'Tue': '10:00-19:00', 'Wed': '10:00-19:00', 'Thu': '10:00-19:00', 'Fri': '10:00-19:00', 'Sat': '10:00-19:00', 'Sun': '10:00-17:00'}}",,80100,4075,,https://www.gigantti.fi//store/gigantti-joensuu
"Kivihaantie 5, 65300 Vaasa",Gigantti,Vaasa,Finland,"{'brand': 'Gigantti', 'fascia': 'Gigantti', 'category': 'Retail', 'edit_date': '2025-05-22', 'lat_lon_source': 'Third Party'}",63.11086239,21.6537088,Gigantti Vaasa,"{'opening_hours': {'Mon': '11:00-17:00', 'Tue': '9:00-21:00', 'Wed': '9:00-21:00', 'Thu': '9:00-21:00', 'Fri': '9:00-21:00', 'Sat': '9:00-21:00', 'Sun': '10:00-18:00'}}",,65300,4085,,https://www.gigantti.fi//store/gigantti-vaasa
"Mannerheimintie 20, 00100 Helsinki",Gigantti,Helsinki,Finland,"{'brand': 'Gigantti', 'fascia': 'Gigantti', 'category': 'Retail', 'edit_date': '2025-05-22', 'lat_lon_source': 'Third Party'}",60.1692,24.93822,Gigantti Forum,"{'opening_hours': {'Mon': '12:00-18:00', 'Tue': '10:00-20:00', 'Wed': '10:00-20:00', 'Thu': '10:00-20:00', 'Fri': '10:00-20:00', 'Sat': '10:00-20:00', 'Sun': '10:00-19:00'}}",,00100,4088,,https://www.gigantti.fi//store/gigantti-forum
"Espoontie 25, 02740 Espoo",Gigantti,Espoo,Finland,"{'brand': 'Gigantti', 'fascia': 'Gigantti', 'category': 'Retail', 'edit_date': '2025-05-22', 'lat_lon_source': 'Third Party'}",60.21960765,24.66483475,Gigantti Espoo Lommila,"{'opening_hours': {'Mon': '11:00-18:00', 'Tue': '10:00-20:00', 'Wed': '10:00-20:00', 'Thu': '10:00-20:00', 'Fri': '10:00-20:00', 'Sat': '10:00-20:00', 'Sun': '10:00-19:00'}}",,02740,4090,,https://www.gigantti.fi//store/gigantti-espoo-lommila
"Diggarinkatu 12, 04420 Järvenpää",Gigantti,Järvenpää,Finland,"{'brand': 'Gigantti', 'fascia': 'Gigantti', 'category': 'Retail', 'edit_date': '2025-05-22', 'lat_lon_source': 'Third Party'}",60.45584,25.11401,Gigantti Järvenpää,"{'opening_hours': {'Mon': '11:00-17:00', 'Tue': '9:00-20:00', 'Wed': '9:00-20:00', 'Thu': '9:00-20:00', 'Fri': '9:00-20:00', 'Sat': '9:00-20:00', 'Sun': '10:00-18:00'}}",,04420,4226,,https://www.gigantti.fi//store/gigantti-jarvenpaa
"Kantelettarentie 1, 00420 Helsinki",Gigantti,Helsinki,Finland,"{'brand': 'Gigantti', 'fascia': 'Gigantti', 'category': 'Retail', 'edit_date': '2025-05-22', 'lat_lon_source': 'Third Party'}",60.23674895,24.89256477,Gigantti Kaari,"{'opening_hours': {'Mon': '12:00-18:00', 'Tue': '10:00-20:00', 'Wed': '10:00-20:00', 'Thu': '10:00-20:00', 'Fri': '10:00-20:00', 'Sat': '10:00-20:00', 'Sun': '10:00-19:00'}}",,00420,4001,,https://www.gigantti.fi//store/gigantti-kaari
"Hermannin rantatie 5, 00580 Helsinki",Gigantti,Helsinki,Finland,"{'brand': 'Gigantti', 'fascia': 'Gigantti', 'category': 'Retail', 'edit_date': '2025-05-22', 'lat_lon_source': 'Third Party'}",60.18711,24.97767,Gigantti Redi,"{'opening_hours': {'Mon': '12:00-18:00', 'Tue': '10:00-20:00', 'Wed': '10:00-20:00', 'Thu': '10:00-20:00', 'Fri': '10:00-20:00', 'Sat': '10:00-20:00', 'Sun': '10:00-18:00'}}",,00580,4004,,https://www.gigantti.fi//store/gigantti-redi
"Viirintie 11, 01800 Klaukkala",Gigantti,Klaukkala,Finland,"{'brand': 'Gigantti', 'fascia': 'Gigantti', 'category': 'Retail', 'edit_date': '2025-05-22', 'lat_lon_source': 'Third Party'}",60.37761,24.76073,Gigantti Klaukkala,"{'opening_hours': {'Mon': '11:00-16:00', 'Tue': '10:00-19:00', 'Wed': '10:00-19:00', 'Thu': '10:00-19:00', 'Fri': '10:00-19:00', 'Sat': '10:00-19:00', 'Sun': '10:00-16:00'}}",,01800,4228,,https://www.gigantti.fi//store/gigantti-klaukkala
"Jumalniementie 4, 48600 Kotka",Gigantti,Kotka,Finland,"{'brand': 'Gigantti', 'fascia': 'Gigantti', 'category': 'Retail', 'edit_date': '2025-05-22', 'lat_lon_source': 'Third Party'}",60.50523,26.909992,Gigantti Kotka,"{'opening_hours': {'Mon': '11:00-16:00', 'Tue': '10:00-19:00', 'Wed': '10:00-19:00', 'Thu': '10:00-19:00', 'Fri': '10:00-19:00', 'Sat': '10:00-19:00', 'Sun': '10:00-17:00'}}",,48600,4229,,https://www.gigantti.fi//store/gigantti-kotka
"Savarinkatu 4, 84100 Ylivieska",Gigantti,Ylivieska,Finland,"{'brand': 'Gigantti', 'fascia': 'Gigantti', 'category': 'Retail', 'edit_date': '2025-05-22', 'lat_lon_source': 'Third Party'}",64.0631,24.55514,Gigantti Ylivieska,"{'opening_hours': {'Mon': None, 'Tue': '10:00-18:00', 'Wed': '10:00-18:00', 'Thu': '10:00-18:00', 'Fri': '10:00-18:00', 'Sat': '10:00-18:00', 'Sun': '10:00-16:00'}}",,84100,4230,,https://www.gigantti.fi//store/gigantti-ylivieska
"Kehräämöntie 22, 87400 Kajaani",Gigantti,Kajaani,Finland,"{'brand': 'Gigantti', 'fascia': 'Gigantti', 'category': 'Retail', 'edit_date': '2025-05-22', 'lat_lon_source': 'Third Party'}",64.21045529,27.77229166,Gigantti Kajaani,"{'opening_hours': {'Mon': None, 'Tue': '10:00-18:00', 'Wed': '10:00-18:00', 'Thu': '10:00-18:00', 'Fri': '10:00-18:00', 'Sat': '10:00-18:00', 'Sun': '10:00-16:00'}}",,87400,4231,,https://www.gigantti.fi//store/gigantti-kajaani
