addr_full,brand,city,country,extras,lat,lon,name,opening_hours,phone,postcode,ref,state,website
Carl-Benz-Straße 1 61191 Rosbach v. d. Höhe,Tank & Rast,Rosbach v. d. Höhe,Germany,"{'brand': 'Tank & Rast', 'fascia': ""Rosi's Autohof"", 'category': 'Food and Beverage', 'edit_date': '2025-05-04', 'lat_lon_source': 'Google'}",50.2937124,8.6949245,ROSI'SKompaktOber-Rosbach,"{'opening_hours': {'Mon': '', 'Tue': '', 'Wed': '', 'Thu': '', 'Fri': '', 'Sat': '', 'Sun': '08:00 - 22:00'}}",060038269663,61191,50.29371248.6949245,,https://rosis-autohof.de/rosis-ober-rosbach/
Marktstraße 37 97355 Rüdenhausen,Tank & Rast,Rüdenhausen,Germany,"{'brand': 'Tank & Rast', 'fascia': ""Rosi's Autohof"", 'category': 'Food and Beverage', 'edit_date': '2025-05-04', 'lat_lon_source': 'Google'}",49.7707132,10.340281,ROSI'SRüdenhausen,"{'opening_hours': {'Mon': '', 'Tue': '', 'Wed': '', 'Thu': '', 'Fri': '', 'Sat': '', 'Sun': '08:00 - 21:00'}}",093838699066,97355,49.770713210.340281,,https://rosis-autohof.de/rosis-ruedenhausen/
Aurea 1-3 33378 Rheda-Wiedenbrück,Tank & Rast,Rheda-Wiedenbrück,Germany,"{'brand': 'Tank & Rast', 'fascia': ""Rosi's Autohof"", 'category': 'Food and Beverage', 'edit_date': '2025-05-04', 'lat_lon_source': 'Google'}",51.8313923,8.2184166,ROSI'SRheda-Wiedenbrück,"{'opening_hours': {'Mon': '', 'Tue': '', 'Wed': '', 'Thu': '', 'Fri': '', 'Sat': '', 'Sun': ''}}",025228343732,33378,51.83139238.2184166,,https://rosis-autohof.de/rosis-rheda-wiedenbrueck/
Dieselstraße 28 85386 Eching,Tank & Rast,Eching,Germany,"{'brand': 'Tank & Rast', 'fascia': ""Rosi's Autohof"", 'category': 'Food and Beverage', 'edit_date': '2025-05-04', 'lat_lon_source': 'Google'}",48.3105754,11.6470428,ROSI'SKompaktEching,"{'opening_hours': {'Mon': '08:00 - 22:00', 'Tue': '', 'Wed': '', 'Thu': '', 'Fri': '', 'Sat': '', 'Sun': ''}}",081659090996,85386,48.310575411.6470428,,https://rosis-autohof.de/rosis-kompakt-eching/
Gewerbepark 6 85646 Anzing,Tank & Rast,Anzing,Germany,"{'brand': 'Tank & Rast', 'fascia': ""Rosi's Autohof"", 'category': 'Food and Beverage', 'edit_date': '2025-05-04', 'lat_lon_source': 'Google'}",48.1595385,11.8540174,ROSI'SKompaktAnzing,"{'opening_hours': {'Mon': '', 'Tue': '', 'Wed': '', 'Thu': '', 'Fri': '', 'Sat': '', 'Sun': ''}}",081212506380,85646,48.159538511.8540174,,https://rosis-autohof.de/rosis-kompakt-anzing/
Rudolf-Diesel-Straße 1 91625 Schnelldorf,Tank & Rast,Schnelldorf,Germany,"{'brand': 'Tank & Rast', 'fascia': ""Rosi's Autohof"", 'category': 'Food and Beverage', 'edit_date': '2025-05-04', 'lat_lon_source': 'Google'}",49.1712029,10.2417226,ROSI'SSchnelldorf,"{'opening_hours': {'Mon': '', 'Tue': '', 'Wed': '', 'Thu': '', 'Fri': '', 'Sat': '', 'Sun': ''}}",079509265240,91625,49.171202910.2417226,,https://rosis-autohof.de/rosis-schnelldorf/
Serways Hotel Weiskirchen Nord An der A3 63110 Rodgau,Tank & Rast,Rodgau,Germany,"{'brand': 'Tank & Rast', 'fascia': 'Serways Hotel', 'category': 'Leisure', 'edit_date': '2025-05-04', 'lat_lon_source': 'Google'}",50.056950405552,8.907096835522,Serways Hotel  Weiskirchen Nord ,"{'opening_hours': {'Mon': '00:00-23:59', 'Tue': '00:00-23:59', 'Wed': '00:00-23:59', 'Thu': '00:00-23:59', 'Fri': '00:00-23:59', 'Sat': '00:00-23:59', 'Sun': '00:00-23:59'}}",+49 61 82 / 78 90,63110,23,WeiskirchenNord,https://www.serways-hotels.de/hotels/weiskirchen-nord
An der Autobahn 1 07589 Lederhose Telefon: ,Tank & Rast,Lederhose,Germany,"{'brand': 'Tank & Rast', 'fascia': ""Rosi's Autohof"", 'category': 'Food and Beverage', 'edit_date': '2025-05-04', 'lat_lon_source': 'Google'}",50.7998024,11.9204501,ROSI'SKompaktLederhose,"{'opening_hours': {'Mon': '', 'Tue': '', 'Wed': '', 'Thu': '', 'Fri': '', 'Sat': '', 'Sun': ''}}",036604993944,07589,50.799802411.9204501,,https://rosis-autohof.de/rosis-kompakt-lederhose/
Auf der Brooke 2 27404 Elsdorf,Tank & Rast,Elsdorf,Germany,"{'brand': 'Tank & Rast', 'fascia': ""Rosi's Autohof"", 'category': 'Food and Beverage', 'edit_date': '2025-05-04', 'lat_lon_source': 'Google'}",53.2305047,9.3430061,ROSI'SZeven,"{'opening_hours': {'Mon': '06:00 - 21:00', 'Tue': '', 'Wed': '', 'Thu': '', 'Fri': '', 'Sat': '', 'Sun': ''}}",042869266416,27404,53.23050479.3430061,,https://rosis-autohof.de/rosis-zeven/
Broichhofstraße 8  40880 Ratingen,Tank & Rast,Ratingen,Germany,"{'brand': 'Tank & Rast', 'fascia': ""Rosi's Autohof"", 'category': 'Food and Beverage', 'edit_date': '2025-05-04', 'lat_lon_source': 'Google'}",51.2902169,6.8046446,ROSI'SKompaktHohenstein,"{'opening_hours': {'Mon': '', 'Tue': '', 'Wed': '', 'Thu': '', 'Fri': '', 'Sat': '', 'Sun': ''}}",021029422656,40880,51.29021696.8046446,,https://rosis-autohof.de/rosis-kompakt-hohenstein/
In der Scheib 3 56291 Pfalzfeld,Tank & Rast,Pfalzfeld,Germany,"{'brand': 'Tank & Rast', 'fascia': ""Rosi's Autohof"", 'category': 'Food and Beverage', 'edit_date': '2025-05-04', 'lat_lon_source': 'Google'}",50.1157307,7.5990872,ROSI'SPfalzfeld,"{'opening_hours': {'Mon': '', 'Tue': '', 'Wed': '', 'Thu': '', 'Fri': '', 'Sat': '', 'Sun': ''}}",067468035490,56291,50.11573077.5990872,,https://rosis-autohof.de/rosis-pfalzfeld/
Hietzingerwiesen 4 94431 Pilsting,Tank & Rast,Pilsting,Germany,"{'brand': 'Tank & Rast', 'fascia': ""Rosi's Autohof"", 'category': 'Food and Beverage', 'edit_date': '2025-05-04', 'lat_lon_source': 'Google'}",48.6923961,12.6737172,ROSI'SPilsting,"{'opening_hours': {'Mon': '11:00 - 22:00', 'Tue': '', 'Wed': '', 'Thu': '', 'Fri': '', 'Sat': '', 'Sun': ''}}",099539807972,94431,48.692396112.6737172,,https://rosis-autohof.de/rosis-pilsting/
Holsterfeld 2 48499 Salzbergen,Tank & Rast,Salzbergen,Germany,"{'brand': 'Tank & Rast', 'fascia': ""Rosi's Autohof"", 'category': 'Food and Beverage', 'edit_date': '2025-05-04', 'lat_lon_source': 'Google'}",52.3263111,7.4291368,ROSI'SSalzbergen,"{'opening_hours': {'Mon': '', 'Tue': '', 'Wed': '', 'Thu': '', 'Fri': '', 'Sat': '', 'Sun': ''}}",0597197260,48499,52.32631117.4291368,,https://rosis-autohof.de/rosis-salzbergen/
Im Zengerott 3 An der A2 59069 Hamm,Tank & Rast,Hamm,Germany,"{'brand': 'Tank & Rast', 'fascia': 'Serways Hotel', 'category': 'Leisure', 'edit_date': '2025-05-04', 'lat_lon_source': 'Google'}",51.630009813095,7.8732012955503,Serways Hotel  Rhynern Süd ,"{'opening_hours': {'Mon': '00:00-23:59', 'Tue': '00:00-23:59', 'Wed': '00:00-23:59', 'Thu': '00:00-23:59', 'Fri': '00:00-23:59', 'Sat': '00:00-23:59', 'Sun': '00:00-23:59'}}",+49 2385 455,59069,49,RhynernSüd,https://www.serways-hotels.de/hotels/rhynern-sued
Unter dem Pferdestiege 1 37176 Nörten-Hardenberg,Tank & Rast,Nörten-Hardenberg,Germany,"{'brand': 'Tank & Rast', 'fascia': ""Rosi's Autohof"", 'category': 'Food and Beverage', 'edit_date': '2025-05-04', 'lat_lon_source': 'Google'}",51.6295936,9.921803,ROSI'SNörten-Hardenberg,"{'opening_hours': {'Mon': '11:00 - 22:00', 'Tue': '', 'Wed': '', 'Thu': '', 'Fri': '', 'Sat': '', 'Sun': ''}}",055039151355,37176,51.62959369.921803,,https://rosis-autohof.de/rosis-noerten-hardenberg/
Im Seefeld 2 74592 Kirchberg an der Jagst,Tank & Rast,Kirchberg an der Jagst,Germany,"{'brand': 'Tank & Rast', 'fascia': ""Rosi's Autohof"", 'category': 'Food and Beverage', 'edit_date': '2025-05-04', 'lat_lon_source': 'Google'}",49.1713167,9.9619417,ROSI'SKirchberg,"{'opening_hours': {'Mon': '', 'Tue': '', 'Wed': '', 'Thu': '', 'Fri': '', 'Sat': '', 'Sun': '09:00 - 20:30'}}",07904940491,74592,49.17131679.9619417,,https://rosis-autohof.de/rosis-kirchberg/
Gustav-Stresemann-Straße 2 55411 Bingen am Rhein,Tank & Rast,Bingen am Rhein,Germany,"{'brand': 'Tank & Rast', 'fascia': ""Rosi's Autohof"", 'category': 'Food and Beverage', 'edit_date': '2025-05-04', 'lat_lon_source': 'Google'}",49.9253513,7.9371037,ROSI'SNahetal,"{'opening_hours': {'Mon': '', 'Tue': '', 'Wed': '', 'Thu': '', 'Fri': '', 'Sat': '08:00 - 21:30', 'Sun': '08:00 - 21:30'}}",067219628623,55411,49.92535137.9371037,,https://rosis-autohof.de/rosis-nahetal/
Straßburger Straße 4 31275 Lehrte,Tank & Rast,Lehrte,Germany,"{'brand': 'Tank & Rast', 'fascia': ""Rosi's Autohof"", 'category': 'Food and Beverage', 'edit_date': '2025-05-04', 'lat_lon_source': 'Google'}",52.3853609,9.9527675,ROSI'SLehrte,"{'opening_hours': {'Mon': '', 'Tue': '', 'Wed': '', 'Thu': '', 'Fri': '', 'Sat': '11:00 - 19:00', 'Sun': ''}}",05132588808,31275,52.38536099.9527675,,https://rosis-autohof.de/rosis-lehrte/
Serways Hotel Steigerwald Süd An der A3 96193 Wachenroth,Tank & Rast,Wachenroth,Germany,"{'brand': 'Tank & Rast', 'fascia': 'Serways Hotel', 'category': 'Leisure', 'edit_date': '2025-05-04', 'lat_lon_source': 'Google'}",49.730609128317,10.726753291362,Serways Hotel  Steigerwald Süd ,"{'opening_hours': {'Mon': '00:00-23:59', 'Tue': '00:00-23:59', 'Wed': '00:00-23:59', 'Thu': '00:00-23:59', 'Fri': '00:00-23:59', 'Sat': '00:00-23:59', 'Sun': '00:00-23:59'}}",+49 95 48 / 92 32 10 1,96193,36,SteigerwaldSüd,https://www.serways-hotels.de/hotels/steigerwald-sued
Serways Hotel Heiligenroth An der A3 56412 Heiligenroth,Tank & Rast,Heiligenroth,Germany,"{'brand': 'Tank & Rast', 'fascia': 'Serways Hotel', 'category': 'Leisure', 'edit_date': '2025-05-04', 'lat_lon_source': 'Google'}",50.454477847062,7.8712538348861,Serways Hotel  Heiligenroth ,"{'opening_hours': {'Mon': '00:00-23:59', 'Tue': '00:00-23:59', 'Wed': '00:00-23:59', 'Thu': '00:00-23:59', 'Fri': '00:00-23:59', 'Sat': '00:00-23:59', 'Sun': '00:00-23:59'}}",+49 26 02 / 10 68 40,56412,22,Heiligenroth,https://www.serways-hotels.de/hotels/heiligenroth
Raststaetten Hotel Hannover-Garbsen Nord Burgstraße 125 30823 Garbsen,Tank & Rast,Garbsen,Germany,"{'brand': 'Tank & Rast', 'fascia': 'Serways Hotel', 'category': 'Leisure', 'edit_date': '2025-05-04', 'lat_lon_source': 'Google'}",52.42230093694,9.5533354146541,Serways Hotel  Hannover Garbsen Nord ,"{'opening_hours': {'Mon': '00:00-23:59', 'Tue': '00:00-23:59', 'Wed': '00:00-23:59', 'Thu': '00:00-23:59', 'Fri': '00:00-23:59', 'Sat': '00:00-23:59', 'Sun': '00:00-23:59'}}",+49 (0) 5137 - 877 600,30823,197,HannoverGarbsenNord,https://www.raststaetten-hotels.de/hotels/hannover-garbsen-nord
Raststaetten Hotel Rhynern Nord Ostendorfstraße 62 59069 Hamm,Tank & Rast,Hamm,Germany,"{'brand': 'Tank & Rast', 'fascia': 'Serways Hotel', 'category': 'Leisure', 'edit_date': '2025-05-04', 'lat_lon_source': 'Google'}",51.6323950843,7.8744248621918,Serways Hotel  Rhynern-Nord ,"{'opening_hours': {'Mon': '00:00-23:59', 'Tue': '00:00-23:59', 'Wed': '00:00-23:59', 'Thu': '00:00-23:59', 'Fri': '00:00-23:59', 'Sat': '00:00-23:59', 'Sun': '00:00-23:59'}}",+49 (0) 2385 - 921 270,59069,200,Rhynern-Nord,https://www.raststaetten-hotels.de/hotels/rhynern-nord
Raststaetten Hotel Leipheim Süd im Donauried Leipheim Süd A8 89340 Leipheim,Tank & Rast,Leipheim,Germany,"{'brand': 'Tank & Rast', 'fascia': 'Serways Hotel', 'category': 'Leisure', 'edit_date': '2025-05-04', 'lat_lon_source': 'Google'}",48.437314588185,10.213499351787,Serways Hotel  Leipheim Süd ,"{'opening_hours': {'Mon': '00:00-23:59', 'Tue': '00:00-23:59', 'Wed': '00:00-23:59', 'Thu': '00:00-23:59', 'Fri': '00:00-23:59', 'Sat': '00:00-23:59', 'Sun': '00:00-23:59'}}",+49 (0) 8221 27800,89340,185,LeipheimSüd,https://www.raststaetten-hotels.de/hotels/leipheim-sued
Serways Hotel Waldmohr An der A6 66914 Waldmohr,Tank & Rast,Waldmohr,Germany,"{'brand': 'Tank & Rast', 'fascia': 'Serways Hotel', 'category': 'Leisure', 'edit_date': '2025-05-04', 'lat_lon_source': 'Google'}",49.373400462211,7.3737943910201,Serways Hotel  Waldmohr ,"{'opening_hours': {'Mon': '00:00-23:59', 'Tue': '00:00-23:59', 'Wed': '00:00-23:59', 'Thu': '00:00-23:59', 'Fri': '00:00-23:59', 'Sat': '00:00-23:59', 'Sun': '00:00-23:59'}}",+49 6373 3235,66914,46,Waldmohr,https://www.serways-hotels.de/hotels/hotel-waldmohr
Serways Hotel Lüneburger Heide West An der A7 29646 Bispingen,Tank & Rast,Bispingen,Germany,"{'brand': 'Tank & Rast', 'fascia': 'Serways Hotel', 'category': 'Leisure', 'edit_date': '2025-05-04', 'lat_lon_source': 'Google'}",53.109856343179,9.9816735137472,Serways Hotel  Lüneburger Heide West ,"{'opening_hours': {'Mon': '00:00-23:59', 'Tue': '00:00-23:59', 'Wed': '00:00-23:59', 'Thu': '00:00-23:59', 'Fri': '00:00-23:59', 'Sat': '00:00-23:59', 'Sun': '00:00-23:59'}}",+49 5194 / 98280 500,29646,40,LüneburgerHeideWest,https://www.serways-hotels.de/hotels/lueneburger-heide-west
Serways Hotel Siegburg West An der A3 / Alte Poststraße 90 53721 Siegburg,Tank & Rast,Siegburg,Germany,"{'brand': 'Tank & Rast', 'fascia': 'Serways Hotel', 'category': 'Leisure', 'edit_date': '2025-05-04', 'lat_lon_source': 'Google'}",50.807790556443,7.2189088897548,Serways Hotel  Siegburg West ,"{'opening_hours': {'Mon': '00:00-23:59', 'Tue': '00:00-23:59', 'Wed': '00:00-23:59', 'Thu': '00:00-23:59', 'Fri': '00:00-23:59', 'Sat': '00:00-23:59', 'Sun': '00:00-23:59'}}",+49 2241 / 12 79 08 0,53721,35,SiegburgWest,https://www.serways-hotels.de/hotels/siegburg-west
Serways Hotel Nürnberg Feucht Ost An der A9 90537 Feucht,Tank & Rast,Feucht,Germany,"{'brand': 'Tank & Rast', 'fascia': 'Serways Hotel', 'category': 'Leisure', 'edit_date': '2025-05-04', 'lat_lon_source': 'Google'}",49.356540135576,11.204668448158,Serways Hotel  Nürnberg Feucht Ost ,"{'opening_hours': {'Mon': '00:00-23:59', 'Tue': '00:00-23:59', 'Wed': '00:00-23:59', 'Thu': '00:00-23:59', 'Fri': '00:00-23:59', 'Sat': '00:00-23:59', 'Sun': '00:00-23:59'}}",+49 91 28 / 92 77 0,90537,26,NürnbergFeuchtOst,https://www.serways-hotels.de/hotels/nuernberg-feucht-ost
Henleinstraße 35 86368 Gersthofen,Tank & Rast,Gersthofen,Germany,"{'brand': 'Tank & Rast', 'fascia': ""Rosi's Autohof"", 'category': 'Food and Beverage', 'edit_date': '2025-05-04', 'lat_lon_source': 'Google'}",48.444248,10.8757677,ROSI'SGersthofen,"{'opening_hours': {'Mon': '11:00 - 22:00', 'Tue': '', 'Wed': '', 'Thu': '', 'Fri': '', 'Sat': '', 'Sun': ''}}",082142092000,86368,48.44424810.8757677,,https://rosis-autohof.de/rosis-gersthofen/
Klaus-Seckel-Str. 2 29683 Bad Fallingbostel,Tank & Rast,Bad Fallingbostel,Germany,"{'brand': 'Tank & Rast', 'fascia': ""Rosi's Autohof"", 'category': 'Food and Beverage', 'edit_date': '2025-05-04', 'lat_lon_source': 'Google'}",52.8923663,9.7681042,ROSI'SDorfmark,"{'opening_hours': {'Mon': '06:00 - 22:00', 'Tue': '06:00 - 22:00', 'Wed': '06:00 - 22:00', 'Thu': '06:00 - 22:00', 'Fri': '06:00 - 22:00', 'Sat': '06:00 - 22:00', 'Sun': '06:00 - 22:00'}}",051632910830,29683,52.89236639.7681042,,https://rosis-autohof.de/rosis-dorfmark/
Michelsrombacher Straße 6 36039 Fulda,Tank & Rast,Fulda,Germany,"{'brand': 'Tank & Rast', 'fascia': ""Rosi's Autohof"", 'category': 'Food and Beverage', 'edit_date': '2025-05-04', 'lat_lon_source': 'Google'}",50.5805262,9.706263,ROSI'SFulda,"{'opening_hours': {'Mon': '', 'Tue': '', 'Wed': '', 'Thu': '', 'Fri': '', 'Sat': '11:00 - 18:00', 'Sun': ''}}",066196211314,36039,50.58052629.706263,,https://rosis-autohof.de/rosis-fulda-nord/
An der BAB 5 79258 Hartheim,Tank & Rast,Hartheim,Germany,"{'brand': 'Tank & Rast', 'fascia': ""Rosi's Autohof"", 'category': 'Food and Beverage', 'edit_date': '2025-05-04', 'lat_lon_source': 'Google'}",47.9085966,7.5921581,ROSI'SBremgarten,"{'opening_hours': {'Mon': '', 'Tue': '', 'Wed': '', 'Thu': '', 'Fri': '', 'Sat': '', 'Sun': '09:30 - 21:00'}}",076339202116,79258,47.90859667.5921581,,https://rosis-autohof.de/rosis-bremgarten/
Serways Hotel Reinhardshain Nord BAB 5 35305 Grünberg,Tank & Rast,Grünberg,Germany,"{'brand': 'Tank & Rast', 'fascia': 'Serways Hotel', 'category': 'Leisure', 'edit_date': '2025-05-04', 'lat_lon_source': 'Google'}",50.623299283989,8.8948666482685,Serways Hotel  Reinhardshain ,"{'opening_hours': {'Mon': '00:00-23:59', 'Tue': '00:00-23:59', 'Wed': '00:00-23:59', 'Thu': '00:00-23:59', 'Fri': '00:00-23:59', 'Sat': '00:00-23:59', 'Sun': '00:00-23:59'}}",+49 64 01 / 88 90,35305,47,Reinhardshain,https://www.serways-hotels.de/hotels/reinhardshain
Rudolf-Diesel-Straße 1 36251 Bad Hersfeld,Tank & Rast,Bad Hersfeld,Germany,"{'brand': 'Tank & Rast', 'fascia': ""Rosi's Autohof"", 'category': 'Food and Beverage', 'edit_date': '2025-05-04', 'lat_lon_source': 'Google'}",50.8530683,9.7255699,ROSI'SBadHersfeld,"{'opening_hours': {'Mon': '07:00 - 22:00', 'Tue': '', 'Wed': '', 'Thu': '', 'Fri': '', 'Sat': '', 'Sun': ''}}",066219661984,36251,50.85306839.7255699,,https://rosis-autohof.de/rosis-bad-hersfeld/
Serways Hotel Remscheid An der A1 / Talsperre 1 42859 Remscheid,Tank & Rast,Remscheid,Germany,"{'brand': 'Tank & Rast', 'fascia': 'Serways Hotel', 'category': 'Leisure', 'edit_date': '2025-05-04', 'lat_lon_source': 'Google'}",51.159194560578,7.2304247799894,Serways Hotel  Remscheid ,"{'opening_hours': {'Mon': '00:00-23:59', 'Tue': '00:00-23:59', 'Wed': '00:00-23:59', 'Thu': '00:00-23:59', 'Fri': '00:00-23:59', 'Sat': '00:00-23:59', 'Sun': '00:00-23:59'}}",+49 21 91 / 90 30,42859,21,Remscheid,https://www.serways-hotels.de/hotels/remscheid
Raststaetten Hotel Irschenberg Süd Wendling 11 83737 Irschenberg,Tank & Rast,Irschenberg,Germany,"{'brand': 'Tank & Rast', 'fascia': 'Serways Hotel', 'category': 'Leisure', 'edit_date': '2025-05-04', 'lat_lon_source': 'Google'}",47.829647024715,11.9066,Serways Hotel  Irschenberg Süd ,"{'opening_hours': {'Mon': '00:00-23:59', 'Tue': '00:00-23:59', 'Wed': '00:00-23:59', 'Thu': '00:00-23:59', 'Fri': '00:00-23:59', 'Sat': '00:00-23:59', 'Sun': '00:00-23:59'}}",+49 (0) 8025 70160,83737,182,IrschenbergSüd,https://www.raststaetten-hotels.de/hotels/irschenberg-sued
Serways Hotel Spessart Süd An der A3 63879 Weibersbrunn,Tank & Rast,Weibersbrunn,Germany,"{'brand': 'Tank & Rast', 'fascia': 'Serways Hotel', 'category': 'Leisure', 'edit_date': '2025-05-04', 'lat_lon_source': 'Google'}",49.894803563019,9.3944474365458,Serways Hotel  Spessart Süd ,"{'opening_hours': {'Mon': '00:00-23:59', 'Tue': '00:00-23:59', 'Wed': '00:00-23:59', 'Thu': '00:00-23:59', 'Fri': '00:00-23:59', 'Sat': '00:00-23:59', 'Sun': '00:00-23:59'}}",+49 60 94 / 94 10,63879,24,SpessartSüd,https://www.serways-hotels.de/hotels/spessart-sued
Raststaetten Hotel Holledau bei Ingolstadt An der Autobahn 1 85301 Schweitenkirchen,Tank & Rast,Schweitenkirchen,Germany,"{'brand': 'Tank & Rast', 'fascia': 'Serways Hotel', 'category': 'Leisure', 'edit_date': '2025-05-04', 'lat_lon_source': 'Google'}",48.556032212056,11.588023118114,Serways Hotel  Holledau bei Ingolstadt in Bayern ,"{'opening_hours': {'Mon': '00:00-23:59', 'Tue': '00:00-23:59', 'Wed': '00:00-23:59', 'Thu': '00:00-23:59', 'Fri': '00:00-23:59', 'Sat': '00:00-23:59', 'Sun': '00:00-23:59'}}",+49 (0) 8441 - 801-0,85301,188,HolledaubeiIngolstadtinBayern,https://www.raststaetten-hotels.de/hotels/in-der-holledau
Raststaetten Hotel Göttingen-West Autobahn A7 37124 Rosdorf,Tank & Rast,Rosdorf,Germany,"{'brand': 'Tank & Rast', 'fascia': 'Serways Hotel', 'category': 'Leisure', 'edit_date': '2025-05-04', 'lat_lon_source': 'Google'}",51.493993515324,9.8752785477083,Serways Hotel  Göttingen West ,"{'opening_hours': {'Mon': '00:00-23:59', 'Tue': '00:00-23:59', 'Wed': '00:00-23:59', 'Thu': '00:00-23:59', 'Fri': '00:00-23:59', 'Sat': '00:00-23:59', 'Sun': '00:00-23:59'}}",+49 (0) 5509 - 92050-0,37124,194,GöttingenWest,https://www.raststaetten-hotels.de/hotels/goettingen-west
Raststaetten Hotel Baden-Baden Am Rasthof 4 76532 Baden-Baden,Tank & Rast,Baden-Baden,Germany,"{'brand': 'Tank & Rast', 'fascia': 'Serways Hotel', 'category': 'Leisure', 'edit_date': '2025-05-04', 'lat_lon_source': 'Google'}",48.813510007245,8.1797380301668,Serways Hotel  Baden-Baden ,"{'opening_hours': {'Mon': '00:00-23:59', 'Tue': '00:00-23:59', 'Wed': '00:00-23:59', 'Thu': '00:00-23:59', 'Fri': '00:00-23:59', 'Sat': '00:00-23:59', 'Sun': '00:00-23:59'}}",+49 (0)7221 9964580,76532,179,Baden-Baden,https://www.raststaetten-hotels.de/hotels/baden-baden
Raststaetten Hotel Fränkische Schweiz-Pegnitz Ost Autobahn A9 91257 Pegnitz,Tank & Rast,Pegnitz,Germany,"{'brand': 'Tank & Rast', 'fascia': 'Serways Hotel', 'category': 'Leisure', 'edit_date': '2025-05-04', 'lat_lon_source': 'Google'}",49.749829175481,11.513613635001,Serways Hotel  Fränkische Schweiz-Pegnitz ,"{'opening_hours': {'Mon': '00:00-23:59', 'Tue': '00:00-23:59', 'Wed': '00:00-23:59', 'Thu': '00:00-23:59', 'Fri': '00:00-23:59', 'Sat': '00:00-23:59', 'Sun': '00:00-23:59'}}",+49 (0) 9241 - 4944-60,91257,191,FränkischeSchweiz-Pegnitz,https://www.raststaetten-hotels.de/hotels/fraenkische-schweiz-pegnitz-ost
Raststaetten Hotel Dresdner Tor Süd An der A4 01723 Wilsdruff,Tank & Rast,Wilsdruff,Germany,"{'brand': 'Tank & Rast', 'fascia': 'Serways Hotel', 'category': 'Leisure', 'edit_date': '2025-05-04', 'lat_lon_source': 'Google'}",51.060448419598,13.573,Serways Hotel  Dresdner Tor Süd ,"{'opening_hours': {'Mon': '00:00-23:59', 'Tue': '00:00-23:59', 'Wed': '00:00-23:59', 'Thu': '00:00-23:59', 'Fri': '00:00-23:59', 'Sat': '00:00-23:59', 'Sun': '00:00-23:59'}}",+49 (0) 35204 90600,01723,309,DresdnerTorSüd,https://www.raststaetten-hotels.de/hotels/dresdner-tor-sued
Serways Hotel Bruchsal West An der A5 76694 Forst,Tank & Rast,Forst,Germany,"{'brand': 'Tank & Rast', 'fascia': 'Serways Hotel', 'category': 'Leisure', 'edit_date': '2025-05-04', 'lat_lon_source': 'Google'}",49.162441044239,8.5674671505131,Serways Hotel  Bruchsal West ,"{'opening_hours': {'Mon': '00:00-23:59', 'Tue': '00:00-23:59', 'Wed': '00:00-23:59', 'Thu': '00:00-23:59', 'Fri': '00:00-23:59', 'Sat': '00:00-23:59', 'Sun': '00:00-23:59'}}",+49 72 51 / 71 80,76694,25,BruchsalWest,https://www.serways-hotels.de/hotels/bruchsal-west
Serways Hotel Hösel Ost An der A3 40883 Ratingen,Tank & Rast,Ratingen,Germany,"{'brand': 'Tank & Rast', 'fascia': 'Serways Hotel', 'category': 'Leisure', 'edit_date': '2025-05-04', 'lat_lon_source': 'Google'}",51.326,6.89132,Serways Hotel  Hösel Ost ,"{'opening_hours': {'Mon': '00:00-23:59', 'Tue': '00:00-23:59', 'Wed': '00:00-23:59', 'Thu': '00:00-23:59', 'Fri': '00:00-23:59', 'Sat': '00:00-23:59', 'Sun': '00:00-23:59'}}",+49 2102 56590-60,40883,302,HöselOst,https://www.serways-hotels.de/hotels/hotel-hoesel-ost
Raststättenhotel Kassel Ost An der A7 34253 Lohfelden,Tank & Rast,Lohfelden,Germany,"{'brand': 'Tank & Rast', 'fascia': 'Serways Hotel', 'category': 'Leisure', 'edit_date': '2025-05-04', 'lat_lon_source': 'Google'}",51.267456208362,9.51832,Serways Hotel  Kassel Ost ,"{'opening_hours': {'Mon': '00:00-23:59', 'Tue': '00:00-23:59', 'Wed': '00:00-23:59', 'Thu': '00:00-23:59', 'Fri': '00:00-23:59', 'Sat': '00:00-23:59', 'Sun': '00:00-23:59'}}",+49 (0) 561 95980,34253,310,KasselOst,https://www.raststaetten-hotels.de/hotels/kassel-ost
Aachener Land Süd An der A4 52249 Eschweiler,Tank & Rast,Eschweiler,Germany,"{'brand': 'Tank & Rast', 'fascia': 'Motorway Service Station', 'category': 'Other', 'edit_date': '2025-05-04', 'lat_lon_source': 'Google'}",50.816865,6.215741, Autobahnraststätte Aachener Land Süd ,"{'Mon': '00:00-23:59', 'Tue': '00:00-23:59', 'Wed': '00:00-23:59', 'Thu': '00:00-23:59', 'Fri': '00:00-23:59', 'Sat': '00:00-23:59', 'Sun': '00:00-23:59'}",+49 2403 961650,Eschweiler,50.816865-6.215741,Aachener Land Süd ,https://www.raststaetten.de/standorte/aachener-land-sued/
Dresdner Tor Nord An der A4 01723 Wilsdruff,Tank & Rast,Wilsdruff,Germany,"{'brand': 'Tank & Rast', 'fascia': 'Motorway Service Station', 'category': 'Other', 'edit_date': '2025-05-04', 'lat_lon_source': 'Google'}",51.06322,13.56221, Autobahnraststätte Dresdner Tor Nord ,"{'Mon': '00:00-23:59', 'Tue': '00:00-23:59', 'Wed': '00:00-23:59', 'Thu': '00:00-23:59', 'Fri': '00:00-23:59', 'Sat': '00:00-23:59', 'Sun': '00:00-23:59'}",+49 35204 67436,Wilsdruff,51.06322-13.56221,Dresdner Tor Nord ,https://www.raststaetten.de/standorte/dresdner-tor-nord/
Edenbergen Süd An der A8 86368 Gersthofen,Tank & Rast,Gersthofen,Germany,"{'brand': 'Tank & Rast', 'fascia': 'Motorway Service Station', 'category': 'Other', 'edit_date': '2025-05-04', 'lat_lon_source': 'Google'}",48.418723,10.811543, Autobahnraststätte Edenbergen Süd ,"{'Mon': '00:00-23:59', 'Tue': '00:00-23:59', 'Wed': '00:00-23:59', 'Thu': '00:00-23:59', 'Fri': '00:00-23:59', 'Sat': '00:00-23:59', 'Sun': '00:00-23:59'}",+49 821 6507240,Gersthofen,48.418723-10.811543,Edenbergen Süd ,https://www.raststaetten.de/standorte/edenbergen-sued/
Dresdner Tor Süd An der A4 01723 Wilsdruff,Tank & Rast,Wilsdruff,Germany,"{'brand': 'Tank & Rast', 'fascia': 'Motorway Service Station', 'category': 'Other', 'edit_date': '2025-05-04', 'lat_lon_source': 'Google'}",51.06118,13.56956, Autobahnraststätte Dresdner Tor Süd ,"{'Mon': '00:00-23:59', 'Tue': '00:00-23:59', 'Wed': '00:00-23:59', 'Thu': '00:00-23:59', 'Fri': '00:00-23:59', 'Sat': '00:00-23:59', 'Sun': '00:00-23:59'}",+49 35204 9050,Wilsdruff,51.06118-13.56956,Dresdner Tor Süd ,https://www.raststaetten.de/standorte/dresdner-tor-sued/
Eichelborn Süd An der A4 99428 Grammetal,Tank & Rast,Grammetal,Germany,"{'brand': 'Tank & Rast', 'fascia': 'Motorway Service Station', 'category': 'Other', 'edit_date': '2025-05-04', 'lat_lon_source': 'Google'}",50.948458,11.196053, Autobahnraststätte Eichelborn Süd ,"{'Mon': '00:00-23:59', 'Tue': '00:00-23:59', 'Wed': '00:00-23:59', 'Thu': '00:00-23:59', 'Fri': '00:00-23:59', 'Sat': '00:00-23:59', 'Sun': '00:00-23:59'}",+49 170 5586137,Grammetal,50.948458-11.196053,Eichelborn Süd ,https://www.raststaetten.de/standorte/eichelborn-sued/
Eichelborn Nord An der A4 99198 Eichelborn,Tank & Rast,Eichelborn,Germany,"{'brand': 'Tank & Rast', 'fascia': 'Motorway Service Station', 'category': 'Other', 'edit_date': '2025-05-04', 'lat_lon_source': 'Google'}",50.94981,11.196016, Autobahnraststätte Eichelborn Nord ,"{'Mon': '00:00-23:59', 'Tue': '00:00-23:59', 'Wed': '00:00-23:59', 'Thu': '00:00-23:59', 'Fri': '00:00-23:59', 'Sat': '00:00-23:59', 'Sun': '00:00-23:59'}",+49 36209 431381,Eichelborn,50.94981-11.196016,Eichelborn Nord ,https://www.raststaetten.de/standorte/eichelborn-nord/
Ehrenberg West An der A1 42389 Wuppertal,Tank & Rast,Wuppertal,Germany,"{'brand': 'Tank & Rast', 'fascia': 'Motorway Service Station', 'category': 'Other', 'edit_date': '2025-05-04', 'lat_lon_source': 'Google'}",51.264922,7.243754, Autobahnraststätte Ehrenberg West ,"{'Mon': '00:00-23:59', 'Tue': '00:00-23:59', 'Wed': '00:00-23:59', 'Thu': '00:00-23:59', 'Fri': '00:00-23:59', 'Sat': '00:00-23:59', 'Sun': '00:00-23:59'}",+49 2022 8173844,Wuppertal,51.264922-7.243754,Ehrenberg West ,https://www.raststaetten.de/standorte/ehrenberg-west/
Donautal West An der A3 94036 Passau,Tank & Rast,Passau,Germany,"{'brand': 'Tank & Rast', 'fascia': 'Motorway Service Station', 'category': 'Other', 'edit_date': '2025-05-04', 'lat_lon_source': 'Google'}",48.59,13.366, Autobahnraststätte Donautal West ,"{'Mon': '00:00-23:59', 'Tue': '00:00-23:59', 'Wed': '00:00-23:59', 'Thu': '00:00-23:59', 'Fri': '00:00-23:59', 'Sat': '00:00-23:59', 'Sun': '00:00-23:59'}",+49 851 96618880,Passau,48.59-13.366,Donautal West ,https://www.raststaetten.de/standorte/donautal-west/
Eifel Ost An der A1 54533 Niederöfflingen,Tank & Rast,Niederöfflingen,Germany,"{'brand': 'Tank & Rast', 'fascia': 'Motorway Service Station', 'category': 'Other', 'edit_date': '2025-05-04', 'lat_lon_source': 'Google'}",50.0694868,6.8814078, Autobahnraststätte Eifel Ost ,"{'Mon': '00:00-23:59', 'Tue': '00:00-23:59', 'Wed': '00:00-23:59', 'Thu': '00:00-23:59', 'Fri': '00:00-23:59', 'Sat': '00:00-23:59', 'Sun': '00:00-23:59'}",+49 6574 9002945,Niederöfflingen,50.0694868-6.8814078,Eifel Ost ,https://www.raststaetten.de/standorte/eifel-ost/
Eifel West An der A1 54533 Niederöfflingen,Tank & Rast,Niederöfflingen,Germany,"{'brand': 'Tank & Rast', 'fascia': 'Motorway Service Station', 'category': 'Other', 'edit_date': '2025-05-04', 'lat_lon_source': 'Google'}",50.0692395,6.8793727, Autobahnraststätte Eifel West ,"{'Mon': '00:00-23:59', 'Tue': '00:00-23:59', 'Wed': '00:00-23:59', 'Thu': '00:00-23:59', 'Fri': '00:00-23:59', 'Sat': '00:00-23:59', 'Sun': '00:00-23:59'}",+49 6574 9002217,Niederöfflingen,50.0692395-6.8793727,Eifel West ,https://www.raststaetten.de/standorte/eifel-west/
Donautal Ost An der A3 94036 Passau,Tank & Rast,Passau,Germany,"{'brand': 'Tank & Rast', 'fascia': 'Motorway Service Station', 'category': 'Other', 'edit_date': '2025-05-04', 'lat_lon_source': 'Google'}",48.588,13.366, Autobahnraststätte Donautal Ost ,"{'Mon': '00:00-23:59', 'Tue': '00:00-23:59', 'Wed': '00:00-23:59', 'Thu': '00:00-23:59', 'Fri': '00:00-23:59', 'Sat': '00:00-23:59', 'Sun': '00:00-23:59'}",+49 851 75688830,Passau,48.588-13.366,Donautal Ost ,https://www.raststaetten.de/standorte/donautal-ost/
Zweidorfer Holz Süd An der A2 38176 Wendeburg,Tank & Rast,Wendeburg,Germany,"{'brand': 'Tank & Rast', 'fascia': 'Motorway Service Station', 'category': 'Other', 'edit_date': '2025-05-04', 'lat_lon_source': 'Google'}",52.339173,10.359601, Autobahnraststätte Zweidorfer Holz Süd ,"{'Mon': '00:00-23:59', 'Tue': '00:00-23:59', 'Wed': '00:00-23:59', 'Thu': '00:00-23:59', 'Fri': '00:00-23:59', 'Sat': '00:00-23:59', 'Sun': '00:00-23:59'}",+49 5303 921888,Wendeburg,52.339173-10.359601,Zweidorfer Holz Süd ,https://www.raststaetten.de/standorte/zweidorfer-holz-sued/
Chiemsee Nord An der A8 83233 Felden,Tank & Rast,Felden,Germany,"{'brand': 'Tank & Rast', 'fascia': 'Motorway Service Station', 'category': 'Other', 'edit_date': '2025-05-04', 'lat_lon_source': 'Google'}",47.834109,12.4027, Autobahnraststätte Chiemsee Nord ,"{'Mon': '07:00 - 18:00', 'Tue': '07:00 - 18:00', 'Wed': '07:00 - 18:00', 'Thu': '07:00 - 18:00', 'Fri': '07:00 - 18:00', 'Sat': '07:00 - 18:00', 'Sun': '07:00 - 18:00'}",+49 8051 970080,Felden,47.834109-12.4027,Chiemsee Nord ,https://www.raststaetten.de/standorte/chiemsee-nord/
Cloerbruch Süd An der A52 47877 Willich,Tank & Rast,Willich,Germany,"{'brand': 'Tank & Rast', 'fascia': 'Motorway Service Station', 'category': 'Other', 'edit_date': '2025-05-04', 'lat_lon_source': 'Google'}",51.237221,6.510674, Autobahnraststätte Cloerbruch Süd ,"{'Mon': '06:00 - 21:00', 'Tue': '06:00 - 21:00', 'Wed': '06:00 - 21:00', 'Thu': '06:00 - 21:00', 'Fri': '06:00 - 21:00', 'Sat': '06:00 - 21:00', 'Sun': '06:00 - 21:00'}",+49 2154 950741,Willich,51.237221-6.510674,Cloerbruch Süd ,https://www.raststaetten.de/standorte/cloerbruch-sued/
Würzburg Süd An der A3 97084 Würzburg,Tank & Rast,Würzburg,Germany,"{'brand': 'Tank & Rast', 'fascia': 'Motorway Service Station', 'category': 'Other', 'edit_date': '2025-05-04', 'lat_lon_source': 'Google'}",49.750515,9.963269, Autobahnraststätte Würzburg Süd ,"{'Mon': '00:00-23:59', 'Tue': '00:00-23:59', 'Wed': '00:00-23:59', 'Thu': '00:00-23:59', 'Fri': '00:00-23:59', 'Sat': '00:00-23:59', 'Sun': '00:00-23:59'}",+49 931 619630,Würzburg,49.750515-9.963269,Würzburg Süd ,https://www.raststaetten.de/standorte/wuerzburg-sued/
Dollenberg Ost An der A45 35745 Dollenberg,Tank & Rast,Dollenberg,Germany,"{'brand': 'Tank & Rast', 'fascia': 'Motorway Service Station', 'category': 'Other', 'edit_date': '2025-05-04', 'lat_lon_source': 'Google'}",50.688908,8.295883, Autobahnraststätte Dollenberg Ost ,"{'Mon': '00:00-23:59', 'Tue': '00:00-23:59', 'Wed': '00:00-23:59', 'Thu': '00:00-23:59', 'Fri': '00:00-23:59', 'Sat': '00:00-23:59', 'Sun': '00:00-23:59'}",+49 2772 574832,Dollenberg,50.688908-8.295883,Dollenberg Ost ,https://www.raststaetten.de/standorte/dollenberg-ost/
Bühleck Süd An der A44 34289 Zierenberg,Tank & Rast,Zierenberg,Germany,"{'brand': 'Tank & Rast', 'fascia': 'Motorway Service Station', 'category': 'Other', 'edit_date': '2025-05-04', 'lat_lon_source': 'Google'}",51.38168,9.23633, Autobahnraststätte Bühleck Süd ,"{'Mon': '00:00-23:59', 'Tue': '00:00-23:59', 'Wed': '00:00-23:59', 'Thu': '00:00-23:59', 'Fri': '00:00-23:59', 'Sat': '00:00-23:59', 'Sun': '00:00-23:59'}",+49 5606 56367981,Zierenberg,51.38168-9.23633,Bühleck Süd ,https://www.raststaetten.de/standorte/buehleck-sued/
Würzburg Nord An der A3 97084 Würzburg,Tank & Rast,Würzburg,Germany,"{'brand': 'Tank & Rast', 'fascia': 'Motorway Service Station', 'category': 'Other', 'edit_date': '2025-05-04', 'lat_lon_source': 'Google'}",49.755737,9.95931, Autobahnraststätte Würzburg Nord ,"{'Mon': '00:00-23:59', 'Tue': '00:00-23:59', 'Wed': '00:00-23:59', 'Thu': '00:00-23:59', 'Fri': '00:00-23:59', 'Sat': '00:00-23:59', 'Sun': '00:00-23:59'}",+49 931 614020,Würzburg,49.755737-9.95931,Würzburg Nord ,https://www.raststaetten.de/standorte/wuerzburg-nord/
Wonnegau West An der A61 67551 Worms,Tank & Rast,Worms,Germany,"{'brand': 'Tank & Rast', 'fascia': 'Motorway Service Station', 'category': 'Other', 'edit_date': '2025-05-04', 'lat_lon_source': 'Google'}",49.647,8.29, Autobahnraststätte Wonnegau West ,"{'Mon': '00:00-23:59', 'Tue': '00:00-23:59', 'Wed': '00:00-23:59', 'Thu': '00:00-23:59', 'Fri': '00:00-23:59', 'Sat': '00:00-23:59', 'Sun': '00:00-23:59'}",+49 6241 978180,Worms,49.647-8.29,Wonnegau West ,https://www.raststaetten.de/standorte/wonnegau-west/
Wetterau Ost An der A5 61239 Ober-Mörlen,Tank & Rast,Ober-Mörlen,Germany,"{'brand': 'Tank & Rast', 'fascia': 'Motorway Service Station', 'category': 'Other', 'edit_date': '2025-05-04', 'lat_lon_source': 'Google'}",50.35566,8.69456, Autobahnraststätte Wetterau Ost ,"{'Mon': '00:00-23:59', 'Tue': '00:00-23:59', 'Wed': '00:00-23:59', 'Thu': '00:00-23:59', 'Fri': '00:00-23:59', 'Sat': '00:00-23:59', 'Sun': '00:00-23:59'}",+49 6002 9927114,Ober-Mörlen,50.35566-8.69456,Wetterau Ost ,https://www.raststaetten.de/standorte/wetterau-ost/
Wolfslake West An der A10 14641 Perwenitz,Tank & Rast,Perwenitz,Germany,"{'brand': 'Tank & Rast', 'fascia': 'Motorway Service Station', 'category': 'Other', 'edit_date': '2025-05-04', 'lat_lon_source': 'Google'}",52.665298,13.004641, Autobahnraststätte Wolfslake West ,"{'Mon': '00:00-23:59', 'Tue': '00:00-23:59', 'Wed': '00:00-23:59', 'Thu': '00:00-23:59', 'Fri': '00:00-23:59', 'Sat': '00:00-23:59', 'Sun': '00:00-23:59'}",+49 33230 50221,Perwenitz,52.665298-13.004641,Wolfslake West ,https://www.raststaetten.de/standorte/wolfslake-west/
Wildeshausen Nord An der A1 27801 Dötlingen,Tank & Rast,Dötlingen,Germany,"{'brand': 'Tank & Rast', 'fascia': 'Motorway Service Station', 'category': 'Other', 'edit_date': '2025-05-04', 'lat_lon_source': 'Google'}",52.914932,8.425141, Autobahnraststätte Wildeshausen Nord ,"{'Mon': '00:00-23:59', 'Tue': '00:00-23:59', 'Wed': '00:00-23:59', 'Thu': '00:00-23:59', 'Fri': '00:00-23:59', 'Sat': '00:00-23:59', 'Sun': '00:00-23:59'}",+49 4431 93970,Dötlingen,52.914932-8.425141,Wildeshausen Nord ,https://www.raststaetten.de/standorte/wildeshausen-nord/
Wolfslake Ost An der A10 14641 Perwenitz,Tank & Rast,Perwenitz,Germany,"{'brand': 'Tank & Rast', 'fascia': 'Motorway Service Station', 'category': 'Other', 'edit_date': '2025-05-04', 'lat_lon_source': 'Google'}",52.684472,13.011223, Autobahnraststätte Wolfslake Ost ,"{'Mon': '00:00-23:59', 'Tue': '00:00-23:59', 'Wed': '00:00-23:59', 'Thu': '00:00-23:59', 'Fri': '00:00-23:59', 'Sat': '00:00-23:59', 'Sun': '00:00-23:59'}",+49 33230 50226,Perwenitz,52.684472-13.011223,Wolfslake Ost ,https://www.raststaetten.de/standorte/wolfslake-ost/
Wildeshausen Süd An der A1 27801 Dötlingen,Tank & Rast,Dötlingen,Germany,"{'brand': 'Tank & Rast', 'fascia': 'Motorway Service Station', 'category': 'Other', 'edit_date': '2025-05-04', 'lat_lon_source': 'Google'}",52.913898,8.426727, Autobahnraststätte Wildeshausen Süd ,"{'Mon': '00:00-23:59', 'Tue': '00:00-23:59', 'Wed': '00:00-23:59', 'Thu': '00:00-23:59', 'Fri': '00:00-23:59', 'Sat': '00:00-23:59', 'Sun': '00:00-23:59'}",+49 4431 99770,Dötlingen,52.913898-8.426727,Wildeshausen Süd ,https://www.raststaetten.de/standorte/wildeshausen-sued/
Weiskirchen Süd An der A3 63110 Rodgau,Tank & Rast,Rodgau,Germany,"{'brand': 'Tank & Rast', 'fascia': 'Motorway Service Station', 'category': 'Other', 'edit_date': '2025-05-04', 'lat_lon_source': 'Google'}",50.055212,8.907371, Autobahnraststätte Weiskirchen Süd ,"{'Mon': '00:00-23:59', 'Tue': '00:00-23:59', 'Wed': '00:00-23:59', 'Thu': '00:00-23:59', 'Fri': '00:00-23:59', 'Sat': '00:00-23:59', 'Sun': '00:00-23:59'}",+49 6182 5024,Rodgau,50.055212-8.907371,Weiskirchen Süd ,https://www.raststaetten.de/standorte/weiskirchen-sued/
Walsleben West An der A24 16818 Walsleben,Tank & Rast,Walsleben,Germany,"{'brand': 'Tank & Rast', 'fascia': 'Motorway Service Station', 'category': 'Other', 'edit_date': '2025-05-04', 'lat_lon_source': 'Google'}",52.950777,12.659641, Autobahnraststätte Walsleben West ,"{'Mon': '00:00-23:59', 'Tue': '00:00-23:59', 'Wed': '00:00-23:59', 'Thu': '00:00-23:59', 'Fri': '00:00-23:59', 'Sat': '00:00-23:59', 'Sun': '00:00-23:59'}",+49 33920 69337,Walsleben,52.950777-12.659641,Walsleben West ,https://www.raststaetten.de/standorte/walsleben-west/
Vellern An der A2 59269 Beckum,Tank & Rast,Beckum,Germany,"{'brand': 'Tank & Rast', 'fascia': 'Motorway Service Station', 'category': 'Other', 'edit_date': '2025-05-04', 'lat_lon_source': 'Google'}",51.790785,8.072719, Autobahnraststätte Vellern ,"{'Mon': '00:00-23:59', 'Tue': '00:00-23:59', 'Wed': '00:00-23:59', 'Thu': '00:00-23:59', 'Fri': '00:00-23:59', 'Sat': '00:00-23:59', 'Sun': '00:00-23:59'}",+49 2521 3496,Beckum,51.790785-8.072719,Vellern ,https://www.raststaetten.de/standorte/vellern/
Walsleben Ost An der A24 16818 Walsleben,Tank & Rast,Walsleben,Germany,"{'brand': 'Tank & Rast', 'fascia': 'Motorway Service Station', 'category': 'Other', 'edit_date': '2025-05-04', 'lat_lon_source': 'Google'}",52.950989,12.662142, Autobahnraststätte Walsleben Ost ,"{'Mon': '00:00-23:59', 'Tue': '00:00-23:59', 'Wed': '00:00-23:59', 'Thu': '00:00-23:59', 'Fri': '00:00-23:59', 'Sat': '00:00-23:59', 'Sun': '00:00-23:59'}",+49 33920 69291,Walsleben,52.950989-12.662142,Walsleben Ost ,https://www.raststaetten.de/standorte/walsleben-ost/
Vierwinden Süd An der A46 41516 Grevenbroich,Tank & Rast,Grevenbroich,Germany,"{'brand': 'Tank & Rast', 'fascia': 'Motorway Service Station', 'category': 'Other', 'edit_date': '2025-05-04', 'lat_lon_source': 'Google'}",51.12473,6.600183, Autobahnraststätte Vierwinden Süd ,"{'Mon': '06:00 - 22:00', 'Tue': '06:00 - 22:00', 'Wed': '06:00 - 22:00', 'Thu': '06:00 - 22:00', 'Fri': '06:00 - 22:00', 'Sat': '06:00 - 22:00', 'Sun': '06:00 - 22:00'}",+49 2182 571346,Grevenbroich,51.12473-6.600183,Vierwinden Süd ,https://www.raststaetten.de/standorte/vierwinden-sued/
Uttrichshausen West An der A7 36148 Uttrichshausen,Tank & Rast,Uttrichshausen,Germany,"{'brand': 'Tank & Rast', 'fascia': 'Motorway Service Station', 'category': 'Other', 'edit_date': '2025-05-04', 'lat_lon_source': 'Google'}",50.418593,9.734466, Autobahnraststätte Uttrichshausen West ,"{'Mon': '00:00-23:59', 'Tue': '00:00-23:59', 'Wed': '00:00-23:59', 'Thu': '00:00-23:59', 'Fri': '00:00-23:59', 'Sat': '00:00-23:59', 'Sun': '00:00-23:59'}",+49 9742 349,Uttrichshausen,50.418593-9.734466,Uttrichshausen West ,https://www.raststaetten.de/standorte/uttrichshausen-west/
Teufelstal Nord An der A4 07646 Bollberg,Tank & Rast,Bollberg,Germany,"{'brand': 'Tank & Rast', 'fascia': 'Motorway Service Station', 'category': 'Other', 'edit_date': '2025-05-04', 'lat_lon_source': 'Google'}",50.877326,11.808342, Autobahnraststätte Teufelstal Nord ,"{'Mon': '00:00-23:59', 'Tue': '00:00-23:59', 'Wed': '00:00-23:59', 'Thu': '00:00-23:59', 'Fri': '00:00-23:59', 'Sat': '00:00-23:59', 'Sun': '00:00-23:59'}",+49 36428 6920,Bollberg,50.877326-11.808342,Teufelstal Nord ,https://www.raststaetten.de/standorte/teufelstal-nord/
Cloerbruch Nord An der A52 47877 Willich,Tank & Rast,Willich,Germany,"{'brand': 'Tank & Rast', 'fascia': 'Motorway Service Station', 'category': 'Other', 'edit_date': '2025-05-04', 'lat_lon_source': 'Google'}",51.237138,6.513671, Autobahnraststätte Cloerbruch Nord ,"{'Mon': '06:00 - 21:00', 'Tue': '06:00 - 21:00', 'Wed': '06:00 - 21:00', 'Thu': '06:00 - 21:00', 'Fri': '06:00 - 21:00', 'Sat': '06:00 - 21:00', 'Sun': '06:00 - 21:00'}",+49 2154 810901,Willich,51.237138-6.513671,Cloerbruch Nord ,https://www.raststaetten.de/standorte/cloerbruch-nord/
Stolper Heide Ost An der A111 16540 Stolpe,Tank & Rast,Stolpe,Germany,"{'brand': 'Tank & Rast', 'fascia': 'Motorway Service Station', 'category': 'Other', 'edit_date': '2025-05-04', 'lat_lon_source': 'Google'}",52.640096,13.24307, Autobahnraststätte Stolper Heide Ost ,"{'Mon': '00:00-23:59', 'Tue': '00:00-23:59', 'Wed': '00:00-23:59', 'Thu': '00:00-23:59', 'Fri': '00:00-23:59', 'Sat': '00:00-23:59', 'Sun': '00:00-23:59'}",+49 3302 493844,Stolpe,52.640096-13.24307,Stolper Heide Ost ,https://www.raststaetten.de/standorte/stolper-heide-ost/
Stolpe Süd An der A24 19372 Stolpe/Mecklenburg,Tank & Rast,Stolpe/Mecklenburg,Germany,"{'brand': 'Tank & Rast', 'fascia': 'Motorway Service Station', 'category': 'Other', 'edit_date': '2025-05-04', 'lat_lon_source': 'Google'}",53.367017,11.728317, Autobahnraststätte Stolpe Süd ,"{'Mon': '00:00-23:59', 'Tue': '00:00-23:59', 'Wed': '00:00-23:59', 'Thu': '00:00-23:59', 'Fri': '00:00-23:59', 'Sat': '00:00-23:59', 'Sun': '00:00-23:59'}",+49 38725 20153,Stolpe/Mecklenburg,53.367017-11.728317,Stolpe Süd ,https://www.raststaetten.de/standorte/stolpe-sued/
Stolpe Nord An der A24 19372 Stolpe/Mecklenburg,Tank & Rast,Stolpe/Mecklenburg,Germany,"{'brand': 'Tank & Rast', 'fascia': 'Motorway Service Station', 'category': 'Other', 'edit_date': '2025-05-04', 'lat_lon_source': 'Google'}",53.367929,11.730466, Autobahnraststätte Stolpe Nord ,"{'Mon': '00:00-23:59', 'Tue': '00:00-23:59', 'Wed': '00:00-23:59', 'Thu': '00:00-23:59', 'Fri': '00:00-23:59', 'Sat': '00:00-23:59', 'Sun': '00:00-23:59'}",+49 38725 20294,Stolpe/Mecklenburg,53.367929-11.730466,Stolpe Nord ,https://www.raststaetten.de/standorte/stolpe-nord/
Sternenberg Nord An der A46 42279 Wuppertal-Barmen,Tank & Rast,Wuppertal-Barmen,Germany,"{'brand': 'Tank & Rast', 'fascia': 'Motorway Service Station', 'category': 'Other', 'edit_date': '2025-05-04', 'lat_lon_source': 'Google'}",51.29641,7.21363, Autobahnraststätte Sternenberg Nord ,"{'Mon': '00:00-23:59', 'Tue': '00:00-23:59', 'Wed': '00:00-23:59', 'Thu': '00:00-23:59', 'Fri': '00:00-23:59', 'Sat': '00:00-23:59', 'Sun': '00:00-23:59'}",+49 202 5288624,Wuppertal-Barmen,51.29641-7.21363,Sternenberg Nord ,https://www.raststaetten.de/standorte/sternenberg-nord/
Sternenberg Süd An der A46 42232 Wuppertal,Tank & Rast,Wuppertal,Germany,"{'brand': 'Tank & Rast', 'fascia': 'Motorway Service Station', 'category': 'Other', 'edit_date': '2025-05-04', 'lat_lon_source': 'Google'}",51.29594,7.21448, Autobahnraststätte Sternenberg Süd ,"{'Mon': '00:00-23:59', 'Tue': '00:00-23:59', 'Wed': '00:00-23:59', 'Thu': '00:00-23:59', 'Fri': '00:00-23:59', 'Sat': '00:00-23:59', 'Sun': '00:00-23:59'}",+49 202 522533,Wuppertal,51.29594-7.21448,Sternenberg Süd ,https://www.raststaetten.de/standorte/sternenberg-sued/
Siegerland West An der A45 57258 Freudenberg,Tank & Rast,Freudenberg,Germany,"{'brand': 'Tank & Rast', 'fascia': 'Motorway Service Station', 'category': 'Other', 'edit_date': '2025-05-04', 'lat_lon_source': 'Google'}",50.880545,7.935169, Autobahnraststätte Siegerland West ,"{'Mon': '00:00-23:59', 'Tue': '00:00-23:59', 'Wed': '00:00-23:59', 'Thu': '00:00-23:59', 'Fri': '00:00-23:59', 'Sat': '00:00-23:59', 'Sun': '00:00-23:59'}",+49 2734 57500,Freudenberg,50.880545-7.935169,Siegerland West ,https://www.raststaetten.de/standorte/siegerland-west/
Sessenhausen West An der A3 56422 Sessenhausen,Tank & Rast,Sessenhausen,Germany,"{'brand': 'Tank & Rast', 'fascia': 'Motorway Service Station', 'category': 'Other', 'edit_date': '2025-05-04', 'lat_lon_source': 'Google'}",50.52291,7.674062, Autobahnraststätte Sessenhausen West ,"{'Mon': '06:00 - 21:00', 'Tue': '06:00 - 21:00', 'Wed': '06:00 - 21:00', 'Thu': '06:00 - 21:00', 'Fri': '06:00 - 21:00', 'Sat': '06:00 - 21:00', 'Sun': '06:00 - 21:00'}",+49 175 9408549,Sessenhausen,50.52291-7.674062,Sessenhausen West ,https://www.raststaetten.de/standorte/sessenhausen-west/
Seeberg West An der A10 15366 Neuenhagen,Tank & Rast,Neuenhagen,Germany,"{'brand': 'Tank & Rast', 'fascia': 'Motorway Service Station', 'category': 'Other', 'edit_date': '2025-05-04', 'lat_lon_source': 'Google'}",52.542319,13.691644, Autobahnraststätte Seeberg West ,"{'Mon': '00:00-23:59', 'Tue': '00:00-23:59', 'Wed': '00:00-23:59', 'Thu': '00:00-23:59', 'Fri': '00:00-23:59', 'Sat': '00:00-23:59', 'Sun': '00:00-23:59'}",+49 3342 209225,Neuenhagen,52.542319-13.691644,Seeberg West ,https://www.raststaetten.de/standorte/seeberg-west/
Schaalsee Süd An der A24 19246 Valluhn,Tank & Rast,Valluhn,Germany,"{'brand': 'Tank & Rast', 'fascia': 'Motorway Service Station', 'category': 'Other', 'edit_date': '2025-05-04', 'lat_lon_source': 'Google'}",53.511299,10.852944, Autobahnraststätte Schaalsee Süd ,"{'Mon': '00:00-23:59', 'Tue': '00:00-23:59', 'Wed': '00:00-23:59', 'Thu': '00:00-23:59', 'Fri': '00:00-23:59', 'Sat': '00:00-23:59', 'Sun': '00:00-23:59'}",+49 38851 32166,Valluhn,53.511299-10.852944,Schaalsee Süd ,https://www.raststaetten.de/standorte/schaalsee-sued/
Samerberg Nord An der A8 83101 Rohrdorf,Tank & Rast,Rohrdorf,Germany,"{'brand': 'Tank & Rast', 'fascia': 'Motorway Service Station', 'category': 'Other', 'edit_date': '2025-05-04', 'lat_lon_source': 'Google'}",47.80295,12.177744, Autobahnraststätte Samerberg Nord ,"{'Mon': '00:00-23:59', 'Tue': '00:00-23:59', 'Wed': '00:00-23:59', 'Thu': '00:00-23:59', 'Fri': '00:00-23:59', 'Sat': '00:00-23:59', 'Sun': '00:00-23:59'}",+49 8032 95690,Rohrdorf,47.80295-12.177744,Samerberg Nord ,https://www.raststaetten.de/standorte/samerberg-nord/
Schauinsland West An der A5 79108 Freiburg,Tank & Rast,Freiburg,Germany,"{'brand': 'Tank & Rast', 'fascia': 'Motorway Service Station', 'category': 'Other', 'edit_date': '2025-05-04', 'lat_lon_source': 'Google'}",48.050002,7.810907, Autobahnraststätte Schauinsland West ,"{'Mon': '00:00-23:59', 'Tue': '00:00-23:59', 'Wed': '00:00-23:59', 'Thu': '00:00-23:59', 'Fri': '00:00-23:59', 'Sat': '00:00-23:59', 'Sun': '00:00-23:59'}",+49 7665 947970,Freiburg,48.050002-7.810907,Schauinsland West ,https://www.raststaetten.de/standorte/schauinsland-west/
Seeberg Ost An der A10 15366 Neuenhagen,Tank & Rast,Neuenhagen,Germany,"{'brand': 'Tank & Rast', 'fascia': 'Motorway Service Station', 'category': 'Other', 'edit_date': '2025-05-04', 'lat_lon_source': 'Google'}",52.543051,13.693251, Autobahnraststätte Seeberg Ost ,"{'Mon': '00:00-23:59', 'Tue': '00:00-23:59', 'Wed': '00:00-23:59', 'Thu': '00:00-23:59', 'Fri': '00:00-23:59', 'Sat': '00:00-23:59', 'Sun': '00:00-23:59'}",+49 3342 7895,Neuenhagen,52.543051-13.693251,Seeberg Ost ,https://www.raststaetten.de/standorte/seeberg-ost/
ROSI’S Dorfmark An der A7 29683 Bad Fallingbostel,Tank & Rast,Bad,Germany,"{'brand': 'Tank & Rast', 'fascia': 'Motorway Service Station', 'category': 'Other', 'edit_date': '2025-05-04', 'lat_lon_source': 'Google'}",52.895414,9.7678049, Autobahnraststätte ROSI’S Dorfmark ,"{'Mon': '00:00-23:59', 'Tue': '00:00-23:59', 'Wed': '00:00-23:59', 'Thu': '00:00-23:59', 'Fri': '00:00-23:59', 'Sat': '00:00-23:59', 'Sun': '00:00-23:59'}",+49 5163 2910830,Bad,52.895414-9.7678049,ROSI’S Dorfmark ,https://www.raststaetten.de/standorte/rosis-dorfmark/
ROSI’S Kompakt Lederhose An der A9 07589 Lederhose,Tank & Rast,Lederhose,Germany,"{'brand': 'Tank & Rast', 'fascia': 'Motorway Service Station', 'category': 'Other', 'edit_date': '2025-05-04', 'lat_lon_source': 'Google'}",50.8041382,11.8961613, Autobahnraststätte ROSI’S Kompakt Lederhose ,"{'Mon': '00:00-23:59', 'Tue': '00:00-23:59', 'Wed': '00:00-23:59', 'Thu': '00:00-23:59', 'Fri': '00:00-23:59', 'Sat': '00:00-23:59', 'Sun': '00:00-23:59'}",+49 36604 993944,Lederhose,50.8041382-11.8961613,ROSI’S Kompakt Lederhose ,https://www.raststaetten.de/standorte/rosis-kompakt-lederhose/
ROSI’S Schnelldorf An der A7 91625 Schnelldorf,Tank & Rast,Schnelldorf,Germany,"{'brand': 'Tank & Rast', 'fascia': 'Motorway Service Station', 'category': 'Other', 'edit_date': '2025-05-04', 'lat_lon_source': 'Google'}",49.1712134,10.2417212, Autobahnraststätte ROSI’S Schnelldorf ,"{'Mon': '00:00-23:59', 'Tue': '00:00-23:59', 'Wed': '00:00-23:59', 'Thu': '00:00-23:59', 'Fri': '00:00-23:59', 'Sat': '00:00-23:59', 'Sun': '00:00-23:59'}",+49 7950 9265240,Schnelldorf,49.1712134-10.2417212,ROSI’S Schnelldorf ,https://www.raststaetten.de/standorte/rosis-schnelldorf/
ROSI’S Fulda An der A7 36039 Fulda,Tank & Rast,Fulda,Germany,"{'brand': 'Tank & Rast', 'fascia': 'Motorway Service Station', 'category': 'Other', 'edit_date': '2025-05-04', 'lat_lon_source': 'Google'}",50.580565,9.70654, Autobahnraststätte ROSI’S Fulda ,"{'Mon': '00:00-23:59', 'Tue': '00:00-23:59', 'Wed': '00:00-23:59', 'Thu': '00:00-23:59', 'Fri': '00:00-23:59', 'Sat': '00:00-23:59', 'Sun': '00:00-23:59'}",+49 661 96211314,Fulda,50.580565-9.70654,ROSI’S Fulda ,https://www.raststaetten.de/standorte/rosis-fulda/
ROSI’S Kompakt Hohenstein An der A52 40880 Ratingen,Tank & Rast,Ratingen,Germany,"{'brand': 'Tank & Rast', 'fascia': 'Motorway Service Station', 'category': 'Other', 'edit_date': '2025-05-04', 'lat_lon_source': 'Google'}",51.29013,6.80452, Autobahnraststätte ROSI’S Kompakt Hohenstein ,"{'Mon': '00:00-23:59', 'Tue': '00:00-23:59', 'Wed': '00:00-23:59', 'Thu': '00:00-23:59', 'Fri': '00:00-23:59', 'Sat': '00:00-23:59', 'Sun': '00:00-23:59'}",+49 2102 9422656,Ratingen,51.29013-6.80452,ROSI’S Kompakt Hohenstein ,https://www.raststaetten.de/standorte/rosis-kompakt-hohenstein/
ROSI’S Pilsting An der A92 94431 Pilsting,Tank & Rast,Pilsting,Germany,"{'brand': 'Tank & Rast', 'fascia': 'Motorway Service Station', 'category': 'Other', 'edit_date': '2025-05-04', 'lat_lon_source': 'Google'}",48.6931776,12.6736293, Autobahnraststätte ROSI’S Pilsting ,"{'Mon': '00:00-23:59', 'Tue': '00:00-23:59', 'Wed': '00:00-23:59', 'Thu': '00:00-23:59', 'Fri': '00:00-23:59', 'Sat': '00:00-23:59', 'Sun': '00:00-23:59'}",+49 9953 9807972,Pilsting,48.6931776-12.6736293,ROSI’S Pilsting ,https://www.raststaetten.de/standorte/rosis-pilsting/
ROSI’S Kompakt Eching An der A9 85386 Eching,Tank & Rast,Eching,Germany,"{'brand': 'Tank & Rast', 'fascia': 'Motorway Service Station', 'category': 'Other', 'edit_date': '2025-05-04', 'lat_lon_source': 'Google'}",48.310616,11.645578, Autobahnraststätte ROSI’S Kompakt Eching ,"{'Mon': '00:00-23:59', 'Tue': '00:00-23:59', 'Wed': '00:00-23:59', 'Thu': '00:00-23:59', 'Fri': '00:00-23:59', 'Sat': '00:00-23:59', 'Sun': '00:00-23:59'}",+49 8165 9090996,Eching,48.310616-11.645578,ROSI’S Kompakt Eching ,https://www.raststaetten.de/standorte/rosis-kompakt-eching/
ROSI’S Bad Hersfeld An der A4 36251 Bad Hersfeld,Tank & Rast,Bad,Germany,"{'brand': 'Tank & Rast', 'fascia': 'Motorway Service Station', 'category': 'Other', 'edit_date': '2025-05-04', 'lat_lon_source': 'Google'}",50.853088,9.725679, Autobahnraststätte ROSI’S Bad Hersfeld ,"{'Mon': '00:00-23:59', 'Tue': '00:00-23:59', 'Wed': '00:00-23:59', 'Thu': '00:00-23:59', 'Fri': '00:00-23:59', 'Sat': '00:00-23:59', 'Sun': '00:00-23:59'}",+49 6621 9661984,Bad,50.853088-9.725679,ROSI’S Bad Hersfeld ,https://www.raststaetten.de/standorte/rosis-bad-hersfeld/
ROSI’S Nahetal An der A61 55411 Bingen am Rhein,Tank & Rast,Bingen,Germany,"{'brand': 'Tank & Rast', 'fascia': 'Motorway Service Station', 'category': 'Other', 'edit_date': '2025-05-04', 'lat_lon_source': 'Google'}",49.927,7.929, Autobahnraststätte ROSI’S Nahetal ,"{'Mon': '00:00-23:59', 'Tue': '00:00-23:59', 'Wed': '00:00-23:59', 'Thu': '00:00-23:59', 'Fri': '00:00-23:59', 'Sat': '00:00-23:59', 'Sun': '00:00-23:59'}",+49 6721 9628623,Bingen,49.927-7.929,ROSI’S Nahetal ,https://www.raststaetten.de/standorte/rosis-nahetal/
ROSI’S Kirchberg An der A6 74592 Kirchberg an der Jagst,Tank & Rast,Kirchberg,Germany,"{'brand': 'Tank & Rast', 'fascia': 'Motorway Service Station', 'category': 'Other', 'edit_date': '2025-05-04', 'lat_lon_source': 'Google'}",49.171271,9.962037, Autobahnraststätte ROSI’S Kirchberg ,"{'Mon': '00:00-23:59', 'Tue': '00:00-23:59', 'Wed': '00:00-23:59', 'Thu': '00:00-23:59', 'Fri': '00:00-23:59', 'Sat': '00:00-23:59', 'Sun': '00:00-23:59'}",+49 7904 940491,Kirchberg,49.171271-9.962037,ROSI’S Kirchberg ,https://www.raststaetten.de/standorte/rosis-kirchberg/
ROSI’S Lehrte An der A2 31275 Lehrte,Tank & Rast,Lehrte,Germany,"{'brand': 'Tank & Rast', 'fascia': 'Motorway Service Station', 'category': 'Other', 'edit_date': '2025-05-04', 'lat_lon_source': 'Google'}",52.385417,9.952763, Autobahnraststätte ROSI’S Lehrte ,"{'Mon': '00:00-23:59', 'Tue': '00:00-23:59', 'Wed': '00:00-23:59', 'Thu': '00:00-23:59', 'Fri': '00:00-23:59', 'Sat': '00:00-23:59', 'Sun': '00:00-23:59'}",+49 5132 588808,Lehrte,52.385417-9.952763,ROSI’S Lehrte ,https://www.raststaetten.de/standorte/rosis-lehrte/
ROSI’S Rheda-Wiedenbrück An der A2 33378 Rheda-Wiedenbrück,Tank & Rast,Rheda-Wiedenbrück,Germany,"{'brand': 'Tank & Rast', 'fascia': 'Motorway Service Station', 'category': 'Other', 'edit_date': '2025-05-04', 'lat_lon_source': 'Google'}",51.831061,8.218178, Autobahnraststätte ROSI’S Rheda-Wiedenbrück ,"{'Mon': '00:00-23:59', 'Tue': '00:00-23:59', 'Wed': '00:00-23:59', 'Thu': '00:00-23:59', 'Fri': '00:00-23:59', 'Sat': '00:00-23:59', 'Sun': '00:00-23:59'}",+49 2522 8343732,Rheda-Wiedenbrück,51.831061-8.218178,ROSI’S Rheda-Wiedenbrück ,https://www.raststaetten.de/standorte/rosis-rheda-wiedenbrueck/
ROSI’S Zeven An der A1 27404 Elsdorf,Tank & Rast,Elsdorf,Germany,"{'brand': 'Tank & Rast', 'fascia': 'Motorway Service Station', 'category': 'Other', 'edit_date': '2025-05-04', 'lat_lon_source': 'Google'}",53.23064,9.342843, Autobahnraststätte ROSI’S Zeven ,"{'Mon': '00:00-23:59', 'Tue': '00:00-23:59', 'Wed': '00:00-23:59', 'Thu': '00:00-23:59', 'Fri': '00:00-23:59', 'Sat': '00:00-23:59', 'Sun': '00:00-23:59'}",+49 4286 9266416,Elsdorf,53.23064-9.342843,ROSI’S Zeven ,https://www.raststaetten.de/standorte/rosis-zeven/
ROSI’S Pfalzfeld An der A61 56291 Pfalzfeld,Tank & Rast,Pfalzfeld,Germany,"{'brand': 'Tank & Rast', 'fascia': 'Motorway Service Station', 'category': 'Other', 'edit_date': '2025-05-04', 'lat_lon_source': 'Google'}",50.116,7.599, Autobahnraststätte ROSI’S Pfalzfeld ,"{'Mon': '00:00-23:59', 'Tue': '00:00-23:59', 'Wed': '00:00-23:59', 'Thu': '00:00-23:59', 'Fri': '00:00-23:59', 'Sat': '00:00-23:59', 'Sun': '00:00-23:59'}",+49 6746 8035490,Pfalzfeld,50.116-7.599,ROSI’S Pfalzfeld ,https://www.raststaetten.de/standorte/rosis-pfalzfeld/
ROSI’S Salzbergen An der A30 48499 Salzbergen,Tank & Rast,Salzbergen,Germany,"{'brand': 'Tank & Rast', 'fascia': 'Motorway Service Station', 'category': 'Other', 'edit_date': '2025-05-04', 'lat_lon_source': 'Google'}",52.326119,7.428958, Autobahnraststätte ROSI’S Salzbergen ,"{'Mon': '00:00-23:59', 'Tue': '00:00-23:59', 'Wed': '00:00-23:59', 'Thu': '00:00-23:59', 'Fri': '00:00-23:59', 'Sat': '00:00-23:59', 'Sun': '00:00-23:59'}",+49 5971 97260,Salzbergen,52.326119-7.428958,ROSI’S Salzbergen ,https://www.raststaetten.de/standorte/rosis-salzbergen/
ROSI’S Kompakt Anzing An der A94 85646 Anzing,Tank & Rast,Anzing,Germany,"{'brand': 'Tank & Rast', 'fascia': 'Motorway Service Station', 'category': 'Other', 'edit_date': '2025-05-04', 'lat_lon_source': 'Google'}",48.1598795,11.8541989, Autobahnraststätte ROSI’S Kompakt Anzing ,"{'Mon': '05:00 - 23:00', 'Tue': '05:00 - 23:00', 'Wed': '05:00 - 23:00', 'Thu': '05:00 - 23:00', 'Fri': '05:00 - 23:00', 'Sat': '05:00 - 23:00', 'Sun': '05:00 - 23:00'}",+49 8121 2506380,Anzing,48.1598795-11.8541989,ROSI’S Kompakt Anzing ,https://www.raststaetten.de/standorte/rosis-kompakt-anzing/
ROSI’S Nörten-Hardenberg An der A7 37176 Nörten-Hardenberg,Tank & Rast,Nörten-Hardenberg,Germany,"{'brand': 'Tank & Rast', 'fascia': 'Motorway Service Station', 'category': 'Other', 'edit_date': '2025-05-04', 'lat_lon_source': 'Google'}",51.629762,9.9217864, Autobahnraststätte ROSI’S Nörten-Hardenberg ,"{'Mon': '00:00-23:59', 'Tue': '00:00-23:59', 'Wed': '00:00-23:59', 'Thu': '00:00-23:59', 'Fri': '00:00-23:59', 'Sat': '00:00-23:59', 'Sun': '00:00-23:59'}",+49 5503 9151355,Nörten-Hardenberg,51.629762-9.9217864,ROSI’S Nörten-Hardenberg ,https://www.raststaetten.de/standorte/rosis-noerten-hardenberg/
ROSI'S Rüdenhausen An der A3 97355 Rüdenhausen,Tank & Rast,Rüdenhausen,Germany,"{'brand': 'Tank & Rast', 'fascia': 'Motorway Service Station', 'category': 'Other', 'edit_date': '2025-05-04', 'lat_lon_source': 'Google'}",49.770788,10.340345, Autobahnraststätte ROSI'S Rüdenhausen ,"{'Mon': '00:00-23:59', 'Tue': '00:00-23:59', 'Wed': '00:00-23:59', 'Thu': '00:00-23:59', 'Fri': '00:00-23:59', 'Sat': '00:00-23:59', 'Sun': '00:00-23:59'}",+49 9383 8699066,Rüdenhausen,49.770788-10.340345,ROSI'S Rüdenhausen ,https://www.raststaetten.de/standorte/rosis-ruedenhausen/
Rölvedermühle West An der A45 58579 Schalksmühle,Tank & Rast,Schalksmühle,Germany,"{'brand': 'Tank & Rast', 'fascia': 'Motorway Service Station', 'category': 'Other', 'edit_date': '2025-05-04', 'lat_lon_source': 'Google'}",51.28828,7.56871, Autobahnraststätte Rölvedermühle West ,"{'Mon': '06:00 - 22:00', 'Tue': '06:00 - 22:00', 'Wed': '06:00 - 22:00', 'Thu': '06:00 - 22:00', 'Fri': '06:00 - 22:00', 'Sat': '06:00 - 22:00', 'Sun': '06:00 - 22:00'}",+49 2337 8403,Schalksmühle,51.28828-7.56871,Rölvedermühle West ,https://www.raststaetten.de/standorte/roelvedermuehle-west/
Riedener Wald Ost An der A7 97262 Hausen,Tank & Rast,Hausen,Germany,"{'brand': 'Tank & Rast', 'fascia': 'Motorway Service Station', 'category': 'Other', 'edit_date': '2025-05-04', 'lat_lon_source': 'Google'}",49.943996,10.020716, Autobahnraststätte Riedener Wald Ost ,"{'Mon': '00:00-23:59', 'Tue': '00:00-23:59', 'Wed': '00:00-23:59', 'Thu': '00:00-23:59', 'Fri': '00:00-23:59', 'Sat': '00:00-23:59', 'Sun': '00:00-23:59'}",+49 9363 9973471,Hausen,49.943996-10.020716,Riedener Wald Ost ,https://www.raststaetten.de/standorte/riedener-wald-ost/
ROSI’S Gersthofen An der A8 86368 Gersthofen,Tank & Rast,Gersthofen,Germany,"{'brand': 'Tank & Rast', 'fascia': 'Motorway Service Station', 'category': 'Other', 'edit_date': '2025-05-04', 'lat_lon_source': 'Google'}",48.44197,10.87442, Autobahnraststätte ROSI’S Gersthofen ,"{'Mon': '05:00 - 23:00', 'Tue': '05:00 - 23:00', 'Wed': '05:00 - 23:00', 'Thu': '05:00 - 23:00', 'Fri': '05:00 - 23:00', 'Sat': '05:00 - 23:00', 'Sun': '05:00 - 23:00'}",+49 8214 2092000,Gersthofen,48.44197-10.87442,ROSI’S Gersthofen ,https://www.raststaetten.de/standorte/rosis-gersthofen/
ROSI'S Ober-Rosbach An der A5 61191 Rosbach vor der Höhe,Tank & Rast,Rosbach,Germany,"{'brand': 'Tank & Rast', 'fascia': 'Motorway Service Station', 'category': 'Other', 'edit_date': '2025-05-04', 'lat_lon_source': 'Google'}",50.293906,8.695, Autobahnraststätte ROSI'S Ober-Rosbach ,"{'Mon': '00:00-23:59', 'Tue': '00:00-23:59', 'Wed': '00:00-23:59', 'Thu': '00:00-23:59', 'Fri': '00:00-23:59', 'Sat': '00:00-23:59', 'Sun': '00:00-23:59'}",+49 6003 8269663,Rosbach,50.293906-8.695,ROSI'S Ober-Rosbach ,https://www.raststaetten.de/standorte/rosis-ober-rosbach/
Ruraue West An der A44 52428 Jülich,Tank & Rast,Jülich,Germany,"{'brand': 'Tank & Rast', 'fascia': 'Motorway Service Station', 'category': 'Other', 'edit_date': '2025-05-04', 'lat_lon_source': 'Google'}",50.930488,6.338083, Autobahnraststätte Ruraue West ,"{'Mon': '00:00-23:59', 'Tue': '00:00-23:59', 'Wed': '00:00-23:59', 'Thu': '00:00-23:59', 'Fri': '00:00-23:59', 'Sat': '00:00-23:59', 'Sun': '00:00-23:59'}",+49 2461 55383,Jülich,50.930488-6.338083,Ruraue West ,https://www.raststaetten.de/standorte/ruraue-west/
Ruraue Ost An der A44 52428 Jülich,Tank & Rast,Jülich,Germany,"{'brand': 'Tank & Rast', 'fascia': 'Motorway Service Station', 'category': 'Other', 'edit_date': '2025-05-04', 'lat_lon_source': 'Google'}",50.930768,6.339835, Autobahnraststätte Ruraue Ost ,"{'Mon': '00:00-23:59', 'Tue': '00:00-23:59', 'Wed': '00:00-23:59', 'Thu': '00:00-23:59', 'Fri': '00:00-23:59', 'Sat': '00:00-23:59', 'Sun': '00:00-23:59'}",+49 2461 50399,Jülich,50.930768-6.339835,Ruraue Ost ,https://www.raststaetten.de/standorte/ruraue-ost/
Rhön West An der A7 97795 Schondra,Tank & Rast,Schondra,Germany,"{'brand': 'Tank & Rast', 'fascia': 'Motorway Service Station', 'category': 'Other', 'edit_date': '2025-05-04', 'lat_lon_source': 'Google'}",50.265135,9.881093, Autobahnraststätte Rhön West ,"{'Mon': '00:00-23:59', 'Tue': '00:00-23:59', 'Wed': '00:00-23:59', 'Thu': '00:00-23:59', 'Fri': '00:00-23:59', 'Sat': '00:00-23:59', 'Sun': '00:00-23:59'}",+49 9747 9300590,Schondra,50.265135-9.881093,Rhön West ,https://www.raststaetten.de/standorte/rhoen-west/
ROSI’S Bremgarten An der A5 79258 Hartheim,Tank & Rast,Hartheim,Germany,"{'brand': 'Tank & Rast', 'fascia': 'Motorway Service Station', 'category': 'Other', 'edit_date': '2025-05-04', 'lat_lon_source': 'Google'}",47.91,7.592, Autobahnraststätte ROSI’S Bremgarten ,"{'Mon': '00:00-23:59', 'Tue': '00:00-23:59', 'Wed': '00:00-23:59', 'Thu': '00:00-23:59', 'Fri': '00:00-23:59', 'Sat': '00:00-23:59', 'Sun': '00:00-23:59'}",+49 7633 9202116,Hartheim,47.91-7.592,ROSI’S Bremgarten ,https://www.raststaetten.de/standorte/rosis-bremgarten/
Rhön Ost An der A7 97795 Schondra,Tank & Rast,Schondra,Germany,"{'brand': 'Tank & Rast', 'fascia': 'Motorway Service Station', 'category': 'Other', 'edit_date': '2025-05-04', 'lat_lon_source': 'Google'}",50.267764,9.882776, Autobahnraststätte Rhön Ost ,"{'Mon': '00:00-23:59', 'Tue': '00:00-23:59', 'Wed': '00:00-23:59', 'Thu': '00:00-23:59', 'Fri': '00:00-23:59', 'Sat': '00:00-23:59', 'Sun': '00:00-23:59'}",+49 9747 9300590,Schondra,50.267764-9.882776,Rhön Ost ,https://www.raststaetten.de/standorte/rhoen-ost/
Recknitz-Niederung West An der A19 18276 Spoitgendorf,Tank & Rast,Spoitgendorf,Germany,"{'brand': 'Tank & Rast', 'fascia': 'Motorway Service Station', 'category': 'Other', 'edit_date': '2025-05-04', 'lat_lon_source': 'Google'}",53.840372,12.290762, Autobahnraststätte Recknitz-Niederung West ,"{'Mon': '00:00-23:59', 'Tue': '00:00-23:59', 'Wed': '00:00-23:59', 'Thu': '00:00-23:59', 'Fri': '00:00-23:59', 'Sat': '00:00-23:59', 'Sun': '00:00-23:59'}",+49 38455 20962,Spoitgendorf,53.840372-12.290762,Recknitz-Niederung West ,https://www.raststaetten.de/standorte/recknitz-niederung-west/
Plötzetal Ost An der A14 06420 Könnern,Tank & Rast,Könnern,Germany,"{'brand': 'Tank & Rast', 'fascia': 'Motorway Service Station', 'category': 'Other', 'edit_date': '2025-05-04', 'lat_lon_source': 'Google'}",51.655803,11.822067, Autobahnraststätte Plötzetal Ost ,"{'Mon': '00:00-23:59', 'Tue': '00:00-23:59', 'Wed': '00:00-23:59', 'Thu': '00:00-23:59', 'Fri': '00:00-23:59', 'Sat': '00:00-23:59', 'Sun': '00:00-23:59'}",+49 34691 23220,Könnern,51.655803-11.822067,Plötzetal Ost ,https://www.raststaetten.de/standorte/ploetzetal-ost/
Recknitz-Niederung Ost An der A19 18276 Spoitgendorf,Tank & Rast,Spoitgendorf,Germany,"{'brand': 'Tank & Rast', 'fascia': 'Motorway Service Station', 'category': 'Other', 'edit_date': '2025-05-04', 'lat_lon_source': 'Google'}",53.839627,12.288354, Autobahnraststätte Recknitz-Niederung Ost ,"{'Mon': '00:00-23:59', 'Tue': '00:00-23:59', 'Wed': '00:00-23:59', 'Thu': '00:00-23:59', 'Fri': '00:00-23:59', 'Sat': '00:00-23:59', 'Sun': '00:00-23:59'}",+49 38455 20952,Spoitgendorf,53.839627-12.288354,Recknitz-Niederung Ost ,https://www.raststaetten.de/standorte/recknitz-niederung-ost/
Rabensteiner Wald Süd An der A4 09224 Chemnitz/Grüna,Tank & Rast,Chemnitz/Grüna,Germany,"{'brand': 'Tank & Rast', 'fascia': 'Motorway Service Station', 'category': 'Other', 'edit_date': '2025-05-04', 'lat_lon_source': 'Google'}",50.821584,12.765012, Autobahnraststätte Rabensteiner Wald Süd ,"{'Mon': '00:00-23:59', 'Tue': '00:00-23:59', 'Wed': '00:00-23:59', 'Thu': '00:00-23:59', 'Fri': '00:00-23:59', 'Sat': '00:00-23:59', 'Sun': '00:00-23:59'}",+49 371 243442,Chemnitz/Grüna,50.821584-12.765012,Rabensteiner Wald Süd ,https://www.raststaetten.de/standorte/rabensteiner-wald-sued/
Pippinger Flur An der A8 81245 München,Tank & Rast,München,Germany,"{'brand': 'Tank & Rast', 'fascia': 'Motorway Service Station', 'category': 'Other', 'edit_date': '2025-05-04', 'lat_lon_source': 'Google'}",48.17,11.448, Autobahnraststätte Pippinger Flur ,"{'Mon': '07:00 - 20:00', 'Tue': '07:00 - 20:00', 'Wed': '07:00 - 20:00', 'Thu': '07:00 - 20:00', 'Fri': '07:00 - 20:00', 'Sat': '07:00 - 20:00', 'Sun': '07:00 - 20:00'}",+49 89 47027221,München,48.17-11.448,Pippinger Flur ,https://www.raststaetten.de/standorte/pippinger-flur/
Pfungstadt West An der A67 64319 Pfungstadt,Tank & Rast,Pfungstadt,Germany,"{'brand': 'Tank & Rast', 'fascia': 'Motorway Service Station', 'category': 'Other', 'edit_date': '2025-05-04', 'lat_lon_source': 'Google'}",49.813096,8.577863, Autobahnraststätte Pfungstadt West ,"{'Mon': '00:00-23:59', 'Tue': '00:00-23:59', 'Wed': '00:00-23:59', 'Thu': '00:00-23:59', 'Fri': '00:00-23:59', 'Sat': '00:00-23:59', 'Sun': '00:00-23:59'}",+49 6157 3033,Pfungstadt,49.813096-8.577863,Pfungstadt West ,https://www.raststaetten.de/standorte/pfungstadt-west/
Pfungstadt Ost An der A67 64319 Pfungstadt,Tank & Rast,Pfungstadt,Germany,"{'brand': 'Tank & Rast', 'fascia': 'Motorway Service Station', 'category': 'Other', 'edit_date': '2025-05-04', 'lat_lon_source': 'Google'}",49.811801,8.578584, Autobahnraststätte Pfungstadt Ost ,"{'Mon': '00:00-23:59', 'Tue': '00:00-23:59', 'Wed': '00:00-23:59', 'Thu': '00:00-23:59', 'Fri': '00:00-23:59', 'Sat': '00:00-23:59', 'Sun': '00:00-23:59'}",+49 6157 3031,Pfungstadt,49.811801-8.578584,Pfungstadt Ost ,https://www.raststaetten.de/standorte/pfungstadt-ost/
Pfalz/Wattenheim An der A6 67319 Wattenheim,Tank & Rast,Wattenheim,Germany,"{'brand': 'Tank & Rast', 'fascia': 'Motorway Service Station', 'category': 'Other', 'edit_date': '2025-05-04', 'lat_lon_source': 'Google'}",49.52722,8.07359, Autobahnraststätte Pfalz/Wattenheim ,"{'Mon': '06:00 - 22:00', 'Tue': '06:00 - 22:00', 'Wed': '06:00 - 22:00', 'Thu': '06:00 - 22:00', 'Fri': '06:00 - 22:00', 'Sat': '06:00 - 22:00', 'Sun': '06:00 - 22:00'}",+49 6356 96390,Wattenheim,49.52722-8.07359,Pfalz/Wattenheim ,https://www.raststaetten.de/standorte/pfalzwattenheim/
Osterfeld Ost An der A9 06682 Teuchern,Tank & Rast,Teuchern,Germany,"{'brand': 'Tank & Rast', 'fascia': 'Motorway Service Station', 'category': 'Other', 'edit_date': '2025-05-04', 'lat_lon_source': 'Google'}",51.105401,11.957702, Autobahnraststätte Osterfeld Ost ,"{'Mon': '00:00-23:59', 'Tue': '00:00-23:59', 'Wed': '00:00-23:59', 'Thu': '00:00-23:59', 'Fri': '00:00-23:59', 'Sat': '00:00-23:59', 'Sun': '00:00-23:59'}",+49 34445 908927,Teuchern,51.105401-11.957702,Osterfeld Ost ,https://www.raststaetten.de/standorte/osterfeld-ost/
Ohligser Heide West An der A3 42697 Solingen,Tank & Rast,Solingen,Germany,"{'brand': 'Tank & Rast', 'fascia': 'Motorway Service Station', 'category': 'Other', 'edit_date': '2025-05-04', 'lat_lon_source': 'Google'}",51.157481,6.962202, Autobahnraststätte Ohligser Heide West ,"{'Mon': '00:00-23:59', 'Tue': '00:00-23:59', 'Wed': '00:00-23:59', 'Thu': '00:00-23:59', 'Fri': '00:00-23:59', 'Sat': '00:00-23:59', 'Sun': '00:00-23:59'}",+49 212 3802147,Solingen,51.157481-6.962202,Ohligser Heide West ,https://www.raststaetten.de/standorte/ohligser-heide-west/
Osterfeld West An der A9 06682 Teuchern,Tank & Rast,Teuchern,Germany,"{'brand': 'Tank & Rast', 'fascia': 'Motorway Service Station', 'category': 'Other', 'edit_date': '2025-05-04', 'lat_lon_source': 'Google'}",51.105341,11.954837, Autobahnraststätte Osterfeld West ,"{'Mon': '00:00-23:59', 'Tue': '00:00-23:59', 'Wed': '00:00-23:59', 'Thu': '00:00-23:59', 'Fri': '00:00-23:59', 'Sat': '00:00-23:59', 'Sun': '00:00-23:59'}",+49 34445 907037,Teuchern,51.105341-11.954837,Osterfeld West ,https://www.raststaetten.de/standorte/osterfeld-west/
Ostetal Nord An der A1 27419 Sittensen,Tank & Rast,Sittensen,Germany,"{'brand': 'Tank & Rast', 'fascia': 'Motorway Service Station', 'category': 'Other', 'edit_date': '2025-05-04', 'lat_lon_source': 'Google'}",53.300451,9.534169, Autobahnraststätte Ostetal Nord ,"{'Mon': '00:00-23:59', 'Tue': '00:00-23:59', 'Wed': '00:00-23:59', 'Thu': '00:00-23:59', 'Fri': '00:00-23:59', 'Sat': '00:00-23:59', 'Sun': '00:00-23:59'}",+49 4282 6347240,Sittensen,53.300451-9.534169,Ostetal Nord ,https://www.raststaetten.de/standorte/ostetal-nord/
Pentling Ost An der A93 93080 Pentling,Tank & Rast,Pentling,Germany,"{'brand': 'Tank & Rast', 'fascia': 'Motorway Service Station', 'category': 'Other', 'edit_date': '2025-05-04', 'lat_lon_source': 'Google'}",48.960859,12.093162, Autobahnraststätte Pentling Ost ,"{'Mon': '00:00-23:59', 'Tue': '00:00-23:59', 'Wed': '00:00-23:59', 'Thu': '00:00-23:59', 'Fri': '00:00-23:59', 'Sat': '00:00-23:59', 'Sun': '00:00-23:59'}",+49 9405 5596,Pentling,48.960859-12.093162,Pentling Ost ,https://www.raststaetten.de/standorte/pentling-ost/
Ob der Tauber Ost An der A81 97947 Grünsfeld,Tank & Rast,Grünsfeld,Germany,"{'brand': 'Tank & Rast', 'fascia': 'Motorway Service Station', 'category': 'Other', 'edit_date': '2025-05-04', 'lat_lon_source': 'Google'}",49.621704,9.728917, Autobahnraststätte Ob der Tauber Ost ,"{'Mon': '00:00-23:59', 'Tue': '00:00-23:59', 'Wed': '00:00-23:59', 'Thu': '00:00-23:59', 'Fri': '00:00-23:59', 'Sat': '00:00-23:59', 'Sun': '00:00-23:59'}",+49 9346 92170,Grünsfeld,49.621704-9.728917,Ob der Tauber Ost ,https://www.raststaetten.de/standorte/ob-der-tauber-ost/
Nievenheim West An der A57 41542 Dormagen,Tank & Rast,Dormagen,Germany,"{'brand': 'Tank & Rast', 'fascia': 'Motorway Service Station', 'category': 'Other', 'edit_date': '2025-05-04', 'lat_lon_source': 'Google'}",51.122912,6.79609, Autobahnraststätte Nievenheim West ,"{'Mon': '07:00 - 23:00', 'Tue': '07:00 - 23:00', 'Wed': '07:00 - 23:00', 'Thu': '07:00 - 23:00', 'Fri': '07:00 - 23:00', 'Sat': '09:00 - 23:00', 'Sun': '09:00 - 23:00'}",+49 2133 533282,Dormagen,51.122912-6.79609,Nievenheim West ,https://www.raststaetten.de/standorte/nievenheim-west/
Neustädter Bucht West An der A1 23730 Sierksdorf,Tank & Rast,Sierksdorf,Germany,"{'brand': 'Tank & Rast', 'fascia': 'Motorway Service Station', 'category': 'Other', 'edit_date': '2025-05-04', 'lat_lon_source': 'Google'}",54.07115,10.75624, Autobahnraststätte Neustädter Bucht West ,"{'Mon': '00:00-23:59', 'Tue': '00:00-23:59', 'Wed': '00:00-23:59', 'Thu': '00:00-23:59', 'Fri': '00:00-23:59', 'Sat': '00:00-23:59', 'Sun': '00:00-23:59'}",+49 4563 8610,Sierksdorf,54.07115-10.75624,Neustädter Bucht West ,https://www.raststaetten.de/standorte/neustaedter-bucht-west/
Neustädter Bucht Ost An der A1 23730 Sierksdorf,Tank & Rast,Sierksdorf,Germany,"{'brand': 'Tank & Rast', 'fascia': 'Motorway Service Station', 'category': 'Other', 'edit_date': '2025-05-04', 'lat_lon_source': 'Google'}",54.067585,10.755556, Autobahnraststätte Neustädter Bucht Ost ,"{'Mon': '00:00-23:59', 'Tue': '00:00-23:59', 'Wed': '00:00-23:59', 'Thu': '00:00-23:59', 'Fri': '00:00-23:59', 'Sat': '00:00-23:59', 'Sun': '00:00-23:59'}",+49 4563 8800,Sierksdorf,54.067585-10.755556,Neustädter Bucht Ost ,https://www.raststaetten.de/standorte/neustaedter-bucht-ost/
Nentershausen Ost An der A3 56412 Nentershausen,Tank & Rast,Nentershausen,Germany,"{'brand': 'Tank & Rast', 'fascia': 'Motorway Service Station', 'category': 'Other', 'edit_date': '2025-05-04', 'lat_lon_source': 'Google'}",50.422807,7.92821, Autobahnraststätte Nentershausen Ost ,"{'Mon': '06:00 - 21:00', 'Tue': '06:00 - 21:00', 'Wed': '06:00 - 21:00', 'Thu': '06:00 - 21:00', 'Fri': '06:00 - 21:00', 'Sat': '06:00 - 21:00', 'Sun': '06:00 - 21:00'}",+49 175 9421540,Nentershausen,50.422807-7.92821,Nentershausen Ost ,https://www.raststaetten.de/standorte/nentershausen-ost/
Münsterland West An der A1 48161 Münster,Tank & Rast,Münster,Germany,"{'brand': 'Tank & Rast', 'fascia': 'Motorway Service Station', 'category': 'Other', 'edit_date': '2025-05-04', 'lat_lon_source': 'Google'}",51.944838,7.548153, Autobahnraststätte Münsterland West ,"{'Mon': '00:00-23:59', 'Tue': '00:00-23:59', 'Wed': '00:00-23:59', 'Thu': '00:00-23:59', 'Fri': '00:00-23:59', 'Sat': '00:00-23:59', 'Sun': '00:00-23:59'}",+49 2534 496,Münster,51.944838-7.548153,Münsterland West ,https://www.raststaetten.de/standorte/muensterland-west/
Neckarburg Ost An der A81 78661 Dietingen,Tank & Rast,Dietingen,Germany,"{'brand': 'Tank & Rast', 'fascia': 'Motorway Service Station', 'category': 'Other', 'edit_date': '2025-05-04', 'lat_lon_source': 'Google'}",48.205994,8.625453, Autobahnraststätte Neckarburg Ost ,"{'Mon': '00:00-23:59', 'Tue': '00:00-23:59', 'Wed': '00:00-23:59', 'Thu': '00:00-23:59', 'Fri': '00:00-23:59', 'Sat': '00:00-23:59', 'Sun': '00:00-23:59'}",+49 741 7343,Dietingen,48.205994-8.625453,Neckarburg Ost ,https://www.raststaetten.de/standorte/neckarburg-ost/
Mosel Ost An der A61 56332 Dieblich,Tank & Rast,Dieblich,Germany,"{'brand': 'Tank & Rast', 'fascia': 'Motorway Service Station', 'category': 'Other', 'edit_date': '2025-05-04', 'lat_lon_source': 'Google'}",50.266,7.513, Autobahnraststätte Mosel Ost ,"{'Mon': '00:00-23:59', 'Tue': '00:00-23:59', 'Wed': '00:00-23:59', 'Thu': '00:00-23:59', 'Fri': '00:00-23:59', 'Sat': '00:00-23:59', 'Sun': '00:00-23:59'}",+49 2607 768,Dieblich,50.266-7.513,Mosel Ost ,https://www.raststaetten.de/standorte/mosel-ost/
Michendorf Süd An der A10 14552 Michendorf,Tank & Rast,Michendorf,Germany,"{'brand': 'Tank & Rast', 'fascia': 'Motorway Service Station', 'category': 'Other', 'edit_date': '2025-05-04', 'lat_lon_source': 'Google'}",52.301847,13.017607, Autobahnraststätte Michendorf Süd ,"{'Mon': '00:00-23:59', 'Tue': '00:00-23:59', 'Wed': '00:00-23:59', 'Thu': '00:00-23:59', 'Fri': '00:00-23:59', 'Sat': '00:00-23:59', 'Sun': '00:00-23:59'}",+49 33205 46699,Michendorf,52.301847-13.017607,Michendorf Süd ,https://www.raststaetten.de/standorte/michendorf-sued/
Michendorf Nord An der A10 14552 Michendorf,Tank & Rast,Michendorf,Germany,"{'brand': 'Tank & Rast', 'fascia': 'Motorway Service Station', 'category': 'Other', 'edit_date': '2025-05-04', 'lat_lon_source': 'Google'}",52.302216,13.020311, Autobahnraststätte Michendorf Nord ,"{'Mon': '00:00-23:59', 'Tue': '00:00-23:59', 'Wed': '00:00-23:59', 'Thu': '00:00-23:59', 'Fri': '00:00-23:59', 'Sat': '00:00-23:59', 'Sun': '00:00-23:59'}",+49 33205 54001,Michendorf,52.302216-13.020311,Michendorf Nord ,https://www.raststaetten.de/standorte/michendorf-nord/
Medenbach Ost An der A3 65207 Wiesbaden,Tank & Rast,Wiesbaden,Germany,"{'brand': 'Tank & Rast', 'fascia': 'Motorway Service Station', 'category': 'Other', 'edit_date': '2025-05-04', 'lat_lon_source': 'Google'}",50.095807,8.353607, Autobahnraststätte Medenbach Ost ,"{'Mon': '00:00-23:59', 'Tue': '00:00-23:59', 'Wed': '00:00-23:59', 'Thu': '00:00-23:59', 'Fri': '00:00-23:59', 'Sat': '00:00-23:59', 'Sun': '00:00-23:59'}",+49 6122 507844,Wiesbaden,50.095807-8.353607,Medenbach Ost ,https://www.raststaetten.de/standorte/medenbach-ost/
Marienborn Süd An der A2 39365 Marienborn,Tank & Rast,Marienborn,Germany,"{'brand': 'Tank & Rast', 'fascia': 'Motorway Service Station', 'category': 'Other', 'edit_date': '2025-05-04', 'lat_lon_source': 'Google'}",52.21576,11.078349, Autobahnraststätte Marienborn Süd ,"{'Mon': '00:00-23:59', 'Tue': '00:00-23:59', 'Wed': '00:00-23:59', 'Thu': '00:00-23:59', 'Fri': '00:00-23:59', 'Sat': '00:00-23:59', 'Sun': '00:00-23:59'}",+49 151 55650849,Marienborn,52.21576-11.078349,Marienborn Süd ,https://www.raststaetten.de/standorte/marienborn-sued/
Mahlberg Ost An der A5 77972 Mahlberg,Tank & Rast,Mahlberg,Germany,"{'brand': 'Tank & Rast', 'fascia': 'Motorway Service Station', 'category': 'Other', 'edit_date': '2025-05-04', 'lat_lon_source': 'Google'}",48.308305,7.791374, Autobahnraststätte Mahlberg Ost ,"{'Mon': '00:00-23:59', 'Tue': '00:00-23:59', 'Wed': '00:00-23:59', 'Thu': '00:00-23:59', 'Fri': '00:00-23:59', 'Sat': '00:00-23:59', 'Sun': '00:00-23:59'}",+49 7825 84950,Mahlberg,48.308305-7.791374,Mahlberg Ost ,https://www.raststaetten.de/standorte/mahlberg-ost/
Linumer Bruch Nord An der A24 16833 Linum,Tank & Rast,Linum,Germany,"{'brand': 'Tank & Rast', 'fascia': 'Motorway Service Station', 'category': 'Other', 'edit_date': '2025-05-04', 'lat_lon_source': 'Google'}",52.755338,12.853089, Autobahnraststätte Linumer Bruch Nord ,"{'Mon': '00:00-23:59', 'Tue': '00:00-23:59', 'Wed': '00:00-23:59', 'Thu': '00:00-23:59', 'Fri': '00:00-23:59', 'Sat': '00:00-23:59', 'Sun': '00:00-23:59'}",+49 33922 60492,Linum,52.755338-12.853089,Linumer Bruch Nord ,https://www.raststaetten.de/standorte/linumer-bruch-nord/
Lennhof West An der A1 58099 Garenfeld,Tank & Rast,Garenfeld,Germany,"{'brand': 'Tank & Rast', 'fascia': 'Motorway Service Station', 'category': 'Other', 'edit_date': '2025-05-04', 'lat_lon_source': 'Google'}",51.411589,7.499144, Autobahnraststätte Lennhof West ,"{'Mon': '06:30 - 21:00', 'Tue': '06:30 - 21:00', 'Wed': '06:30 - 21:00', 'Thu': '06:30 - 21:00', 'Fri': '06:30 - 21:00', 'Sat': '06:30 - 21:00', 'Sun': '06:30 - 21:00'}",+49 151 23625049,Garenfeld,51.411589-7.499144,Lennhof West ,https://www.raststaetten.de/standorte/lennhof-west/
Linumer Bruch Süd An der A24 16833 Linum,Tank & Rast,Linum,Germany,"{'brand': 'Tank & Rast', 'fascia': 'Motorway Service Station', 'category': 'Other', 'edit_date': '2025-05-04', 'lat_lon_source': 'Google'}",52.752863,12.855399, Autobahnraststätte Linumer Bruch Süd ,"{'Mon': '00:00-23:59', 'Tue': '00:00-23:59', 'Wed': '00:00-23:59', 'Thu': '00:00-23:59', 'Fri': '00:00-23:59', 'Sat': '00:00-23:59', 'Sun': '00:00-23:59'}",+49 33922 60935,Linum,52.752863-12.855399,Linumer Bruch Süd ,https://www.raststaetten.de/standorte/linumer-bruch-sued/
Limburg Ost An der A3 65549 Limburg/Lahn,Tank & Rast,Limburg/Lahn,Germany,"{'brand': 'Tank & Rast', 'fascia': 'Motorway Service Station', 'category': 'Other', 'edit_date': '2025-05-04', 'lat_lon_source': 'Google'}",50.395213,8.077491, Autobahnraststätte Limburg Ost ,"{'Mon': '00:00-23:59', 'Tue': '00:00-23:59', 'Wed': '00:00-23:59', 'Thu': '00:00-23:59', 'Fri': '00:00-23:59', 'Sat': '00:00-23:59', 'Sun': '00:00-23:59'}",+49 6431 71021,Limburg/Lahn,50.395213-8.077491,Limburg Ost ,https://www.raststaetten.de/standorte/limburg-ost/
Leipheim Süd An der A8 89340 Leipheim,Tank & Rast,Leipheim,Germany,"{'brand': 'Tank & Rast', 'fascia': 'Motorway Service Station', 'category': 'Other', 'edit_date': '2025-05-04', 'lat_lon_source': 'Google'}",48.437515,10.213661, Autobahnraststätte Leipheim Süd ,"{'Mon': '00:00-23:59', 'Tue': '00:00-23:59', 'Wed': '00:00-23:59', 'Thu': '00:00-23:59', 'Fri': '00:00-23:59', 'Sat': '00:00-23:59', 'Sun': '00:00-23:59'}",+49 8221 27800,Leipheim,48.437515-10.213661,Leipheim Süd ,https://www.raststaetten.de/standorte/leipheim-sued/
Langen-Bergheim West An der A45 63546 Hammersbach,Tank & Rast,Hammersbach,Germany,"{'brand': 'Tank & Rast', 'fascia': 'Motorway Service Station', 'category': 'Other', 'edit_date': '2025-05-04', 'lat_lon_source': 'Google'}",50.249565,8.99344, Autobahnraststätte Langen-Bergheim West ,"{'Mon': '00:00-23:59', 'Tue': '00:00-23:59', 'Wed': '00:00-23:59', 'Thu': '00:00-23:59', 'Fri': '00:00-23:59', 'Sat': '00:00-23:59', 'Sun': '00:00-23:59'}",+49 6185 7314,Hammersbach,50.249565-8.99344,Langen-Bergheim West ,https://www.raststaetten.de/standorte/langen-bergheim-west/
Langen-Bergheim Ost An der A45 63546 Hammersbach,Tank & Rast,Hammersbach,Germany,"{'brand': 'Tank & Rast', 'fascia': 'Motorway Service Station', 'category': 'Other', 'edit_date': '2025-05-04', 'lat_lon_source': 'Google'}",50.249804,8.994793, Autobahnraststätte Langen-Bergheim Ost ,"{'Mon': '00:00-23:59', 'Tue': '00:00-23:59', 'Wed': '00:00-23:59', 'Thu': '00:00-23:59', 'Fri': '00:00-23:59', 'Sat': '00:00-23:59', 'Sun': '00:00-23:59'}",+49 6185 7313,Hammersbach,50.249804-8.994793,Langen-Bergheim Ost ,https://www.raststaetten.de/standorte/langen-bergheim-ost/
Königsforst Ost An der A3 51503 Rösrath,Tank & Rast,Rösrath,Germany,"{'brand': 'Tank & Rast', 'fascia': 'Motorway Service Station', 'category': 'Other', 'edit_date': '2025-05-04', 'lat_lon_source': 'Google'}",50.899619,7.151136, Autobahnraststätte Königsforst Ost ,"{'Mon': '00:00-23:59', 'Tue': '00:00-23:59', 'Wed': '00:00-23:59', 'Thu': '00:00-23:59', 'Fri': '00:00-23:59', 'Sat': '00:00-23:59', 'Sun': '00:00-23:59'}",+49 2205 92950,Rösrath,50.899619-7.151136,Königsforst Ost ,https://www.raststaetten.de/standorte/koenigsforst-ost/
Köckern Ost An der A9 06794 Köckern,Tank & Rast,Köckern,Germany,"{'brand': 'Tank & Rast', 'fascia': 'Motorway Service Station', 'category': 'Other', 'edit_date': '2025-05-04', 'lat_lon_source': 'Google'}",51.606076,12.185403, Autobahnraststätte Köckern Ost ,"{'Mon': '00:00-23:59', 'Tue': '00:00-23:59', 'Wed': '00:00-23:59', 'Thu': '00:00-23:59', 'Fri': '00:00-23:59', 'Sat': '00:00-23:59', 'Sun': '00:00-23:59'}",+49 34954 24870,Köckern,51.606076-12.185403,Köckern Ost ,https://www.raststaetten.de/standorte/koeckern-ost/
Lüneburger Heide Ost An der A7 29646 Bispingen,Tank & Rast,Bispingen,Germany,"{'brand': 'Tank & Rast', 'fascia': 'Motorway Service Station', 'category': 'Other', 'edit_date': '2025-05-04', 'lat_lon_source': 'Google'}",53.109449,9.98393, Autobahnraststätte Lüneburger Heide Ost ,"{'Mon': '00:00-23:59', 'Tue': '00:00-23:59', 'Wed': '00:00-23:59', 'Thu': '00:00-23:59', 'Fri': '00:00-23:59', 'Sat': '00:00-23:59', 'Sun': '00:00-23:59'}",+49 5194 98280120,Bispingen,53.109449-9.98393,Lüneburger Heide Ost ,https://www.raststaetten.de/standorte/lueneburger-heide-ost/
Köckern West An der A9 06794 Köckern,Tank & Rast,Köckern,Germany,"{'brand': 'Tank & Rast', 'fascia': 'Motorway Service Station', 'category': 'Other', 'edit_date': '2025-05-04', 'lat_lon_source': 'Google'}",51.608724,12.184917, Autobahnraststätte Köckern West ,"{'Mon': '00:00-23:59', 'Tue': '00:00-23:59', 'Wed': '00:00-23:59', 'Thu': '00:00-23:59', 'Fri': '00:00-23:59', 'Sat': '00:00-23:59', 'Sun': '00:00-23:59'}",+49 34954 494990,Köckern,51.608724-12.184917,Köckern West ,https://www.raststaetten.de/standorte/koeckern-west/
Kraichgau Nord An der A6 74889 Sinsheim,Tank & Rast,Sinsheim,Germany,"{'brand': 'Tank & Rast', 'fascia': 'Motorway Service Station', 'category': 'Other', 'edit_date': '2025-05-04', 'lat_lon_source': 'Google'}",49.243994,8.879833, Autobahnraststätte Kraichgau Nord ,"{'Mon': '00:00-23:59', 'Tue': '00:00-23:59', 'Wed': '00:00-23:59', 'Thu': '00:00-23:59', 'Fri': '00:00-23:59', 'Sat': '00:00-23:59', 'Sun': '00:00-23:59'}",+49 7261 92780,Sinsheim,49.243994-8.879833,Kraichgau Nord ,https://www.raststaetten.de/standorte/kraichgau-nord/
Kirchheim Ost An der A7 36275 Kirchheim,Tank & Rast,Kirchheim,Germany,"{'brand': 'Tank & Rast', 'fascia': 'Motorway Service Station', 'category': 'Other', 'edit_date': '2025-05-04', 'lat_lon_source': 'Google'}",50.831161,9.576526, Autobahnraststätte Kirchheim Ost ,"{'Mon': '00:00-23:59', 'Tue': '00:00-23:59', 'Wed': '00:00-23:59', 'Thu': '00:00-23:59', 'Fri': '00:00-23:59', 'Sat': '00:00-23:59', 'Sun': '00:00-23:59'}",+49 6625 5116,Kirchheim,50.831161-9.576526,Kirchheim Ost ,https://www.raststaetten.de/standorte/kirchheim-ost/
Kassel Ost An der A7 34253 Lohfelden,Tank & Rast,Lohfelden,Germany,"{'brand': 'Tank & Rast', 'fascia': 'Motorway Service Station', 'category': 'Other', 'edit_date': '2025-05-04', 'lat_lon_source': 'Google'}",51.267201,9.518551, Autobahnraststätte Kassel Ost ,"{'Mon': '00:00-23:59', 'Tue': '00:00-23:59', 'Wed': '00:00-23:59', 'Thu': '00:00-23:59', 'Fri': '00:00-23:59', 'Sat': '00:00-23:59', 'Sun': '00:00-23:59'}",+49 561 95981,Lohfelden,51.267201-9.518551,Kassel Ost ,https://www.raststaetten.de/standorte/kassel-ost/
Knauheide West An der A3 46446 Emmerich,Tank & Rast,Emmerich,Germany,"{'brand': 'Tank & Rast', 'fascia': 'Motorway Service Station', 'category': 'Other', 'edit_date': '2025-05-04', 'lat_lon_source': 'Google'}",51.898061,6.165097, Autobahnraststätte Knauheide West ,"{'Mon': '00:00-23:59', 'Tue': '00:00-23:59', 'Wed': '00:00-23:59', 'Thu': '00:00-23:59', 'Fri': '00:00-23:59', 'Sat': '00:00-23:59', 'Sun': '00:00-23:59'}",+49 2828 2320,Emmerich,51.898061-6.165097,Knauheide West ,https://www.raststaetten.de/standorte/knauheide-west/
Jura West An der A3 92355 Velburg,Tank & Rast,Velburg,Germany,"{'brand': 'Tank & Rast', 'fascia': 'Motorway Service Station', 'category': 'Other', 'edit_date': '2025-05-04', 'lat_lon_source': 'Google'}",49.272,11.6, Autobahnraststätte Jura West ,"{'Mon': '00:00-23:59', 'Tue': '00:00-23:59', 'Wed': '00:00-23:59', 'Thu': '00:00-23:59', 'Fri': '00:00-23:59', 'Sat': '00:00-23:59', 'Sun': '00:00-23:59'}",+49 9182 7902010 ,Velburg,49.272-11.6,Jura West ,https://www.raststaetten.de/standorte/jura-west/
Im Hegau West An der A81 78234 Engen,Tank & Rast,Engen,Germany,"{'brand': 'Tank & Rast', 'fascia': 'Motorway Service Station', 'category': 'Other', 'edit_date': '2025-05-04', 'lat_lon_source': 'Google'}",47.861155,8.786002, Autobahnraststätte Im Hegau West ,"{'Mon': '00:00-23:59', 'Tue': '00:00-23:59', 'Wed': '00:00-23:59', 'Thu': '00:00-23:59', 'Fri': '00:00-23:59', 'Sat': '00:00-23:59', 'Sun': '00:00-23:59'}",+49 7733 94010,Engen,47.861155-8.786002,Im Hegau West ,https://www.raststaetten.de/standorte/im-hegau-west/
Jagsttal Ost An der A81 74259 Widdern,Tank & Rast,Widdern,Germany,"{'brand': 'Tank & Rast', 'fascia': 'Motorway Service Station', 'category': 'Other', 'edit_date': '2025-05-04', 'lat_lon_source': 'Google'}",49.323541,9.414346, Autobahnraststätte Jagsttal Ost ,"{'Mon': '00:00-23:59', 'Tue': '00:00-23:59', 'Wed': '00:00-23:59', 'Thu': '00:00-23:59', 'Fri': '00:00-23:59', 'Sat': '00:00-23:59', 'Sun': '00:00-23:59'}",+49 6298 5646,Widdern,49.323541-9.414346,Jagsttal Ost ,https://www.raststaetten.de/standorte/jagsttal-ost/
Jagsttal West An der A81 74259 Widdern,Tank & Rast,Widdern,Germany,"{'brand': 'Tank & Rast', 'fascia': 'Motorway Service Station', 'category': 'Other', 'edit_date': '2025-05-04', 'lat_lon_source': 'Google'}",49.325833,9.413054, Autobahnraststätte Jagsttal West ,"{'Mon': '00:00-23:59', 'Tue': '00:00-23:59', 'Wed': '00:00-23:59', 'Thu': '00:00-23:59', 'Fri': '00:00-23:59', 'Sat': '00:00-23:59', 'Sun': '00:00-23:59'}",+49 6298 5656,Widdern,49.325833-9.413054,Jagsttal West ,https://www.raststaetten.de/standorte/jagsttal-west/
Hunsrück Ost An der A61 55442 Daxweiler,Tank & Rast,Daxweiler,Germany,"{'brand': 'Tank & Rast', 'fascia': 'Motorway Service Station', 'category': 'Other', 'edit_date': '2025-05-04', 'lat_lon_source': 'Google'}",49.964683,7.768, Autobahnraststätte Hunsrück Ost ,"{'Mon': '00:00-23:59', 'Tue': '00:00-23:59', 'Wed': '00:00-23:59', 'Thu': '00:00-23:59', 'Fri': '00:00-23:59', 'Sat': '00:00-23:59', 'Sun': '00:00-23:59'}",+49 6724 3311,Daxweiler,49.964683-7.768,Hunsrück Ost ,https://www.raststaetten.de/standorte/hunsrueck-ost/
Hüttener Berge West An der A7 24791 Alt Duvenstedt,Tank & Rast,Alt,Germany,"{'brand': 'Tank & Rast', 'fascia': 'Motorway Service Station', 'category': 'Other', 'edit_date': '2025-05-04', 'lat_lon_source': 'Google'}",54.36398,9.669951, Autobahnraststätte Hüttener Berge West ,"{'Mon': '00:00-23:59', 'Tue': '00:00-23:59', 'Wed': '00:00-23:59', 'Thu': '00:00-23:59', 'Fri': '00:00-23:59', 'Sat': '00:00-23:59', 'Sun': '00:00-23:59'}",+49 4338 455,Alt,54.36398-9.669951,Hüttener Berge West ,https://www.raststaetten.de/standorte/huettener-berge-west/
Illertal Ost An der A7 88451 Dettingen/Iller,Tank & Rast,Dettingen/Iller,Germany,"{'brand': 'Tank & Rast', 'fascia': 'Motorway Service Station', 'category': 'Other', 'edit_date': '2025-05-04', 'lat_lon_source': 'Google'}",48.124164,10.112394, Autobahnraststätte Illertal Ost ,"{'Mon': '00:00-23:59', 'Tue': '00:00-23:59', 'Wed': '00:00-23:59', 'Thu': '00:00-23:59', 'Fri': '00:00-23:59', 'Sat': '00:00-23:59', 'Sun': '00:00-23:59'}",+49 7354 93220,Dettingen/Iller,48.124164-10.112394,Illertal Ost ,https://www.raststaetten.de/standorte/illertal-ost/
Hüttener Berge Ost An der A7 24791 Alt Duvenstedt,Tank & Rast,Alt,Germany,"{'brand': 'Tank & Rast', 'fascia': 'Motorway Service Station', 'category': 'Other', 'edit_date': '2025-05-04', 'lat_lon_source': 'Google'}",54.364451,9.67189, Autobahnraststätte Hüttener Berge Ost ,"{'Mon': '00:00-23:59', 'Tue': '00:00-23:59', 'Wed': '00:00-23:59', 'Thu': '00:00-23:59', 'Fri': '00:00-23:59', 'Sat': '00:00-23:59', 'Sun': '00:00-23:59'}",+49 4338 463,Alt,54.364451-9.67189,Hüttener Berge Ost ,https://www.raststaetten.de/standorte/huettener-berge-ost/
Hünxe West An der A3 46569 Hünxe,Tank & Rast,Hünxe,Germany,"{'brand': 'Tank & Rast', 'fascia': 'Motorway Service Station', 'category': 'Other', 'edit_date': '2025-05-04', 'lat_lon_source': 'Google'}",51.636367,6.745025, Autobahnraststätte Hünxe West ,"{'Mon': '00:00-23:59', 'Tue': '00:00-23:59', 'Wed': '00:00-23:59', 'Thu': '00:00-23:59', 'Fri': '00:00-23:59', 'Sat': '00:00-23:59', 'Sun': '00:00-23:59'}",+49 2858 918194,Hünxe,51.636367-6.745025,Hünxe West ,https://www.raststaetten.de/standorte/huenxe-west/
Huntetal West An der A29 26203 Wardenburg,Tank & Rast,Wardenburg,Germany,"{'brand': 'Tank & Rast', 'fascia': 'Motorway Service Station', 'category': 'Other', 'edit_date': '2025-05-04', 'lat_lon_source': 'Google'}",53.045422,8.220819, Autobahnraststätte Huntetal West ,"{'Mon': '06:00 - 22:00', 'Tue': '06:00 - 22:00', 'Wed': '06:00 - 22:00', 'Thu': '06:00 - 22:00', 'Fri': '06:00 - 22:00', 'Sat': '06:00 - 22:00', 'Sun': '06:00 - 22:00'}",+49 4407 92740,Wardenburg,53.045422-8.220819,Huntetal West ,https://www.raststaetten.de/standorte/huntetal-west/
Hünxe Ost An der A3 46569 Hünxe,Tank & Rast,Hünxe,Germany,"{'brand': 'Tank & Rast', 'fascia': 'Motorway Service Station', 'category': 'Other', 'edit_date': '2025-05-04', 'lat_lon_source': 'Google'}",51.635923,6.747347, Autobahnraststätte Hünxe Ost ,"{'Mon': '00:00-23:59', 'Tue': '00:00-23:59', 'Wed': '00:00-23:59', 'Thu': '00:00-23:59', 'Fri': '00:00-23:59', 'Sat': '00:00-23:59', 'Sun': '00:00-23:59'}",+49 2858 9126,Hünxe,51.635923-6.747347,Hünxe Ost ,https://www.raststaetten.de/standorte/huenxe-ost/
Huntetal Ost An der A29 26203 Wardenburg,Tank & Rast,Wardenburg,Germany,"{'brand': 'Tank & Rast', 'fascia': 'Motorway Service Station', 'category': 'Other', 'edit_date': '2025-05-04', 'lat_lon_source': 'Google'}",53.041081,8.220615, Autobahnraststätte Huntetal Ost ,"{'Mon': '06:00 - 22:00', 'Tue': '06:00 - 22:00', 'Wed': '06:00 - 22:00', 'Thu': '06:00 - 22:00', 'Fri': '06:00 - 22:00', 'Sat': '06:00 - 22:00', 'Sun': '06:00 - 22:00'}",+49 4407 91640,Wardenburg,53.041081-8.220615,Huntetal Ost ,https://www.raststaetten.de/standorte/huntetal-ost/
Hörselgau Nord An der A4 99880 Hörselgau,Tank & Rast,Hörselgau,Germany,"{'brand': 'Tank & Rast', 'fascia': 'Motorway Service Station', 'category': 'Other', 'edit_date': '2025-05-04', 'lat_lon_source': 'Google'}",50.9130951,10.5872059, Autobahnraststätte Hörselgau Nord ,"{'Mon': '00:00-23:59', 'Tue': '00:00-23:59', 'Wed': '00:00-23:59', 'Thu': '00:00-23:59', 'Fri': '00:00-23:59', 'Sat': '00:00-23:59', 'Sun': '00:00-23:59'}",+49 3622 901150,Hörselgau,50.9130951-10.5872059,Hörselgau Nord ,https://www.raststaetten.de/standorte/hoerselgau-nord/
Höhenrain Ost An der A95 82335 Berg,Tank & Rast,Berg,Germany,"{'brand': 'Tank & Rast', 'fascia': 'Motorway Service Station', 'category': 'Other', 'edit_date': '2025-05-04', 'lat_lon_source': 'Google'}",47.926413,11.403075, Autobahnraststätte Höhenrain Ost ,"{'Mon': '00:00-23:59', 'Tue': '00:00-23:59', 'Wed': '00:00-23:59', 'Thu': '00:00-23:59', 'Fri': '00:00-23:59', 'Sat': '00:00-23:59', 'Sun': '00:00-23:59'}",+49 8171 21920,Berg,47.926413-11.403075,Höhenrain Ost ,https://www.raststaetten.de/standorte/hoehenrain-ost/
Höhenrain West An der A95 82335 Berg,Tank & Rast,Berg,Germany,"{'brand': 'Tank & Rast', 'fascia': 'Motorway Service Station', 'category': 'Other', 'edit_date': '2025-05-04', 'lat_lon_source': 'Google'}",47.927672,11.401813, Autobahnraststätte Höhenrain West ,"{'Mon': '06:00 - 20:30', 'Tue': '06:00 - 20:30', 'Wed': '06:00 - 20:30', 'Thu': '06:00 - 20:30', 'Fri': '06:00 - 20:30', 'Sat': '06:00 - 20:30', 'Sun': '06:00 - 20:30'}",+49 8171 21920,Berg,47.927672-11.401813,Höhenrain West ,https://www.raststaetten.de/standorte/hoehenrain-west/
Holzkirchen Nord An der A8 83607 Holzkirchen,Tank & Rast,Holzkirchen,Germany,"{'brand': 'Tank & Rast', 'fascia': 'Motorway Service Station', 'category': 'Other', 'edit_date': '2025-05-04', 'lat_lon_source': 'Google'}",47.891644,11.731666, Autobahnraststätte Holzkirchen Nord ,"{'Mon': '00:00-23:59', 'Tue': '00:00-23:59', 'Wed': '00:00-23:59', 'Thu': '00:00-23:59', 'Fri': '00:00-23:59', 'Sat': '00:00-23:59', 'Sun': '00:00-23:59'}",+49 8024 303330,Holzkirchen,47.891644-11.731666,Holzkirchen Nord ,https://www.raststaetten.de/standorte/holzkirchen-nord/
Holmmoor West An der A7 25451 Quickborn,Tank & Rast,Quickborn,Germany,"{'brand': 'Tank & Rast', 'fascia': 'Motorway Service Station', 'category': 'Other', 'edit_date': '2025-05-04', 'lat_lon_source': 'Google'}",53.717401,9.937914, Autobahnraststätte Holmmoor West ,"{'Mon': '00:00-23:59', 'Tue': '00:00-23:59', 'Wed': '00:00-23:59', 'Thu': '00:00-23:59', 'Fri': '00:00-23:59', 'Sat': '00:00-23:59', 'Sun': '00:00-23:59'}",+49 4106 9769514 ,Quickborn,53.717401-9.937914,Holmmoor West ,https://www.raststaetten.de/standorte/holmmoor-west/
Hochwald West An der A1 54421 Reinsfeld/Hunsrück,Tank & Rast,Reinsfeld/Hunsrück,Germany,"{'brand': 'Tank & Rast', 'fascia': 'Motorway Service Station', 'category': 'Other', 'edit_date': '2025-05-04', 'lat_lon_source': 'Google'}",49.6908771,6.896277, Autobahnraststätte Hochwald West ,"{'Mon': '06:00 - 22:00', 'Tue': '06:00 - 22:00', 'Wed': '06:00 - 22:00', 'Thu': '06:00 - 22:00', 'Fri': '06:00 - 22:00', 'Sat': '06:00 - 22:00', 'Sun': '06:00 - 22:00'}",+49 6586 9929836,Reinsfeld/Hunsrück,49.6908771-6.896277,Hochwald West ,https://www.raststaetten.de/standorte/hochwald-west/
Hirschberg Ost An der A9 07927 Hirschberg,Tank & Rast,Hirschberg,Germany,"{'brand': 'Tank & Rast', 'fascia': 'Motorway Service Station', 'category': 'Other', 'edit_date': '2025-05-04', 'lat_lon_source': 'Google'}",50.427116,11.794892, Autobahnraststätte Hirschberg Ost ,"{'Mon': '00:00-23:59', 'Tue': '00:00-23:59', 'Wed': '00:00-23:59', 'Thu': '00:00-23:59', 'Fri': '00:00-23:59', 'Sat': '00:00-23:59', 'Sun': '00:00-23:59'}",+49 36644 30301,Hirschberg,50.427116-11.794892,Hirschberg Ost ,https://www.raststaetten.de/standorte/hirschberg-ost/
Hofoldinger Forst Süd An der A8 85649 Brunnthal,Tank & Rast,Brunnthal,Germany,"{'brand': 'Tank & Rast', 'fascia': 'Motorway Service Station', 'category': 'Other', 'edit_date': '2025-05-04', 'lat_lon_source': 'Google'}",47.997891,11.675564, Autobahnraststätte Hofoldinger Forst Süd ,"{'Mon': '06:00 - 22:00', 'Tue': '06:00 - 22:00', 'Wed': '06:00 - 22:00', 'Thu': '06:00 - 22:00', 'Fri': '06:00 - 22:00', 'Sat': '06:00 - 22:00', 'Sun': '06:00 - 22:00'}",+49 8102 778853,Brunnthal,47.997891-11.675564,Hofoldinger Forst Süd ,https://www.raststaetten.de/standorte/hofoldinger-forst-sued/
Hochwald Ost An der A1 54421 Reinsfeld/Hunsrück,Tank & Rast,Reinsfeld/Hunsrück,Germany,"{'brand': 'Tank & Rast', 'fascia': 'Motorway Service Station', 'category': 'Other', 'edit_date': '2025-05-04', 'lat_lon_source': 'Google'}",49.690085,6.8997783, Autobahnraststätte Hochwald Ost ,"{'Mon': '06:00 - 22:00', 'Tue': '06:00 - 22:00', 'Wed': '06:00 - 22:00', 'Thu': '06:00 - 22:00', 'Fri': '06:00 - 22:00', 'Sat': '06:00 - 22:00', 'Sun': '06:00 - 22:00'}",+49 6586 9926508,Reinsfeld/Hunsrück,49.690085-6.8997783,Hochwald Ost ,https://www.raststaetten.de/standorte/hochwald-ost/
Hochfelln Süd An der A8 83346 Bergen,Tank & Rast,Bergen,Germany,"{'brand': 'Tank & Rast', 'fascia': 'Motorway Service Station', 'category': 'Other', 'edit_date': '2025-05-04', 'lat_lon_source': 'Google'}",47.827929,12.589252, Autobahnraststätte Hochfelln Süd ,"{'Mon': '00:00-23:59', 'Tue': '00:00-23:59', 'Wed': '00:00-23:59', 'Thu': '00:00-23:59', 'Fri': '00:00-23:59', 'Sat': '00:00-23:59', 'Sun': '00:00-23:59'}",+49 8662 6681912,Bergen,47.827929-12.589252,Hochfelln Süd ,https://www.raststaetten.de/standorte/hochfelln-sued/
Holmmoor Ost An der A7 25451 Quickborn,Tank & Rast,Quickborn,Germany,"{'brand': 'Tank & Rast', 'fascia': 'Motorway Service Station', 'category': 'Other', 'edit_date': '2025-05-04', 'lat_lon_source': 'Google'}",53.716893,9.939533, Autobahnraststätte Holmmoor Ost ,"{'Mon': '00:00-23:59', 'Tue': '00:00-23:59', 'Wed': '00:00-23:59', 'Thu': '00:00-23:59', 'Fri': '00:00-23:59', 'Sat': '00:00-23:59', 'Sun': '00:00-23:59'}",+49 4106 9769540 ,Quickborn,53.716893-9.939533,Holmmoor Ost ,https://www.raststaetten.de/standorte/holmmoor-ost/
Hildesheimer Börde Ost An der A7 31174 Schellerten,Tank & Rast,Schellerten,Germany,"{'brand': 'Tank & Rast', 'fascia': 'Motorway Service Station', 'category': 'Other', 'edit_date': '2025-05-04', 'lat_lon_source': 'Google'}",52.127533,10.051503, Autobahnraststätte Hildesheimer Börde Ost ,"{'Mon': '00:00-23:59', 'Tue': '00:00-23:59', 'Wed': '00:00-23:59', 'Thu': '00:00-23:59', 'Fri': '00:00-23:59', 'Sat': '00:00-23:59', 'Sun': '00:00-23:59'}",+49 5121 32444,Schellerten,52.127533-10.051503,Hildesheimer Börde Ost ,https://www.raststaetten.de/standorte/hildesheimer-boerde-ost/
Hermsdorfer Kreuz West An der A9 07629 Schleifreisen,Tank & Rast,Schleifreisen,Germany,"{'brand': 'Tank & Rast', 'fascia': 'Motorway Service Station', 'category': 'Other', 'edit_date': '2025-05-04', 'lat_lon_source': 'Google'}",50.87499,11.846279, Autobahnraststätte Hermsdorfer Kreuz West ,"{'Mon': '00:00-23:59', 'Tue': '00:00-23:59', 'Wed': '00:00-23:59', 'Thu': '00:00-23:59', 'Fri': '00:00-23:59', 'Sat': '00:00-23:59', 'Sun': '00:00-23:59'}",+49 36601 92280,Schleifreisen,50.87499-11.846279,Hermsdorfer Kreuz West ,https://www.raststaetten.de/standorte/hermsdorfer-kreuz-west/
Hermsdorfer Kreuz Ost An der A9 07629 Schleifreisen,Tank & Rast,Schleifreisen,Germany,"{'brand': 'Tank & Rast', 'fascia': 'Motorway Service Station', 'category': 'Other', 'edit_date': '2025-05-04', 'lat_lon_source': 'Google'}",50.870696,11.850398, Autobahnraststätte Hermsdorfer Kreuz Ost ,"{'Mon': '00:00-23:59', 'Tue': '00:00-23:59', 'Wed': '00:00-23:59', 'Thu': '00:00-23:59', 'Fri': '00:00-23:59', 'Sat': '00:00-23:59', 'Sun': '00:00-23:59'}",+49 36601 7960,Schleifreisen,50.870696-11.850398,Hermsdorfer Kreuz Ost ,https://www.raststaetten.de/standorte/hermsdorfer-kreuz-ost/
Helmstedt Süd An der A2 38350 Helmstedt,Tank & Rast,Helmstedt,Germany,"{'brand': 'Tank & Rast', 'fascia': 'Motorway Service Station', 'category': 'Other', 'edit_date': '2025-05-04', 'lat_lon_source': 'Google'}",52.220564,11.053758, Autobahnraststätte Helmstedt Süd ,"{'Mon': '00:00-23:59', 'Tue': '00:00-23:59', 'Wed': '00:00-23:59', 'Thu': '00:00-23:59', 'Fri': '00:00-23:59', 'Sat': '00:00-23:59', 'Sun': '00:00-23:59'}",+49 5351 7061,Helmstedt,52.220564-11.053758,Helmstedt Süd ,https://www.raststaetten.de/standorte/helmstedt-sued/
Hasbruch Süd An der A28 27777 Ganderkesee,Tank & Rast,Ganderkesee,Germany,"{'brand': 'Tank & Rast', 'fascia': 'Motorway Service Station', 'category': 'Other', 'edit_date': '2025-05-04', 'lat_lon_source': 'Google'}",53.054691,8.501514, Autobahnraststätte Hasbruch Süd ,"{'Mon': '06:00 - 22:00', 'Tue': '06:00 - 22:00', 'Wed': '06:00 - 22:00', 'Thu': '06:00 - 22:00', 'Fri': '06:00 - 22:00', 'Sat': '06:00 - 22:00', 'Sun': '06:00 - 22:00'}",+49 4222 93210,Ganderkesee,53.054691-8.501514,Hasbruch Süd ,https://www.raststaetten.de/standorte/hasbruch-sued/
Hasselberg Ost An der A7 34593 Knüllwald,Tank & Rast,Knüllwald,Germany,"{'brand': 'Tank & Rast', 'fascia': 'Motorway Service Station', 'category': 'Other', 'edit_date': '2025-05-04', 'lat_lon_source': 'Google'}",51.035424,9.48887, Autobahnraststätte Hasselberg Ost ,"{'Mon': '00:00-23:59', 'Tue': '00:00-23:59', 'Wed': '00:00-23:59', 'Thu': '00:00-23:59', 'Fri': '00:00-23:59', 'Sat': '00:00-23:59', 'Sun': '00:00-23:59'}",+49 5685 99980,Knüllwald,51.035424-9.48887,Hasselberg Ost ,https://www.raststaetten.de/standorte/hasselberg-ost/
Hasselberg West An der A7 34593 Knüllwald,Tank & Rast,Knüllwald,Germany,"{'brand': 'Tank & Rast', 'fascia': 'Motorway Service Station', 'category': 'Other', 'edit_date': '2025-05-04', 'lat_lon_source': 'Google'}",51.035977,9.486519, Autobahnraststätte Hasselberg West ,"{'Mon': '00:00-23:59', 'Tue': '00:00-23:59', 'Wed': '00:00-23:59', 'Thu': '00:00-23:59', 'Fri': '00:00-23:59', 'Sat': '00:00-23:59', 'Sun': '00:00-23:59'}",+49 5685 99890,Knüllwald,51.035977-9.486519,Hasselberg West ,https://www.raststaetten.de/standorte/hasselberg-west/
Hasbruch Nord An der A28 27777 Ganderkesee,Tank & Rast,Ganderkesee,Germany,"{'brand': 'Tank & Rast', 'fascia': 'Motorway Service Station', 'category': 'Other', 'edit_date': '2025-05-04', 'lat_lon_source': 'Google'}",53.055777,8.501044, Autobahnraststätte Hasbruch Nord ,"{'Mon': '06:00 - 22:00', 'Tue': '06:00 - 22:00', 'Wed': '06:00 - 22:00', 'Thu': '06:00 - 22:00', 'Fri': '06:00 - 22:00', 'Sat': '06:00 - 22:00', 'Sun': '06:00 - 22:00'}",+49 4222 93210,Ganderkesee,53.055777-8.501044,Hasbruch Nord ,https://www.raststaetten.de/standorte/hasbruch-nord/
Harburger Berge Ost An der A7 21077 Hamburg,Tank & Rast,Hamburg,Germany,"{'brand': 'Tank & Rast', 'fascia': 'Motorway Service Station', 'category': 'Other', 'edit_date': '2025-05-04', 'lat_lon_source': 'Google'}",53.423729,9.966288, Autobahnraststätte Harburger Berge Ost ,"{'Mon': '00:00-23:59', 'Tue': '00:00-23:59', 'Wed': '00:00-23:59', 'Thu': '00:00-23:59', 'Fri': '00:00-23:59', 'Sat': '00:00-23:59', 'Sun': '00:00-23:59'}",+49 40 76115317,Hamburg,53.423729-9.966288,Harburger Berge Ost ,https://www.raststaetten.de/standorte/harburger-berge-ost/
Harburger Berge West An der A7 21077 Hamburg,Tank & Rast,Hamburg,Germany,"{'brand': 'Tank & Rast', 'fascia': 'Motorway Service Station', 'category': 'Other', 'edit_date': '2025-05-04', 'lat_lon_source': 'Google'}",53.424391,9.96239, Autobahnraststätte Harburger Berge West ,"{'Mon': '00:00-23:59', 'Tue': '00:00-23:59', 'Wed': '00:00-23:59', 'Thu': '00:00-23:59', 'Fri': '00:00-23:59', 'Sat': '00:00-23:59', 'Sun': '00:00-23:59'}",+49 40 7001010,Hamburg,53.424391-9.96239,Harburger Berge West ,https://www.raststaetten.de/standorte/harburger-berge-west/
Hansens Holz Nord An der A14 04720 Choren,Tank & Rast,Choren,Germany,"{'brand': 'Tank & Rast', 'fascia': 'Motorway Service Station', 'category': 'Other', 'edit_date': '2025-05-04', 'lat_lon_source': 'Google'}",51.09103,13.23736, Autobahnraststätte Hansens Holz Nord ,"{'Mon': '06:00 - 22:00', 'Tue': '06:00 - 22:00', 'Wed': '06:00 - 22:00', 'Thu': '06:00 - 22:00', 'Fri': '06:00 - 22:00', 'Sat': '06:00 - 22:00', 'Sun': '06:00 - 22:00'}",+49 151 53797525,Choren,51.09103-13.23736,Hansens Holz Nord ,https://www.raststaetten.de/standorte/hansens-holz-nord/
Hannover-Wülferode West An der A7 30539 Hannover,Tank & Rast,Hannover,Germany,"{'brand': 'Tank & Rast', 'fascia': 'Motorway Service Station', 'category': 'Other', 'edit_date': '2025-05-04', 'lat_lon_source': 'Google'}",52.337,9.865, Autobahnraststätte Hannover-Wülferode West ,"{'Mon': '00:00-23:59', 'Tue': '00:00-23:59', 'Wed': '00:00-23:59', 'Thu': '00:00-23:59', 'Fri': '00:00-23:59', 'Sat': '00:00-23:59', 'Sun': '00:00-23:59'}",+49 511 51060204,Hannover,52.337-9.865,Hannover-Wülferode West ,https://www.raststaetten.de/standorte/hannover-wuelferode-west/
Gütersloh Süd An der A2 33334 Gütersloh,Tank & Rast,Gütersloh,Germany,"{'brand': 'Tank & Rast', 'fascia': 'Motorway Service Station', 'category': 'Other', 'edit_date': '2025-05-04', 'lat_lon_source': 'Google'}",51.865909,8.37158, Autobahnraststätte Gütersloh Süd ,"{'Mon': '00:00-23:59', 'Tue': '00:00-23:59', 'Wed': '00:00-23:59', 'Thu': '00:00-23:59', 'Fri': '00:00-23:59', 'Sat': '00:00-23:59', 'Sun': '00:00-23:59'}",+49 5241 4033151,Gütersloh,51.865909-8.37158,Gütersloh Süd ,https://www.raststaetten.de/standorte/guetersloh-sued/
Hamburg-Stillhorn West An der A1 21109 Hamburg,Tank & Rast,Hamburg,Germany,"{'brand': 'Tank & Rast', 'fascia': 'Motorway Service Station', 'category': 'Other', 'edit_date': '2025-05-04', 'lat_lon_source': 'Google'}",53.484973,10.025441, Autobahnraststätte Hamburg-Stillhorn West ,"{'Mon': '00:00-23:59', 'Tue': '00:00-23:59', 'Wed': '00:00-23:59', 'Thu': '00:00-23:59', 'Fri': '00:00-23:59', 'Sat': '00:00-23:59', 'Sun': '00:00-23:59'}",+49 40 75064803,Hamburg,53.484973-10.025441,Hamburg-Stillhorn West ,https://www.raststaetten.de/standorte/hamburg-stillhorn-west/
Gudow Süd An der A24 23899 Gudow,Tank & Rast,Gudow,Germany,"{'brand': 'Tank & Rast', 'fascia': 'Motorway Service Station', 'category': 'Other', 'edit_date': '2025-05-04', 'lat_lon_source': 'Google'}",53.520471,10.804038, Autobahnraststätte Gudow Süd ,"{'Mon': '00:00-23:59', 'Tue': '00:00-23:59', 'Wed': '00:00-23:59', 'Thu': '00:00-23:59', 'Fri': '00:00-23:59', 'Sat': '00:00-23:59', 'Sun': '00:00-23:59'}",+49 4547 70770,Gudow,53.520471-10.804038,Gudow Süd ,https://www.raststaetten.de/standorte/gudow-sued/
Grundbergsee Nord An der A1 27367 Sottrum,Tank & Rast,Sottrum,Germany,"{'brand': 'Tank & Rast', 'fascia': 'Motorway Service Station', 'category': 'Other', 'edit_date': '2025-05-04', 'lat_lon_source': 'Google'}",53.090308,9.178047, Autobahnraststätte Grundbergsee Nord ,"{'Mon': '00:00-23:59', 'Tue': '00:00-23:59', 'Wed': '00:00-23:59', 'Thu': '00:00-23:59', 'Fri': '00:00-23:59', 'Sat': '00:00-23:59', 'Sun': '00:00-23:59'}",+49 4205 7900715,Sottrum,53.090308-9.178047,Grundbergsee Nord ,https://www.raststaetten.de/standorte/grundbergsee-nord/
Grunewald West An der A115 14129 Berlin,Tank & Rast,Berlin,Germany,"{'brand': 'Tank & Rast', 'fascia': 'Motorway Service Station', 'category': 'Other', 'edit_date': '2025-05-04', 'lat_lon_source': 'Google'}",52.434341,13.191749, Autobahnraststätte Grunewald West ,"{'Mon': '00:00-23:59', 'Tue': '00:00-23:59', 'Wed': '00:00-23:59', 'Thu': '00:00-23:59', 'Fri': '00:00-23:59', 'Sat': '00:00-23:59', 'Sun': '00:00-23:59'}",+49 30 803040,Berlin,52.434341-13.191749,Grunewald West ,https://www.raststaetten.de/standorte/grunewald-west/
Gruibingen Süd An der A8 73344 Gruibingen,Tank & Rast,Gruibingen,Germany,"{'brand': 'Tank & Rast', 'fascia': 'Motorway Service Station', 'category': 'Other', 'edit_date': '2025-05-04', 'lat_lon_source': 'Google'}",48.605956,9.632872, Autobahnraststätte Gruibingen Süd ,"{'Mon': '00:00-23:59', 'Tue': '00:00-23:59', 'Wed': '00:00-23:59', 'Thu': '00:00-23:59', 'Fri': '00:00-23:59', 'Sat': '00:00-23:59', 'Sun': '00:00-23:59'}",+49 7335 5015,Gruibingen,48.605956-9.632872,Gruibingen Süd ,https://www.raststaetten.de/standorte/gruibingen-sued/
Grenzau Süd An der A48 56203 Höhr-Grenzhausen,Tank & Rast,Höhr-Grenzhausen,Germany,"{'brand': 'Tank & Rast', 'fascia': 'Motorway Service Station', 'category': 'Other', 'edit_date': '2025-05-04', 'lat_lon_source': 'Google'}",50.438671,7.646913, Autobahnraststätte Grenzau Süd ,"{'Mon': '06:00 - 21:00', 'Tue': '06:00 - 21:00', 'Wed': '06:00 - 21:00', 'Thu': '06:00 - 21:00', 'Fri': '06:00 - 21:00', 'Sat': '06:00 - 21:00', 'Sun': '06:00 - 21:00'}",+49 175 8935117,Höhr-Grenzhausen,50.438671-7.646913,Grenzau Süd ,https://www.raststaetten.de/standorte/grenzau-sued/
Goldene Bremm Süd An der A6 66117 Saarbrücken,Tank & Rast,Saarbrücken,Germany,"{'brand': 'Tank & Rast', 'fascia': 'Motorway Service Station', 'category': 'Other', 'edit_date': '2025-05-04', 'lat_lon_source': 'Google'}",49.208552,6.967763, Autobahnraststätte Goldene Bremm Süd ,"{'Mon': '00:00-23:59', 'Tue': '00:00-23:59', 'Wed': '00:00-23:59', 'Thu': '00:00-23:59', 'Fri': '00:00-23:59', 'Sat': '00:00-23:59', 'Sun': '00:00-23:59'}",+49 681 51000,Saarbrücken,49.208552-6.967763,Goldene Bremm Süd ,https://www.raststaetten.de/standorte/goldene-bremm-sued/
Goldene Bremm Nord An der A6 66117 Saarbrücken,Tank & Rast,Saarbrücken,Germany,"{'brand': 'Tank & Rast', 'fascia': 'Motorway Service Station', 'category': 'Other', 'edit_date': '2025-05-04', 'lat_lon_source': 'Google'}",49.209265,6.966944, Autobahnraststätte Goldene Bremm Nord ,"{'Mon': '00:00-23:59', 'Tue': '00:00-23:59', 'Wed': '00:00-23:59', 'Thu': '00:00-23:59', 'Fri': '00:00-23:59', 'Sat': '00:00-23:59', 'Sun': '00:00-23:59'}",+49 681 9256678,Saarbrücken,49.209265-6.966944,Goldene Bremm Nord ,https://www.raststaetten.de/standorte/goldene-bremm-nord/
Frechen Nord An der A4 50226 Frechen,Tank & Rast,Frechen,Germany,"{'brand': 'Tank & Rast', 'fascia': 'Motorway Service Station', 'category': 'Other', 'edit_date': '2025-05-04', 'lat_lon_source': 'Google'}",50.929094,6.775288, Autobahnraststätte Frechen Nord ,"{'Mon': '00:00-23:59', 'Tue': '00:00-23:59', 'Wed': '00:00-23:59', 'Thu': '00:00-23:59', 'Fri': '00:00-23:59', 'Sat': '00:00-23:59', 'Sun': '00:00-23:59'}",+49 2234 63900 ,Frechen,50.929094-6.775288,Frechen Nord ,https://www.raststaetten.de/standorte/frechen-nord/
Garbsen Nord An der A2 30823 Garbsen,Tank & Rast,Garbsen,Germany,"{'brand': 'Tank & Rast', 'fascia': 'Motorway Service Station', 'category': 'Other', 'edit_date': '2025-05-04', 'lat_lon_source': 'Google'}",52.422227,9.557687, Autobahnraststätte Garbsen Nord ,"{'Mon': '00:00-23:59', 'Tue': '00:00-23:59', 'Wed': '00:00-23:59', 'Thu': '00:00-23:59', 'Fri': '00:00-23:59', 'Sat': '00:00-23:59', 'Sun': '00:00-23:59'}",+49 5137 909690,Garbsen,52.422227-9.557687,Garbsen Nord ,https://www.raststaetten.de/standorte/garbsen-nord/
Geismühle Ost An der A57 47809 Krefeld,Tank & Rast,Krefeld,Germany,"{'brand': 'Tank & Rast', 'fascia': 'Motorway Service Station', 'category': 'Other', 'edit_date': '2025-05-04', 'lat_lon_source': 'Google'}",51.310425,6.63478, Autobahnraststätte Geismühle Ost ,"{'Mon': '00:00-23:59', 'Tue': '00:00-23:59', 'Wed': '00:00-23:59', 'Thu': '00:00-23:59', 'Fri': '00:00-23:59', 'Sat': '00:00-23:59', 'Sun': '00:00-23:59'}",+49 2151 544940,Krefeld,51.310425-6.63478,Geismühle Ost ,https://www.raststaetten.de/standorte/geismuehle-ost/
Freienhufener Eck West An der A13 01994 Drochow,Tank & Rast,Drochow,Germany,"{'brand': 'Tank & Rast', 'fascia': 'Motorway Service Station', 'category': 'Other', 'edit_date': '2025-05-04', 'lat_lon_source': 'Google'}",51.568589,13.928012, Autobahnraststätte Freienhufener Eck West ,"{'Mon': '00:00-23:59', 'Tue': '00:00-23:59', 'Wed': '00:00-23:59', 'Thu': '00:00-23:59', 'Fri': '00:00-23:59', 'Sat': '00:00-23:59', 'Sun': '00:00-23:59'}",+49 35754 2097,Drochow,51.568589-13.928012,Freienhufener Eck West ,https://www.raststaetten.de/standorte/freienhufener-eck-west/
Freienhufener Eck Ost An der A13 01994 Meuro,Tank & Rast,Meuro,Germany,"{'brand': 'Tank & Rast', 'fascia': 'Motorway Service Station', 'category': 'Other', 'edit_date': '2025-05-04', 'lat_lon_source': 'Google'}",51.559183,13.921463, Autobahnraststätte Freienhufener Eck Ost ,"{'Mon': '06:00 - 22:00', 'Tue': '06:00 - 22:00', 'Wed': '06:00 - 22:00', 'Thu': '06:00 - 22:00', 'Fri': '06:00 - 22:00', 'Sat': '06:00 - 22:00', 'Sun': '06:00 - 22:00'}",+49 35754 2112,Meuro,51.559183-13.921463,Freienhufener Eck Ost ,https://www.raststaetten.de/standorte/freienhufener-eck-ost/
Frankenhöhe Süd An der A6 91589 Aurach,Tank & Rast,Aurach,Germany,"{'brand': 'Tank & Rast', 'fascia': 'Motorway Service Station', 'category': 'Other', 'edit_date': '2025-05-04', 'lat_lon_source': 'Google'}",49.241388,10.355098, Autobahnraststätte Frankenhöhe Süd ,"{'Mon': '00:00-23:59', 'Tue': '00:00-23:59', 'Wed': '00:00-23:59', 'Thu': '00:00-23:59', 'Fri': '00:00-23:59', 'Sat': '00:00-23:59', 'Sun': '00:00-23:59'}",+49 9804 919150,Aurach,49.241388-10.355098,Frankenhöhe Süd ,https://www.raststaetten.de/standorte/frankenhoehe-sued/
Fläming West An der A9 14823 Mühlenfließ-Grabow,Tank & Rast,Mühlenfließ-Grabow,Germany,"{'brand': 'Tank & Rast', 'fascia': 'Motorway Service Station', 'category': 'Other', 'edit_date': '2025-05-04', 'lat_lon_source': 'Google'}",52.132549,12.751164, Autobahnraststätte Fläming West ,"{'Mon': '00:00-23:59', 'Tue': '00:00-23:59', 'Wed': '00:00-23:59', 'Thu': '00:00-23:59', 'Fri': '00:00-23:59', 'Sat': '00:00-23:59', 'Sun': '00:00-23:59'}",+49 33843 63614,Mühlenfließ-Grabow,52.132549-12.751164,Fläming West ,https://www.raststaetten.de/standorte/flaeming-west/
Fläming Ost An der A9 14823 Mühlenfließ-Grabow,Tank & Rast,Mühlenfließ-Grabow,Germany,"{'brand': 'Tank & Rast', 'fascia': 'Motorway Service Station', 'category': 'Other', 'edit_date': '2025-05-04', 'lat_lon_source': 'Google'}",52.132662,12.753397, Autobahnraststätte Fläming Ost ,"{'Mon': '00:00-23:59', 'Tue': '00:00-23:59', 'Wed': '00:00-23:59', 'Thu': '00:00-23:59', 'Fri': '00:00-23:59', 'Sat': '00:00-23:59', 'Sun': '00:00-23:59'}",+49 33843 63634,Mühlenfließ-Grabow,52.132662-12.753397,Fläming Ost ,https://www.raststaetten.de/standorte/flaeming-ost/
Epgert An der A3 56593 Krunkel-Epgert,Tank & Rast,Krunkel-Epgert,Germany,"{'brand': 'Tank & Rast', 'fascia': 'Motorway Service Station', 'category': 'Other', 'edit_date': '2025-05-04', 'lat_lon_source': 'Google'}",50.581522,7.479243, Autobahnraststätte Epgert ,"{'Mon': '07:00 - 22:00', 'Tue': '07:00 - 22:00', 'Wed': '07:00 - 22:00', 'Thu': '07:00 - 22:00', 'Fri': '07:00 - 22:00', 'Sat': '07:00 - 22:00', 'Sun': '07:00 - 22:00'}",+49 2687 921110,Krunkel-Epgert,50.581522-7.479243,Epgert ,https://www.raststaetten.de/standorte/epgert/
Ellund West An der A7 24983 Ellund,Tank & Rast,Ellund,Germany,"{'brand': 'Tank & Rast', 'fascia': 'Motorway Service Station', 'category': 'Other', 'edit_date': '2025-05-04', 'lat_lon_source': 'Google'}",54.804014,9.328616, Autobahnraststätte Ellund West ,"{'Mon': '00:00-23:59', 'Tue': '00:00-23:59', 'Wed': '00:00-23:59', 'Thu': '00:00-23:59', 'Fri': '00:00-23:59', 'Sat': '00:00-23:59', 'Sun': '00:00-23:59'}",+49 4608 456,Ellund,54.804014-9.328616,Ellund West ,https://www.raststaetten.de/standorte/ellund-west/
"Buckowsee West An der A11 16244 Schorfheide, OT Werbellin",Tank & Rast,"Schorfheide,",Germany,"{'brand': 'Tank & Rast', 'fascia': 'Motorway Service Station', 'category': 'Other', 'edit_date': '2025-05-04', 'lat_lon_source': 'Google'}",52.883086,13.702049, Autobahnraststätte Buckowsee West ,"{'Mon': '00:00-23:59', 'Tue': '00:00-23:59', 'Wed': '00:00-23:59', 'Thu': '00:00-23:59', 'Fri': '00:00-23:59', 'Sat': '00:00-23:59', 'Sun': '00:00-23:59'}",+49 33363 46210,"Schorfheide,",52.883086-13.702049,Buckowsee West ,https://www.raststaetten.de/standorte/buckowsee-west/
Börde Süd An der A2 39343 Groß Santersleben,Tank & Rast,Groß,Germany,"{'brand': 'Tank & Rast', 'fascia': 'Motorway Service Station', 'category': 'Other', 'edit_date': '2025-05-04', 'lat_lon_source': 'Google'}",52.1840432,11.4507068, Autobahnraststätte Börde Süd ,"{'Mon': '00:00-23:59', 'Tue': '00:00-23:59', 'Wed': '00:00-23:59', 'Thu': '00:00-23:59', 'Fri': '00:00-23:59', 'Sat': '00:00-23:59', 'Sun': '00:00-23:59'}",+49 39206 55158,Groß,52.1840432-11.4507068,Börde Süd ,https://www.raststaetten.de/standorte/boerde-sued/
Ellwanger Berge Ost An der A7 73479 Ellwangen,Tank & Rast,Ellwangen,Germany,"{'brand': 'Tank & Rast', 'fascia': 'Motorway Service Station', 'category': 'Other', 'edit_date': '2025-05-04', 'lat_lon_source': 'Google'}",48.983663,10.195741, Autobahnraststätte Ellwanger Berge Ost ,"{'Mon': '00:00-23:59', 'Tue': '00:00-23:59', 'Wed': '00:00-23:59', 'Thu': '00:00-23:59', 'Fri': '00:00-23:59', 'Sat': '00:00-23:59', 'Sun': '00:00-23:59'}",+49 7961 5657082,Ellwangen,48.983663-10.195741,Ellwanger Berge Ost ,https://www.raststaetten.de/standorte/ellwanger-berge-ost/
Börde Nord An der A2 39343 Groß Santersleben,Tank & Rast,Groß,Germany,"{'brand': 'Tank & Rast', 'fascia': 'Motorway Service Station', 'category': 'Other', 'edit_date': '2025-05-04', 'lat_lon_source': 'Google'}",52.186,11.451, Autobahnraststätte Börde Nord ,"{'Mon': '00:00-23:59', 'Tue': '00:00-23:59', 'Wed': '00:00-23:59', 'Thu': '00:00-23:59', 'Fri': '00:00-23:59', 'Sat': '00:00-23:59', 'Sun': '00:00-23:59'}",+49 39206 55320,Groß,52.186-11.451,Börde Nord ,https://www.raststaetten.de/standorte/boerde-nord/
Buckowsee Ost An der A11 16244 Schorfheide OT Werbellin,Tank & Rast,Schorfheide,Germany,"{'brand': 'Tank & Rast', 'fascia': 'Motorway Service Station', 'category': 'Other', 'edit_date': '2025-05-04', 'lat_lon_source': 'Google'}",52.883369,13.704344, Autobahnraststätte Buckowsee Ost ,"{'Mon': '00:00-23:59', 'Tue': '00:00-23:59', 'Wed': '00:00-23:59', 'Thu': '00:00-23:59', 'Fri': '00:00-23:59', 'Sat': '00:00-23:59', 'Sun': '00:00-23:59'}",+49 33363 46204,Schorfheide,52.883369-13.704344,Buckowsee Ost ,https://www.raststaetten.de/standorte/buckowsee-ost/
Buckautal Nord An der A2 14793 Ziesar,Tank & Rast,Ziesar,Germany,"{'brand': 'Tank & Rast', 'fascia': 'Motorway Service Station', 'category': 'Other', 'edit_date': '2025-05-04', 'lat_lon_source': 'Google'}",52.252078,12.307421, Autobahnraststätte Buckautal Nord ,"{'Mon': '00:00-23:59', 'Tue': '00:00-23:59', 'Wed': '00:00-23:59', 'Thu': '00:00-23:59', 'Fri': '00:00-23:59', 'Sat': '00:00-23:59', 'Sun': '00:00-23:59'}",+49 33830 12667,Ziesar,52.252078-12.307421,Buckautal Nord ,https://www.raststaetten.de/standorte/buckautal-nord/
Biegener Hellen Nord An der A12 15236 Jacobsdorf,Tank & Rast,Jacobsdorf,Germany,"{'brand': 'Tank & Rast', 'fascia': 'Motorway Service Station', 'category': 'Other', 'edit_date': '2025-05-04', 'lat_lon_source': 'Google'}",52.321214,14.389105, Autobahnraststätte Biegener Hellen Nord ,"{'Mon': '06:00 - 22:00', 'Tue': '06:00 - 22:00', 'Wed': '06:00 - 22:00', 'Thu': '06:00 - 22:00', 'Fri': '06:00 - 22:00', 'Sat': '06:00 - 22:00', 'Sun': '06:00 - 22:00'}",+49 33608 49621,Jacobsdorf,52.321214-14.389105,Biegener Hellen Nord ,https://www.raststaetten.de/standorte/biegener-hellen-nord/
Buckautal Süd An der A2 14793 Ziesar,Tank & Rast,Ziesar,Germany,"{'brand': 'Tank & Rast', 'fascia': 'Motorway Service Station', 'category': 'Other', 'edit_date': '2025-05-04', 'lat_lon_source': 'Google'}",52.250214,12.306883, Autobahnraststätte Buckautal Süd ,"{'Mon': '00:00-23:59', 'Tue': '00:00-23:59', 'Wed': '00:00-23:59', 'Thu': '00:00-23:59', 'Fri': '00:00-23:59', 'Sat': '00:00-23:59', 'Sun': '00:00-23:59'}",+49 33830 62334,Ziesar,52.250214-12.306883,Buckautal Süd ,https://www.raststaetten.de/standorte/buckautal-sued/
Breisgau Ost An der A5 79227 Schallstadt,Tank & Rast,Schallstadt,Germany,"{'brand': 'Tank & Rast', 'fascia': 'Motorway Service Station', 'category': 'Other', 'edit_date': '2025-05-04', 'lat_lon_source': 'Google'}",47.970762,7.721949, Autobahnraststätte Breisgau Ost ,"{'Mon': '00:00-23:59', 'Tue': '00:00-23:59', 'Wed': '00:00-23:59', 'Thu': '00:00-23:59', 'Fri': '00:00-23:59', 'Sat': '00:00-23:59', 'Sun': '00:00-23:59'}",+49 7664 4036330,Schallstadt,47.970762-7.721949,Breisgau Ost ,https://www.raststaetten.de/standorte/breisgau-ost/
Bruchsal West An der A5 76694 Forst,Tank & Rast,Forst,Germany,"{'brand': 'Tank & Rast', 'fascia': 'Motorway Service Station', 'category': 'Other', 'edit_date': '2025-05-04', 'lat_lon_source': 'Google'}",49.162062,8.567777, Autobahnraststätte Bruchsal West ,"{'Mon': '00:00-23:59', 'Tue': '00:00-23:59', 'Wed': '00:00-23:59', 'Thu': '00:00-23:59', 'Fri': '00:00-23:59', 'Sat': '00:00-23:59', 'Sun': '00:00-23:59'}",+49 7251 7180,Forst,49.162062-8.567777,Bruchsal West ,https://www.raststaetten.de/standorte/bruchsal-west/
Bergstraße Ost An der A5 64625 Bensheim,Tank & Rast,Bensheim,Germany,"{'brand': 'Tank & Rast', 'fascia': 'Motorway Service Station', 'category': 'Other', 'edit_date': '2025-05-04', 'lat_lon_source': 'Google'}",49.69,8.603, Autobahnraststätte Bergstraße Ost ,"{'Mon': '00:00-23:59', 'Tue': '00:00-23:59', 'Wed': '00:00-23:59', 'Thu': '00:00-23:59', 'Fri': '00:00-23:59', 'Sat': '00:00-23:59', 'Sun': '00:00-23:59'}",+49 6251 38946,Bensheim,49.69-8.603,Bergstraße Ost ,https://www.raststaetten.de/standorte/bergstrasse-ost/
Bad Reichenhall Süd An der A8 83451 Piding,Tank & Rast,Piding,Germany,"{'brand': 'Tank & Rast', 'fascia': 'Motorway Service Station', 'category': 'Other', 'edit_date': '2025-05-04', 'lat_lon_source': 'Google'}",47.766787,12.902886, Autobahnraststätte Bad Reichenhall Süd ,"{'Mon': '00:00-23:59', 'Tue': '00:00-23:59', 'Wed': '00:00-23:59', 'Thu': '00:00-23:59', 'Fri': '00:00-23:59', 'Sat': '00:00-23:59', 'Sun': '00:00-23:59'}",+49 8651 2750,Piding,47.766787-12.902886,Bad Reichenhall Süd ,https://www.raststaetten.de/standorte/bad-reichenhall-sued/
Am Hockenheimring West An der A6 68766 Hockenheim,Tank & Rast,Hockenheim,Germany,"{'brand': 'Tank & Rast', 'fascia': 'Motorway Service Station', 'category': 'Other', 'edit_date': '2025-05-04', 'lat_lon_source': 'Google'}",49.320493,8.568246, Autobahnraststätte Am Hockenheimring West ,"{'Mon': '00:00-23:59', 'Tue': '00:00-23:59', 'Wed': '00:00-23:59', 'Thu': '00:00-23:59', 'Fri': '00:00-23:59', 'Sat': '00:00-23:59', 'Sun': '00:00-23:59'}",+49 6205 292030,Hockenheim,49.320493-8.568246,Am Hockenheimring West ,https://www.raststaetten.de/standorte/am-hockenheimring-west/
Auerswalder Blick Nord An der A4 09244 Lichtenau,Tank & Rast,Lichtenau,Germany,"{'brand': 'Tank & Rast', 'fascia': 'Motorway Service Station', 'category': 'Other', 'edit_date': '2025-05-04', 'lat_lon_source': 'Google'}",50.892978,12.938842, Autobahnraststätte Auerswalder Blick Nord ,"{'Mon': '00:00-23:59', 'Tue': '00:00-23:59', 'Wed': '00:00-23:59', 'Thu': '00:00-23:59', 'Fri': '00:00-23:59', 'Sat': '00:00-23:59', 'Sun': '00:00-23:59'}",+49 151 59971343,Lichtenau,50.892978-12.938842,Auerswalder Blick Nord ,https://www.raststaetten.de/standorte/auerswalder-blick-nord/
Am Fichtenplan Nord An der A10 15749 Brusendorf,Tank & Rast,Brusendorf,Germany,"{'brand': 'Tank & Rast', 'fascia': 'Motorway Service Station', 'category': 'Other', 'edit_date': '2025-05-04', 'lat_lon_source': 'Google'}",52.3183442,13.4957982, Autobahnraststätte Am Fichtenplan Nord ,"{'Mon': '06:00 - 22:00', 'Tue': '06:00 - 22:00', 'Wed': '06:00 - 22:00', 'Thu': '06:00 - 22:00', 'Fri': '06:00 - 22:00', 'Sat': '06:00 - 22:00', 'Sun': '06:00 - 22:00'}",+49 33764 244244,Brusendorf,52.3183442-13.4957982,Am Fichtenplan Nord ,https://www.raststaetten.de/standorte/am-fichtenplan-nord/
Am Fichtenplan Süd An der A10 15749 Brusendorf,Tank & Rast,Brusendorf,Germany,"{'brand': 'Tank & Rast', 'fascia': 'Motorway Service Station', 'category': 'Other', 'edit_date': '2025-05-04', 'lat_lon_source': 'Google'}",52.316286,13.494771, Autobahnraststätte Am Fichtenplan Süd ,"{'Mon': '00:00-23:59', 'Tue': '00:00-23:59', 'Wed': '00:00-23:59', 'Thu': '00:00-23:59', 'Fri': '00:00-23:59', 'Sat': '00:00-23:59', 'Sun': '00:00-23:59'}",,Brusendorf,52.316286-13.494771,Am Fichtenplan Süd ,https://www.raststaetten.de/standorte/am-fichtenplan-sued/
Auerswalder Blick Süd An der A4 09244 Lichtenau,Tank & Rast,Lichtenau,Germany,"{'brand': 'Tank & Rast', 'fascia': 'Motorway Service Station', 'category': 'Other', 'edit_date': '2025-05-04', 'lat_lon_source': 'Google'}",50.894139,12.946361, Autobahnraststätte Auerswalder Blick Süd ,"{'Mon': '00:00-23:59', 'Tue': '00:00-23:59', 'Wed': '00:00-23:59', 'Thu': '00:00-23:59', 'Fri': '00:00-23:59', 'Sat': '00:00-23:59', 'Sun': '00:00-23:59'}",+49 37208 83523,Lichtenau,50.894139-12.946361,Auerswalder Blick Süd ,https://www.raststaetten.de/standorte/auerswalder-blick-sued/
Allgäuer Tor West An der A7 87463 Dietmannsried,Tank & Rast,Dietmannsried,Germany,"{'brand': 'Tank & Rast', 'fascia': 'Motorway Service Station', 'category': 'Other', 'edit_date': '2025-05-04', 'lat_lon_source': 'Google'}",47.84951,10.280821, Autobahnraststätte Allgäuer Tor West ,"{'Mon': '00:00-23:59', 'Tue': '00:00-23:59', 'Wed': '00:00-23:59', 'Thu': '00:00-23:59', 'Fri': '00:00-23:59', 'Sat': '00:00-23:59', 'Sun': '00:00-23:59'}",+49 8374 240660,Dietmannsried,47.84951-10.280821,Allgäuer Tor West ,https://www.raststaetten.de/standorte/allgaeuer-tor-west/
Avus An der A115 14055 Berlin,Tank & Rast,Berlin,Germany,"{'brand': 'Tank & Rast', 'fascia': 'Motorway Service Station', 'category': 'Other', 'edit_date': '2025-05-04', 'lat_lon_source': 'Google'}",52.501357,13.27712, Autobahnraststätte Avus ,"{'Mon': '00:00-23:59', 'Tue': '00:00-23:59', 'Wed': '00:00-23:59', 'Thu': '00:00-23:59', 'Fri': '00:00-23:59', 'Sat': '00:00-23:59', 'Sun': '00:00-23:59'}",+49 30 3010570,Berlin,52.501357-13.27712,Avus ,https://www.raststaetten.de/standorte/avus/
Biegener Hellen Süd An der A12 15236 Jacobsdorf OT Pillgram,Tank & Rast,Jacobsdorf,Germany,"{'brand': 'Tank & Rast', 'fascia': 'Motorway Service Station', 'category': 'Other', 'edit_date': '2025-05-04', 'lat_lon_source': 'Google'}",52.320393,14.383616, Autobahnraststätte Biegener Hellen Süd ,"{'Mon': '00:00-23:59', 'Tue': '00:00-23:59', 'Wed': '00:00-23:59', 'Thu': '00:00-23:59', 'Fri': '00:00-23:59', 'Sat': '00:00-23:59', 'Sun': '00:00-23:59'}",+49 33608 81680,Jacobsdorf,52.320393-14.383616,Biegener Hellen Süd ,https://www.raststaetten.de/standorte/biegener-hellen-sued/
