addr_full,brand,city,country,extras,lat,lon,name,opening_hours,phone,postcode,ref,state,website
37 Avenue de la Marne,Otacos,Asnières,France,"{'brand': 'otacos', 'fascia': 'otacos', 'category': 'Restaurant', 'edit_date': '2025-03-19', 'lat_lon_source': 'website'}",48.911514000000000000,2.286423000000000000,Asnières,"{'opening_hours': {'Lun': '11:00 - 23:00', 'Mar': '10:30 - 23:00', 'Mer': '11:00 - 23:00', 'Jeu': '11:00 - 23:00', 'Ven': '11:00 - 23:00', 'Sam': '11:00 - 23:00', 'Dim': '11:00 - 23:00'}}",,92600,,,https://o-tacos.com/nos-restos
2 rue du pere Andre Jarlan,Otacos,EVRY,France,"{'brand': 'otacos', 'fascia': 'otacos', 'category': 'Restaurant', 'edit_date': '2025-03-19', 'lat_lon_source': 'website'}",48.624539700000000000,2.426622900000000000,EVRY,"{'opening_hours': {'Lun': '12:00 - 21:45', 'Mar': '12:00 - 21:45', 'Mer': '12:00 - 21:45', 'Jeu': '12:00 - 21:45', 'Ven': '12:00 - 22:00', 'Sam': '12:00 - 22:00', 'Dim': '12:00 - 21:45'}}",,91000,,,https://o-tacos.com/nos-restos
6 Plan de Campagne Chemin départemental,Otacos,Cabries,France,"{'brand': 'otacos', 'fascia': 'otacos', 'category': 'Restaurant', 'edit_date': '2025-03-19', 'lat_lon_source': 'website'}",43.420517000000000000,5.365581000000000000,CABRIES PLAN DE CAMPAGNE,"{'opening_hours': {'Lun': '11:00 - 22:00', 'Mar': '11:00 - 22:00', 'Mer': '11:00 - 22:00', 'Jeu': '11:00 - 22:00', 'Ven': '11:00 - 22:00', 'Sam': '11:00 - 22:30', 'Dim': '11:00 - 22:00'}}",,13480,,,https://o-tacos.com/nos-restos
27 rue de Bordeaux,Otacos,Tours,France,"{'brand': 'otacos', 'fascia': 'otacos', 'category': 'Restaurant', 'edit_date': '2025-03-19', 'lat_lon_source': 'website'}",47.389481000000000000,0.691700800000000000,TOURS RUE DE BORDEAUX,"{'opening_hours': {'Lun': '11:00 - 23:00', 'Mar': '11:00 - 23:00', 'Mer': '11:00 - 23:00', 'Jeu': '11:00 - 23:00', 'Ven': '11:00 - 23:30', 'Sam': '12:00 - 23:00', 'Dim': '12:00 - 23:00'}}",,37000,,,https://o-tacos.com/nos-restos
46 rue du Général de Gaulle,Otacos,Armentieres,France,"{'brand': 'otacos', 'fascia': 'otacos', 'category': 'Restaurant', 'edit_date': '2025-03-19', 'lat_lon_source': 'website'}",50.685557000000000000,2.881325000000000000,ARMENTIERES DE GAULLE,"{'opening_hours': {'Lun': 'Fermé ', 'Mar': '11:00 - 22:30', 'Mer': '11:00 - 23:00', 'Jeu': '11:00 - 23:00', 'Ven': '11:00 - 00:00', 'Sam': '11:00 - 00:00', 'Dim': '11:30 - 23:00'}}",,59280,,,https://o-tacos.com/nos-restos
2 Avenue de l'Aubrac,Otacos,LES,France,"{'brand': 'otacos', 'fascia': 'otacos', 'category': 'Restaurant', 'edit_date': '2025-03-19', 'lat_lon_source': 'website'}",48.676939300000000000,2.172566500000000000,LES ULIS CC LES ULIS,"{'opening_hours': {'Lun': 'Fermé ', 'Mar': '10:00 - 22:00', 'Mer': '10:00 - 22:00', 'Jeu': '10:00 - 22:00', 'Ven': '10:00 - 22:30', 'Sam': '10:00 - 22:30', 'Dim': '10:00 - 22:00'}}",,91440,,,https://o-tacos.com/nos-restos
27 Rue de Maguelone,Otacos,Montpellier,France,"{'brand': 'otacos', 'fascia': 'otacos', 'category': 'Restaurant', 'edit_date': '2025-03-19', 'lat_lon_source': 'website'}",43.605524500000000000,3.880465300000000000,MONTPELLIER MAGUELONE,"{'opening_hours': {'Lun': '10:00 - 22:30', 'Mar': '10:00 - 22:30', 'Mer': '10:00 - 22:30', 'Jeu': '10:00 - 22:30', 'Ven': '10:00 - 22:30', 'Sam': '10:00 - 22:30', 'Dim': '10:00 - 22:30'}}",,34000,,,https://o-tacos.com/nos-restos
3 RUE JULES MIGONNEY,Otacos,BOURG,France,"{'brand': 'otacos', 'fascia': 'otacos', 'category': 'Restaurant', 'edit_date': '2025-03-19', 'lat_lon_source': 'website'}",46.203351200000000000,5.226534200000000000,BOURG EN BRESSE MIGONNEY,"{'opening_hours': {'Lun': '10:45 - 21:45', 'Mar': '10:45 - 21:45', 'Mer': '10:45 - 21:45', 'Jeu': '10:45 - 21:45', 'Ven': '10:45 - 21:45', 'Sam': '11:15 - 21:45', 'Dim': '11:15 - 21:45'}}",,1000,,,https://o-tacos.com/nos-restos
10 Rue du Kestlerhof,Otacos,HAGUENAU,France,"{'brand': 'otacos', 'fascia': 'otacos', 'category': 'Restaurant', 'edit_date': '2025-03-19', 'lat_lon_source': 'website'}",48.805834800000000000,7.830846300000000000,HAGUENAU TAUBENHOF II,"{'opening_hours': {'Lun': '11:00 - 23:00', 'Mar': '11:00 - 23:00', 'Mer': '11:00 - 23:00', 'Jeu': '11:00 - 23:00', 'Ven': '11:00 - 23:00', 'Sam': '11:00 - 23:00', 'Dim': '11:00 - 23:00'}}",,67500,,,https://o-tacos.com/nos-restos
34 AVENUE GAMBETTA,Otacos,Paris,France,"{'brand': 'otacos', 'fascia': 'otacos', 'category': 'Restaurant', 'edit_date': '2025-03-19', 'lat_lon_source': 'website'}",48.864807600000000000,2.396870300000000000,PARIS GAMBETTA,"{'opening_hours': {'Lun': 'Fermé ', 'Mar': '11:30 - 23:00', 'Mer': '11:30 - 23:00', 'Jeu': '11:30 - 23:00', 'Ven': '11:30 - 00:00', 'Sam': '11:30 - 00:00', 'Dim': '11:30 - 23:00'}}",,75020,,,https://o-tacos.com/nos-restos
7 rue Elie gintrac,Otacos,BORDEAUX,France,"{'brand': 'otacos', 'fascia': 'otacos', 'category': 'Restaurant', 'edit_date': '2025-03-19', 'lat_lon_source': 'website'}",44.830877100000000000,-0.571462400000000000,BORDEAUX VICTOIRE,"{'opening_hours': {'T. ': '. 0033986619377', 'Lun': '11:30 - 23:45', 'Mar': '11:00 - 23:45', 'Mer': '11:00 - 00:00', 'Jeu': '11:00 - 00:00', 'Ven': '11:30 - 00:00', 'Sam': '11:00 - 00:00', 'Dim': '11:00 - 00:00'}}",,33000,,,https://o-tacos.com/nos-restos
52 Rue Arthur Chevalier,Otacos,AULNAY,France,"{'brand': 'otacos', 'fascia': 'otacos', 'category': 'Restaurant', 'edit_date': '2025-03-19', 'lat_lon_source': 'website'}",48.927866300000000000,2.508131600000000000,AULNAY SOUS BOIS CHANTELOUP,"{'opening_hours': {'Lun': '11:30 - 22:50', 'Mar': '09:30 - 22:50', 'Mer': '11:30 - 22:50', 'Jeu': '11:30 - 22:50', 'Ven': '11:30 - 23:45', 'Sam': '11:30 - 23:45', 'Dim': '12:00 - 22:50'}}",,93600,,,https://o-tacos.com/nos-restos
161 rue Pierre Legrand,Otacos,LILLE,France,"{'brand': 'otacos', 'fascia': 'otacos', 'category': 'Restaurant', 'edit_date': '2025-03-19', 'lat_lon_source': 'website'}",50.632605400000000000,3.092076100000000000,LILLE FIVES,"{'opening_hours': {'Lun': '19:00 - 23:45', 'Mar': '19:00 - 23:45', 'Mer': '19:00 - 23:45', 'Jeu': '11:30 - 23:20', 'Ven': '19:00 - 23:45', 'Sam': '19:00 - 23:45', 'Dim': '19:00 - 23:45'}}",,59350,,,https://o-tacos.com/nos-restos
234 Boulevard du Mont d'Est,Otacos,NOISY,France,"{'brand': 'otacos', 'fascia': 'otacos', 'category': 'Restaurant', 'edit_date': '2025-03-19', 'lat_lon_source': 'website'}",48.839880900000000000,2.548183900000000000,NOISY LE GRAND LES ARCADES,"{'opening_hours': {'Lun': '11:30 - 23:00', 'Mar': '11:30 - 23:00', 'Mer': '11:30 - 23:00', 'Jeu': '11:30 - 23:00', 'Ven': '11:30 - 23:00', 'Sam': '11:30 - 23:00', 'Dim': '11:30 - 23:00'}}",,93160,,,https://o-tacos.com/nos-restos
10 Avenue Lenine,Otacos,PIERREFITTE,France,"{'brand': 'otacos', 'fascia': 'otacos', 'category': 'Restaurant', 'edit_date': '2025-03-19', 'lat_lon_source': 'website'}",48.962198000000000000,2.358846000000000000,PIERREFITTE SUR SEINE LENINE,"{'opening_hours': {'Lun': '11:00 - 23:00', 'Mar': '11:00 - 01:45', 'Mer': ' Fermé', 'Jeu': '11:00 - 23:00', 'Ven': 'Fermé', 'Sam': '11:00 - 01:45', 'Dim': '11:00 - 01:45'}}",,93380,,,https://o-tacos.com/nos-restos
127 Avenue de la Republique,Otacos,EPINAY,France,"{'brand': 'otacos', 'fascia': 'otacos', 'category': 'Restaurant', 'edit_date': '2025-03-19', 'lat_lon_source': 'website'}",48.950612200000000000,2.326441300000000000,EPINAY SUR SEINE REPUBLIQUE,"{'opening_hours': {'Lun': 'Fermé ', 'Mar': 'Fermé', 'Mer': ' Fermé', 'Jeu': 'Fermé', 'Ven': 'Fermé', 'Sam': 'Fermé', 'Dim': 'Fermé'}}",,93800,,,https://o-tacos.com/nos-restos
83 rue de paris,Otacos,CLICHY,France,"{'brand': 'otacos', 'fascia': 'otacos', 'category': 'Restaurant', 'edit_date': '2025-03-19', 'lat_lon_source': 'website'}",48.900787400000000000,2.303806500000000000,CLICHY LA GARENNE RUE DE PARIS,"{'opening_hours': {'Lun': 'Fermé ', 'Mar': 'Fermé', 'Mer': ' Fermé', 'Jeu': 'Fermé', 'Ven': 'Fermé', 'Sam': 'Fermé', 'Dim': 'Fermé'}}",,92110,,,https://o-tacos.com/nos-restos
61 Avenue Gabriel Peri,Otacos,SAINT,France,"{'brand': 'otacos', 'fascia': 'otacos', 'category': 'Restaurant', 'edit_date': '2025-03-19', 'lat_lon_source': 'website'}",48.907228000000000000,2.332485100000000000,SAINT OUEN GABRIEL PERI,"{'opening_hours': {'Lun': 'Fermé ', 'Mar': 'Fermé', 'Mer': ' Fermé', 'Jeu': 'Fermé', 'Ven': 'Fermé', 'Sam': 'Fermé', 'Dim': 'Fermé'}}",,93400,,,https://o-tacos.com/nos-restos
6 rue Francois Couperin,Otacos,VOISINS,France,"{'brand': 'otacos', 'fascia': 'otacos', 'category': 'Restaurant', 'edit_date': '2025-03-19', 'lat_lon_source': 'website'}",48.755188000000000000,2.060695600000000000,VOISINS LE BRETONNEUX COUPERIN,"{'opening_hours': {'Lun': 'Fermé ', 'Mar': 'Fermé', 'Mer': ' Fermé', 'Jeu': 'Fermé', 'Ven': 'Fermé', 'Sam': 'Fermé', 'Dim': 'Fermé'}}",,78960,,,https://o-tacos.com/nos-restos
12 rue du Faubourg Saint Nicolas,Otacos,MEAUX,France,"{'brand': 'otacos', 'fascia': 'otacos', 'category': 'Restaurant', 'edit_date': '2025-03-19', 'lat_lon_source': 'website'}",48.958504900000000000,2.885366200000000000,MEAUX SAINT NICOLAS,"{'opening_hours': {'Lun': '11:00 - 23:00', 'Mar': '11:00 - 23:00', 'Mer': '11:00 - 23:00', 'Jeu': '11:00 - 23:00', 'Ven': '11:00 - 23:00', 'Sam': '11:00 - 23:00', 'Dim': '11:30 - 23:00'}}",,77100,,,https://o-tacos.com/nos-restos
6 boulevard Louis Salvador,Otacos,MARSEILLE,France,"{'brand': 'otacos', 'fascia': 'otacos', 'category': 'Restaurant', 'edit_date': '2025-03-19', 'lat_lon_source': 'website'}",43.290758700000000000,5.381395900000000000,MARSEILLE PREFECTURE,"{'opening_hours': {'Lun': '18:30 - 01:00', 'Mar': '18:30 - 01:00', 'Mer': '18:30 - 01:00', 'Jeu': '18:30 - 01:00', 'Ven': '18:30 - 01:00', 'Sam': '18:30 - 01:00', 'Dim': '18:30 - 01:00'}}",,13006,,,https://o-tacos.com/nos-restos
63 avenue Edouard vaillant,Otacos,PANTIN,France,"{'brand': 'otacos', 'fascia': 'otacos', 'category': 'Restaurant', 'edit_date': '2025-03-19', 'lat_lon_source': 'website'}",48.901345600000000000,2.394016200000000000,PANTIN EDOUARD VAILLANT,"{'opening_hours': {'Lun': 'Fermé ', 'Mar': 'Fermé', 'Mer': '09:00 - 23:00', 'Jeu': 'Fermé', 'Ven': 'Fermé', 'Sam': 'Fermé', 'Dim': 'Fermé'}}",,93500,,,https://o-tacos.com/nos-restos
19 avenue anatole France,Otacos,AULNAY,France,"{'brand': 'otacos', 'fascia': 'otacos', 'category': 'Restaurant', 'edit_date': '2025-03-19', 'lat_lon_source': 'website'}",48.933735400000000000,2.493544700000000000,AULNAY SOUS BOIS GARE,"{'opening_hours': {'Lun': 'Fermé ', 'Mar': 'Fermé', 'Mer': ' Fermé', 'Jeu': 'Fermé', 'Ven': 'Fermé', 'Sam': 'Fermé', 'Dim': 'Fermé'}}",,93600,,,https://o-tacos.com/nos-restos
42 Grande Rue,Otacos,ROUBAIX,France,"{'brand': 'otacos', 'fascia': 'otacos', 'category': 'Restaurant', 'edit_date': '2025-03-19', 'lat_lon_source': 'website'}",50.692108600000000000,3.177122200000000000,ROUBAIX GRANDE RUE,"{'opening_hours': {'Lun': '19:00 - 23:30', 'Mar': '19:00 - 23:30', 'Mer': '19:00 - 23:30', 'Jeu': '11:30 - 23:15', 'Ven': '19:00 - 23:30', 'Sam': '19:00 - 23:30', 'Dim': '19:00 - 23:30'}}",,59100,,,https://o-tacos.com/nos-restos
255 avenue de la Marne,Otacos,MERIGNAC,France,"{'brand': 'otacos', 'fascia': 'otacos', 'category': 'Restaurant', 'edit_date': '2025-03-19', 'lat_lon_source': 'website'}",44.832869800000000000,-0.646667900000000000,O'Tacos MERIGNAC MARNE,"{'opening_hours': {'Lun': '11:30 - 22:00', 'Mar': '11:30 - 22:00', 'Mer': '11:30 - 22:00', 'Jeu': '11:30 - 22:00', 'Ven': '18:00 - 22:00', 'Sam': '11:30 - 22:00', 'Dim': '18:00 - 22:00'}}",,33700,,,https://o-tacos.com/nos-restos
1 rue de la Gare,Otacos,NOISY,France,"{'brand': 'otacos', 'fascia': 'otacos', 'category': 'Restaurant', 'edit_date': '2025-03-19', 'lat_lon_source': 'website'}",48.896129700000000000,2.459891100000000000,NOISY LE SEC GARE,"{'opening_hours': {'Lun': '11:00 - 23:30', 'Mar': '11:00 - 23:30', 'Mer': '11:00 - 23:30', 'Jeu': '11:00 - 23:30', 'Ven': '11:00 - 00:00', 'Sam': '11:00 - 00:00', 'Dim': '11:00 - 23:30'}}",,93130,,,https://o-tacos.com/nos-restos
33 rue careme prenant,Otacos,ARGENTEUIL,France,"{'brand': 'otacos', 'fascia': 'otacos', 'category': 'Restaurant', 'edit_date': '2025-03-19', 'lat_lon_source': 'website'}",48.945118800000000000,2.253285800000000000,ARGENTEUIL PRENANT,"{'opening_hours': {'Lun': 'Fermé ', 'Mar': 'Fermé', 'Mer': ' Fermé', 'Jeu': 'Fermé', 'Ven': 'Fermé', 'Sam': 'Fermé', 'Dim': 'Fermé'}}",,95100,,,https://o-tacos.com/nos-restos
23 rue de la Roquette,Otacos,PARIS,France,"{'brand': 'otacos', 'fascia': 'otacos', 'category': 'Restaurant', 'edit_date': '2025-03-19', 'lat_lon_source': 'website'}",48.854752900000000000,2.372313500000000000,PARIS BASTILLE,"{'opening_hours': {'Lun': '11:00 - 00:00', 'Mar': '11:00 - 00:00', 'Mer': '11:00 - 00:00', 'Jeu': '11:00 - 00:00', 'Ven': '11:00 - 01:00', 'Sam': '11:00 - 01:00', 'Dim': '11:00 - 00:00'}}",,75011,,,https://o-tacos.com/nos-restos
52 Avenue Mazarin,Otacos,CHILLY,France,"{'brand': 'otacos', 'fascia': 'otacos', 'category': 'Restaurant', 'edit_date': '2025-03-19', 'lat_lon_source': 'website'}",48.707052200000000000,2.312331700000000000,CHILLY MAZARIN AVENUE MAZARIN,"{'opening_hours': {'Lun': '11:30 - 23:00', 'Mar': '11:30 - 23:00', 'Mer': '11:30 - 23:00', 'Jeu': '11:30 - 23:00', 'Ven': '11:30 - 23:00', 'Sam': '11:30 - 23:00', 'Dim': '11:30 - 23:00'}}",,91380,,,https://o-tacos.com/nos-restos
34 galerie Rouget de L'isle,Otacos,CHOISY,France,"{'brand': 'otacos', 'fascia': 'otacos', 'category': 'Restaurant', 'edit_date': '2025-03-19', 'lat_lon_source': 'website'}",48.764371000000000000,2.406691000000000000,CHOISY LE ROI ROUGET,"{'opening_hours': {'Lun': '11:00 - 22:30', 'Mar': '11:00 - 22:30', 'Mer': '11:00 - 22:30', 'Jeu': '11:00 - 22:30', 'Ven': '11:00 - 22:30', 'Sam': '11:00 - 22:30', 'Dim': '11:00 - 22:30'}}",,94600,,,https://o-tacos.com/nos-restos
5 Rue des Innocents,Otacos,PARIS,France,"{'brand': 'otacos', 'fascia': 'otacos', 'category': 'Restaurant', 'edit_date': '2025-03-19', 'lat_lon_source': 'website'}",48.860374700000000000,2.347855100000000000,PARIS CHATELET,"{'opening_hours': {'Lun': 'Fermé ', 'Mar': 'Fermé', 'Mer': ' Fermé', 'Jeu': 'Fermé', 'Ven': 'Fermé', 'Sam': 'Fermé', 'Dim': 'Fermé'}}",,75001,,,https://o-tacos.com/nos-restos
1 avenue Albert sarrault,Otacos,GOUSSAINVILLE,France,"{'brand': 'otacos', 'fascia': 'otacos', 'category': 'Restaurant', 'edit_date': '2025-03-19', 'lat_lon_source': 'website'}",49.024983200000000000,2.463650200000000000,GOUSSAINVILLE ALBERT SARRAULT,"{'opening_hours': {'Lun': '09:00 - 23:00', 'Mar': 'Fermé', 'Mer': ' Fermé', 'Jeu': 'Fermé', 'Ven': 'Fermé', 'Sam': 'Fermé', 'Dim': 'Fermé'}}",,95190,,,https://o-tacos.com/nos-restos
0 Centre commercial O'Parinor Le Haut de Galy,Otacos,AULNAY,France,"{'brand': 'otacos', 'fascia': 'otacos', 'category': 'Restaurant', 'edit_date': '2025-03-19', 'lat_lon_source': 'website'}",48.959567500000000000,2.474887100000000000,AULNAY SOUS BOIS OPARINOR,"{'opening_hours': {'Lun': 'Fermé ', 'Mar': 'Fermé', 'Mer': ' Fermé', 'Jeu': 'Fermé', 'Ven': 'Fermé', 'Sam': 'Fermé', 'Dim': 'Fermé'}}",,93600,,,https://o-tacos.com/nos-restos
33 Avenue du 18 Juin 1940,Otacos,RUEIL,France,"{'brand': 'otacos', 'fascia': 'otacos', 'category': 'Restaurant', 'edit_date': '2025-03-19', 'lat_lon_source': 'website'}",48.868615600000000000,2.190549700000000000,RUEIL MALMAISON TARATRES,"{'opening_hours': {'Lun': '11:30 - 23:30', 'Mar': '11:30 - 23:30', 'Mer': '11:30 - 23:30', 'Jeu': '11:30 - 23:30', 'Ven': '11:30 - 23:30', 'Sam': '11:30 - 23:30', 'Dim': '11:30 - 23:30'}}",,92500,,,https://o-tacos.com/nos-restos
5 Avenue d'Estienne d'Orves,Otacos,JUVISY,France,"{'brand': 'otacos', 'fascia': 'otacos', 'category': 'Restaurant', 'edit_date': '2025-03-19', 'lat_lon_source': 'website'}",48.690338500000000000,2.380630600000000000,JUVISY SUR ORGE ORVES,"{'opening_hours': {'Lun': '11:00 - 00:00', 'Mar': '11:00 - 00:00', 'Mer': '11:00 - 00:00', 'Jeu': '11:00 - 00:00', 'Ven': '11:00 - 00:00', 'Sam': '11:00 - 00:00', 'Dim': '11:00 - 00:00'}}",,91260,,,https://o-tacos.com/nos-restos
45 rue des Augustins,Otacos,AMIENS,France,"{'brand': 'otacos', 'fascia': 'otacos', 'category': 'Restaurant', 'edit_date': '2025-03-19', 'lat_lon_source': 'website'}",49.895104400000000000,2.305821500000000000,AMIENS SAINT LEU,"{'opening_hours': {'Lun': '11:00 - 14:00', 'Mar': '11:00 - 14:00', 'Mer': '11:00 - 14:00', 'Jeu': '18:00 - 22:30', 'Ven': '11:00 - 14:00', 'Sam': '12:00 - 22:30', 'Dim': '12:00 - 22:00'}}",,80000,,,https://o-tacos.com/nos-restos
13 Boulevard Edouard Branly,Otacos,SARCELLES,France,"{'brand': 'otacos', 'fascia': 'otacos', 'category': 'Restaurant', 'edit_date': '2025-03-19', 'lat_lon_source': 'website'}",48.977940800000000000,2.378756200000000000,SARCELLES EDOUARD BRANLY,"{'opening_hours': {'Lun': 'Fermé ', 'Mar': 'Fermé', 'Mer': ' Fermé', 'Jeu': 'Fermé', 'Ven': 'Fermé', 'Sam': 'Fermé', 'Dim': 'Fermé'}}",,95200,,,https://o-tacos.com/nos-restos
5 Avenue du General de Gaulle,Otacos,CHAMPIGNY,France,"{'brand': 'otacos', 'fascia': 'otacos', 'category': 'Restaurant', 'edit_date': '2025-03-19', 'lat_lon_source': 'website'}",48.820272200000000000,2.484466700000000000,CHAMPIGNY SUR MARNE DE GAULLE,"{'opening_hours': {'Lun': 'Fermé ', 'Mar': 'Fermé', 'Mer': ' Fermé', 'Jeu': 'Fermé', 'Ven': 'Fermé', 'Sam': 'Fermé', 'Dim': 'Fermé'}}",,94500,,,https://o-tacos.com/nos-restos
82 rue saint Sever,Otacos,ROUEN,France,"{'brand': 'otacos', 'fascia': 'otacos', 'category': 'Restaurant', 'edit_date': '2025-03-19', 'lat_lon_source': 'website'}",49.432779000000000000,1.087595700000000000,ROUEN RIVE GAUCHE,"{'opening_hours': {'Lun': '11:30 - 22:30', 'Mar': '11:30 - 22:30', 'Mer': '11:30 - 22:30', 'Jeu': '11:30 - 22:30', 'Ven': '11:30 - 22:30', 'Sam': '11:30 - 22:30', 'Dim': '11:30 - 22:30'}}",,76100,,,https://o-tacos.com/nos-restos
135 rue etienne dolet,Otacos,ALFORTVILLE,France,"{'brand': 'otacos', 'fascia': 'otacos', 'category': 'Restaurant', 'edit_date': '2025-03-19', 'lat_lon_source': 'website'}",48.787544500000000000,2.425801400000000000,ALFORTVILLE DOLET,"{'opening_hours': {'Lun': '11:00 - 23:30', 'Mar': '11:00 - 23:30', 'Mer': '11:00 - 23:30', 'Jeu': '11:00 - 23:30', 'Ven': '11:00 - 23:30', 'Sam': '11:00 - 23:30', 'Dim': '11:00 - 23:30'}}",,94140,,,https://o-tacos.com/nos-restos
4 b  grande rue,Otacos,SAVIGNY,France,"{'brand': 'otacos', 'fascia': 'otacos', 'category': 'Restaurant', 'edit_date': '2025-03-19', 'lat_lon_source': 'website'}",48.675807400000000000,2.354021500000000000,SAVIGNY SUR ORGE GRANDE RUE,"{'opening_hours': {'Lun': '11:30 - 22:00', 'Mar': '11:30 - 22:00', 'Mer': '11:30 - 22:00', 'Jeu': '11:30 - 22:00', 'Ven': '11:30 - 23:00', 'Sam': '11:30 - 23:00', 'Dim': '11:30 - 23:00'}}",,91600,,,https://o-tacos.com/nos-restos
25 Parvis St Maurice,Otacos,LILLE,France,"{'brand': 'otacos', 'fascia': 'otacos', 'category': 'Restaurant', 'edit_date': '2025-03-19', 'lat_lon_source': 'website'}",50.636340700000000000,3.068285300000000000,LILLE PARVIS,"{'opening_hours': {'Lun': '19:00 - 23:30', 'Mar': '19:00 - 23:30', 'Mer': '19:00 - 23:30', 'Jeu': '19:00 - 23:30', 'Ven': '19:00 - 23:30', 'Sam': '19:00 - 23:30', 'Dim': '19:00 - 23:30'}}",,59800,,,https://o-tacos.com/nos-restos
103 Avenue Edouard Vaillant,Otacos,BOULOGNE,France,"{'brand': 'otacos', 'fascia': 'otacos', 'category': 'Restaurant', 'edit_date': '2025-03-19', 'lat_lon_source': 'website'}",48.833607100000000000,2.244225100000000000,BOULOGNE BILLANCOURT SEMBAT,"{'opening_hours': {'Lun': 'Fermé ', 'Mar': 'Fermé', 'Mer': ' Fermé', 'Jeu': 'Fermé', 'Ven': 'Fermé', 'Sam': 'Fermé', 'Dim': 'Fermé'}}",,92100,,,https://o-tacos.com/nos-restos
2 cours Olivier de Clisson,Otacos,NANTES,France,"{'brand': 'otacos', 'fascia': 'otacos', 'category': 'Restaurant', 'edit_date': '2025-03-19', 'lat_lon_source': 'website'}",47.213386700000000000,-1.555097400000000000,NANTES CLISSON,"{'opening_hours': {'Lun': '11:00 - 22:30', 'Mar': '11:00 - 22:30', 'Mer': '11:00 - 22:30', 'Jeu': '11:00 - 22:30', 'Ven': '11:00 - 02:00', 'Sam': '11:00 - 22:30', 'Dim': '11:00 - 22:30'}}",,44000,,,https://o-tacos.com/nos-restos
4 Avenue Laplace,Otacos,ARCUEIL,France,"{'brand': 'otacos', 'fascia': 'otacos', 'category': 'Restaurant', 'edit_date': '2025-03-19', 'lat_lon_source': 'website'}",48.807281200000000000,2.335618700000000000,ARCUEIL LAPLACE,"{'opening_hours': {'Lun': '11:30 - 05:00', 'Mar': '11:30 - 05:00', 'Mer': '11:30 - 05:00', 'Jeu': '11:30 - 05:00', 'Ven': '11:30 - 05:00', 'Sam': '11:30 - 05:00', 'Dim': '12:00 - 05:00'}}",,94110,,,https://o-tacos.com/nos-restos
29 Rue Saint Barthelemy,Otacos,MELUN,France,"{'brand': 'otacos', 'fascia': 'otacos', 'category': 'Restaurant', 'edit_date': '2025-03-19', 'lat_lon_source': 'website'}",48.542720900000000000,2.654533700000000000,MELUN SAINT BARTHELEMY,"{'opening_hours': {'Lun': '11:00 - 00:00', 'Mar': '11:00 - 00:00', 'Mer': '11:00 - 00:00', 'Jeu': '11:00 - 00:00', 'Ven': '18:00 - 00:30', 'Sam': '12:00 - 00:30', 'Dim': '12:00 - 00:00'}}",,77000,,,https://o-tacos.com/nos-restos
20 rue de la Varenne,Otacos,SAINT,France,"{'brand': 'otacos', 'fascia': 'otacos', 'category': 'Restaurant', 'edit_date': '2025-03-19', 'lat_lon_source': 'website'}",48.807562008823000000,2.473788555477600000,SAINT MAUR DES FOSSES VARENNE,"{'opening_hours': {'Lun': '11:30 - 23:30', 'Mar': '11:30 - 23:30', 'Mer': '11:30 - 23:30', 'Jeu': '11:30 - 23:30', 'Ven': '11:30 - 23:55', 'Sam': '11:30 - 23:55', 'Dim': '12:00 - 23:00'}}",,94100,,,https://o-tacos.com/nos-restos
422 Avenue de la République,Otacos,NANTERRE,France,"{'brand': 'otacos', 'fascia': 'otacos', 'category': 'Restaurant', 'edit_date': '2025-03-19', 'lat_lon_source': 'website'}",48.911395700000000000,2.222672100000000000,NANTERRE REPUBLIQUE,"{'opening_hours': {'Lun': '11:00 - 23:00', 'Mar': '11:00 - 23:00', 'Mer': '11:00 - 23:00', 'Jeu': '11:00 - 23:00', 'Ven': '11:00 - 23:00', 'Sam': '11:00 - 23:00', 'Dim': '11:00 - 23:00'}}",,92000,,,https://o-tacos.com/nos-restos
17 rue des Italiens,Otacos,CERGY,France,"{'brand': 'otacos', 'fascia': 'otacos', 'category': 'Restaurant', 'edit_date': '2025-03-19', 'lat_lon_source': 'website'}",49.036741600000000000,2.077684800000000000,CERGY RUE DES ITALIENS,"{'opening_hours': {'Lun': '11:00 - 22:30', 'Mar': '11:00 - 22:30', 'Mer': '11:00 - 22:30', 'Jeu': '11:00 - 22:30', 'Ven': '11:00 - 23:00', 'Sam': '11:30 - 23:00', 'Dim': '12:00 - 22:30'}}",,95000,,,https://o-tacos.com/nos-restos
105 rue d'Isle,Otacos,SAINT,France,"{'brand': 'otacos', 'fascia': 'otacos', 'category': 'Restaurant', 'edit_date': '2025-03-19', 'lat_lon_source': 'website'}",49.843313200000000000,3.293069700000000000,SAINT QUENTIN RUE ISLE,"{'opening_hours': {'Lun': '11:00 - 23:00', 'Mar': '11:00 - 23:00', 'Mer': '11:00 - 23:00', 'Jeu': '11:00 - 23:00', 'Ven': '11:00 - 23:00', 'Sam': '11:00 - 23:00', 'Dim': '11:00 - 23:00'}}",,2100,,,https://o-tacos.com/nos-restos
7 rue de Bretagne,Otacos,CLAMART,France,"{'brand': 'otacos', 'fascia': 'otacos', 'category': 'Restaurant', 'edit_date': '2025-03-19', 'lat_lon_source': 'website'}",48.782896700000000000,2.242789600000000000,CLAMART RUE DE BRETAGNE,"{'opening_hours': {'Lun': '11:00 - 22:00', 'Mar': '11:00 - 22:00', 'Mer': '11:00 - 22:00', 'Jeu': '11:00 - 22:00', 'Ven': '11:00 - 22:00', 'Sam': '11:00 - 22:00', 'Dim': '11:00 - 22:00'}}",,92140,,,https://o-tacos.com/nos-restos
2 Rue Monfray,Otacos,CRETEIL,France,"{'brand': 'otacos', 'fascia': 'otacos', 'category': 'Restaurant', 'edit_date': '2025-03-19', 'lat_lon_source': 'website'}",48.790915800000000000,2.465365800000000000,CRETEIL EGLISE,"{'opening_hours': {'Lun': '11:00 - 23:00', 'Mar': '11:00 - 23:00', 'Mer': '11:00 - 23:00', 'Jeu': '11:00 - 23:00', 'Ven': '11:00 - 23:00', 'Sam': '11:00 - 23:00', 'Dim': '11:00 - 23:00'}}",,94000,,,https://o-tacos.com/nos-restos
3 Place de l'etape au vin,Otacos,CHARTRES,France,"{'brand': 'otacos', 'fascia': 'otacos', 'category': 'Restaurant', 'edit_date': '2025-03-19', 'lat_lon_source': 'website'}",48.444218500000000000,1.489710400000000000,CHARTRES ETAPE,"{'opening_hours': {'Lun': '11:00 - 14:30', 'Mar': '18:00 - 22:30', 'Mer': '11:00 - 22:30', 'Jeu': '18:00 - 22:30', 'Ven': '18:00 - 23:00', 'Sam': '11:00 - 23:00', 'Dim': '18:00 - 22:30'}}",,28000,,,https://o-tacos.com/nos-restos
17 rue Jussieu,Otacos,PARIS,France,"{'brand': 'otacos', 'fascia': 'otacos', 'category': 'Restaurant', 'edit_date': '2025-03-19', 'lat_lon_source': 'website'}",48.845733600000000000,2.355364800000000000,PARIS JUSSIEU,"{'opening_hours': {'Lun': 'Fermé ', 'Mar': 'Fermé', 'Mer': ' Fermé', 'Jeu': 'Fermé', 'Ven': 'Fermé', 'Sam': 'Fermé', 'Dim': 'Fermé'}}",,75005,,,https://o-tacos.com/nos-restos
34 rue de la république,Otacos,VILLIERS,France,"{'brand': 'otacos', 'fascia': 'otacos', 'category': 'Restaurant', 'edit_date': '2025-03-19', 'lat_lon_source': 'website'}",49.007357800000000000,2.387991600000000000,VILLIERS LE BEL REPUBLIQUE,"{'opening_hours': {'Lun': 'Fermé ', 'Mar': 'Fermé', 'Mer': ' Fermé', 'Jeu': 'Fermé', 'Ven': 'Fermé', 'Sam': 'Fermé', 'Dim': 'Fermé'}}",,95400,,,https://o-tacos.com/nos-restos
9 Rue Jean Monnet,Otacos,BUSSY,France,"{'brand': 'otacos', 'fascia': 'otacos', 'category': 'Restaurant', 'edit_date': '2025-03-19', 'lat_lon_source': 'website'}",48.839289100000000000,2.709786500000000000,BUSSY SAINT GEORGES MONNET,"{'opening_hours': {'Lun': '11:00 - 23:00', 'Mar': '11:00 - 23:00', 'Mer': '11:00 - 23:00', 'Jeu': '11:00 - 23:00', 'Ven': '11:00 - 23:00', 'Sam': '11:00 - 23:00', 'Dim': '11:00 - 23:00'}}",,77600,,,https://o-tacos.com/nos-restos
3 place Jean Jaures,Otacos,LENS,France,"{'brand': 'otacos', 'fascia': 'otacos', 'category': 'Restaurant', 'edit_date': '2025-03-19', 'lat_lon_source': 'website'}",50.428990800000000000,2.833163200000000000,LENS JAURES,"{'opening_hours': {'Lun': '11:00 - 00:00', 'Mar': '11:00 - 00:00', 'Mer': '11:00 - 00:00', 'Jeu': '11:00 - 00:00', 'Ven': '11:00 - 00:00', 'Sam': '11:00 - 00:00', 'Dim': '11:00 - 00:00'}}",,62300,,,https://o-tacos.com/nos-restos
116 cours de vincennes,Otacos,PARIS,France,"{'brand': 'otacos', 'fascia': 'otacos', 'category': 'Restaurant', 'edit_date': '2025-03-19', 'lat_lon_source': 'website'}",48.846677100000000000,2.410321500000000000,PARIS PORTE DE VINCENNES,"{'opening_hours': {'Lun': '11:00 - 23:55', 'Mar': 'Fermé', 'Mer': ' Fermé', 'Jeu': 'Fermé', 'Ven': 'Fermé', 'Sam': 'Fermé', 'Dim': 'Fermé'}}",,75012,,,https://o-tacos.com/nos-restos
100 La Canebiere,Otacos,MARSEILLE,France,"{'brand': 'otacos', 'fascia': 'otacos', 'category': 'Restaurant', 'edit_date': '2025-03-19', 'lat_lon_source': 'website'}",43.297791600000000000,5.382299500000000000,MARSEILLE CANEBIERE,"{'opening_hours': {'Lun': '11:00 - 23:00', 'Mar': '11:00 - 23:00', 'Mer': '11:00 - 23:00', 'Jeu': '11:00 - 23:00', 'Ven': '11:00 - 13:00', 'Sam': '11:00 - 02:00', 'Dim': '11:00 - 02:00'}}",,13001,,,https://o-tacos.com/nos-restos
86 Boulevard Maxime Gorki,Otacos,VILLEJUIF,France,"{'brand': 'otacos', 'fascia': 'otacos', 'category': 'Restaurant', 'edit_date': '2025-03-19', 'lat_lon_source': 'website'}",48.793894200000000000,2.368809300000000000,VILLEJUIF GORKI,"{'opening_hours': {'Lun': 'Fermé ', 'Mar': 'Fermé', 'Mer': ' Fermé', 'Jeu': 'Fermé', 'Ven': 'Fermé', 'Sam': 'Fermé', 'Dim': 'Fermé'}}",,94800,,,https://o-tacos.com/nos-restos
45 avenue Charles Rouxel,Otacos,PONTAULT,France,"{'brand': 'otacos', 'fascia': 'otacos', 'category': 'Restaurant', 'edit_date': '2025-03-19', 'lat_lon_source': 'website'}",48.795358500000000000,2.604714200000000000,PONTAULT COMBAULT ROUXEL,"{'opening_hours': {'Lun': '11:30 - 23:45', 'Mar': '11:30 - 23:45', 'Mer': '11:30 - 00:45', 'Jeu': '11:30 - 00:45', 'Ven': '11:30 - 00:45', 'Sam': '11:30 - 00:45', 'Dim': '11:30 - 00:45'}}",,77340,,,https://o-tacos.com/nos-restos
129 Avenue de Saint Ouen,Otacos,PARIS,France,"{'brand': 'otacos', 'fascia': 'otacos', 'category': 'Restaurant', 'edit_date': '2025-03-19', 'lat_lon_source': 'website'}",48.896155500000000000,2.328219800000000000,PARIS PORTE DE SAINT OUEN,"{'opening_hours': {'Lun': '10:30 - 02:00', 'Mar': '10:30 - 02:00', 'Mer': '10:30 - 02:00', 'Jeu': '10:30 - 02:00', 'Ven': '10:30 - 02:00', 'Sam': '10:30 - 02:00', 'Dim': '10:30 - 02:00'}}",,75017,,,https://o-tacos.com/nos-restos
40 place de la Republique,Otacos,LE,France,"{'brand': 'otacos', 'fascia': 'otacos', 'category': 'Restaurant', 'edit_date': '2025-03-19', 'lat_lon_source': 'website'}",48.004698100000000000,0.196390000000000000,LE MANS REPUBLIQUE,"{'opening_hours': {'Lun': '11:00 - 23:00', 'Mar': '11:00 - 23:00', 'Mer': '11:00 - 23:00', 'Jeu': '11:00 - 23:00', 'Ven': '11:00 - 23:00', 'Sam': '11:00 - 23:00', 'Dim': '11:00 - 23:00'}}",,72000,,,https://o-tacos.com/nos-restos
18 avenue Danielle mitterrand,Otacos,BEGLES,France,"{'brand': 'otacos', 'fascia': 'otacos', 'category': 'Restaurant', 'edit_date': '2025-03-19', 'lat_lon_source': 'website'}",44.786263500000000000,-0.562893900000000000,BEGLES MITTERRAND,"{'opening_hours': {'Lun': '11:00 - 23:00', 'Mar': '11:00 - 23:00', 'Mer': '11:00 - 23:00', 'Jeu': '11:00 - 23:00', 'Ven': '11:00 - 00:00', 'Sam': '11:00 - 00:00', 'Dim': '11:30 - 23:00'}}",,33130,,,https://o-tacos.com/nos-restos
9 rue Edouard Feray,Otacos,EVREUX,France,"{'brand': 'otacos', 'fascia': 'otacos', 'category': 'Restaurant', 'edit_date': '2025-03-19', 'lat_lon_source': 'website'}",49.028314700000000000,1.150737200000000000,EVREUX FERAY,"{'opening_hours': {'Lun': '11:30 - 22:00', 'Mar': '11:30 - 22:00', 'Mer': '11:30 - 22:00', 'Jeu': '11:30 - 22:00', 'Ven': '11:30 - 22:00', 'Sam': '11:30 - 22:00', 'Dim': '17:30 - 22:00'}}",,27000,,,https://o-tacos.com/nos-restos
6 rue du Minage,Otacos,PROVINS,France,"{'brand': 'otacos', 'fascia': 'otacos', 'category': 'Restaurant', 'edit_date': '2025-03-19', 'lat_lon_source': 'website'}",48.560163900000000000,3.301446400000000000,PROVINS MINAGE,"{'opening_hours': {'Lun': '11:30 - 22:30', 'Mar': '11:30 - 22:30', 'Mer': '11:30 - 22:30', 'Jeu': '11:30 - 22:30', 'Ven': '11:30 - 22:30', 'Sam': '11:30 - 22:30', 'Dim': '12:00 - 22:00'}}",,77160,,,https://o-tacos.com/nos-restos
27 place de l'Esplanade,Otacos,STRASBOURG,France,"{'brand': 'otacos', 'fascia': 'otacos', 'category': 'Restaurant', 'edit_date': '2025-03-19', 'lat_lon_source': 'website'}",48.577110300000000000,7.769195000000000000,STRASBOURG ESPLANADE,"{'opening_hours': {'Lun': '11:00 - 05:00', 'Mar': '11:00 - 05:00', 'Mer': '11:00 - 05:00', 'Jeu': '11:00 - 05:00', 'Ven': '11:00 - 05:00', 'Sam': '11:00 - 05:00', 'Dim': '11:00 - 05:00'}}",,67000,,,https://o-tacos.com/nos-restos
12 Centre commercial Val de Fontenay - Avenue du Marechal Joffre,Otacos,FONTENAY,France,"{'brand': 'otacos', 'fascia': 'otacos', 'category': 'Restaurant', 'edit_date': '2025-03-19', 'lat_lon_source': 'website'}",48.852875300000000000,2.477271600000000000,FONTENAY-SOUS-BOIS,"{'opening_hours': {'Lun': '11:00 - 22:00', 'Mar': '11:00 - 22:00', 'Mer': '11:00 - 22:00', 'Jeu': '11:00 - 22:00', 'Ven': '11:00 - 22:00', 'Sam': '11:00 - 22:00', 'Dim': 'Fermé'}}",,94120,,,https://o-tacos.com/nos-restos
4 boulevard de la Gare,Otacos,BOISSY,France,"{'brand': 'otacos', 'fascia': 'otacos', 'category': 'Restaurant', 'edit_date': '2025-03-19', 'lat_lon_source': 'website'}",48.751674100000000000,2.504699000000000000,BOISSY SAINT LEGER GARE,"{'opening_hours': {'Lun': '11:00 - 23:59', 'Mar': '11:00 - 23:59', 'Mer': '11:00 - 23:59', 'Jeu': '11:00 - 23:59', 'Ven': '11:00 - 23:59', 'Sam': '11:00 - 23:59', 'Dim': '11:00 - 23:59'}}",,94470,,,https://o-tacos.com/nos-restos
71 rue Achille Viadieu,Otacos,TOULOUSE,France,"{'brand': 'otacos', 'fascia': 'otacos', 'category': 'Restaurant', 'edit_date': '2025-03-19', 'lat_lon_source': 'website'}",43.588648400000000000,1.444261900000000000,TOULOUSE LONGAUD,"{'opening_hours': {'Lun': '11:00 - 23:00', 'Mar': '11:00 - 23:00', 'Mer': '11:00 - 23:00', 'Jeu': '11:00 - 23:00', 'Ven': '11:00 - 23:00', 'Sam': '11:00 - 23:00', 'Dim': '11:00 - 23:00'}}",,31400,,,https://o-tacos.com/nos-restos
64 Rue Boisnet,Otacos,ANGERS,France,"{'brand': 'otacos', 'fascia': 'otacos', 'category': 'Restaurant', 'edit_date': '2025-03-19', 'lat_lon_source': 'website'}",47.474203500000000000,-0.554139200000000000,ANGERS BOISNET,"{'opening_hours': {'Lun': '11:00 - 22:00', 'Mar': '11:00 - 22:00', 'Mer': '11:00 - 23:00', 'Jeu': '11:00 - 23:00', 'Ven': '11:00 - 23:00', 'Sam': '11:00 - 23:00', 'Dim': '12:00 - 23:00'}}",,49100,,,https://o-tacos.com/nos-restos
80 rue Grande,Otacos,CHATEAUROUX,France,"{'brand': 'otacos', 'fascia': 'otacos', 'category': 'Restaurant', 'edit_date': '2025-03-19', 'lat_lon_source': 'website'}",46.812741700000000000,1.692349900000000000,CHATEAUROUX RUE GRANDE,"{'opening_hours': {'Lun': '11:00 - 23:50', 'Mar': '11:00 - 23:59', 'Mer': '11:00 - 23:59', 'Jeu': '11:00 - 23:50', 'Ven': '11:00 - 23:59', 'Sam': '11:00 - 00:50', 'Dim': '12:00 - 00:50'}}",,36000,,,https://o-tacos.com/nos-restos
6 rue de Paris,Otacos,VILLENEUVE,France,"{'brand': 'otacos', 'fascia': 'otacos', 'category': 'Restaurant', 'edit_date': '2025-03-19', 'lat_lon_source': 'website'}",48.725672800000000000,2.446075800000000000,VILLENEUVE SAINT GEORGES,"{'opening_hours': {'Lun': '11:30 - 23:00', 'Mar': '11:30 - 23:00', 'Mer': '11:30 - 23:00', 'Jeu': '11:30 - 23:00', 'Ven': '11:30 - 23:00', 'Sam': '11:30 - 23:00', 'Dim': '11:30 - 23:00'}}",,94190,,,https://o-tacos.com/nos-restos
83 rue Reaumur,Otacos,PARIS,France,"{'brand': 'otacos', 'fascia': 'otacos', 'category': 'Restaurant', 'edit_date': '2025-03-19', 'lat_lon_source': 'website'}",48.866941800000000000,2.348148700000000000,PARIS REAUMUR,"{'opening_hours': {'Lun': '11:30 - 23:00', 'Mar': '11:30 - 23:00', 'Mer': '11:30 - 23:00', 'Jeu': '11:30 - 23:00', 'Ven': '11:30 - 23:00', 'Sam': '11:30 - 23:00', 'Dim': '11:30 - 23:00'}}",,75002,,,https://o-tacos.com/nos-restos
43 rue Henri Barbusse,Otacos,GENNEVILLIERS,France,"{'brand': 'otacos', 'fascia': 'otacos', 'category': 'Restaurant', 'edit_date': '2025-03-19', 'lat_lon_source': 'website'}",48.921615100000000000,2.299584100000000000,GENNEVILLIERS HENRI BARBUSSE,"{'opening_hours': {'Lun': '11:00 - 23:45', 'Mar': '11:00 - 23:45', 'Mer': '11:00 - 23:45', 'Jeu': '11:00 - 23:45', 'Ven': '11:00 - 23:45', 'Sam': '11:00 - 23:45', 'Dim': '11:00 - 23:45'}}",,92230,,,https://o-tacos.com/nos-restos
0 Centre Commercial Grand Littoral,Otacos,MARSEILLE,France,"{'brand': 'otacos', 'fascia': 'otacos', 'category': 'Restaurant', 'edit_date': '2025-03-19', 'lat_lon_source': 'website'}",43.363278800000000000,5.349780700000000000,MARSEILLE GRAND LITTORAL,"{'opening_hours': {'Lun': '11:00 - 21:00', 'Mar': '11:00 - 21:00', 'Mer': '11:00 - 20:45', 'Jeu': '11:00 - 21:00', 'Ven': '11:00 - 21:00', 'Sam': '11:00 - 21:00', 'Dim': '11:00 - 18:45'}}",,13015,,,https://o-tacos.com/nos-restos
19 rue de la rotisserie,Otacos,TOURS,France,"{'brand': 'otacos', 'fascia': 'otacos', 'category': 'Restaurant', 'edit_date': '2025-03-19', 'lat_lon_source': 'website'}",47.394183900000000000,0.680871400000000000,TOURS VIEUX TOURS,"{'opening_hours': {'Lun': '18:00 - 23:00', 'Mar': '18:00 - 23:00', 'Mer': '11:00 - 23:00', 'Jeu': '11:00 - 14:30', 'Ven': '18:00 - 00:00', 'Sam': '11:00 - 00:00', 'Dim': '11:00 - 23:00'}}",,37000,,,https://o-tacos.com/nos-restos
111 Rue Victor Hugo,Otacos,LE,France,"{'brand': 'otacos', 'fascia': 'otacos', 'category': 'Restaurant', 'edit_date': '2025-03-19', 'lat_lon_source': 'website'}",49.571236100000000000,0.465013200000000000,LE HAVRE VICTOR HUGO,"{'opening_hours': {'Lun': 'Fermé ', 'Mar': 'Fermé', 'Mer': ' Fermé', 'Jeu': 'Fermé', 'Ven': '11:00 - 23:00', 'Sam': 'Fermé', 'Dim': 'Fermé'}}",,76600,,,https://o-tacos.com/nos-restos
605 Avenue du Prado,Otacos,MARSEILLE,France,"{'brand': 'otacos', 'fascia': 'otacos', 'category': 'Restaurant', 'edit_date': '2025-03-19', 'lat_lon_source': 'website'}",43.261439900000000000,5.375541400000000000,MARSEILLE PRADO,"{'opening_hours': {'Lun': '11:00 - 23:00', 'Mar': '11:00 - 03:00', 'Mer': '11:00 - 02:00', 'Jeu': '11:00 - 03:00', 'Ven': '15:00 - 23:00', 'Sam': '11:00 - 03:00', 'Dim': '11:00 - 03:00'}}",,13009,,,https://o-tacos.com/nos-restos
244 rue des Postes,Otacos,LILLE,France,"{'brand': 'otacos', 'fascia': 'otacos', 'category': 'Restaurant', 'edit_date': '2025-03-19', 'lat_lon_source': 'website'}",50.619660300000000000,3.050891000000000000,LILLE RUE DES POSTES,"{'opening_hours': {'Lun': '11:30 - 01:00', 'Mar': '11:30 - 01:00', 'Mer': '11:30 - 01:00', 'Jeu': '11:30 - 01:00', 'Ven': '16:30 - 01:00', 'Sam': '11:30 - 01:00', 'Dim': '11:30 - 01:00'}}",,59000,,,https://o-tacos.com/nos-restos
184 avenue de Choisy,Otacos,PARIS,France,"{'brand': 'otacos', 'fascia': 'otacos', 'category': 'Restaurant', 'edit_date': '2025-03-19', 'lat_lon_source': 'website'}",48.830270800000000000,2.357122900000000000,PARIS PLACE ITALIE,"{'opening_hours': {'Lun': '11:00 - 23:00', 'Mar': '10:00 - 23:00', 'Mer': '09:00 - 23:00', 'Jeu': '11:00 - 23:00', 'Ven': '11:00 - 23:00', 'Sam': '11:00 - 23:00', 'Dim': '11:00 - 23:00'}}",,75013,,,https://o-tacos.com/nos-restos
13 avenue du General Leclerc,Otacos,OZOIR,France,"{'brand': 'otacos', 'fascia': 'otacos', 'category': 'Restaurant', 'edit_date': '2025-03-19', 'lat_lon_source': 'website'}",48.764952500000000000,2.672645300000000000,OZOIR LA FERRIERE LECLERC,"{'opening_hours': {'Lun': '11:30 - 02:00', 'Mar': '11:30 - 02:00', 'Mer': '11:30 - 02:00', 'Jeu': '11:30 - 02:00', 'Ven': '11:30 - 02:00', 'Sam': '11:30 - 02:00', 'Dim': '11:30 - 02:00'}}",,77330,,,https://o-tacos.com/nos-restos
34 rue Saint Jean,Otacos,CAEN,France,"{'brand': 'otacos', 'fascia': 'otacos', 'category': 'Restaurant', 'edit_date': '2025-03-19', 'lat_lon_source': 'website'}",49.182407100000000000,-0.360108100000000000,CAEN SAINT JEAN,"{'opening_hours': {'Lun': '11:00 - 23:00', 'Mar': '11:00 - 23:00', 'Mer': '15:00 - 23:00', 'Jeu': '11:00 - 02:00', 'Ven': '14:00 - 02:00', 'Sam': '11:00 - 02:00', 'Dim': '11:00 - 23:00'}}",,14000,,,https://o-tacos.com/nos-restos
214 avenue de Versailles,Otacos,PARIS,France,"{'brand': 'otacos', 'fascia': 'otacos', 'category': 'Restaurant', 'edit_date': '2025-03-19', 'lat_lon_source': 'website'}",48.838720200000000000,2.259391500000000000,PARIS PORTE DE SAINT CLOUD,"{'opening_hours': {'Lun': 'Fermé ', 'Mar': 'Fermé', 'Mer': ' Fermé', 'Jeu': 'Fermé', 'Ven': 'Fermé', 'Sam': 'Fermé', 'Dim': 'Fermé'}}",,75016,,,https://o-tacos.com/nos-restos
40 rue Etienne Mimard,Otacos,SAINT,France,"{'brand': 'otacos', 'fascia': 'otacos', 'category': 'Restaurant', 'edit_date': '2025-03-19', 'lat_lon_source': 'website'}",45.439087300000000000,4.397606800000000000,SAINT ETIENNE MIMARD,"{'opening_hours': {'Lun': '11:00 - 23:00', 'Mar': '11:00 - 23:00', 'Mer': '11:00 - 23:00', 'Jeu': '11:00 - 23:00', 'Ven': '11:00 - 23:00', 'Sam': '11:00 - 23:00', 'Dim': '12:30 - 23:00'}}",,42000,,,https://o-tacos.com/nos-restos
10 place d'armes,Otacos,VALENCIENNES,France,"{'brand': 'otacos', 'fascia': 'otacos', 'category': 'Restaurant', 'edit_date': '2025-03-19', 'lat_lon_source': 'website'}",50.357000100000000000,3.523102500000000000,VALENCIENNES PLACE ARMES,"{'opening_hours': {'Lun': '11:30 - 14:30', 'Mar': '11:30 - 14:30', 'Mer': '11:00 - 22:30', 'Jeu': '18:30 - 22:00', 'Ven': '18:30 - 22:00', 'Sam': '18:30 - 22:00', 'Dim': '11:30 - 14:30'}}",,59300,,,https://o-tacos.com/nos-restos
11 avenue de Versailles,Otacos,PARIS,France,"{'brand': 'otacos', 'fascia': 'otacos', 'category': 'Restaurant', 'edit_date': '2025-03-19', 'lat_lon_source': 'website'}",48.850528800000000000,2.277432400000000000,PARIS PASSY,"{'opening_hours': {'Lun': '10:30 - 02:00', 'Mar': '10:30 - 02:00', 'Mer': '10:30 - 02:00', 'Jeu': '10:30 - 02:00', 'Ven': '10:30 - 02:00', 'Sam': '10:30 - 02:00', 'Dim': '10:30 - 02:00'}}",,75016,,,https://o-tacos.com/nos-restos
24 rue Saint André des Arts,Otacos,PARIS,France,"{'brand': 'otacos', 'fascia': 'otacos', 'category': 'Restaurant', 'edit_date': '2025-03-19', 'lat_lon_source': 'website'}",48.853380600000000000,2.342711300000000000,PARIS SAINT MICHEL,"{'opening_hours': {'Lun': '11:00 - 23:00', 'Mar': '11:00 - 23:00', 'Mer': '11:00 - 23:00', 'Jeu': '11:00 - 23:00', 'Ven': '11:00 - 23:00', 'Sam': '11:00 - 23:00', 'Dim': '11:00 - 23:00'}}",,75006,,,https://o-tacos.com/nos-restos
18 rue des etats generaux,Otacos,VERSAILLES,France,"{'brand': 'otacos', 'fascia': 'otacos', 'category': 'Restaurant', 'edit_date': '2025-03-19', 'lat_lon_source': 'website'}",48.799269100000000000,2.133251400000000000,VERSAILLES ETATS GENERAUX,"{'opening_hours': {'Lun': 'Fermé ', 'Mar': 'Fermé', 'Mer': ' Fermé', 'Jeu': 'Fermé', 'Ven': 'Fermé', 'Sam': 'Fermé', 'Dim': 'Fermé'}}",,78000,,,https://o-tacos.com/nos-restos
5 rue des Auriges,Otacos,THIONVILLE,France,"{'brand': 'otacos', 'fascia': 'otacos', 'category': 'Restaurant', 'edit_date': '2025-03-19', 'lat_lon_source': 'website'}",49.357639400000000000,6.139383300000000000,THIONVILLE AURIGES,"{'opening_hours': {'Lun': '11:00 - 21:30', 'Mar': '11:00 - 21:30', 'Mer': '11:00 - 21:30', 'Jeu': '11:00 - 21:30', 'Ven': '11:00 - 21:30', 'Sam': '11:00 - 21:30', 'Dim': '11:00 - 21:30'}}",,57100,,,https://o-tacos.com/nos-restos
13 Avenue Thiers,Otacos,NICE,France,"{'brand': 'otacos', 'fascia': 'otacos', 'category': 'Restaurant', 'edit_date': '2025-03-19', 'lat_lon_source': 'website'}",43.704357700000000000,7.262862500000000000,NICE THIERS,"{'opening_hours': {'Lun': '11:00 - 01:00', 'Mar': '11:00 - 01:00', 'Mer': '11:00 - 01:00', 'Jeu': '11:00 - 01:00', 'Ven': '11:00 - 01:00', 'Sam': '11:00 - 01:00', 'Dim': '11:00 - 01:00'}}",,6000,,,https://o-tacos.com/nos-restos
21 rue du General de Gaulle,Otacos,POISSY,France,"{'brand': 'otacos', 'fascia': 'otacos', 'category': 'Restaurant', 'edit_date': '2025-03-19', 'lat_lon_source': 'website'}",48.931060300000000000,2.039629400000000000,POISSY DE GAULLE,"{'opening_hours': {'Lun': '11:00 - 14:30', 'Mar': '18:30 - 00:00', 'Mer': '11:00 - 14:30', 'Jeu': '11:00 - 14:30', 'Ven': '11:00 - 14:30', 'Sam': '11:00 - 00:00', 'Dim': '12:00 - 00:00'}}",,78300,,,https://o-tacos.com/nos-restos
99 avenue de Verdun,Otacos,ISSY,France,"{'brand': 'otacos', 'fascia': 'otacos', 'category': 'Restaurant', 'edit_date': '2025-03-19', 'lat_lon_source': 'website'}",48.819926700000000000,2.257997100000000000,ISSY LES MOULINEAUX VERDUN,"{'opening_hours': {'Lun': 'Fermé ', 'Mar': 'Fermé', 'Mer': ' Fermé', 'Jeu': 'Fermé', 'Ven': 'Fermé', 'Sam': 'Fermé', 'Dim': 'Fermé'}}",,92130,,,https://o-tacos.com/nos-restos
3 boulevard Pierre Toesca,Otacos,TOULON,France,"{'brand': 'otacos', 'fascia': 'otacos', 'category': 'Restaurant', 'edit_date': '2025-03-19', 'lat_lon_source': 'website'}",43.128332500000000000,5.928216500000000000,TOULON TESCA,"{'opening_hours': {'Lun': '11:00 - 22:50', 'Mar': '11:00 - 22:50', 'Mer': '11:00 - 22:50', 'Jeu': '11:00 - 22:50', 'Ven': '11:00 - 22:50', 'Sam': '11:00 - 22:50', 'Dim': '11:00 - 22:50'}}",,83000,,,https://o-tacos.com/nos-restos
0 Promenade de 7 eme art,Otacos,TORCY,France,"{'brand': 'otacos', 'fascia': 'otacos', 'category': 'Restaurant', 'edit_date': '2025-03-19', 'lat_lon_source': 'website'}",48.840603400000000000,2.654047600000000000,TORCY ART,"{'opening_hours': {'Lun': '11:30 - 23:00', 'Mar': '11:30 - 23:00', 'Mer': '11:30 - 23:00', 'Jeu': '11:30 - 23:00', 'Ven': '11:30 - 23:00', 'Sam': '11:30 - 23:00', 'Dim': '11:30 - 23:00'}}",,77200,,,https://o-tacos.com/nos-restos
172 rue du Temple,Otacos,PARIS,France,"{'brand': 'otacos', 'fascia': 'otacos', 'category': 'Restaurant', 'edit_date': '2025-03-19', 'lat_lon_source': 'website'}",48.866588000000000000,2.361973000000000000,PARIS REPUBLIQUE,"{'opening_hours': {'Lun': '11:00 - 02:50', 'Mar': '11:00 - 02:50', 'Mer': '11:00 - 02:50', 'Jeu': '11:00 - 02:50', 'Ven': '11:00 - 06:00', 'Sam': '11:00 - 06:00', 'Dim': '11:00 - 06:00'}}",,75003,,,https://o-tacos.com/nos-restos
5 Rue Jacques de La Giraudière,Otacos,REIMS,France,"{'brand': 'otacos', 'fascia': 'otacos', 'category': 'Restaurant', 'edit_date': '2025-03-19', 'lat_lon_source': 'website'}",49.241773200000000000,4.083792300000000000,REIMS VILLAGE,"{'opening_hours': {'Lun': '11:00 - 22:00', 'Mar': '11:00 - 22:00', 'Mer': '11:00 - 22:00', 'Jeu': '11:00 - 22:00', 'Ven': '11:00 - 23:00', 'Sam': '11:00 - 23:00', 'Dim': '11:00 - 23:00'}}",,51100,,,https://o-tacos.com/nos-restos
101 bd Poniatowski,Otacos,PARIS,France,"{'brand': 'otacos', 'fascia': 'otacos', 'category': 'Restaurant', 'edit_date': '2025-03-19', 'lat_lon_source': 'website'}",48.834601200000000000,2.404555200000000000,PARIS PORTE DOREE,"{'opening_hours': {'Lun': '11:00 - 00:00', 'Mar': '11:00 - 00:00', 'Mer': '11:00 - 00:00', 'Jeu': '11:00 - 00:00', 'Ven': '11:00 - 00:00', 'Sam': '11:00 - 00:00', 'Dim': '11:00 - 00:00'}}",,75012,,,https://o-tacos.com/nos-restos
2 rue du Docteur Leray,Otacos,ENGHIEN,France,"{'brand': 'otacos', 'fascia': 'otacos', 'category': 'Restaurant', 'edit_date': '2025-03-19', 'lat_lon_source': 'website'}",48.970578100000000000,2.306384300000000000,ENGHIEN LES BAINS LERAY,"{'opening_hours': {'T. ': '. 0676603308', 'Lun': '11:00 - 00:30', 'Mar': '11:00 - 00:30', 'Mer': '11:00 - 00:30', 'Jeu': '11:00 - 00:30', 'Ven': '11:00 - 00:30', 'Sam': '11:00 - 00:30', 'Dim': '11:00 - 00:30'}}",,95880,,,https://o-tacos.com/nos-restos
58 avenue de bayonne,Otacos,ANGLET,France,"{'brand': 'otacos', 'fascia': 'otacos', 'category': 'Restaurant', 'edit_date': '2025-03-19', 'lat_lon_source': 'website'}",43.482126500000000000,-1.507091600000000000,ANGLET AVENUE DE BAYONNE,"{'opening_hours': {'Lun': 'Fermé ', 'Mar': 'Fermé', 'Mer': ' Fermé', 'Jeu': 'Fermé', 'Ven': 'Fermé', 'Sam': 'Fermé', 'Dim': 'Fermé'}}",,64600,,,https://o-tacos.com/nos-restos
8 rue Dupleix,Otacos,BREST,France,"{'brand': 'otacos', 'fascia': 'otacos', 'category': 'Restaurant', 'edit_date': '2025-03-19', 'lat_lon_source': 'website'}",48.392682300000000000,-4.482962700000000000,BREST DUPLEIX,"{'opening_hours': {'Lun': '11:00 - 23:00', 'Mar': '11:00 - 23:00', 'Mer': '11:00 - 23:00', 'Jeu': '11:00 - 23:00', 'Ven': '11:00 - 23:30', 'Sam': '11:00 - 23:30', 'Dim': '11:00 - 23:00'}}",,29200,,,https://o-tacos.com/nos-restos
4 Bd Gallieni,Otacos,VILLENEUVE,France,"{'brand': 'otacos', 'fascia': 'otacos', 'category': 'Restaurant', 'edit_date': '2025-03-19', 'lat_lon_source': 'website'}",48.926240000000000000,2.330170000000000000,VILLENEUVE LA GARENNE QWARTZ,"{'opening_hours': {'Lun': '11:30 - 21:00', 'Mar': '11:30 - 21:00', 'Mer': '11:30 - 21:00', 'Jeu': '11:30 - 21:00', 'Ven': '11:30 - 21:00', 'Sam': '11:30 - 21:00', 'Dim': '11:30 - 20:30'}}",,92390,,,https://o-tacos.com/nos-restos
22 avenue de Chambéry,Otacos,ANNECY,France,"{'brand': 'otacos', 'fascia': 'otacos', 'category': 'Restaurant', 'edit_date': '2025-03-19', 'lat_lon_source': 'website'}",45.898937300000000000,6.118567300000000000,ANNECY AVENUE DE CHAMBERY,"{'opening_hours': {'Lun': '11:30 - 21:45', 'Mar': '11:30 - 21:45', 'Mer': '11:30 - 21:45', 'Jeu': '11:30 - 21:45', 'Ven': '11:30 - 21:45', 'Sam': '11:30 - 21:45', 'Dim': '11:30 - 21:45'}}",,74000,,,https://o-tacos.com/nos-restos
144 rue Lafayette,Otacos,PARIS,France,"{'brand': 'otacos', 'fascia': 'otacos', 'category': 'Restaurant', 'edit_date': '2025-03-19', 'lat_lon_source': 'website'}",48.878649100000000000,2.355123700000000000,PARIS GARE DU NORD,"{'opening_hours': {'Lun': 'Fermé ', 'Mar': 'Fermé', 'Mer': ' Fermé', 'Jeu': 'Fermé', 'Ven': 'Fermé', 'Sam': 'Fermé', 'Dim': 'Fermé'}}",,75010,,,https://o-tacos.com/nos-restos
78 Rue Urbain IV,Otacos,TROYES,France,"{'brand': 'otacos', 'fascia': 'otacos', 'category': 'Restaurant', 'edit_date': '2025-03-19', 'lat_lon_source': 'website'}",48.296145300000000000,4.073128400000000000,TROYES FERBER,"{'opening_hours': {'Lun': 'Fermé ', 'Mar': 'Fermé', 'Mer': ' Fermé', 'Jeu': 'Fermé', 'Ven': 'Fermé', 'Sam': 'Fermé', 'Dim': 'Fermé'}}",,10000,,,https://o-tacos.com/nos-restos
23 avenue Amerigo Vespucci,Otacos,LA,France,"{'brand': 'otacos', 'fascia': 'otacos', 'category': 'Restaurant', 'edit_date': '2025-03-19', 'lat_lon_source': 'website'}",46.151760100000000000,-1.154533700000000000,LA ROCHELLE AMERIGO,"{'opening_hours': {'Lun': '11:00 - 14:45', 'Mar': '18:00 - 22:45', 'Mer': '11:00 - 14:45', 'Jeu': '18:00 - 22:45', 'Ven': '18:00 - 22:45', 'Sam': '11:30 - 18:00', 'Dim': '12:00 - 18:00'}}",,17000,,,https://o-tacos.com/nos-restos
11 AVENUE GARIBALDI,Otacos,DIJON,France,"{'brand': 'otacos', 'fascia': 'otacos', 'category': 'Restaurant', 'edit_date': '2025-03-19', 'lat_lon_source': 'website'}",47.328272400000000000,5.043585700000000000,DIJON GARIBALDI,"{'opening_hours': {'Lun': '11:00 - 23:00', 'Mar': '11:00 - 23:00', 'Mer': '11:00 - 23:00', 'Jeu': '11:00 - 23:00', 'Ven': '11:00 - 23:00', 'Sam': '11:00 - 01:00', 'Dim': '11:00 - 23:00'}}",,21000,,,https://o-tacos.com/nos-restos
6 Place des Terreaux,Otacos,LYON,France,"{'brand': 'otacos', 'fascia': 'otacos', 'category': 'Restaurant', 'edit_date': '2025-03-19', 'lat_lon_source': 'website'}",45.767344100000000000,4.834111900000000000,LYON TERREAUX,"{'opening_hours': {'Lun': '19:00 - 02:00', 'Mar': '19:00 - 02:00', 'Mer': '19:00 - 02:00', 'Jeu': '19:00 - 02:00', 'Ven': '19:00 - 02:00', 'Sam': '19:00 - 02:00', 'Dim': '19:00 - 02:00'}}",,69001,,,https://o-tacos.com/nos-restos
3 route de Sens,Otacos,MONTEREAU-FAULT-YONNE,France,"{'brand': 'otacos', 'fascia': 'otacos', 'category': 'Restaurant', 'edit_date': '2025-03-19', 'lat_lon_source': 'website'}",48.376533800000000000,2.957305900000000000,MONTEREAU ROUTE DE SENS,"{'opening_hours': {'Lun': '11:00 - 01:00', 'Mar': '11:00 - 01:00', 'Mer': '11:00 - 01:00', 'Jeu': '11:00 - 01:00', 'Ven': '11:00 - 01:00', 'Sam': '11:00 - 01:00', 'Dim': '11:00 - 01:00'}}",,77130,,,https://o-tacos.com/nos-restos
15 rue des lumieres,Otacos,MONTREUIL,France,"{'brand': 'otacos', 'fascia': 'otacos', 'category': 'Restaurant', 'edit_date': '2025-03-19', 'lat_lon_source': 'website'}",48.861415400000000000,2.441471600000000000,MONTREUIL GRAND ANGLE,"{'opening_hours': {'Lun': '11:00 - 00:00', 'Mar': '11:00 - 00:00', 'Mer': '11:00 - 00:00', 'Jeu': '11:00 - 00:00', 'Ven': '11:00 - 00:00', 'Sam': '11:00 - 00:00', 'Dim': '11:00 - 00:00'}}",,93100,,,https://o-tacos.com/nos-restos
92 rue patay,Otacos,PARIS,France,"{'brand': 'otacos', 'fascia': 'otacos', 'category': 'Restaurant', 'edit_date': '2025-03-19', 'lat_lon_source': 'website'}",48.827504200000000000,2.371838200000000000,PARIS PATAY,"{'opening_hours': {'Lun': '11:00 - 23:00', 'Mar': '11:00 - 23:00', 'Mer': '11:00 - 23:00', 'Jeu': '11:00 - 23:00', 'Ven': '11:00 - 23:00', 'Sam': '11:00 - 23:00', 'Dim': '11:00 - 23:00'}}",,75013,,,https://o-tacos.com/nos-restos
100 rue Cardinet,Otacos,PARIS,France,"{'brand': 'otacos', 'fascia': 'otacos', 'category': 'Restaurant', 'edit_date': '2025-03-19', 'lat_lon_source': 'website'}",48.885216800000000000,2.311260200000000000,PARIS CARDINET,"{'opening_hours': {'Lun': '11:00 - 06:00', 'Mar': '11:00 - 06:00', 'Mer': '11:00 - 06:00', 'Jeu': '11:00 - 06:00', 'Ven': '11:00 - 06:00', 'Sam': '11:00 - 06:00', 'Dim': '11:00 - 06:00'}}",,75017,,,https://o-tacos.com/nos-restos
4 boulevard Voltaire,Otacos,ARPAJON,France,"{'brand': 'otacos', 'fascia': 'otacos', 'category': 'Restaurant', 'edit_date': '2025-03-19', 'lat_lon_source': 'website'}",48.588321900000000000,2.252785100000000000,ARPAJON VOLTAIRE,"{'opening_hours': {'Lun': '11:00 - 22:45', 'Mar': '11:00 - 22:45', 'Mer': '11:00 - 22:45', 'Jeu': '11:00 - 22:45', 'Ven': '11:00 - 23:55', 'Sam': '11:00 - 23:55', 'Dim': '11:00 - 22:45'}}",,91290,,,https://o-tacos.com/nos-restos
0 Rue Laennec,Otacos,LANGUEUX,France,"{'brand': 'otacos', 'fascia': 'otacos', 'category': 'Restaurant', 'edit_date': '2025-03-19', 'lat_lon_source': 'website'}",48.493961000000000000,-2.725889000000000000,LANGUEUX LAENNEC,"{'opening_hours': {'Lun': '11:00 - 23:00', 'Mar': '11:00 - 23:00', 'Mer': '11:00 - 23:00', 'Jeu': '11:00 - 23:00', 'Ven': '11:00 - 23:00', 'Sam': '11:00 - 23:00', 'Dim': '11:00 - 23:00'}}",,22360,,,https://o-tacos.com/nos-restos
32 place Aristide briand,Otacos,CAMBRAI,France,"{'brand': 'otacos', 'fascia': 'otacos', 'category': 'Restaurant', 'edit_date': '2025-03-19', 'lat_lon_source': 'website'}",50.175757400000000000,3.232741500000000000,CAMBRAI GRAND PLACE,"{'opening_hours': {'Lun': '11:30 - 23:00', 'Mar': '11:30 - 23:00', 'Mer': '11:30 - 23:00', 'Jeu': '11:30 - 23:00', 'Ven': '11:30 - 23:00', 'Sam': '11:30 - 23:00', 'Dim': '11:30 - 23:00'}}",,59400,,,https://o-tacos.com/nos-restos
50 avenue Raymon Aron,Otacos,Massy,France,"{'brand': 'otacos', 'fascia': 'otacos', 'category': 'Restaurant', 'edit_date': '2025-03-19', 'lat_lon_source': 'website'}",48.725544400000000000,2.255965600000000000,MASSY RAYMOND ARON,"{'opening_hours': {'Lun': '11:00 - 23:45', 'Mar': '11:00 - 23:45', 'Mer': '11:00 - 23:45', 'Jeu': '11:00 - 23:45', 'Ven': '11:00 - 23:45', 'Sam': '11:00 - 23:45', 'Dim': '11:00 - 23:45'}}",,91300,,,https://o-tacos.com/nos-restos
0 Passage Gayant,Otacos,DOUAI,France,"{'brand': 'otacos', 'fascia': 'otacos', 'category': 'Restaurant', 'edit_date': '2025-03-19', 'lat_lon_source': 'website'}",50.367321800000000000,3.081881900000000000,DOUAI GAYANT,"{'opening_hours': {'Lun': '11:00 - 02:00', 'Mar': '11:00 - 02:00', 'Mer': '11:00 - 02:00', 'Jeu': '11:00 - 01:00', 'Ven': '11:00 - 02:00', 'Sam': '11:00 - 02:00', 'Dim': '11:00 - 02:00'}}",,59500,,,https://o-tacos.com/nos-restos
131 BOULEVARD CARNOT,Otacos,LE,France,"{'brand': 'otacos', 'fascia': 'otacos', 'category': 'Restaurant', 'edit_date': '2025-03-19', 'lat_lon_source': 'website'}",48.897793900000000000,2.113447500000000000,LE VESINET CARNOT,"{'opening_hours': {'Lun': '11:30 - 14:30', 'Mar': '11:30 - 14:30', 'Mer': '11:30 - 14:30', 'Jeu': '11:30 - 14:30', 'Ven': '11:30 - 23:00', 'Sam': '11:30 - 14:30', 'Dim': '11:30 - 23:00'}}",,78110,,,https://o-tacos.com/nos-restos
105 boulevard de Grenelle,Otacos,PARIS,France,"{'brand': 'otacos', 'fascia': 'otacos', 'category': 'Restaurant', 'edit_date': '2025-03-19', 'lat_lon_source': 'website'}",48.849564700000000000,2.297201800000000000,Paris Tour Eiffel,"{'opening_hours': {'Lun': '10:30 - 02:00', 'Mar': '10:30 - 02:00', 'Mer': '10:30 - 02:00', 'Jeu': '10:30 - 02:00', 'Ven': '10:30 - 02:00', 'Sam': '10:30 - 02:00', 'Dim': '10:30 - 02:00'}}",,75015,,,https://o-tacos.com/nos-restos
5 rue du General Leclerc,Otacos,SAINT,France,"{'brand': 'otacos', 'fascia': 'otacos', 'category': 'Restaurant', 'edit_date': '2025-03-19', 'lat_lon_source': 'website'}",49.045539800000000000,2.106623600000000000,SAINT OUEN AUMONE LECLERC,"{'opening_hours': {'Lun': 'Fermé ', 'Mar': 'Fermé', 'Mer': ' Fermé', 'Jeu': 'Fermé', 'Ven': 'Fermé', 'Sam': 'Fermé', 'Dim': 'Fermé'}}",,95310,,,https://o-tacos.com/nos-restos
"59 Avenue du Général de Gaulle, Centre commercial Rosny2",Otacos,ROSNY,France,"{'brand': 'otacos', 'fascia': 'otacos', 'category': 'Restaurant', 'edit_date': '2025-03-19', 'lat_lon_source': 'website'}",48.883311400000000000,2.477766000000000000,ROSNY SOUS BOIS CC ROSNY,"{'opening_hours': {'Lun': '10:00 - 20:30', 'Mar': '10:00 - 20:30', 'Mer': '10:00 - 20:30', 'Jeu': '10:00 - 20:30', 'Ven': '10:00 - 20:30', 'Sam': '10:00 - 20:30', 'Dim': '10:00 - 19:00'}}",,91130,,,https://o-tacos.com/nos-restos
24 avenue des Etats Unis,Otacos,CLERMONT,France,"{'brand': 'otacos', 'fascia': 'otacos', 'category': 'Restaurant', 'edit_date': '2025-03-19', 'lat_lon_source': 'website'}",45.779181500000000000,3.081355600000000000,CLERMONT FERRAND ETATS UNIS,"{'opening_hours': {'Lun': '11:00 - 23:00', 'Mar': '11:00 - 23:00', 'Mer': '11:00 - 23:00', 'Jeu': '11:00 - 23:00', 'Ven': '11:00 - 23:00', 'Sam': '11:00 - 23:00', 'Dim': '11:00 - 23:00'}}",,63000,,,https://o-tacos.com/nos-restos
12 rue vavin,Otacos,PARIS,France,"{'brand': 'otacos', 'fascia': 'otacos', 'category': 'Restaurant', 'edit_date': '2025-03-19', 'lat_lon_source': 'website'}",48.844324700000000000,2.331078000000000000,PARIS VAVIN,"{'opening_hours': {'Lun': '11:00 - 23:00', 'Mar': '11:00 - 23:00', 'Mer': '11:00 - 23:00', 'Jeu': '11:00 - 23:00', 'Ven': '11:00 - 23:00', 'Sam': '11:00 - 23:00', 'Dim': '11:00 - 23:00'}}",,75006,,,https://o-tacos.com/nos-restos
0 Avenue Recteur Pineau,Otacos,POITIERS,France,"{'brand': 'otacos', 'fascia': 'otacos', 'category': 'Restaurant', 'edit_date': '2025-03-19', 'lat_lon_source': 'website'}",46.569616600000000000,0.380431300000000000,POITIERS PINEAU,"{'opening_hours': {'Lun': '11:00 - 23:00', 'Mar': '11:00 - 23:00', 'Mer': '11:00 - 23:00', 'Jeu': '11:00 - 23:00', 'Ven': '11:00 - 23:00', 'Sam': '11:00 - 23:00', 'Dim': '11:00 - 23:00'}}",,86000,,,https://o-tacos.com/nos-restos
28 rue au Pain,Otacos,SAINT,France,"{'brand': 'otacos', 'fascia': 'otacos', 'category': 'Restaurant', 'edit_date': '2025-03-19', 'lat_lon_source': 'website'}",48.896763700000000000,2.092570000000000000,SAINT GERMAIN EN LAYE PAIN,"{'opening_hours': {'Lun': '11:00 - 00:00', 'Mar': '11:00 - 00:00', 'Mer': '11:00 - 00:00', 'Jeu': '10:00 - 00:00', 'Ven': '11:00 - 00:00', 'Sam': '11:00 - 00:00', 'Dim': '11:00 - 00:00'}}",,78100,,,https://o-tacos.com/nos-restos
179 rue du colombiers,Otacos,TOURS,France,"{'brand': 'otacos', 'fascia': 'otacos', 'category': 'Restaurant', 'edit_date': '2025-03-19', 'lat_lon_source': 'website'}",47.423576500000000000,0.709287800000000000,TOURS NORD,"{'opening_hours': {'Lun': '11:00 - 23:00', 'Mar': '11:00 - 23:00', 'Mer': '11:00 - 23:00', 'Jeu': '11:00 - 23:00', 'Ven': '11:00 - 23:00', 'Sam': '11:00 - 23:00', 'Dim': '11:00 - 23:00'}}",,37000,,,https://o-tacos.com/nos-restos
57 Avenue de la Société des Nations,Otacos,MONTEVRAIN,France,"{'brand': 'otacos', 'fascia': 'otacos', 'category': 'Restaurant', 'edit_date': '2025-03-19', 'lat_lon_source': 'website'}",48.853223600000000000,2.766420100000000000,MONTEVRAIN NATION,"{'opening_hours': {'Lun': '11:30 - 23:00', 'Mar': '11:30 - 23:00', 'Mer': '11:30 - 23:00', 'Jeu': '11:30 - 23:00', 'Ven': '11:30 - 23:00', 'Sam': '11:30 - 23:00', 'Dim': '12:00 - 23:00'}}",,77144,,,https://o-tacos.com/nos-restos
0 Centre commercial Créteil Soleil,Otacos,CRETEIL,France,"{'brand': 'otacos', 'fascia': 'otacos', 'category': 'Restaurant', 'edit_date': '2025-03-19', 'lat_lon_source': 'website'}",48.779730600000000000,2.457414900000000000,CRETEIL SOLEIL,"{'opening_hours': {'Lun': '11:00 - 22:00', 'Mar': '11:00 - 22:00', 'Mer': '11:00 - 22:00', 'Jeu': '11:00 - 22:00', 'Ven': '11:00 - 22:00', 'Sam': '11:00 - 22:00', 'Dim': '11:00 - 22:00'}}",,94000,,,https://o-tacos.com/nos-restos
235 Avenue d'Espagne,Otacos,PERPIGNAN,France,"{'brand': 'otacos', 'fascia': 'otacos', 'category': 'Restaurant', 'edit_date': '2025-03-19', 'lat_lon_source': 'website'}",42.686878300000000000,2.896240600000000000,PERPIGNAN PORTE ESPAGNE,"{'opening_hours': {'Lun': '18:00 - 01:00', 'Mar': '18:00 - 01:00', 'Mer': '18:00 - 01:00', 'Jeu': '18:00 - 01:00', 'Ven': '18:00 - 01:00', 'Sam': '18:00 - 01:00', 'Dim': '18:00 - 01:00'}}",,66000,,,https://o-tacos.com/nos-restos
53 rue Fonneuve,Otacos,LIBOURNE,France,"{'brand': 'otacos', 'fascia': 'otacos', 'category': 'Restaurant', 'edit_date': '2025-03-19', 'lat_lon_source': 'website'}",44.914869000000000000,-0.246103300000000000,LIBOURNE FONNEUVE,"{'opening_hours': {'Lun': '11:00 - 21:50', 'Mar': '11:00 - 21:50', 'Mer': '11:00 - 21:50', 'Jeu': '11:00 - 21:50', 'Ven': '11:00 - 21:50', 'Sam': '12:00 - 21:50', 'Dim': '12:00 - 21:50'}}",,33500,,,https://o-tacos.com/nos-restos
25 rue du gros caillou,Otacos,LES,France,"{'brand': 'otacos', 'fascia': 'otacos', 'category': 'Restaurant', 'edit_date': '2025-03-19', 'lat_lon_source': 'website'}",48.827394600000000000,1.976983700000000000,LES CLAYES SOUS BOIS CAILLOU,"{'opening_hours': {'Lun': '11:00 - 22:45', 'Mar': '11:00 - 22:45', 'Mer': '11:00 - 22:45', 'Jeu': '11:00 - 22:45', 'Ven': '11:00 - 23:15', 'Sam': '11:00 - 23:15', 'Dim': '11:00 - 22:45'}}",,78340,,,https://o-tacos.com/nos-restos
136 route de Corbeil,Otacos,SAINTE,France,"{'brand': 'otacos', 'fascia': 'otacos', 'category': 'Restaurant', 'edit_date': '2025-03-19', 'lat_lon_source': 'website'}",48.641217000000000000,2.333334000000000000,SAINTE GENEVIEVE DES BOIS,"{'opening_hours': {'Lun': 'Fermé ', 'Mar': 'Fermé', 'Mer': ' Fermé', 'Jeu': 'Fermé', 'Ven': 'Fermé', 'Sam': 'Fermé', 'Dim': 'Fermé'}}",,91700,,,https://o-tacos.com/nos-restos
37 rue Jean Jaurès,Otacos,AUBERVILLIERS,France,"{'brand': 'otacos', 'fascia': 'otacos', 'category': 'Restaurant', 'edit_date': '2025-03-19', 'lat_lon_source': 'website'}",48.903003100000000000,2.390964400000000000,AUBERVILLIERS JEAN JAURES,"{'opening_hours': {'Lun': '08:00 - 23:00', 'Mar': '08:00 - 23:00', 'Mer': '08:00 - 23:00', 'Jeu': '08:00 - 23:00', 'Ven': '08:00 - 23:00', 'Sam': '08:00 - 23:00', 'Dim': '08:00 - 23:00'}}",,93300,,,https://o-tacos.com/nos-restos
4 rue gresset,Otacos,AMIENS,France,"{'brand': 'otacos', 'fascia': 'otacos', 'category': 'Restaurant', 'edit_date': '2025-03-19', 'lat_lon_source': 'website'}",49.893954300000000000,2.294766800000000000,AMIENS CENTRE VILLE,"{'opening_hours': {'Lun': '11:00 - 21:30', 'Mar': '11:00 - 21:30', 'Mer': '11:00 - 21:30', 'Jeu': '11:00 - 21:30', 'Ven': '11:00 - 21:30', 'Sam': '12:00 - 21:30', 'Dim': '18:30 - 21:30'}}",,80000,,,https://o-tacos.com/nos-restos
46 rue Gabriel Peri,Otacos,COLOMBES,France,"{'brand': 'otacos', 'fascia': 'otacos', 'category': 'Restaurant', 'edit_date': '2025-03-19', 'lat_lon_source': 'website'}",48.922866400000000000,2.247933200000000000,COLOMBES GABRIEL PERI,"{'opening_hours': {'Lun': 'Fermé ', 'Mar': 'Fermé', 'Mer': ' Fermé', 'Jeu': 'Fermé', 'Ven': 'Fermé', 'Sam': 'Fermé', 'Dim': 'Fermé'}}",,92700,,,https://o-tacos.com/nos-restos
"0 Route de Villoison, Centre commercial Villabé",Otacos,VILLABE,France,"{'brand': 'otacos', 'fascia': 'otacos', 'category': 'Restaurant', 'edit_date': '2025-03-19', 'lat_lon_source': 'website'}",48.584191000000000000,2.449806900000000000,VILLABE VOILLOISON,"{'opening_hours': {'Lun': '10:00 - 21:20', 'Mar': '10:00 - 21:20', 'Mer': '10:00 - 21:20', 'Jeu': '10:00 - 21:20', 'Ven': '10:00 - 21:20', 'Sam': '10:00 - 21:20', 'Dim': '10:00 - 19:45'}}",,91100,,,https://o-tacos.com/nos-restos
48 rue de la République,Otacos,ROUEN,France,"{'brand': 'otacos', 'fascia': 'otacos', 'category': 'Restaurant', 'edit_date': '2025-03-19', 'lat_lon_source': 'website'}",49.439632100000000000,1.097301500000000000,ROUEN RIVE DROITE,"{'opening_hours': {'Lun': '11:30 - 23:00', 'Mar': '11:30 - 23:00', 'Mer': '11:30 - 23:00', 'Jeu': '11:30 - 00:00', 'Ven': '11:30 - 00:00', 'Sam': '11:30 - 00:00', 'Dim': '11:30 - 23:00'}}",,76000,,,https://o-tacos.com/nos-restos
190 route nationale,Otacos,LIMAY,France,"{'brand': 'otacos', 'fascia': 'otacos', 'category': 'Restaurant', 'edit_date': '2025-03-19', 'lat_lon_source': 'website'}",48.989757000000000000,1.755411300000000000,LIMAY ROUTE NATIONALE,"{'opening_hours': {'Lun': '11:00 - 21:45', 'Mar': '11:00 - 21:45', 'Mer': '11:00 - 21:45', 'Jeu': '11:00 - 21:45', 'Ven': '11:00 - 21:45', 'Sam': '11:00 - 21:45', 'Dim': '11:15 - 22:45'}}",,78520,,,https://o-tacos.com/nos-restos
32 COURS BRIAND,Otacos,CHARLEVILLE,France,"{'brand': 'otacos', 'fascia': 'otacos', 'category': 'Restaurant', 'edit_date': '2025-03-19', 'lat_lon_source': 'website'}",49.769022800000000000,4.719027400000000000,CHARLEVILLE MEZIERES DE GAULLE,"{'opening_hours': {'Lun': '11:00 - 23:15', 'Mar': '11:00 - 23:15', 'Mer': '11:00 - 23:15', 'Jeu': '11:00 - 23:15', 'Ven': '11:00 - 23:45', 'Sam': '11:00 - 23:45', 'Dim': '12:00 - 23:15'}}",,8000,,,https://o-tacos.com/nos-restos
14 ue de la Résistance,Otacos,ANNEMASSE,France,"{'brand': 'otacos', 'fascia': 'otacos', 'category': 'Restaurant', 'edit_date': '2025-03-19', 'lat_lon_source': 'website'}",46.195557500000000000,6.253647800000000000,ANNEMASSE RESISTANCE,"{'opening_hours': {'Lun': '11:00 - 21:00', 'Mar': '11:00 - 21:00', 'Mer': '11:00 - 21:00', 'Jeu': '11:00 - 21:00', 'Ven': '11:00 - 21:00', 'Sam': '11:00 - 21:00', 'Dim': 'Fermé'}}",,74100,,,https://o-tacos.com/nos-restos
135 avenue Gabriel Péri,Otacos,BEZONS,France,"{'brand': 'otacos', 'fascia': 'otacos', 'category': 'Restaurant', 'edit_date': '2025-03-19', 'lat_lon_source': 'website'}",48.934490700000000000,2.208663100000000000,BEZONS GABRIEL PERI,"{'opening_hours': {'Lun': '11:30 - 00:00', 'Mar': '11:30 - 00:00', 'Mer': '11:30 - 00:00', 'Jeu': '11:30 - 00:00', 'Ven': '11:30 - 00:00', 'Sam': '11:30 - 00:00', 'Dim': '11:30 - 00:00'}}",,95870,,,https://o-tacos.com/nos-restos
0 Boulevard Général de Gaulle,Otacos,NANTES,France,"{'brand': 'otacos', 'fascia': 'otacos', 'category': 'Restaurant', 'edit_date': '2025-03-19', 'lat_lon_source': 'website'}",47.208624600000000000,-1.540743300000000000,NANTES BEAULIEU,"{'opening_hours': {'Lun': '11:00 - 22:00', 'Mar': '11:00 - 22:00', 'Mer': '11:00 - 22:00', 'Jeu': '11:00 - 22:00', 'Ven': '11:00 - 22:00', 'Sam': '11:00 - 22:00', 'Dim': '11:00 - 22:00'}}",,44000,,,https://o-tacos.com/nos-restos
0 Centre commercial B'Est,Otacos,FAREBERSVILLER,France,"{'brand': 'otacos', 'fascia': 'otacos', 'category': 'Restaurant', 'edit_date': '2025-03-19', 'lat_lon_source': 'website'}",49.114871000000000000,6.854733200000000000,FAREBERSVILLER BEST,"{'opening_hours': {'Lun': '11:00 - 23:00', 'Mar': '11:00 - 23:00', 'Mer': '11:00 - 23:00', 'Jeu': '11:00 - 23:00', 'Ven': '11:00 - 23:00', 'Sam': '11:00 - 23:00', 'Dim': '11:30 - 23:00'}}",,57450,,,https://o-tacos.com/nos-restos
50 rue du Taur,Otacos,TOULOUSE,France,"{'brand': 'otacos', 'fascia': 'otacos', 'category': 'Restaurant', 'edit_date': '2025-03-19', 'lat_lon_source': 'website'}",43.606857400000000000,1.442437700000000000,TOULOUSE TAUR,"{'opening_hours': {'Lun': '11:00 - 23:30', 'Mar': '11:00 - 23:30', 'Mer': '10:00 - 23:30', 'Jeu': '11:00 - 23:00', 'Ven': '11:00 - 02:00', 'Sam': '11:00 - 03:00', 'Dim': '11:00 - 02:00'}}",,31000,,,https://o-tacos.com/nos-restos
24 Boulevard Général de Gaulle,Otacos,VALENCE,France,"{'brand': 'otacos', 'fascia': 'otacos', 'category': 'Restaurant', 'edit_date': '2025-03-19', 'lat_lon_source': 'website'}",44.930179900000000000,4.893263800000000000,VALENCE DE GAULLE,"{'opening_hours': {'Lun': '11:00 - 00:00', 'Mar': '11:00 - 00:00', 'Mer': '11:00 - 00:00', 'Jeu': '11:00 - 00:00', 'Ven': '11:00 - 00:00', 'Sam': '11:00 - 00:00', 'Dim': '11:00 - 00:00'}}",,26000,,,https://o-tacos.com/nos-restos
24 rue deguingand,Otacos,LEVALLOIS,France,"{'brand': 'otacos', 'fascia': 'otacos', 'category': 'Restaurant', 'edit_date': '2025-03-19', 'lat_lon_source': 'website'}",48.893339700000000000,2.298427800000000000,LEVALLOIS PERRET DEGUINGAND,"{'opening_hours': {'Lun': '11:00 - 23:00', 'Mar': '11:00 - 23:00', 'Mer': '11:00 - 23:00', 'Jeu': '11:00 - 23:00', 'Ven': '11:00 - 23:00', 'Sam': '11:00 - 23:00', 'Dim': '11:00 - 23:00'}}",,92300,,,https://o-tacos.com/nos-restos
6 Boulevard Saint Michel,Otacos,BOURGOIN,France,"{'brand': 'otacos', 'fascia': 'otacos', 'category': 'Restaurant', 'edit_date': '2025-03-19', 'lat_lon_source': 'website'}",45.589711900000000000,5.276227400000000000,BOURGOIN JALLIEU SAINT MICHEL,"{'opening_hours': {'Lun': '11:00 - 22:00', 'Mar': '11:00 - 22:00', 'Mer': '11:00 - 22:00', 'Jeu': '11:00 - 22:00', 'Ven': '11:00 - 23:00', 'Sam': '11:00 - 23:00', 'Dim': '12:00 - 22:00'}}",,38300,,,https://o-tacos.com/nos-restos
0 Rue des Abattoirs,Otacos,SAINT,France,"{'brand': 'otacos', 'fascia': 'otacos', 'category': 'Restaurant', 'edit_date': '2025-03-19', 'lat_lon_source': 'website'}",45.240818500000000000,5.662673300000000000,SAINT EGREVE ABATTOIRS,"{'opening_hours': {'Lun': '11:30 - 21:30', 'Mar': '11:30 - 21:30', 'Mer': '11:30 - 21:30', 'Jeu': '11:30 - 21:30', 'Ven': '11:30 - 21:30', 'Sam': '11:30 - 21:30', 'Dim': '12:00 - 21:30'}}",,38120,,,https://o-tacos.com/nos-restos
12 cours Sextius,Otacos,AIX,France,"{'brand': 'otacos', 'fascia': 'otacos', 'category': 'Restaurant', 'edit_date': '2025-03-19', 'lat_lon_source': 'website'}",43.676828421968000000,5.430370331848900000,AIX EN PROVENCE SEXTIUS,"{'opening_hours': {'Lun': '11:30 - 22:00', 'Mar': '11:30 - 22:00', 'Mer': '11:30 - 22:00', 'Jeu': '11:30 - 22:00', 'Ven': '11:30 - 22:00', 'Sam': '11:30 - 22:00', 'Dim': '11:30 - 22:00'}}",,13100,,,https://o-tacos.com/nos-restos
571 cours de la libération,Otacos,TALENCE,France,"{'brand': 'otacos', 'fascia': 'otacos', 'category': 'Restaurant', 'edit_date': '2025-03-19', 'lat_lon_source': 'website'}",44.800918100000000000,-0.595664200000000000,TALENCE LIBERATION,"{'opening_hours': {'Lun': '11:00 - 04:00', 'Mar': '11:00 - 04:00', 'Mer': '11:00 - 04:00', 'Jeu': '11:00 - 04:00', 'Ven': '11:00 - 05:00', 'Sam': '12:00 - 05:00', 'Dim': '12:00 - 04:00'}}",,33400,,,https://o-tacos.com/nos-restos
23 Rue Grenouilla,Otacos,AGEN,France,"{'brand': 'otacos', 'fascia': 'otacos', 'category': 'Restaurant', 'edit_date': '2025-03-19', 'lat_lon_source': 'website'}",44.204950600000000000,0.620336900000000000,AGEN GRENOUILLA,"{'opening_hours': {'Lun': '11:00 - 23:30', 'Mar': '11:00 - 23:30', 'Mer': '11:00 - 23:30', 'Jeu': '11:00 - 23:30', 'Ven': '11:00 - 23:30', 'Sam': '11:00 - 23:30', 'Dim': '11:00 - 23:30'}}",,47000,,,https://o-tacos.com/nos-restos
30 rue thiers,Otacos,VANNES,France,"{'brand': 'otacos', 'fascia': 'otacos', 'category': 'Restaurant', 'edit_date': '2025-03-19', 'lat_lon_source': 'website'}",47.657330500000000000,-2.759639600000000000,VANNES THIERS,"{'opening_hours': {'Lun': 'Fermé ', 'Mar': 'Fermé', 'Mer': ' Fermé', 'Jeu': 'Fermé', 'Ven': 'Fermé', 'Sam': 'Fermé', 'Dim': 'Fermé'}}",,56000,,,https://o-tacos.com/nos-restos
11 cours Ladoucette,Otacos,GAP,France,"{'brand': 'otacos', 'fascia': 'otacos', 'category': 'Restaurant', 'edit_date': '2025-03-19', 'lat_lon_source': 'website'}",44.561827700000000000,6.083314800000000000,GAP LADOUCETTE,"{'opening_hours': {'Lun': '10:30 - 22:00', 'Mar': '11:00 - 22:00', 'Mer': '11:00 - 22:00', 'Jeu': '11:00 - 22:00', 'Ven': '11:00 - 22:00', 'Sam': '11:00 - 22:00', 'Dim': '11:00 - 22:00'}}",,5000,,,https://o-tacos.com/nos-restos
60 Avenue Pierre Brossolette,Otacos,MONTROUGE,France,"{'brand': 'otacos', 'fascia': 'otacos', 'category': 'Restaurant', 'edit_date': '2025-03-19', 'lat_lon_source': 'website'}",48.820660500000000000,2.312126800000000000,MONTROUGE BROSSOLETTE,"{'opening_hours': {'Lun': '11:00 - 00:00', 'Mar': '11:00 - 00:00', 'Mer': '11:00 - 00:00', 'Jeu': '11:00 - 00:00', 'Ven': '11:00 - 00:00', 'Sam': '11:00 - 00:00', 'Dim': '11:00 - 00:00'}}",,92120,,,https://o-tacos.com/nos-restos
50 rue joubert,Otacos,AUXERRE,France,"{'brand': 'otacos', 'fascia': 'otacos', 'category': 'Restaurant', 'edit_date': '2025-03-19', 'lat_lon_source': 'website'}",47.795297400000000000,3.573174200000000000,AUXERRE JOUBERT,"{'opening_hours': {'Lun': '11:30 - 23:20', 'Mar': '11:30 - 23:20', 'Mer': '11:30 - 23:20', 'Jeu': '11:30 - 23:30', 'Ven': '11:30 - 23:50', 'Sam': '11:30 - 23:50', 'Dim': '11:30 - 23:20'}}",,89000,,,https://o-tacos.com/nos-restos
0 place jules morgan,Otacos,SALON,France,"{'brand': 'otacos', 'fascia': 'otacos', 'category': 'Restaurant', 'edit_date': '2025-03-19', 'lat_lon_source': 'website'}",43.638840500000000000,5.094053900000000000,SALON DE PROVENCE JULES MORGAN,"{'opening_hours': {'Lun': '11:00 - 23:00', 'Mar': '11:00 - 21:00', 'Mer': '12:30 - 23:00', 'Jeu': '11:00 - 23:00', 'Ven': '11:30 - 23:30', 'Sam': '11:30 - 23:30', 'Dim': '12:30 - 23:00'}}",,13300,,,https://o-tacos.com/nos-restos
39 place d'erlon,Otacos,REIMS,France,"{'brand': 'otacos', 'fascia': 'otacos', 'category': 'Restaurant', 'edit_date': '2025-03-19', 'lat_lon_source': 'website'}",49.255259700000000000,4.026834900000000000,REIMS ERLON,"{'opening_hours': {'Lun': '11:00 - 00:00', 'Mar': '11:00 - 00:00', 'Mer': '11:00 - 00:00', 'Jeu': '11:00 - 00:00', 'Ven': '11:00 - 01:00', 'Sam': '11:00 - 00:00', 'Dim': '11:00 - 00:00'}}",,51100,,,https://o-tacos.com/nos-restos
9 Rue de la République,Otacos,PONTARLIER,France,"{'brand': 'otacos', 'fascia': 'otacos', 'category': 'Restaurant', 'edit_date': '2025-03-19', 'lat_lon_source': 'website'}",46.902685700000000000,6.357499800000000000,PONTARLIER REPUBLIQUE,"{'opening_hours': {'Lun': '11:00 - 22:00', 'Mar': '11:00 - 22:00', 'Mer': '11:00 - 22:00', 'Jeu': '09:00 - 22:00', 'Ven': '11:00 - 23:00', 'Sam': '11:00 - 23:00', 'Dim': '12:00 - 22:00'}}",,25300,,,https://o-tacos.com/nos-restos
201 Rue des Girondins,Otacos,SAINT,France,"{'brand': 'otacos', 'fascia': 'otacos', 'category': 'Restaurant', 'edit_date': '2025-03-19', 'lat_lon_source': 'website'}",49.233137600000000000,2.464322900000000000,SAINT MAXIMIN GIRONDINS,"{'opening_hours': {'Lun': '11:00 - 22:30', 'Mar': '11:00 - 22:30', 'Mer': '11:00 - 22:30', 'Jeu': '11:00 - 22:30', 'Ven': '11:00 - 22:30', 'Sam': '11:00 - 22:30', 'Dim': '11:00 - 22:30'}}",,60740,,,https://o-tacos.com/nos-restos
39 Rue Jean Jaurès,Otacos,LIMOGES,France,"{'brand': 'otacos', 'fascia': 'otacos', 'category': 'Restaurant', 'edit_date': '2025-03-19', 'lat_lon_source': 'website'}",45.831316500000000000,1.258653700000000000,LIMOGES JEAN JAURES,"{'opening_hours': {'Lun': '11:00 - 23:00', 'Mar': '11:00 - 23:00', 'Mer': '11:00 - 23:00', 'Jeu': '11:00 - 23:00', 'Ven': '11:00 - 23:00', 'Sam': '11:00 - 23:00', 'Dim': '11:00 - 23:00'}}",,87000,,,https://o-tacos.com/nos-restos
49 Rue Madeleine Michelis,Otacos,NEUILLY,France,"{'brand': 'otacos', 'fascia': 'otacos', 'category': 'Restaurant', 'edit_date': '2025-03-19', 'lat_lon_source': 'website'}",48.884637600000000000,2.278181900000000000,NEUILLY SUR SEINE MICHELIS,"{'opening_hours': {'Lun': 'Fermé ', 'Mar': 'Fermé', 'Mer': ' Fermé', 'Jeu': 'Fermé', 'Ven': 'Fermé', 'Sam': 'Fermé', 'Dim': 'Fermé'}}",,92200,,,https://o-tacos.com/nos-restos
0 AVENUE SAINT TRONQUET,Otacos,LE,France,"{'brand': 'otacos', 'fascia': 'otacos', 'category': 'Restaurant', 'edit_date': '2025-03-19', 'lat_lon_source': 'website'}",43.981094500000000000,4.874041000000000000,LE PONTET SAINT TRONQUET,"{'opening_hours': {'Lun': '11:45 - 22:00', 'Mar': '11:30 - 22:00', 'Mer': '11:30 - 22:00', 'Jeu': '11:45 - 22:00', 'Ven': '11:30 - 22:30', 'Sam': '11:30 - 22:30', 'Dim': '11:30 - 22:00'}}",,84130,,,https://o-tacos.com/nos-restos
33 avenue Thomas Woodrow Wilson,Otacos,BELFORT,France,"{'brand': 'otacos', 'fascia': 'otacos', 'category': 'Restaurant', 'edit_date': '2025-03-19', 'lat_lon_source': 'website'}",47.643760400000000000,6.843705300000000000,BELFORT WILSON,"{'opening_hours': {'Lun': '11:00 - 23:00', 'Mar': '11:00 - 23:00', 'Mer': '11:00 - 23:00', 'Jeu': '11:00 - 23:00', 'Ven': '11:00 - 23:00', 'Sam': '11:00 - 23:00', 'Dim': '11:00 - 23:00'}}",,9000,,,https://o-tacos.com/nos-restos
10 Centre commercial 4 Pavillons Rue Edouard Herriot,Otacos,LORMONT,France,"{'brand': 'otacos', 'fascia': 'otacos', 'category': 'Restaurant', 'edit_date': '2025-03-19', 'lat_lon_source': 'website'}",44.864471800000000000,-0.521747600000000000,LORMONT PAVILLONS,"{'opening_hours': {'Lun': '11:00 - 22:30', 'Mar': '11:00 - 22:30', 'Mer': '11:00 - 22:30', 'Jeu': '11:00 - 22:30', 'Ven': '11:00 - 22:30', 'Sam': '11:30 - 22:30', 'Dim': '18:30 - 22:35'}}",,33310,,,https://o-tacos.com/nos-restos
62 Grand’Place,Otacos,ARRAS,France,"{'brand': 'otacos', 'fascia': 'otacos', 'category': 'Restaurant', 'edit_date': '2025-03-19', 'lat_lon_source': 'website'}",50.292348200000000000,2.781157100000000000,ARRAS GRAND PLACE,"{'opening_hours': {'Lun': '11:00 - 00:00', 'Mar': '11:00 - 00:00', 'Mer': '11:00 - 00:00', 'Jeu': '11:00 - 02:00', 'Ven': '11:00 - 02:00', 'Sam': '11:00 - 02:00', 'Dim': '11:00 - 00:00'}}",,62000,,,https://o-tacos.com/nos-restos
19 rue Alexandre Roche,Otacos,ROANNE,France,"{'brand': 'otacos', 'fascia': 'otacos', 'category': 'Restaurant', 'edit_date': '2025-03-19', 'lat_lon_source': 'website'}",46.041751500000000000,4.072748300000000000,ROANNE ALEXANDRE ROCHE,"{'opening_hours': {'Lun': '11:00 - 23:00', 'Mar': '11:00 - 23:00', 'Mer': '11:00 - 23:00', 'Jeu': '11:00 - 23:00', 'Ven': '11:00 - 23:00', 'Sam': '11:00 - 23:00', 'Dim': '11:00 - 23:00'}}",,42300,,,https://o-tacos.com/nos-restos
30 AVENUE DU MARECHAL MAUNOURY,Otacos,Blois,France,"{'brand': 'otacos', 'fascia': 'otacos', 'category': 'Restaurant', 'edit_date': '2025-03-19', 'lat_lon_source': 'website'}",47.592416700000000000,1.335461000000000000,BLOIS MAUNOURY,"{'opening_hours': {'Lun': '11:00 - 14:00', 'Mar': '11:00 - 14:00', 'Mer': '11:00 - 14:00', 'Jeu': '17:30 - 22:00', 'Ven': '17:30 - 22:30', 'Sam': '17:30 - 22:30', 'Dim': '17:30 - 22:30'}}",,41000,,,https://o-tacos.com/nos-restos
5 place Colbert,Otacos,SAINT,France,"{'brand': 'otacos', 'fascia': 'otacos', 'category': 'Restaurant', 'edit_date': '2025-03-19', 'lat_lon_source': 'website'}",48.783950200000000000,2.040361600000000000,ST QUENTIN EN YVELINES COLBERT,"{'opening_hours': {'Lun': 'Fermé ', 'Mar': 'Fermé', 'Mer': ' Fermé', 'Jeu': 'Fermé', 'Ven': 'Fermé', 'Sam': 'Fermé', 'Dim': 'Fermé'}}",,78180,,,https://o-tacos.com/nos-restos
41 rue Guillaume de Machaut,Otacos,LA,France,"{'brand': 'otacos', 'fascia': 'otacos', 'category': 'Restaurant', 'edit_date': '2025-03-19', 'lat_lon_source': 'website'}",46.686701100000000000,-1.430638200000000000,LA ROCHE SUR YON NORD,"{'opening_hours': {'Lun': '11:00 - 22:00', 'Mar': '11:00 - 22:00', 'Mer': '11:00 - 22:00', 'Jeu': '11:00 - 22:00', 'Ven': '11:00 - 23:00', 'Sam': '11:00 - 23:00', 'Dim': '12:00 - 22:00'}}",,85000,,,https://o-tacos.com/nos-restos
114 rue Mirande,Otacos,Dijon,France,"{'brand': 'otacos', 'fascia': 'otacos', 'category': 'Restaurant', 'edit_date': '2025-03-19', 'lat_lon_source': 'website'}",47.316980400000000000,5.064272300000000000,DIJON MIRANDE,"{'opening_hours': {'Lun': '11:00 - 23:00', 'Mar': '11:00 - 23:00', 'Mer': '11:00 - 23:00', 'Jeu': '11:00 - 23:00', 'Ven': '11:00 - 23:00', 'Sam': '11:00 - 23:00', 'Dim': '11:00 - 23:00'}}",,21000,,,https://o-tacos.com/nos-restos
58 GRANDE RUE,Otacos,SENS,France,"{'brand': 'otacos', 'fascia': 'otacos', 'category': 'Restaurant', 'edit_date': '2025-03-19', 'lat_lon_source': 'website'}",48.196886300000000000,3.279615500000000000,SENS GRANDE RUE,"{'opening_hours': {'Lun': '11:00 - 23:00', 'Mar': '11:00 - 23:00', 'Mer': '11:00 - 23:00', 'Jeu': '11:05 - 23:00', 'Ven': '11:00 - 23:00', 'Sam': '11:00 - 23:00', 'Dim': '11:00 - 22:20'}}",,89100,,,https://o-tacos.com/nos-restos
2 Rue des Messageries,Otacos,Metz,France,"{'brand': 'otacos', 'fascia': 'otacos', 'category': 'Restaurant', 'edit_date': '2025-03-19', 'lat_lon_source': 'website'}",49.105051300000000000,6.182307000000000000,METZ MUSE,"{'opening_hours': {'Lun': '11:00 - 21:30', 'Mar': '11:00 - 21:30', 'Mer': '11:00 - 21:30', 'Jeu': '11:00 - 21:30', 'Ven': '11:00 - 21:30', 'Sam': '11:00 - 21:30', 'Dim': '11:00 - 21:30'}}",,57000,,,https://o-tacos.com/nos-restos
27 Rue Marc Verdier,Otacos,PONT,France,"{'brand': 'otacos', 'fascia': 'otacos', 'category': 'Restaurant', 'edit_date': '2025-03-19', 'lat_lon_source': 'website'}",48.326870400000000000,4.110786100000000000,PONT SAINTE MARIE VERDIER,"{'opening_hours': {'Lun': '11:30 - 22:00', 'Mar': '11:30 - 22:00', 'Mer': '11:30 - 22:00', 'Jeu': '11:30 - 22:00', 'Ven': '11:30 - 22:00', 'Sam': '11:30 - 22:00', 'Dim': '12:00 - 22:00'}}",,10150,,,https://o-tacos.com/nos-restos
71 ROUTE DE BEAUREPAIRE,Otacos,LES,France,"{'brand': 'otacos', 'fascia': 'otacos', 'category': 'Restaurant', 'edit_date': '2025-03-19', 'lat_lon_source': 'website'}",46.873967600000000000,-1.022031200000000000,LES HERBIERS BEAUREPAIRE,"{'opening_hours': {'Lun': '11:25 - 14:00', 'Mar': '18:00 - 20:45', 'Mer': '18:00 - 20:45', 'Jeu': '18:00 - 20:45', 'Ven': '11:25 - 14:30', 'Sam': '12:00 - 14:45', 'Dim': '17:45 - 20:45'}}",,85500,,,https://o-tacos.com/nos-restos
35 AVENUE FRANCOIS MITTERRAND,Otacos,NICE,France,"{'brand': 'otacos', 'fascia': 'otacos', 'category': 'Restaurant', 'edit_date': '2025-03-19', 'lat_lon_source': 'website'}",43.709863000000000000,7.290680600000000000,NICE FRANCOIS MITTERRAND,"{'opening_hours': {'Lun': '11:00 - 00:00', 'Mar': '11:00 - 00:00', 'Mer': '11:00 - 00:00', 'Jeu': '11:00 - 00:00', 'Ven': '11:00 - 01:00', 'Sam': '11:00 - 01:00', 'Dim': '11:00 - 01:00'}}",,6300,,,https://o-tacos.com/nos-restos
83 Grande Rue,Otacos,BOULOGNE,France,"{'brand': 'otacos', 'fascia': 'otacos', 'category': 'Restaurant', 'edit_date': '2025-03-19', 'lat_lon_source': 'website'}",50.724221400000000000,1.607748500000000000,BOULOGNE SUR MER GRANDE RUE,"{'opening_hours': {'Lun': '11:00 - 22:30', 'Mar': '11:00 - 22:30', 'Mer': '11:00 - 23:00', 'Jeu': '11:00 - 23:00', 'Ven': '11:00 - 00:00', 'Sam': '11:00 - 00:00', 'Dim': '11:30 - 23:00'}}",,62200,,,https://o-tacos.com/nos-restos
0 Centre Commercial La Lézarde,Otacos,MONTIVILLIERS,France,"{'brand': 'otacos', 'fascia': 'otacos', 'category': 'Restaurant', 'edit_date': '2025-03-19', 'lat_lon_source': 'website'}",49.526772100000000000,0.190920500000000000,MONTIVILLIERS LA LEZARDE,"{'opening_hours': {'Lun': 'Fermé ', 'Mar': 'Fermé', 'Mer': ' Fermé', 'Jeu': 'Fermé', 'Ven': 'Fermé', 'Sam': 'Fermé', 'Dim': 'Fermé'}}",,76290,,,https://o-tacos.com/nos-restos
0 PLACE DU COLOMBIER,Otacos,RENNES,France,"{'brand': 'otacos', 'fascia': 'otacos', 'category': 'Restaurant', 'edit_date': '2025-03-19', 'lat_lon_source': 'website'}",48.104903400000000000,-1.678646900000000000,RENNES COLOMBIA,"{'opening_hours': {'Lun': 'Fermé ', 'Mar': 'Fermé', 'Mer': ' Fermé', 'Jeu': 'Fermé', 'Ven': 'Fermé', 'Sam': 'Fermé', 'Dim': 'Fermé'}}",,35000,,,https://o-tacos.com/nos-restos
0 RN19 Centre Commercial Eden,Otacos,SERVON,France,"{'brand': 'otacos', 'fascia': 'otacos', 'category': 'Restaurant', 'edit_date': '2025-03-19', 'lat_lon_source': 'website'}",48.708381700000000000,2.585830000000000000,SERVON EDEN,"{'opening_hours': {'Lun': '18:00 - 21:30', 'Mar': '12:00 - 14:30', 'Mer': '12:00 - 21:30', 'Jeu': '18:00 - 21:30', 'Ven': '18:00 - 22:00', 'Sam': '12:00 - 22:00', 'Dim': '12:00 - 21:30'}}",,77170,,,https://o-tacos.com/nos-restos
0 Gare de Châtelet les Halles,Otacos,PARIS,France,"{'brand': 'otacos', 'fascia': 'otacos', 'category': 'Restaurant', 'edit_date': '2025-03-19', 'lat_lon_source': 'website'}",48.862050800000000000,2.347153200000000000,PARIS CHATELET METRO,"{'opening_hours': {'Lun': 'Fermé ', 'Mar': 'Fermé', 'Mer': ' Fermé', 'Jeu': 'Fermé', 'Ven': 'Fermé', 'Sam': 'Fermé', 'Dim': 'Fermé'}}",,75001,,,https://o-tacos.com/nos-restos
42 avenue de la republique,Otacos,SAINT,France,"{'brand': 'otacos', 'fascia': 'otacos', 'category': 'Restaurant', 'edit_date': '2025-03-19', 'lat_lon_source': 'website'}",47.278015200000000000,-2.211988300000000000,SAINT NAZAIRE REPUBLIQUE,"{'opening_hours': {'Lun': '11:00 - 23:00', 'Mar': '11:00 - 23:00', 'Mer': '11:00 - 23:00', 'Jeu': '11:00 - 23:00', 'Ven': '11:00 - 23:00', 'Sam': '11:00 - 23:00', 'Dim': '11:00 - 23:00'}}",,44600,,,https://o-tacos.com/nos-restos
0 RUE DU COMMERCE,Otacos,EPAGNY,France,"{'brand': 'otacos', 'fascia': 'otacos', 'category': 'Restaurant', 'edit_date': '2025-03-19', 'lat_lon_source': 'website'}",45.939512900000000000,6.074212500000000000,EPAGNY COMMERCE,"{'opening_hours': {'Lun': '11:30 - 21:15', 'Mar': '11:30 - 21:15', 'Mer': '11:30 - 21:15', 'Jeu': '11:30 - 21:15', 'Ven': '11:30 - 21:15', 'Sam': '11:30 - 21:15', 'Dim': '11:30 - 21:30'}}",,74330,,,https://o-tacos.com/nos-restos
550 AVENUE GEORGES POMPIDOU,Otacos,GILLY,France,"{'brand': 'otacos', 'fascia': 'otacos', 'category': 'Restaurant', 'edit_date': '2025-03-19', 'lat_lon_source': 'website'}",45.656142000000000000,6.364427800000000000,GILLY SUR ISERE POMPIDOU,"{'opening_hours': {'Lun': '11:00 - 22:30', 'Mar': '11:00 - 22:30', 'Mer': '11:00 - 22:30', 'Jeu': '11:00 - 22:30', 'Ven': '11:00 - 22:30', 'Sam': '11:00 - 22:30', 'Dim': '11:00 - 22:30'}}",,73200,,,https://o-tacos.com/nos-restos
137 Rue nationale,Otacos,CHOLET,France,"{'brand': 'otacos', 'fascia': 'otacos', 'category': 'Restaurant', 'edit_date': '2025-03-19', 'lat_lon_source': 'website'}",47.061880100000000000,-0.881786700000000000,CHOLET NATIONALE,"{'opening_hours': {'Lun': '11:30 - 21:25', 'Mar': '11:30 - 21:30', 'Mer': '11:30 - 21:25', 'Jeu': '11:30 - 21:25', 'Ven': '11:30 - 21:50', 'Sam': '11:30 - 21:50', 'Dim': '12:00 - 21:20'}}",,49300,,,https://o-tacos.com/nos-restos
7 AVENUE JEAN MABUSE,Otacos,MAUBEUGE,France,"{'brand': 'otacos', 'fascia': 'otacos', 'category': 'Restaurant', 'edit_date': '2025-03-19', 'lat_lon_source': 'website'}",50.277546400000000000,3.973709000000000000,MAUBEUGE JEAN MABUSE,"{'opening_hours': {'Lun': '11:00 - 23:00', 'Mar': '11:00 - 23:00', 'Mer': '11:00 - 23:00', 'Jeu': '11:00 - 23:00', 'Ven': '11:00 - 23:30', 'Sam': '11:00 - 23:30', 'Dim': '11:00 - 23:30'}}",,59600,,,https://o-tacos.com/nos-restos
3 avenue de Colmar,Otacos,MULHOUSE,France,"{'brand': 'otacos', 'fascia': 'otacos', 'category': 'Restaurant', 'edit_date': '2025-03-19', 'lat_lon_source': 'website'}",47.750239500000000000,7.338386900000000000,MULHOUSE AVENUE DE COLMAR,"{'opening_hours': {'Lun': '11:15 - 21:15', 'Mar': '11:15 - 21:15', 'Mer': '11:15 - 21:15', 'Jeu': '11:15 - 21:15', 'Ven': '11:15 - 21:15', 'Sam': '11:15 - 21:15', 'Dim': '11:15 - 21:15'}}",,68200,,,https://o-tacos.com/nos-restos
3 CARREFOUR DE L'HOURS,Otacos,Béziers,France,"{'brand': 'otacos', 'fascia': 'otacos', 'category': 'Restaurant', 'edit_date': '2025-03-19', 'lat_lon_source': 'website'}",43.335554600000000000,3.225517800000000000,BEZIERS POLYGONE,"{'opening_hours': {'Lun': '11:20 - 21:50', 'Mar': '11:20 - 21:50', 'Mer': '11:20 - 21:50', 'Jeu': '11:20 - 21:50', 'Ven': '11:20 - 22:50', 'Sam': '11:20 - 22:50', 'Dim': '11:50 - 21:50'}}",,34500,,,https://o-tacos.com/nos-restos
0 Espace Nayel,Otacos,LORIENT,France,"{'brand': 'otacos', 'fascia': 'otacos', 'category': 'Restaurant', 'edit_date': '2025-03-19', 'lat_lon_source': 'website'}",47.746901000000000000,-3.362093000000000000,LORIENT NAYEL,"{'opening_hours': {'Lun': '11:00 - 23:00', 'Mar': '11:00 - 23:00', 'Mer': '11:00 - 23:00', 'Jeu': '11:00 - 23:00', 'Ven': '11:00 - 23:00', 'Sam': '11:00 - 23:00', 'Dim': '11:00 - 23:00'}}",,56100,,,https://o-tacos.com/nos-restos
8 esplanade de la République,Otacos,NIORT,France,"{'brand': 'otacos', 'fascia': 'otacos', 'category': 'Restaurant', 'edit_date': '2025-03-19', 'lat_lon_source': 'website'}",46.323789500000000000,-0.459431900000000000,NIORT REPUBLIQUE,"{'opening_hours': {'Lun': 'Fermé ', 'Mar': 'Fermé', 'Mer': ' Fermé', 'Jeu': 'Fermé', 'Ven': 'Fermé', 'Sam': 'Fermé', 'Dim': 'Fermé'}}",,79000,,,https://o-tacos.com/nos-restos
87 AVENUE FRANCOIS MITTERAND,Otacos,OLONNE,France,"{'brand': 'otacos', 'fascia': 'otacos', 'category': 'Restaurant', 'edit_date': '2025-03-19', 'lat_lon_source': 'website'}",46.515613200000000000,-1.777949000000000000,OLONNE SUR MER MITTERRAND,"{'opening_hours': {'Lun': '11:00 - 21:30', 'Mar': '11:00 - 21:30', 'Mer': '11:00 - 21:30', 'Jeu': '11:00 - 21:30', 'Ven': '11:00 - 22:00', 'Sam': '11:00 - 22:00', 'Dim': '12:00 - 21:30'}}",,85340,,,https://o-tacos.com/nos-restos
1 Place des Nations Unies,Otacos,SAINT,France,"{'brand': 'otacos', 'fascia': 'otacos', 'category': 'Restaurant', 'edit_date': '2025-03-19', 'lat_lon_source': 'website'}",45.694207200000000000,4.940602200000000000,SAINT PRIEST NATIONS UNIES,"{'opening_hours': {'Lun': '11:00 - 23:00', 'Mar': '11:00 - 23:00', 'Mer': '11:00 - 23:00', 'Jeu': '11:00 - 23:00', 'Ven': '11:00 - 23:00', 'Sam': '12:00 - 23:00', 'Dim': '12:00 - 23:00'}}",,69800,,,https://o-tacos.com/nos-restos
8 Avenue de Peterborough,Otacos,BOURGES,France,"{'brand': 'otacos', 'fascia': 'otacos', 'category': 'Restaurant', 'edit_date': '2025-03-19', 'lat_lon_source': 'website'}",47.087625400000000000,2.395967100000000000,BOURGES AVARICUM,"{'opening_hours': {'Lun': '11:30 - 22:20', 'Mar': '11:30 - 22:20', 'Mer': '11:30 - 22:20', 'Jeu': '11:30 - 22:20', 'Ven': '11:30 - 23:55', 'Sam': '11:30 - 23:55', 'Dim': '11:35 - 22:20'}}",,18000,,,https://o-tacos.com/nos-restos
157 BOULEVARD GUSTAVE FLAUBERT,Otacos,CLERMONT,France,"{'brand': 'otacos', 'fascia': 'otacos', 'category': 'Restaurant', 'edit_date': '2025-03-19', 'lat_lon_source': 'website'}",45.763111300000000000,3.126537200000000000,CLERMONT FERRAND FLAUBERT,"{'opening_hours': {'Lun': '11:00 - 23:00', 'Mar': '11:00 - 23:00', 'Mer': '11:00 - 23:00', 'Jeu': '11:00 - 23:00', 'Ven': '11:00 - 23:00', 'Sam': '11:00 - 23:00', 'Dim': '11:00 - 23:00'}}",,63000,,,https://o-tacos.com/nos-restos
160 ROUTE DE MARSEILLE,Otacos,MONTELIMAR,France,"{'brand': 'otacos', 'fascia': 'otacos', 'category': 'Restaurant', 'edit_date': '2025-03-19', 'lat_lon_source': 'website'}",44.539312500000000000,4.746221400000000000,MONTELIMAR ROUTE MARSEILLE,"{'opening_hours': {'Lun': '11:00 - 23:00', 'Mar': '11:00 - 23:00', 'Mer': '11:00 - 23:00', 'Jeu': '11:00 - 23:00', 'Ven': '11:00 - 23:00', 'Sam': '11:00 - 23:00', 'Dim': '11:00 - 23:00'}}",,26200,,,https://o-tacos.com/nos-restos
8 PLACE DE LA REVOLUTION,Otacos,Besançon,France,"{'brand': 'otacos', 'fascia': 'otacos', 'category': 'Restaurant', 'edit_date': '2025-03-19', 'lat_lon_source': 'website'}",47.239626400000000000,6.022109200000000000,BESANCON PLACE REVOLUTION,"{'opening_hours': {'Lun': '11:00 - 22:30', 'Mar': '11:00 - 22:30', 'Mer': '11:00 - 22:30', 'Jeu': '11:00 - 23:55', 'Ven': '11:00 - 23:55', 'Sam': '11:00 - 23:55', 'Dim': '11:00 - 22:30'}}",,25000,,,https://o-tacos.com/nos-restos
1 RUE DE LA RESISTANCE,Otacos,MONTAUBAN,France,"{'brand': 'otacos', 'fascia': 'otacos', 'category': 'Restaurant', 'edit_date': '2025-03-19', 'lat_lon_source': 'website'}",44.018239400000000000,1.355727800000000000,MONTAUBAN RESISTANCE,"{'opening_hours': {'Lun': '11:30 - 14:30', 'Mar': '11:30 - 22:30', 'Mer': '11:30 - 22:30', 'Jeu': '11:30 - 14:30', 'Ven': '09:00 - 23:00', 'Sam': '11:00 - 23:00', 'Dim': '11:30 - 14:30'}}",,82000,,,https://o-tacos.com/nos-restos
131 RUE EUGENE DUCRETET,Otacos,CHAMBERY,France,"{'brand': 'otacos', 'fascia': 'otacos', 'category': 'Restaurant', 'edit_date': '2025-03-19', 'lat_lon_source': 'website'}",45.595463700000000000,5.897214600000000000,CHAMBERY DUCRETET,"{'opening_hours': {'Lun': '11:00 - 23:30', 'Mar': '11:00 - 23:30', 'Mer': '11:00 - 23:55', 'Jeu': '11:00 - 23:55', 'Ven': '11:00 - 23:55', 'Sam': '11:00 - 23:55', 'Dim': '11:00 - 23:30'}}",,73000,,,https://o-tacos.com/nos-restos
4 PLACE DE LA GARE,Otacos,CANNES,France,"{'brand': 'otacos', 'fascia': 'otacos', 'category': 'Restaurant', 'edit_date': '2025-03-19', 'lat_lon_source': 'website'}",43.553973400000000000,7.019561500000000000,CANNES GARE,"{'opening_hours': {'Lun': 'Fermé ', 'Mar': 'Fermé', 'Mer': ' Fermé', 'Jeu': 'Fermé', 'Ven': 'Fermé', 'Sam': 'Fermé', 'Dim': 'Fermé'}}",,6400,,,https://o-tacos.com/nos-restos
81 RUE HENRY CHERON,Otacos,LISIEUX,France,"{'brand': 'otacos', 'fascia': 'otacos', 'category': 'Restaurant', 'edit_date': '2025-03-19', 'lat_lon_source': 'website'}",49.144960200000000000,0.224106300000000000,LISIEUX HENRY CHERON,"{'opening_hours': {'Lun': '11:00 - 22:00', 'Mar': '11:00 - 22:00', 'Mer': '11:00 - 22:00', 'Jeu': '11:00 - 22:00', 'Ven': '17:00 - 23:00', 'Sam': '11:00 - 23:00', 'Dim': '12:00 - 22:00'}}",,14100,,,https://o-tacos.com/nos-restos
46 Rue de la Marne,Otacos,CHALONS,France,"{'brand': 'otacos', 'fascia': 'otacos', 'category': 'Restaurant', 'edit_date': '2025-03-19', 'lat_lon_source': 'website'}",48.956162200000000000,4.359525400000000000,CHALONS EN CHAMPAGNE MARNE,"{'opening_hours': {'Lun': '11:00 - 23:00', 'Mar': '11:00 - 23:00', 'Mer': '11:00 - 23:00', 'Jeu': '11:00 - 23:00', 'Ven': '11:00 - 23:00', 'Sam': '11:00 - 23:00', 'Dim': '16:00 - 23:00'}}",,51000,,,https://o-tacos.com/nos-restos
17 Rue Dr Bouchut,Otacos,LYON,France,"{'brand': 'otacos', 'fascia': 'otacos', 'category': 'Restaurant', 'edit_date': '2025-03-19', 'lat_lon_source': 'website'}",45.762105800000000000,4.855705200000000000,LYON PART DIEU,"{'opening_hours': {'Lun': '11:00 - 22:00', 'Mar': '11:00 - 22:00', 'Mer': '11:00 - 22:00', 'Jeu': '11:00 - 22:00', 'Ven': '11:00 - 22:00', 'Sam': '11:00 - 22:00', 'Dim': '11:00 - 22:00'}}",,69003,,,https://o-tacos.com/nos-restos
26 RUE MONTMOREAU,Otacos,ANGOULEME,France,"{'brand': 'otacos', 'fascia': 'otacos', 'category': 'Restaurant', 'edit_date': '2025-03-19', 'lat_lon_source': 'website'}",45.648828600000000000,0.160955000000000000,ANGOULEME MONTMOREAU,"{'opening_hours': {'Lun': '11:30 - 23:00', 'Mar': '11:30 - 23:00', 'Mer': '11:30 - 23:00', 'Jeu': '11:30 - 23:00', 'Ven': '11:30 - 23:00', 'Sam': '11:30 - 23:00', 'Dim': '12:00 - 23:00'}}",,16000,,,https://o-tacos.com/nos-restos
2 AVENUE DE LA REPUBLIQUE,Otacos,VIERZON,France,"{'brand': 'otacos', 'fascia': 'otacos', 'category': 'Restaurant', 'edit_date': '2025-03-19', 'lat_lon_source': 'website'}",47.222433000000000000,2.067768200000000000,VIERZON REPUBLIQUE,"{'opening_hours': {'Lun': '11:00 - 14:00', 'Mar': '11:00 - 14:00', 'Mer': '18:00 - 22:00', 'Jeu': '18:00 - 22:00', 'Ven': '18:00 - 22:00', 'Sam': '11:00 - 14:00', 'Dim': '18:00 - 22:00'}}",,18100,,,https://o-tacos.com/nos-restos
19 RUE LADOUCETTE,Otacos,METZ,France,"{'brand': 'otacos', 'fascia': 'otacos', 'category': 'Restaurant', 'edit_date': '2025-03-19', 'lat_lon_source': 'website'}",49.118093300000000000,6.176139100000000000,METZ LADOUCETTE,"{'opening_hours': {'Lun': '09:00 - 22:30', 'Mar': '09:00 - 22:30', 'Mer': '09:00 - 22:30', 'Jeu': '09:00 - 22:30', 'Ven': '09:00 - 22:30', 'Sam': '09:00 - 22:30', 'Dim': '09:00 - 22:30'}}",,57000,,,https://o-tacos.com/nos-restos
6 RUE SAINT NICOLAS,Otacos,SAUMUR,France,"{'brand': 'otacos', 'fascia': 'otacos', 'category': 'Restaurant', 'edit_date': '2025-03-19', 'lat_lon_source': 'website'}",47.260503500000000000,-0.078216800000000000,SAUMUR SAINT NICOLAS,"{'opening_hours': {'Lun': '18:00 - 22:00', 'Mar': '18:00 - 22:00', 'Mer': '18:00 - 22:00', 'Jeu': '18:00 - 22:00', 'Ven': '18:00 - 22:00', 'Sam': '18:00 - 22:00', 'Dim': '18:00 - 22:00'}}",,49400,,,https://o-tacos.com/nos-restos
3 AVENUE GUSTAVE EIFFEL,Otacos,PESSAC,France,"{'brand': 'otacos', 'fascia': 'otacos', 'category': 'Restaurant', 'edit_date': '2025-03-19', 'lat_lon_source': 'website'}",44.785603800000000000,-0.641106900000000000,PESSAC GUSTAVE EIFFEL,"{'opening_hours': {'Lun': '11:30 - 23:15', 'Mar': '11:30 - 23:15', 'Mer': '11:30 - 23:15', 'Jeu': '11:30 - 00:30', 'Ven': '11:30 - 00:30', 'Sam': '11:30 - 00:30', 'Dim': '11:30 - 00:30'}}",,33600,,,https://o-tacos.com/nos-restos
10 AVENUE PRE ROBERT  N,Otacos,ANTHY,France,"{'brand': 'otacos', 'fascia': 'otacos', 'category': 'Restaurant', 'edit_date': '2025-03-19', 'lat_lon_source': 'website'}",46.351519300000000000,6.436092900000000000,ANTHY SUR LEMAN PRE ROBERT,"{'opening_hours': {'Lun': '11:30 - 14:30', 'Mar': '11:30 - 14:30', 'Mer': '18:30 - 21:30', 'Jeu': '11:30 - 14:30', 'Ven': '11:30 - 14:30', 'Sam': '11:30 - 22:00', 'Dim': '11:30 - 22:00'}}",,74200,,,https://o-tacos.com/nos-restos
CENTRE COMMERCIAL GINKO,Otacos,Bordeaux,France,"{'brand': 'otacos', 'fascia': 'otacos', 'category': 'Restaurant', 'edit_date': '2025-03-19', 'lat_lon_source': 'website'}",44.879026800000000000,-0.569785900000000000,BORDEAUX GINKO,"{'opening_hours': {'Lun': '11:00 - 23:00', 'Mar': '11:00 - 23:00', 'Mer': '11:00 - 23:00', 'Jeu': '11:00 - 23:00', 'Ven': '11:00 - 23:00', 'Sam': '11:00 - 23:00', 'Dim': '11:00 - 23:00'}}",,33300,,,https://o-tacos.com/nos-restos
51 Place d'Allier,Otacos,MOULINS,France,"{'brand': 'otacos', 'fascia': 'otacos', 'category': 'Restaurant', 'edit_date': '2025-03-19', 'lat_lon_source': 'website'}",46.564132900000000000,3.330871000000000000,MOULINS PLACE ALLIER,"{'opening_hours': {'Lun': '11:00 - 23:00', 'Mar': '11:00 - 23:00', 'Mer': '11:00 - 23:00', 'Jeu': '11:00 - 23:00', 'Ven': '11:00 - 23:00', 'Sam': '11:00 - 23:00', 'Dim': '11:00 - 23:00'}}",,3000,,,https://o-tacos.com/nos-restos
52 BOULEVARD DE LA REPUBLIQUE,Otacos,Saint-Malo,France,"{'brand': 'otacos', 'fascia': 'otacos', 'category': 'Restaurant', 'edit_date': '2025-03-19', 'lat_lon_source': 'website'}",48.647434300000000000,-2.008618000000000000,SAINT MALO REPUBLIQUE,"{'opening_hours': {'Lun': '11:00 - 23:00', 'Mar': '11:00 - 23:00', 'Mer': '11:00 - 23:00', 'Jeu': '11:00 - 23:00', 'Ven': '11:00 - 23:00', 'Sam': '11:00 - 23:00', 'Dim': '11:00 - 23:00'}}",,35400,,,https://o-tacos.com/nos-restos
23 RUE SAINT MARTIN,Otacos,SOISSONS,France,"{'brand': 'otacos', 'fascia': 'otacos', 'category': 'Restaurant', 'edit_date': '2025-03-19', 'lat_lon_source': 'website'}",49.378160000000000000,3.328673500000000000,SOISSONS SAINT MARTIN,"{'opening_hours': {'Lun': '11:00 - 22:00', 'Mar': '11:00 - 22:00', 'Mer': '11:00 - 22:00', 'Jeu': '11:00 - 22:00', 'Ven': '11:00 - 23:00', 'Sam': '11:00 - 23:00', 'Dim': '11:00 - 23:00'}}",,2200,,,https://o-tacos.com/nos-restos
90  BOULEVARD JEAN XXIII,Otacos,CHALLANS,France,"{'brand': 'otacos', 'fascia': 'otacos', 'category': 'Restaurant', 'edit_date': '2025-03-19', 'lat_lon_source': 'website'}",46.837055700000000000,-1.872258400000000000,CHALLANS JEAN XXIII,"{'opening_hours': {'Lun': '18:00 - 21:30', 'Mar': '11:30 - 14:30', 'Mer': '11:30 - 21:30', 'Jeu': '11:30 - 14:30', 'Ven': '18:00 - 22:30', 'Sam': '11:30 - 22:30', 'Dim': '18:00 - 21:30'}}",,85300,,,https://o-tacos.com/nos-restos
3 BOULEVARD HENRI DE JOUVENEL,Otacos,BRIVE,France,"{'brand': 'otacos', 'fascia': 'otacos', 'category': 'Restaurant', 'edit_date': '2025-03-19', 'lat_lon_source': 'website'}",45.157685900000000000,1.523402800000000000,BRIVE LA GAILLARDE JOUVENEL,"{'opening_hours': {'Lun': '18:00 - 22:00', 'Mar': '11:00 - 14:30', 'Mer': '11:00 - 14:30', 'Jeu': '18:00 - 22:00', 'Ven': '18:00 - 22:30', 'Sam': '11:00 - 14:30', 'Dim': '18:00 - 22:00'}}",,19100,,,https://o-tacos.com/nos-restos
4 QUAI DES BONS ENFANTS,Otacos,EPINAL,France,"{'brand': 'otacos', 'fascia': 'otacos', 'category': 'Restaurant', 'edit_date': '2025-03-19', 'lat_lon_source': 'website'}",48.175833600000000000,6.445529400000000000,EPINAL QUAI BONS ENFANTS,"{'opening_hours': {'Lun': '11:00 - 23:00', 'Mar': '11:00 - 23:00', 'Mer': '11:00 - 23:00', 'Jeu': '11:00 - 23:00', 'Ven': '11:00 - 23:00', 'Sam': '11:00 - 23:00', 'Dim': '11:00 - 23:00'}}",,88000,,,https://o-tacos.com/nos-restos
3 boulevard Anatole France,Otacos,MONTARGIS,France,"{'brand': 'otacos', 'fascia': 'otacos', 'category': 'Restaurant', 'edit_date': '2025-03-19', 'lat_lon_source': 'website'}",48.000591500000000000,2.730393900000000000,MONTARGIS ANATOLE FRANCE,"{'opening_hours': {'Lun': '11:30 - 22:00', 'Mar': '11:30 - 22:00', 'Mer': '11:30 - 22:00', 'Jeu': '11:30 - 22:00', 'Ven': '11:00 - 23:00', 'Sam': '11:00 - 23:00', 'Dim': '17:30 - 22:00'}}",,45200,,,https://o-tacos.com/nos-restos
2 rue Raymond Patenotre,Otacos,RAMBOUILLET,France,"{'brand': 'otacos', 'fascia': 'otacos', 'category': 'Restaurant', 'edit_date': '2025-03-19', 'lat_lon_source': 'website'}",48.642347600000000000,1.830060200000000000,RAMBOUILLET PATENOTRE,"{'opening_hours': {'Lun': '11:15 - 22:30', 'Mar': '11:15 - 22:30', 'Mer': '11:15 - 22:30', 'Jeu': '11:15 - 22:30', 'Ven': '11:15 - 23:00', 'Sam': '11:30 - 23:00', 'Dim': '12:00 - 22:00'}}",,78120,,,https://o-tacos.com/nos-restos
8 RUE ALBERT MAHIEU,Otacos,CHERBOURG,France,"{'brand': 'otacos', 'fascia': 'otacos', 'category': 'Restaurant', 'edit_date': '2025-03-19', 'lat_lon_source': 'website'}",49.639523000000000000,-1.625524600000000000,CHERBOURG ALBERT MAHIEU,"{'opening_hours': {'Lun': '11:30 - 22:30', 'Mar': '11:30 - 22:30', 'Mer': '11:30 - 22:30', 'Jeu': '11:30 - 22:30', 'Ven': '11:30 - 22:30', 'Sam': '11:30 - 22:30', 'Dim': '12:00 - 22:30'}}",,50100,,,https://o-tacos.com/nos-restos
0 Avenue Gendarme Castermant,Otacos,Chelles,France,"{'brand': 'otacos', 'fascia': 'otacos', 'category': 'Restaurant', 'edit_date': '2025-03-19', 'lat_lon_source': 'website'}",48.881766384951000000,2.613815199337500000,CHELLES,"{'opening_hours': {'T. ': '. 33160087863', 'Lun': '11:30 - 22:15', 'Mar': '11:30 - 22:15', 'Mer': '11:30 - 22:15', 'Jeu': '11:30 - 22:15', 'Ven': '11:30 - 22:15', 'Sam': '11:30 - 22:15', 'Dim': '12:00 - 22:15'}}",,77500,,,https://o-tacos.com/nos-restos
AVENUE  DE L'EUROPE,Otacos,MONT,France,"{'brand': 'otacos', 'fascia': 'otacos', 'category': 'Restaurant', 'edit_date': '2025-03-19', 'lat_lon_source': 'website'}",49.547184000000000000,5.800320000000000000,LONGWY MSM,"{'opening_hours': {'Lun': '11:00 - 21:30', 'Mar': '11:00 - 21:30', 'Mer': '11:00 - 21:30', 'Jeu': '10:00 - 21:30', 'Ven': '11:15 - 22:30', 'Sam': '11:00 - 22:30', 'Dim': '12:00 - 21:30'}}",,54350,,,https://o-tacos.com/nos-restos
"8 Centre commercial Pince vent , avenue de pince vent",Otacos,Chennevieres-sur-Marne,France,"{'brand': 'otacos', 'fascia': 'otacos', 'category': 'Restaurant', 'edit_date': '2025-03-19', 'lat_lon_source': 'website'}",48.797177611734000000,2.553575446030500000,CHENNEVIÈRES,"{'opening_hours': {'Lun': '10:30 - 23:00', 'Mar': '10:30 - 23:00', 'Mer': '10:30 - 23:00', 'Jeu': '10:30 - 23:00', 'Ven': '10:30 - 23:00', 'Sam': '10:30 - 23:00', 'Dim': '10:30 - 23:00'}}",,94430,,,https://o-tacos.com/nos-restos
19 Place Verdun,Otacos,Tarbes,France,"{'brand': 'otacos', 'fascia': 'otacos', 'category': 'Restaurant', 'edit_date': '2025-03-19', 'lat_lon_source': 'website'}",43.234098944816000000,0.073519199033731000,Tarbes,"{'opening_hours': {'Lun': '11:00 - 22:00', 'Mar': '11:00 - 22:00', 'Mer': '11:00 - 22:00', 'Jeu': '11:00 - 23:00', 'Ven': '11:00 - 23:00', 'Sam': '11:00 - 23:00', 'Dim': '11:00 - 22:00'}}",,65000,,,https://o-tacos.com/nos-restos
50 rue de Chateaudun,Otacos,Saint-Raphaël,France,"{'brand': 'otacos', 'fascia': 'otacos', 'category': 'Restaurant', 'edit_date': '2025-03-19', 'lat_lon_source': 'website'}",43.426198000000000000,6.769835000000000000,Saint-Raphaël,"{'opening_hours': {'Lun': '11:00 - 23:00', 'Mar': '11:00 - 23:00', 'Mer': '11:00 - 23:00', 'Jeu': '11:00 - 23:00', 'Ven': '11:00 - 00:00', 'Sam': '11:00 - 00:00', 'Dim': '11:00 - 00:00'}}",,83700,,,https://o-tacos.com/nos-restos
8 place d’Armes,Otacos,SEDAN,France,"{'brand': 'otacos', 'fascia': 'otacos', 'category': 'Restaurant', 'edit_date': '2025-03-19', 'lat_lon_source': 'website'}",49.700692500000000000,4.947513700000000000,SEDAN Armes,"{'opening_hours': {'Lun': '11:00 - 22:00', 'Mar': '11:00 - 22:00', 'Mer': '12:05 - 22:00', 'Jeu': '11:00 - 22:00', 'Ven': '11:00 - 23:00', 'Sam': '11:00 - 23:00', 'Dim': '12:00 - 22:00'}}",,8200,,,https://o-tacos.com/nos-restos
7 route de Bar le Duc,Otacos,Bettancourt,France,"{'brand': 'otacos', 'fascia': 'otacos', 'category': 'Restaurant', 'edit_date': '2025-03-19', 'lat_lon_source': 'website'}",48.653851000000000000,4.964963000000000000,SAINT DIZIER,"{'opening_hours': {'Lun': '11:00 - 22:00', 'Mar': '11:00 - 22:00', 'Mer': '11:00 - 22:00', 'Jeu': '11:00 - 22:00', 'Ven': '11:00 - 23:00', 'Sam': '11:00 - 23:00', 'Dim': '11:00 - 22:00'}}",,52100,,,https://o-tacos.com/nos-restos
23 RUE SAINT MATHIEU,Otacos,QUIMPER,France,"{'brand': 'otacos', 'fascia': 'otacos', 'category': 'Restaurant', 'edit_date': '2025-03-19', 'lat_lon_source': 'website'}",47.995247500000000000,-4.107631800000000000,QUIMPER SAINT MATHIEU,"{'opening_hours': {'Lun': '11:00 - 23:00', 'Mar': '11:00 - 23:00', 'Mer': '11:00 - 23:00', 'Jeu': '11:00 - 23:00', 'Ven': '11:00 - 00:00', 'Sam': '11:00 - 00:00', 'Dim': '11:00 - 00:00'}}",,29000,,,https://o-tacos.com/nos-restos
84 rue de la Chapelle,Otacos,PARIS,France,"{'brand': 'otacos', 'fascia': 'otacos', 'category': 'Restaurant', 'edit_date': '2025-03-19', 'lat_lon_source': 'website'}",48.894496917725000000,2.359122276306200000,PARIS LA CHAPELLE,"{'opening_hours': {'Lun': '11:00 - 00:00', 'Mar': '11:00 - 00:00', 'Mer': '11:00 - 00:00', 'Jeu': '11:00 - 00:00', 'Ven': '11:00 - 00:00', 'Sam': '11:00 - 00:00', 'Dim': '11:00 - 00:00'}}",,75018,,,https://o-tacos.com/nos-restos
195 rue de Gouesnou,Otacos,BREST,France,"{'brand': 'otacos', 'fascia': 'otacos', 'category': 'Restaurant', 'edit_date': '2025-03-19', 'lat_lon_source': 'website'}",48.419715805154000000,-4.466685967410000000,Brest Gouesnou,"{'opening_hours': {'Lun': '11:00 - 23:00', 'Mar': '11:00 - 23:00', 'Mer': '11:00 - 23:00', 'Jeu': '11:00 - 23:00', 'Ven': '11:00 - 23:00', 'Sam': '11:00 - 23:30', 'Dim': '11:00 - 23:00'}}",,29200,,,https://o-tacos.com/nos-restos
12 Boulevard Victor Hugo,Otacos,NIMES,France,"{'brand': 'otacos', 'fascia': 'otacos', 'category': 'Restaurant', 'edit_date': '2025-03-19', 'lat_lon_source': 'website'}",43.835697079204000000,4.358084704832000000,Nimes,"{'opening_hours': {'Lun': '11:00 - 14:30', 'Mar': '18:30 - 23:00', 'Mer': '11:00 - 14:30', 'Jeu': '18:30 - 23:00', 'Ven': '10:40 - 23:00', 'Sam': '11:00 - 23:00', 'Dim': '11:00 - 14:30'}}",,30000,,,https://o-tacos.com/nos-restos
5 RUE DU 13E DE LIGNE,Otacos,NEVERS,France,"{'brand': 'otacos', 'fascia': 'otacos', 'category': 'Restaurant', 'edit_date': '2025-03-19', 'lat_lon_source': 'website'}",46.992270305236000000,3.145079640080000000,NEVERS 13E DE LIGNE,"{'opening_hours': {'T. ': '. 000000000000', 'Lun': '11:00 - 22:30', 'Mar': '11:00 - 22:30', 'Mer': '11:00 - 22:30', 'Jeu': '11:00 - 22:30', 'Ven': '11:00 - 22:30', 'Sam': '11:00 - 22:30', 'Dim': '12:00 - 22:30'}}",,58000,,,https://o-tacos.com/nos-restos
5 cours de l'hotel dieu,Otacos,DREUX,France,"{'brand': 'otacos', 'fascia': 'otacos', 'category': 'Restaurant', 'edit_date': '2025-03-19', 'lat_lon_source': 'website'}",48.735698826265000000,1.370588592590300000,DREUX HOTEL DIEU,"{'opening_hours': {'Lun': '11:00 - 22:30', 'Mar': '11:00 - 22:30', 'Mer': '11:00 - 22:30', 'Jeu': '11:00 - 22:30', 'Ven': '11:00 - 23:00', 'Sam': '11:00 - 23:00', 'Dim': '11:00 - 22:30'}}",,28100,,,https://o-tacos.com/nos-restos
3 Place Général de Gaulle,Otacos,Chalon-sur-Saône,France,"{'brand': 'otacos', 'fascia': 'otacos', 'category': 'Restaurant', 'edit_date': '2025-03-19', 'lat_lon_source': 'website'}",46.780764000000000000,4.853947000000000000,CHALON SUR SAONE DE GAULLE,"{'opening_hours': {'Lun': '11:00 - 22:00', 'Mar': '11:00 - 22:00', 'Mer': '11:00 - 22:00', 'Jeu': '11:00 - 22:00', 'Ven': '11:00 - 23:55', 'Sam': '11:00 - 23:55', 'Dim': '11:00 - 22:00'}}",,71100,,,https://o-tacos.com/nos-restos
7 boulevard Michel Montaigne,Otacos,Périgueux,France,"{'brand': 'otacos', 'fascia': 'otacos', 'category': 'Restaurant', 'edit_date': '2025-03-19', 'lat_lon_source': 'website'}",45.184200000000000000,0.716667000000000000,PERIGUEUX Michel Montaigne,"{'opening_hours': {'Lun': '11:00 - 21:55', 'Mar': '11:00 - 21:55', 'Mer': '11:00 - 21:55', 'Jeu': '11:00 - 22:00', 'Ven': '11:00 - 22:55', 'Sam': '11:00 - 22:55', 'Dim': '12:00 - 21:55'}}",,24000,,,https://o-tacos.com/nos-restos
2 rue de Brest,Otacos,MORLAIX,France,"{'brand': 'otacos', 'fascia': 'otacos', 'category': 'Restaurant', 'edit_date': '2025-03-19', 'lat_lon_source': 'website'}",48.574108123779000000,-3.832728862762500000,MORLAIX,"{'opening_hours': {'Lun': '11:30 - 22:20', 'Mar': '11:30 - 22:20', 'Mer': '11:30 - 22:20', 'Jeu': '11:30 - 22:20', 'Ven': '11:30 - 23:20', 'Sam': '11:30 - 23:20', 'Dim': '12:00 - 22:20'}}",,29600,,,https://o-tacos.com/nos-restos
ZAC de la Cassadote,Otacos,Biganos,France,"{'brand': 'otacos', 'fascia': 'otacos', 'category': 'Restaurant', 'edit_date': '2025-03-19', 'lat_lon_source': 'website'}",44.642491200000000000,-0.950240500000000000,Biganos,"{'opening_hours': {'Lun': '18:00 - 22:00', 'Mar': '18:00 - 22:00', 'Mer': '18:00 - 22:00', 'Jeu': '18:00 - 22:00', 'Ven': '11:00 - 22:00', 'Sam': '11:00 - 22:00', 'Dim': '11:00 - 22:00'}}",,33380,,,https://o-tacos.com/nos-restos
2 Louise Michel,Otacos,Aurillac,France,"{'brand': 'otacos', 'fascia': 'otacos', 'category': 'Restaurant', 'edit_date': '2025-03-19', 'lat_lon_source': 'website'}",44.914110450540000000,2.445290041277100000,AURILLAC LOUISE MICHEL,"{'opening_hours': {'T. ': '. 987654321', 'Lun': '11:00 - 22:30', 'Mar': '11:00 - 22:30', 'Mer': '11:00 - 22:30', 'Jeu': '11:00 - 22:30', 'Ven': '11:00 - 23:00', 'Sam': '11:00 - 23:00', 'Dim': '11:00 - 22:30'}}",,15000,,,https://o-tacos.com/nos-restos
4 rue Mazel,Otacos,Verdun,France,"{'brand': 'otacos', 'fascia': 'otacos', 'category': 'Restaurant', 'edit_date': '2025-03-19', 'lat_lon_source': 'website'}",49.160123617494000000,5.384739984250900000,VERDUN,"{'opening_hours': {'Lun': '11:00 - 22:00', 'Mar': '11:00 - 22:00', 'Mer': '11:00 - 22:00', 'Jeu': '11:00 - 22:00', 'Ven': '11:00 - 22:20', 'Sam': '11:00 - 22:00', 'Dim': '12:00 - 22:00'}}",,55100,,,https://o-tacos.com/nos-restos
1 rue du fort,Otacos,GEISPOLSHEIM,France,"{'brand': 'otacos', 'fascia': 'otacos', 'category': 'Restaurant', 'edit_date': '2025-03-19', 'lat_lon_source': 'website'}",48.521625912091000000,7.692769405107100000,GEISPOLSHEIM,"{'opening_hours': {'Lun': '11:00 - 23:00', 'Mar': '11:00 - 23:00', 'Mer': '11:00 - 23:00', 'Jeu': '11:00 - 23:00', 'Ven': '11:00 - 23:00', 'Sam': '11:00 - 23:00', 'Dim': '11:00 - 23:00'}}",,67118,,,https://o-tacos.com/nos-restos
48 rue sainte Catherine,Otacos,ORLEANS,France,"{'brand': 'otacos', 'fascia': 'otacos', 'category': 'Restaurant', 'edit_date': '2025-03-19', 'lat_lon_source': 'website'}",47.901299090179000000,1.905419584635500000,Orleans,"{'opening_hours': {'Lun': 'Fermé ', 'Mar': '11:00 - 00:00', 'Mer': '11:00 - 00:00', 'Jeu': '11:00 - 00:00', 'Ven': '11:00 - 00:00', 'Sam': '11:00 - 00:00', 'Dim': '11:00 - 00:00'}}",,45000,,,https://o-tacos.com/nos-restos
25 place du pilori,Otacos,Abbeville,France,"{'brand': 'otacos', 'fascia': 'otacos', 'category': 'Restaurant', 'edit_date': '2025-03-19', 'lat_lon_source': 'website'}",50.107732814363000000,1.835341825135400000,ABBEVILLE,"{'opening_hours': {'Lun': '11:00 - 22:30', 'Mar': '11:00 - 22:30', 'Mer': '11:00 - 22:30', 'Jeu': '11:00 - 22:30', 'Ven': '11:00 - 23:30', 'Sam': '11:00 - 23:30', 'Dim': '11:00 - 22:30'}}",,80100,,,https://o-tacos.com/nos-restos
5 Rue Dessirier,Otacos,Sarrebourg,France,"{'brand': 'otacos', 'fascia': 'otacos', 'category': 'Restaurant', 'edit_date': '2025-03-19', 'lat_lon_source': 'website'}",48.739048111765000000,7.075082084658300000,SARREBOURG,"{'opening_hours': {'Lun': '11:00 - 22:00', 'Mar': '11:00 - 22:00', 'Mer': '11:00 - 22:00', 'Jeu': '11:00 - 22:00', 'Ven': '11:00 - 22:00', 'Sam': '11:00 - 22:00', 'Dim': '11:00 - 22:00'}}",,67000,,,https://o-tacos.com/nos-restos
309 avenue Georges Durand,Otacos,Le,France,"{'brand': 'otacos', 'fascia': 'otacos', 'category': 'Restaurant', 'edit_date': '2025-03-19', 'lat_lon_source': 'website'}",47.972553318887000000,0.217106080742650000,Le Mans Sud,"{'opening_hours': {'Lun': '11:00 - 22:30', 'Mar': '11:00 - 22:30', 'Mer': '11:00 - 22:30', 'Jeu': '11:00 - 22:30', 'Ven': '12:00 - 20:45', 'Sam': '11:00 - 22:30', 'Dim': '12:00 - 22:30'}}",,72100,,,https://o-tacos.com/nos-restos
158 impasses Alfred Naquet,Otacos,Carpentras,France,"{'brand': 'otacos', 'fascia': 'otacos', 'category': 'Restaurant', 'edit_date': '2025-03-19', 'lat_lon_source': 'website'}",44.051740000000000000,5.040510000000000000,CARPENTRAS,"{'opening_hours': {'Lun': '11:30 - 21:40', 'Mar': '11:30 - 21:40', 'Mer': '11:30 - 21:40', 'Jeu': '11:30 - 21:40', 'Ven': '11:30 - 21:40', 'Sam': '11:30 - 21:40', 'Dim': '12:00 - 21:40'}}",,84200,,,https://o-tacos.com/nos-restos
49 Avenue de la Côte de Nacre,Otacos,Caen,France,"{'brand': 'otacos', 'fascia': 'otacos', 'category': 'Restaurant', 'edit_date': '2025-03-19', 'lat_lon_source': 'website'}",49.200736999512000000,-0.360677987337110000,CAEN CÔTE DE NACRE,"{'opening_hours': {'Lun': '11:00 - 23:00', 'Mar': '11:00 - 23:00', 'Mer': '11:00 - 23:00', 'Jeu': '11:00 - 23:00', 'Ven': '14:00 - 23:00', 'Sam': '11:00 - 23:00', 'Dim': '11:00 - 23:00'}}",,14000,,,https://o-tacos.com/nos-restos
21 rue Havin,Otacos,Saint-Lô,France,"{'brand': 'otacos', 'fascia': 'otacos', 'category': 'Restaurant', 'edit_date': '2025-03-19', 'lat_lon_source': 'website'}",49.114735700000000000,-1.091441900000000000,Saint-Lô,"{'opening_hours': {'Lun': '11:30 - 22:30', 'Mar': '11:30 - 22:30', 'Mer': '11:30 - 22:30', 'Jeu': '11:30 - 22:30', 'Ven': '11:30 - 22:30', 'Sam': '11:30 - 22:30', 'Dim': '12:00 - 22:30'}}",,50000,,,https://o-tacos.com/nos-restos
64 64 boulevard de la Loge de Mer,Otacos,Canet-en-Roussillon,France,"{'brand': 'otacos', 'fascia': 'otacos', 'category': 'Restaurant', 'edit_date': '2025-03-19', 'lat_lon_source': 'website'}",42.700414200000000000,3.023177500000000000,CANET-EN-ROUSSILLON,"{'opening_hours': {'Lun': '11:00 - 22:00', 'Mar': '11:00 - 22:00', 'Mer': '11:00 - 22:00', 'Jeu': '11:00 - 22:30', 'Ven': '11:00 - 22:30', 'Sam': '11:00 - 22:30', 'Dim': '11:00 - 22:00'}}",,66140,,,https://o-tacos.com/nos-restos
3 Rue du 14 juillet - Centre commercial Hyper U,Otacos,Puilboreau,France,"{'brand': 'otacos', 'fascia': 'otacos', 'category': 'Restaurant', 'edit_date': '2025-03-19', 'lat_lon_source': 'website'}",46.175099800000000000,-1.117644700000000000,PUILLBOREAU,"{'opening_hours': {'Lun': '11:00 - 22:15', 'Mar': '11:00 - 22:15', 'Mer': '11:00 - 22:15', 'Jeu': '11:00 - 22:15', 'Ven': '11:00 - 22:15', 'Sam': '11:00 - 22:15', 'Dim': '12:00 - 22:15'}}",,17138,,,https://o-tacos.com/nos-restos
3 rue des Augustins,Otacos,LANNION,France,"{'brand': 'otacos', 'fascia': 'otacos', 'category': 'Restaurant', 'edit_date': '2025-03-19', 'lat_lon_source': 'website'}",48.731274095811000000,-3.459536844525500000,LANNION,"{'opening_hours': {'T. ': '. 0031159753258', 'Lun': '11:30 - 22:00', 'Mar': '11:30 - 22:00', 'Mer': '11:30 - 22:00', 'Jeu': '11:30 - 22:00', 'Ven': '11:30 - 23:00', 'Sam': '11:30 - 23:00', 'Dim': '12:00 - 22:00'}}",,22300,,,https://o-tacos.com/nos-restos
1 Boulevard Charles Gautier,Otacos,Saint-Herblain,France,"{'brand': 'otacos', 'fascia': 'otacos', 'category': 'Restaurant', 'edit_date': '2025-03-19', 'lat_lon_source': 'website'}",47.223159790039000000,-1.612054705619800000,SAINT-HERBLAIN,"{'opening_hours': {'Lun': '11:00 - 23:00', 'Mar': '11:00 - 23:00', 'Mer': '15:00 - 23:00', 'Jeu': '11:00 - 23:00', 'Ven': '11:00 - 23:55', 'Sam': '11:00 - 23:55', 'Dim': '11:00 - 23:55'}}",,44800,,,https://o-tacos.com/nos-restos
3 Place de La Résistance,Otacos,TOURCOING,France,"{'brand': 'otacos', 'fascia': 'otacos', 'category': 'Restaurant', 'edit_date': '2025-03-19', 'lat_lon_source': 'website'}",50.721530091371000000,3.160472912531900000,TOURCOING,"{'opening_hours': {'Lun': '11:15 - 22:30', 'Mar': '11:15 - 22:30', 'Mer': '11:15 - 22:30', 'Jeu': '11:15 - 22:30', 'Ven': '11:15 - 22:30', 'Sam': '11:15 - 22:30', 'Dim': '11:15 - 22:30'}}",,59200,,,https://o-tacos.com/nos-restos
1 Place Saint-Etienne,Otacos,STRASBOURG,France,"{'brand': 'otacos', 'fascia': 'otacos', 'category': 'Restaurant', 'edit_date': '2025-03-19', 'lat_lon_source': 'website'}",48.583126500000000000,7.754265100000000000,STRASBOURG SAINT-ETIENNE,"{'opening_hours': {'Lun': '11:00 - 23:00', 'Mar': '11:00 - 23:00', 'Mer': '11:00 - 23:00', 'Jeu': '11:00 - 23:00', 'Ven': '11:00 - 23:00', 'Sam': '11:00 - 23:00', 'Dim': '11:00 - 23:00'}}",,67000,,,https://o-tacos.com/nos-restos
25 Place de Béthune,Otacos,Lille,France,"{'brand': 'otacos', 'fascia': 'otacos', 'category': 'Restaurant', 'edit_date': '2025-03-19', 'lat_lon_source': 'website'}",50.632645099100000000,3.062539884997000000,LILLE BÉTHUNE,"{'opening_hours': {'Lun': '19:00 - 23:45', 'Mar': '19:00 - 23:45', 'Mer': '19:00 - 23:45', 'Jeu': '19:00 - 23:45', 'Ven': '19:00 - 00:45', 'Sam': '19:00 - 01:45', 'Dim': '19:00 - 23:45'}}",,59800,,,https://o-tacos.com/nos-restos
125 Rue Colbert,Otacos,Lille,France,"{'brand': 'otacos', 'fascia': 'otacos', 'category': 'Restaurant', 'edit_date': '2025-03-19', 'lat_lon_source': 'website'}",50.631932390974000000,3.043638647442400000,LILLE VAUBAN,"{'opening_hours': {'Lun': '19:00 - 23:45', 'Mar': '19:00 - 23:45', 'Mer': '19:00 - 23:45', 'Jeu': '19:00 - 23:45', 'Ven': '19:00 - 23:45', 'Sam': '19:00 - 23:45', 'Dim': '19:00 - 23:45'}}",,59800,,,https://o-tacos.com/nos-restos
182 avenue du Général Patton,Otacos,Beaucouze,France,"{'brand': 'otacos', 'fascia': 'otacos', 'category': 'Restaurant', 'edit_date': '2025-03-19', 'lat_lon_source': 'website'}",47.473305415000000000,-0.602611215500710000,BEAUCOUZE,"{'opening_hours': {'T. ': '. 9876543210', 'Lun': '11:30 - 22:00', 'Mar': '11:30 - 22:00', 'Mer': '11:30 - 22:00', 'Jeu': '11:30 - 22:00', 'Ven': '11:30 - 22:00', 'Sam': '11:30 - 22:00', 'Dim': '11:30 - 22:00'}}",,49070,,,https://o-tacos.com/nos-restos
1 Place André Maurois,Otacos,Strasbourg,France,"{'brand': 'otacos', 'fascia': 'otacos', 'category': 'Restaurant', 'edit_date': '2025-03-19', 'lat_lon_source': 'website'}",48.591720000000000000,7.697250000000000000,HAUTEPIERRE,"{'opening_hours': {'Lun': '10:30 - 23:00', 'Mar': '10:30 - 23:00', 'Mer': '10:30 - 23:00', 'Jeu': '10:30 - 23:00', 'Ven': '10:30 - 23:00', 'Sam': '10:30 - 23:00', 'Dim': '11:00 - 23:00'}}",,67200,,,https://o-tacos.com/nos-restos
63 avenue de fontainebleau,Otacos,LE,France,"{'brand': 'otacos', 'fascia': 'otacos', 'category': 'Restaurant', 'edit_date': '2025-03-19', 'lat_lon_source': 'website'}",48.809996000000000000,2.358400000000000000,KREMLIN BICETRE,"{'opening_hours': {'Lun': '11:00 - 23:55', 'Mar': '11:00 - 23:55', 'Mer': '11:00 - 23:55', 'Jeu': '11:00 - 23:55', 'Ven': '11:00 - 23:55', 'Sam': '11:00 - 00:00', 'Dim': '11:00 - 00:00'}}",,94270,,,https://o-tacos.com/nos-restos
1 Avenue de Paris,Otacos,ETAMPES,France,"{'brand': 'otacos', 'fascia': 'otacos', 'category': 'Restaurant', 'edit_date': '2025-03-19', 'lat_lon_source': 'website'}",48.437229000000000000,2.163608000000000000,ETAMPES PARIS,"{'opening_hours': {'Lun': '11:00 - 23:45', 'Mar': '11:00 - 23:45', 'Mer': '11:00 - 23:45', 'Jeu': '11:00 - 23:45', 'Ven': '11:00 - 23:55', 'Sam': '11:00 - 23:55', 'Dim': '11:00 - 23:45'}}",,91150,,,https://o-tacos.com/nos-restos
9 Avenue Cyrille Besset Avenue Cyrille Besset,Otacos,Cagnes-sur-Mer,France,"{'brand': 'otacos', 'fascia': 'otacos', 'category': 'Restaurant', 'edit_date': '2025-03-19', 'lat_lon_source': 'website'}",43.664533000000000000,7.154472000000000000,CAGNES SUR MER,"{'opening_hours': {'Lun': '11:00 - 23:45', 'Mar': '11:00 - 23:45', 'Mer': '11:00 - 23:45', 'Jeu': '11:00 - 23:45', 'Ven': '11:00 - 23:45', 'Sam': '11:00 - 23:45', 'Dim': '11:00 - 23:45'}}",,06800,,,https://o-tacos.com/nos-restos
25 boulevard pasteur,Otacos,Calais,France,"{'brand': 'otacos', 'fascia': 'otacos', 'category': 'Restaurant', 'edit_date': '2025-03-19', 'lat_lon_source': 'website'}",50.946939000000000000,1.853984000000000000,CALAIS PASTEUR,"{'opening_hours': {'Lun': '11:00 - 23:00', 'Mar': '11:00 - 23:00', 'Mer': '11:00 - 23:00', 'Jeu': '11:00 - 23:00', 'Ven': '11:00 - 00:00', 'Sam': '11:00 - 00:00', 'Dim': '12:00 - 23:00'}}",,62100,,,https://o-tacos.com/nos-restos
3 Allée du Préambule,Otacos,Lieusaint,France,"{'brand': 'otacos', 'fascia': 'otacos', 'category': 'Restaurant', 'edit_date': '2025-03-19', 'lat_lon_source': 'website'}",48.614680000000000000,2.551021000000000000,CARRE SENART,"{'opening_hours': {'Lun': '11:45 - 22:00', 'Mar': '11:45 - 22:00', 'Mer': '11:45 - 22:00', 'Jeu': '11:45 - 22:00', 'Ven': '11:45 - 22:30', 'Sam': '11:45 - 22:30', 'Dim': '11:45 - 22:00'}}",,77566,,,https://o-tacos.com/nos-restos
1 Rue de Gramentès,Otacos,MAZAMET,France,"{'brand': 'otacos', 'fascia': 'otacos', 'category': 'Restaurant', 'edit_date': '2025-03-19', 'lat_lon_source': 'website'}",43.499639000000000000,2.387453000000000000,MAZAMET Gramentès,"{'opening_hours': {'Lun': '11:00 - 22:00', 'Mar': '11:00 - 22:00', 'Mer': '11:00 - 22:30', 'Jeu': '11:00 - 22:30', 'Ven': '11:00 - 23:00', 'Sam': '11:00 - 23:00', 'Dim': '11:00 - 22:30'}}",,81200,,,https://o-tacos.com/nos-restos
13 Allée du vieux Saint Louis,Otacos,Laval,France,"{'brand': 'otacos', 'fascia': 'otacos', 'category': 'Restaurant', 'edit_date': '2025-03-19', 'lat_lon_source': 'website'}",48.072083000000000000,-0.773351000000000000,LAVAL SAINT LOUIS,"{'opening_hours': {'Lun': '11:00 - 23:00', 'Mar': '11:00 - 23:00', 'Mer': '11:00 - 23:00', 'Jeu': '11:00 - 23:00', 'Ven': '11:00 - 23:00', 'Sam': '11:00 - 23:00', 'Dim': '12:00 - 23:00'}}",,53000,,,https://o-tacos.com/nos-restos
8  Promenade du Jeune Anarcharsis,Otacos,Aubagne,France,"{'brand': 'otacos', 'fascia': 'otacos', 'category': 'Restaurant', 'edit_date': '2025-03-19', 'lat_lon_source': 'website'}",43.294395000000000000,5.567599000000000000,AUBAGNE Anarcharsis,"{'opening_hours': {'Lun': '18:30 - 00:00', 'Mar': '18:30 - 00:00', 'Mer': '18:30 - 00:00', 'Jeu': '18:30 - 00:00', 'Ven': '18:30 - 00:00', 'Sam': '18:30 - 00:00', 'Dim': '18:30 - 00:00'}}",,13400,,,https://o-tacos.com/nos-restos
22 Rue du Vieux-Marché-aux-Vins,Otacos,STRASBOURG,France,"{'brand': 'otacos', 'fascia': 'otacos', 'category': 'Restaurant', 'edit_date': '2025-03-19', 'lat_lon_source': 'website'}",48.583911000000000000,7.742124000000000000,STRASBOURG Marché aux vins,"{'opening_hours': {'Lun': '11:00 - 23:00', 'Mar': '11:00 - 23:00', 'Mer': '11:00 - 23:00', 'Jeu': '11:00 - 23:00', 'Ven': '11:00 - 23:00', 'Sam': '11:00 - 23:00', 'Dim': '11:00 - 23:00'}}",,67000,,,https://o-tacos.com/nos-restos
78 Avenue Charles Dupuy,Otacos,Brives,France,"{'brand': 'otacos', 'fascia': 'otacos', 'category': 'Restaurant', 'edit_date': '2025-03-19', 'lat_lon_source': 'website'}",45.053725000000000000,3.910281000000000000,BRIVES CHARENSAC,"{'opening_hours': {'Lun': '11:30 - 22:30', 'Mar': '11:30 - 22:30', 'Mer': '11:30 - 22:30', 'Jeu': '11:30 - 22:30', 'Ven': '11:30 - 23:00', 'Sam': '11:30 - 23:00', 'Dim': '11:30 - 22:30'}}",,43700,,,https://o-tacos.com/nos-restos
"01 Centre Commercial Beau Sevran, Route des Petits",Otacos,SEVRAN,France,"{'brand': 'otacos', 'fascia': 'otacos', 'category': 'Restaurant', 'edit_date': '2025-03-19', 'lat_lon_source': 'website'}",48.949517000000000000,2.529080000000000000,SEVRAN,"{'opening_hours': {'Lun': '11:00 - 01:00', 'Mar': '11:00 - 01:00', 'Mer': '11:00 - 01:00', 'Jeu': '11:00 - 01:00', 'Ven': '11:00 - 04:00', 'Sam': '11:00 - 04:00', 'Dim': '11:00 - 01:00'}}",,93270,,,https://o-tacos.com/nos-restos
3 Centre commercial Auchan boulevard Paul Eluard,Otacos,MARTIGUES,France,"{'brand': 'otacos', 'fascia': 'otacos', 'category': 'Restaurant', 'edit_date': '2025-03-19', 'lat_lon_source': 'website'}",43.421922000000000000,5.053489000000000000,MARTIGUES,"{'opening_hours': {'Lun': '18:30 - 23:00', 'Mar': '18:30 - 23:00', 'Mer': '18:30 - 23:00', 'Jeu': '18:30 - 23:00', 'Ven': '18:30 - 13:00', 'Sam': '18:30 - 23:00', 'Dim': '18:30 - 23:00'}}",,13500,,,https://o-tacos.com/nos-restos
68 bis Avenue d'Essômes,Otacos,Château-Thierry,France,"{'brand': 'otacos', 'fascia': 'otacos', 'category': 'Restaurant', 'edit_date': '2025-03-19', 'lat_lon_source': 'website'}",49.037931000000000000,3.383693000000000000,CHATEAU THIERRY,"{'opening_hours': {'Lun': '11:00 - 23:00', 'Mar': '11:00 - 23:00', 'Mer': '11:05 - 23:00', 'Jeu': '11:00 - 23:00', 'Ven': '11:00 - 23:50', 'Sam': '11:00 - 23:50', 'Dim': '11:00 - 23:00'}}",,02400,,,https://o-tacos.com/nos-restos
19 Place Georges Clemenceau,Otacos,Béthune,France,"{'brand': 'otacos', 'fascia': 'otacos', 'category': 'Restaurant', 'edit_date': '2025-03-19', 'lat_lon_source': 'website'}",50.528655000000000000,2.640419000000000000,BETHUNE Grand Place,"{'opening_hours': {'Lun': '11:00 - 01:15', 'Mar': '11:00 - 01:15', 'Mer': '11:00 - 01:15', 'Jeu': '11:00 - 01:15', 'Ven': '11:00 - 04:00', 'Sam': '11:00 - 04:00', 'Dim': '11:00 - 01:15'}}",,62400,,,https://o-tacos.com/nos-restos
1 rue de rien,Otacos,Vitrolles,France,"{'brand': 'otacos', 'fascia': 'otacos', 'category': 'Restaurant', 'edit_date': '2025-03-19', 'lat_lon_source': 'website'}",43.454403000000000000,5.242975000000000000,VITROLLES,"{'opening_hours': {'Lun': '11:00 - 22:30', 'Mar': '11:00 - 22:30', 'Mer': '11:00 - 22:30', 'Jeu': '11:00 - 22:30', 'Ven': '11:00 - 22:30', 'Sam': '11:00 - 22:30', 'Dim': '11:00 - 22:30'}}",,13127,,,https://o-tacos.com/nos-restos
25 Cours Jean Jaurès,Otacos,Grenoble,France,"{'brand': 'otacos', 'fascia': 'otacos', 'category': 'Restaurant', 'edit_date': '2025-03-19', 'lat_lon_source': 'website'}",45.188382000000000000,5.719356000000000000,GRENOBLE Jaurès,"{'opening_hours': {'Lun': '11:00 - 23:00', 'Mar': '11:00 - 23:00', 'Mer': '11:00 - 23:00', 'Jeu': '11:00 - 23:00', 'Ven': '11:00 - 00:00', 'Sam': '11:00 - 00:00', 'Dim': '11:00 - 00:00'}}",,38000,,,https://o-tacos.com/nos-restos
12 Boulevard Lascrosses,Otacos,Toulouse,France,"{'brand': 'otacos', 'fascia': 'otacos', 'category': 'Restaurant', 'edit_date': '2025-03-19', 'lat_lon_source': 'website'}",43.611213000000000000,1.437232000000000000,TOULOUSE Compans,"{'opening_hours': {'Lun': '11:00 - 23:00', 'Mar': '11:00 - 23:00', 'Mer': '11:00 - 23:00', 'Jeu': '11:00 - 23:00', 'Ven': '11:00 - 23:00', 'Sam': '11:00 - 23:00', 'Dim': '11:00 - 23:00'}}",,31000,,,https://o-tacos.com/nos-restos
0 Bd de l'Ouest,Otacos,La,France,"{'brand': 'otacos', 'fascia': 'otacos', 'category': 'Restaurant', 'edit_date': '2025-03-19', 'lat_lon_source': 'website'}",48.306010000000000000,4.024710000000000000,LA CHAPELLE SAINT LUC,"{'opening_hours': {'Lun': '18:30 - 21:00', 'Mar': '11:30 - 14:30', 'Mer': '18:30 - 21:00', 'Jeu': '18:30 - 21:00', 'Ven': '11:30 - 21:00', 'Sam': '11:30 - 21:00', 'Dim': '11:30 - 21:00'}}",,10600,,,https://o-tacos.com/nos-restos
4  Boulevard Dugommier,Otacos,Antibes,France,"{'brand': 'otacos', 'fascia': 'otacos', 'category': 'Restaurant', 'edit_date': '2025-03-19', 'lat_lon_source': 'website'}",43.580926000000000000,7.119717000000000000,ANTIBES,"{'opening_hours': {'Lun': '11:00 - 23:45', 'Mar': '11:00 - 23:45', 'Mer': '11:00 - 23:45', 'Jeu': '11:00 - 23:45', 'Ven': '11:00 - 23:45', 'Sam': '11:00 - 23:45', 'Dim': '11:00 - 23:45'}}",,06160,,,https://o-tacos.com/nos-restos
8 rue Paul Bellamy,Otacos,Nantes,France,"{'brand': 'otacos', 'fascia': 'otacos', 'category': 'Restaurant', 'edit_date': '2025-03-19', 'lat_lon_source': 'website'}",47.221026000000000000,-1.555422000000000000,NANTES Belamy,"{'opening_hours': {'Lun': '11:00 - 23:00', 'Mar': '11:00 - 23:00', 'Mer': '11:00 - 23:00', 'Jeu': '11:00 - 23:00', 'Ven': '11:00 - 23:00', 'Sam': '11:00 - 23:00', 'Dim': '11:00 - 23:00'}}",,44000,,,https://o-tacos.com/nos-restos
0 rue de rien,Otacos,Villefranche,France,"{'brand': 'otacos', 'fascia': 'otacos', 'category': 'Restaurant', 'edit_date': '2025-03-19', 'lat_lon_source': 'website'}",45.989882000000000000,4.717462000000000000,Villefranche sur Saône,"{'opening_hours': {'Lun': '11:00 - 22:30', 'Mar': '11:00 - 22:30', 'Mer': '11:00 - 22:30', 'Jeu': '11:00 - 22:30', 'Ven': '11:00 - 22:30', 'Sam': '11:00 - 22:30', 'Dim': '11:00 - 22:30'}}",,69400,,,https://o-tacos.com/nos-restos
9 Rue Vauban,Otacos,Colmar,France,"{'brand': 'otacos', 'fascia': 'otacos', 'category': 'Restaurant', 'edit_date': '2025-03-19', 'lat_lon_source': 'website'}",48.078295000000000000,7.361232000000000000,COLMAR VAUBAN,"{'opening_hours': {'Lun': '18:30 - 23:00', 'Mar': '18:30 - 23:00', 'Mer': '18:30 - 23:00', 'Jeu': '10:30 - 23:00', 'Ven': '18:30 - 23:00', 'Sam': '10:30 - 23:00', 'Dim': '10:30 - 23:00'}}",,68000,,,https://o-tacos.com/nos-restos
43 route nationale,Otacos,NOYELLES,France,"{'brand': 'otacos', 'fascia': 'otacos', 'category': 'Restaurant', 'edit_date': '2025-03-19', 'lat_lon_source': 'website'}",50.411579000000000000,2.977851000000000000,NOYELLES GODAULT,"{'opening_hours': {'Lun': '11:00 - 23:00', 'Mar': '11:00 - 23:00', 'Mer': '11:00 - 23:00', 'Jeu': '11:00 - 23:00', 'Ven': '11:00 - 23:00', 'Sam': '11:00 - 23:00', 'Dim': '11:00 - 23:00'}}",,62950,,,https://o-tacos.com/nos-restos
65 Avenue du général Leclerc,Otacos,Paris,France,"{'brand': 'otacos', 'fascia': 'otacos', 'category': 'Restaurant', 'edit_date': '2025-03-19', 'lat_lon_source': 'website'}",48.828808000000000000,2.328087000000000000,PARIS ALESIA,"{'opening_hours': {'Lun': '18:45 - 02:00', 'Mar': '18:45 - 02:00', 'Mer': '18:45 - 02:00', 'Jeu': '18:45 - 02:00', 'Ven': '18:45 - 02:00', 'Sam': '18:45 - 02:00', 'Dim': '18:45 - 02:00'}}",,75014,,,https://o-tacos.com/nos-restos
15 Avenue Wagram,Otacos,Paris,France,"{'brand': 'otacos', 'fascia': 'otacos', 'category': 'Restaurant', 'edit_date': '2025-03-19', 'lat_lon_source': 'website'}",48.875759027631000000,2.296188996516000000,WAGRAM PARIS,"{'opening_hours': {'Lun': '10:15 - 23:00', 'Mar': '11:00 - 23:00', 'Mer': '11:00 - 23:00', 'Jeu': '11:00 - 23:00', 'Ven': '11:00 - 23:00', 'Sam': '11:00 - 23:00', 'Dim': '11:00 - 23:00'}}",,75017,,,https://o-tacos.com/nos-restos
215 rue louis delage,Otacos,PERPIGNAN,France,"{'brand': 'otacos', 'fascia': 'otacos', 'category': 'Restaurant', 'edit_date': '2025-03-19', 'lat_lon_source': 'website'}",42.741128000000000000,2.890888000000000000,PERPIGNAN Polygone Nord,"{'opening_hours': {'Lun': '11:00 - 22:00', 'Mar': '11:00 - 22:00', 'Mer': '11:00 - 22:00', 'Jeu': '11:00 - 22:30', 'Ven': '11:00 - 22:30', 'Sam': '11:00 - 22:30', 'Dim': '12:00 - 22:00'}}",,66000,,,https://o-tacos.com/nos-restos
2 quai de la resistance,Otacos,SETE,France,"{'brand': 'otacos', 'fascia': 'otacos', 'category': 'Restaurant', 'edit_date': '2025-03-19', 'lat_lon_source': 'website'}",43.402773000000000000,3.697029000000000000,SETE,"{'opening_hours': {'Lun': '11:00 - 23:00', 'Mar': '11:00 - 23:00', 'Mer': '11:00 - 23:00', 'Jeu': '11:00 - 23:00', 'Ven': '11:00 - 23:00', 'Sam': '11:00 - 23:00', 'Dim': '11:00 - 23:00'}}",,34200,,,https://o-tacos.com/nos-restos
88 ter avenue parmentier,Otacos,PARIS,France,"{'brand': 'otacos', 'fascia': 'otacos', 'category': 'Restaurant', 'edit_date': '2025-03-19', 'lat_lon_source': 'website'}",48.864850200000000000,2.375032000000000000,PARIS PARMENTIER,"{'opening_hours': {'Lun': 'Fermé ', 'Mar': 'Fermé', 'Mer': ' Fermé', 'Jeu': 'Fermé', 'Ven': 'Fermé', 'Sam': 'Fermé', 'Dim': 'Fermé'}}",,75011,,,https://o-tacos.com/nos-restos
3 rue du pont Guilhemery,Otacos,TOULOUSE,France,"{'brand': 'otacos', 'fascia': 'otacos', 'category': 'Restaurant', 'edit_date': '2025-03-19', 'lat_lon_source': 'website'}",43.600543000000000000,1.455454000000000000,TOULOUSE Guilhemery,"{'opening_hours': {'Lun': '11:00 - 23:00', 'Mar': '11:00 - 23:00', 'Mer': '11:00 - 23:00', 'Jeu': '11:00 - 23:00', 'Ven': '11:00 - 23:00', 'Sam': '11:00 - 23:00', 'Dim': '11:00 - 23:00'}}",,31000,,,https://o-tacos.com/nos-restos
9B avenue de la 4eme république,Otacos,REZE,France,"{'brand': 'otacos', 'fascia': 'otacos', 'category': 'Restaurant', 'edit_date': '2025-03-19', 'lat_lon_source': 'website'}",47.190740000000000000,-1.547693000000000000,NANTES Reze,"{'opening_hours': {'Lun': '11:00 - 23:00', 'Mar': '11:00 - 23:00', 'Mer': '11:00 - 23:00', 'Jeu': '11:00 - 23:00', 'Ven': '11:00 - 23:00', 'Sam': '11:00 - 23:00', 'Dim': '11:00 - 23:00'}}",,44400,,,https://o-tacos.com/nos-restos
1170 avenue de saint germain,Otacos,Plaisir,France,"{'brand': 'otacos', 'fascia': 'otacos', 'category': 'Restaurant', 'edit_date': '2025-03-19', 'lat_lon_source': 'website'}",48.827163000000000000,1.959181000000000000,OTACOS PLAISIR,"{'opening_hours': {'Lun': '11:30 - 23:30', 'Mar': '11:30 - 22:20', 'Mer': '11:30 - 22:00', 'Jeu': '11:30 - 22:00', 'Ven': '11:30 - 23:00', 'Sam': '11:30 - 23:30', 'Dim': '11:30 - 23:30'}}",,78370,,,https://o-tacos.com/nos-restos
12 Place Jeanne hachette,Otacos,BEAUVAIS,France,"{'brand': 'otacos', 'fascia': 'otacos', 'category': 'Restaurant', 'edit_date': '2025-03-19', 'lat_lon_source': 'website'}",49.429882000000000000,2.082854000000000000,OTACOS BEAUVAIS,"{'opening_hours': {'Lun': '11:00 - 23:00', 'Mar': '11:00 - 23:00', 'Mer': '11:00 - 23:00', 'Jeu': '11:00 - 23:00', 'Ven': '11:00 - 00:00', 'Sam': '11:00 - 00:00', 'Dim': '11:00 - 23:00'}}",,60000,,,https://o-tacos.com/nos-restos
BP 309 Chem. de Briis,Otacos,Villebon,France,"{'brand': 'otacos', 'fascia': 'otacos', 'category': 'Restaurant', 'edit_date': '2025-03-19', 'lat_lon_source': 'website'}",48.706324000000000000,2.251923000000000000,OTACOS Villebon,"{'opening_hours': {'Lun': '11:00 - 23:00', 'Mar': '11:00 - 23:00', 'Mer': '11:00 - 23:00', 'Jeu': '11:00 - 23:00', 'Ven': '11:00 - 23:00', 'Sam': '11:00 - 23:00', 'Dim': '11:00 - 23:00'}}",,91140,,,https://o-tacos.com/nos-restos
14 TER Rue de l'amiral Ronarc'h,Otacos,Dunkerque,France,"{'brand': 'otacos', 'fascia': 'otacos', 'category': 'Restaurant', 'edit_date': '2025-03-19', 'lat_lon_source': 'website'}",51.035517000000000000,2.374414000000000000,OTACOS DUNKERQUE AMIRAL,"{'opening_hours': {'Lun': '11:00 - 23:00', 'Mar': '11:00 - 23:00', 'Mer': '11:00 - 23:00', 'Jeu': '11:00 - 23:00', 'Ven': '11:00 - 23:00', 'Sam': '11:00 - 23:00', 'Dim': '11:00 - 23:00'}}",,59140,,,https://o-tacos.com/nos-restos
32 Avenue Gabriel Peri,Otacos,Saint,France,"{'brand': 'otacos', 'fascia': 'otacos', 'category': 'Restaurant', 'edit_date': '2025-03-19', 'lat_lon_source': 'website'}",48.932843000000000000,2.355513000000000000,OTACOS SAINT DENIS Peri,"{'opening_hours': {'Lun': '11:00 - 23:59', 'Mar': '11:00 - 23:59', 'Mer': '00:00 - 05:00', 'Jeu': '11:00 - 23:59', 'Ven': '11:00 - 23:59', 'Sam': '00:00 - 05:00', 'Dim': '11:00 - 23:59'}}",,93200,,,https://o-tacos.com/nos-restos
106 Avenue marx dormoy,Otacos,Montrouge,France,"{'brand': 'otacos', 'fascia': 'otacos', 'category': 'Restaurant', 'edit_date': '2025-03-19', 'lat_lon_source': 'website'}",48.810175000000000000,2.313959000000000000,OTACOS FOOD TRUCK,"{'opening_hours': {'Lun': 'Fermé ', 'Mar': 'Fermé', 'Mer': ' Fermé', 'Jeu': 'Fermé', 'Ven': 'Fermé', 'Sam': 'Fermé', 'Dim': 'Fermé'}}",,92120,,,https://o-tacos.com/nos-restos
Est  Autoroute A7,Otacos,Allan,France,"{'brand': 'otacos', 'fascia': 'otacos', 'category': 'Restaurant', 'edit_date': '2025-03-19', 'lat_lon_source': 'website'}",44.514712725802000000,4.783125223311500000,ATG MONTELIMAR,"{'opening_hours': {'Lun': 'Fermé ', 'Mar': 'Fermé', 'Mer': ' Fermé', 'Jeu': 'Fermé', 'Ven': 'Fermé', 'Sam': 'Fermé', 'Dim': 'Fermé'}}",,26780,,,https://o-tacos.com/nos-restos
28 place Charles de Gaule,Otacos,Poitiers,France,"{'brand': 'otacos', 'fascia': 'otacos', 'category': 'Restaurant', 'edit_date': '2025-03-19', 'lat_lon_source': 'website'}",46.583846678007000000,0.345492012790610000,POITIERS Charles De Gaule,"{'opening_hours': {'Lun': '11:00 - 23:00', 'Mar': '11:00 - 23:00', 'Mer': '11:00 - 23:00', 'Jeu': '11:00 - 23:00', 'Ven': '11:00 - 23:55', 'Sam': '11:00 - 23:55', 'Dim': '11:30 - 23:00'}}",,86000,,,https://o-tacos.com/nos-restos
0 Route de beaumont,Otacos,CHAMBLY,France,"{'brand': 'otacos', 'fascia': 'otacos', 'category': 'Restaurant', 'edit_date': '2025-03-19', 'lat_lon_source': 'website'}",49.157940000000000000,2.261240000000000000,CHAMBLY RTE DE BEAUMONT,"{'opening_hours': {'Lun': '11:00 - 23:55', 'Mar': '11:00 - 23:55', 'Mer': '11:00 - 23:55', 'Jeu': '11:00 - 23:55', 'Ven': '11:00 - 23:55', 'Sam': '11:00 - 23:55', 'Dim': '11:00 - 23:55'}}",,60230,,,https://o-tacos.com/nos-restos
46  Rue du 11 Novembre,Otacos,SAINT,France,"{'brand': 'otacos', 'fascia': 'otacos', 'category': 'Restaurant', 'edit_date': '2025-03-19', 'lat_lon_source': 'website'}",45.426736535921000000,4.390539268474200000,SAINT ETIENNE NOVEMBER,"{'opening_hours': {'Lun': '11:00 - 23:00', 'Mar': '11:00 - 23:00', 'Mer': '11:00 - 23:00', 'Jeu': '11:00 - 23:00', 'Ven': '11:00 - 23:00', 'Sam': '11:00 - 23:00', 'Dim': '11:00 - 23:00'}}",,42100,,,https://o-tacos.com/nos-restos
3 rue Trudaine,Otacos,Villeneuve,France,"{'brand': 'otacos', 'fascia': 'otacos', 'category': 'Restaurant', 'edit_date': '2025-03-19', 'lat_lon_source': 'website'}",50.616089533826000000,3.141278038742800000,Villeneuve d'Ascq,"{'opening_hours': {'Lun': '19:00 - 23:55', 'Mar': '19:00 - 23:55', 'Mer': '19:00 - 23:55', 'Jeu': '19:00 - 23:50', 'Ven': '11:00 - 23:30', 'Sam': '19:00 - 23:50', 'Dim': '19:00 - 23:55'}}",,59650,,,https://o-tacos.com/nos-restos
4 Rue Sévigné,Otacos,FOUGERES,France,"{'brand': 'otacos', 'fascia': 'otacos', 'category': 'Restaurant', 'edit_date': '2025-03-19', 'lat_lon_source': 'website'}",48.349523576270000000,-1.194815459731100000,FOUGERES,"{'opening_hours': {'Lun': '11:30 - 22:00', 'Mar': '11:30 - 23:00', 'Mer': '11:30 - 23:00', 'Jeu': '11:30 - 23:00', 'Ven': '11:30 - 23:55', 'Sam': '11:30 - 23:55', 'Dim': '12:00 - 23:00'}}",,35300,,,https://o-tacos.com/nos-restos
5 Rue du Bosphore,Otacos,RENNES,France,"{'brand': 'otacos', 'fascia': 'otacos', 'category': 'Restaurant', 'edit_date': '2025-03-19', 'lat_lon_source': 'website'}",48.083260580754000000,-1.679769413493100000,RENNES Alma,"{'opening_hours': {'Lun': '11:00 - 22:00', 'Mar': '11:00 - 22:00', 'Mer': '11:00 - 22:00', 'Jeu': '11:00 - 22:00', 'Ven': '11:00 - 22:00', 'Sam': '11:00 - 22:00', 'Dim': '11:00 - 22:00'}}",,35000,,,https://o-tacos.com/nos-restos
56 Boulevard de Clichy,Otacos,PARIS,France,"{'brand': 'otacos', 'fascia': 'otacos', 'category': 'Restaurant', 'edit_date': '2025-03-19', 'lat_lon_source': 'website'}",48.883281900000000000,2.335086700000000000,PARIS PIGALLE,"{'opening_hours': {'Lun': '11:30 - 23:30', 'Mar': '11:30 - 23:30', 'Mer': '11:30 - 23:30', 'Jeu': '11:30 - 23:30', 'Ven': '11:30 - 23:30', 'Sam': '11:30 - 23:30', 'Dim': '11:30 - 23:30'}}",,75018,,,https://o-tacos.com/nos-restos
2 avenue Jean Jaures,Otacos,VANDOEUVRE,France,"{'brand': 'otacos', 'fascia': 'otacos', 'category': 'Restaurant', 'edit_date': '2025-03-19', 'lat_lon_source': 'website'}",48.666106116163000000,6.165341926487200000,OTACOS VANDOEUVRE Lès NANCY,"{'opening_hours': {'Lun': '11:00 - 23:00', 'Mar': '11:00 - 23:00', 'Mer': '11:00 - 23:00', 'Jeu': '11:00 - 23:00', 'Ven': '11:00 - 23:00', 'Sam': '11:00 - 23:00', 'Dim': '11:00 - 23:00'}}",,54500,,,https://o-tacos.com/nos-restos
30 rue Solferino,Otacos,Compiegne,France,"{'brand': 'otacos', 'fascia': 'otacos', 'category': 'Restaurant', 'edit_date': '2025-03-19', 'lat_lon_source': 'website'}",49.418752600472000000,2.824521384193500000,COMPIEGNE SOLFERINO,"{'opening_hours': {'Lun': '11:30 - 23:00', 'Mar': '11:30 - 23:00', 'Mer': '11:00 - 23:00', 'Jeu': '11:30 - 23:00', 'Ven': '11:30 - 23:30', 'Sam': '11:30 - 23:30', 'Dim': '11:30 - 23:00'}}",,60200,,,https://o-tacos.com/nos-restos
27 rue Charles VII,Otacos,Nogent,France,"{'brand': 'otacos', 'fascia': 'otacos', 'category': 'Restaurant', 'edit_date': '2025-03-19', 'lat_lon_source': 'website'}",48.836426065036000000,2.487717482315700000,NOGENT SUR MARNE Charles VII,"{'opening_hours': {'Lun': '11:00 - 23:30', 'Mar': '11:00 - 23:30', 'Mer': '11:00 - 23:30', 'Jeu': '11:00 - 23:30', 'Ven': '11:00 - 00:00', 'Sam': '11:00 - 00:00', 'Dim': '12:00 - 23:30'}}",,94130,,,https://o-tacos.com/nos-restos
78 Avenue Ambroise Croizat,Otacos,Lanester,France,"{'brand': 'otacos', 'fascia': 'otacos', 'category': 'Restaurant', 'edit_date': '2025-03-19', 'lat_lon_source': 'website'}",47.775630664422000000,-3.340493631224900000,LANESTER Croizat,"{'opening_hours': {'Lun': '11:00 - 23:00', 'Mar': '11:00 - 23:00', 'Mer': '11:00 - 23:00', 'Jeu': '11:30 - 23:30', 'Ven': '11:00 - 23:55', 'Sam': '11:00 - 23:55', 'Dim': '11:00 - 23:30'}}",,56600,,,https://o-tacos.com/nos-restos
2 Centre Commercial Westfield Velizy,Otacos,Vélizy-Villacoublay,France,"{'brand': 'otacos', 'fascia': 'otacos', 'category': 'Restaurant', 'edit_date': '2025-03-19', 'lat_lon_source': 'website'}",48.780982234195000000,2.220861139984900000,VELIZY Westfield,"{'opening_hours': {'Lun': '11:00 - 22:30', 'Mar': '11:00 - 22:30', 'Mer': '11:00 - 22:30', 'Jeu': '11:00 - 22:30', 'Ven': '11:00 - 22:30', 'Sam': '11:00 - 22:30', 'Dim': '11:00 - 22:30'}}",,78140,,,https://o-tacos.com/nos-restos
3 boulevard Gaston Ramon,Otacos,ANGERS,France,"{'brand': 'otacos', 'fascia': 'otacos', 'category': 'Restaurant', 'edit_date': '2025-03-19', 'lat_lon_source': 'website'}",47.488030000000000000,-0.542070000000000000,ANGERS Saint Serge,"{'opening_hours': {'Lun': '11:00 - 20:30', 'Mar': '11:00 - 20:30', 'Mer': '11:00 - 20:30', 'Jeu': '11:00 - 20:30', 'Ven': '11:00 - 20:30', 'Sam': '11:00 - 20:35', 'Dim': '11:00 - 23:30'}}",,49100,,,https://o-tacos.com/nos-restos
1 Avenue Georges Pompidou,Otacos,Gonesse,France,"{'brand': 'otacos', 'fascia': 'otacos', 'category': 'Restaurant', 'edit_date': '2025-03-19', 'lat_lon_source': 'website'}",48.989865992874000000,2.431545911250100000,GONESSE La Grande Vallée,"{'opening_hours': {'Lun': '11:00 - 23:30', 'Mar': '11:00 - 23:30', 'Mer': '11:00 - 23:30', 'Jeu': '11:00 - 23:30', 'Ven': '11:00 - 23:30', 'Sam': '11:00 - 23:30', 'Dim': '11:00 - 23:30'}}",,95500,,,https://o-tacos.com/nos-restos
16 RUE ANTHELME BRILLAT SAVARIN,Otacos,Orléans,France,"{'brand': 'otacos', 'fascia': 'otacos', 'category': 'Restaurant', 'edit_date': '2025-03-19', 'lat_lon_source': 'website'}",47.875070801591000000,1.910844962523200000,ORLEANS SAVARIN,"{'opening_hours': {'Lun': '11:00 - 23:00', 'Mar': '11:00 - 23:00', 'Mer': '11:00 - 23:00', 'Jeu': '11:00 - 23:00', 'Ven': '11:00 - 23:00', 'Sam': '11:00 - 23:00', 'Dim': '11:00 - 23:00'}}",,45000,,,https://o-tacos.com/nos-restos
17 Place du général de Gaulle,Otacos,Chinon,France,"{'brand': 'otacos', 'fascia': 'otacos', 'category': 'Restaurant', 'edit_date': '2025-03-19', 'lat_lon_source': 'website'}",47.166287000000000000,0.239986000000000000,CHINON,"{'opening_hours': {'Lun': '11:00 - 23:00', 'Mar': '11:00 - 23:00', 'Mer': '11:00 - 23:00', 'Jeu': '11:00 - 23:00', 'Ven': '11:00 - 23:00', 'Sam': '11:00 - 23:00', 'Dim': '11:30 - 23:00'}}",,37500,,,https://o-tacos.com/nos-restos
60 rue Jean Jaures,Otacos,Champigny,France,"{'brand': 'otacos', 'fascia': 'otacos', 'category': 'Restaurant', 'edit_date': '2025-03-19', 'lat_lon_source': 'website'}",48.814633599568000000,2.507415712280900000,CHAMPIGNY SUR MARNE JEAN JAURES,"{'opening_hours': {'Lun': '11:30 - 23:30', 'Mar': '11:30 - 23:30', 'Mer': '11:30 - 23:30', 'Jeu': '11:30 - 23:30', 'Ven': '11:30 - 23:30', 'Sam': '11:30 - 23:30', 'Dim': '11:30 - 23:30'}}",,94500,,,https://o-tacos.com/nos-restos
60 Route de Nimes,Otacos,LE,France,"{'brand': 'otacos', 'fascia': 'otacos', 'category': 'Restaurant', 'edit_date': '2025-03-19', 'lat_lon_source': 'website'}",43.637956146027000000,3.932437348708800000,MONTPELLIER LE CRES,"{'opening_hours': {'Lun': '11:00 - 23:30', 'Mar': '11:00 - 23:30', 'Mer': '11:00 - 23:30', 'Jeu': '11:00 - 23:30', 'Ven': '11:00 - 23:30', 'Sam': '11:00 - 23:30', 'Dim': '11:00 - 23:30'}}",,34920,,,https://o-tacos.com/nos-restos
740 Belle Epine,Otacos,THIAS,France,"{'brand': 'otacos', 'fascia': 'otacos', 'category': 'Restaurant', 'edit_date': '2025-03-19', 'lat_lon_source': 'website'}",48.756826471008000000,2.371645583777300000,BELLE EPINE,"{'opening_hours': {'Lun': '11:00 - 23:00', 'Mar': '11:00 - 23:00', 'Mer': '11:00 - 23:00', 'Jeu': '11:00 - 23:00', 'Ven': '11:00 - 23:00', 'Sam': '11:00 - 23:00', 'Dim': '11:00 - 23:00'}}",,94320,,,https://o-tacos.com/nos-restos
