addr_full,city,country,brand,extras,lat,lon,opening_hours,phone,ref,postcode,name,state,website
"Avenida Central con calle Juan A. Guizado, Calidonia",Panamá,Panama,Novey,"{'brand': 'Novey', 'fascia': 'Novey', 'category': 'Hardware Store', 'edit_date': '20250406', 'lat_lon_source': 'website'}",8.972077,-79.537508,"{'Mon': '08:00-17:00', 'Tue': '08:00-17:00', 'Wed': '08:00-17:00', 'Thu': '08:00-17:00', 'Fri': '08:00-17:00', 'Sat': 'Closed', 'Sun': 'Closed'}",300-9200,0301,507,Novey Calidonia,Panamá,https://www.novey.com.pa/sucursales-y-horarios
"Calle 64B con calle 65 oeste, Los Ángeles",Panamá,Panama,Novey,"{'brand': 'Novey', 'fascia': 'Novey', 'category': 'Hardware Store', 'edit_date': '20250406', 'lat_lon_source': 'website'}",9.002103,-79.528942,"{'Mon': '08:00-20:00', 'Tue': '08:00-20:00', 'Wed': '08:00-20:00', 'Thu': '08:00-20:00', 'Fri': '08:00-20:00', 'Sat': 'Closed', 'Sun': 'Closed'}",300-9200,0302,507,Novey Los Ángeles,Panamá,https://www.novey.com.pa/sucursales-y-horarios
"Avenida Marina del norte, Costa del Este",Panamá,Panama,Novey,"{'brand': 'Novey', 'fascia': 'Novey', 'category': 'Hardware Store', 'edit_date': '20250406', 'lat_lon_source': 'website'}",9.022786,-79.462596,"{'Mon': '08:00-20:00', 'Tue': '08:00-20:00', 'Wed': '08:00-20:00', 'Thu': '08:00-20:00', 'Fri': '08:00-20:00', 'Sat': '08:00-20:00', 'Sun': '09:00-20:00'}",300-9200,0303,507,Novey Costa del Este,Panamá,https://www.novey.com.pa/sucursales-y-horarios
Centro comercial Albrook Mall,Panamá,Panama,Novey,"{'brand': 'Novey', 'fascia': 'Novey', 'category': 'Hardware Store', 'edit_date': '20250406', 'lat_lon_source': 'website'}",8.978058,-79.553376,"{'Mon': '08:00-20:00', 'Tue': '08:00-20:00', 'Wed': '08:00-20:00', 'Thu': '08:00-20:00', 'Fri': '08:00-20:00', 'Sat': '08:00-20:00', 'Sun': '09:00-18:00'}",300-9200,0304,507,Novey Albrook,Panamá,https://www.novey.com.pa/sucursales-y-horarios
Avenida principal Brisas del Golf con calle 29,Panamá,Panama,Novey,"{'brand': 'Novey', 'fascia': 'Novey', 'category': 'Hardware Store', 'edit_date': '20250406', 'lat_lon_source': 'website'}",9.069807,-79.451639,"{'Mon': '08:00-20:00', 'Tue': '08:00-20:00', 'Wed': '08:00-20:00', 'Thu': '08:00-20:00', 'Fri': '08:00-20:00', 'Sat': '08:00-20:00', 'Sun': '09:00-18:00'}",300-9200,0305,507,Novey Brisas del Golf,Panamá,https://www.novey.com.pa/sucursales-y-horarios
"Avenida Balboa con vía Italia, Paitilla",Panamá,Panama,Novey,"{'brand': 'Novey', 'fascia': 'Novey', 'category': 'Hardware Store', 'edit_date': '20250406', 'lat_lon_source': 'website'}",8.975606,-79.516233,"{'Mon': '08:00-18:00', 'Tue': '08:00-18:00', 'Wed': '08:00-18:00', 'Thu': '08:00-18:00', 'Fri': '08:00-18:00', 'Sat': '08:00-18:00', 'Sun': 'Closed'}",300-9200,0306,507,Novey Paitilla,Panamá,https://www.novey.com.pa/sucursales-y-horarios
"Plaza La Rotonda Cuatro Altos, Colón.",Colón,Panama,Novey,"{'brand': 'Novey', 'fascia': 'Novey', 'category': 'Hardware Store', 'edit_date': '20250406', 'lat_lon_source': 'website'}",9.338865,-79.879862,"{'Mon': '08:00-20:00', 'Tue': '08:00-20:00', 'Wed': '08:00-20:00', 'Thu': '08:00-20:00', 'Fri': '08:00-20:00', 'Sat': '08:00-20:00', 'Sun': '09:00-18:00'}",300-9200,0307,507,Novey Colón,Colón,https://www.novey.com.pa/sucursales-y-horarios
Carretera Interamericana con vía Boquete,David,Panama,Novey,"{'brand': 'Novey', 'fascia': 'Novey', 'category': 'Hardware Store', 'edit_date': '20250406', 'lat_lon_source': 'website'}",8.445824,-82.421650,"{'Mon': '08:00-20:00', 'Tue': '08:00-20:00', 'Wed': '08:00-20:00', 'Thu': '08:00-20:00', 'Fri': '08:00-20:00', 'Sat': '08:00-20:00', 'Sun': '09:00-18:00'}",300-9200,0308,507,Novey David,Chiriquí,https://www.novey.com.pa/sucursales-y-horarios
Avenida Las Américas,La Chorrera,Panama,Novey,"{'brand': 'Novey', 'fascia': 'Novey', 'category': 'Hardware Store', 'edit_date': '20250406', 'lat_lon_source': 'website'}",8.888566,-79.772446,"{'Mon': '08:00-18:00', 'Tue': '08:00-18:00', 'Wed': '08:00-18:00', 'Thu': '08:00-18:00', 'Fri': '08:00-18:00', 'Sat': '08:00-18:00', 'Sun': '09:00-18:00'}",300-9200,0309,507,Novey La Chorrera,Panamá Oeste,https://www.novey.com.pa/sucursales-y-horarios
"Avenida Centenario, Centennial",Panamá,Panama,Novey,"{'brand': 'Novey', 'fascia': 'Novey', 'category': 'Hardware Store', 'edit_date': '20250406', 'lat_lon_source': 'website'}",9.030579,-79.530144,"{'Mon': '08:00-20:00', 'Tue': '08:00-20:00', 'Wed': '08:00-20:00', 'Thu': '08:00-20:00', 'Fri': '08:00-20:00', 'Sat': '08:00-20:00', 'Sun': '09:00-18:00'}",300-9200,0310,507,Novey Centenario,Panamá,https://www.novey.com.pa/sucursales-y-horarios
"Avenida Costanera, Versalles",Panamá,Panama,Novey,"{'brand': 'Novey', 'fascia': 'Novey', 'category': 'Hardware Store', 'edit_date': '20250406', 'lat_lon_source': 'website'}",9.030572,-79.530146,"{'Mon': '08:00-20:00', 'Tue': '08:00-20:00', 'Wed': '08:00-20:00', 'Thu': '08:00-20:00', 'Fri': '08:00-20:00', 'Sat': '08:00-20:00', 'Sun': '09:00-18:00'}",300-9200,0311,507,Novey Versalles,Panamá,https://www.novey.com.pa/sucursales-y-horarios
"Carretera Interamericana, Coronado",La Chorrera,Panama,Novey,"{'brand': 'Novey', 'fascia': 'Novey', 'category': 'Hardware Store', 'edit_date': '20250406', 'lat_lon_source': 'website'}",8.541412,-79.916491,"{'Mon': 'Closed', 'Tue': 'Closed', 'Wed': 'Closed', 'Thu': 'Closed', 'Fri': 'Closed', 'Sat': 'Closed', 'Sun': '09:00-18:00'}",300-9200,0312,507,Novey Coronado,Panamá Oeste,https://www.novey.com.pa/sucursales-y-horarios
"Carretera Interamericana, Vista Alegre",La Chorrera,Panama,Novey,"{'brand': 'Novey', 'fascia': 'Novey', 'category': 'Hardware Store', 'edit_date': '20250406', 'lat_lon_source': 'website'}",8.927140,-79.706861,"{'Mon': '08:00-18:00', 'Tue': '08:00-18:00', 'Wed': '08:00-18:00', 'Thu': '08:00-18:00', 'Fri': '08:00-18:00', 'Sat': '08:00-18:00', 'Sun': '09:00-18:00'}",300-9200,0313,507,Novey Arraijan ,Panamá Oeste,https://www.novey.com.pa/sucursales-y-horarios
"Calle 50 con calle 65 este, San Francisco",Panamá,Panama,Novey,"{'brand': 'Novey', 'fascia': 'Novey', 'category': 'Hardware Store', 'edit_date': '20250406', 'lat_lon_source': 'website'}",8.989965,-79.512072,"{'Mon': '08:00-18:00', 'Tue': '08:00-18:00', 'Wed': '08:00-18:00', 'Thu': '08:00-18:00', 'Fri': '08:00-18:00', 'Sat': '08:00-18:00', 'Sun': 'Closed'}",300-9200,0314,507,Novey Calle 50,Panamá,https://www.novey.com.pa/sucursales-y-horarios
Avenida Roberto Ramírez de Diego,Chitré,Panama,Novey,"{'brand': 'Novey', 'fascia': 'Novey', 'category': 'Hardware Store', 'edit_date': '20250406', 'lat_lon_source': 'website'}",7.952595,-80.429051,"{'Mon': '08:00-19:00', 'Tue': '08:00-19:00', 'Wed': '08:00-19:00', 'Thu': '08:00-19:00', 'Fri': '08:00-19:00', 'Sat': '08:00-19:00', 'Sun': '09:00-18:00'}",300-9200,0315,507,Novey Chitré,Herrera,https://www.novey.com.pa/sucursales-y-horarios
Carretera Interamericana con calle de la Esperanza,Penonomé,Panama,Novey,"{'brand': 'Novey', 'fascia': 'Novey', 'category': 'Hardware Store', 'edit_date': '20250406', 'lat_lon_source': 'website'}",8.509686,-80.361587,"{'Mon': '08:00-18:00', 'Tue': '08:00-18:00', 'Wed': '08:00-18:00', 'Thu': '08:00-18:00', 'Fri': '08:00-18:00', 'Sat': '08:00-18:00', 'Sun': '09:00-18:00'}",300-9200,0316,507,Novey Penonomé,Coclé,https://www.novey.com.pa/sucursales-y-horarios
Calle F Sur,David,Panama,Novey,"{'brand': 'Novey', 'fascia': 'Novey', 'category': 'Hardware Store', 'edit_date': '20250406', 'lat_lon_source': 'website'}",8.427730,-82.438113,"{'Mon': '08:00-18:00', 'Tue': '08:00-18:00', 'Wed': '08:00-18:00', 'Thu': '08:00-18:00', 'Fri': '08:00-18:00', 'Sat': '08:00-18:00', 'Sun': 'Closed'}",300-9200,0317,507,Novey David F Sur,Chiriquí,https://www.novey.com.pa/sucursales-y-horarios
"Carretera Interamericana, Rio Hato",Penonomé,Panama,Novey,"{'brand': 'Novey', 'fascia': 'Novey', 'category': 'Hardware Store', 'edit_date': '20250406', 'lat_lon_source': 'website'}",8.373505,-80.155796,"{'Mon': '08:00-18:00', 'Tue': '08:00-18:00', 'Wed': '08:00-18:00', 'Thu': '08:00-18:00', 'Fri': '08:00-18:00', 'Sat': '08:00-18:00', 'Sun': '09:00-18:00'}",300-9200,0318,507,Novey Playa Blanca,Coclé,https://www.novey.com.pa/sucursales-y-horarios
"Carretera Interamericana, Santiago",Santiago,Panama,Novey,"{'brand': 'Novey', 'fascia': 'Novey', 'category': 'Hardware Store', 'edit_date': '20250406', 'lat_lon_source': 'website'}",8.097828,-80.958747,"{'Mon': '08:00-18:00', 'Tue': '08:00-18:00', 'Wed': '08:00-18:00', 'Thu': '08:00-18:00', 'Fri': '08:00-18:00', 'Sat': '08:00-18:00', 'Sun': '09:00-18:00'}",300-9200,0319,507,Novey Santiago,Veraguas,https://www.novey.com.pa/sucursales-y-horarios
"Calle La Doña con calle Cabuya, La Doña",Panamá,Panama,Novey,"{'brand': 'Novey', 'fascia': 'Novey', 'category': 'Hardware Store', 'edit_date': '20250406', 'lat_lon_source': 'website'}",9.105509,-79.371494,"{'Mon': '08:00-19:00', 'Tue': '08:00-19:00', 'Wed': '08:00-19:00', 'Thu': '08:00-19:00', 'Fri': '08:00-19:00', 'Sat': '08:00-19:00', 'Sun': '09:00-18:00'}",300-9200,0320,507,Novey La Doña,Panamá,https://www.novey.com.pa/sucursales-y-horarios
"Vía España, Río Abajo, Parque Lefevre",Panamá,Panama,Novey,"{'brand': 'Novey', 'fascia': 'Novey', 'category': 'Hardware Store', 'edit_date': '20250406', 'lat_lon_source': 'website'}",9.016503,-79.495440,"{'Mon': '08:00-17:00', 'Tue': '08:00-17:00', 'Wed': '08:00-17:00', 'Thu': '08:00-17:00', 'Fri': '08:00-17:00', 'Sat': '08:00-17:00', 'Sun': 'Closed'}",300-9200,0321,507,Novey Parque Lefevre,Panamá,https://www.novey.com.pa/sucursales-y-horarios
Vía Tocumen,Panama,Panama,Novey,"{'brand': 'Novey', 'fascia': 'Novey', 'category': 'Hardware Store', 'edit_date': '20250406', 'lat_lon_source': 'website'}",,,{},,03MP,0000,Marketplace Novey,Panamá,https://www.novey.com.pa/sucursales-y-horarios
"Panamá Pacífico Boulevard, Arraiján",La Chorrera,Panama,Novey,"{'brand': 'Novey', 'fascia': 'Novey', 'category': 'Hardware Store', 'edit_date': '20250406', 'lat_lon_source': 'website'}",8.917870,-79.593229,"{'Mon': '08:00-18:00', 'Tue': '08:00-18:00', 'Wed': '08:00-18:00', 'Thu': '08:00-18:00', 'Fri': '08:00-18:00', 'Sat': '08:00-18:00', 'Sun': 'Closed'}",300-9200,0322,507,Novey Panamá Pacífico,Panamá Oeste,https://www.novey.com.pa/sucursales-y-horarios
Calle 50 con calle 53 este,Panamá,Panama,Novey,"{'brand': 'Novey', 'fascia': 'Novey', 'category': 'Hardware Store', 'edit_date': '20250406', 'lat_lon_source': 'website'}",8.982466,-79.520316,"{'Mon': '08:00-20:00', 'Tue': '08:00-20:00', 'Wed': '08:00-20:00', 'Thu': '08:00-20:00', 'Fri': '08:00-20:00', 'Sat': '08:00-20:00', 'Sun': '09:00-18:00'}",300-9200,0323,507,Novey Obarrio,Panamá,https://www.novey.com.pa/sucursales-y-horarios
Autopista Arraiján - La Chorrera con el Boulevard Costa Verde,La Chorrera,Panama,Novey,"{'brand': 'Novey', 'fascia': 'Novey', 'category': 'Hardware Store', 'edit_date': '20250406', 'lat_lon_source': 'website'}",8.889150,-79.750351,"{'Mon': '08:00-20:00', 'Tue': '08:00-20:00', 'Wed': '08:00-20:00', 'Thu': '08:00-20:00', 'Fri': '08:00-20:00', 'Sat': '08:00-20:00', 'Sun': '09:00-18:00'}",300-9200,0324,507,Novey Costa Verde,Panamá Oeste,https://www.novey.com.pa/sucursales-y-horarios
"Carretera Panamericana, Las Américas",Panamá,Panama,Novey,"{'brand': 'Novey', 'fascia': 'Novey', 'category': 'Hardware Store', 'edit_date': '20250406', 'lat_lon_source': 'website'}",9.077543,-79.400205,"{'Mon': '08:00-20:00', 'Tue': '08:00-20:00', 'Wed': '08:00-20:00', 'Thu': '08:00-20:00', 'Fri': '08:00-20:00', 'Sat': '08:00-20:00', 'Sun': '09:00-18:00'}",300-9200,0325,507,Novey Las Américas,Panamá,https://www.novey.com.pa/sucursales-y-horarios
Vía Tocumen,Panama,Panama,Novey,"{'brand': 'Novey', 'fascia': 'Novey', 'category': 'Hardware Store', 'edit_date': '20250406', 'lat_lon_source': 'website'}",9.070260,-79.408630,"{'Mon': '08:00-17:00', 'Tue': '08:00-17:00', 'Wed': '08:00-17:00', 'Thu': '08:00-17:00', 'Fri': '08:00-17:00', 'Sat': 'Closed', 'Sun': 'Closed'}",300-9200,03D1,0000,Centro de Distribución Novey,Panamá,https://www.novey.com.pa/sucursales-y-horarios
