addr_full,brand,city,country,extras,lat,lon,name,opening_hours,phone,postcode,ref,state,website
"Λεωφόρος Κηφισού, Πέτρου Ράλλη, 182 33",Goody's,,Greece,"{'brand': ""Goody's Burger House"", 'fascia': ""Goody's Burger House"", 'category': 'Food and Beverage', 'edit_date': '20250510', 'lat_lon_source': 'Website'}",37.9737,23.6727,Goody's Allou Fun Park,{'opening_hours': {}},210 8092863,,708,,https://www.goodys.com/en/katastimata/
"Vouliagmenis Avenue 276, Athens, 17343",Goody's,,Greece,"{'brand': ""Goody's Burger House"", 'fascia': ""Goody's Burger House"", 'category': 'Food and Beverage', 'edit_date': '20250510', 'lat_lon_source': 'Website'}",37.94002,23.74043,Goody's Athens Metro Mall,{'opening_hours': {}},2109717870,,700,,https://www.goodys.com/en/katastimata/
"Building Block E71, Gialos Place, Spata - Athens, 19004",Goody's, Spata - Athens,Greece,"{'brand': ""Goody's Burger House"", 'fascia': ""Goody's Burger House"", 'category': 'Food and Beverage', 'edit_date': '20250510', 'lat_lon_source': 'Website'}",37.98645,23.91107,Goody's Designer Outlet,"{'opening_hours': {'Sun': '11:00-20:00', 'Mon': '11:00-21:00', 'Tue': '11:00-21:00', 'Wed': '11:00-21:00', None: '11:00-21:00', 'Fri': '11:00-21:00', 'Sat': '11:00-20:00'}}",21 0663 0840, 19004,702,,https://www.goodys.com/en/katastimata/
"Kifissou & Petrou Ralli Avenue, Athens, 18233",Goody's,,Greece,"{'brand': ""Goody's Burger House"", 'fascia': ""Goody's Burger House"", 'category': 'Food and Beverage', 'edit_date': '20250510', 'lat_lon_source': 'Website'}",37.97475,23.67169,Goody's KIDOM,{'opening_hours': {}},21 0809 2888,,706,,https://www.goodys.com/en/katastimata/
"11th km E.O. Thessalonikis -Ν. Moudania, Thessaloniki, 57001",Goody's,,Greece,"{'brand': ""Goody's Burger House"", 'fascia': ""Goody's Burger House"", 'category': 'Food and Beverage', 'edit_date': '20250510', 'lat_lon_source': 'Website'}",40.55497,22.99276,Goody's Mediterranean Cosmos -  Thessaloniki,{'opening_hours': {}},231 047 1743,,701,,https://www.goodys.com/en/katastimata/
SYNTAGMA DΙNE ΙN,Goody's,,Greece,"{'brand': ""Goody's Burger House"", 'fascia': ""Goody's Burger House"", 'category': 'Food and Beverage', 'edit_date': '20250510', 'lat_lon_source': 'Website'}",37.97494,23.73422,Goody's Syntagma Dine In - Null,{'opening_hours': {}},,,600,,https://www.goodys.com/en/katastimata/
"Thivon 228, Ag. Ioannis Rentis 182 33",Goody's,Ag. Ioannis,Greece,"{'brand': ""Goody's Burger House"", 'fascia': ""Goody's Burger House"", 'category': 'Food and Beverage', 'edit_date': '20250510', 'lat_lon_source': 'Website'}",37.97614,23.66784,Goody's Vilage Shopping & More (Ioannis Rentis),{'opening_hours': {}},210-4922522,18233,671,,https://www.goodys.com/en/katastimata/
"Leof. Krioneriou, Ag. Stefanos 145 65",Goody's,Ag. Stefanos,Greece,"{'brand': ""Goody's Burger House"", 'fascia': ""Goody's Burger House"", 'category': 'Food and Beverage', 'edit_date': '20250510', 'lat_lon_source': 'Website'}",38.14114,23.84492,Goody's Agios Stefanos,{'opening_hours': {}},210-6215858,14565,603,,https://www.goodys.com/en/katastimata/
Εντός Οικισμού Αγίας Μαρίνας ,Goody's,,Greece,"{'brand': ""Goody's Burger House"", 'fascia': ""Goody's Burger House"", 'category': 'Food and Beverage', 'edit_date': '20250510', 'lat_lon_source': 'Website'}",35.51971,23.9284,"Goody's Αγία Μαρίνα, Χανιά",{'opening_hours': {}},28216 01520,,710,,https://www.goodys.com/en/katastimata/
"Ir. Politechniou 6, Ag. Paraskevi 153 42",Goody's,Ag. Paraskevi,Greece,"{'brand': ""Goody's Burger House"", 'fascia': ""Goody's Burger House"", 'category': 'Food and Beverage', 'edit_date': '20250510', 'lat_lon_source': 'Website'}",38.01265,23.81954,Goody's Agia Paraskevi,{'opening_hours': {}},210-6396750,15342,601,,https://www.goodys.com/en/katastimata/
"Agias Sofias 38, Thessaloniki 546 22",Goody's,Thessaloniki,Greece,"{'brand': ""Goody's Burger House"", 'fascia': ""Goody's Burger House"", 'category': 'Food and Beverage', 'edit_date': '20250510', 'lat_lon_source': 'Website'}",40.63361,22.94634,Goody's Agia Sofia,{'opening_hours': {}},,,602,,https://www.goodys.com/en/katastimata/
"Papastratou 53, Agrinio 301 00",Goody's,Agrinio,Greece,"{'brand': ""Goody's Burger House"", 'fascia': ""Goody's Burger House"", 'category': 'Food and Beverage', 'edit_date': '20250510', 'lat_lon_source': 'Website'}",38.62859,21.4089,Goody's Agrinio,{'opening_hours': {}},26410-29965,,604,,https://www.goodys.com/en/katastimata/
"Leof. Dimokratias 316, Alexandroupoli 681 00",Goody's,Alexandroupoli,Greece,"{'brand': ""Goody's Burger House"", 'fascia': ""Goody's Burger House"", 'category': 'Food and Beverage', 'edit_date': '20250510', 'lat_lon_source': 'Website'}",40.84423,25.87601,Goody's Alexandroupoli,{'opening_hours': {}},25510-26595,,607,,https://www.goodys.com/en/katastimata/
"Λεωφόρος Πατησίων 351, Αθήνα",Goody's,Αθήνα,Greece,"{'brand': ""Goody's Burger House"", 'fascia': ""Goody's Burger House"", 'category': 'Food and Beverage', 'edit_date': '20250510', 'lat_lon_source': 'Website'}",38.02322,23.73582,Goody's Άνω Πατήσια,{'opening_hours': {}},210 2116882,,719,,https://www.goodys.com/en/katastimata/
"Alexioupoleos 32, Argiroupoli 164 52",Goody's,Argiroupoli,Greece,"{'brand': ""Goody's Burger House"", 'fascia': ""Goody's Burger House"", 'category': 'Food and Beverage', 'edit_date': '20250510', 'lat_lon_source': 'Website'}",37.90595,23.74919,Goody's Argiroupoli,{'opening_hours': {}},210-9959609,,608,,https://www.goodys.com/en/katastimata/
"Λεύκης & Βασιλέως Κωνσταντίνου 2, Βάρη ",Goody's,Βάρη,Greece,"{'brand': ""Goody's Burger House"", 'fascia': ""Goody's Burger House"", 'category': 'Food and Beverage', 'edit_date': '20250510', 'lat_lon_source': 'Website'}",37.83044,23.80299,Goody's Βάρη,{'opening_hours': {}},2100106299,,722,,https://www.goodys.com/en/katastimata/
"Leof. Vasilissis Olgas 99, Thessaloniki 546 43",Goody's,Thessaloniki,Greece,"{'brand': ""Goody's Burger House"", 'fascia': ""Goody's Burger House"", 'category': 'Food and Beverage', 'edit_date': '20250510', 'lat_lon_source': 'Website'}",40.60793,22.95345,Goody's Leof. Vasilissis Olgas - Thessaloniki,{'opening_hours': {}},2310-864024,,655,,https://www.goodys.com/en/katastimata/
"Mitropoleos 40, Veria 591 32",Goody's,Veria,Greece,"{'brand': ""Goody's Burger House"", 'fascia': ""Goody's Burger House"", 'category': 'Food and Beverage', 'edit_date': '20250510', 'lat_lon_source': 'Website'}",40.52041,22.20086,Goody's Veria,{'opening_hours': {}},23310-29583,,610,,https://www.goodys.com/en/katastimata/
"Argonafton 44, Volos 382 21",Goody's,Volos,Greece,"{'brand': ""Goody's Burger House"", 'fascia': ""Goody's Burger House"", 'category': 'Food and Beverage', 'edit_date': '20250510', 'lat_lon_source': 'Website'}",39.35913,22.94682,Goody's Volos,{'opening_hours': {}},24210-39243,,611,,https://www.goodys.com/en/katastimata/
"Leof. Pentelis 112, Vrilissia 152 38",Goody's,Vrilissia,Greece,"{'brand': ""Goody's Burger House"", 'fascia': ""Goody's Burger House"", 'category': 'Food and Beverage', 'edit_date': '20250510', 'lat_lon_source': 'Website'}",38.04311,23.835,Goody's Vrilissia,{'opening_hours': {}},,,612,,https://www.goodys.com/en/katastimata/
"Mikras Asias 69, Athina 115 27",Goody's,Athina,Greece,"{'brand': ""Goody's Burger House"", 'fascia': ""Goody's Burger House"", 'category': 'Food and Beverage', 'edit_date': '20250510', 'lat_lon_source': 'Website'}",37.98288,23.76478,Goody's Goudi,{'opening_hours': {}},210-7702400 ,,617,,https://www.goodys.com/en/katastimata/
"Leof. Galatsiou 112, Galatsi 111 46",Goody's,Galatsi,Greece,"{'brand': ""Goody's Burger House"", 'fascia': ""Goody's Burger House"", 'category': 'Food and Beverage', 'edit_date': '20250510', 'lat_lon_source': 'Website'}",38.01373,23.7517,Goody's Galatsi,{'opening_hours': {}},210-2930364,,613,,https://www.goodys.com/en/katastimata/
"El. Venizelou 117, Giannitsa 581 00",Goody's,Giannitsa,Greece,"{'brand': ""Goody's Burger House"", 'fascia': ""Goody's Burger House"", 'category': 'Food and Beverage', 'edit_date': '20250510', 'lat_lon_source': 'Website'}",40.79213,22.41125,Goody's Giannitsa,{'opening_hours': {}},23820-29776,,614,,https://www.goodys.com/en/katastimata/
"Voutadon 50, Athina 118 54",Goody's,Athina,Greece,"{'brand': ""Goody's Burger House"", 'fascia': ""Goody's Burger House"", 'category': 'Food and Beverage', 'edit_date': '20250510', 'lat_lon_source': 'Website'}",37.97905,23.71086,Goody's Gazi,"{'opening_hours': {'Sun': '12:00-00:30', 'Mon': '12:00-00:30', 'Tue': '12:00-00:30', 'Wed': '12:00-00:30', None: '12:00-00:30', 'Fri': '12:00-00:30', 'Sat': '12:00-00:30'}}",,,615,,https://www.goodys.com/en/katastimata/
"Konstantinoupoleos 1, Glifada 166 75",Goody's,Glifada,Greece,"{'brand': ""Goody's Burger House"", 'fascia': ""Goody's Burger House"", 'category': 'Food and Beverage', 'edit_date': '20250510', 'lat_lon_source': 'Website'}",37.86387,23.74799,Goody's Glifada,{'opening_hours': {}},210-9680853 ,,616,,https://www.goodys.com/en/katastimata/
"Ethnarchou Makariou, Paleo Faliro 175 64",Goody's,Paleo Faliro,Greece,"{'brand': ""Goody's Burger House"", 'fascia': ""Goody's Burger House"", 'category': 'Food and Beverage', 'edit_date': '20250510', 'lat_lon_source': 'Website'}",37.9353,23.69371,Goody's Paleo Faliro,{'opening_hours': {}},210-9423340,17564,618,,https://www.goodys.com/en/katastimata/
"28ης Οκτωβρίου 12, Δράμα, 66100",Goody's,,Greece,"{'brand': ""Goody's Burger House"", 'fascia': ""Goody's Burger House"", 'category': 'Food and Beverage', 'edit_date': '20250510', 'lat_lon_source': 'Website'}",41.12992,24.11813,Goody's Δράμα,{'opening_hours': {}},25213 06970,,721,,https://www.goodys.com/en/katastimata/
"Eth. Aminis 32, Thessaloniki 546 21",Goody's,Thessaloniki,Greece,"{'brand': ""Goody's Burger House"", 'fascia': ""Goody's Burger House"", 'category': 'Food and Beverage', 'edit_date': '20250510', 'lat_lon_source': 'Website'}",40.62949,22.95194,Goody's Ethnikis Aminis - Thessaloniki,{'opening_hours': {}},2310-227763,,619,,https://www.goodys.com/en/katastimata/
"Iroon Politechniou & Nikoaidou, Elefsina 192 00",Goody's,Elefsina,Greece,"{'brand': ""Goody's Burger House"", 'fascia': ""Goody's Burger House"", 'category': 'Food and Beverage', 'edit_date': '20250510', 'lat_lon_source': 'Website'}",38.04347,23.54091,Goody's Elefsina,{'opening_hours': {}},210-5544480,,620,,https://www.goodys.com/en/katastimata/
"Macedonia Shopping Center, Tompazi 15, Pilea 555 35",Goody's,,Greece,"{'brand': ""Goody's Burger House"", 'fascia': ""Goody's Burger House"", 'category': 'Food and Beverage', 'edit_date': '20250510', 'lat_lon_source': 'Website'}",40.57813,22.97894,Goody's Macedonia Shopping Center,{'opening_hours': {}},2310-464040,,643,,https://www.goodys.com/en/katastimata/
"11ο Xλμ. Θεσ/κης -Αεροδρομίου, Θεσσαλονίκη, 570 01",Goody's,,Greece,"{'brand': ""Goody's Burger House"", 'fascia': ""Goody's Burger House"", 'category': 'Food and Beverage', 'edit_date': '20250510', 'lat_lon_source': 'Website'}",40.55199,22.98361,Goody's Εμπορικό Πάρκο Florida (Περιοχή IKEA) - Θεσσαλονίκη,{'opening_hours': {}},2310486166,,597,,https://www.goodys.com/en/katastimata/
CLOSED,Goody's,,Greece,"{'brand': ""Goody's Burger House"", 'fascia': ""Goody's Burger House"", 'category': 'Food and Beverage', 'edit_date': '20250510', 'lat_lon_source': 'Website'}",37.43912,24.93388,Goody's Tripoli,{'opening_hours': {}},18365,,596,,https://www.goodys.com/en/katastimata/
"Μεγάλου Αλεξάνδρου 73, Εύοσμος Θεσσαλονίκης, 56224",Goody's,,Greece,"{'brand': ""Goody's Burger House"", 'fascia': ""Goody's Burger House"", 'category': 'Food and Beverage', 'edit_date': '20250510', 'lat_lon_source': 'Website'}",40.66886,22.9108,Goody's Εύοσμος - Θεσσαλονίκη,{'opening_hours': {}},2316-009521,,720,,https://www.goodys.com/en/katastimata/
"Λομβάρδου 14, Ζάκυνθος, 291 00",Goody's,,Greece,"{'brand': ""Goody's Burger House"", 'fascia': ""Goody's Burger House"", 'category': 'Food and Beverage', 'edit_date': '20250510', 'lat_lon_source': 'Website'}",37.78578,20.89872,Goody's Ζάκυνθος,{'opening_hours': {}},2695027000,,709,,https://www.goodys.com/en/katastimata/
Αγίων Αποστόλων 147,Goody's,,Greece,"{'brand': ""Goody's Burger House"", 'fascia': ""Goody's Burger House"", 'category': 'Food and Beverage', 'edit_date': '20250510', 'lat_lon_source': 'Website'}",39.50615,20.26553,Goody's Ηγουμενίτσα,{'opening_hours': {}},,,715,,https://www.goodys.com/en/katastimata/
"Leof. Sofokli Venizelou 105, Ilioupoli 163 43",Goody's,Ilioupoli,Greece,"{'brand': ""Goody's Burger House"", 'fascia': ""Goody's Burger House"", 'category': 'Food and Beverage', 'edit_date': '20250510', 'lat_lon_source': 'Website'}",37.93265,23.75775,Goody's Ilioupoli,{'opening_hours': {}},210-9932739,,621,,https://www.goodys.com/en/katastimata/
"Leoforos Sofokli Venizelou & Iakinthou, Iraklio 713 03",Goody's,Iraklio,Greece,"{'brand': ""Goody's Burger House"", 'fascia': ""Goody's Burger House"", 'category': 'Food and Beverage', 'edit_date': '20250510', 'lat_lon_source': 'Website'}",35.34057,25.11889,Goody's Iraklio (Talos Plaza),{'opening_hours': {}},2810-253114,,623,,https://www.goodys.com/en/katastimata/
"Michelidaki 6, Iraklio 712 02",Goody's,Iraklio,Greece,"{'brand': ""Goody's Burger House"", 'fascia': ""Goody's Burger House"", 'category': 'Food and Beverage', 'edit_date': '20250510', 'lat_lon_source': 'Website'}",35.3392,25.13166,Goody's Iraklio (Michelidaki),{'opening_hours': {}},2810-341091,,622,,https://www.goodys.com/en/katastimata/
"Leof. Dimokratias 67,  Ilion 131 22",Goody's,Ilion,Greece,"{'brand': ""Goody's Burger House"", 'fascia': ""Goody's Burger House"", 'category': 'Food and Beverage', 'edit_date': '20250510', 'lat_lon_source': 'Website'}",38.04285,23.72395,Goody's Ilion (Escape Center),{'opening_hours': {}},,,690,,https://www.goodys.com/en/katastimata/
"Idomeneos 118, Ilion 131 21",Goody's,Ilion,Greece,"{'brand': ""Goody's Burger House"", 'fascia': ""Goody's Burger House"", 'category': 'Food and Beverage', 'edit_date': '20250510', 'lat_lon_source': 'Website'}",38.03023,23.70108,Goody's Ilion (Leof. Thivon),{'opening_hours': {}},210-2629150 ,,624,,https://www.goodys.com/en/katastimata/
"Leof. Dimokratias 9, Ioannina 454 45",Goody's,Ioannina,Greece,"{'brand': ""Goody's Burger House"", 'fascia': ""Goody's Burger House"", 'category': 'Food and Beverage', 'edit_date': '20250510', 'lat_lon_source': 'Website'}",39.66168,20.8517,Goody's Ioannina,{'opening_hours': {}},26510-35323,,625,,https://www.goodys.com/en/katastimata/
"Pl. Eleftherias 5, Kozani 501 00",Goody's,Kozani,Greece,"{'brand': ""Goody's Burger House"", 'fascia': ""Goody's Burger House"", 'category': 'Food and Beverage', 'edit_date': '20250510', 'lat_lon_source': 'Website'}",40.30165,21.78581,Goody's Kozani,{'opening_hours': {}},24610-36775,,633,,https://www.goodys.com/en/katastimata/
"Pl. Eirinis  47, Komotini 691 32",Goody's,Komotini,Greece,"{'brand': ""Goody's Burger House"", 'fascia': ""Goody's Burger House"", 'category': 'Food and Beverage', 'edit_date': '20250510', 'lat_lon_source': 'Website'}",41.11815,25.40419,Goody's Komotini,{'opening_hours': {}},25310-36668,,634,,https://www.goodys.com/en/katastimata/
"Votsi 2, Kavala 654 03",Goody's,Kavala,Greece,"{'brand': ""Goody's Burger House"", 'fascia': ""Goody's Burger House"", 'category': 'Food and Beverage', 'edit_date': '20250510', 'lat_lon_source': 'Website'}",40.93622,24.40432,Goody's Kavala,{'opening_hours': {}},2510-830862,,626,,https://www.goodys.com/en/katastimata/
"Komninon 49, Kalamaria 551 32",Goody's,Kalamaria,Greece,"{'brand': ""Goody's Burger House"", 'fascia': ""Goody's Burger House"", 'category': 'Food and Beverage', 'edit_date': '20250510', 'lat_lon_source': 'Website'}",40.58363,22.9506,Goody's Kalamaria - Thessaloniki,{'opening_hours': {}},2310-449900,,627,,https://www.goodys.com/en/katastimata/
"Vasileos Georgiou Square, Kalamata 241 00",Goody's,Kalamata,Greece,"{'brand': ""Goody's Burger House"", 'fascia': ""Goody's Burger House"", 'category': 'Food and Beverage', 'edit_date': '20250510', 'lat_lon_source': 'Website'}",37.03855,22.11082,Goody's Kalamata,{'opening_hours': {}},27210-22259 ,,628,,https://www.goodys.com/en/katastimata/
"Sivitanidou 17, Kallithea 176 76",Goody's,Kallithea,Greece,"{'brand': ""Goody's Burger House"", 'fascia': ""Goody's Burger House"", 'category': 'Food and Beverage', 'edit_date': '20250510', 'lat_lon_source': 'Website'}",37.95774,23.69999,Goody's Kallithea,{'opening_hours': {}},210-9565289,,629,,https://www.goodys.com/en/katastimata/
"Agias Lavras 16, Katerini 601 00",Goody's,Katerini,Greece,"{'brand': ""Goody's Burger House"", 'fascia': ""Goody's Burger House"", 'category': 'Food and Beverage', 'edit_date': '20250510', 'lat_lon_source': 'Website'}",40.27158,22.5037,Goody's Katerini,{'opening_hours': {}},23510-39399,,630,,https://www.goodys.com/en/katastimata/
"Leof. Ionias 173, Athina 104 45",Goody's,Athina,Greece,"{'brand': ""Goody's Burger House"", 'fascia': ""Goody's Burger House"", 'category': 'Food and Beverage', 'edit_date': '20250510', 'lat_lon_source': 'Website'}",38.01198,23.72843,Goody's Kato Patisia,{'opening_hours': {}},210-8324767 ,,609,,https://www.goodys.com/en/katastimata/
"Xrisostomidi 3, Keratsini 187 56",Goody's,Keratsini,Greece,"{'brand': ""Goody's Burger House"", 'fascia': ""Goody's Burger House"", 'category': 'Food and Beverage', 'edit_date': '20250510', 'lat_lon_source': 'Website'}",37.95864,23.6244,Goody's Keratsini,{'opening_hours': {}},210-4611500,,631,,https://www.goodys.com/en/katastimata/
"Levidou 1, Kifisia 145 62",Goody's,Kifisia,Greece,"{'brand': ""Goody's Burger House"", 'fascia': ""Goody's Burger House"", 'category': 'Food and Beverage', 'edit_date': '20250510', 'lat_lon_source': 'Website'}",38.07223,23.81314,Goody's Kifisia,{'opening_hours': {}},210-8016200,,632,,https://www.goodys.com/en/katastimata/
"Pl. Pagkosmias Irinis 28-30, Koridallos 181 20",Goody's,Koridallos,Greece,"{'brand': ""Goody's Burger House"", 'fascia': ""Goody's Burger House"", 'category': 'Food and Beverage', 'edit_date': '20250510', 'lat_lon_source': 'Website'}",37.97622,23.65504,Goody's Koridallos,{'opening_hours': {}},,,694,,https://www.goodys.com/en/katastimata/
"Λεωφ. Βασιλέως Κωνσταντίνου 316, Κορωπί 19400",Goody's,19400,Greece,"{'brand': ""Goody's Burger House"", 'fascia': ""Goody's Burger House"", 'category': 'Food and Beverage', 'edit_date': '20250510', 'lat_lon_source': 'Website'}",37.90114,23.8726,Goody's Κορωπί,{'opening_hours': {}},210 6621074,,714,,https://www.goodys.com/en/katastimata/
"Leof. Andrea Siggrou 70, Athina 117 42",Goody's,Athina,Greece,"{'brand': ""Goody's Burger House"", 'fascia': ""Goody's Burger House"", 'category': 'Food and Beverage', 'edit_date': '20250510', 'lat_lon_source': 'Website'}",37.96475,23.7268,Goody's Koukaki,{'opening_hours': {}},210-9248700,,635,,https://www.goodys.com/en/katastimata/
"Negri Fokionos 15, Athina 112 57",Goody's,Athina,Greece,"{'brand': ""Goody's Burger House"", 'fascia': ""Goody's Burger House"", 'category': 'Food and Beverage', 'edit_date': '20250510', 'lat_lon_source': 'Website'}",38.00095,23.73511,Goody's Kipseli,{'opening_hours': {}},210-8676074 ,,679,,https://www.goodys.com/en/katastimata/
"Akti Kountouriotou 3, Kos 853 00",Goody's,Kos,Greece,"{'brand': ""Goody's Burger House"", 'fascia': ""Goody's Burger House"", 'category': 'Food and Beverage', 'edit_date': '20250510', 'lat_lon_source': 'Website'}",36.89442,27.28947,Goody's Kos,{'opening_hours': {}},22420-25298,,638,,https://www.goodys.com/en/katastimata/
"Leof. Alexandras 217, Athina 115 23",Goody's,Athina,Greece,"{'brand': ""Goody's Burger House"", 'fascia': ""Goody's Burger House"", 'category': 'Food and Beverage', 'edit_date': '20250510', 'lat_lon_source': 'Website'}",37.98691,23.7599,Goody's Ampelokipoi,{'opening_hours': {}},210-6422724 ,,605,,https://www.goodys.com/en/katastimata/
"Leof. Alexandras 122, Sikies 114 71",Goody's,Sikies,Greece,"{'brand': ""Goody's Burger House"", 'fascia': ""Goody's Burger House"", 'category': 'Food and Beverage', 'edit_date': '20250510', 'lat_lon_source': 'Website'}",37.9887,23.74911,Goody's Leof. Alexandras (Pedion tou Areos),{'opening_hours': {}},210-6444014,,606,,https://www.goodys.com/en/katastimata/
"Tralleon 57, Athina 111 42",Goody's,Athina,Greece,"{'brand': ""Goody's Burger House"", 'fascia': ""Goody's Burger House"", 'category': 'Food and Beverage', 'edit_date': '20250510', 'lat_lon_source': 'Website'}",38.02274,23.74684,Goody's Lamprini,{'opening_hours': {}},210-2933397,,640,,https://www.goodys.com/en/katastimata/
"40 km. Konstantinos Karamanlis, Larissa, 41500",Goody's,,Greece,"{'brand': ""Goody's Burger House"", 'fascia': ""Goody's Burger House"", 'category': 'Food and Beverage', 'edit_date': '20250510', 'lat_lon_source': 'Website'}",39.60704,22.44134,Goody's Λarisa (Fashion City Outlet),{'opening_hours': {}},241 067 1717,,703,,https://www.goodys.com/en/katastimata/
"Kouma 4, Larisa 412 22",Goody's,Larisa,Greece,"{'brand': ""Goody's Burger House"", 'fascia': ""Goody's Burger House"", 'category': 'Food and Beverage', 'edit_date': '20250510', 'lat_lon_source': 'Website'}",39.63772,22.41568,Goody's Larisa (Kouma),{'opening_hours': {}},2410-254430,,641,,https://www.goodys.com/en/katastimata/
"Across Panepistimiako Geniko Nosokomio Larisas, Larissa 413 34",Goody's,Larissa,Greece,"{'brand': ""Goody's Burger House"", 'fascia': ""Goody's Burger House"", 'category': 'Food and Beverage', 'edit_date': '20250510', 'lat_lon_source': 'Website'}",39.60967,22.38596,Goody's Larisa (Panepistimiako Geniko Nosokomio),{'opening_hours': {}},2410670044,,696,,https://www.goodys.com/en/katastimata/
"Π, Φίλιππα Πανάγου 2, Λευκάδα 311 00",Goody's,,Greece,"{'brand': ""Goody's Burger House"", 'fascia': ""Goody's Burger House"", 'category': 'Food and Beverage', 'edit_date': '20250510', 'lat_lon_source': 'Website'}",38.86954,20.64019,Goody's Λευκάδα,{'opening_hours': {}},2645 026100,,711,,https://www.goodys.com/en/katastimata/
"Leof. Nikis 71, Thessaloniki 546 22",Goody's,Thessaloniki,Greece,"{'brand': ""Goody's Burger House"", 'fascia': ""Goody's Burger House"", 'category': 'Food and Beverage', 'edit_date': '20250510', 'lat_lon_source': 'Website'}",40.62784,22.94681,Goody's White Tower of Thessaloniki,{'opening_hours': {}},2310-257273 ,,642,,https://www.goodys.com/en/katastimata/
"Leof. Kifisias 46, Marousi 151 25",Goody's,Marousi,Greece,"{'brand': ""Goody's Burger House"", 'fascia': ""Goody's Burger House"", 'category': 'Food and Beverage', 'edit_date': '20250510', 'lat_lon_source': 'Website'}",38.04102,23.80308,Goody's Marousi (Paradisos),{'opening_hours': {}},210-6179750,,661,,https://www.goodys.com/en/katastimata/
"Othonos 2, Marousi 151 22",Goody's,Marousi,Greece,"{'brand': ""Goody's Burger House"", 'fascia': ""Goody's Burger House"", 'category': 'Food and Beverage', 'edit_date': '20250510', 'lat_lon_source': 'Website'}",38.05694,23.80481,Goody's Marousi,{'opening_hours': {}},210-8027925 ,,644,,https://www.goodys.com/en/katastimata/
"Pl. Acharnon(Kentriki), Acharnes 136 73",Goody's,Acharnes,Greece,"{'brand': ""Goody's Burger House"", 'fascia': ""Goody's Burger House"", 'category': 'Food and Beverage', 'edit_date': '20250510', 'lat_lon_source': 'Website'}",38.08218,23.73309,Goody's Menidi,{'opening_hours': {}},210-2467000,,645,,https://www.goodys.com/en/katastimata/
"Paraskevopoulou 47, Peristeri 121 32",Goody's,Peristeri,Greece,"{'brand': ""Goody's Burger House"", 'fascia': ""Goody's Burger House"", 'category': 'Food and Beverage', 'edit_date': '20250510', 'lat_lon_source': 'Website'}",38.01244,23.70582,Goody's Bournazi,{'opening_hours': {}},210-5739877,,646,,https://www.goodys.com/en/katastimata/
"Epar.Od. Mikonou-Ano Merias 1422, Mikonos 846 00",Goody's,Mikonos,Greece,"{'brand': ""Goody's Burger House"", 'fascia': ""Goody's Burger House"", 'category': 'Food and Beverage', 'edit_date': '20250510', 'lat_lon_source': 'Website'}",37.4464,25.33892,Goody's Mikonos,{'opening_hours': {}},22890-27316,,647,,https://www.goodys.com/en/katastimata/
"Sidiras Merarchias 1, Nafplio 211 00",Goody's,Nafplio,Greece,"{'brand': ""Goody's Burger House"", 'fascia': ""Goody's Burger House"", 'category': 'Food and Beverage', 'edit_date': '20250510', 'lat_lon_source': 'Website'}",37.56634,22.80098,Goody's Nafplio,{'opening_hours': {}},27520-96296 ,,649,,https://www.goodys.com/en/katastimata/
"Narkisson 3, Iraklio 141 21",Goody's,Iraklio,Greece,"{'brand': ""Goody's Burger House"", 'fascia': ""Goody's Burger House"", 'category': 'Food and Beverage', 'edit_date': '20250510', 'lat_lon_source': 'Website'}",38.0467,23.76688,Goody's Neo Iraklio,{'opening_hours': {}},210-2850936,,648,,https://www.goodys.com/en/katastimata/
"Kalvou 17, Nea Ionia 142 31",Goody's,Nea Ionia,Greece,"{'brand': ""Goody's Burger House"", 'fascia': ""Goody's Burger House"", 'category': 'Food and Beverage', 'edit_date': '20250510', 'lat_lon_source': 'Website'}",38.04158,23.75432,Goody's Nea Ionia,{'opening_hours': {}},210-2713292,14231,650,,https://www.goodys.com/en/katastimata/
"Ilision 24, Kifisia 145 64",Goody's,Kifisia,Greece,"{'brand': ""Goody's Burger House"", 'fascia': ""Goody's Burger House"", 'category': 'Food and Beverage', 'edit_date': '20250510', 'lat_lon_source': 'Website'}",38.09204,23.79561,Goody's Nea Kifisia,{'opening_hours': {}},211-2101802,,651,,https://www.goodys.com/en/katastimata/
"Nik. Plastira 61, Kalamaria 551 32",Goody's,Kalamaria,Greece,"{'brand': ""Goody's Burger House"", 'fascia': ""Goody's Burger House"", 'category': 'Food and Beverage', 'edit_date': '20250510', 'lat_lon_source': 'Website'}",40.5749,22.94879,Goody's Nea Krini - Thessaloniki,{'opening_hours': {}},2310-439363,,637,,https://www.goodys.com/en/katastimata/
"Kedron 28, Evosmos 562 24",Goody's,Evosmos,Greece,"{'brand': ""Goody's Burger House"", 'fascia': ""Goody's Burger House"", 'category': 'Food and Beverage', 'edit_date': '20250510', 'lat_lon_source': 'Website'}",40.67689,22.91878,Goody's Nea Politeia - Thessaloniki,{'opening_hours': {}},2310-659444,,652,,https://www.goodys.com/en/katastimata/
"2as Maiou 8, Nea Smirni 171 21",Goody's,Nea Smirni,Greece,"{'brand': ""Goody's Burger House"", 'fascia': ""Goody's Burger House"", 'category': 'Food and Beverage', 'edit_date': '20250510', 'lat_lon_source': 'Website'}",37.94682,23.71189,Goody's Nea Smirni,"{'opening_hours': {'Sun': '12:00-00:00', 'Mon': '12:00-00:00', 'Tue': '12:00-00:00', 'Wed': '12:00-00:00', None: '12:00-00:00', 'Fri': '12:00-00:00', 'Sat': '12:00-00:00'}}",210-9350281,17121,653,,https://www.goodys.com/en/katastimata/
"Leof. Dekelias 100, Nea Filadelfia 143 41",Goody's,Nea Filadelfia,Greece,"{'brand': ""Goody's Burger House"", 'fascia': ""Goody's Burger House"", 'category': 'Food and Beverage', 'edit_date': '20250510', 'lat_lon_source': 'Website'}",38.03343,23.73766,Goody's Nea Filadeflia,{'opening_hours': {}},210-2581827 ,14341,654,,https://www.goodys.com/en/katastimata/
"Miltiadi 1, Xanthi, 671 00",Goody's,,Greece,"{'brand': ""Goody's Burger House"", 'fascia': ""Goody's Burger House"", 'category': 'Food and Beverage', 'edit_date': '20250510', 'lat_lon_source': 'Website'}",41.13884,24.88551,Goody's Xanthi,{'opening_hours': {}},,,712,,https://www.goodys.com/en/katastimata/
"Eftichidou 32Β, Athina 116 34",Goody's,Athina,Greece,"{'brand': ""Goody's Burger House"", 'fascia': ""Goody's Burger House"", 'category': 'Food and Beverage', 'edit_date': '20250510', 'lat_lon_source': 'Website'}",37.96775,23.74758,Goody's Pagkrati,{'opening_hours': {}},210-7019701,,657,,https://www.goodys.com/en/katastimata/
"Leof. Marathonos 99, Pallini 153 51",Goody's,Pallini,Greece,"{'brand': ""Goody's Burger House"", 'fascia': ""Goody's Burger House"", 'category': 'Food and Beverage', 'edit_date': '20250510', 'lat_lon_source': 'Website'}",38.00372,23.8852,Goody's Pallini,{'opening_hours': {}},210-6033600,,658,,https://www.goodys.com/en/katastimata/
"Leof. Komninon 35, Panorama 552 36",Goody's,Panorama,Greece,"{'brand': ""Goody's Burger House"", 'fascia': ""Goody's Burger House"", 'category': 'Food and Beverage', 'edit_date': '20250510', 'lat_lon_source': 'Website'}",40.59115,23.03669,Goody's Panorama - Thessaloniki,{'opening_hours': {}},2310-346436,,659,,https://www.goodys.com/en/katastimata/
"Kelaria, Parnassos 320 04",Goody's,Parnassos,Greece,"{'brand': ""Goody's Burger House"", 'fascia': ""Goody's Burger House"", 'category': 'Food and Beverage', 'edit_date': '20250510', 'lat_lon_source': 'Website'}",38.54853,22.58921,Goody's Parnassos,{'opening_hours': {}},,,699,,https://www.goodys.com/en/katastimata/
"Akti Dimeon 17, Patra 262 21",Goody's,Patra,Greece,"{'brand': ""Goody's Burger House"", 'fascia': ""Goody's Burger House"", 'category': 'Food and Beverage', 'edit_date': '20250510', 'lat_lon_source': 'Website'}",38.23867,21.72604,Goody's Patra,{'opening_hours': {}},2610 361995,,698,,https://www.goodys.com/en/katastimata/
"Maizonos 65, Patra 262 21",Goody's,Patra,Greece,"{'brand': ""Goody's Burger House"", 'fascia': ""Goody's Burger House"", 'category': 'Food and Beverage', 'edit_date': '20250510', 'lat_lon_source': 'Website'}",38.2488,21.73787,Goody's Patra (Mezonos),{'opening_hours': {}},2610-624512 ,,664,,https://www.goodys.com/en/katastimata/
"Ipsilon Alonion 19 A, Patra 262 24",Goody's,Patra,Greece,"{'brand': ""Goody's Burger House"", 'fascia': ""Goody's Burger House"", 'category': 'Food and Beverage', 'edit_date': '20250510', 'lat_lon_source': 'Website'}",38.24049,21.73496,Goody's Patra (Psila Alonia),{'opening_hours': {}},2610-336917,,663,,https://www.goodys.com/en/katastimata/
"Akti Posidonos 10, Pireas 185 31",Goody's,Pireas,Greece,"{'brand': ""Goody's Burger House"", 'fascia': ""Goody's Burger House"", 'category': 'Food and Beverage', 'edit_date': '20250510', 'lat_lon_source': 'Website'}",37.94518,23.6431,Goody's Pireas (Port),{'opening_hours': {}},210-4226376,,665,,https://www.goodys.com/en/katastimata/
" Grigoriou Lampraki 152-154, Pireas 185 35",Goody's,Pireas,Greece,"{'brand': ""Goody's Burger House"", 'fascia': ""Goody's Burger House"", 'category': 'Food and Beverage', 'edit_date': '20250510', 'lat_lon_source': 'Website'}",37.93979,23.64885,Goody's Pireas,{'opening_hours': {}},210-4297907,,662,,https://www.goodys.com/en/katastimata/
"Peraia Thessalonikis, Ampelokipon, Ampelokipi 570 19",Goody's,,Greece,"{'brand': ""Goody's Burger House"", 'fascia': ""Goody's Burger House"", 'category': 'Food and Beverage', 'edit_date': '20250510', 'lat_lon_source': 'Website'}",40.50124,22.92745,Goody's Peraia - Thessaloniki,{'opening_hours': {}},23920-28666,,666,,https://www.goodys.com/en/katastimata/
"Anapafseos 13, Athina 121 34",Goody's,Athina,Greece,"{'brand': ""Goody's Burger House"", 'fascia': ""Goody's Burger House"", 'category': 'Food and Beverage', 'edit_date': '20250510', 'lat_lon_source': 'Website'}",38.01756,23.69028,Goody's Peristeri,"{'opening_hours': {'Sun': '12:00-00:00', 'Mon': '12:00-00:00', 'Tue': '12:00-00:00', 'Wed': '12:00-00:00', None: '12:00-00:00', 'Fri': '12:00-00:00', 'Sat': '12:00-00:00'}}",210-5732105,,667,,https://www.goodys.com/en/katastimata/
"Viktoria Square 4, Athina 104 34",Goody's,Athina,Greece,"{'brand': ""Goody's Burger House"", 'fascia': ""Goody's Burger House"", 'category': 'Food and Beverage', 'edit_date': '20250510', 'lat_lon_source': 'Website'}",37.99346,23.73004,Goody's Viktoria Square,{'opening_hours': {}},210-8837759,,669,,https://www.goodys.com/en/katastimata/
"Koromila 9, Thessaloniki 546 45",Goody's,Thessaloniki,Greece,"{'brand': ""Goody's Burger House"", 'fascia': ""Goody's Burger House"", 'category': 'Food and Beverage', 'edit_date': '20250510', 'lat_lon_source': 'Website'}",40.60128,22.95112,Goody's Poseidonio - Thessaloniki,{'opening_hours': {}},2310-825600,,670,,https://www.goodys.com/en/katastimata/
"Πλαστήρα 2,Πτολεμαϊδα",Goody's,Πτολεμαϊδα,Greece,"{'brand': ""Goody's Burger House"", 'fascia': ""Goody's Burger House"", 'category': 'Food and Beverage', 'edit_date': '20250510', 'lat_lon_source': 'Website'}",40.51296,21.68018,Goody's Πτολεμαϊδα,{'opening_hours': {}},,,725,,https://www.goodys.com/en/katastimata/
"Al. Diakou 10, Rodos 851 00",Goody's,Rodos,Greece,"{'brand': ""Goody's Burger House"", 'fascia': ""Goody's Burger House"", 'category': 'Food and Beverage', 'edit_date': '20250510', 'lat_lon_source': 'Website'}",36.44911,28.22125,Goody's Rodos,{'opening_hours': {}},22410 70348,,672,,https://www.goodys.com/en/katastimata/
"Leof. Salaminos 296, Salamina 189 00",Goody's,Salamina,Greece,"{'brand': ""Goody's Burger House"", 'fascia': ""Goody's Burger House"", 'category': 'Food and Beverage', 'edit_date': '20250510', 'lat_lon_source': 'Website'}",37.9647,23.49749,Goody's Salamina,{'opening_hours': {}},,,693,,https://www.goodys.com/en/katastimata/
Παναγή Τσαλδάρη 29-31 & Πατρών - ΣΕΡΡΕΣ,Goody's,,Greece,"{'brand': ""Goody's Burger House"", 'fascia': ""Goody's Burger House"", 'category': 'Food and Beverage', 'edit_date': '20250510', 'lat_lon_source': 'Website'}",41.08936,23.54771,Goody's Σέρρες,{'opening_hours': {}},,,713,,https://www.goodys.com/en/katastimata/
"Monastiriou 28, Thessaloniki 546 27",Goody's,Thessaloniki,Greece,"{'brand': ""Goody's Burger House"", 'fascia': ""Goody's Burger House"", 'category': 'Food and Beverage', 'edit_date': '20250510', 'lat_lon_source': 'Website'}",40.64459,22.92866,Goody's OSE Station - Thessaloniki,{'opening_hours': {}},2310-545466,,656,,https://www.goodys.com/en/katastimata/
"Eptapirgiou 82, Sikies 566 26",Goody's,Sikies,Greece,"{'brand': ""Goody's Burger House"", 'fascia': ""Goody's Burger House"", 'category': 'Food and Beverage', 'edit_date': '20250510', 'lat_lon_source': 'Website'}",40.65079,22.95786,Goody's Sikies,{'opening_hours': {}},2310-613613,,674,,https://www.goodys.com/en/katastimata/
"Othonos 2, Athina 105 57",Goody's,Athina,Greece,"{'brand': ""Goody's Burger House"", 'fascia': ""Goody's Burger House"", 'category': 'Food and Beverage', 'edit_date': '20250510', 'lat_lon_source': 'Website'}",37.97492,23.7343,Goody's Syntagma,{'opening_hours': {}},210-3221957 ,,675,,https://www.goodys.com/en/katastimata/
"Grigoriou Lampraki 144, Thessaloniki 543 51",Goody's,Thessaloniki,Greece,"{'brand': ""Goody's Burger House"", 'fascia': ""Goody's Burger House"", 'category': 'Food and Beverage', 'edit_date': '20250510', 'lat_lon_source': 'Website'}",40.61471,22.97736,Goody's Toumpa - Thessaloniki,{'opening_hours': {}},2310-912163,,676,,https://www.goodys.com/en/katastimata/
"Apollonos & BAS. Olgas, Trikala 421 00",Goody's,Trikala,Greece,"{'brand': ""Goody's Burger House"", 'fascia': ""Goody's Burger House"", 'category': 'Food and Beverage', 'edit_date': '20250510', 'lat_lon_source': 'Website'}",39.55482,21.76761,Goody's Trikala,"{'opening_hours': {'Sun': '11:00-01:00', 'Mon': '10:00-00:30', 'Tue': '10:00-00:30', 'Wed': '10:00-00:30', None: '10:00-00:30', 'Fri': '10:00-00:30', 'Sat': '11:00-01:00'}}",24310-75265,,677,,https://www.goodys.com/en/katastimata/
"Πλατεία Αρεώς 2, Τρίπολη, 221 01",Goody's,,Greece,"{'brand': ""Goody's Burger House"", 'fascia': ""Goody's Burger House"", 'category': 'Food and Beverage', 'edit_date': '20250510', 'lat_lon_source': 'Website'}",37.51293,22.3751,Goody's Τρίπολη,{'opening_hours': {}},,,723,,https://www.goodys.com/en/katastimata/
"Tsimiski 15, Thessaloniki 546 24",Goody's,Thessaloniki,Greece,"{'brand': ""Goody's Burger House"", 'fascia': ""Goody's Burger House"", 'category': 'Food and Beverage', 'edit_date': '20250510', 'lat_lon_source': 'Website'}",40.63468,22.9395,Goody's Tsimiski - Thessaloniki,{'opening_hours': {}},2310-243100 ,,678,,https://www.goodys.com/en/katastimata/
"Leof. Mesogeion 210, Cholargos 155 61",Goody's,Cholargos,Greece,"{'brand': ""Goody's Burger House"", 'fascia': ""Goody's Burger House"", 'category': 'Food and Beverage', 'edit_date': '20250510', 'lat_lon_source': 'Website'}",38.00213,23.79113,Goody's Cholargos,{'opening_hours': {}},210-6525897,,687,,https://www.goodys.com/en/katastimata/
"Leof. Athinon 336, Chaidari 124 62",Goody's,Chaidari,Greece,"{'brand': ""Goody's Burger House"", 'fascia': ""Goody's Burger House"", 'category': 'Food and Beverage', 'edit_date': '20250510', 'lat_lon_source': 'Website'}",38.01107,23.65075,Goody's Chaidari,{'opening_hours': {}},210-5324704 ,,680,,https://www.goodys.com/en/katastimata/
"Leof. Pentelis 4, Chalandri 152 34",Goody's,Chalandri,Greece,"{'brand': ""Goody's Burger House"", 'fascia': ""Goody's Burger House"", 'category': 'Food and Beverage', 'edit_date': '20250510', 'lat_lon_source': 'Website'}",38.02258,23.80126,Goody's Chalandri,{'opening_hours': {}},210-6837460 ,,681,,https://www.goodys.com/en/katastimata/
"Chatzimichali Giannari 62, Chania 731 00",Goody's,Chania,Greece,"{'brand': ""Goody's Burger House"", 'fascia': ""Goody's Burger House"", 'category': 'Food and Beverage', 'edit_date': '20250510', 'lat_lon_source': 'Website'}",35.51393,24.018,Goody's Chania,{'opening_hours': {}},28210-28331 ,,683,,https://www.goodys.com/en/katastimata/
"Al. Papanastasiou 136, Thessaloniki 542 49",Goody's,Thessaloniki,Greece,"{'brand': ""Goody's Burger House"", 'fascia': ""Goody's Burger House"", 'category': 'Food and Beverage', 'edit_date': '20250510', 'lat_lon_source': 'Website'}",40.60304,22.96902,Goody's Charilaou - Thessaloniki,{'opening_hours': {}},2310-322772,,684,,https://www.goodys.com/en/katastimata/
"Krionerioy & Leof. Dimokratias 42, Oraiokastro Thessalonikis 570 13",Goody's,Oraiokastro Thessalonikis,Greece,"{'brand': ""Goody's Burger House"", 'fascia': ""Goody's Burger House"", 'category': 'Food and Beverage', 'edit_date': '20250510', 'lat_lon_source': 'Website'}",40.73092,22.92183,Goody's Oraiokastro Thessalonikis,{'opening_hours': {}},2310-689650 ,57013,688,,https://www.goodys.com/en/katastimata/
