addr_full,brand,city,country,extras,lat,lon,name,opening_hours,phone,postcode,ref,state,website
Gut-Dämme-Straße 1,Losteria,Aachen,Germany,"{'brand': 'Losteria', 'fascia': 'Losteria', 'category': 'Food and Beverage', 'edit_date': '2025-04-01', 'lat_lon_source': 'Third Party'}",50.79731219999999,6.107416527096768,L'OsteriaAachenGut-Dämme-Straße,"{'opening_hours': {'Mon': '11:30 - 23:00', 'Tue': '11:30 - 23:00', 'Wed': '11:30 - 23:00', 'Thu': '11:30 - 23:00', 'Fri': '11:30 - 00:00', 'Sat': '11:30 - 00:00', 'Sun': '12:00 - 23:00', 'Holiday': '12:00 - 23:00'}}",+49 241 96979929,52070,50.79731219999999-6.107416527096768,,https://losteria.net/en/restaurants/restaurant/aachen-gut-daemme-strasse/
Friedrichstraße 142,Losteria,Berlin,Germany,"{'brand': 'Losteria', 'fascia': 'Losteria', 'category': 'Food and Beverage', 'edit_date': '2025-04-01', 'lat_lon_source': 'Third Party'}",52.5201373,13.387018893190604,L'OsteriaBerlinFriedrichstrasse,{'opening_hours': {}},,10117,52.5201373-13.387018893190604,,https://losteria.net/en/restaurants/restaurant/berlin-friedrichstrasse/
Franziskanergasse 5,Losteria,Amberg,Germany,"{'brand': 'Losteria', 'fascia': 'Losteria', 'category': 'Food and Beverage', 'edit_date': '2025-04-01', 'lat_lon_source': 'Third Party'}",49.4462458,11.855483903024691,L'OsteriaAmberg,"{'opening_hours': {'Mon': '11:30 - 22:00', 'Tue': '11:30 - 22:00', 'Wed': '11:30 - 22:00', 'Thu': '11:30 - 22:00', 'Sun': '11:30 - 22:00', 'Fri': '11:30 - 23:00', 'Sat': '11:30 - 23:00', 'Holiday': '11:30 - 22:00'}}",+49 9621 7884040,92224,49.4462458-11.855483903024691,,https://losteria.net/en/restaurants/restaurant/amberg/
Weißenburgerstraße 8,Losteria,Aschaffenburg,Germany,"{'brand': 'Losteria', 'fascia': 'Losteria', 'category': 'Food and Beverage', 'edit_date': '2025-04-01', 'lat_lon_source': 'Third Party'}",49.977346749999995,9.147421177456835,L'OsteriaAschaffenburg,"{'opening_hours': {'Mon': '12:00 - 22:00', 'Tue': '12:00 - 22:00', 'Wed': '12:00 - 22:00', 'Thu': '12:00 - 22:00', 'Sun': '12:00 - 22:00', 'Fri': '12:00 - 23:00', 'Sat': '12:00 - 23:00', 'Holiday': '12:00 - 22:00'}}",aschaffenburg.weissenburgerstrasse@losteria.de,63739,49.977346749999995-9.147421177456835,,https://losteria.net/en/restaurants/restaurant/aschaffenburg/
Albert-Schenavsky-Str. 2,Losteria,Augsburg,Germany,"{'brand': 'Losteria', 'fascia': 'Losteria', 'category': 'Food and Beverage', 'edit_date': '2025-04-01', 'lat_lon_source': 'Third Party'}",48.38191115,10.932147211545818,L'OsteriaAugsburgLechhausen,"{'opening_hours': {'Mon': '11:30 - 23:00', 'Tue': '11:30 - 23:00', 'Wed': '11:30 - 23:00', 'Thu': '11:30 - 23:00', 'Fri': '11:30 - 23:00', 'Sat': '11:30 - 23:00', 'Sun': '12:00 - 23:00', 'Holiday': '12:00 - 23:00'}}",+49 821 59967605,86165,48.38191115-10.932147211545818,,https://losteria.net/en/restaurants/restaurant/augsburg-lechhausen/
Maximilianstrasse 83,Losteria,Bayreuth,Germany,"{'brand': 'Losteria', 'fascia': 'Losteria', 'category': 'Food and Beverage', 'edit_date': '2025-04-01', 'lat_lon_source': 'Third Party'}",49.9441965,11.5711589,L'OsteriaBayreuth,"{'opening_hours': {'Mon': '11:30 - 23:00', 'Tue': '11:30 - 23:00', 'Wed': '11:30 - 23:00', 'Thu': '11:30 - 23:00', 'Fri': '11:30 - 00:00', 'Sat': '11:30 - 00:00', 'Sun': '12:00 - 23:00', 'Holiday': '12:00 - 23:00'}}",+49 921 53041552,95444,49.9441965-11.5711589,,https://losteria.net/en/restaurants/restaurant/bayreuth/
Friedrichstraße 111,Losteria,Berlin,Germany,"{'brand': 'Losteria', 'fascia': 'Losteria', 'category': 'Food and Beverage', 'edit_date': '2025-04-01', 'lat_lon_source': 'Third Party'}",52.5253145,13.3885653,L'OsteriaBerlinAMTACHELES,"{'opening_hours': {'Mon': '11:30 - 23:00', 'Tue': '11:30 - 23:00', 'Wed': '11:30 - 23:00', 'Thu': '11:30 - 23:00', 'Fri': '11:30 - 00:00', 'Sat': '11:30 - 00:00', 'Sun': '12:00 - 23:00', 'Holiday': '12:00 - 23:00'}}",berlin.amtacheles@losteria.de,10117,52.5253145-13.3885653,,https://losteria.net/en/restaurants/restaurant/berlin-am-tacheles/
Hilda-Geiringer-Weg 4,Losteria,Berlin,Germany,"{'brand': 'Losteria', 'fascia': 'Losteria', 'category': 'Food and Beverage', 'edit_date': '2025-04-01', 'lat_lon_source': 'Third Party'}",52.5268271,13.3724979,L'OsteriaBerlinHumboldthafen,"{'opening_hours': {'Mon': '11:30 - 23:00', 'Tue': '11:30 - 23:00', 'Wed': '11:30 - 23:00', 'Thu': '11:30 - 23:00', 'Fri': '11:30 - 00:00', 'Sat': '11:30 - 00:00', 'Sun': '12:00 - 23:00', 'Holiday': '12:00 - 23:00'}}",+49 30 2067 95961,10557,52.5268271-13.3724979,,https://losteria.net/en/restaurants/restaurant/berlin-humboldthafen/
Alt Mahlsdorf 88,Losteria,Berlin,Germany,"{'brand': 'Losteria', 'fascia': 'Losteria', 'category': 'Food and Beverage', 'edit_date': '2025-04-01', 'lat_lon_source': 'Third Party'}",52.5036492,13.622051596334316,L'OsteriaBerlinMahlsdorf,"{'opening_hours': {'Mon': '11:30 - 23:00', 'Tue': '11:30 - 23:00', 'Wed': '11:30 - 23:00', 'Thu': '11:30 - 23:00', 'Fri': '11:30 - 00:00', 'Sat': '11:30 - 00:00', 'Sun': '12:00 - 23:00', 'Holiday': '12:00 - 23:00'}}",+49 30 641613 60,12623,52.5036492-13.622051596334316,,https://losteria.net/en/restaurants/restaurant/berlin-mahlsdorf/
Savignyplatz 5,Losteria,Berlin,Germany,"{'brand': 'Losteria', 'fascia': 'Losteria', 'category': 'Food and Beverage', 'edit_date': '2025-04-01', 'lat_lon_source': 'Third Party'}",52.5065041,13.3229365,L'OsteriaBerlinSavignyplatz,"{'opening_hours': {'Mon': '11:30 - 23:00', 'Tue': '11:30 - 23:00', 'Wed': '11:30 - 23:00', 'Thu': '11:30 - 23:00', 'Fri': '11:30 - 00:00', 'Sat': '11:30 - 00:00', 'Sun': '12:00 - 23:00', 'Holiday': '12:00 - 23:00'}}",+49 30 31806869,10623,52.5065041-13.3229365,,https://losteria.net/en/restaurants/restaurant/berlin-savignyplatz/
Memhardstraße 3,Losteria,Berlin,Germany,"{'brand': 'Losteria', 'fascia': 'Losteria', 'category': 'Food and Beverage', 'edit_date': '2025-04-01', 'lat_lon_source': 'Third Party'}",52.5237679,13.4102103,L'OsteriaBerlinMemhardstraße,"{'opening_hours': {'Mon': '11:30 - 23:00', 'Tue': '11:30 - 23:00', 'Wed': '11:30 - 23:00', 'Thu': '11:30 - 23:00', 'Fri': '11:30 - 00:00', 'Sat': '11:30 - 00:00', 'Sun': '12:00 - 23:00', 'Holiday': '12:00 - 23:00'}}",+49 30 28043240,10178,52.5237679-13.4102103,,https://losteria.net/en/restaurants/restaurant/berlin-memhardstrasse/
Pearl-S.-Buck-Straße 12,Losteria,Augsburg,Germany,"{'brand': 'Losteria', 'fascia': 'Losteria', 'category': 'Food and Beverage', 'edit_date': '2025-04-01', 'lat_lon_source': 'Third Party'}",48.3718387,10.865183613369565,L'OsteriaAugsburgPfersee,"{'opening_hours': {'Mon': '11:00 - 00:00', 'Tue': '11:00 - 00:00', 'Wed': '11:00 - 00:00', 'Thu': '11:00 - 00:00', 'Fri': '11:00 - 00:00', 'Sat': '11:00 - 00:00', 'Sun': '12:00 - 23:00', 'Holiday': '12:00 - 23:00'}}",+49 821 90794636,86156,48.3718387-10.865183613369565,,https://losteria.net/en/restaurants/restaurant/augsburg/
Lange Straße 79,Losteria,Baden,Germany,"{'brand': 'Losteria', 'fascia': 'Losteria', 'category': 'Food and Beverage', 'edit_date': '2025-04-01', 'lat_lon_source': 'Third Party'}",48.76807795,8.231707557259767,L'OsteriaBaden-Baden,"{'opening_hours': {'Mon': '11:30 - 23:00', 'Tue': '11:30 - 23:00', 'Wed': '11:30 - 23:00', 'Thu': '11:30 - 23:00', 'Fri': '11:30 - 00:00', 'Sat': '11:30 - 00:00', 'Sun': '12:00 - 23:00', 'Holiday': '12:00 - 23:00'}}",+49 7221 9718736,76530,48.76807795-8.231707557259767,,https://losteria.net/en/restaurants/restaurant/baden-baden/
Mildred-Harnack-Str.11,Losteria,Berlin,Germany,"{'brand': 'Losteria', 'fascia': 'Losteria', 'category': 'Food and Beverage', 'edit_date': '2025-04-01', 'lat_lon_source': 'Third Party'}",52.5057999,13.4420048,L'OsteriaBerlinUberPlatz,"{'opening_hours': {'Mon': '11:30 - 23:00', 'Tue': '11:30 - 23:00', 'Wed': '11:30 - 23:00', 'Thu': '11:30 - 23:00', 'Fri': '11:30 - 00:00', 'Sat': '11:30 - 00:00', 'Sun': '12:00 - 23:00', 'Holiday': '12:00 - 23:00'}}",+49 30 26109200,10243,52.5057999-13.4420048,,https://losteria.net/en/restaurants/restaurant/berlin-mercedes-platz/
Theodor-Sanne-Straße 7,Losteria,Bernau,Germany,"{'brand': 'Losteria', 'fascia': 'Losteria', 'category': 'Food and Beverage', 'edit_date': '2025-04-01', 'lat_lon_source': 'Third Party'}",47.8150872,12.3660995,L'OsteriaBernauTheodorSanneStraße,"{'opening_hours': {'Mon': '11:30 - 23:00', 'Tue': '11:30 - 23:00', 'Wed': '11:30 - 23:00', 'Thu': '11:30 - 23:00', 'Fri': '11:30 - 00:00', 'Sat': '11:30 - 00:00', 'Sun': '12:00 - 23:00', 'Holiday': '12:00 - 23:00'}}",bernau.theodor-sanne-strasse@losteria.de,83233,47.8150872-12.3660995,,https://losteria.net/en/restaurants/restaurant/bernau-theodor-sanne-strasse/
Obernstraße 53-55,Losteria,Bielefeld,Germany,"{'brand': 'Losteria', 'fascia': 'Losteria', 'category': 'Food and Beverage', 'edit_date': '2025-04-01', 'lat_lon_source': 'Third Party'}",52.01934055,8.527701780296711,L'OsteriaBielefeld,"{'opening_hours': {'Mon': '11:30 - 23:00', 'Tue': '11:30 - 23:00', 'Wed': '11:30 - 23:00', 'Thu': '11:30 - 23:00', 'Fri': '11:30 - 00:00', 'Sat': '11:30 - 00:00', 'Sun': '12:00 - 23:00', 'Holiday': '12:00 - 23:00'}}",+49 521 97796270,33602,52.01934055-8.527701780296711,,https://losteria.net/en/restaurants/restaurant/bielefeld/
Budapester Straße 38-50,Losteria,Berlin,Germany,"{'brand': 'Losteria', 'fascia': 'Losteria', 'category': 'Food and Beverage', 'edit_date': '2025-04-01', 'lat_lon_source': 'Third Party'}",52.50599985,13.334889492220478,L'OsteriaBikiniBerlin,"{'opening_hours': {'Mon': '11:30 - 23:00', 'Tue': '11:30 - 23:00', 'Wed': '11:30 - 23:00', 'Thu': '11:30 - 23:00', 'Fri': '11:30 - 00:00', 'Sat': '11:30 - 00:00', 'Sun': '12:00 - 00:00', 'Holiday': '12:00 - 23:00'}}",+49 30 25794325,10787,52.50599985-13.334889492220478,,https://losteria.net/en/restaurants/restaurant/bikini-berlin/
In der Sürst 3,Losteria,Bonn,Germany,"{'brand': 'Losteria', 'fascia': 'Losteria', 'category': 'Food and Beverage', 'edit_date': '2025-04-01', 'lat_lon_source': 'Third Party'}",50.7332616,7.098413771912,L'OsteriaBonnInderSürst,{'opening_hours': {}},+49 228 29975588,53111,50.7332616-7.098413771912,,https://losteria.net/en/restaurants/restaurant/bonn-in-der-suerst/
Viktoriastraße 14a,Losteria,Bochum,Germany,"{'brand': 'Losteria', 'fascia': 'Losteria', 'category': 'Food and Beverage', 'edit_date': '2025-04-01', 'lat_lon_source': 'Third Party'}",51.48049295,7.215317571305778,L'OsteriaBochumHusemannKarree,"{'opening_hours': {'Mon': '11:30 - 23:00', 'Tue': '11:30 - 23:00', 'Wed': '11:30 - 23:00', 'Thu': '11:30 - 23:00', 'Fri': '11:30 - 00:00', 'Sat': '11:30 - 00:00', 'Sun': '12:00 - 23:00', 'Holiday': '12:00 - 23:00'}}",+49 234 95072155,44787,51.48049295-7.215317571305778,,https://losteria.net/en/restaurants/restaurant/bochum-husemann-karree/
Carl-Benz-Straße 11,Losteria,Bornheim,Germany,"{'brand': 'Losteria', 'fascia': 'Losteria', 'category': 'Food and Beverage', 'edit_date': '2025-04-01', 'lat_lon_source': 'Third Party'}",50.76253425,7.029289203806213,L'OsteriaBornheim,"{'opening_hours': {'Mon': '11:30 - 23:00', 'Tue': '11:30 - 23:00', 'Wed': '11:30 - 23:00', 'Thu': '11:30 - 23:00', 'Fri': '11:30 - 00:00', 'Sat': '11:30 - 00:00', 'Sun': '12:00 - 23:00', 'Holiday': '12:00 - 23:00'}}",+49 2222 9272733,53332,50.76253425-7.029289203806213,,https://losteria.net/en/restaurants/restaurant/bornheim/
Am Einkaufszentrum 4,Losteria,Bochum,Germany,"{'brand': 'Losteria', 'fascia': 'Losteria', 'category': 'Food and Beverage', 'edit_date': '2025-04-01', 'lat_lon_source': 'Third Party'}",51.49437655,7.28427564507623,L'OsteriaBochum,"{'opening_hours': {'Mon': '11:30 - 23:00', 'Tue': '11:30 - 23:00', 'Wed': '11:30 - 23:00', 'Thu': '11:30 - 23:00', 'Fri': '11:30 - 00:00', 'Sat': '11:30 - 00:00', 'Sun': '12:00 - 23:00', 'Holiday': '12:00 - 23:00'}}",+49 234 91283300,44791,51.49437655-7.28427564507623,,https://losteria.net/en/restaurants/restaurant/bochum/
Kammerforststraße 24,Losteria,Bruchsal,Germany,"{'brand': 'Losteria', 'fascia': 'Losteria', 'category': 'Food and Beverage', 'edit_date': '2025-04-01', 'lat_lon_source': 'Third Party'}",49.13786771780241,8.565322615312185,L'OsteriaBruchsal,"{'opening_hours': {'Mon': '11:30 - 22:00', 'Tue': '11:30 - 22:00', 'Wed': '11:30 - 22:00', 'Thu': '11:30 - 22:00', 'Fri': '11:30 - 23:00', 'Sat': '11:30 - 23:00', 'Sun': '12:00 - 22:00', 'Holiday': '12:00 - 22:00'}}",+49 7251 9344133,76646,49.13786771780241-8.565322615312185,,https://losteria.net/en/restaurants/restaurant/bruchsal/
Joseph-Beuys-Allee 14,Losteria,Bonn,Germany,"{'brand': 'Losteria', 'fascia': 'Losteria', 'category': 'Food and Beverage', 'edit_date': '2025-04-01', 'lat_lon_source': 'Third Party'}",50.71362405,7.1196709027976395,L'OsteriaBonnJoseph-Beuys-Allee,"{'opening_hours': {'Mon': '11:00 - 22:00', 'Tue': '11:00 - 22:00', 'Wed': '11:00 - 22:00', 'Thu': '11:00 - 22:00', 'Fri': '11:00 - 22:00', 'Sat': '11:00 - 22:00', 'Sun': '12:00 - 22:00', 'Holiday': '12:00 - 22:00'}}",+49 228 85036010,53113,50.71362405-7.1196709027976395,,https://losteria.net/en/restaurants/restaurant/bonn-joseph-beuys-allee/
Portlandweg 4,Losteria,Bonn,Germany,"{'brand': 'Losteria', 'fascia': 'Losteria', 'category': 'Food and Beverage', 'edit_date': '2025-04-01', 'lat_lon_source': 'Third Party'}",50.7184238,7.1502718,L'OsteriaBonnRheinwerk,"{'opening_hours': {'Mon': '11:30 - 23:00', 'Tue': '11:30 - 23:00', 'Wed': '11:30 - 23:00', 'Thu': '11:30 - 23:00', 'Fri': '11:30 - 00:00', 'Sat': '11:30 - 00:00', 'Sun': '12:00 - 23:00', 'Holiday': '12:00 - 23:00'}}",+49 228 98148488,53227,50.7184238-7.1502718,,https://losteria.net/en/restaurants/restaurant/bonn-rheinwerk/
Eugen-Sänger-Ring 3,Losteria,Brunnthal,Germany,"{'brand': 'Losteria', 'fascia': 'Losteria', 'category': 'Food and Beverage', 'edit_date': '2025-04-01', 'lat_lon_source': 'Third Party'}",48.042506,11.6648203,L'OsteriaBrunnthalEugen-Sänger-Ring,"{'opening_hours': {'Mon': '11:30 - 23:00', 'Tue': '11:30 - 23:00', 'Wed': '11:30 - 23:00', 'Thu': '11:30 - 23:00', 'Fri': '11:30 - 00:00', 'Sat': '11:30 - 00:00', 'Sun': '12:00 - 23:00', 'Holiday': '12:00 - 23:00'}}",+49 89 638791281,85649,48.042506-11.6648203,,https://losteria.net/en/restaurants/restaurant/brunnthal-eugen-saenger-ring/
Grutholzallee 9,Losteria,Castrop-Rauxel,Germany,"{'brand': 'Losteria', 'fascia': 'Losteria', 'category': 'Food and Beverage', 'edit_date': '2025-04-01', 'lat_lon_source': 'Third Party'}",51.5667192,7.31694239867247,L'OsteriaCastrop-Rauxel,"{'opening_hours': {'Mon': '11:30 - 23:00', 'Tue': '11:30 - 23:00', 'Wed': '11:30 - 23:00', 'Thu': '11:30 - 23:00', 'Fri': '11:30 - 00:00', 'Sat': '11:30 - 00:00', 'Sun': '09:00 - 23:00', 'Holiday': '12:00 - 23:00'}}",+49 2305 5310390,44577,51.5667192-7.31694239867247,,https://losteria.net/en/restaurants/restaurant/castrop-rauxel/
Rosenhof 4-6,Losteria,Chemnitz,Germany,"{'brand': 'Losteria', 'fascia': 'Losteria', 'category': 'Food and Beverage', 'edit_date': '2025-04-01', 'lat_lon_source': 'Third Party'}",50.83141132324231,12.917383746945786,L'OsteriaChemnitzRosenhof,"{'opening_hours': {'Mon': '11:30 - 23:00', 'Tue': '11:30 - 23:00', 'Wed': '11:30 - 23:00', 'Thu': '11:30 - 23:00', 'Fri': '11:30 - 00:00', 'Sat': '11:30 - 00:00', 'Sun': '12:00 - 23:00', 'Holiday': '12:00 - 23:00'}}",+49 371 70096545,09111,50.83141132324231-12.917383746945786,,https://losteria.net/en/restaurants/restaurant/chemnitz-rosenhof/
BraWo-Allee 1,Losteria,Braunschweig,Germany,"{'brand': 'Losteria', 'fascia': 'Losteria', 'category': 'Food and Beverage', 'edit_date': '2025-04-01', 'lat_lon_source': 'Third Party'}",52.25505045,10.542966218858933,L'OsteriaBraunschweig,"{'opening_hours': {'Mon': '11:30 - 23:00', 'Tue': '11:30 - 23:00', 'Wed': '11:30 - 23:00', 'Thu': '11:30 - 23:00', 'Fri': '11:30 - 00:00', 'Sat': '11:30 - 00:00', 'Sun': '12:00 - 23:00', 'Holiday': '12:00 - 23:00'}}",+49 531 70747190,38102,52.25505045-10.542966218858933,,https://losteria.net/en/restaurants/restaurant/braunschweig/
Hans-Bredow-Str. 13,Losteria,Bremen,Germany,"{'brand': 'Losteria', 'fascia': 'Losteria', 'category': 'Food and Beverage', 'edit_date': '2025-04-01', 'lat_lon_source': 'Third Party'}",53.0512827,8.960630446982506,L'OsteriaBremenWeserpark,"{'opening_hours': {'Mon': '11:30 - 23:00', 'Tue': '11:30 - 23:00', 'Wed': '11:30 - 23:00', 'Thu': '11:30 - 23:00', 'Fri': '11:30 - 00:00', 'Sat': '11:30 - 00:00', 'Sun': '12:00 - 23:00', 'Holiday': '12:00 - 23:00'}}",+49 421 42779720,28307,53.0512827-8.960630446982506,,https://losteria.net/en/restaurants/restaurant/bremen-weserpark/
Wilhelminenstrasse 10,Losteria,Darmstadt,Germany,"{'brand': 'Losteria', 'fascia': 'Losteria', 'category': 'Food and Beverage', 'edit_date': '2025-04-01', 'lat_lon_source': 'Third Party'}",49.869822850000006,8.651985702642293,L'OsteriaDarmstadt,"{'opening_hours': {'Mon': '11:30 - 23:00', 'Tue': '11:30 - 23:00', 'Wed': '11:30 - 23:00', 'Thu': '11:30 - 23:00', 'Fri': '11:30 - 00:00', 'Sat': '11:30 - 00:00', 'Sun': '12:00 - 23:00', 'Holiday': '12:00 - 23:00'}}",+49 6151 5991150,64283,49.869822850000006-8.651985702642293,,https://losteria.net/en/restaurants/restaurant/darmstadt/
Saarstr.15,Losteria,Dinslaken,Germany,"{'brand': 'Losteria', 'fascia': 'Losteria', 'category': 'Food and Beverage', 'edit_date': '2025-04-01', 'lat_lon_source': 'Third Party'}",51.5612344,6.7392323,L'OsteriaDinslaken,"{'opening_hours': {'Mon': '11:30 - 23:00', 'Tue': '11:30 - 23:00', 'Wed': '11:30 - 23:00', 'Thu': '11:30 - 23:00', 'Fri': '11:30 - 00:00', 'Sat': '11:30 - 00:00', 'Sun': '12:00 - 23:00', 'Holiday': '12:00 - 23:00'}}",+49 2064 4721151,46535,51.5612344-6.7392323,,https://losteria.net/en/restaurants/restaurant/dinslaken/
Schifferstraße 190,Losteria,Duisburg,Germany,"{'brand': 'Losteria', 'fascia': 'Losteria', 'category': 'Food and Beverage', 'edit_date': '2025-04-01', 'lat_lon_source': 'Third Party'}",51.44206345,6.77016923309974,L'OsteriaDuisburg,"{'opening_hours': {'Mon': '11:30 - 23:00', 'Tue': '11:30 - 23:00', 'Wed': '11:30 - 23:00', 'Thu': '11:30 - 23:00', 'Fri': '11:30 - 00:00', 'Sat': '11:30 - 00:00', 'Sun': '12:00 - 23:00', 'Holiday': '12:00 - 23:00'}}",+49 203 39345540,47059,51.44206345-6.77016923309974,,https://losteria.net/en/restaurants/restaurant/duisburg/
Europaplatz 3,Losteria,Dortmund,Germany,"{'brand': 'Losteria', 'fascia': 'Losteria', 'category': 'Food and Beverage', 'edit_date': '2025-04-01', 'lat_lon_source': 'Third Party'}",51.50217605,7.524372733032533,L'OsteriaDortmundEuropaplatz,"{'opening_hours': {'Mon': '11:30 - 23:00', 'Tue': '11:30 - 23:00', 'Wed': '11:30 - 23:00', 'Thu': '11:30 - 23:00', 'Fri': '11:30 - 00:00', 'Sat': '11:30 - 00:00', 'Sun': '12:00 - 23:00', 'Holiday': '12:00 - 23:00'}}",+49 231 94534841,44269,51.50217605-7.524372733032533,,https://losteria.net/en/restaurants/restaurant/dortmund-europaplatz/
Friedensplatz 8,Losteria,Dortmund,Germany,"{'brand': 'Losteria', 'fascia': 'Losteria', 'category': 'Food and Beverage', 'edit_date': '2025-04-01', 'lat_lon_source': 'Third Party'}",51.51183065,7.465945378227853,L'OsteriaDortmund,"{'opening_hours': {'Mon': '11:30 - 23:00', 'Tue': '11:30 - 23:00', 'Wed': '11:30 - 23:00', 'Thu': '11:30 - 23:00', 'Fri': '11:30 - 00:00', 'Sat': '11:30 - 00:00', 'Sun': '12:00 - 23:00', 'Holiday': '12:00 - 23:00'}}",+49 231 58445524,44137,51.51183065-7.465945378227853,,https://losteria.net/en/restaurants/restaurant/dortmund/
Hamburgerstraße 23a,Losteria,Dormagen,Germany,"{'brand': 'Losteria', 'fascia': 'Losteria', 'category': 'Food and Beverage', 'edit_date': '2025-04-01', 'lat_lon_source': 'Third Party'}",51.09323985,6.808224020454549,L'OsteriaDormagen,"{'opening_hours': {'Mon': '11:30 - 23:00', 'Tue': '11:30 - 23:00', 'Wed': '11:30 - 23:00', 'Thu': '11:30 - 23:00', 'Fri': '11:30 - 00:00', 'Sat': '11:30 - 00:00', 'Sun': '12:00 - 23:00', 'Holiday': '12:00 - 23:00'}}",+49 2133 977 7930,41540,51.09323985-6.808224020454549,,https://losteria.net/en/restaurants/restaurant/dormagen/
Berliner Allee 8,Losteria,Düsseldorf,Germany,"{'brand': 'Losteria', 'fascia': 'Losteria', 'category': 'Food and Beverage', 'edit_date': '2025-04-01', 'lat_lon_source': 'Third Party'}",51.22598835,6.783854807099933,L'OsteriaDüsseldorfBerlinerAllee,"{'opening_hours': {'Mon': '11:30 - 23:00', 'Tue': '11:30 - 23:00', 'Wed': '11:30 - 23:00', 'Thu': '11:30 - 23:00', 'Fri': '11:30 - 00:00', 'Sat': '11:30 - 00:00', 'Sun': '12:00 - 23:00', 'Holiday': '12:00 - 23:00'}}",+49 211 35583566,40212,51.22598835-6.783854807099933,,https://losteria.net/en/restaurants/restaurant/duesseldorf-berliner-allee/
Prager Strasse 1c,Losteria,Dresden,Germany,"{'brand': 'Losteria', 'fascia': 'Losteria', 'category': 'Food and Beverage', 'edit_date': '2025-04-01', 'lat_lon_source': 'Third Party'}",51.0419087,13.7343643,L'OsteriaDresdenPragerStraße,"{'opening_hours': {'Mon': '11:30 - 23:00', 'Tue': '11:30 - 23:00', 'Wed': '11:30 - 23:00', 'Thu': '11:30 - 23:00', 'Fri': '11:30 - 00:00', 'Sat': '11:30 - 00:00', 'Sun': '12:00 - 23:00', 'Holiday': '12:00 - 23:00'}}",+49 351 48451040,01069,51.0419087-13.7343643,,https://losteria.net/en/restaurants/restaurant/dresden-prager-strasse/
Terminal Ring 1 Zentralgebäude DUS,Losteria,Düsseldorf,Germany,"{'brand': 'Losteria', 'fascia': 'Losteria', 'category': 'Food and Beverage', 'edit_date': '2025-04-01', 'lat_lon_source': 'Third Party'}",51.269897650000004,6.727197459322639,L'OsteriaDüsseldorfFlughafen,{'opening_hours': {}},+49 211 42161752,40474,51.269897650000004-6.727197459322639,,https://losteria.net/en/restaurants/restaurant/duesseldorf-flughafen/
Dohnaer Str.246,Losteria,Dresden,Germany,"{'brand': 'Losteria', 'fascia': 'Losteria', 'category': 'Food and Beverage', 'edit_date': '2025-04-01', 'lat_lon_source': 'Third Party'}",50.9957173,13.800568060596333,L'OsteriaDresdenDohnaerStraße,"{'opening_hours': {'Mon': '11:30 - 23:00', 'Tue': '11:30 - 23:00', 'Wed': '11:30 - 23:00', 'Thu': '11:30 - 23:00', 'Fri': '11:30 - 00:00', 'Sat': '11:30 - 00:00', 'Sun': '12:00 - 23:00', 'Holiday': '12:00 - 23:00'}}",+49 351 42414240,01239,50.9957173-13.800568060596333,,https://losteria.net/en/restaurants/restaurant/dresden-dohnaer-strasse/
Wilsdruffer Str. 14-16,Losteria,Dresden,Germany,"{'brand': 'Losteria', 'fascia': 'Losteria', 'category': 'Food and Beverage', 'edit_date': '2025-04-01', 'lat_lon_source': 'Third Party'}",51.050286,13.740422,L'OsteriaDresdenWilsdrufferStraße,"{'opening_hours': {'Mon': '11:30 - 23:00', 'Tue': '11:30 - 23:00', 'Wed': '11:30 - 23:00', 'Thu': '11:30 - 23:00', 'Fri': '11:30 - 00:00', 'Sat': '11:30 - 00:00', 'Sun': '12:00 - 23:00', 'Holiday': '12:00 - 23:00'}}",+49 351 48287810,01067,51.050286-13.740422,,https://losteria.net/en/restaurants/restaurant/dresden-wilsdruffer-strasse/
Fehlender Feld 4,Losteria,Düren,Germany,"{'brand': 'Losteria', 'fascia': 'Losteria', 'category': 'Food and Beverage', 'edit_date': '2025-04-01', 'lat_lon_source': 'Third Party'}",50.83021215,6.471649623099337,L'OsteriaDüren,"{'opening_hours': {'Mon': '11:30 - 23:00', 'Tue': '11:30 - 23:00', 'Wed': '11:30 - 23:00', 'Thu': '11:30 - 23:00', 'Fri': '11:30 - 00:00', 'Sat': '11:30 - 00:00', 'Sun': '09:00 - 23:00', 'Holiday': '12:00 - 23:00'}}",+49 2421 5915444,52353,50.83021215-6.471649623099337,,https://losteria.net/en/restaurants/restaurant/dueren/
Jahnstraße 1,Losteria,Düsseldorf,Germany,"{'brand': 'Losteria', 'fascia': 'Losteria', 'category': 'Food and Beverage', 'edit_date': '2025-04-01', 'lat_lon_source': 'Third Party'}",51.2184059,6.780621,L'OsteriaDüsseldorfJahnstraße,"{'opening_hours': {'Mon': '11:30 - 23:00', 'Tue': '11:30 - 23:00', 'Wed': '11:30 - 23:00', 'Thu': '11:30 - 23:00', 'Fri': '11:30 - 00:00', 'Sat': '11:30 - 00:00', 'Sun': '12:00 - 23:00', 'Holiday': '12:00 - 23:00'}}",+49 211 13724200,40215,51.2184059-6.780621,,https://losteria.net/en/restaurants/restaurant/duesseldorf-jahnstrasse/
Theodorstrasse 194,Losteria,Düsseldorf,Germany,"{'brand': 'Losteria', 'fascia': 'Losteria', 'category': 'Food and Beverage', 'edit_date': '2025-04-01', 'lat_lon_source': 'Third Party'}",51.2723936,6.8153947,L'OsteriaDüsseldorfTheodorstraße,"{'opening_hours': {'Mon': '11:30 - 23:00', 'Tue': '11:30 - 23:00', 'Wed': '11:30 - 23:00', 'Thu': '11:30 - 23:00', 'Fri': '11:30 - 00:00', 'Sat': '11:30 - 00:00', 'Sun': '12:00 - 23:00', 'Holiday': '12:00 - 23:00'}}",+49 211 43080140,40472,51.2723936-6.8153947,,https://losteria.net/en/restaurants/restaurant/duesseldorf-theodorstrasse/
Albert-Einstein-Ring 14,Losteria,Erftstadt,Germany,"{'brand': 'Losteria', 'fascia': 'Losteria', 'category': 'Food and Beverage', 'edit_date': '2025-04-01', 'lat_lon_source': 'Third Party'}",50.797297079037925,6.784744825262359,L'OsteriaErftstadt,"{'opening_hours': {'Mon': '11:30 - 23:00', 'Tue': '11:30 - 23:00', 'Wed': '11:30 - 23:00', 'Thu': '11:30 - 23:00', 'Fri': '11:30 - 00:00', 'Sat': '11:30 - 00:00', 'Sun': '09:00 - 23:00', 'Holiday': '09:00 - 23:00'}}",+49 2235 4598888,50374,50.797297079037925-6.784744825262359,,https://losteria.net/en/restaurants/restaurant/erftstadt/
Rüttenscheider Straße 187-189,Losteria,Essen,Germany,"{'brand': 'Losteria', 'fascia': 'Losteria', 'category': 'Food and Beverage', 'edit_date': '2025-04-01', 'lat_lon_source': 'Third Party'}",51.430786850000004,7.0035905,L'OsteriaEssen,"{'opening_hours': {'Mon': '12:00 - 23:00', 'Tue': '12:00 - 23:00', 'Wed': '12:00 - 23:00', 'Thu': '12:00 - 23:00', 'Sun': '12:00 - 23:00', 'Fri': '12:00 - 00:00', 'Sat': '12:00 - 00:00', 'Holiday': '12:00 - 23:00'}}",+49 201 79884061,45131,51.430786850000004-7.0035905,,https://losteria.net/en/restaurants/restaurant/essen/
Junghofstraße 14/16,Losteria,Frankfurt,Germany,"{'brand': 'Losteria', 'fascia': 'Losteria', 'category': 'Food and Beverage', 'edit_date': '2025-04-01', 'lat_lon_source': 'Third Party'}",50.1131756,8.6741123,L'OsteriaFrankfurtJunghofstraße,"{'opening_hours': {'Mon': '11:30 - 23:00', 'Tue': '11:30 - 23:00', 'Wed': '11:30 - 23:00', 'Thu': '11:30 - 23:00', 'Fri': '11:30 - 00:00', 'Sat': '11:30 - 00:00', 'Sun': '12:00 - 23:00', 'Holiday': '12:00 - 23:00'}}",+49 69 75087692,60311,50.1131756-8.6741123,,https://losteria.net/en/restaurants/restaurant/frankfurt-junghofstrasse/
Anger 66-73,Losteria,Erfurt,Germany,"{'brand': 'Losteria', 'fascia': 'Losteria', 'category': 'Food and Beverage', 'edit_date': '2025-04-01', 'lat_lon_source': 'Third Party'}",50.9774735,11.0349138,L'OsteriaErfurtAnger,"{'opening_hours': {'Mon': '11:30 - 23:00', 'Tue': '11:30 - 23:00', 'Wed': '11:30 - 23:00', 'Thu': '11:30 - 23:00', 'Fri': '11:30 - 00:00', 'Sat': '11:30 - 00:00', 'Sun': '12:00 - 23:00', 'Holiday': '12:00 - 23:00'}}",+49 361 21922147,99084,50.9774735-11.0349138,,https://losteria.net/en/restaurants/restaurant/erfurt-anger/
Untere Karlstraße 7,Losteria,Erlangen,Germany,"{'brand': 'Losteria', 'fascia': 'Losteria', 'category': 'Food and Beverage', 'edit_date': '2025-04-01', 'lat_lon_source': 'Third Party'}",49.59624915,11.00579996054277,L'OsteriaErlangen,"{'opening_hours': {'Mon': '11:30 - 23:00', 'Tue': '11:30 - 23:00', 'Wed': '11:30 - 23:00', 'Thu': '11:30 - 23:00', 'Fri': '11:30 - 00:00', 'Sat': '11:30 - 00:00', 'Sun': '12:00 - 23:00', 'Holiday': '12:00 - 23:00'}}",+49 9131 4012590,91054,49.59624915-11.00579996054277,,https://losteria.net/en/restaurants/restaurant/erlangen/
Zeil 106,Losteria,Frankfurt,Germany,"{'brand': 'Losteria', 'fascia': 'Losteria', 'category': 'Food and Beverage', 'edit_date': '2025-04-01', 'lat_lon_source': 'Third Party'}",50.1152875,8.6813251,L'OsteriaFrankfurtMyZeil,"{'opening_hours': {'Mon': '10:00 - 23:00', 'Tue': '10:00 - 23:00', 'Wed': '10:00 - 23:00', 'Thu': '10:00 - 23:00', 'Fri': '10:00 - 00:00', 'Sat': '10:00 - 00:00', 'Sun': '12:00 - 23:00', 'Holiday': '12:00 - 23:00'}}",+49 69 71585957,60313,50.1152875-8.6813251,,https://losteria.net/en/restaurants/restaurant/frankfurt-myzeil/
Abt-Fulrad-Straße 2 Alte Zimmerei,Losteria,Esslingen,Germany,"{'brand': 'Losteria', 'fascia': 'Losteria', 'category': 'Food and Beverage', 'edit_date': '2025-04-01', 'lat_lon_source': 'Third Party'}",48.74099175,9.306099569172325,L'OsteriaEsslingen,"{'opening_hours': {'Mon': '11:30 - 23:00', 'Tue': '11:30 - 23:00', 'Wed': '11:30 - 23:00', 'Thu': '11:30 - 23:00', 'Fri': '11:30 - 00:00', 'Sat': '11:30 - 00:00', 'Sun': '12:00 - 23:00', 'Holiday': '12:00 - 23:00'}}",+49 711 13634310,73728,48.74099175-9.306099569172325,,https://losteria.net/en/restaurants/restaurant/esslingen/
Rempartstraße 4,Losteria,Freiburg,Germany,"{'brand': 'Losteria', 'fascia': 'Losteria', 'category': 'Food and Beverage', 'edit_date': '2025-04-01', 'lat_lon_source': 'Third Party'}",47.9924676,7.8479712,L'OsteriaFreiburg,"{'opening_hours': {'Mon': '11:30 - 23:00', 'Tue': '11:30 - 23:00', 'Wed': '11:30 - 23:00', 'Thu': '11:30 - 23:00', 'Fri': '11:30 - 00:00', 'Sat': '11:30 - 00:00', 'Sun': '12:00 - 23:00', 'Holiday': '12:00 - 23:00'}}",+49 761 21744075,79098,47.9924676-7.8479712,,https://losteria.net/en/restaurants/restaurant/freiburg/
Rudolf-Breitscheid-Str. 7,Losteria,Fürth,Germany,"{'brand': 'Losteria', 'fascia': 'Losteria', 'category': 'Food and Beverage', 'edit_date': '2025-04-01', 'lat_lon_source': 'Third Party'}",49.4737513,10.9897889,L'OsteriaFürthRudolf-Breitscheid-Straße,"{'opening_hours': {'Mon': '11:30 - 23:00', 'Tue': '11:30 - 23:00', 'Wed': '11:30 - 23:00', 'Thu': '11:30 - 23:00', 'Fri': '11:30 - 00:00', 'Sat': '11:30 - 00:00', 'Sun': '12:00 - 23:00', 'Holiday': '12:00 - 23:00'}}",+49 911 74679410,90762,49.4737513-10.9897889,,https://losteria.net/en/restaurants/restaurant/fuerth-rudolf-breitscheid-strasse/
Otto-Lillienthal-Straße 19,Losteria,Euskirchen,Germany,"{'brand': 'Losteria', 'fascia': 'Losteria', 'category': 'Food and Beverage', 'edit_date': '2025-04-01', 'lat_lon_source': 'Third Party'}",50.65750905,6.788508582677621,L'OsteriaEuskirchen,"{'opening_hours': {'Mon': '11:30 - 23:00', 'Tue': '11:30 - 23:00', 'Wed': '11:30 - 23:00', 'Thu': '11:30 - 23:00', 'Fri': '11:30 - 00:00', 'Sat': '11:30 - 00:00', 'Sun': '09:00 - 23:00', 'Holiday': '12:00 - 23:00'}}",+49 2251 9135935,53879,50.65750905-6.788508582677621,,https://losteria.net/en/restaurants/restaurant/euskirchen/
Speicherstraße 1,Losteria,Frankfurt,Germany,"{'brand': 'Losteria', 'fascia': 'Losteria', 'category': 'Food and Beverage', 'edit_date': '2025-04-01', 'lat_lon_source': 'Third Party'}",50.10112875,8.663313557248264,L'OsteriaFrankfurtWesthafen,"{'opening_hours': {'Mon': '11:30 - 23:00', 'Tue': '11:30 - 23:00', 'Wed': '11:30 - 23:00', 'Thu': '11:30 - 23:00', 'Fri': '11:30 - 00:00', 'Sat': '11:30 - 00:00', 'Sun': '12:00 - 23:00', 'Holiday': '12:00 - 23:00'}}",+49 69 24247020,60327,50.10112875-8.663313557248264,,https://losteria.net/en/restaurants/restaurant/frankfurt-am-main/
Kennedyplatz 6,Losteria,Essen,Germany,"{'brand': 'Losteria', 'fascia': 'Losteria', 'category': 'Food and Beverage', 'edit_date': '2025-04-01', 'lat_lon_source': 'Third Party'}",51.456801,7.010353015043211,L'OsteriaEssenKennedyplatz,"{'opening_hours': {'Mon': '11:30 - 23:00', 'Tue': '11:30 - 23:00', 'Wed': '11:30 - 23:00', 'Thu': '11:30 - 23:00', 'Fri': '11:30 - 00:00', 'Sat': '11:30 - 00:00', 'Sun': '12:00 - 23:00', 'Holiday': '12:00 - 23:00'}}",+49 201 24859823,45127,51.456801-7.010353015043211,,https://losteria.net/en/restaurants/restaurant/essen-kennedyplatz/
Marienplatz 13-15,Losteria,Garmisch-Partenkirchen,Germany,"{'brand': 'Losteria', 'fascia': 'Losteria', 'category': 'Food and Beverage', 'edit_date': '2025-04-01', 'lat_lon_source': 'Third Party'}",47.4921986,11.0857778,L'OsteriaGarmischMarienplatz,"{'opening_hours': {'Mon': '11:00 - 23:00', 'Tue': '11:00 - 23:00', 'Wed': '11:00 - 23:00', 'Thu': '11:00 - 23:00', 'Fri': '11:00 - 00:00', 'Sat': '11:00 - 00:00', 'Sun': '12:00 - 23:00', 'Holiday': '12:00 - 23:00'}}",+49 8821 9434939,82467,47.4921986-11.0857778,,https://losteria.net/en/restaurants/restaurant/garmisch-marienplatz/
Robert-Hesse-Straße 1b,Losteria,Garbsen,Germany,"{'brand': 'Losteria', 'fascia': 'Losteria', 'category': 'Food and Beverage', 'edit_date': '2025-04-01', 'lat_lon_source': 'Third Party'}",52.42622695,9.624147805746883,L'OsteriaGarbsen,"{'opening_hours': {'Mon': '11:30 - 23:00', 'Tue': '11:30 - 23:00', 'Wed': '11:30 - 23:00', 'Thu': '11:30 - 23:00', 'Fri': '11:30 - 00:00', 'Sat': '11:30 - 00:00', 'Sun': '12:00 - 23:00', 'Holiday': '12:00 - 23:00'}}",+49 511 97916929,30827,52.42622695-9.624147805746883,,https://losteria.net/en/restaurants/restaurant/garbsen/
Hanauer Landstraße 110,Losteria,Frankfurt,Germany,"{'brand': 'Losteria', 'fascia': 'Losteria', 'category': 'Food and Beverage', 'edit_date': '2025-04-01', 'lat_lon_source': 'Third Party'}",50.1112076,8.709428364705882,L'OsteriaFrankfurtHanauerLandstraße,"{'opening_hours': {'Mon': '11:30 - 23:00', 'Tue': '11:30 - 23:00', 'Wed': '11:30 - 23:00', 'Thu': '11:30 - 23:00', 'Fri': '11:30 - 00:00', 'Sat': '11:30 - 00:00', 'Sun': '12:00 - 23:00', 'Holiday': '12:00 - 23:00'}}",069 40565661,60314,50.1112076-8.709428364705882,,https://losteria.net/en/restaurants/restaurant/frankfurt-hanauer-landstrasse/
Willy-Brandt-Allee 63,Losteria,Gelsenkirchen,Germany,"{'brand': 'Losteria', 'fascia': 'Losteria', 'category': 'Food and Beverage', 'edit_date': '2025-04-01', 'lat_lon_source': 'Third Party'}",51.550764400000006,7.075752104619264,L'OsteriaGelsenkirchen,"{'opening_hours': {'Mon': '11:30 - 23:00', 'Tue': '11:30 - 23:00', 'Wed': '11:30 - 23:00', 'Thu': '11:30 - 23:00', 'Fri': '11:30 - 00:00', 'Sat': '11:30 - 00:00', 'Sun': '09:00 - 23:00', 'Holiday': '12:00 - 23:00'}}",+49 209 80074450,45891,51.550764400000006-7.075752104619264,,https://losteria.net/en/restaurants/restaurant/gelsenkirchen/
Geislinger Straße 31,Losteria,Göppingen,Germany,"{'brand': 'Losteria', 'fascia': 'Losteria', 'category': 'Food and Beverage', 'edit_date': '2025-04-01', 'lat_lon_source': 'Third Party'}",48.70135865,9.654076458414455,L'OsteriaGöppingenGeislingerStraße,"{'opening_hours': {'Mon': '11:30 - 23:00', 'Tue': '11:30 - 23:00', 'Wed': '11:30 - 23:00', 'Thu': '11:30 - 23:00', 'Fri': '11:30 - 00:00', 'Sat': '11:30 - 00:00', 'Sun': '12:00 - 23:00', 'Holiday': '12:00 - 23:00'}}",+49 7161 8211667,73033,48.70135865-9.654076458414455,,https://losteria.net/en/restaurants/restaurant/goeppingen-geislinger-strasse/
Kurze-Geismar-Straße 9,Losteria,Göttingen,Germany,"{'brand': 'Losteria', 'fascia': 'Losteria', 'category': 'Food and Beverage', 'edit_date': '2025-04-01', 'lat_lon_source': 'Third Party'}",51.53070065,9.938112838236286,L'OsteriaGöttingen,"{'opening_hours': {'Mon': '11:30 - 23:00', 'Tue': '11:30 - 23:00', 'Wed': '11:30 - 23:00', 'Thu': '11:30 - 23:00', 'Fri': '11:30 - 00:00', 'Sat': '12:00 - 00:00', 'Sun': '12:00 - 23:00', 'Holiday': '12:00 - 23:00'}}",+49 551 50848510,37073,51.53070065-9.938112838236286,,https://losteria.net/en/restaurants/restaurant/goettingen/
Anklamer Straße 108,Losteria,Greifswald,Germany,"{'brand': 'Losteria', 'fascia': 'Losteria', 'category': 'Food and Beverage', 'edit_date': '2025-04-01', 'lat_lon_source': 'Third Party'}",54.0941217,13.3883533,L'OsteriaGreifswald,"{'opening_hours': {'Mon': '11:30 - 23:00', 'Tue': '11:30 - 23:00', 'Wed': '11:30 - 23:00', 'Thu': '11:30 - 23:00', 'Fri': '11:30 - 00:00', 'Sat': '11:30 - 00:00', 'Sun': '12:00 - 23:00', 'Holiday': '12:00 - 23:00'}}",+49 3834 4419258,17489,54.0941217-13.3883533,,https://losteria.net/en/restaurants/restaurant/greifswald/
Dammtorstraße 12,Losteria,Hamburg,Germany,"{'brand': 'Losteria', 'fascia': 'Losteria', 'category': 'Food and Beverage', 'edit_date': '2025-04-01', 'lat_lon_source': 'Third Party'}",53.5570241,9.9879749,L'OsteriaHamburgOpernplaza,"{'opening_hours': {'Mon': '11:30 - 23:00', 'Tue': '11:30 - 23:00', 'Wed': '11:30 - 23:00', 'Thu': '11:30 - 23:00', 'Fri': '11:30 - 00:00', 'Sat': '11:30 - 00:00', 'Sun': '12:00 - 23:00', 'Holiday': '12:00 - 23:00'}}",+49 40 34106788,20354,53.5570241-9.9879749,,https://losteria.net/en/restaurants/restaurant/hamburg-opernplaza/
Wilhelm-Maybach-Str. 5,Losteria,Günzburg,Germany,"{'brand': 'Losteria', 'fascia': 'Losteria', 'category': 'Food and Beverage', 'edit_date': '2025-04-01', 'lat_lon_source': 'Third Party'}",48.428028350000005,10.288328399999997,L'OsteriaGünzburgWilhelm-Maybach-Straße,"{'opening_hours': {'Mon': '11:30 - 23:00', 'Tue': '11:30 - 23:00', 'Wed': '11:30 - 23:00', 'Thu': '11:30 - 23:00', 'Fri': '11:30 - 00:00', 'Sat': '11:30 - 00:00', 'Sun': '12:00 - 23:00', 'Holiday': '12:00 - 23:00'}}",+49 8221 96 334 88,89312,48.428028350000005-10.288328399999997,,https://losteria.net/en/restaurants/restaurant/guenzburg-wilhelm-maybach-strasse/
Winterhuder Marktplatz 17,Losteria,Hamburg,Germany,"{'brand': 'Losteria', 'fascia': 'Losteria', 'category': 'Food and Beverage', 'edit_date': '2025-04-01', 'lat_lon_source': 'Third Party'}",53.5950263,9.999163335577997,L'OsteriaHamburg-Winterhude,"{'opening_hours': {'Mon': '11:30 - 23:00', 'Tue': '11:30 - 23:00', 'Wed': '11:30 - 23:00', 'Thu': '11:30 - 23:00', 'Fri': '11:30 - 00:00', 'Sat': '11:30 - 00:00', 'Sun': '12:00 - 23:00', 'Holiday': '12:00 - 23:00'}}",+49 40 36035110,22299,53.5950263-9.999163335577997,,https://losteria.net/en/restaurants/restaurant/hamburg-winterhude/
Bleichenbrücke 9,Losteria,Hamburg,Germany,"{'brand': 'Losteria', 'fascia': 'Losteria', 'category': 'Food and Beverage', 'edit_date': '2025-04-01', 'lat_lon_source': 'Third Party'}",53.551992,9.9877895,L'OsteriaHamburgBleichenbrücke,"{'opening_hours': {'Mon': '11:30 - 23:00', 'Tue': '11:30 - 23:00', 'Wed': '11:30 - 23:00', 'Thu': '11:30 - 23:00', 'Fri': '11:30 - 00:00', 'Sat': '11:30 - 00:00', 'Sun': '12:00 - 23:00', 'Holiday': '12:00 - 23:00'}}",+49 40 35017943,20354,53.551992-9.9877895,,https://losteria.net/en/restaurants/restaurant/hamburg-bleichenbruecke/
Am Freiheitsplatz 18a,Losteria,Hanau,Germany,"{'brand': 'Losteria', 'fascia': 'Losteria', 'category': 'Food and Beverage', 'edit_date': '2025-04-01', 'lat_lon_source': 'Third Party'}",50.1353013,8.9176396,L'OsteriaHanauFreiheitsplatz,"{'opening_hours': {'Mon': '11:30 - 23:00', 'Tue': '11:30 - 23:00', 'Wed': '11:30 - 23:00', 'Thu': '11:30 - 23:00', 'Fri': '11:30 - 23:00', 'Sat': '11:30 - 23:00', 'Sun': '12:00 - 22:00', 'Holiday': '12:00 - 22:00'}}",+49 6181 9699974,63450,50.1353013-8.9176396,,https://losteria.net/en/restaurants/restaurant/hanau-freiheitsplatz/
Lavesstraße 1-2,Losteria,Hannover,Germany,"{'brand': 'Losteria', 'fascia': 'Losteria', 'category': 'Food and Beverage', 'edit_date': '2025-04-01', 'lat_lon_source': 'Third Party'}",52.3742761,9.7447872,L'OsteriaHannoverLavesstraße,"{'opening_hours': {'Mon': '11:30 - 23:00', 'Tue': '11:30 - 23:00', 'Wed': '11:30 - 23:00', 'Thu': '11:30 - 23:00', 'Fri': '11:30 - 00:00', 'Sat': '12:00 - 00:00', 'Sun': '12:00 - 23:00', 'Holiday': '12:00 - 23:00'}}",+49 511 84877138,30159,52.3742761-9.7447872,,https://losteria.net/en/restaurants/restaurant/hannover-lavesstrasse/
Friesenweg 16,Losteria,Hamburg,Germany,"{'brand': 'Losteria', 'fascia': 'Losteria', 'category': 'Food and Beverage', 'edit_date': '2025-04-01', 'lat_lon_source': 'Third Party'}",53.55807675,9.907707547406467,L'OsteriaHamburgMarzipanfabrik,"{'opening_hours': {'Mon': '11:30 - 22:30', 'Tue': '11:30 - 22:30', 'Wed': '11:30 - 22:30', 'Thu': '11:30 - 22:30', 'Fri': '11:30 - 00:00', 'Sat': '11:30 - 00:00', 'Sun': '12:00 - 22:30', 'Holiday': '11:30 - 22:30'}}",+49 40 42108509,22673,53.55807675-9.907707547406467,,https://losteria.net/en/restaurants/restaurant/hamburg-marzipanfabrik/
Vahrenwalder Straße 269,Losteria,Hannover,Germany,"{'brand': 'Losteria', 'fascia': 'Losteria', 'category': 'Food and Beverage', 'edit_date': '2025-04-01', 'lat_lon_source': 'Third Party'}",52.415842049999995,9.732989332897205,L'OsteriaHannoverVahrenwalder,"{'opening_hours': {'Mon': '11:30 - 23:00', 'Tue': '11:30 - 23:00', 'Wed': '11:30 - 23:00', 'Thu': '11:30 - 23:00', 'Fri': '11:30 - 00:00', 'Sat': '11:30 - 00:00', 'Sun': '12:00 - 23:00', 'Holiday': '12:00 - 23:00'}}",+49 511 67696737,30179,52.415842049999995-9.732989332897205,,https://losteria.net/en/restaurants/restaurant/hannover-vahrenwalder/
Friedrich-Ebert-Platz 3,Losteria,Hagen,Germany,"{'brand': 'Losteria', 'fascia': 'Losteria', 'category': 'Food and Beverage', 'edit_date': '2025-04-01', 'lat_lon_source': 'Third Party'}",51.358962250000005,7.474464783495675,L'OsteriaHagen,"{'opening_hours': {'Mon': '11:30 - 23:00', 'Tue': '11:30 - 23:00', 'Wed': '11:30 - 23:00', 'Thu': '11:30 - 23:00', 'Fri': '11:30 - 00:00', 'Sat': '11:30 - 00:00', 'Sun': '12:00 - 23:00', 'Holiday': '12:00 - 23:00'}}",+49 2331 3623254,58095,51.358962250000005-7.474464783495675,,https://losteria.net/en/restaurants/restaurant/hagen/
Große Elbstraße 49,Losteria,Hamburg,Germany,"{'brand': 'Losteria', 'fascia': 'Losteria', 'category': 'Food and Beverage', 'edit_date': '2025-04-01', 'lat_lon_source': 'Third Party'}",53.5441628,9.9467672,L'OsteriaHamburgFischmarkt,"{'opening_hours': {'Mon': '11:30 - 23:00', 'Tue': '11:30 - 23:00', 'Wed': '11:30 - 23:00', 'Thu': '11:30 - 23:00', 'Fri': '11:30 - 00:00', 'Sat': '11:30 - 00:00', 'Sun': '12:00 - 23:00', 'Holiday': '12:00 - 23:00'}}",+49 40 70298570,22767,53.5441628-9.9467672,,https://losteria.net/en/restaurants/restaurant/hamburg-fischmarkt/
Hauptstr. 111,Losteria,Heidelberg,Germany,"{'brand': 'Losteria', 'fascia': 'Losteria', 'category': 'Food and Beverage', 'edit_date': '2025-04-01', 'lat_lon_source': 'Third Party'}",49.4093582,8.694724,L'OsteriaHeidelberg,"{'opening_hours': {'Mon': '11:30 - 23:00', 'Tue': '11:30 - 23:00', 'Wed': '11:30 - 23:00', 'Thu': '11:30 - 23:00', 'Fri': '11:30 - 00:00', 'Sat': '11:30 - 00:00', 'Sun': '12:00 - 23:00', 'Holiday': '12:00 - 23:00'}}",+49 6221 6588428,69177,49.4093582-8.694724,,https://losteria.net/en/restaurants/restaurant/heidelberg/
Holsterhauser Str. 186,Losteria,Herne,Germany,"{'brand': 'Losteria', 'fascia': 'Losteria', 'category': 'Food and Beverage', 'edit_date': '2025-04-01', 'lat_lon_source': 'Third Party'}",51.52850695,7.199805625123509,L'OsteriaHerne,"{'opening_hours': {'Mon': '11:30 - 23:00', 'Tue': '11:30 - 23:00', 'Wed': '11:30 - 23:00', 'Thu': '11:30 - 23:00', 'Fri': '11:30 - 00:00', 'Sat': '11:30 - 00:00', 'Sun': '09:00 - 23:00', 'Holiday': '09:00 - 23:00'}}",+49 2325 9699240,44625,51.52850695-7.199805625123509,,https://losteria.net/en/restaurants/restaurant/herne/
Obere Neckarstraße 30,Losteria,Heilbronn,Germany,"{'brand': 'Losteria', 'fascia': 'Losteria', 'category': 'Food and Beverage', 'edit_date': '2025-04-01', 'lat_lon_source': 'Third Party'}",49.141953,9.2162526,L'OsteriaHeilbronn,"{'opening_hours': {'Mon': '11:30 - 23:00', 'Tue': '11:30 - 23:00', 'Wed': '11:30 - 23:00', 'Thu': '11:30 - 23:00', 'Fri': '11:30 - 00:00', 'Sat': '11:30 - 00:00', 'Sun': '12:00 - 23:00', 'Holiday': '12:00 - 23:00'}}",+49 7131 8735650,74072,49.141953-9.2162526,,https://losteria.net/en/restaurants/restaurant/heilbronn/
Ostendallee 6,Losteria,Hildesheim,Germany,"{'brand': 'Losteria', 'fascia': 'Losteria', 'category': 'Food and Beverage', 'edit_date': '2025-04-01', 'lat_lon_source': 'Third Party'}",52.1557586,9.9699754,L'OsteriaHildesheim,"{'opening_hours': {'Mon': '11:30 - 23:00', 'Tue': '11:30 - 23:00', 'Wed': '11:30 - 23:00', 'Thu': '11:30 - 23:00', 'Fri': '11:30 - 00:00', 'Sat': '11:30 - 00:00', 'Sun': '12:00 - 23:00', 'Holiday': '12:00 - 23:00'}}",+49 5121 9996575,31135,52.1557586-9.9699754,,https://losteria.net/en/restaurants/restaurant/hildesheim/
Luxemburger Straße 146,Losteria,Hürth,Germany,"{'brand': 'Losteria', 'fascia': 'Losteria', 'category': 'Food and Beverage', 'edit_date': '2025-04-01', 'lat_lon_source': 'Third Party'}",50.889232899999996,6.899160454686854,L'OsteriaHürth,"{'opening_hours': {'Mon': '11:30 - 23:00', 'Tue': '11:30 - 23:00', 'Wed': '11:30 - 23:00', 'Thu': '11:30 - 23:00', 'Fri': '11:30 - 00:00', 'Sat': '11:30 - 00:00', 'Sun': '09:00 - 23:00', 'Holiday': '12:00 - 23:00'}}",+49 2233 9665011,50354,50.889232899999996-6.899160454686854,,https://losteria.net/en/restaurants/restaurant/huerth/
Franziskanerstraße 7,Losteria,Ingolstadt,Germany,"{'brand': 'Losteria', 'fascia': 'Losteria', 'category': 'Food and Beverage', 'edit_date': '2025-04-01', 'lat_lon_source': 'Third Party'}",48.7631191,11.4264028,L'OsteriaIngolstadt,"{'opening_hours': {'Mon': '11:30 - 23:00', 'Tue': '11:30 - 23:00', 'Wed': '11:30 - 23:00', 'Thu': '11:30 - 23:00', 'Fri': '11:30 - 00:00', 'Sat': '11:30 - 00:00', 'Sun': '12:00 - 23:00', 'Holiday': '12:00 - 23:00'}}",+49 841 98161085,85049,48.7631191-11.4264028,,https://losteria.net/en/restaurants/restaurant/ingolstadt/
Europaallee 56,Losteria,Kaiserslautern,Germany,"{'brand': 'Losteria', 'fascia': 'Losteria', 'category': 'Food and Beverage', 'edit_date': '2025-04-01', 'lat_lon_source': 'Third Party'}",49.4517782,7.8151221,L'OsteriaKaiserslauternEuropaallee,"{'opening_hours': {'Mon': '11:30 - 23:00', 'Tue': '11:30 - 23:00', 'Wed': '11:30 - 23:00', 'Thu': '11:30 - 23:00', 'Fri': '11:30 - 00:00', 'Sat': '11:30 - 00:00', 'Sun': '09:00 - 23:00', 'Holiday': '12:00 - 23:00'}}",+49 631 62496210,67657,49.4517782-7.8151221,,https://losteria.net/en/restaurants/restaurant/kaiserslautern-europaallee/
Leutragraben 1,Losteria,Jena,Germany,"{'brand': 'Losteria', 'fascia': 'Losteria', 'category': 'Food and Beverage', 'edit_date': '2025-04-01', 'lat_lon_source': 'Third Party'}",50.928836149999995,11.584583226206341,L'OsteriaJenaLeutragraben,"{'opening_hours': {'Mon': '11:30 - 23:00', 'Tue': '11:30 - 23:00', 'Wed': '11:30 - 23:00', 'Thu': '11:30 - 23:00', 'Fri': '11:30 - 00:00', 'Sat': '11:30 - 00:00', 'Sun': '12:00 - 23:00', 'Holiday': '12:00 - 23:00'}}",+49 3641 7968000,07743,50.928836149999995-11.584583226206341,,https://losteria.net/en/restaurants/restaurant/jena-leutragraben/
Raiffeisenstraße 1,Losteria,Kiel,Germany,"{'brand': 'Losteria', 'fascia': 'Losteria', 'category': 'Food and Beverage', 'edit_date': '2025-04-01', 'lat_lon_source': 'Third Party'}",54.3162853,10.1322076,L'OsteriaKiel,"{'opening_hours': {'Mon': '11:30 - 23:00', 'Tue': '11:30 - 23:00', 'Wed': '11:30 - 23:00', 'Thu': '11:30 - 23:00', 'Fri': '11:30 - 00:00', 'Sat': '12:00 - 00:00', 'Sun': '12:00 - 23:00', 'Holiday': '12:00 - 23:00'}}",+49 431 67072930,24103,54.3162853-10.1322076,,https://losteria.net/en/restaurants/restaurant/kiel/
Bahnhofstraße 1,Losteria,Kempten,Germany,"{'brand': 'Losteria', 'fascia': 'Losteria', 'category': 'Food and Beverage', 'edit_date': '2025-04-01', 'lat_lon_source': 'Third Party'}",47.724175,10.314808,L'OsteriaKempten,"{'opening_hours': {'Mon': '11:30 - 23:00', 'Tue': '11:30 - 23:00', 'Wed': '11:30 - 23:00', 'Thu': '11:30 - 23:00', 'Fri': '11:30 - 00:00', 'Sat': '11:30 - 00:00', 'Sun': '12:00 - 23:00', 'Holiday': '12:00 - 23:00'}}",+49 831 69710570,87435,47.724175-10.314808,,https://losteria.net/en/restaurants/restaurant/kempten/
Emmericher Str 271,Losteria,Kleve,Germany,"{'brand': 'Losteria', 'fascia': 'Losteria', 'category': 'Food and Beverage', 'edit_date': '2025-04-01', 'lat_lon_source': 'Third Party'}",51.794605000000004,6.148400109468934,L'OsteriaKleve,"{'opening_hours': {'Mon': '11:30 - 23:00', 'Tue': '11:30 - 23:00', 'Wed': '11:30 - 23:00', 'Thu': '11:30 - 23:00', 'Fri': '11:30 - 00:00', 'Sat': '11:30 - 00:00', 'Sun': '09:00 - 23:00', 'Holiday': '12:00 - 23:00'}}",02821 3982696,47533,51.794605000000004-6.148400109468934,,https://losteria.net/en/restaurants/restaurant/kleve/
Zähringerstrasse 69,Losteria,Karlsruhe,Germany,"{'brand': 'Losteria', 'fascia': 'Losteria', 'category': 'Food and Beverage', 'edit_date': '2025-04-01', 'lat_lon_source': 'Third Party'}",49.00882005,8.402063355492897,L'OsteriaKarlsruheZähringerstraße,"{'opening_hours': {'Mon': '11:30 - 23:00', 'Tue': '11:30 - 23:00', 'Wed': '11:30 - 23:00', 'Thu': '11:30 - 23:00', 'Fri': '11:30 - 00:00', 'Sat': '11:30 - 00:00', 'Sun': '12:00 - 23:00', 'Holiday': '12:00 - 23:00'}}",+49 721 81966875,76133,49.00882005-8.402063355492897,,https://losteria.net/en/restaurants/restaurant/karlsruhe/
Königsplatz 36,Losteria,Kassel,Germany,"{'brand': 'Losteria', 'fascia': 'Losteria', 'category': 'Food and Beverage', 'edit_date': '2025-04-01', 'lat_lon_source': 'Third Party'}",51.3151802,9.498362697885437,L'OsteriaKassel,"{'opening_hours': {'Mon': '11:30 - 23:00', 'Tue': '11:30 - 23:00', 'Wed': '11:30 - 23:00', 'Thu': '11:30 - 23:00', 'Fri': '11:30 - 00:00', 'Sat': '11:30 - 00:00', 'Sun': '12:00 - 23:00', 'Holiday': '12:00 - 23:00'}}",+49 561 73982200,34117,51.3151802-9.498362697885437,,https://losteria.net/en/restaurants/restaurant/kassel/
Am Plan 14-16,Losteria,Koblenz,Germany,"{'brand': 'Losteria', 'fascia': 'Losteria', 'category': 'Food and Beverage', 'edit_date': '2025-04-01', 'lat_lon_source': 'Third Party'}",50.360231,7.5948616,L'OsteriaKoblenz,"{'opening_hours': {'Mon': '11:30 - 23:00', 'Tue': '11:30 - 23:00', 'Wed': '11:30 - 23:00', 'Thu': '11:30 - 23:00', 'Fri': '11:30 - 00:00', 'Sat': '11:30 - 00:00', 'Sun': '12:00 - 23:00', 'Holiday': '12:00 - 23:00'}}",+49 261 96096080,56068,50.360231-7.5948616,,https://losteria.net/en/restaurants/restaurant/koblenz/
Martinstraße 1,Losteria,Köln,Germany,"{'brand': 'Losteria', 'fascia': 'Losteria', 'category': 'Food and Beverage', 'edit_date': '2025-04-01', 'lat_lon_source': 'Third Party'}",50.9358267,6.9588906,L'OsteriaKölnGürzenich-Quartier,"{'opening_hours': {'Mon': '11:30 - 23:00', 'Tue': '11:30 - 23:00', 'Wed': '11:30 - 23:00', 'Thu': '11:30 - 23:00', 'Fri': '11:30 - 00:00', 'Sat': '11:30 - 00:00', 'Sun': '12:00 - 23:00', 'Holiday': '12:00 - 23:00'}}",+49 221 27125870,50667,50.9358267-6.9588906,,https://losteria.net/en/restaurants/restaurant/koeln-guerzenich-quartier/
Hans-Imhoff-Straße 4,Losteria,Köln,Germany,"{'brand': 'Losteria', 'fascia': 'Losteria', 'category': 'Food and Beverage', 'edit_date': '2025-04-01', 'lat_lon_source': 'Third Party'}",50.9419055,6.9754016,L'OsteriaKölnDeutz,"{'opening_hours': {'Mon': '11:30 - 23:00', 'Tue': '11:30 - 23:00', 'Wed': '11:30 - 23:00', 'Thu': '11:30 - 23:00', 'Fri': '11:30 - 00:00', 'Sat': '11:30 - 00:00', 'Sun': '12:00 - 23:00', 'Holiday': '12:00 - 23:00'}}",+49 221 9999 4616,50679,50.9419055-6.9754016,,https://losteria.net/en/restaurants/restaurant/koeln-deutz/
Kamen Karree 23,Losteria,Kamen,Germany,"{'brand': 'Losteria', 'fascia': 'Losteria', 'category': 'Food and Beverage', 'edit_date': '2025-04-01', 'lat_lon_source': 'Third Party'}",51.56808744999999,7.6724953078570035,L'OsteriaKamen,"{'opening_hours': {'Mon': '11:30 - 23:00', 'Tue': '11:30 - 23:00', 'Wed': '11:30 - 23:00', 'Thu': '11:30 - 23:00', 'Fri': '11:30 - 00:00', 'Sat': '11:30 - 00:00', 'Sun': '12:00 - 23:00', 'Holiday': '12:00 - 23:00'}}",+49 2307 9731 780,59174,51.56808744999999-7.6724953078570035,,https://losteria.net/en/restaurants/restaurant/kamen/
Durlacher Allee 73,Losteria,Karlsruhe,Germany,"{'brand': 'Losteria', 'fascia': 'Losteria', 'category': 'Food and Beverage', 'edit_date': '2025-04-01', 'lat_lon_source': 'Third Party'}",49.006577,8.432339104813224,L'OsteriaKarlsruheDurlacherAllee,"{'opening_hours': {'Mon': '11:30 - 23:00', 'Tue': '11:30 - 23:00', 'Wed': '11:30 - 23:00', 'Thu': '11:30 - 23:00', 'Fri': '11:30 - 00:00', 'Sat': '11:30 - 00:00', 'Sun': '12:00 - 23:00', 'Holiday': '12:00 - 23:00'}}",+49 721 78360020,76131,49.006577-8.432339104813224,,https://losteria.net/en/restaurants/restaurant/karlsruhe-durlacher-allee/
Hahnenstr. 37,Losteria,Köln,Germany,"{'brand': 'Losteria', 'fascia': 'Losteria', 'category': 'Food and Beverage', 'edit_date': '2025-04-01', 'lat_lon_source': 'Third Party'}",50.93559605,6.943182516277766,L'OsteriaKölnHahnenstraße,"{'opening_hours': {'Mon': '11:30 - 23:00', 'Tue': '11:30 - 23:00', 'Wed': '11:30 - 23:00', 'Thu': '11:30 - 23:00', 'Fri': '11:30 - 00:00', 'Sat': '11:30 - 00:00', 'Sun': '12:00 - 23:00', 'Holiday': '12:00 - 23:00'}}",+49 221 33108383,50667,50.93559605-6.943182516277766,,https://losteria.net/en/restaurants/restaurant/koeln-hahnenstrasse/
Zusestraße 52,Losteria,Köln,Germany,"{'brand': 'Losteria', 'fascia': 'Losteria', 'category': 'Food and Beverage', 'edit_date': '2025-04-01', 'lat_lon_source': 'Third Party'}",50.9523267,6.840079490401565,L'OsteriaKölnLövenich,"{'opening_hours': {'Mon': '11:30 - 23:00', 'Tue': '11:30 - 23:00', 'Wed': '11:30 - 23:00', 'Thu': '11:30 - 23:00', 'Fri': '11:30 - 00:00', 'Sat': '11:30 - 00:00', 'Sun': '12:00 - 23:00', 'Holiday': '12:00 - 23:00'}}",+49 2234 6821929,50859,50.9523267-6.840079490401565,,https://losteria.net/en/restaurants/restaurant/koeln-loevenich/
Am Kabellager 5,Losteria,Köln,Germany,"{'brand': 'Losteria', 'fascia': 'Losteria', 'category': 'Food and Beverage', 'edit_date': '2025-04-01', 'lat_lon_source': 'Third Party'}",50.9679858,7.0103438,L'OsteriaKölnMülheim,"{'opening_hours': {'Mon': '11:30 - 23:00', 'Tue': '11:30 - 23:00', 'Wed': '11:30 - 23:00', 'Thu': '11:30 - 23:00', 'Fri': '11:30 - 00:00', 'Sat': '12:00 - 00:00', 'Sun': '12:00 - 23:00', 'Holiday': '12:00 - 23:00'}}",+49 221 66964740,51063,50.9679858-7.0103438,,https://losteria.net/en/restaurants/restaurant/koeln-muelheim/
Im Zollhafen 2-4,Losteria,Köln,Germany,"{'brand': 'Losteria', 'fascia': 'Losteria', 'category': 'Food and Beverage', 'edit_date': '2025-04-01', 'lat_lon_source': 'Third Party'}",50.9308964,6.9643394,L'OsteriaKölnZollhafen,"{'opening_hours': {'Mon': '11:30 - 23:00', 'Tue': '11:30 - 23:00', 'Wed': '11:30 - 23:00', 'Thu': '11:30 - 23:00', 'Fri': '11:30 - 00:00', 'Sat': '11:30 - 00:00', 'Sun': '12:00 - 23:00', 'Holiday': '12:00 - 23:00'}}",+49 221 66964750,50678,50.9308964-6.9643394,,https://losteria.net/en/restaurants/restaurant/koeln-zollhafen/
Reichenaustrasse 15,Losteria,Konstanz,Germany,"{'brand': 'Losteria', 'fascia': 'Losteria', 'category': 'Food and Beverage', 'edit_date': '2025-04-01', 'lat_lon_source': 'Third Party'}",47.6712656,9.167734346581195,L'OsteriaKonstanzReichenaustrasse,"{'opening_hours': {'Mon': '11:30 - 23:00', 'Tue': '11:30 - 23:00', 'Wed': '11:30 - 23:00', 'Thu': '11:30 - 23:00', 'Fri': '11:30 - 00:00', 'Sat': '11:30 - 00:00', 'Sun': '12:00 - 23:00', 'Holiday': '12:00 - 23:00'}}",+49 7531 9551590,78467,47.6712656-9.167734346581195,,https://losteria.net/en/restaurants/restaurant/konstanz-reichenaustrasse/
Bahnhofsplatz 11,Losteria,Lörrach,Germany,"{'brand': 'Losteria', 'fascia': 'Losteria', 'category': 'Food and Beverage', 'edit_date': '2025-04-01', 'lat_lon_source': 'Third Party'}",47.6138261,7.6638577,L'OsteriaLörrach,"{'opening_hours': {'Mon': '11:00 - 23:00', 'Tue': '11:00 - 23:00', 'Wed': '11:00 - 23:00', 'Thu': '11:00 - 23:00', 'Fri': '11:00 - 00:00', 'Sat': '11:00 - 00:00', 'Sun': '12:00 - 23:00', 'Holiday': '12:00 - 23:00'}}",+49 7621 9154448,79539,47.6138261-7.6638577,,https://losteria.net/en/restaurants/restaurant/loerrach/
Niehler Straße 104,Losteria,Köln,Germany,"{'brand': 'Losteria', 'fascia': 'Losteria', 'category': 'Food and Beverage', 'edit_date': '2025-04-01', 'lat_lon_source': 'Third Party'}",50.96472695,6.958950358366291,L'OsteriaKölnNiehlerStraße,"{'opening_hours': {'Mon': '11:30 - 23:00', 'Tue': '11:30 - 23:00', 'Wed': '11:30 - 23:00', 'Thu': '11:30 - 23:00', 'Fri': '11:30 - 00:00', 'Sat': '11:30 - 00:00', 'Sun': '09:00 - 23:00', 'Holiday': '09:00 - 23:00'}}",+49 221 84615070,50733,50.96472695-6.958950358366291,,https://losteria.net/en/restaurants/restaurant/koeln-niehler-strasse/
An den Reeperbahnen 2,Losteria,Lüneburg,Germany,"{'brand': 'Losteria', 'fascia': 'Losteria', 'category': 'Food and Beverage', 'edit_date': '2025-04-01', 'lat_lon_source': 'Third Party'}",53.245195,10.4073066,L'OsteriaLüneburg,"{'opening_hours': {'Mon': '11:30 - 23:00', 'Tue': '11:30 - 23:00', 'Wed': '11:30 - 23:00', 'Thu': '11:30 - 23:00', 'Fri': '11:30 - 00:00', 'Sat': '11:30 - 00:00', 'Sun': '12:00 - 23:00', 'Holiday': '12:00 - 23:00'}}",+49 413170 75520,21335,53.245195-10.4073066,,https://losteria.net/en/restaurants/restaurant/lueneburg/
Ernst-Reuter-Allee 11,Losteria,Magdeburg,Germany,"{'brand': 'Losteria', 'fascia': 'Losteria', 'category': 'Food and Beverage', 'edit_date': '2025-04-01', 'lat_lon_source': 'Third Party'}",52.12998415,11.637537092153197,L'OsteriaMagdeburgErnst-Reuter-Allee,"{'opening_hours': {'Mon': '11:30 - 23:00', 'Tue': '11:30 - 23:00', 'Wed': '11:30 - 23:00', 'Thu': '11:30 - 23:00', 'Fri': '11:30 - 00:00', 'Sat': '11:30 - 00:00', 'Sun': '12:00 - 23:00', 'Holiday': '12:00 - 23:00'}}",+49 391 55562416,39104,52.12998415-11.637537092153197,,https://losteria.net/en/restaurants/restaurant/magdeburg-ernst-reuter-allee/
Marstall-Center Ludwigsburg,Losteria,Ludwigsburg,Germany,"{'brand': 'Losteria', 'fascia': 'Losteria', 'category': 'Food and Beverage', 'edit_date': '2025-04-01', 'lat_lon_source': 'Third Party'}",48.8997486,9.190422192180435,L'OsteriaLudwigsburg,"{'opening_hours': {'Mon': '11:30 - 23:00', 'Tue': '11:30 - 23:00', 'Wed': '11:30 - 23:00', 'Thu': '11:30 - 23:00', 'Fri': '11:30 - 00:00', 'Sat': '11:30 - 00:00', 'Sun': '12:00 - 23:00', 'Holiday': '12:00 - 23:00'}}",+49 7141 9132010,71634,48.8997486-9.190422192180435,,https://losteria.net/en/restaurants/restaurant/ludwigsburg/
An der Untertrave 111,Losteria,Lübeck,Germany,"{'brand': 'Losteria', 'fascia': 'Losteria', 'category': 'Food and Beverage', 'edit_date': '2025-04-01', 'lat_lon_source': 'Third Party'}",53.86665395,10.68109027479968,L'OsteriaLübeck,"{'opening_hours': {'Mon': '11:30 - 23:00', 'Tue': '11:30 - 23:00', 'Wed': '11:30 - 23:00', 'Thu': '11:30 - 23:00', 'Fri': '11:30 - 00:00', 'Sat': '12:00 - 00:00', 'Sun': '12:00 - 23:00', 'Holiday': '12:00 - 23:00'}}",+49 451 45059597,23552,53.86665395-10.68109027479968,,https://losteria.net/en/restaurants/restaurant/luebeck/
Altstadt 218,Losteria,Landshut,Germany,"{'brand': 'Losteria', 'fascia': 'Losteria', 'category': 'Food and Beverage', 'edit_date': '2025-04-01', 'lat_lon_source': 'Third Party'}",48.53396655,12.150765093627626,L'OsteriaLandshutAltstadt,"{'opening_hours': {'Mon': '11:30 - 23:00', 'Tue': '11:30 - 23:00', 'Wed': '11:30 - 23:00', 'Thu': '11:30 - 23:00', 'Fri': '11:30 - 23:30', 'Sat': '11:30 - 23:30', 'Sun': '12:00 - 23:00', 'Holiday': '12:00 - 23:00'}}",+49 871 43038940,84028,48.53396655-12.150765093627626,,https://losteria.net/en/restaurants/restaurant/landshut-altstadt/
Holzhofstraße 7,Losteria,Mainz,Germany,"{'brand': 'Losteria', 'fascia': 'Losteria', 'category': 'Food and Beverage', 'edit_date': '2025-04-01', 'lat_lon_source': 'Third Party'}",49.993973,8.2772903,L'OsteriaMainz,"{'opening_hours': {'Mon': '11:30 - 23:00', 'Tue': '11:30 - 23:00', 'Wed': '11:30 - 23:00', 'Thu': '11:30 - 23:00', 'Fri': '11:30 - 23:00', 'Sat': '11:30 - 23:00', 'Sun': '12:00 - 22:00', 'Holiday': '12:00 - 22:00'}}",+49 6131 6937440,55116,49.993973-8.2772903,,https://losteria.net/en/restaurants/restaurant/mainz/
Brüsseler Straße 14,Losteria,Limburg,Germany,"{'brand': 'Losteria', 'fascia': 'Losteria', 'category': 'Food and Beverage', 'edit_date': '2025-04-01', 'lat_lon_source': 'Third Party'}",50.3802937,8.0929872,L'OsteriaLimburg,"{'opening_hours': {'Mon': '11:30 - 23:00', 'Tue': '11:30 - 23:00', 'Wed': '11:30 - 23:00', 'Thu': '11:30 - 23:00', 'Fri': '11:30 - 23:00', 'Sat': '11:30 - 23:00', 'Sun': '11:30 - 23:00', 'Holiday': '11:30 - 23:00'}}",+49 6431 9715061,65552,50.3802937-8.0929872,,https://losteria.net/en/restaurants/restaurant/limburg/
Felix-Wankel-Straße 1 Bitte gib in dein Navigationsgerät Karl-Benz-Straße 9 ein.,Losteria,Langenfeld,Germany,"{'brand': 'Losteria', 'fascia': 'Losteria', 'category': 'Food and Beverage', 'edit_date': '2025-04-01', 'lat_lon_source': 'Third Party'}",51.107968,6.948547511416184,L'OsteriaLangenfeld,"{'opening_hours': {'Mon': '11:30 - 23:00', 'Tue': '11:30 - 23:00', 'Wed': '11:30 - 23:00', 'Thu': '11:30 - 23:00', 'Fri': '11:30 - 00:00', 'Sat': '11:30 - 00:00', 'Sun': '12:00 - 23:00', 'Holiday': '12:00 - 23:00'}}",+49 2173 8933987,40764,51.107968-6.948547511416184,,https://losteria.net/en/restaurants/restaurant/langenfeld/
Martin-Luther-Ring 12,Losteria,Leipzig,Germany,"{'brand': 'Losteria', 'fascia': 'Losteria', 'category': 'Food and Beverage', 'edit_date': '2025-04-01', 'lat_lon_source': 'Third Party'}",51.33738525,12.371746523605678,L'OsteriaLeipzig,"{'opening_hours': {'Mon': '11:30 - 23:00', 'Tue': '11:30 - 23:00', 'Wed': '11:30 - 23:00', 'Thu': '11:30 - 23:00', 'Fri': '11:30 - 00:00', 'Sat': '11:30 - 00:00', 'Sun': '12:00 - 23:00', 'Holiday': '12:00 - 23:00'}}",+49 341 35566590,04109,51.33738525-12.371746523605678,,https://losteria.net/en/restaurants/restaurant/leipzig/
Friedrichsplatz 12,Losteria,Mannheim,Germany,"{'brand': 'Losteria', 'fascia': 'Losteria', 'category': 'Food and Beverage', 'edit_date': '2025-04-01', 'lat_lon_source': 'Third Party'}",49.482651,8.4773938,L'OsteriaMannheim,"{'opening_hours': {'Mon': '11:30 - 23:00', 'Tue': '11:30 - 23:00', 'Wed': '11:30 - 23:00', 'Thu': '11:30 - 23:00', 'Fri': '11:30 - 00:00', 'Sat': '11:30 - 00:00', 'Sun': '12:00 - 23:00', 'Holiday': '12:00 - 23:00'}}",+49 621 43178790,68165,49.482651-8.4773938,,https://losteria.net/en/restaurants/restaurant/mannheim/
Herzlia Allee 125,Losteria,Marl,Germany,"{'brand': 'Losteria', 'fascia': 'Losteria', 'category': 'Food and Beverage', 'edit_date': '2025-04-01', 'lat_lon_source': 'Third Party'}",51.643963,7.102235543647794,L'OsteriaMarlHerzliaAllee,"{'opening_hours': {'Mon': '11:30 - 23:00', 'Tue': '11:30 - 23:00', 'Wed': '11:30 - 23:00', 'Thu': '11:30 - 23:00', 'Fri': '11:30 - 00:00', 'Sat': '11:30 - 00:00', 'Sun': '09:00 - 23:00', 'Holiday': '12:00 - 23:00'}}",+49 2365 8779388,45770,51.643963-7.102235543647794,,https://losteria.net/en/restaurants/restaurant/marl-herzlia-allee/
Düsseldorferstraße 162,Losteria,Mülheim,Germany,"{'brand': 'Losteria', 'fascia': 'Losteria', 'category': 'Food and Beverage', 'edit_date': '2025-04-01', 'lat_lon_source': 'Third Party'}",51.409377,6.869409946848052,L'OsteriaMülheimanderRuhr,"{'opening_hours': {'Mon': '11:30 - 22:30', 'Tue': '11:30 - 22:30', 'Wed': '11:30 - 22:30', 'Thu': '11:30 - 22:30', 'Fri': '11:30 - 00:00', 'Sat': '11:30 - 00:00', 'Sun': '09:00 - 23:00', 'Holiday': '09:00 - 23:00'}}",0208 45698940,45481,51.409377-6.869409946848052,,https://losteria.net/en/restaurants/restaurant/muelheim-an-der-ruhr/
Schleswiger Str. 34,Losteria,Mönchengladbach,Germany,"{'brand': 'Losteria', 'fascia': 'Losteria', 'category': 'Food and Beverage', 'edit_date': '2025-04-01', 'lat_lon_source': 'Third Party'}",51.1954824,6.4138364,L'OsteriaMönchengladbach,"{'opening_hours': {'Mon': '11:30 - 23:00', 'Tue': '11:30 - 23:00', 'Wed': '11:30 - 23:00', 'Thu': '11:30 - 23:00', 'Fri': '11:30 - 00:00', 'Sat': '11:30 - 00:00', 'Sun': '09:00 - 23:00', 'Holiday': '09:00 - 23:00'}}",+49 2161 8302320,41068,51.1954824-6.4138364,,https://losteria.net/en/restaurants/restaurant/moenchengladbach/
Enzian Höfe 4,Losteria,Metzingen,Germany,"{'brand': 'Losteria', 'fascia': 'Losteria', 'category': 'Food and Beverage', 'edit_date': '2025-04-01', 'lat_lon_source': 'Third Party'}",48.5272608,9.283023628556567,L'OsteriaMetzingen,"{'opening_hours': {'Mon': '11:30 - 23:00', 'Tue': '11:30 - 23:00', 'Wed': '11:30 - 23:00', 'Thu': '11:30 - 23:00', 'Fri': '11:30 - 00:00', 'Sat': '12:00 - 00:00', 'Sun': '12:00 - 23:00', 'Holiday': '12:00 - 23:00'}}",+49 7123 9727781,72555,48.5272608-9.283023628556567,,https://losteria.net/en/restaurants/restaurant/metzingen/
Bauhausplatz 4-6,Losteria,München,Germany,"{'brand': 'Losteria', 'fascia': 'Losteria', 'category': 'Food and Beverage', 'edit_date': '2025-04-01', 'lat_lon_source': 'Third Party'}",48.186833050000004,11.592561692258222,L'OsteriaMünchenBauhausplatz,"{'opening_hours': {'Mon': '11:00 - 23:00', 'Tue': '11:00 - 23:00', 'Wed': '11:00 - 23:00', 'Thu': '11:00 - 23:00', 'Fri': '11:00 - 00:00', 'Sat': '12:00 - 00:00', 'Sun': '12:00 - 23:00', 'Holiday': '12:00 - 23:00'}}",+49 89 32308584,80807,48.186833050000004-11.592561692258222,,https://losteria.net/en/restaurants/restaurant/muenchen-bauhausplatz/
Innere Wiener Straße 2,Losteria,München,Germany,"{'brand': 'Losteria', 'fascia': 'Losteria', 'category': 'Food and Beverage', 'edit_date': '2025-04-01', 'lat_lon_source': 'Third Party'}",48.132522,11.591045760606061,L'OsteriaMünchenamGasteig,"{'opening_hours': {'Mon': '11:30 - 23:00', 'Tue': '11:30 - 23:00', 'Wed': '11:30 - 23:00', 'Thu': '11:30 - 23:00', 'Fri': '11:30 - 00:00', 'Sat': '11:30 - 00:00', 'Sun': '12:00 - 23:00', 'Holiday': '12:00 - 23:00'}}",+49 89 62232805,81667,48.132522-11.591045760606061,,https://losteria.net/en/restaurants/restaurant/muenchen-am-gasteig/
Richard-Strauss-Strasse 82,Losteria,München,Germany,"{'brand': 'Losteria', 'fascia': 'Losteria', 'category': 'Food and Beverage', 'edit_date': '2025-04-01', 'lat_lon_source': 'Third Party'}",48.1484924,11.6174735,L'OsteriaMünchenBogenhausen,"{'opening_hours': {'Mon': '11:30 - 23:00', 'Tue': '11:30 - 23:00', 'Wed': '11:30 - 23:00', 'Thu': '11:30 - 23:00', 'Fri': '11:30 - 00:00', 'Sat': '11:30 - 00:00', 'Sun': '12:00 - 23:00', 'Holiday': '12:00 - 23:00'}}",+49 89 99650653,81679,48.1484924-11.6174735,,https://losteria.net/en/restaurants/restaurant/muenchen-bogenhausen/
Elisabethstraße 52,Losteria,München,Germany,"{'brand': 'Losteria', 'fascia': 'Losteria', 'category': 'Food and Beverage', 'edit_date': '2025-04-01', 'lat_lon_source': 'Third Party'}",48.159813,11.5654901,L'OsteriaMünchenElisabethstrasse,"{'opening_hours': {'Mon': '11:30 - 23:00', 'Tue': '11:30 - 23:00', 'Wed': '11:30 - 23:00', 'Thu': '11:30 - 23:00', 'Fri': '11:30 - 00:00', 'Sat': '11:30 - 00:00', 'Sun': '12:00 - 23:00', 'Holiday': '12:00 - 23:00'}}",+49 89 28803040,80796,48.159813-11.5654901,,https://losteria.net/en/restaurants/restaurant/muenchen-elisabethstrasse/
Lenbachplatz 8,Losteria,München,Germany,"{'brand': 'Losteria', 'fascia': 'Losteria', 'category': 'Food and Beverage', 'edit_date': '2025-04-01', 'lat_lon_source': 'Third Party'}",48.1401245,11.5678633,L'OsteriaMünchenKünstlerhaus,"{'opening_hours': {'Mon': '11:00 - 00:00', 'Tue': '11:00 - 00:00', 'Wed': '11:00 - 00:00', 'Thu': '11:00 - 00:00', 'Fri': '11:00 - 00:00', 'Sat': '11:00 - 00:00', 'Sun': '12:00 - 23:00', 'Holiday': '12:00 - 23:00'}}",+49 89 99019810,80333,48.1401245-11.5678633,,https://losteria.net/en/restaurants/restaurant/muenchen-kuenstlerhaus/
Leopoldstraße 28 A,Losteria,München,Germany,"{'brand': 'Losteria', 'fascia': 'Losteria', 'category': 'Food and Beverage', 'edit_date': '2025-04-01', 'lat_lon_source': 'Third Party'}",48.15517615,11.584161327370618,L'OsteriaMünchenLeopoldstraße,"{'opening_hours': {'Mon': '11:00 - 00:00', 'Tue': '11:00 - 00:00', 'Wed': '11:00 - 00:00', 'Thu': '11:00 - 00:00', 'Fri': '11:00 - 00:00', 'Sat': '11:00 - 00:00', 'Sun': '12:00 - 23:00', 'Holiday': '12:00 - 23:00'}}",+49 89 38889711,80802,48.15517615-11.584161327370618,,https://losteria.net/en/restaurants/restaurant/muenchen-leopoldstrasse/
Pasinger Marienplatz 1,Losteria,München,Germany,"{'brand': 'Losteria', 'fascia': 'Losteria', 'category': 'Food and Beverage', 'edit_date': '2025-04-01', 'lat_lon_source': 'Third Party'}",48.1465843,11.4587262,L'OsteriaMünchenPasing,"{'opening_hours': {'Mon': '11:30 - 23:00', 'Tue': '11:30 - 23:00', 'Wed': '11:30 - 23:00', 'Thu': '11:30 - 23:00', 'Fri': '11:30 - 00:00', 'Sat': '11:30 - 00:00', 'Sun': '12:00 - 23:00', 'Holiday': '12:00 - 23:00'}}",+49 89 88998510,81241,48.1465843-11.4587262,,https://losteria.net/en/restaurants/restaurant/muenchen-pasing/
Thomas-Dehler-Straße 15,Losteria,München,Germany,"{'brand': 'Losteria', 'fascia': 'Losteria', 'category': 'Food and Beverage', 'edit_date': '2025-04-01', 'lat_lon_source': 'Third Party'}",48.0993559,11.6458553,L'OsteriaMünchenPerlachPlaza,"{'opening_hours': {'Mon': '11:30 - 23:00', 'Tue': '11:30 - 23:00', 'Wed': '11:30 - 23:00', 'Thu': '11:30 - 23:00', 'Fri': '11:30 - 00:00', 'Sat': '11:30 - 00:00', 'Sun': '12:00 - 23:00', 'Holiday': '12:00 - 23:00'}}",+49 89 37073622,81737,48.0993559-11.6458553,,https://losteria.net/en/restaurants/restaurant/muenchen-perlach-plaza/
Windthorststraße 31,Losteria,Münster,Germany,"{'brand': 'Losteria', 'fascia': 'Losteria', 'category': 'Food and Beverage', 'edit_date': '2025-04-01', 'lat_lon_source': 'Third Party'}",51.957957449999995,7.629875530664272,L'OsteriaMünster,"{'opening_hours': {'Mon': '11:30 - 23:00', 'Tue': '11:30 - 23:00', 'Wed': '11:30 - 23:00', 'Thu': '11:30 - 23:00', 'Fri': '11:30 - 00:00', 'Sat': '11:30 - 00:00', 'Sun': '12:00 - 23:00', 'Holiday': '12:00 - 23:00'}}",+49 251 98291841,48143,51.957957449999995-7.629875530664272,,https://losteria.net/en/restaurants/restaurant/muenster/
Hans-Sachs-Platz 14,Losteria,Nürnberg,Germany,"{'brand': 'Losteria', 'fascia': 'Losteria', 'category': 'Food and Beverage', 'edit_date': '2025-04-01', 'lat_lon_source': 'Third Party'}",49.4537892,11.0798507,L'OsteriaNürnbergHans-Sachs-Platz,"{'opening_hours': {'Mon': '11:30 - 23:00', 'Tue': '11:30 - 23:00', 'Wed': '11:30 - 23:00', 'Thu': '11:30 - 23:00', 'Fri': '11:30 - 00:00', 'Sat': '11:30 - 00:00', 'Sun': '12:00 - 23:00', 'Holiday': '12:00 - 23:00'}}",+49 911 99286635,90403,49.4537892-11.0798507,,https://losteria.net/en/restaurants/restaurant/nuernberg-hans-sachs-platz/
Mühlstraße 17,Losteria,Neumarkt,Germany,"{'brand': 'Losteria', 'fascia': 'Losteria', 'category': 'Food and Beverage', 'edit_date': '2025-04-01', 'lat_lon_source': 'Third Party'}",49.28323735,11.461927946748744,L'OsteriaNeumarkti.d.OPf.,"{'opening_hours': {'Mon': '11:30 - 22:00', 'Tue': '11:30 - 22:00', 'Wed': '11:30 - 22:00', 'Thu': '11:30 - 22:00', 'Fri': '11:30 - 22:00', 'Sat': '11:30 - 22:00', 'Sun': '11:30 - 22:00', 'Holiday': '11:30 - 22:00'}}",+49 9181 2985377,92318,49.28323735-11.461927946748744,,https://losteria.net/en/restaurants/restaurant/neumarkt-i-d-opf/
Brammenring 117,Losteria,Oberhausen,Germany,"{'brand': 'Losteria', 'fascia': 'Losteria', 'category': 'Food and Beverage', 'edit_date': '2025-04-01', 'lat_lon_source': 'Third Party'}",51.4894501,6.887305716014977,L'OsteriaOberhausen,"{'opening_hours': {'Mon': '11:30 - 23:00', 'Tue': '11:30 - 23:00', 'Wed': '11:30 - 23:00', 'Thu': '11:30 - 23:00', 'Fri': '11:30 - 00:00', 'Sat': '11:30 - 00:00', 'Sun': '12:00 - 23:00', 'Holiday': '12:00 - 23:00'}}",+49 208 88248640,46047,51.4894501-6.887305716014977,,https://losteria.net/en/restaurants/restaurant/oberhausen/
Pommernstraße 17/19,Losteria,Neutraubling,Germany,"{'brand': 'Losteria', 'fascia': 'Losteria', 'category': 'Food and Beverage', 'edit_date': '2025-04-01', 'lat_lon_source': 'Third Party'}",48.98103256885842,12.193516976850407,L'OsteriaNeutraublingPommernstraße,"{'opening_hours': {'Mon': '11:30 - 23:00', 'Tue': '11:30 - 23:00', 'Wed': '11:30 - 23:00', 'Thu': '11:30 - 23:00', 'Fri': '11:30 - 00:00', 'Sat': '11:30 - 00:00', 'Sun': '12:00 - 23:00', 'Holiday': '12:00 - 23:00'}}",+49 9401 9134291,93073,48.98103256885842-12.193516976850407,,https://losteria.net/en/restaurants/restaurant/neutraubling-pommernstrasse/
Trauttmansdorffstraße 63,Losteria,Münster,Germany,"{'brand': 'Losteria', 'fascia': 'Losteria', 'category': 'Food and Beverage', 'edit_date': '2025-04-01', 'lat_lon_source': 'Third Party'}",51.925438549999996,7.636950894468533,L'OsteriaMünsterTrauttmansdorffstraße,"{'opening_hours': {'Mon': '11:30 - 23:00', 'Tue': '11:30 - 23:00', 'Wed': '11:30 - 23:00', 'Thu': '11:30 - 23:00', 'Fri': '11:30 - 00:00', 'Sat': '11:30 - 00:00', 'Sun': '12:00 - 23:00', 'Holiday': '12:00 - 23:00'}}",+49 251 53403232,48153,51.925438549999996-7.636950894468533,,https://losteria.net/en/restaurants/restaurant/muenster-trauttmansdorffstrasse/
Am Hafendeck 6-8,Losteria,Offenbach,Germany,"{'brand': 'Losteria', 'fascia': 'Losteria', 'category': 'Food and Beverage', 'edit_date': '2025-04-01', 'lat_lon_source': 'Third Party'}",50.1132473,8.75421916361062,L'OsteriaOffenbachamMain,"{'opening_hours': {'Mon': '11:30 - 23:00', 'Tue': '11:30 - 23:00', 'Wed': '11:30 - 23:00', 'Thu': '11:30 - 23:00', 'Fri': '11:30 - 00:00', 'Sat': '11:30 - 00:00', 'Sun': '12:00 - 23:00', 'Holiday': '12:00 - 23:00'}}",+49 69 8570 1120,63067,50.1132473-8.75421916361062,,https://losteria.net/en/restaurants/restaurant/offenbach-am-main/
Pirckheimerstraße 116,Losteria,Nürnberg,Germany,"{'brand': 'Losteria', 'fascia': 'Losteria', 'category': 'Food and Beverage', 'edit_date': '2025-04-01', 'lat_lon_source': 'Third Party'}",49.461352149999996,11.089609986453306,L'OsteriaNürnbergPirckheimerstraße,"{'opening_hours': {'Mon': '11:30 - 23:00', 'Tue': '11:30 - 23:00', 'Wed': '11:30 - 23:00', 'Thu': '11:30 - 23:00', 'Sun': '11:30 - 23:00', 'Fri': '11:30 - 00:00', 'Sat': '11:30 - 00:00', 'Holiday': '12:00 - 23:00'}}",+49 911 558283,90409,49.461352149999996-11.089609986453306,,https://losteria.net/en/restaurants/restaurant/nuernberg-pirckheimerstrasse/
Gustav- Rée- Anlage 3,Losteria,Offenburg,Germany,"{'brand': 'Losteria', 'fascia': 'Losteria', 'category': 'Food and Beverage', 'edit_date': '2025-04-01', 'lat_lon_source': 'Third Party'}",48.47284585,7.945120309777199,L'OsteriaOffenburg,"{'opening_hours': {'Mon': '11:30 - 23:00', 'Tue': '11:30 - 23:00', 'Wed': '11:30 - 23:00', 'Thu': '11:30 - 23:00', 'Fri': '11:30 - 00:00', 'Sat': '11:30 - 00:00', 'Sun': '12:00 - 23:00', 'Holiday': '12:00 - 23:00'}}",+49 781 94853390,77652,48.47284585-7.945120309777199,,https://losteria.net/en/restaurants/restaurant/offenburg/
Poststraße 1-3 Kaiserliche Post,Losteria,Oldenburg,Germany,"{'brand': 'Losteria', 'fascia': 'Losteria', 'category': 'Food and Beverage', 'edit_date': '2025-04-01', 'lat_lon_source': 'Third Party'}",53.1367666,8.204541447807799,L'OsteriaOldenburg,"{'opening_hours': {'Mon': '11:30 - 23:00', 'Tue': '11:30 - 23:00', 'Wed': '11:30 - 23:00', 'Thu': '11:30 - 23:00', 'Fri': '11:30 - 00:00', 'Sat': '11:30 - 00:00', 'Sun': '12:00 - 23:00', 'Holiday': '12:00 - 23:00'}}",+49 441 96039270,26122,53.1367666-8.204541447807799,,https://losteria.net/en/restaurants/restaurant/oldenburg/
Hannoversche Straße 13,Losteria,Osnabrück,Germany,"{'brand': 'Losteria', 'fascia': 'Losteria', 'category': 'Food and Beverage', 'edit_date': '2025-04-01', 'lat_lon_source': 'Third Party'}",52.2651942,8.0640171,L'OsteriaOsnabrückHannoverscheStraße,"{'opening_hours': {'Mon': '11:30 - 23:00', 'Tue': '11:30 - 23:00', 'Wed': '11:30 - 23:00', 'Thu': '11:30 - 23:00', 'Fri': '11:30 - 00:00', 'Sat': '11:30 - 00:00', 'Sun': '12:00 - 23:00', 'Holiday': '12:00 - 23:00'}}",+49 541 86022668,49084,52.2651942-8.0640171,,https://losteria.net/en/restaurants/restaurant/osnabrueck-hannoversche-str/
Am Tullnaupark 9,Losteria,Nürnberg,Germany,"{'brand': 'Losteria', 'fascia': 'Losteria', 'category': 'Food and Beverage', 'edit_date': '2025-04-01', 'lat_lon_source': 'Third Party'}",49.4496092,11.103709414853359,L'OsteriaNürnbergTullnaupark,"{'opening_hours': {'Mon': '11:30 - 23:00', 'Tue': '11:30 - 23:00', 'Wed': '11:30 - 23:00', 'Thu': '11:30 - 23:00', 'Fri': '11:30 - 00:00', 'Sat': '11:30 - 00:00', 'Sun': '12:00 - 23:00', 'Holiday': '12:00 - 23:00'}}",+49 911 94007030,90402,49.4496092-11.103709414853359,,https://losteria.net/en/restaurants/restaurant/nuernberg-tullnaupark/
Neumarkt 1,Losteria,Osnabrück,Germany,"{'brand': 'Losteria', 'fascia': 'Losteria', 'category': 'Food and Beverage', 'edit_date': '2025-04-01', 'lat_lon_source': 'Third Party'}",52.273043799999996,8.050433391943436,L'OsteriaOsnabrückNeumarkt,"{'opening_hours': {'Mon': '11:30 - 23:00', 'Tue': '11:30 - 23:00', 'Wed': '11:30 - 23:00', 'Thu': '12:00 - 22:00', 'Fri': '11:30 - 00:00', 'Sat': '11:30 - 00:00', 'Sun': '12:00 - 23:00', 'Holiday': '12:00 - 23:00'}}",+49 541 99894081,49074,52.273043799999996-8.050433391943436,,https://losteria.net/en/restaurants/restaurant/osnabrueck/
Königsplatz 15,Losteria,Paderborn,Germany,"{'brand': 'Losteria', 'fascia': 'Losteria', 'category': 'Food and Beverage', 'edit_date': '2025-04-01', 'lat_lon_source': 'Third Party'}",51.717341649999995,8.750704643005285,L'OsteriaPaderborn,"{'opening_hours': {'Mon': '11:30 - 23:00', 'Tue': '11:30 - 23:00', 'Wed': '11:30 - 23:00', 'Thu': '11:30 - 23:00', 'Fri': '11:30 - 00:00', 'Sat': '11:30 - 00:00', 'Sun': '12:00 - 23:00', 'Holiday': '12:00 - 23:00'}}",+49 5251 8775570,33098,51.717341649999995-8.750704643005285,,https://losteria.net/en/restaurants/restaurant/paderborn/
Bahnhofstr. 24-28,Losteria,Passau,Germany,"{'brand': 'Losteria', 'fascia': 'Losteria', 'category': 'Food and Beverage', 'edit_date': '2025-04-01', 'lat_lon_source': 'Third Party'}",48.5747319,13.4521722,L'OsteriaPassau,"{'opening_hours': {'Mon': '11:30 - 23:00', 'Tue': '11:30 - 23:00', 'Wed': '11:30 - 23:00', 'Thu': '11:30 - 23:00', 'Fri': '11:30 - 23:30', 'Sat': '11:30 - 23:30', 'Sun': '12:00 - 23:00', 'Holiday': '12:00 - 23:00'}}",+49 851 96668562,94032,48.5747319-13.4521722,,https://losteria.net/en/restaurants/restaurant/passau/
Marktplatz 1,Losteria,Pforzheim,Germany,"{'brand': 'Losteria', 'fascia': 'Losteria', 'category': 'Food and Beverage', 'edit_date': '2025-04-01', 'lat_lon_source': 'Third Party'}",48.89088925,8.703051840862337,L'OsteriaPforzheim,"{'opening_hours': {'Mon': '11:30 - 22:30', 'Tue': '11:30 - 22:30', 'Wed': '11:30 - 22:30', 'Thu': '11:30 - 22:30', 'Fri': '11:30 - 23:30', 'Sat': '11:30 - 23:30', 'Sun': '12:00 - 22:30', 'Holiday': '12:00 - 22:30'}}",+49 7231 5653026,75175,48.89088925-8.703051840862337,,https://losteria.net/en/restaurants/restaurant/pforzheim/
Otto-Braun-Platz 1,Losteria,Potsdam,Germany,"{'brand': 'Losteria', 'fascia': 'Losteria', 'category': 'Food and Beverage', 'edit_date': '2025-04-01', 'lat_lon_source': 'Third Party'}",52.3945122,13.0614932,L'OsteriaPotsdam,"{'opening_hours': {'Mon': '11:30 - 23:00', 'Tue': '11:30 - 23:00', 'Wed': '11:30 - 23:00', 'Thu': '11:30 - 23:00', 'Fri': '11:30 - 23:00', 'Sat': '11:30 - 00:00', 'Sun': '12:00 - 23:00', 'Holiday': '12:00 - 23:00'}}",+49 331 60129800,14467,52.3945122-13.0614932,,https://losteria.net/en/restaurants/restaurant/potsdam/
Watmarkt 1,Losteria,Regensburg,Germany,"{'brand': 'Losteria', 'fascia': 'Losteria', 'category': 'Food and Beverage', 'edit_date': '2025-04-01', 'lat_lon_source': 'Third Party'}",49.02018065,12.096123444858613,L'OsteriaRegensburg,"{'opening_hours': {'Mon': '11:30 - 23:00', 'Tue': '11:30 - 23:00', 'Wed': '11:30 - 23:00', 'Thu': '11:30 - 23:00', 'Fri': '11:30 - 00:00', 'Sat': '11:00 - 00:00', 'Sun': '12:00 - 23:00', 'Holiday': '12:00 - 23:00'}}",+49 941 5999181,93047,49.02018065-12.096123444858613,,https://losteria.net/en/restaurants/restaurant/regensburg/
Mailänder Platz 7,Losteria,Stuttgart,Germany,"{'brand': 'Losteria', 'fascia': 'Losteria', 'category': 'Food and Beverage', 'edit_date': '2025-04-01', 'lat_lon_source': 'Third Party'}",48.791258850000006,9.182104646022687,L'OsteriaStuttgartMailänderPlatz,"{'opening_hours': {'Mon': '11:30 - 23:00', 'Tue': '11:30 - 23:00', 'Wed': '11:30 - 23:00', 'Thu': '11:30 - 23:00', 'Fri': '11:30 - 00:00', 'Sat': '11:30 - 00:00', 'Sun': '12:00 - 23:00', 'Holiday': '12:00 - 23:00'}}",+49 711 22007707,70173,48.791258850000006-9.182104646022687,,https://losteria.net/en/restaurants/restaurant/stuttgart-mailaender-platz/
Schwanthaler Str. 111,Losteria,München,Germany,"{'brand': 'Losteria', 'fascia': 'Losteria', 'category': 'Food and Beverage', 'edit_date': '2025-04-01', 'lat_lon_source': 'Third Party'}",48.1374519,11.5475617,L'OsteriaMünchenSchwanthalerstraße,"{'opening_hours': {'Mon': '11:30 - 23:00', 'Tue': '11:30 - 23:00', 'Wed': '11:30 - 23:00', 'Thu': '11:30 - 23:00', 'Fri': '11:30 - 00:00', 'Sat': '11:30 - 00:00', 'Sun': '12:00 - 23:00', 'Holiday': '12:00 - 23:00'}}",+49 89 59976116,80339,48.1374519-11.5475617,,https://losteria.net/en/restaurants/restaurant/muenchen-schwanthalerstrasse/
Adlzreiterstraße 17,Losteria,Rosenheim,Germany,"{'brand': 'Losteria', 'fascia': 'Losteria', 'category': 'Food and Beverage', 'edit_date': '2025-04-01', 'lat_lon_source': 'Third Party'}",47.8580635,12.129096516730463,L'OsteriaRosenheim,"{'opening_hours': {'Mon': '11:30 - 23:00', 'Tue': '11:30 - 23:00', 'Wed': '11:30 - 23:00', 'Thu': '11:30 - 23:00', 'Fri': '11:30 - 00:00', 'Sat': '11:30 - 00:00', 'Sun': '12:00 - 23:00', 'Holiday': '12:00 - 23:00'}}",+49 8031 400655,83022,47.8580635-12.129096516730463,,https://losteria.net/en/restaurants/restaurant/rosenheim/
Boysenstrasse 3,Losteria,Westerland,Germany,"{'brand': 'Losteria', 'fascia': 'Losteria', 'category': 'Food and Beverage', 'edit_date': '2025-04-01', 'lat_lon_source': 'Third Party'}",54.907136550000004,8.304913882539001,L'OsteriaSyltWesterland,"{'opening_hours': {'Mon': '12:00 - 22:00', 'Tue': '12:00 - 22:00', 'Wed': '12:00 - 22:00', 'Thu': '12:00 - 22:00', 'Sun': '12:00 - 22:00', 'Fri': '12:00 - 23:00', 'Sat': '12:00 - 23:00', 'Holiday': '12:00 - 22:00'}}",+49 4651 8863385,25980,54.907136550000004-8.304913882539001,,https://losteria.net/en/restaurants/restaurant/sylt-westerland/
Junkersring 1,Losteria,Troisdorf,Germany,"{'brand': 'Losteria', 'fascia': 'Losteria', 'category': 'Food and Beverage', 'edit_date': '2025-04-01', 'lat_lon_source': 'Third Party'}",50.815674900000005,7.108566274315312,L'OsteriaTroisdorf,"{'opening_hours': {'Mon': '11:30 - 23:00', 'Tue': '11:30 - 23:00', 'Wed': '11:30 - 23:00', 'Thu': '11:30 - 23:00', 'Fri': '11:30 - 00:00', 'Sat': '11:30 - 00:00', 'Sun': '12:00 - 23:00', 'Holiday': '12:00 - 23:00'}}",+49 2241 2016502,53844,50.815674900000005-7.108566274315312,,https://losteria.net/en/restaurants/restaurant/troisdorf/
Am Leuchtenfeld 8,Losteria,Travemünde,Germany,"{'brand': 'Losteria', 'fascia': 'Losteria', 'category': 'Food and Beverage', 'edit_date': '2025-04-01', 'lat_lon_source': 'Third Party'}",53.96033975,10.880518949999999,L'OsteriaTravemünde,"{'opening_hours': {'Mon': '11:30 - 23:00', 'Tue': '11:30 - 23:00', 'Wed': '11:30 - 23:00', 'Thu': '11:30 - 23:00', 'Fri': '11:30 - 00:00', 'Sat': '11:30 - 00:00', 'Sun': '12:00 - 23:00', 'Holiday': '12:00 - 23:00'}}",+49 4502 8866567,23570,53.96033975-10.880518949999999,,https://losteria.net/en/restaurants/restaurant/travemuende/
Steinstraße 9,Losteria,Rostock,Germany,"{'brand': 'Losteria', 'fascia': 'Losteria', 'category': 'Food and Beverage', 'edit_date': '2025-04-01', 'lat_lon_source': 'Third Party'}",54.08804455,12.14091961031286,L'OsteriaRostock,"{'opening_hours': {'Mon': '11:30 - 23:00', 'Tue': '11:30 - 23:00', 'Wed': '11:30 - 23:00', 'Thu': '11:30 - 23:00', 'Fri': '11:30 - 00:00', 'Sat': '11:30 - 00:00', 'Sun': '12:00 - 23:00', 'Holiday': '12:00 - 23:00'}}",+49 381 37549844,18055,54.08804455-12.14091961031286,,https://losteria.net/en/restaurants/restaurant/rostock/
Judenhof 8,Losteria,Ulm,Germany,"{'brand': 'Losteria', 'fascia': 'Losteria', 'category': 'Food and Beverage', 'edit_date': '2025-04-01', 'lat_lon_source': 'Third Party'}",48.398544,9.994886049421847,L'OsteriaUlm,"{'opening_hours': {'Mon': '11:30 - 23:00', 'Tue': '11:30 - 23:00', 'Wed': '11:30 - 23:00', 'Thu': '11:30 - 23:00', 'Fri': '11:30 - 00:00', 'Sat': '11:30 - 00:00', 'Sun': '12:00 - 23:00', 'Holiday': '12:00 - 23:00'}}",+49 731 88015020,89073,48.398544-9.994886049421847,,https://losteria.net/en/restaurants/restaurant/ulm/
Fleischstrasse 56,Losteria,Trier,Germany,"{'brand': 'Losteria', 'fascia': 'Losteria', 'category': 'Food and Beverage', 'edit_date': '2025-04-01', 'lat_lon_source': 'Third Party'}",49.7550961,6.637888624013923,L'OsteriaTrierimPosthof,"{'opening_hours': {'Mon': '11:30 - 23:00', 'Tue': '11:30 - 23:00', 'Wed': '11:30 - 23:00', 'Thu': '11:30 - 23:00', 'Fri': '11:30 - 00:00', 'Sat': '11:30 - 00:00', 'Sun': '12:00 - 23:00', 'Holiday': '12:00 - 23:00'}}",+49 651 14546888,54290,49.7550961-6.637888624013923,,https://losteria.net/en/restaurants/restaurant/trier-im-posthof/
Trierer Straße 33,Losteria,Saarbrücken,Germany,"{'brand': 'Losteria', 'fascia': 'Losteria', 'category': 'Food and Beverage', 'edit_date': '2025-04-01', 'lat_lon_source': 'Third Party'}",49.2412958,6.9865483,L'OsteriaSaarbrücken,"{'opening_hours': {'Mon': '11:30 - 23:00', 'Tue': '11:30 - 23:00', 'Wed': '11:30 - 23:00', 'Thu': '11:30 - 23:00', 'Fri': '11:30 - 00:00', 'Sat': '11:30 - 00:00', 'Sun': '12:00 - 23:00', 'Holiday': '12:00 - 23:00'}}",+49 681 30982353,66111,49.2412958-6.9865483,,https://losteria.net/en/restaurants/restaurant/saarbruecken/
Kronprinzstraße 11,Losteria,Stuttgart,Germany,"{'brand': 'Losteria', 'fascia': 'Losteria', 'category': 'Food and Beverage', 'edit_date': '2025-04-01', 'lat_lon_source': 'Third Party'}",48.77578905,9.175166317789344,L'OsteriaStuttgartKronprinzstraße,"{'opening_hours': {'Mon': '11:30 - 23:00', 'Tue': '11:30 - 23:00', 'Wed': '11:30 - 23:00', 'Thu': '11:30 - 23:00', 'Fri': '11:30 - 00:00', 'Sat': '11:30 - 00:00', 'Sun': '12:00 - 23:00', 'Holiday': '12:00 - 23:00'}}",+49 711 65626187,70173,48.77578905-9.175166317789344,,https://losteria.net/en/restaurants/restaurant/stuttgart-kronprinzstrasse/
Almosenberg 17,Losteria,Wertheim,Germany,"{'brand': 'Losteria', 'fascia': 'Losteria', 'category': 'Food and Beverage', 'edit_date': '2025-04-01', 'lat_lon_source': 'Third Party'}",49.7726483,9.578639123598698,L'OsteriaWertheimAlmosenberg,"{'opening_hours': {'Mon': '11:30 - 23:00', 'Tue': '11:30 - 23:00', 'Wed': '11:30 - 23:00', 'Thu': '11:30 - 23:00', 'Fri': '11:30 - 00:00', 'Sat': '11:30 - 00:00', 'Sun': '12:00 - 23:00', 'Holiday': '12:00 - 23:00'}}",+49 9342 9163131,97877,49.7726483-9.578639123598698,,https://losteria.net/en/restaurants/restaurant/wertheim-almosenberg/
Bärenstraße 3,Losteria,Wiesbaden,Germany,"{'brand': 'Losteria', 'fascia': 'Losteria', 'category': 'Food and Beverage', 'edit_date': '2025-04-01', 'lat_lon_source': 'Third Party'}",50.084554,8.24124725637289,L'OsteriaWiesbaden,"{'opening_hours': {'Mon': '12:00 - 22:00', 'Tue': '12:00 - 22:00', 'Wed': '12:00 - 22:00', 'Thu': '12:00 - 22:00', 'Sun': '12:00 - 22:00', 'Fri': '12:00 - 23:00', 'Sat': '12:00 - 23:00', 'Holiday': '12:00 - 22:00'}}",+49 611 44763917,65183,50.084554-8.24124725637289,,https://losteria.net/en/restaurants/restaurant/wiesbaden/
An der Vorburg 1,Losteria,Wolfsburg,Germany,"{'brand': 'Losteria', 'fascia': 'Losteria', 'category': 'Food and Beverage', 'edit_date': '2025-04-01', 'lat_lon_source': 'Third Party'}",52.429279550000004,10.796129133665016,L'OsteriaWolfsburg-DesignerOutlets,"{'opening_hours': {'Mon': '11:30 - 23:00', 'Tue': '11:30 - 23:00', 'Wed': '11:30 - 23:00', 'Thu': '11:30 - 23:00', 'Sun': '11:30 - 23:00', 'Fri': '11:30 - 00:00', 'Sat': '11:30 - 00:00', 'Holiday': '12:00 - 23:00'}}",+49 5361 8437661,38440,52.429279550000004-10.796129133665016,,https://losteria.net/en/restaurants/restaurant/wolfsburg-designer-outlets/
Erholungstraße 19,Losteria,Wuppertal,Germany,"{'brand': 'Losteria', 'fascia': 'Losteria', 'category': 'Food and Beverage', 'edit_date': '2025-04-01', 'lat_lon_source': 'Third Party'}",51.257486,7.144054620093458,L'OsteriaWuppertal,"{'opening_hours': {'Mon': '11:30 - 23:00', 'Tue': '11:30 - 23:00', 'Wed': '11:30 - 23:00', 'Thu': '11:30 - 23:00', 'Fri': '11:30 - 00:00', 'Sat': '11:30 - 00:00', 'Sun': '12:00 - 23:00', 'Holiday': '12:00 - 23:00'}}",+49 202 28324400,42103,51.257486-7.144054620093458,,https://losteria.net/en/restaurants/restaurant/wuppertal/
