addr_full,city,country,brand,extras,lat,lon,opening_hours,phone,ref,postcode,name,state,website
Cullies H12X6V6 Cavan,Cavan,IE,Maxol,"{'brand': 'Maxol', 'fascia': 'Maxol Service Station', 'category': 'Service Station', 'edit_date': '20250403', 'lat_lon_source': 'website'}",54.0098166,-7.3559879,"{'Sat': '07:00-22:30', 'Tue': '07:00-22:30', 'Mon': '07:00-22:30', 'Sun': '08:00-22:00', 'Fri': '07:00-22:30', 'Thu': '07:00-22:30', 'Wed': '07:00-22:30'}",+353494326350,S000316,H12X6V6,Maxol Service Station Cullies,,https://stations.maxol.ie/
Dublin Road N91N5HW Westmeath,Westmeath,IE,Maxol,"{'brand': 'Maxol', 'fascia': 'Maxol Service Station', 'category': 'Service Station', 'edit_date': '20250403', 'lat_lon_source': 'website'}",53.5260641,-7.3326173,"{'Fri': '06:30-23:30', 'Thu': '06:30-23:30', 'Wed': '06:30-23:30', 'Mon': '06:30-23:30', 'Tue': '06:30-23:30', 'Sat': '06:30-23:30', 'Sun': '06:30-23:30'}",+353449348985,S000064,N91N5HW,Maxol Service Station Mullingar,,https://stations.maxol.ie/
Trim Road C15 WPY7 Meath,Meath,IE,Maxol,"{'brand': 'Maxol', 'fascia': 'Maxol Service Station', 'category': 'Service Station', 'edit_date': '20250403', 'lat_lon_source': 'website'}",53.62205304229687,-6.913715071123018,"{'Tue': '06:00-23:00', 'Sat': '06:00-23:00', 'Sun': '06:00-23:00', 'Fri': '06:00-23:00', 'Thu': '06:00-23:00', 'Wed': '06:00-23:00', 'Mon': '06:00-23:00'}",+353469026018,S000394,C15 WPY7,Maxol Service Station Kiltale,,https://stations.maxol.ie/
Glebe C15R96C Meath,Meath,IE,Maxol,"{'brand': 'Maxol', 'fascia': 'Maxol Service Station', 'category': 'Service Station', 'edit_date': '20250403', 'lat_lon_source': 'website'}",53.53427,-6.95753,"{'Sun': '08:00-21:00', 'Mon': '07:00-21:00', 'Sat': '08:00-21:00', 'Fri': '07:00-21:00', 'Thu': '07:00-21:00', 'Wed': '07:00-21:00', 'Tue': '07:00-21:00'}",+353469546027,S000164,C15R96C,Dempsey's Maxol Service Station,,https://stations.maxol.ie/
Athlone Road N39KH95 Longford,Longford,IE,Maxol,"{'brand': 'Maxol', 'fascia': 'Maxol Service Station', 'category': 'Service Station', 'edit_date': '20250403', 'lat_lon_source': 'website'}",53.5607252,-7.7624707,"{'Tue': '06:30-23:00', 'Fri': '06:30-23:00', 'Sat': '07:00-23:00', 'Sun': '08:00-23:00', 'Thu': '06:30-23:00', 'Wed': '06:30-23:00', 'Mon': '06:30-23:00'}",+353906432777,S000341,N39KH95,Maxol Service Station Ballymahon,,https://stations.maxol.ie/
Haggard Street C15CD4R Meath,Meath,IE,Maxol,"{'brand': 'Maxol', 'fascia': 'Maxol Service Station', 'category': 'Service Station', 'edit_date': '20250403', 'lat_lon_source': 'website'}",53.559387,-6.7904567,"{'Tue': '06:00-22:00', 'Sat': '07:00-22:00', 'Fri': '06:00-22:00', 'Sun': '08:00-22:00', 'Thu': '06:00-22:00', 'Wed': '06:00-22:00', 'Mon': '06:00-22:00'}",+353469456000,S000329,C15CD4R,Souhan's Maxol Service Station,,https://stations.maxol.ie/
Flower Hill C15D43Y Meath,Meath,IE,Maxol,"{'brand': 'Maxol', 'fascia': 'Maxol Service Station', 'category': 'Service Station', 'edit_date': '20250403', 'lat_lon_source': 'website'}",53.6579999,-6.6800735,"{'Tue': '06:00-22:00', 'Sat': '07:00-22:00', 'Sun': '07:00-22:00', 'Fri': '06:00-22:00', 'Thu': '06:00-22:00', 'Wed': '06:00-22:00', 'Mon': '06:00-22:00'}",+353469021608,S000194,C15D43Y,Maxol Service Station Flower Hill,,https://stations.maxol.ie/
New By-Pass Road C15TCK3 Meath,Meath,IE,Maxol,"{'brand': 'Maxol', 'fascia': 'Maxol Service Station', 'category': 'Service Station', 'edit_date': '20250403', 'lat_lon_source': 'website'}",53.6476943,-6.6767022,"{'Sun': '06:00-23:00', 'Mon': '05:00-23:00', 'Fri': '05:00-23:00', 'Thu': '05:00-23:00', 'Wed': '05:00-23:00', 'Sat': '05:00-23:00', 'Tue': '05:00-23:00'}",+353469022504,S000156,C15TCK3,Maxol Service Station Riverside,,https://stations.maxol.ie/
46 Main Street BT929LA Fermanagh,Fermanagh,GB,Maxol,"{'brand': 'Maxol', 'fascia': 'Maxol Service Station', 'category': 'Service Station', 'edit_date': '20250403', 'lat_lon_source': 'website'}",54.199867893598004,-7.5751681147151935,"{'Fri': '07:00-22:00', 'Thu': '07:00-22:00', 'Wed': '07:00-22:00', 'Mon': '07:00-22:00', 'Tue': '07:00-22:00', 'Sat': '07:00-22:00', 'Sun': '07:00-22:00'}",+442867742020,N000173,BT929LA,"Mc Bride's Maxol Service Station, Derrylin",,https://stations.maxol.ie/
Johnstown Bridge A83PY02 Meath,Meath,IE,Maxol,"{'brand': 'Maxol', 'fascia': 'Maxol Service Station', 'category': 'Service Station', 'edit_date': '20250403', 'lat_lon_source': 'website'}",53.4065303,-6.8434875,"{'Tue': '06:00-20:00', 'Mon': '06:00-20:00', 'Fri': '06:00-20:00', 'Sun': '08:00-19:00', 'Thu': '06:00-20:00', 'Wed': '06:00-20:00', 'Sat': '08:00-19:00'}",+353469541221,S000060,A83PY02,Greville's Maxol Service Station,,https://stations.maxol.ie/
Dublin Road A75WY95 Monaghan,Monaghan,IE,Maxol,"{'brand': 'Maxol', 'fascia': 'Maxol Service Station', 'category': 'Service Station', 'edit_date': '20250403', 'lat_lon_source': 'website'}",54.115133,-6.732873,"{'Fri': '07:00-23:00', 'Thu': '07:00-23:00', 'Wed': '07:00-23:00', 'Mon': '07:00-23:00', 'Tue': '07:00-23:00', 'Sat': '07:00-23:00', 'Sun': '07:00-23:00'}",+353429740946,S000386,A75WY95,Watter's Maxol Service Station,,https://stations.maxol.ie/
Lisnaskea BT92 0JB Fermanagh,Fermanagh,GB,Maxol,"{'brand': 'Maxol', 'fascia': 'Maxol Service Station', 'category': 'Service Station', 'edit_date': '20250403', 'lat_lon_source': 'website'}",54.255218282320264,-7.447606459045928,"{'Sat': '06:00-22:00', 'Tue': '06:00-22:00', 'Sun': '07:00-22:00', 'Fri': '06:00-22:00', 'Thu': '06:00-22:00', 'Wed': '06:00-22:00', 'Mon': '06:00-22:00'}",+442867721218,N000177,BT92 0JB,Swift's Maxol Service Station,,https://stations.maxol.ie/
Church Road R35D5K3 Offaly,Offaly,IE,Maxol,"{'brand': 'Maxol', 'fascia': 'Maxol Service Station', 'category': 'Service Station', 'edit_date': '20250403', 'lat_lon_source': 'website'}",53.2698527,-7.4744682,"{'Fri': '07:00-22:00', 'Thu': '07:00-22:00', 'Wed': '07:00-22:00', 'Mon': '07:00-22:00', 'Tue': '07:00-22:00', 'Sat': '07:00-22:00', 'Sun': '08:00-22:00'}",+353579325849,S000339,R35D5K3,Kane & Carberry's Maxol Service Station,,https://stations.maxol.ie/
Coolshannagh H18K585 Monaghan,Monaghan,IE,Maxol,"{'brand': 'Maxol', 'fascia': 'Maxol Service Station', 'category': 'Service Station', 'edit_date': '20250403', 'lat_lon_source': 'website'}",54.2586984,-6.9587057,"{'Mon': '06:30-21:30', 'Fri': '06:30-21:30', 'Thu': '06:30-21:30', 'Wed': '06:30-21:30', 'Sun': '07:30-21:30', 'Sat': '07:00-21:30', 'Tue': '06:30-21:30'}",+3534771082,S000264,H18K585,Maxol Service Station Coolshannagh,,https://stations.maxol.ie/
Donore Road A92HX9A Louth,Louth,IE,Maxol,"{'brand': 'Maxol', 'fascia': 'Maxol Service Station', 'category': 'Service Station', 'edit_date': '20250403', 'lat_lon_source': 'website'}",53.7047831,-6.3751576,"{'Fri': '07:00-22:00', 'Thu': '07:00-22:00', 'Wed': '07:00-22:00', 'Mon': '07:00-22:00', 'Tue': '07:00-22:00', 'Sat': '07:00-22:00', 'Sun': '08:00-22:00'}",+353419801340,S000223,A92HX9A,Maxol Service Station Donore Road,,https://stations.maxol.ie/
Ballymakenny Road A92TKW0 Louth,Louth,IE,Maxol,"{'brand': 'Maxol', 'fascia': 'Maxol Service Station', 'category': 'Service Station', 'edit_date': '20250403', 'lat_lon_source': 'website'}",53.7227192,-6.3481931,"{'Fri': '07:00-22:00', 'Thu': '07:00-22:00', 'Wed': '07:00-22:00', 'Mon': '07:00-22:00', 'Sat': '08:00-22:00', 'Tue': '07:00-22:00', 'Sun': '09:00-21:00'}",+353419841577,S000081,A92TKW0,Maxol Service Station Ballymakenny Road,,https://stations.maxol.ie/
Duleek Street A92KVY3 Louth,Louth,IE,Maxol,"{'brand': 'Maxol', 'fascia': 'Maxol Service Station', 'category': 'Service Station', 'edit_date': '20250403', 'lat_lon_source': 'website'}",53.7102041,-6.349546,"{'Sun': '08:00-21:00', 'Fri': '07:00-22:00', 'Thu': '07:00-22:00', 'Wed': '07:00-22:00', 'Mon': '07:00-22:00', 'Sat': '08:00-22:00', 'Tue': '07:00-22:00'}",+353419849128,S000276,A92KVY3,Maxol Service Station Millmount,,https://stations.maxol.ie/
Fairyhouse  Road A85FF20 Meath,Meath,IE,Maxol,"{'brand': 'Maxol', 'fascia': 'Maxol Service Station', 'category': 'Service Station', 'edit_date': '20250403', 'lat_lon_source': 'website'}",53.500304,-6.4671656,"{'Fri': '07:00-23:00', 'Thu': '07:00-22:00', 'Wed': '07:00-22:00', 'Mon': '07:00-22:00', 'Tue': '07:00-22:00', 'Sat': '08:00-23:00', 'Sun': '08:00-22:00'}",+35318256160,S000242,A85FF20,Conway's Maxol Service Station,,https://stations.maxol.ie/
Castletown Road A91NHP5 Louth,Louth,IE,Maxol,"{'brand': 'Maxol', 'fascia': 'Maxol Service Station', 'category': 'Service Station', 'edit_date': '20250403', 'lat_lon_source': 'website'}",54.015323468409704,-6.421656899752892,"{'Sat': '00:00-23:59', 'Tue': '00:00-23:59', 'Sun': '00:00-23:59', 'Fri': '00:00-23:59', 'Thu': '00:00-23:59', 'Wed': '00:00-23:59', 'Mon': '00:00-23:59'}",+353429335338,S000100,A91NHP5,Fee's Maxol Service Station,,https://stations.maxol.ie/
Dublin Road A91HDK0 Louth,Louth,IE,Maxol,"{'brand': 'Maxol', 'fascia': 'Maxol Service Station', 'category': 'Service Station', 'edit_date': '20250403', 'lat_lon_source': 'website'}",53.9816618,-6.3950358,"{'Tue': '06:00-22:00', 'Sat': '07:00-22:00', 'Sun': '07:00-22:00', 'Fri': '06:00-22:00', 'Thu': '06:00-22:00', 'Wed': '06:00-22:00', 'Mon': '06:00-22:00'}",+353429326323,S000351,A91HDK0,"Maxol Service Station Dublin Road, Dundalk",,https://stations.maxol.ie/
Avenue Road A91N9WP Louth,Louth,IE,Maxol,"{'brand': 'Maxol', 'fascia': 'Maxol Service Station', 'category': 'Service Station', 'edit_date': '20250403', 'lat_lon_source': 'website'}",53.99417358025359,-6.384055159545247,"{'Fri': '07:00-22:00', 'Thu': '07:00-22:00', 'Wed': '07:00-22:00', 'Mon': '07:00-22:00', 'Sun': '08:30-22:00', 'Tue': '07:00-22:00', 'Sat': '07:00-22:00'}",+353429339013,S000042,A91N9WP,Maxol Auto24 Seaview,,https://stations.maxol.ie/
Straffan Road W23X3D1 Kildare,Kildare,IE,Maxol,"{'brand': 'Maxol', 'fascia': 'Maxol Service Station', 'category': 'Service Station', 'edit_date': '20250403', 'lat_lon_source': 'website'}",53.3743713,-6.58794,"{'Tue': '06:00-22:00', 'Sat': '06:30-22:00', 'Fri': '06:00-22:00', 'Sun': '08:00-22:00', 'Thu': '06:00-22:00', 'Wed': '06:00-22:00', 'Mon': '06:00-22:00'}",+35315054634,S000112,W23X3D1,Maxol Service Station Maynooth,,https://stations.maxol.ie/
149 Sligo Road BT747JY Fermanagh,Fermanagh,GB,Maxol,"{'brand': 'Maxol', 'fascia': 'Maxol Service Station', 'category': 'Service Station', 'edit_date': '20250403', 'lat_lon_source': 'website'}",54.33357446106335,-7.66359121459852,"{'Tue': '06:00-23:00', 'Sat': '06:30-23:00', 'Fri': '06:00-23:00', 'Sun': '07:00-23:00', 'Thu': '06:00-23:00', 'Wed': '06:00-23:00', 'Mon': '06:00-23:00'}",+442866323106,N000079,BT747JY,"Sligo Road, Enniskillen Maxol Service Station",,https://stations.maxol.ie/
Queen Street BT74 6AA Fermanagh,Fermanagh,GB,Maxol,"{'brand': 'Maxol', 'fascia': 'Maxol Service Station', 'category': 'Service Station', 'edit_date': '20250403', 'lat_lon_source': 'website'}",54.34794,-7.643822,"{'Sat': '00:00-23:59', 'Tue': '00:00-23:59', 'Sun': '00:00-23:59', 'Fri': '00:00-23:59', 'Thu': '00:00-23:59', 'Wed': '00:00-23:59', 'Mon': '00:00-23:59'}",+442866323721,N000082,BT74 6AA,McBride's Enniskillen Maxol Service Station,,https://stations.maxol.ie/
Big Street A92WF63 Louth,Louth,IE,Maxol,"{'brand': 'Maxol', 'fascia': 'Maxol Service Station', 'category': 'Service Station', 'edit_date': '20250403', 'lat_lon_source': 'website'}",53.76216780465271,-6.269805923866764,"{'Fri': '07:00-22:00', 'Thu': '07:00-22:00', 'Wed': '07:00-22:00', 'Mon': '07:00-22:00', 'Tue': '07:00-22:00', 'Sat': '07:00-22:00', 'Sun': '07:00-22:00'}",+353419881623,S000313,A92WF63,Madden's Maxol Service Station,,https://stations.maxol.ie/
Maynooth Road W23ND39 Kildare,Kildare,IE,Maxol,"{'brand': 'Maxol', 'fascia': 'Maxol Service Station', 'category': 'Service Station', 'edit_date': '20250403', 'lat_lon_source': 'website'}",53.3511854,-6.5452656,"{'Tue': '06:30-22:00', 'Mon': '06:30-22:00', 'Sat': '07:00-22:00', 'Sun': '07:00-22:00', 'Fri': '06:30-22:00', 'Thu': '06:30-22:00', 'Wed': '06:30-22:00'}",+35316270598,S000110,W23ND39,Maxol Service Station Celbridge,,https://stations.maxol.ie/
Dublin Road R32N4FD Laois,Laois,IE,Maxol,"{'brand': 'Maxol', 'fascia': 'Maxol Service Station', 'category': 'Service Station', 'edit_date': '20250403', 'lat_lon_source': 'website'}",53.1560639,-7.1836181,"{'Sun': '06:30-23:00', 'Sat': '06:30-23:00', 'Tue': '05:30-23:00', 'Mon': '05:30-23:00', 'Fri': '05:30-23:00', 'Thu': '05:30-23:00', 'Wed': '05:30-23:00'}",+353578643127,S000111,R32N4FD,Maxol Service Station Portarlington,,https://stations.maxol.ie/
Celbridge Road W23W895 Kildare,Kildare,IE,Maxol,"{'brand': 'Maxol', 'fascia': 'Maxol Service Station', 'category': 'Service Station', 'edit_date': '20250403', 'lat_lon_source': 'website'}",53.3619586,-6.5011234,"{'Tue': '06:30-22:00', 'Mon': '06:30-22:00', 'Sat': '07:00-22:00', 'Sun': '07:30-22:00', 'Fri': '06:30-22:00', 'Thu': '06:30-22:00', 'Wed': '06:30-22:00'}",+35316244632,S000045,W23W895,Ardiff's Maxol Service Station,,https://stations.maxol.ie/
"Clane Road, W91 NYP3 Co. Kildare",Co. Kildare,IE,Maxol,"{'brand': 'Maxol', 'fascia': 'Maxol Service Station', 'category': 'Service Station', 'edit_date': '20250403', 'lat_lon_source': 'website'}",53.25553,-6.6674458,"{'Tue': '06:00-23:00', 'Sat': '06:00-23:00', 'Sun': '06:00-23:00', 'Fri': '06:00-23:00', 'Thu': '06:00-23:00', 'Wed': '06:00-23:00', 'Mon': '06:00-23:00'}",+35345841765,S000395,W91 NYP3,Maxol Service Station Prosperous,,https://stations.maxol.ie/
Old Navan Road D15F5KE Dublin,Dublin,IE,Maxol,"{'brand': 'Maxol', 'fascia': 'Maxol Service Station', 'category': 'Service Station', 'edit_date': '20250403', 'lat_lon_source': 'website'}",53.4065837,-6.411061,"{'Sat': '00:00-23:59', 'Tue': '00:00-23:59', 'Sun': '00:00-23:59', 'Fri': '00:00-23:59', 'Thu': '00:00-23:59', 'Wed': '00:00-23:59', 'Mon': '00:00-23:59'}",+35318115214,S000357,D15F5KE,Maxol Service Station M3 Mulhuddart,,https://stations.maxol.ie/
Lucan Road K78T3F6 Dublin,Dublin,IE,Maxol,"{'brand': 'Maxol', 'fascia': 'Maxol Service Station', 'category': 'Service Station', 'edit_date': '20250403', 'lat_lon_source': 'website'}",53.3551087,-6.4597979,"{'Tue': '06:00-22:00', 'Sat': '07:00-22:00', 'Sun': '07:00-22:00', 'Fri': '06:00-22:00', 'Thu': '06:00-22:00', 'Wed': '06:00-22:00', 'Mon': '06:00-22:00'}",+35316218062,S000272,K78T3F6,Maxol Service Station Lucan Road,,https://stations.maxol.ie/
51a Forkhill Road BT358QY Down,Down,GB,Maxol,"{'brand': 'Maxol', 'fascia': 'Maxol Service Station', 'category': 'Service Station', 'edit_date': '20250403', 'lat_lon_source': 'website'}",54.141197,-6.360495,"{'Fri': '07:00-22:00', 'Thu': '07:00-22:00', 'Wed': '07:00-22:00', 'Mon': '07:00-22:00', 'Tue': '07:00-22:00', 'Sat': '07:00-22:00', 'Sun': '07:00-22:00'}",+442830480010,N000121,BT358QY,Mulkerns Maxol Service Station,,https://stations.maxol.ie/
N2/N3 Link Road D15VK8F Dublin,Dublin,IE,Maxol,"{'brand': 'Maxol', 'fascia': 'Maxol Service Station', 'category': 'Service Station', 'edit_date': '20250403', 'lat_lon_source': 'website'}",53.41535286711979,-6.362149179432919,"{'Sat': '06:00-22:00', 'Tue': '06:00-22:00', 'Sun': '07:00-22:00', 'Fri': '06:00-22:00', 'Thu': '06:00-22:00', 'Wed': '06:00-22:00', 'Mon': '06:00-22:00'}",+35314851235,S000367,D15VK8F,Maxol Service Station Ballycoolin,,https://stations.maxol.ie/
Sallins Road W91NYH6 Kildare,Kildare,IE,Maxol,"{'brand': 'Maxol', 'fascia': 'Maxol Service Station', 'category': 'Service Station', 'edit_date': '20250403', 'lat_lon_source': 'website'}",53.2316958,-6.6613439,"{'Fri': '06:00-21:00', 'Thu': '06:00-21:00', 'Tue': '06:00-20:00', 'Sun': '08:00-20:00', 'Mon': '06:00-20:00', 'Sat': '07:00-20:00', 'Wed': '06:00-20:00'}",+35345856835,S000249,W91NYH6,Maxol Service Station Sallins Road,,https://stations.maxol.ie/
Dublin Road R51Y165 Kildare,Kildare,IE,Maxol,"{'brand': 'Maxol', 'fascia': 'Maxol Service Station', 'category': 'Service Station', 'edit_date': '20250403', 'lat_lon_source': 'website'}",53.1546507,-6.9043731,"{'Sat': '00:00-23:59', 'Tue': '00:00-23:59', 'Sun': '00:00-23:59', 'Fri': '00:00-23:59', 'Thu': '00:00-23:59', 'Wed': '00:00-23:59', 'Mon': '00:00-23:59'}",+35345522147,S000257,R51Y165,Fitzpatrick's Maxol Service Station,,https://stations.maxol.ie/
Adamstown K78 X4E1 Dublin,Dublin,IE,Maxol,"{'brand': 'Maxol', 'fascia': 'Maxol Service Station', 'category': 'Service Station', 'edit_date': '20250403', 'lat_lon_source': 'website'}",53.33251525082723,-6.455843022109901,"{'Fri': '07:00-22:00', 'Thu': '07:00-22:00', 'Wed': '07:00-22:00', 'Mon': '07:00-22:00', 'Sat': '08:00-22:00', 'Tue': '07:00-22:00', 'Sun': '08:00-22:00'}",+35315056484,S000319,K78 X4E1,Maxol Service Station Adamstown,,https://stations.maxol.ie/
Ballymany W12Y752 Kildare,Kildare,IE,Maxol,"{'brand': 'Maxol', 'fascia': 'Maxol Service Station', 'category': 'Service Station', 'edit_date': '20250403', 'lat_lon_source': 'website'}",53.1670904,-6.8163728,"{'Tue': '06:00-23:00', 'Sat': '06:00-23:00', 'Fri': '06:00-23:00', 'Thu': '06:00-23:00', 'Wed': '06:00-23:00', 'Mon': '06:00-23:00', 'Sun': '07:00-21:00'}",+35345430340,S000068,W12Y752,Maxol Service Station Newbridge,,https://stations.maxol.ie/
The Crossings W91A3XV Kildare,Kildare,IE,Maxol,"{'brand': 'Maxol', 'fascia': 'Maxol Service Station', 'category': 'Service Station', 'edit_date': '20250403', 'lat_lon_source': 'website'}",53.2209151,-6.6580823,"{'Fri': '06:30-21:00', 'Thu': '06:30-21:00', 'Wed': '06:30-21:00', 'Mon': '06:30-21:00', 'Tue': '06:30-21:00', 'Sun': '07:00-20:00', 'Sat': '07:00-21:00'}",+35345981648,S000262,W91A3XV,Maxol Service Station The Crossings,,https://stations.maxol.ie/
Naas Road W91VNN3 Kildare,Kildare,IE,Maxol,"{'brand': 'Maxol', 'fascia': 'Maxol Service Station', 'category': 'Service Station', 'edit_date': '20250403', 'lat_lon_source': 'website'}",53.2477271,-6.5958702,"{'Tue': '06:00-22:00', 'Fri': '06:00-22:00', 'Thu': '06:00-22:00', 'Wed': '06:00-22:00', 'Sat': '07:00-21:00', 'Mon': '06:00-22:00', 'Sun': '07:00-21:00'}",+35345878722,S000360,W91VNN3,Maxol Service Station N7 Kill,,https://stations.maxol.ie/
Kilcullen Road W91PA02 Kildare,Kildare,IE,Maxol,"{'brand': 'Maxol', 'fascia': 'Maxol Service Station', 'category': 'Service Station', 'edit_date': '20250403', 'lat_lon_source': 'website'}",53.21252961802854,-6.666355472302259,"{'Fri': '07:00-22:00', 'Thu': '07:00-22:00', 'Wed': '07:00-22:00', 'Mon': '07:00-22:00', 'Tue': '07:00-22:00', 'Sat': '07:00-22:00', 'Sun': '08:00-22:00'}",+35345879046,S000085,W91PA02,Mervyn's Maxol Service Station,,https://stations.maxol.ie/
"Athlone Road, H53A0D4 Galway",Galway,IE,Maxol,"{'brand': 'Maxol', 'fascia': 'Maxol Service Station', 'category': 'Service Station', 'edit_date': '20250403', 'lat_lon_source': 'website'}",53.32978339598301,-8.208518432751744,"{'Tue': '09:00-20:00', 'Fri': '09:00-20:00', 'Thu': '09:00-20:00', 'Wed': '09:00-20:00', 'Sun': '09:00-19:00', 'Mon': '09:00-20:00', 'Sat': '09:00-19:00'}",+353909630800,S000010,H53A0D4,Kilmartin's  Maxol Service Station,,https://stations.maxol.ie/
"Baltrasna, Ratoath Road, A84 XH04 Meath",Meath,IE,Maxol,"{'brand': 'Maxol', 'fascia': 'Maxol Service Station', 'category': 'Service Station', 'edit_date': '20250403', 'lat_lon_source': 'website'}",53.3764675,-6.3090034,"{'Tue': '06:00-23:00', 'Fri': '06:00-23:00', 'Thu': '06:00-23:00', 'Wed': '06:00-23:00', 'Mon': '06:00-23:00', 'Sat': '07:00-21:00', 'Sun': '07:00-21:00'}",+35318350075,S000397,A84 XH04,Maxol Service Station Ratoath Road,,https://stations.maxol.ie/
Junction 4 K36X580 Dublin,Dublin,IE,Maxol,"{'brand': 'Maxol', 'fascia': 'Maxol Service Station', 'category': 'Service Station', 'edit_date': '20250403', 'lat_lon_source': 'website'}",53.4925356,-6.1969973,"{'Sat': '00:00-23:59', 'Tue': '00:00-23:59', 'Sun': '00:00-23:59', 'Fri': '00:00-23:59', 'Thu': '00:00-23:59', 'Wed': '00:00-23:59', 'Mon': '00:00-23:59'}",+35318079021,S000368,K36X580,Maxol Service Station Turvey,,https://stations.maxol.ie/
43  Mill Street BT782BP Tyrone,Tyrone,GB,Maxol,"{'brand': 'Maxol', 'fascia': 'Maxol Service Station', 'category': 'Service Station', 'edit_date': '20250403', 'lat_lon_source': 'website'}",54.49718382301035,-7.314343638864018,"{'Sat': '00:00-23:59', 'Tue': '00:00-23:59', 'Sun': '00:00-23:59', 'Fri': '00:00-23:59', 'Thu': '00:00-23:59', 'Wed': '00:00-23:59', 'Mon': '00:00-23:59'}",+442882841859,N000043,BT782BP,McConnell's Maxol Service Station,,https://stations.maxol.ie/
125 Annareagh Road BT619SA Armagh,Armagh,GB,Maxol,"{'brand': 'Maxol', 'fascia': 'Maxol Service Station', 'category': 'Service Station', 'edit_date': '20250403', 'lat_lon_source': 'website'}",54.341913257730766,-6.542790944752386,"{'Mon': '07:00-21:00', 'Fri': '07:00-21:00', 'Thu': '07:00-21:00', 'Wed': '07:00-21:00', 'Sat': '07:00-21:00', 'Tue': '07:00-21:00', 'Sun': '07:00-21:00'}",+442838871365,N000152,BT619SA,"Dodds, Bawn Maxol Service Station",,https://stations.maxol.ie/
24 Dromore Road BT941GZ Fermanagh,Fermanagh,GB,Maxol,"{'brand': 'Maxol', 'fascia': 'Maxol Service Station', 'category': 'Service Station', 'edit_date': '20250403', 'lat_lon_source': 'website'}",54.47511617855776,-7.623501195205857,"{'Sat': '06:30-23:00', 'Tue': '06:30-23:00', 'Fri': '06:30-23:00', 'Sun': '08:00-23:00', 'Thu': '06:30-23:00', 'Wed': '06:30-23:00', 'Mon': '06:30-23:00'}",+442868621226,N000148,BT941GZ,"Mc Bride's Maxol Service Station, Irvinestown",,https://stations.maxol.ie/
179 Navan Road D07R2VK Dublin,Dublin,IE,Maxol,"{'brand': 'Maxol', 'fascia': 'Maxol Service Station', 'category': 'Service Station', 'edit_date': '20250403', 'lat_lon_source': 'website'}",53.3664281,-6.3118921,"{'Fri': '07:00-23:00', 'Thu': '07:00-23:00', 'Wed': '07:00-23:00', 'Mon': '07:00-23:00', 'Tue': '07:00-23:00', 'Sun': '08:00-23:00', 'Sat': '08:00-23:00'}",+35318682865,S000128,D07R2VK,Maxol Service Station Navan Road,,https://stations.maxol.ie/
Longmile Road/Naas Road Junction D12TDW3 Dublin,Dublin,IE,Maxol,"{'brand': 'Maxol', 'fascia': 'Maxol Service Station', 'category': 'Service Station', 'edit_date': '20250403', 'lat_lon_source': 'website'}",53.3238019,-6.3506463,"{'Tue': '06:30-22:00', 'Mon': '06:30-22:00', 'Sat': '07:00-21:00', 'Fri': '06:30-22:00', 'Thu': '06:30-22:00', 'Wed': '06:30-22:00', 'Sun': '07:00-21:00'}",+35314503596,S000361,D12TDW3,Maxol Service Station Longmile Road,,https://stations.maxol.ie/
Unit D Airport Business Campus D09YW74 Dublin,Dublin,IE,Maxol,"{'brand': 'Maxol', 'fascia': 'Maxol Service Station', 'category': 'Service Station', 'edit_date': '20250403', 'lat_lon_source': 'website'}",53.40522223900604,-6.244096780245756,"{'Mon': '09:00-17:00', 'Fri': '09:00-17:00', 'Thu': '09:00-17:00', 'Wed': '09:00-17:00', 'Sat': 'Closed', 'Sun': 'Closed', 'Tue': '09:00-17:00'}",+35318060300,5616227449575412027,D09YW74,Maxol Lubricants,,https://stations.maxol.ie/
Walkinstown Avenue D12R96T Dublin,Dublin,IE,Maxol,"{'brand': 'Maxol', 'fascia': 'Maxol Service Station', 'category': 'Service Station', 'edit_date': '20250403', 'lat_lon_source': 'website'}",53.3230364,-6.3405184,"{'Sun': '09:00-16:00', 'Tue': '06:00-20:00', 'Mon': '06:00-20:00', 'Fri': '06:00-20:00', 'Thu': '06:00-20:00', 'Wed': '06:00-20:00', 'Sat': '08:00-19:00'}",+35314197999,S000224,D12R96T,Maxol Service Station Walkinstown Avenue,,https://stations.maxol.ie/
Newline F91V2YX Leitrim,Leitrim,IE,Maxol,"{'brand': 'Maxol', 'fascia': 'Maxol Service Station', 'category': 'Service Station', 'edit_date': '20250403', 'lat_lon_source': 'website'}",54.3054977,-8.175716699999999,"{'Fri': '07:00-22:00', 'Thu': '07:00-22:00', 'Wed': '07:00-22:00', 'Mon': '07:00-22:00', 'Sat': '08:00-22:00', 'Tue': '07:00-22:00', 'Sun': '08:00-22:00'}",+353719855300,S000377,F91V2YX,Mullin's Maxol Service Station,,https://stations.maxol.ie/
Ballymount Road D12C1X4 Dublin,Dublin,IE,Maxol,"{'brand': 'Maxol', 'fascia': 'Maxol Service Station', 'category': 'Service Station', 'edit_date': '20250403', 'lat_lon_source': 'website'}",53.3162103,-6.3436716,"{'Sun': '09:00-16:00', 'Tue': '06:00-20:00', 'Mon': '06:00-20:00', 'Fri': '06:00-20:00', 'Thu': '06:00-20:00', 'Wed': '06:00-20:00', 'Sat': '08:00-19:00'}",+35314197901,S000230,D12C1X4,Maxol Service Station Ballymount Road,,https://stations.maxol.ie/
309 Swords Road D09H7F9 Dublin,Dublin,IE,Maxol,"{'brand': 'Maxol', 'fascia': 'Maxol Service Station', 'category': 'Service Station', 'edit_date': '20250403', 'lat_lon_source': 'website'}",53.3913858,-6.2466639,"{'Fri': '07:00-23:00', 'Thu': '07:00-23:00', 'Wed': '07:00-23:00', 'Mon': '07:00-23:00', 'Tue': '07:00-23:00', 'Sat': '07:00-23:00', 'Sun': '08:00-23:00'}",+35318420415,S000219,D09H7F9,Maxol Service Station Swords Road,,https://stations.maxol.ie/
1-3 Greenhills Road D12E8KX Dublin,Dublin,IE,Maxol,"{'brand': 'Maxol', 'fascia': 'Maxol Service Station', 'category': 'Service Station', 'edit_date': '20250403', 'lat_lon_source': 'website'}",53.3066908,-6.3484333,"{'Sat': '06:00-22:00', 'Tue': '06:00-22:00', 'Sun': '07:00-22:00', 'Mon': '06:00-22:00', 'Fri': '06:00-22:00', 'Thu': '06:00-22:00', 'Wed': '06:00-22:00'}",+35318160700,S000359,D12E8KX,Maxol Service Station Greenhills Road,,https://stations.maxol.ie/
Hearse Road K36AW99 Dublin,Dublin,IE,Maxol,"{'brand': 'Maxol', 'fascia': 'Maxol Service Station', 'category': 'Service Station', 'edit_date': '20250403', 'lat_lon_source': 'website'}",53.484272,-6.1545074,"{'Sun': '06:30-23:00', 'Sat': '06:30-23:00', 'Tue': '06:30-23:00', 'Fri': '06:30-23:00', 'Thu': '06:30-23:00', 'Wed': '06:30-23:00', 'Mon': '06:30-23:00'}",+35318958267,S000340,K36AW99,Maxol Service Station Donabate,,https://stations.maxol.ie/
Tymon North Road D24AK7R Dublin,Dublin,IE,Maxol,"{'brand': 'Maxol', 'fascia': 'Maxol Service Station', 'category': 'Service Station', 'edit_date': '20250403', 'lat_lon_source': 'website'}",53.2999686,-6.3485588,"{'Fri': '07:00-22:00', 'Thu': '07:00-22:00', 'Wed': '07:00-22:00', 'Mon': '07:00-22:00', 'Sat': '08:00-22:00', 'Tue': '07:00-22:00', 'Sun': '08:00-22:00'}",+35314627627,S000236,D24AK7R,Maxol Service Station Tymon,,https://stations.maxol.ie/
Cromwellsfort Road D12CD76 Dublin,Dublin,IE,Maxol,"{'brand': 'Maxol', 'fascia': 'Maxol Service Station', 'category': 'Service Station', 'edit_date': '20250403', 'lat_lon_source': 'website'}",53.3168456,-6.319664,"{'Sun': '08:00-21:00', 'Mon': '07:00-21:00', 'Fri': '07:00-22:00', 'Thu': '07:00-22:00', 'Sat': '08:00-21:00', 'Wed': '07:00-21:00', 'Tue': '07:00-21:00'}",+35314557985,S000169,D12CD76,Maxol Service Station Cromwellsfort Road,,https://stations.maxol.ie/
Abbeyleix Road R32W66V Laois,Laois,IE,Maxol,"{'brand': 'Maxol', 'fascia': 'Maxol Service Station', 'category': 'Service Station', 'edit_date': '20250403', 'lat_lon_source': 'website'}",53.03293454524601,-7.302183063796512,"{'Fri': '07:00-22:00', 'Thu': '07:00-22:00', 'Wed': '07:00-22:00', 'Mon': '07:00-22:00', 'Tue': '07:00-22:00', 'Sun': '09:00-22:00', 'Sat': '09:00-22:00'}",+353578662621,S000326,R32W66V,Brady's Maxol Service Station,,https://stations.maxol.ie/
Stradbally Road R32AV9V Laois,Laois,IE,Maxol,"{'brand': 'Maxol', 'fascia': 'Maxol Service Station', 'category': 'Service Station', 'edit_date': '20250403', 'lat_lon_source': 'website'}",53.0331066,-7.2731503,"{'Tue': '06:00-22:00', 'Sat': '07:00-22:00', 'Sun': '07:00-22:00', 'Fri': '06:00-22:00', 'Thu': '06:00-22:00', 'Wed': '06:00-22:00', 'Mon': '06:00-22:00'}",+353578672919,S000324,R32AV9V,Bracken's Maxol Service Station,,https://stations.maxol.ie/
16 Crumlin Road D12K44W Dublin,Dublin,IE,Maxol,"{'brand': 'Maxol', 'fascia': 'Maxol Service Station', 'category': 'Service Station', 'edit_date': '20250403', 'lat_lon_source': 'website'}",53.3319841,-6.294397,"{'Sat': '00:00-23:59', 'Tue': '00:00-23:59', 'Sun': '00:00-23:59', 'Fri': '00:00-23:59', 'Thu': '00:00-23:59', 'Wed': '00:00-23:59', 'Mon': '00:00-23:59'}",+35314547674,S000184,D12K44W,Maxol Service Station Dolphins Barn,,https://stations.maxol.ie/
185 Ballygawley Road BT701RY Tyrone,Tyrone,GB,Maxol,"{'brand': 'Maxol', 'fascia': 'Maxol Service Station', 'category': 'Service Station', 'edit_date': '20250403', 'lat_lon_source': 'website'}",54.487108,-6.875987,"{'Mon': '07:00-21:00', 'Fri': '07:00-21:00', 'Thu': '07:00-21:00', 'Wed': '07:00-21:00', 'Sun': '09:00-21:00', 'Sat': '07:30-21:00', 'Tue': '07:00-21:00'}",+442887767550,N000088,BT701RY,Martin's Maxol Service Station,,https://stations.maxol.ie/
134 Richmond Road D03R684 Dublin,Dublin,IE,Maxol,"{'brand': 'Maxol', 'fascia': 'Maxol Service Station', 'category': 'Service Station', 'edit_date': '20250403', 'lat_lon_source': 'website'}",53.3664355,-6.2495142,"{'Mon': '06:00-21:00', 'Fri': '06:00-21:00', 'Thu': '06:00-21:00', 'Wed': '06:00-21:00', 'Sun': '06:00-21:00', 'Sat': '06:00-21:00', 'Tue': '06:00-21:00'}",+353870915900,S000163,D03R684,Maxol Service Station Richmond Road,,https://stations.maxol.ie/
Fork Service Station BT717DT Tyrone,Tyrone,GB,Maxol,"{'brand': 'Maxol', 'fascia': 'Maxol Service Station', 'category': 'Service Station', 'edit_date': '20250403', 'lat_lon_source': 'website'}",54.4502245242968,-6.701841722952033,"{'Tue': '06:00-22:00', 'Sat': '06:30-22:00', 'Sun': '06:30-22:00', 'Fri': '06:00-22:00', 'Thu': '06:00-22:00', 'Wed': '06:00-22:00', 'Mon': '06:00-22:00'}",+442887729472,N000147,BT717DT,Symington's Maxol Service Station,,https://stations.maxol.ie/
3 Custom House Plaza D01VY76 Dublin,Dublin,IE,Maxol,"{'brand': 'Maxol', 'fascia': 'Maxol Service Station', 'category': 'Service Station', 'edit_date': '20250403', 'lat_lon_source': 'website'}",53.3513395,-6.248112,"{'Mon': '09:00-17:30', 'Fri': '09:00-17:30', 'Thu': '09:00-17:30', 'Wed': '09:00-17:30', 'Sat': 'Closed', 'Sun': 'Closed', 'Tue': '09:00-17:30'}",+35316076800,4458941222036840083,D01VY76,Maxol Limited,,https://stations.maxol.ie/
Ballylinan R32 KT18 Laois,Laois,IE,Maxol,"{'brand': 'Maxol', 'fascia': 'Maxol Service Station', 'category': 'Service Station', 'edit_date': '20250403', 'lat_lon_source': 'website'}",53.0220412,-7.1952592,"{'Sat': '00:00-23:59', 'Tue': '00:00-23:59', 'Sun': '00:00-23:59', 'Fri': '00:00-23:59', 'Thu': '00:00-23:59', 'Wed': '00:00-23:59', 'Mon': '00:00-23:59'}",+353598625287,S000398,R32 KT18,Maxol Service Station Ballylinan,,https://stations.maxol.ie/
Main Street W91D93C Wicklow,Wicklow,IE,Maxol,"{'brand': 'Maxol', 'fascia': 'Maxol Service Station', 'category': 'Service Station', 'edit_date': '20250403', 'lat_lon_source': 'website'}",53.1747407,-6.5276995,"{'Tue': '06:30-22:00', 'Mon': '06:30-22:00', 'Sat': '07:00-22:00', 'Sun': '08:00-22:00', 'Fri': '06:30-22:00', 'Thu': '06:30-22:00', 'Wed': '06:30-22:00'}",+35345858088,S000229,W91D93C,Maxol Service Station Blessington,,https://stations.maxol.ie/
58 Tattyreagh Road BT781PZ Tyrone,Tyrone,GB,Maxol,"{'brand': 'Maxol', 'fascia': 'Maxol Service Station', 'category': 'Service Station', 'edit_date': '20250403', 'lat_lon_source': 'website'}",54.54243,-7.2902,"{'Sun': '08:00-21:00', 'Mon': '07:00-21:00', 'Fri': '07:00-21:00', 'Thu': '07:00-21:00', 'Wed': '07:00-21:00', 'Sat': '07:00-21:00', 'Tue': '07:00-21:00'}",+442882252800,N000171,BT781PZ,Short's Maxol Service Station,,https://stations.maxol.ie/
231-235 Harold's Cross Road D6WEV60 Dublin,Dublin,IE,Maxol,"{'brand': 'Maxol', 'fascia': 'Maxol Service Station', 'category': 'Service Station', 'edit_date': '20250403', 'lat_lon_source': 'website'}",53.3202327,-6.2786444,"{'Sat': '00:00-23:59', 'Tue': '00:00-23:59', 'Sun': '00:00-23:59', 'Fri': '00:00-23:59', 'Thu': '00:00-23:59', 'Wed': '00:00-23:59', 'Mon': '00:00-23:59'}",+35314979462,S000091,D6WEV60,Maxol Service Station Harold's Cross,,https://stations.maxol.ie/
Templeogue Road D6WYV99 Dublin,Dublin,IE,Maxol,"{'brand': 'Maxol', 'fascia': 'Maxol Service Station', 'category': 'Service Station', 'edit_date': '20250403', 'lat_lon_source': 'website'}",53.2986695,-6.3033434,"{'Sat': '06:30-23:00', 'Tue': '06:30-23:00', 'Fri': '06:30-23:00', 'Thu': '06:30-23:00', 'Wed': '06:30-23:00', 'Sun': '07:00-23:00', 'Mon': '06:30-23:00'}",+35314900076,S000130,D6WYV99,Maxol Service Station Templeogue,,https://stations.maxol.ie/
Mespil Road D04F2V1 Dublin,Dublin,IE,Maxol,"{'brand': 'Maxol', 'fascia': 'Maxol Service Station', 'category': 'Service Station', 'edit_date': '20250403', 'lat_lon_source': 'website'}",53.3338731,-6.2461858,"{'Fri': '07:00-22:00', 'Thu': '07:00-22:00', 'Wed': '07:00-22:00', 'Mon': '07:00-22:00', 'Tue': '07:00-22:00', 'Sat': '07:00-22:00', 'Sun': '07:00-22:00'}",+35316670450,S000122,D04F2V1,Maxol Service Station Mespil Road,,https://stations.maxol.ie/
Ringsend  Road D04C9F6 Dublin,Dublin,IE,Maxol,"{'brand': 'Maxol', 'fascia': 'Maxol Service Station', 'category': 'Service Station', 'edit_date': '20250403', 'lat_lon_source': 'website'}",53.34176,-6.2349682,"{'Tue': '06:30-22:00', 'Mon': '06:30-22:00', 'Sun': '08:00-20:00', 'Sat': '07:00-22:00', 'Fri': '06:30-22:00', 'Thu': '06:30-22:00', 'Wed': '06:30-22:00'}",+35316688754,S000317,D04C9F6,Maxol Service Station Ringsend,,https://stations.maxol.ie/
Beach Road D04A9P3 Dublin,Dublin,IE,Maxol,"{'brand': 'Maxol', 'fascia': 'Maxol Service Station', 'category': 'Service Station', 'edit_date': '20250403', 'lat_lon_source': 'website'}",53.3374646,-6.2204242,"{'Fri': 'Closed', 'Thu': 'Closed', 'Wed': 'Closed', 'Mon': 'Closed', 'Tue': 'Closed', 'Sat': 'Closed', 'Sun': 'Closed'}",+35316607462,S000187,D04A9P3,Maxol Service Station Beach Road - Closed.,,https://stations.maxol.ie/
17 Ballygawley Road BT701TY Tyrone,Tyrone,GB,Maxol,"{'brand': 'Maxol', 'fascia': 'Maxol Service Station', 'category': 'Service Station', 'edit_date': '20250403', 'lat_lon_source': 'website'}",54.50353092635898,-6.780249719530806,"{'Sat': '07:00-22:30', 'Sun': '08:30-22:00', 'Tue': '06:00-22:30', 'Mon': '06:00-22:30', 'Fri': '06:00-22:30', 'Thu': '06:00-22:30', 'Wed': '06:00-22:30'}",+442887725220,N000045,BT701TY,Cullinan's Maxol service Station,,https://stations.maxol.ie/
Dublin Road D13 N5K7 Dublin,Dublin,IE,Maxol,"{'brand': 'Maxol', 'fascia': 'Maxol Service Station', 'category': 'Service Station', 'edit_date': '20250403', 'lat_lon_source': 'website'}",53.385434893455034,-6.141600200494308,"{'Fri': '07:00-23:00', 'Thu': '07:00-23:00', 'Wed': '07:00-23:00', 'Mon': '07:00-23:00', 'Tue': '07:00-23:00', 'Sat': '07:00-23:00', 'Sun': '07:00-23:00'}",+35316076800,S000342,D13 N5K7,Maxol Auto24 Sutton,,https://stations.maxol.ie/
Baldoyle Road D13C6X7 Dublin,Dublin,IE,Maxol,"{'brand': 'Maxol', 'fascia': 'Maxol Service Station', 'category': 'Service Station', 'edit_date': '20250403', 'lat_lon_source': 'website'}",53.3912638,-6.1242981,"{'Tue': '06:00-23:00', 'Sat': '07:00-23:00', 'Sun': '08:00-23:00', 'Fri': '06:00-23:00', 'Thu': '06:00-23:00', 'Wed': '06:00-23:00', 'Mon': '06:00-23:00'}",+35318324959,S000201,D13C6X7,Maxol Service Station Baldoyle,,https://stations.maxol.ie/
Ballinteer Avenue D16K6V9 Dublin,Dublin,IE,Maxol,"{'brand': 'Maxol', 'fascia': 'Maxol Service Station', 'category': 'Service Station', 'edit_date': '20250403', 'lat_lon_source': 'website'}",53.275794,-6.2515393,"{'Fri': '07:00-22:00', 'Thu': '07:00-22:00', 'Wed': '07:00-22:00', 'Mon': '07:00-22:00', 'Tue': '07:00-22:00', 'Sat': '07:00-22:00', 'Sun': '08:00-22:00'}",+35312995000,S000183,D16K6V9,Maxol Service Station Ballinteer,,https://stations.maxol.ie/
83 Newry Street BT345PZ Down,Down,GB,Maxol,"{'brand': 'Maxol', 'fascia': 'Maxol Service Station', 'category': 'Service Station', 'edit_date': '20250403', 'lat_lon_source': 'website'}",54.237628693408624,-6.166289610405464,"{'Mon': '07:00-21:00', 'Fri': '07:00-21:00', 'Thu': '07:00-21:00', 'Wed': '07:00-21:00', 'Sat': '07:00-21:00', 'Tue': '07:00-21:00', 'Sun': '07:00-21:00'}",+442840630336,N000107,BT345PZ,McAvoy's Maxol Service Station,,https://stations.maxol.ie/
1 Banbridge Road BT63 6DJ Armagh,Armagh,GB,Maxol,"{'brand': 'Maxol', 'fascia': 'Maxol Service Station', 'category': 'Service Station', 'edit_date': '20250403', 'lat_lon_source': 'website'}",54.3723888,-6.3564569,"{'Fri': '07:00-22:00', 'Thu': '07:00-22:00', 'Wed': '07:00-22:00', 'Mon': '07:00-22:00', 'Tue': '07:00-22:00', 'Sat': '07:00-22:00', 'Sun': '08:00-22:00'}",,N000179,BT63 6DJ,Maxol Service Station Gilford,,https://stations.maxol.ie/
212 Ballynakilty Road BT716HJ Tyrone,Tyrone,GB,Maxol,"{'brand': 'Maxol', 'fascia': 'Maxol Service Station', 'category': 'Service Station', 'edit_date': '20250403', 'lat_lon_source': 'website'}",54.50110190782177,-6.6589442589996635,"{'Fri': '05:30-23:30', 'Thu': '05:30-23:30', 'Wed': '05:30-23:30', 'Mon': '05:30-23:30', 'Sun': '05:30-23:30', 'Sat': '05:30-23:30', 'Tue': '05:30-23:30'}",+442887725246,N000110,BT716HJ,Cohannon A45 Maxol Service Station,,https://stations.maxol.ie/
Sandyford Road D16KX23 Dublin,Dublin,IE,Maxol,"{'brand': 'Maxol', 'fascia': 'Maxol Service Station', 'category': 'Service Station', 'edit_date': '20250403', 'lat_lon_source': 'website'}",53.272884,-6.227909,"{'Tue': '06:30-23:00', 'Fri': '06:30-23:00', 'Sat': '07:00-23:00', 'Sun': '08:00-23:00', 'Thu': '06:30-23:00', 'Wed': '06:30-23:00', 'Mon': '06:30-23:00'}",+35312937992,S000087,D16KX23,Maxol Service Station Sandyford Road,,https://stations.maxol.ie/
24 Dungannon Road BT621LF Armagh,Armagh,GB,Maxol,"{'brand': 'Maxol', 'fascia': 'Maxol Service Station', 'category': 'Service Station', 'edit_date': '20250403', 'lat_lon_source': 'website'}",54.43426278010356,-6.465455481282618,"{'Tue': '06:00-23:00', 'Sat': '06:00-23:00', 'Fri': '06:00-23:00', 'Sun': '07:00-23:00', 'Thu': '06:00-23:00', 'Wed': '06:00-23:00', 'Mon': '06:00-23:00'}",+442838339879,N000070,BT621LF,Dungannon Road Maxol Service Station,,https://stations.maxol.ie/
74-78 Newcastle Road BT344NJ Down,Down,GB,Maxol,"{'brand': 'Maxol', 'fascia': 'Maxol Service Station', 'category': 'Service Station', 'edit_date': '20250403', 'lat_lon_source': 'website'}",54.06928541728088,-5.988956056889676,"{'Tue': '06:00-23:00', 'Sun': '06:30-23:00', 'Sat': '06:30-23:00', 'Fri': '06:00-23:00', 'Thu': '06:00-23:00', 'Wed': '06:00-23:00', 'Mon': '06:00-23:00'}",+442841762673,N000125,BT344NJ,Kilkeel Maxol Service Station,,https://stations.maxol.ie/
12A Newry Road BT323HN Down,Down,GB,Maxol,"{'brand': 'Maxol', 'fascia': 'Maxol Service Station', 'category': 'Service Station', 'edit_date': '20250403', 'lat_lon_source': 'website'}",54.344010258530446,-6.273160700629052,"{'Fri': '07:00-23:00', 'Thu': '07:00-23:00', 'Wed': '07:00-23:00', 'Mon': '07:00-23:00', 'Tue': '07:00-23:00', 'Sat': '07:00-23:00', 'Sun': '07:00-23:00'}",,N000174,BT323HN,Banbridge Maxol Service Station,,https://stations.maxol.ie/
5  Scarva Road BT323AR Belfast,Belfast,GB,Maxol,"{'brand': 'Maxol', 'fascia': 'Maxol Service Station', 'category': 'Service Station', 'edit_date': '20250403', 'lat_lon_source': 'website'}",54.3501957,-6.2781483,"{'Tue': '06:30-23:00', 'Fri': '06:30-23:00', 'Sat': '07:00-23:00', 'Sun': '07:30-22:00', 'Thu': '06:30-23:00', 'Wed': '06:30-23:00', 'Mon': '06:30-23:00'}",+442840624383,N000023,BT323AR,Maxol Service Station Scarva Road,,https://stations.maxol.ie/
Pearse Road F91W9KP Sligo,Sligo,IE,Maxol,"{'brand': 'Maxol', 'fascia': 'Maxol Service Station', 'category': 'Service Station', 'edit_date': '20250403', 'lat_lon_source': 'website'}",54.26181,-8.46764,"{'Sat': '00:00-23:59', 'Tue': '00:00-23:59', 'Sun': '00:00-23:59', 'Fri': '00:00-23:59', 'Thu': '00:00-23:59', 'Wed': '00:00-23:59', 'Mon': '00:00-23:59'}",+353719169960,S000378,F91W9KP,Innisfree Maxol Service Station,,https://stations.maxol.ie/
20 Sallynoggin Road A96E5N0 Dublin,Dublin,IE,Maxol,"{'brand': 'Maxol', 'fascia': 'Maxol Service Station', 'category': 'Service Station', 'edit_date': '20250403', 'lat_lon_source': 'website'}",53.2767303,-6.1431802,"{'Sun': '08:00-21:00', 'Fri': '07:00-22:00', 'Thu': '07:00-22:00', 'Wed': '07:00-22:00', 'Mon': '07:00-22:00', 'Tue': '07:00-22:00', 'Sat': '07:00-21:00'}",+35312858323,S000129,A96E5N0,Maxol Service Station Sallynoggin,,https://stations.maxol.ie/
2a Gilpinstown Road BT668RL Armagh,Armagh,GB,Maxol,"{'brand': 'Maxol', 'fascia': 'Maxol Service Station', 'category': 'Service Station', 'edit_date': '20250403', 'lat_lon_source': 'website'}",54.4541783,-6.353418899999999,"{'Tue': '06:00-23:00', 'Sat': '06:00-23:00', 'Sun': '06:00-23:00', 'Fri': '06:00-23:00', 'Thu': '06:00-23:00', 'Wed': '06:00-23:00', 'Mon': '06:00-23:00'}",+442838348780,N000142,BT668RL,Lurgan Maxol Service Station,,https://stations.maxol.ie/
136 Mountjoy Road BT715DY Tyrone,Tyrone,GB,Maxol,"{'brand': 'Maxol', 'fascia': 'Maxol Service Station', 'category': 'Service Station', 'edit_date': '20250403', 'lat_lon_source': 'website'}",54.55559032333148,-6.6070425999181515,"{'Mon': '07:00-19:00', 'Fri': '07:00-19:00', 'Thu': '07:00-19:00', 'Wed': '07:00-19:00', 'Sat': '07:00-19:00', 'Sun': '07:00-21:00', 'Tue': '07:00-19:00'}",+442887739120,N000167,BT715DY,"Forbe's Maxol Service Station, Brocagh",,https://stations.maxol.ie/
"Maganey Lower, R93 P9C2 Carlow",Carlow,IE,Maxol,"{'brand': 'Maxol', 'fascia': 'Maxol Service Station', 'category': 'Service Station', 'edit_date': '20250403', 'lat_lon_source': 'website'}",52.9082152,-6.9326666,"{'Sat': '00:00-23:59', 'Tue': '00:00-23:59', 'Sun': '00:00-23:59', 'Fri': '00:00-23:59', 'Thu': '00:00-23:59', 'Wed': '00:00-23:59', 'Mon': '00:00-23:59'}",+353599145631,S000399,R93 P9C2,Maxol Service Station Maganey,,https://stations.maxol.ie/
Main Street R14YX54 Kildare,Kildare,IE,Maxol,"{'brand': 'Maxol', 'fascia': 'Maxol Service Station', 'category': 'Service Station', 'edit_date': '20250403', 'lat_lon_source': 'website'}",52.9082513,-6.8364381,"{'Sat': '07:00-22:30', 'Tue': '06:00-22:30', 'Mon': '06:00-22:30', 'Sun': '08:00-22:00', 'Fri': '06:00-22:30', 'Thu': '06:00-22:30', 'Wed': '06:00-22:30'}",+353599162780,S000088,R14YX54,Horan's Maxol Service Station,,https://stations.maxol.ie/
Vevay Road A98E9T2 Wicklow,Wicklow,IE,Maxol,"{'brand': 'Maxol', 'fascia': 'Maxol Service Station', 'category': 'Service Station', 'edit_date': '20250403', 'lat_lon_source': 'website'}",53.195506,-6.1074958,"{'Fri': '06:30-22:30', 'Thu': '06:30-22:30', 'Wed': '06:30-22:30', 'Mon': '06:30-22:30', 'Sun': '07:30-22:30', 'Sat': '06:30-22:30', 'Tue': '06:30-22:30'}",+35312866641,S000152,A98E9T2,Maxol Service Station Vevay Road,,https://stations.maxol.ie/
16 Banbridge Road BT251NB Down,Down,GB,Maxol,"{'brand': 'Maxol', 'fascia': 'Maxol Service Station', 'category': 'Service Station', 'edit_date': '20250403', 'lat_lon_source': 'website'}",54.41305127328664,-6.155024866762964,"{'Tue': '06:00-23:00', 'Sat': '06:00-23:00', 'Fri': '06:00-23:00', 'Sun': '07:00-22:00', 'Thu': '06:00-23:00', 'Wed': '06:00-23:00', 'Mon': '06:00-23:00'}",,N000168,BT251NB,Poole's Maxol Service Station,,https://stations.maxol.ie/
7 Dublin Road BT319AQ Down,Down,GB,Maxol,"{'brand': 'Maxol', 'fascia': 'Maxol Service Station', 'category': 'Service Station', 'edit_date': '20250403', 'lat_lon_source': 'website'}",54.25570553772632,-5.949199849311803,"{'Tue': '06:00-23:00', 'Sat': '06:00-23:00', 'Fri': '06:00-23:00', 'Sun': '07:00-23:00', 'Thu': '06:00-23:00', 'Wed': '06:00-23:00', 'Mon': '06:00-23:00'}",+442843771881,N000083,BT319AQ,The Fresh Food Centre Maxol Service Station,,https://stations.maxol.ie/
15-25 Main Street BT670LE Armagh,Armagh,GB,Maxol,"{'brand': 'Maxol', 'fascia': 'Maxol Service Station', 'category': 'Service Station', 'edit_date': '20250403', 'lat_lon_source': 'website'}",54.479022466930594,-6.230173682875448,"{'Sat': '00:00-23:59', 'Tue': '00:00-23:59', 'Sun': '00:00-23:59', 'Fri': '00:00-23:59', 'Thu': '00:00-23:59', 'Wed': '00:00-23:59', 'Mon': '00:00-23:59'}",+442892619377,N000128,BT670LE,Poole's Maxol Service Station,,https://stations.maxol.ie/
125 Mullanahoe Road BT715AX Tyrone,Tyrone,GB,Maxol,"{'brand': 'Maxol', 'fascia': 'Maxol Service Station', 'category': 'Service Station', 'edit_date': '20250403', 'lat_lon_source': 'website'}",54.61859719964765,-6.5553844350953945,"{'Fri': '06:30-21:00', 'Thu': '06:30-21:00', 'Wed': '06:30-21:00', 'Mon': '06:30-21:00', 'Tue': '06:30-21:00', 'Sat': '06:30-21:00', 'Sun': '06:30-21:00'}",+442887739120,N000146,BT715AX,"Forbe's Maxol Service Station, Ardboe",,https://stations.maxol.ie/
78 Strabane Road BT784JZ Derry,Derry,IE,Maxol,"{'brand': 'Maxol', 'fascia': 'Maxol Service Station', 'category': 'Service Station', 'edit_date': '20250403', 'lat_lon_source': 'website'}",54.733182519277705,-7.422613021015471,"{'Tue': '06:00-22:00', 'Sat': '06:00-21:00', 'Sun': '09:00-21:00', 'Mon': '06:00-22:00', 'Fri': '06:00-22:00', 'Thu': '06:00-22:00', 'Wed': '06:00-22:00'}",+442881663103,N000178,BT784JZ,Milltown Maxol Service Station,,https://stations.maxol.ie/
Dublin Road R93N6K0 Carlow,Carlow,IE,Maxol,"{'brand': 'Maxol', 'fascia': 'Maxol Service Station', 'category': 'Service Station', 'edit_date': '20250403', 'lat_lon_source': 'website'}",52.8473294,-6.8988792,"{'Tue': '06:00-20:45', 'Fri': '06:00-20:45', 'Sat': '07:00-20:45', 'Sun': '08:00-20:45', 'Thu': '06:00-20:45', 'Wed': '06:00-20:45', 'Mon': '06:00-20:45'}",+353599170700,S000327,R93N6K0,Fitzpatrick's Maxol Service Station,,https://stations.maxol.ie/
36 Rathfriland Road BT258JG Down,Down,GB,Maxol,"{'brand': 'Maxol', 'fascia': 'Maxol Service Station', 'category': 'Service Station', 'edit_date': '20250403', 'lat_lon_source': 'website'}",54.3775030331393,-6.016729155037193,"{'Tue': '06:00-23:00', 'Sat': '06:00-23:00', 'Sun': '06:00-23:00', 'Fri': '06:00-23:00', 'Thu': '06:00-23:00', 'Wed': '06:00-23:00', 'Mon': '06:00-23:00'}",+442897532574,N000100,BT258JG,Dromara Maxol Service Station,,https://stations.maxol.ie/
Mr Tom Meehan H54YW28 Galway,Galway,IE,Maxol,"{'brand': 'Maxol', 'fascia': 'Maxol Service Station', 'category': 'Service Station', 'edit_date': '20250403', 'lat_lon_source': 'website'}",53.5091578,-8.8702766,"{'Fri': '07:00-22:00', 'Thu': '07:00-22:00', 'Wed': '07:00-22:00', 'Mon': '07:00-22:00', 'Tue': '07:00-22:00', 'Sat': '07:00-22:00', 'Sun': '07:00-22:00'}",+3539352418,S000336,H54YW28,Maxol Service Station Galway Road,,https://stations.maxol.ie/
O'Brien Road R93K4N8 Carlow,Carlow,IE,Maxol,"{'brand': 'Maxol', 'fascia': 'Maxol Service Station', 'category': 'Service Station', 'edit_date': '20250403', 'lat_lon_source': 'website'}",52.84149338319638,-6.908800230243561,"{'Sat': '00:00-23:59', 'Tue': '00:00-23:59', 'Sun': '00:00-23:59', 'Fri': '00:00-23:59', 'Thu': '00:00-23:59', 'Wed': '00:00-23:59', 'Mon': '00:00-23:59'}",+353599137800,S000192,R93K4N8,Hannon's Maxol Service Station,,https://stations.maxol.ie/
Claremorris Road F12K5F1 Mayo,Mayo,IE,Maxol,"{'brand': 'Maxol', 'fascia': 'Maxol Service Station', 'category': 'Service Station', 'edit_date': '20250403', 'lat_lon_source': 'website'}",53.6717812,-8.9600988,"{'Mon': '06:15-22:00', 'Fri': '06:15-22:00', 'Thu': '06:15-22:00', 'Wed': '06:15-22:00', 'Sun': '07:30-22:00', 'Sat': '06:15-22:00', 'Tue': '06:15-22:00'}",+353949364037,S000363,F12K5F1,Maxol Service Station Ballindine,,https://stations.maxol.ie/
2 Main Street BT308RA Down,Down,GB,Maxol,"{'brand': 'Maxol', 'fascia': 'Maxol Service Station', 'category': 'Service Station', 'edit_date': '20250403', 'lat_lon_source': 'website'}",54.29229813392177,-5.837693909046313,"{'Tue': '06:00-00:00', 'Sat': '06:00-00:00', 'Sun': '06:00-00:00', 'Fri': '06:00-00:00', 'Thu': '06:00-00:00', 'Wed': '06:00-00:00', 'Mon': '06:00-00:00'}",+442844811850,N000139,BT308RA,Clough Maxol Service Station,,https://stations.maxol.ie/
71 Main Street BT294LP Antrim,Antrim,GB,Maxol,"{'brand': 'Maxol', 'fascia': 'Maxol Service Station', 'category': 'Service Station', 'edit_date': '20250403', 'lat_lon_source': 'website'}",54.588278906398216,-6.2129793341618145,"{'Tue': '06:00-23:00', 'Sat': '06:00-23:00', 'Sun': '06:00-23:00', 'Fri': '06:00-23:00', 'Thu': '06:00-23:00', 'Wed': '06:00-23:00', 'Mon': '06:00-23:00'}",+442894422239,N000159,BT294LP,Glenavy Village Maxol Service Station,,https://stations.maxol.ie/
60 Belfast Road BT274AT Antrim,Antrim,GB,Maxol,"{'brand': 'Maxol', 'fascia': 'Maxol Service Station', 'category': 'Service Station', 'edit_date': '20250403', 'lat_lon_source': 'website'}",54.51942,-6.032215,"{'Fri': '07:00-22:00', 'Thu': '07:00-22:00', 'Wed': '07:00-22:00', 'Mon': '07:00-22:00', 'Tue': '07:00-22:00', 'Sat': '07:00-22:00', 'Sun': '07:00-22:00'}",+442892662031,N000039,BT274AT,Maxol Service Station Hilden,,https://stations.maxol.ie/
3 Mill Road BT294XL Antrim,Antrim,GB,Maxol,"{'brand': 'Maxol', 'fascia': 'Maxol Service Station', 'category': 'Service Station', 'edit_date': '20250403', 'lat_lon_source': 'website'}",54.62109535916958,-6.214787591207354,"{'Tue': '06:00-00:00', 'Sat': '06:00-00:00', 'Sun': '06:00-00:00', 'Fri': '06:00-00:00', 'Thu': '06:00-00:00', 'Wed': '06:00-00:00', 'Mon': '06:00-00:00'}",+442894454400,N000119,BT294XL,Crumlin Maxol Service Station,,https://stations.maxol.ie/
14 The  Square BT457AE Londonderry,Londonderry,GB,Maxol,"{'brand': 'Maxol', 'fascia': 'Maxol Service Station', 'category': 'Service Station', 'edit_date': '20250403', 'lat_lon_source': 'website'}",54.79374002614404,-6.782803372842296,"{'Sun': '08:00-22:30', 'Sat': '08:00-22:30', 'Tue': '07:00-22:30', 'Mon': '07:00-22:30', 'Fri': '07:00-22:30', 'Thu': '07:00-22:30', 'Wed': '07:00-22:30'}",+442879628207,N000003,BT457AE,McAuley's Maxol Service Station,,https://stations.maxol.ie/
Stonepark H91 HN15 Galway,Galway,IE,Maxol,"{'brand': 'Maxol', 'fascia': 'Maxol Service Station', 'category': 'Service Station', 'edit_date': '20250403', 'lat_lon_source': 'website'}",53.48725302654293,-9.024907104571882,"{'Mon': '07:30-21:00', 'Fri': '07:30-21:00', 'Thu': '07:30-21:00', 'Wed': '07:30-21:00', 'Sat': '09:00-21:00', 'Sun': '09:00-21:00', 'Tue': '07:30-21:00'}",+3539355036,S000372,H91 HN15,Keane's Maxol Service Station,,https://stations.maxol.ie/
Tighe Avenue A67 HT78 Wicklow,Wicklow,IE,Maxol,"{'brand': 'Maxol', 'fascia': 'Maxol Service Station', 'category': 'Service Station', 'edit_date': '20250403', 'lat_lon_source': 'website'}",52.99962,-6.08733,"{'Sun': '08:00-18:00', 'Tue': '06:00-20:00', 'Mon': '06:00-20:00', 'Fri': '06:00-20:00', 'Thu': '06:00-20:00', 'Wed': '06:00-20:00', 'Sat': '07:00-19:00'}",+35340466201,S000379,A67 HT78,Maxol Service Station Rathnew,,https://stations.maxol.ie/
41 Annacloy Road BT309DQ Down,Down,GB,Maxol,"{'brand': 'Maxol', 'fascia': 'Maxol Service Station', 'category': 'Service Station', 'edit_date': '20250403', 'lat_lon_source': 'website'}",54.361615037450576,-5.764994751549843,"{'Fri': '06:15-20:00', 'Thu': '06:15-20:00', 'Wed': '06:15-20:00', 'Mon': '06:15-20:00', 'Sun': '07:00-20:00', 'Tue': '06:15-20:00', 'Sat': '06:15-20:00'}",+442844830220,N000007,BT309DQ,McGrath's Maxol Service Station,,https://stations.maxol.ie/
New Bridge Street BT306EY Down,Down,GB,Maxol,"{'brand': 'Maxol', 'fascia': 'Maxol Service Station', 'category': 'Service Station', 'edit_date': '20250403', 'lat_lon_source': 'website'}",54.333577,-5.716937,"{'Tue': '06:00-00:00', 'Sat': '06:00-00:00', 'Sun': '06:00-00:00', 'Fri': '06:00-00:00', 'Thu': '06:00-00:00', 'Wed': '06:00-00:00', 'Mon': '06:00-00:00'}",+442844616644,N000093,BT306EY,Maxol Service Station Downpatrick,,https://stations.maxol.ie/
124-126 Kingsway BT179NP Antrim,Antrim,GB,Maxol,"{'brand': 'Maxol', 'fascia': 'Maxol Service Station', 'category': 'Service Station', 'edit_date': '20250403', 'lat_lon_source': 'website'}",54.553,-5.99942,"{'Tue': '06:00-23:00', 'Sat': '06:00-23:00', 'Sun': '06:00-23:00', 'Fri': '06:00-23:00', 'Thu': '06:00-23:00', 'Wed': '06:00-23:00', 'Mon': '06:00-23:00'}",+442890301860,N000049,BT179NP,Maxol Auto24 Beechlawn,,https://stations.maxol.ie/
Ballon R93A2N6 Carlow,Carlow,IE,Maxol,"{'brand': 'Maxol', 'fascia': 'Maxol Service Station', 'category': 'Service Station', 'edit_date': '20250403', 'lat_lon_source': 'website'}",52.737176312256125,-6.767909734541906,"{'Tue': '06:30-22:00', 'Mon': '06:30-22:00', 'Sat': '07:00-22:00', 'Sun': '08:00-22:00', 'Fri': '06:30-22:00', 'Thu': '06:30-22:00', 'Wed': '06:30-22:00'}",+353599159847,S000383,R93A2N6,Zerafa's Maxol Service Station,,https://stations.maxol.ie/
7 Saintfield Road BT309HY Down,Down,GB,Maxol,"{'brand': 'Maxol', 'fascia': 'Maxol Service Station', 'category': 'Service Station', 'edit_date': '20250403', 'lat_lon_source': 'website'}",54.3988677,-5.7639064,"{'Tue': '06:00-00:00', 'Sat': '06:00-00:00', 'Sun': '06:00-00:00', 'Fri': '06:00-00:00', 'Thu': '06:00-00:00', 'Wed': '06:00-00:00', 'Mon': '06:00-00:00'}",+442844830572,N000153,BT309HY,Crossgar Maxol Service Station,,https://stations.maxol.ie/
Wicklow Town A67 WK07 Wicklow,Wicklow,IE,Maxol,"{'brand': 'Maxol', 'fascia': 'Maxol Service Station', 'category': 'Service Station', 'edit_date': '20250403', 'lat_lon_source': 'website'}",52.98143768,-6.04560947,"{'Tue': '06:00-23:00', 'Sat': '06:00-23:00', 'Fri': '06:00-23:00', 'Sun': '07:00-23:00', 'Thu': '06:00-23:00', 'Wed': '06:00-23:00', 'Mon': '06:00-23:00'}",,S000396,A67 WK07,Maxol Service Station Whitegate,,https://stations.maxol.ie/
11 Crossgar Road BT247AS Down,Down,GB,Maxol,"{'brand': 'Maxol', 'fascia': 'Maxol Service Station', 'category': 'Service Station', 'edit_date': '20250403', 'lat_lon_source': 'website'}",54.45986,-5.830758,"{'Sun': '06:00-22:30', 'Tue': '06:00-22:30', 'Sat': '06:00-22:30', 'Mon': '06:00-22:30', 'Fri': '06:00-22:30', 'Thu': '06:00-22:30', 'Wed': '06:00-22:30'}",+442897510443,N000015,BT247AS,Maxol Service Station Saintfield,,https://stations.maxol.ie/
5 Downpatrick Road BT307SF Down,Down,GB,Maxol,"{'brand': 'Maxol', 'fascia': 'Maxol Service Station', 'category': 'Service Station', 'edit_date': '20250403', 'lat_lon_source': 'website'}",54.26382285365811,-5.610521638755812,"{'Mon': '07:00-21:00', 'Fri': '07:00-21:00', 'Thu': '07:00-21:00', 'Wed': '07:00-21:00', 'Sat': '07:00-21:00', 'Tue': '07:00-21:00', 'Sun': '07:00-21:00'}",+442844842060,N000127,BT307SF,Ardglass Maxol Service Station,,https://stations.maxol.ie/
2-10 Andersonstown Road BT119AJ Belfast,Belfast,GB,Maxol,"{'brand': 'Maxol', 'fascia': 'Maxol Service Station', 'category': 'Service Station', 'edit_date': '20250403', 'lat_lon_source': 'website'}",54.574337,-5.985558,"{'Sat': '00:00-23:59', 'Tue': '00:00-23:59', 'Sun': '00:00-23:59', 'Fri': '00:00-23:59', 'Thu': '00:00-23:59', 'Wed': '00:00-23:59', 'Mon': '00:00-23:59'}",+442890506070,N000001,BT119AJ,Maxol Auto24 Andersonstown Road,,https://stations.maxol.ie/
60 Milltown Road BT84XP Down,Down,GB,Maxol,"{'brand': 'Maxol', 'fascia': 'Maxol Service Station', 'category': 'Service Station', 'edit_date': '20250403', 'lat_lon_source': 'website'}",54.54736399999999,-5.9376773,"{'Tue': '06:00-23:00', 'Sat': '06:00-23:00', 'Sun': '06:00-23:00', 'Fri': '06:00-23:00', 'Thu': '06:00-23:00', 'Wed': '06:00-23:00', 'Mon': '06:00-23:00'}",+442890641820,N000087,BT84XP,"Maxol Service Station Milltown Road, Belvoir",,https://stations.maxol.ie/
629 Saintfield Road BT88BS Antrim,Antrim,GB,Maxol,"{'brand': 'Maxol', 'fascia': 'Maxol Service Station', 'category': 'Service Station', 'edit_date': '20250403', 'lat_lon_source': 'website'}",54.520412,-5.887748,"{'Sat': '00:00-23:59', 'Tue': '00:00-23:59', 'Sun': '00:00-23:59', 'Fri': '00:00-23:59', 'Thu': '00:00-23:59', 'Wed': '00:00-23:59', 'Mon': '00:00-23:59'}",+442890506070,N000091,BT88BS,Maxol Auto 24 Carryduff,,https://stations.maxol.ie/
Irishtown R95CFT6 Kilkenny,Kilkenny,IE,Maxol,"{'brand': 'Maxol', 'fascia': 'Maxol Service Station', 'category': 'Service Station', 'edit_date': '20250403', 'lat_lon_source': 'website'}",52.65639872153383,-7.25587441372949,"{'Fri': '07:00-22:00', 'Thu': '07:00-22:00', 'Wed': '07:00-22:00', 'Mon': '07:00-22:00', 'Tue': '07:00-22:00', 'Sat': '07:00-22:00', 'Sun': '07:00-22:00'}",+353567761521,S000388,R95CFT6,Eivers Maxol Service Station,,https://stations.maxol.ie/
252 Tates Avenue BT126NB Belfast,Belfast,GB,Maxol,"{'brand': 'Maxol', 'fascia': 'Maxol Service Station', 'category': 'Service Station', 'edit_date': '20250403', 'lat_lon_source': 'website'}",54.585363,-5.957663,"{'Tue': '06:00-23:00', 'Sat': '06:00-23:00', 'Sun': '06:00-23:00', 'Fri': '06:00-23:00', 'Thu': '06:00-23:00', 'Wed': '06:00-23:00', 'Mon': '06:00-23:00'}",+442890238896,N000021,BT126NB,Maxol Service Station Tates Avenue,,https://stations.maxol.ie/
215 Castle Road BT412EB Antrim,Antrim,GB,Maxol,"{'brand': 'Maxol', 'fascia': 'Maxol Service Station', 'category': 'Service Station', 'edit_date': '20250403', 'lat_lon_source': 'website'}",54.745183901058354,-6.305706376052949,"{'Tue': '06:00-23:00', 'Sat': '06:00-23:00', 'Fri': '06:00-23:00', 'Sun': '07:00-23:00', 'Thu': '06:00-23:00', 'Wed': '06:00-23:00', 'Mon': '06:00-23:00'}",+442894473937,N000059,BT412EB,Hillview Maxol Service Station,,https://stations.maxol.ie/
Dublin Road R95HKD1 Kilkenny,Kilkenny,IE,Maxol,"{'brand': 'Maxol', 'fascia': 'Maxol Service Station', 'category': 'Service Station', 'edit_date': '20250403', 'lat_lon_source': 'website'}",52.6488002,-7.2260679,"{'Sun': '08:00-21:00', 'Tue': '06:00-22:00', 'Sat': '07:00-22:00', 'Fri': '06:00-22:00', 'Thu': '06:00-22:00', 'Wed': '06:00-22:00', 'Mon': '06:00-22:00'}",+353567712703,S000079,R95HKD1,Maxol Service Station Kilkenny,,https://stations.maxol.ie/
250 Donegall Road BT125NE Belfast,Belfast,GB,Maxol,"{'brand': 'Maxol', 'fascia': 'Maxol Service Station', 'category': 'Service Station', 'edit_date': '20250403', 'lat_lon_source': 'website'}",54.58873394046166,-5.947981808047113,"{'Tue': '06:00-23:00', 'Sat': '06:00-23:00', 'Sun': '06:00-23:00', 'Fri': '06:00-23:00', 'Thu': '06:00-23:00', 'Wed': '06:00-23:00', 'Mon': '06:00-23:00'}",+442890234434,N000161,BT125NE,Donegall Road Maxol Service Station,,https://stations.maxol.ie/
15 Ballymena Road BT414JG Antrim,Antrim,GB,Maxol,"{'brand': 'Maxol', 'fascia': 'Maxol Service Station', 'category': 'Service Station', 'edit_date': '20250403', 'lat_lon_source': 'website'}",54.7211,-6.22065,"{'Sun': '06:00-00:00', 'Tue': '05:00-00:00', 'Sat': '05:00-00:00', 'Fri': '05:00-00:00', 'Thu': '05:00-00:00', 'Wed': '05:00-00:00', 'Mon': '05:00-00:00'}",+442894429460,N000020,BT414JG,Maxol Service Station Townparks,,https://stations.maxol.ie/
298 Crumlin Road BT147EE Belfast,Belfast,GB,Maxol,"{'brand': 'Maxol', 'fascia': 'Maxol Service Station', 'category': 'Service Station', 'edit_date': '20250403', 'lat_lon_source': 'website'}",54.610963,-5.954372,"{'Tue': '06:00-00:00', 'Sat': '06:00-00:00', 'Sun': '06:00-00:00', 'Fri': '06:00-00:00', 'Thu': '06:00-00:00', 'Wed': '06:00-00:00', 'Mon': '06:00-00:00'}",+442890742724,N000004,BT147EE,Maxol Service Station Edenderry,,https://stations.maxol.ie/
772 Feeny Road BT474TB Londonderry,Londonderry,GB,Maxol,"{'brand': 'Maxol', 'fascia': 'Maxol Service Station', 'category': 'Service Station', 'edit_date': '20250403', 'lat_lon_source': 'website'}",54.91177282884879,-6.962768935136389,"{'Fri': '05:30-21:30', 'Thu': '05:30-21:30', 'Wed': '05:30-21:30', 'Sat': '06:00-21:30', 'Mon': '05:30-21:30', 'Tue': '05:30-21:30', 'Sun': '08:00-21:30'}",,N000175,BT474TB,"Derrychrier, Dungiven Maxol Service Station",,https://stations.maxol.ie/
4 Downpatrick Street BT309RG Down,Down,GB,Maxol,"{'brand': 'Maxol', 'fascia': 'Maxol Service Station', 'category': 'Service Station', 'edit_date': '20250403', 'lat_lon_source': 'website'}",54.39886783803341,-5.652176920332321,"{'Fri': '07:00-23:00', 'Thu': '07:00-23:00', 'Wed': '07:00-23:00', 'Mon': '07:00-23:00', 'Tue': '07:00-23:00', 'Sat': '07:00-23:00', 'Sun': '07:00-23:00'}",+442844828848,N000109,BT309RG,Killyleagh Maxol Service Station,,https://stations.maxol.ie/
187 Largy Road BT422RH Antrim,Antrim,GB,Maxol,"{'brand': 'Maxol', 'fascia': 'Maxol Service Station', 'category': 'Service Station', 'edit_date': '20250403', 'lat_lon_source': 'website'}",54.805313278640575,-6.39230276997528,"{'Fri': '06:30-21:00', 'Thu': '06:30-21:00', 'Wed': '06:30-21:00', 'Mon': '06:30-21:00', 'Tue': '06:30-21:00', 'Sun': '09:00-21:00', 'Sat': '07:30-21:00'}",+442879650245,N000112,BT422RH,Campbell's Maxol Service Station,,https://stations.maxol.ie/
62a Bridge End BT54AE Belfast,Belfast,GB,Maxol,"{'brand': 'Maxol', 'fascia': 'Maxol Service Station', 'category': 'Service Station', 'edit_date': '20250403', 'lat_lon_source': 'website'}",54.60012,-5.913599,"{'Sat': '00:00-23:59', 'Tue': '00:00-23:59', 'Sun': '00:00-23:59', 'Fri': '00:00-23:59', 'Thu': '00:00-23:59', 'Wed': '00:00-23:59', 'Mon': '00:00-23:59'}",+442890506070,N000055,BT54AE,Maxol Auto 24 Bridge End,,https://stations.maxol.ie/
328 Antrim Road BT155AB Belfast,Belfast,GB,Maxol,"{'brand': 'Maxol', 'fascia': 'Maxol Service Station', 'category': 'Service Station', 'edit_date': '20250403', 'lat_lon_source': 'website'}",54.6217,-5.938292,"{'Tue': '06:00-23:00', 'Sat': '06:00-23:00', 'Sun': '06:00-23:00', 'Fri': '06:00-23:00', 'Thu': '06:00-23:00', 'Wed': '06:00-23:00', 'Mon': '06:00-23:00'}",+442890747094,N000061,BT155AB,Maxol Service Station Antrim Rd,,https://stations.maxol.ie/
138 Victoria Road BT472RR Londonderry,Londonderry,GB,Maxol,"{'brand': 'Maxol', 'fascia': 'Maxol Service Station', 'category': 'Service Station', 'edit_date': '20250403', 'lat_lon_source': 'website'}",54.94055960813701,-7.384923104918277,"{'Sat': '06:00-22:00', 'Tue': '06:00-22:00', 'Sun': '07:00-22:00', 'Fri': '06:00-22:00', 'Thu': '06:00-22:00', 'Wed': '06:00-22:00', 'Mon': '06:00-22:00'}",+442871841603,N000034,BT472RR,Maghermason Maxol Service Station,,https://stations.maxol.ie/
452 Antrim Road BT155GB Belfast,Belfast,GB,Maxol,"{'brand': 'Maxol', 'fascia': 'Maxol Service Station', 'category': 'Service Station', 'edit_date': '20250403', 'lat_lon_source': 'website'}",54.626785,-5.938543,"{'Tue': '06:00-00:00', 'Sat': '06:00-00:00', 'Sun': '06:00-00:00', 'Fri': '06:00-00:00', 'Thu': '06:00-00:00', 'Wed': '06:00-00:00', 'Mon': '06:00-00:00'}",+442890770989,N000095,BT155GB,Maxol Service Station Fortwilliam,,https://stations.maxol.ie/
Lower Salthill H91P46X Galway,Galway,IE,Maxol,"{'brand': 'Maxol', 'fascia': 'Maxol Service Station', 'category': 'Service Station', 'edit_date': '20250403', 'lat_lon_source': 'website'}",53.2673445,-9.0664772,"{'Sun': '08:00-21:00', 'Mon': '07:00-21:00', 'Sat': '08:00-21:00', 'Fri': '07:00-21:00', 'Thu': '07:00-21:00', 'Wed': '07:00-21:00', 'Tue': '07:00-21:00'}",+35391589125,S000260,H91P46X,Maxol Service Station Whitestrand,,https://stations.maxol.ie/
Carnew Y14 DW95 Wicklow,Wicklow,IE,Maxol,"{'brand': 'Maxol', 'fascia': 'Maxol Service Station', 'category': 'Service Station', 'edit_date': '20250403', 'lat_lon_source': 'website'}",52.71478385,-6.51170455,"{'Sat': '06:00-22:00', 'Tue': '06:00-22:00', 'Sun': '06:00-22:00', 'Fri': '06:00-22:00', 'Thu': '06:00-22:00', 'Wed': '06:00-22:00', 'Mon': '06:00-22:00'}",+353539423751,S000393,Y14 DW95,Maxol Candys Carnew Service Station,,https://stations.maxol.ie/
Westside Shopping Centre H91F6CW Galway,Galway,IE,Maxol,"{'brand': 'Maxol', 'fascia': 'Maxol Service Station', 'category': 'Service Station', 'edit_date': '20250403', 'lat_lon_source': 'website'}",53.2756047,-9.0767279,"{'Sat': '00:00-23:59', 'Tue': '00:00-23:59', 'Sun': '00:00-23:59', 'Fri': '00:00-23:59', 'Thu': '00:00-23:59', 'Wed': '00:00-23:59', 'Mon': '00:00-23:59'}",+35316076800,S000213,H91F6CW,Maxol Auto24 Westside,,https://stations.maxol.ie/
119-125 Holywood Road BT43BE Belfast,Belfast,GB,Maxol,"{'brand': 'Maxol', 'fascia': 'Maxol Service Station', 'category': 'Service Station', 'edit_date': '20250403', 'lat_lon_source': 'website'}",54.600379,-5.880529,"{'Sat': '00:00-23:59', 'Tue': '00:00-23:59', 'Sun': '00:00-23:59', 'Fri': '00:00-23:59', 'Thu': '00:00-23:59', 'Wed': '00:00-23:59', 'Mon': '00:00-23:59'}",+442890506070,N000089,BT43BE,Maxol Auto24 Belmont,,https://stations.maxol.ie/
Spencer Park F23XR83 Mayo,Mayo,IE,Maxol,"{'brand': 'Maxol', 'fascia': 'Maxol Service Station', 'category': 'Service Station', 'edit_date': '20250403', 'lat_lon_source': 'website'}",53.8511096,-9.2928771,"{'Fri': '07:00-22:00', 'Thu': '07:00-22:00', 'Wed': '07:00-22:00', 'Mon': '07:00-22:00', 'Tue': '07:00-22:00', 'Sat': '07:30-22:00', 'Sun': '08:00-22:00'}",+353949026308,S000358,F23XR83,Maxol Service Station Station Road,,https://stations.maxol.ie/
42 Gilnahirk Road BT57DG Belfast,Belfast,GB,Maxol,"{'brand': 'Maxol', 'fascia': 'Maxol Service Station', 'category': 'Service Station', 'edit_date': '20250403', 'lat_lon_source': 'website'}",54.58841,-5.846973,"{'Fri': '07:00-23:00', 'Thu': '07:00-23:00', 'Wed': '07:00-23:00', 'Mon': '07:00-23:00', 'Tue': '07:00-23:00', 'Sat': '07:00-23:00', 'Sun': '07:00-23:00'}",+442890795464,N000092,BT57DG,Maxol Service Station Cherryvalley,,https://stations.maxol.ie/
157 Lisnevenagh Road BT412JU Antrim,Antrim,GB,Maxol,"{'brand': 'Maxol', 'fascia': 'Maxol Service Station', 'category': 'Service Station', 'edit_date': '20250403', 'lat_lon_source': 'website'}",54.78539455424497,-6.251758257319277,"{'Fri': '06:30-21:00', 'Thu': '06:30-21:00', 'Wed': '06:30-21:00', 'Mon': '06:30-21:00', 'Tue': '06:30-21:00', 'Sat': '06:30-21:00', 'Sun': '06:30-21:00'}",+442825446821,N000164,BT412JU,Maxol Service Station A26 Tannaghmore,,https://stations.maxol.ie/
48 Trench Road BT36 4TY Newtownabbey,Newtownabbey,GB,Maxol,"{'brand': 'Maxol', 'fascia': 'Maxol Service Station', 'category': 'Service Station', 'edit_date': '20250403', 'lat_lon_source': 'website'}",54.67980835956371,-6.000987843947501,"{'Sat': '00:00-23:59', 'Tue': '00:00-23:59', 'Sun': '00:00-23:59', 'Fri': '00:00-23:59', 'Thu': '00:00-23:59', 'Wed': '00:00-23:59', 'Mon': '00:00-23:59'}",+442890506070,7822859488307944402,BT36 4TY,Maxol Oil Limited and Maxol Fuelcard Services,,https://stations.maxol.ie/
45 Mallusk Road BT364PS Antrim,Antrim,GB,Maxol,"{'brand': 'Maxol', 'fascia': 'Maxol Service Station', 'category': 'Service Station', 'edit_date': '20250403', 'lat_lon_source': 'website'}",54.67693217634826,-5.992766457193499,"{'Tue': '06:00-23:00', 'Sat': '06:00-23:00', 'Sun': '06:00-23:00', 'Fri': '06:00-23:00', 'Thu': '06:00-23:00', 'Wed': '06:00-23:00', 'Mon': '06:00-23:00'}",+442890848568,N000105,BT364PS,Mallusk Maxol Service Station,,https://stations.maxol.ie/
492 Antrim Road BT368DB Antrim,Antrim,GB,Maxol,"{'brand': 'Maxol', 'fascia': 'Maxol Service Station', 'category': 'Service Station', 'edit_date': '20250403', 'lat_lon_source': 'website'}",54.676517,-5.971532,"{'Tue': '06:00-23:00', 'Sat': '06:00-23:00', 'Sun': '06:00-23:00', 'Fri': '06:00-23:00', 'Thu': '06:00-23:00', 'Wed': '06:00-23:00', 'Mon': '06:00-23:00'}",+442890832035,N000037,BT368DB,Maxol Service Station Glenabbey,,https://stations.maxol.ie/
719 Upper Newtownards Road BT043NU Belfast,Belfast,GB,Maxol,"{'brand': 'Maxol', 'fascia': 'Maxol Service Station', 'category': 'Service Station', 'edit_date': '20250403', 'lat_lon_source': 'website'}",54.5939,-5.82522,"{'Tue': '06:00-00:00', 'Sat': '06:00-00:00', 'Sun': '06:00-00:00', 'Fri': '06:00-00:00', 'Thu': '06:00-00:00', 'Wed': '06:00-00:00', 'Mon': '06:00-00:00'}",+442890485586,N000118,BT043NU,Maxol Service Station Rosepark,,https://stations.maxol.ie/
181 Shore Road BT379SL Antrim,Antrim,GB,Maxol,"{'brand': 'Maxol', 'fascia': 'Maxol Service Station', 'category': 'Service Station', 'edit_date': '20250403', 'lat_lon_source': 'website'}",54.653965,-5.91294,"{'Sat': '00:00-23:59', 'Tue': '00:00-23:59', 'Sun': '00:00-23:59', 'Fri': '00:00-23:59', 'Thu': '00:00-23:59', 'Wed': '00:00-23:59', 'Mon': '00:00-23:59'}",+442890506070,N000002,BT379SL,Maxol Auto 24 Whitehouse,,https://stations.maxol.ie/
91 High Street BT221QJ Down,Down,GB,Maxol,"{'brand': 'Maxol', 'fascia': 'Maxol Service Station', 'category': 'Service Station', 'edit_date': '20250403', 'lat_lon_source': 'website'}",54.38372211211863,-5.5416735501358545,"{'Sat': '06:00-22:00', 'Tue': '06:00-22:00', 'Fri': '06:00-22:00', 'Sun': '08:00-22:00', 'Thu': '06:00-22:00', 'Wed': '06:00-22:00', 'Mon': '06:00-22:00'}",+442842728840,N000108,BT221QJ,Watson's Maxol Service Station,,https://stations.maxol.ie/
756 Upper Newtownards Road BT161LA Belfast,Belfast,GB,Maxol,"{'brand': 'Maxol', 'fascia': 'Maxol Service Station', 'category': 'Service Station', 'edit_date': '20250403', 'lat_lon_source': 'website'}",54.59507184147232,-5.801214563092407,"{'Tue': '06:00-00:00', 'Sat': '06:00-00:00', 'Sun': '06:00-00:00', 'Fri': '06:00-00:00', 'Thu': '06:00-00:00', 'Wed': '06:00-00:00', 'Mon': '06:00-00:00'}",+442890483693,N000103,BT161LA,Newtownards Road Upper Maxol Service Station,,https://stations.maxol.ie/
69 Belfast Road BT189ES Down,Down,GB,Maxol,"{'brand': 'Maxol', 'fascia': 'Maxol Service Station', 'category': 'Service Station', 'edit_date': '20250403', 'lat_lon_source': 'website'}",54.63289919821263,-5.846612395929435,"{'Tue': '06:00-23:00', 'Sat': '06:00-23:00', 'Sun': '06:00-23:00', 'Fri': '06:00-23:00', 'Thu': '06:00-23:00', 'Wed': '06:00-23:00', 'Mon': '06:00-23:00'}",+442890428833,N000098,BT189ES,Maxol Service Station Kinnegar,,https://stations.maxol.ie/
10 Ferniskey Road BT423JP Antrim,Antrim,GB,Maxol,"{'brand': 'Maxol', 'fascia': 'Maxol Service Station', 'category': 'Service Station', 'edit_date': '20250403', 'lat_lon_source': 'website'}",54.80750722741052,-6.220922894956438,"{'Sun': '08:00-21:00', 'Fri': '07:00-22:00', 'Thu': '07:00-22:00', 'Wed': '07:00-22:00', 'Mon': '07:00-22:00', 'Tue': '07:00-22:00', 'Sat': '07:00-21:00'}",+442825891577,N000050,BT423JP,McCosh's Maxol Service Station,,https://stations.maxol.ie/
284 Galgorm Road BT421JU Ballymena,Ballymena,GB,Maxol,"{'brand': 'Maxol', 'fascia': 'Maxol Service Station', 'category': 'Service Station', 'edit_date': '20250403', 'lat_lon_source': 'website'}",54.85204901206459,-6.353170715340752,"{'Fri': '07:00-23:00', 'Thu': '07:00-23:00', 'Wed': '07:00-23:00', 'Mon': '07:00-23:00', 'Tue': '07:00-23:00', 'Sat': '07:00-23:00', 'Sun': '07:00-22:00'}",+442825881451,N000113,BT421JU,Ahoghill Maxol Service Station,,https://stations.maxol.ie/
119 Manse Road BT366SN Antrim,Antrim,GB,Maxol,"{'brand': 'Maxol', 'fascia': 'Maxol Service Station', 'category': 'Service Station', 'edit_date': '20250403', 'lat_lon_source': 'website'}",54.691881781663085,-5.944898501265221,"{'Tue': '06:00-00:00', 'Sat': '06:00-00:00', 'Sun': '06:00-00:00', 'Fri': '06:00-00:00', 'Thu': '06:00-00:00', 'Wed': '06:00-00:00', 'Mon': '06:00-00:00'}",+442890835957,N000170,BT366SN,Manse Road Maxol Service Station,,https://stations.maxol.ie/
448 Shore Road BT370AA Antrim,Antrim,GB,Maxol,"{'brand': 'Maxol', 'fascia': 'Maxol Service Station', 'category': 'Service Station', 'edit_date': '20250403', 'lat_lon_source': 'website'}",54.67137331127566,-5.900927333424728,"{'Sat': '00:00-23:59', 'Tue': '00:00-23:59', 'Sun': '00:00-23:59', 'Fri': '00:00-23:59', 'Thu': '00:00-23:59', 'Wed': '00:00-23:59', 'Mon': '00:00-23:59'}",+442890506070,N000097,BT370AA,Maxol Auto 24 Hazelbank,,https://stations.maxol.ie/
1 Rossdowney Park BT47 5NR Londonderry,Londonderry,GB,Maxol,"{'brand': 'Maxol', 'fascia': 'Maxol Service Station', 'category': 'Service Station', 'edit_date': '20250403', 'lat_lon_source': 'website'}",54.99381569529784,-7.302646760455886,"{'Tue': '06:00-00:00', 'Sat': '06:00-00:00', 'Sun': '06:00-00:00', 'Fri': '06:00-00:00', 'Thu': '06:00-00:00', 'Wed': '06:00-00:00', 'Mon': '06:00-00:00'}",+442871341310,N000176,BT47 5NR,Maxol Service Station Rossdowney,,https://stations.maxol.ie/
29 Glendermott Road BT471BG Londonderry,Londonderry,GB,Maxol,"{'brand': 'Maxol', 'fascia': 'Maxol Service Station', 'category': 'Service Station', 'edit_date': '20250403', 'lat_lon_source': 'website'}",54.9948,-7.30601,"{'Fri': '07:00-23:00', 'Thu': '07:00-23:00', 'Wed': '07:00-23:00', 'Mon': '07:00-23:00', 'Tue': '07:00-23:00', 'Sat': '07:00-23:00', 'Sun': '07:00-23:00'}",+442890506070,N000158,BT471BG,Maxol Auto24 Glendermott Road,,https://stations.maxol.ie/
124 Monkstown Road BT370LE Antrim,Antrim,GB,Maxol,"{'brand': 'Maxol', 'fascia': 'Maxol Service Station', 'category': 'Service Station', 'edit_date': '20250403', 'lat_lon_source': 'website'}",54.692387,-5.918762,"{'Mon': '06:00-21:00', 'Fri': '06:00-21:00', 'Thu': '06:00-21:00', 'Wed': '06:00-21:00', 'Sat': '07:00-21:00', 'Sun': '07:30-21:00', 'Tue': '06:00-21:00'}",+442890860876,N000019,BT370LE,Maxol Service Station Monkstown Road,,https://stations.maxol.ie/
91 Templepatrick Road BT399RQ Antrim,Antrim,GB,Maxol,"{'brand': 'Maxol', 'fascia': 'Maxol Service Station', 'category': 'Service Station', 'edit_date': '20250403', 'lat_lon_source': 'website'}",54.742703398431956,-6.007734411996641,"{'Tue': '06:00-00:00', 'Sat': '06:00-00:00', 'Sun': '06:00-00:00', 'Fri': '06:00-00:00', 'Thu': '06:00-00:00', 'Wed': '06:00-00:00', 'Mon': '06:00-00:00'}",+442893352063,N000102,BT399RQ,Ballyclare Maxol Service Station,,https://stations.maxol.ie/
94-100 Bangor Road BT180LR Down,Down,GB,Maxol,"{'brand': 'Maxol', 'fascia': 'Maxol Service Station', 'category': 'Service Station', 'edit_date': '20250403', 'lat_lon_source': 'website'}",54.646165,-5.816207,"{'Fri': '07:00-22:00', 'Thu': '07:00-22:00', 'Wed': '07:00-22:00', 'Mon': '07:00-22:00', 'Tue': '07:00-22:00', 'Sat': '07:00-22:00', 'Sun': '07:00-22:00'}",+442890393940,N000144,BT180LR,Maxol Service Station Marino,,https://stations.maxol.ie/
14 Antrim Road BT422BJ Antrim,Antrim,GB,Maxol,"{'brand': 'Maxol', 'fascia': 'Maxol Service Station', 'category': 'Service Station', 'edit_date': '20250403', 'lat_lon_source': 'website'}",54.854214404174094,-6.275580415205999,"{'Sat': '05:00-22:00', 'Tue': '05:00-22:00', 'Sun': '06:00-22:00', 'Fri': '05:00-22:00', 'Thu': '05:00-22:00', 'Wed': '05:00-22:00', 'Mon': '05:00-22:00'}",+442825656842,N000143,BT422BJ,The Phoenix Maxol Service Station,,https://stations.maxol.ie/
Arklow Road Y25T8Y7 Gorey,Gorey,IE,Maxol,"{'brand': 'Maxol', 'fascia': 'Maxol Service Station', 'category': 'Service Station', 'edit_date': '20250403', 'lat_lon_source': 'website'}",52.7170499,-6.2537643,"{'Sat': '00:00-23:59', 'Tue': '00:00-23:59', 'Sun': '00:00-23:59', 'Fri': '00:00-23:59', 'Thu': '00:00-23:59', 'Wed': '00:00-23:59', 'Mon': '00:00-23:59'}",+353539484676,S000400,Y25T8Y7,Maxol Service Station Arklow Road,,https://stations.maxol.ie/
4 Dreen Road BT421EB Antrim,Antrim,GB,Maxol,"{'brand': 'Maxol', 'fascia': 'Maxol Service Station', 'category': 'Service Station', 'edit_date': '20250403', 'lat_lon_source': 'website'}",54.88837285740237,-6.3578852116920865,"{'Tue': '06:00-00:00', 'Sat': '06:00-00:00', 'Sun': '06:00-00:00', 'Fri': '06:00-00:00', 'Thu': '06:00-00:00', 'Wed': '06:00-00:00', 'Mon': '06:00-00:00'}",+442825880678,N000117,BT421EB,"Bridge, Cullybackey Maxol Service Station",,https://stations.maxol.ie/
10 North Road BT435DA Ballymena,Ballymena,GB,Maxol,"{'brand': 'Maxol', 'fascia': 'Maxol Service Station', 'category': 'Service Station', 'edit_date': '20250403', 'lat_lon_source': 'website'}",54.865814,-6.281218,"{'Sat': '00:00-23:59', 'Tue': '00:00-23:59', 'Sun': '00:00-23:59', 'Fri': '00:00-23:59', 'Thu': '00:00-23:59', 'Wed': '00:00-23:59', 'Mon': '00:00-23:59'}",+442825651162,N000090,BT435DA,Maxol Service Station Braid River,,https://stations.maxol.ie/
107-117 Frances Street BT233DX Down,Down,GB,Maxol,"{'brand': 'Maxol', 'fascia': 'Maxol Service Station', 'category': 'Service Station', 'edit_date': '20250403', 'lat_lon_source': 'website'}",54.593152381643975,-5.689014756132735,"{'Mon': '05:00-23:00', 'Fri': '05:00-23:00', 'Thu': '05:00-23:00', 'Wed': '05:00-23:00', 'Sun': '05:00-23:00', 'Sat': '05:00-23:00', 'Tue': '05:00-23:00'}",+442891812997,N000078,BT233DX,Kydd's Maxol Service Station,,https://stations.maxol.ie/
40 Doury Road BT436JA Antrim,Antrim,GB,Maxol,"{'brand': 'Maxol', 'fascia': 'Maxol Service Station', 'category': 'Service Station', 'edit_date': '20250403', 'lat_lon_source': 'website'}",54.87500660091725,-6.2800419205609765,"{'Fri': '07:00-23:00', 'Thu': '07:00-23:00', 'Wed': '07:00-23:00', 'Mon': '07:00-23:00', 'Tue': '07:00-23:00', 'Sat': '07:00-23:00', 'Sun': '07:00-23:00'}",+442825656815,N000136,BT436JA,Doury Road Maxol Service Station,,https://stations.maxol.ie/
26 Garvagh Road BT515QP Londonderry,Londonderry,GB,Maxol,"{'brand': 'Maxol', 'fascia': 'Maxol Service Station', 'category': 'Service Station', 'edit_date': '20250403', 'lat_lon_source': 'website'}",54.95279110238937,-6.56386351414282,"{'Fri': '06:30-22:30', 'Thu': '06:30-22:30', 'Wed': '06:30-22:30', 'Mon': '06:30-22:30', 'Sat': '06:30-22:30', 'Tue': '06:30-22:30', 'Sun': '06:30-22:30'}",+442829540406,N000005,BT515QP,Kilrea Maxol Sevice Station,,https://stations.maxol.ie/
Coolafinny Road BT473PG Londonderry,Londonderry,GB,Maxol,"{'brand': 'Maxol', 'fascia': 'Maxol Service Station', 'category': 'Service Station', 'edit_date': '20250403', 'lat_lon_source': 'website'}",55.027724,-7.178267,"{'Sat': '06:00-22:00', 'Tue': '06:00-22:00', 'Sun': '06:00-22:00', 'Fri': '06:00-22:00', 'Thu': '06:00-22:00', 'Wed': '06:00-22:00', 'Mon': '06:00-22:00'}",+442871813510,N000157,BT473PG,Maxol Service Station Eglinton,,https://stations.maxol.ie/
141 Main Street BT515AB Londonderry,Londonderry,GB,Maxol,"{'brand': 'Maxol', 'fascia': 'Maxol Service Station', 'category': 'Service Station', 'edit_date': '20250403', 'lat_lon_source': 'website'}",54.98094734519516,-6.68796821608435,"{'Fri': '08:00-20:00', 'Thu': '08:00-20:00', 'Wed': '08:00-20:00', 'Mon': '08:00-20:00', 'Sun': 'Closed', 'Tue': '08:00-20:00', 'Sat': '08:00-20:00'}",+442829558385,N000053,BT515AB,Connor's Maxol Service Station,,https://stations.maxol.ie/
Bohillion F93XDP8 Donegal,Donegal,IE,Maxol,"{'brand': 'Maxol', 'fascia': 'Maxol Service Station', 'category': 'Service Station', 'edit_date': '20250403', 'lat_lon_source': 'website'}",55.0317928,-7.4541194,"{'Sun': '09:00-20:00', 'Mon': '07:00-21:00', 'Fri': '07:00-21:00', 'Thu': '07:00-21:00', 'Wed': '07:00-21:00', 'Sat': '07:00-21:00', 'Tue': '07:00-21:00'}",+353749108801,S000181,F93XDP8,Callaghan's Maxol Service Station,,https://stations.maxol.ie/
136 Donaghadee Road BT237QR Down,Down,GB,Maxol,"{'brand': 'Maxol', 'fascia': 'Maxol Service Station', 'category': 'Service Station', 'edit_date': '20250403', 'lat_lon_source': 'website'}",54.60160150998847,-5.676587992556478,"{'Fri': '07:00-23:00', 'Thu': '07:00-23:00', 'Wed': '07:00-23:00', 'Mon': '07:00-23:00', 'Tue': '07:00-23:00', 'Sat': '07:00-23:00', 'Sun': '07:00-23:00'}",+442891827042,N000133,BT237QR,Donaghadee Maxol Service Station,,https://stations.maxol.ie/
Dublin Road Y25R6D7 Wexford,Wexford,IE,Maxol,"{'brand': 'Maxol', 'fascia': 'Maxol Service Station', 'category': 'Service Station', 'edit_date': '20250403', 'lat_lon_source': 'website'}",52.678076,-6.2892695,"{'Fri': '07:00-22:00', 'Thu': '07:00-22:00', 'Wed': '07:00-22:00', 'Mon': '07:00-22:00', 'Tue': '07:00-22:00', 'Sat': '07:00-22:00', 'Sun': '07:30-22:00'}",+353539421158,S000159,Y25R6D7,Maxol Service Station Gorey,,https://stations.maxol.ie/
"3 Larne Road, Ballynure BT399UA Ballynure",Ballynure,GB,Maxol,"{'brand': 'Maxol', 'fascia': 'Maxol Service Station', 'category': 'Service Station', 'edit_date': '20250403', 'lat_lon_source': 'website'}",54.7743,-5.95086,"{'Tue': '06:30-22:00', 'Sat': '06:30-22:00', 'Sun': '06:30-22:00', 'Mon': '06:30-22:00', 'Fri': '06:30-22:00', 'Thu': '06:30-22:00', 'Wed': '06:30-22:00'}",+442893349335,N000062,BT399UA,Johnston's Maxol Service Station,,https://stations.maxol.ie/
90 Ballyrobert Road BT191JS Down,Down,GB,Maxol,"{'brand': 'Maxol', 'fascia': 'Maxol Service Station', 'category': 'Service Station', 'edit_date': '20250403', 'lat_lon_source': 'website'}",54.659177215591264,-5.729684940639747,"{'Mon': '07:00-21:00', 'Fri': '07:00-22:00', 'Thu': '07:00-22:00', 'Wed': '07:00-21:00', 'Sat': '07:00-22:00', 'Tue': '07:00-21:00', 'Sun': '07:00-21:00'}",+442891852363,N000166,BT191JS,Crawfordsburn Maxol Service Station,,https://stations.maxol.ie/
11 Raceview Road BT424JL Antrim,Antrim,GB,Maxol,"{'brand': 'Maxol', 'fascia': 'Maxol Service Station', 'category': 'Service Station', 'edit_date': '20250403', 'lat_lon_source': 'website'}",54.8918042162819,-6.213421177733444,"{'Tue': '06:00-23:00', 'Sat': '06:00-23:00', 'Sun': '06:00-23:00', 'Fri': '06:00-23:00', 'Thu': '06:00-23:00', 'Wed': '06:00-23:00', 'Mon': '06:00-23:00'}",+442825862458,N000162,BT424JL,Broughshane Maxol Service Station,,https://stations.maxol.ie/
Daly's Cross V94VCF5 Limerick,Limerick,IE,Maxol,"{'brand': 'Maxol', 'fascia': 'Maxol Service Station', 'category': 'Service Station', 'edit_date': '20250403', 'lat_lon_source': 'website'}",52.709551063689624,-8.490142708436332,"{'Fri': '07:00-22:00', 'Thu': '07:00-22:00', 'Wed': '07:00-22:00', 'Sun': '08:30-21:00', 'Mon': '07:00-22:00', 'Sat': '08:00-22:00', 'Tue': '07:00-22:00'}",+35361377274,S000014,V94VCF5,Lee's Maxol Service Station,,https://stations.maxol.ie/
59-61 Harbour Road BT221EA Down,Down,GB,Maxol,"{'brand': 'Maxol', 'fascia': 'Maxol Service Station', 'category': 'Service Station', 'edit_date': '20250403', 'lat_lon_source': 'website'}",54.45797192450177,-5.440597039535997,"{'Fri': '07:00-23:00', 'Thu': '07:00-23:00', 'Wed': '07:00-23:00', 'Mon': '07:00-23:00', 'Tue': '07:00-23:00', 'Sat': '07:00-23:00', 'Sun': '07:00-23:00'}",+442842771943,N000123,BT221EA,Kydd's Maxol Service Station,,https://stations.maxol.ie/
Main Street F93AEY5 Donegal,Donegal,IE,Maxol,"{'brand': 'Maxol', 'fascia': 'Maxol Service Station', 'category': 'Service Station', 'edit_date': '20250403', 'lat_lon_source': 'website'}",55.0669928,-7.2697005,"{'Tue': '06:45-22:00', 'Sat': '07:00-22:00', 'Fri': '06:45-22:00', 'Sun': '07:00-22:00', 'Thu': '06:45-22:00', 'Wed': '06:45-22:00', 'Mon': '06:45-22:00'}",+353749384050,S000165,F93AEY5,McGonigle's Maxol Service Station,,https://stations.maxol.ie/
137-141 Byransburn Road BT203RQ Down,Down,GB,Maxol,"{'brand': 'Maxol', 'fascia': 'Maxol Service Station', 'category': 'Service Station', 'edit_date': '20250403', 'lat_lon_source': 'website'}",54.66004,-5.690315,"{'Fri': '07:00-22:00', 'Thu': '07:00-22:00', 'Wed': '07:00-22:00', 'Mon': '07:00-22:00', 'Tue': '07:00-22:00', 'Sat': '07:00-22:00', 'Sun': '07:00-22:00'}",+442891463796,N000068,BT203RQ,Maxol Service Station Bryansburn Road,,https://stations.maxol.ie/
71-79 Newtownards Road BT204DW Down,Down,GB,Maxol,"{'brand': 'Maxol', 'fascia': 'Maxol Service Station', 'category': 'Service Station', 'edit_date': '20250403', 'lat_lon_source': 'website'}",54.65107498302191,-5.67507078453632,"{'Tue': '06:00-00:00', 'Sat': '06:00-00:00', 'Sun': '06:00-00:00', 'Fri': '06:00-00:00', 'Thu': '06:00-00:00', 'Wed': '06:00-00:00', 'Mon': '06:00-00:00'}",+442891274229,N000134,BT204DW,Abbeyhill  Maxol Service Station,,https://stations.maxol.ie/
42 Main Street BT222HW Down,Down,GB,Maxol,"{'brand': 'Maxol', 'fascia': 'Maxol Service Station', 'category': 'Service Station', 'edit_date': '20250403', 'lat_lon_source': 'website'}",54.57534044666332,-5.5564349375847755,"{'Fri': '07:00-23:00', 'Thu': '07:00-23:00', 'Wed': '07:00-23:00', 'Mon': '07:00-23:00', 'Tue': '07:00-23:00', 'Sat': '07:00-23:00', 'Sun': '07:00-23:00'}",+442891862444,N000135,BT222HW,Carrowdore Maxol Service Station,,https://stations.maxol.ie/
2 Ballyholme Road BT205JJ Down,Down,GB,Maxol,"{'brand': 'Maxol', 'fascia': 'Maxol Service Station', 'category': 'Service Station', 'edit_date': '20250403', 'lat_lon_source': 'website'}",54.6633,-5.66067,"{'Tue': '06:00-00:00', 'Sat': '06:00-00:00', 'Sun': '06:00-00:00', 'Fri': '06:00-00:00', 'Thu': '06:00-00:00', 'Wed': '06:00-00:00', 'Mon': '06:00-00:00'}",+442891859291,N000084,BT205JJ,Maxol Service Station Ballyholme,,https://stations.maxol.ie/
Newport Road Ashlawn F28DX90 Mayo,Mayo,IE,Maxol,"{'brand': 'Maxol', 'fascia': 'Maxol Service Station', 'category': 'Service Station', 'edit_date': '20250403', 'lat_lon_source': 'website'}",53.8019339,-9.5205481,"{'Fri': '07:00-23:00', 'Thu': '07:00-23:00', 'Wed': '07:00-23:00', 'Mon': '07:00-23:00', 'Tue': '07:00-23:00', 'Sat': '07:00-23:00', 'Sun': '08:00-23:00'}",+3539850796,S000274,F28DX90,Maxol Service Station Newport Road,,https://stations.maxol.ie/
405-409 Cushendall Road BT43 6QE Antrim,Antrim,GB,Maxol,"{'brand': 'Maxol', 'fascia': 'Maxol Service Station', 'category': 'Service Station', 'edit_date': '20250403', 'lat_lon_source': 'website'}",54.942556971153415,-6.2512839332892645,"{'Mon': '06:30-21:00', 'Fri': '06:00-21:00', 'Thu': '06:00-21:00', 'Wed': '06:00-21:00', 'Sun': '06:00-21:00', 'Sat': '06:00-21:00', 'Tue': '06:00-21:00'}",+442821759849,N000165,BT43 6QE,Donnelly's  Maxol Service Station,,https://stations.maxol.ie/
Millisle BT222DR Down,Down,GB,Maxol,"{'brand': 'Maxol', 'fascia': 'Maxol Service Station', 'category': 'Service Station', 'edit_date': '20250403', 'lat_lon_source': 'website'}",54.608192,-5.5329993,"{'Fri': '07:00-23:00', 'Thu': '07:00-23:00', 'Wed': '07:00-23:00', 'Mon': '07:00-23:00', 'Tue': '07:00-23:00', 'Sat': '07:00-23:00', 'Sun': '07:00-23:00'}",+442891863575,N000172,BT222DR,Moss Road Maxol Service Station,,https://stations.maxol.ie/
Dublin Road V94621F Limerick,Limerick,IE,Maxol,"{'brand': 'Maxol', 'fascia': 'Maxol Service Station', 'category': 'Service Station', 'edit_date': '20250403', 'lat_lon_source': 'website'}",52.6674219,-8.5523652,"{'Sat': '00:00-23:59', 'Tue': '00:00-23:59', 'Sun': '00:00-23:59', 'Fri': '00:00-23:59', 'Thu': '00:00-23:59', 'Wed': '00:00-23:59', 'Mon': '00:00-23:59'}",+35361335819,S000349,V94621F,Maxol Service Station Castletroy,,https://stations.maxol.ie/
28 New Road BT210DU Down,Down,GB,Maxol,"{'brand': 'Maxol', 'fascia': 'Maxol Service Station', 'category': 'Service Station', 'edit_date': '20250403', 'lat_lon_source': 'website'}",54.644753,-5.547082,"{'Fri': '07:00-23:00', 'Thu': '07:00-23:00', 'Wed': '07:00-23:00', 'Mon': '07:00-23:00', 'Tue': '07:00-23:00', 'Sat': '07:00-23:00', 'Sun': '07:00-23:00'}",+442891888966,N000080,BT210DU,Maxol Service Station Hightrees,,https://stations.maxol.ie/
Bellefield Rd Y21FK61 Wexford,Wexford,IE,Maxol,"{'brand': 'Maxol', 'fascia': 'Maxol Service Station', 'category': 'Service Station', 'edit_date': '20250403', 'lat_lon_source': 'website'}",52.5056084255958,-6.580106244620542,"{'Fri': '08:00-20:00', 'Thu': '08:00-20:00', 'Wed': '08:00-20:00', 'Mon': '08:00-20:00', 'Tue': '08:00-20:00', 'Sat': '08:00-20:00', 'Sun': '08:00-19:00'}",+353539137118,S000385,Y21FK61,Hammel's Maxol Service Station,,https://stations.maxol.ie/
Bellefield Road Y21K2V9 Wexford,Wexford,IE,Maxol,"{'brand': 'Maxol', 'fascia': 'Maxol Service Station', 'category': 'Service Station', 'edit_date': '20250403', 'lat_lon_source': 'website'}",52.505471,-6.5802477,"{'Fri': '07:00-23:00', 'Thu': '07:00-23:00', 'Wed': '07:00-23:00', 'Mon': '07:00-23:00', 'Tue': '07:00-23:00', 'Sat': '07:00-23:00', 'Sun': '07:00-23:00'}",+353539236948,S000038,Y21K2V9,Maxol Service Station Enniscorthy,,https://stations.maxol.ie/
Dublin Road V9489V9 Limerick,Limerick,IE,Maxol,"{'brand': 'Maxol', 'fascia': 'Maxol Service Station', 'category': 'Service Station', 'edit_date': '20250403', 'lat_lon_source': 'website'}",52.665141,-8.582335,"{'Sat': '00:00-23:59', 'Tue': '00:00-23:59', 'Sun': '00:00-23:59', 'Fri': '00:00-23:59', 'Thu': '00:00-23:59', 'Wed': '00:00-23:59', 'Mon': '00:00-23:59'}",+35361330798,S000150,V9489V9,Maxol Service Station Singland,,https://stations.maxol.ie/
Garryowen V94PH4X Limerick,Limerick,IE,Maxol,"{'brand': 'Maxol', 'fascia': 'Maxol Service Station', 'category': 'Service Station', 'edit_date': '20250403', 'lat_lon_source': 'website'}",52.664337,-8.6013111,"{'Sun': '08:00-21:00', 'Fri': '07:00-22:00', 'Thu': '07:00-22:00', 'Wed': '07:00-22:00', 'Mon': '07:00-22:00', 'Tue': '07:00-22:00', 'Sat': '07:30-21:00'}",+35361414305,S000136,V94PH4X,Maxol Service Station Garryowen,,https://stations.maxol.ie/
Maxol Dromkeen V94VY97 Limerick,Limerick,IE,Maxol,"{'brand': 'Maxol', 'fascia': 'Maxol Service Station', 'category': 'Service Station', 'edit_date': '20250403', 'lat_lon_source': 'website'}",52.58275282052711,-8.387679752041384,"{'Sun': '09:00-20:00', 'Tue': '06:00-20:00', 'Mon': '06:00-20:00', 'Sat': '08:00-20:00', 'Fri': '06:00-20:00', 'Thu': '06:00-20:00', 'Wed': '06:00-20:00'}",+35361388386,S000292,V94VY97,Dromkeen Maxol Service Station,,https://stations.maxol.ie/
Wells Y25X6C5 Wexford,Wexford,IE,Maxol,"{'brand': 'Maxol', 'fascia': 'Maxol Service Station', 'category': 'Service Station', 'edit_date': '20250403', 'lat_lon_source': 'website'}",52.537561711372064,-6.348174493199849,"{'Tue': '06:00-20:00', 'Sun': '08:00-20:00', 'Mon': '06:00-20:00', 'Sat': '08:00-20:00', 'Fri': '06:00-20:00', 'Thu': '06:00-20:00', 'Wed': '06:00-20:00'}",+353539136237,S000259,Y25X6C5,Downes's Maxol Service Station,,https://stations.maxol.ie/
Ennis V95F98V Clare,Clare,IE,Maxol,"{'brand': 'Maxol', 'fascia': 'Maxol Service Station', 'category': 'Service Station', 'edit_date': '20250403', 'lat_lon_source': 'website'}",52.84106,-8.98377,"{'Fri': '07:00-22:00', 'Thu': '07:00-22:00', 'Wed': '07:00-22:00', 'Mon': '07:00-22:00', 'Tue': '07:00-22:00', 'Sat': '07:00-22:00', 'Sun': '08:00-22:00'}",+353656824313,S000384,V95F98V,O'Keeffe's Maxol Service Station,,https://stations.maxol.ie/
6-8 Ballybogey Road BT536QD Antrim,Antrim,GB,Maxol,"{'brand': 'Maxol', 'fascia': 'Maxol Service Station', 'category': 'Service Station', 'edit_date': '20250403', 'lat_lon_source': 'website'}",55.080048415276146,-6.5249748288981575,"{'Tue': '06:00-00:00', 'Sat': '06:00-00:00', 'Sun': '06:00-00:00', 'Fri': '06:00-00:00', 'Thu': '06:00-00:00', 'Wed': '06:00-00:00', 'Mon': '06:00-00:00'}",+442827664761,N000129,BT536QD,Ballymoney Maxol Service Station,,https://stations.maxol.ie/
Clareabbey V95T25F Clare,Clare,IE,Maxol,"{'brand': 'Maxol', 'fascia': 'Maxol Service Station', 'category': 'Service Station', 'edit_date': '20250403', 'lat_lon_source': 'website'}",52.8240919,-8.9773152,"{'Tue': '06:30-22:00', 'Sat': '06:30-22:00', 'Mon': '06:30-22:00', 'Sun': '07:00-22:00', 'Fri': '06:30-22:00', 'Thu': '06:30-22:00', 'Wed': '06:30-22:00'}",+353656840843,S000268,V95T25F,Maxol Service Station Clarecastle,,https://stations.maxol.ie/
174 Old Glenarm Road BT401TS Antrim,Antrim,GB,Maxol,"{'brand': 'Maxol', 'fascia': 'Maxol Service Station', 'category': 'Service Station', 'edit_date': '20250403', 'lat_lon_source': 'website'}",54.863417271718575,-5.819607818869407,"{'Tue': '06:00-00:00', 'Sat': '06:00-00:00', 'Sun': '06:00-00:00', 'Fri': '06:00-00:00', 'Thu': '06:00-00:00', 'Wed': '06:00-00:00', 'Mon': '06:00-00:00'}",+442828268124,N000124,BT401TS,Viking Lodge Maxol Service Station,,https://stations.maxol.ie/
Knocklynn Road BT521WT Londonderry,Londonderry,GB,Maxol,"{'brand': 'Maxol', 'fascia': 'Maxol Service Station', 'category': 'Service Station', 'edit_date': '20250403', 'lat_lon_source': 'website'}",55.11594055437537,-6.6394956735271515,"{'Sun': '06:30-23:00', 'Sat': '06:30-23:00', 'Tue': '06:30-23:00', 'Fri': '06:30-23:00', 'Thu': '06:30-23:00', 'Wed': '06:30-23:00', 'Mon': '06:30-23:00'}",+442870358560,N000137,BT521WT,Knocklynn Maxol Service Station,,https://stations.maxol.ie/
"Unit 2, 1-11 Castlerock Road BT513HP Londonderry",Londonderry,GB,Maxol,"{'brand': 'Maxol', 'fascia': 'Maxol Service Station', 'category': 'Service Station', 'edit_date': '20250403', 'lat_lon_source': 'website'}",55.1324,-6.67858,"{'Tue': '06:00-00:00', 'Sat': '06:00-00:00', 'Sun': '06:00-00:00', 'Fri': '06:00-00:00', 'Thu': '06:00-00:00', 'Wed': '06:00-00:00', 'Mon': '06:00-00:00'}",+442870327892,N000149,BT513HP,Castlerock Road Maxol Service Station,,https://stations.maxol.ie/
Father Matthew Street E34ET27 Tipperary,Tipperary,IE,Maxol,"{'brand': 'Maxol', 'fascia': 'Maxol Service Station', 'category': 'Service Station', 'edit_date': '20250403', 'lat_lon_source': 'website'}",52.4744129,-8.1543966,"{'Fri': '07:00-20:00', 'Thu': '07:00-20:00', 'Wed': '07:00-20:00', 'Mon': '07:00-20:00', 'Sun': '08:00-20:00', 'Sat': '07:00-20:00', 'Tue': '07:00-20:00'}",+3536231000,S000207,E34ET27,Maxol Service Station Tipperary,,https://stations.maxol.ie/
St Nessans Road V94FF6F Limerick,Limerick,IE,Maxol,"{'brand': 'Maxol', 'fascia': 'Maxol Service Station', 'category': 'Service Station', 'edit_date': '20250403', 'lat_lon_source': 'website'}",52.6330269,-8.6564541,"{'Tue': '06:30-22:00', 'Sat': '06:30-22:00', 'Sun': '06:30-22:00', 'Mon': '06:30-22:00', 'Fri': '06:30-22:00', 'Thu': '06:30-22:00', 'Wed': '06:30-22:00'}",+35361307633,S000243,V94FF6F,Maxol Service Station Dooradoyle,,https://stations.maxol.ie/
170  Mussenden  Road BT514TX Londonderry,Londonderry,GB,Maxol,"{'brand': 'Maxol', 'fascia': 'Maxol Service Station', 'category': 'Service Station', 'edit_date': '20250403', 'lat_lon_source': 'website'}",55.1517627845517,-6.781325701399809,"{'Fri': '07:00-22:00', 'Thu': '07:00-22:00', 'Wed': '07:00-22:00', 'Mon': '07:00-22:00', 'Tue': '07:00-22:00', 'Sat': '07:00-22:00', 'Sun': '07:00-22:00'}",+442870848238,N000030,BT514TX,Maguire's Maxol Service Station,,https://stations.maxol.ie/
1 Newmills Road Lower BT522JB Londonderry,Londonderry,GB,Maxol,"{'brand': 'Maxol', 'fascia': 'Maxol Service Station', 'category': 'Service Station', 'edit_date': '20250403', 'lat_lon_source': 'website'}",55.133346032245,-6.652698925095573,"{'Fri': '06:30-22:30', 'Thu': '06:30-22:30', 'Wed': '06:30-22:30', 'Mon': '06:30-22:30', 'Sat': '06:30-22:30', 'Tue': '06:30-22:30', 'Sun': '06:30-22:30'}",+442870354465,N000169,BT522JB,Newmills Road Maxol Service Station,,https://stations.maxol.ie/
Waterford Road E32N235 Tipperary,Tipperary,IE,Maxol,"{'brand': 'Maxol', 'fascia': 'Maxol Service Station', 'category': 'Service Station', 'edit_date': '20250403', 'lat_lon_source': 'website'}",52.3423719,-7.4061676,"{'Tue': '06:00-23:00', 'Sat': '06:00-23:00', 'Fri': '06:00-23:00', 'Sun': '07:00-23:00', 'Thu': '06:00-23:00', 'Wed': '06:00-23:00', 'Mon': '06:00-23:00'}",+35351645265,S000381,E32N235,O'Sullivan's Maxol Service Station,,https://stations.maxol.ie/
Moores Garage Limited F92PT1W Donegal,Donegal,IE,Maxol,"{'brand': 'Maxol', 'fascia': 'Maxol Service Station', 'category': 'Service Station', 'edit_date': '20250403', 'lat_lon_source': 'website'}",55.18240820471511,-7.965847786888373,"{'Fri': '07:30-22:00', 'Thu': '07:30-22:00', 'Wed': '07:30-22:00', 'Mon': '07:30-22:00', 'Sun': '07:30-22:00', 'Sat': '07:30-22:00', 'Tue': '07:30-22:00'}",+353749136171,S000273,F92PT1W,Moore's Maxol Service Station,,https://stations.maxol.ie/
121 Coleraine Road BT568HN Antrim,Antrim,GB,Maxol,"{'brand': 'Maxol', 'fascia': 'Maxol Service Station', 'category': 'Service Station', 'edit_date': '20250403', 'lat_lon_source': 'website'}",55.19086852937432,-6.656143208287508,"{'Sun': '06:00-00:00', 'Tue': '06:00-00:00', 'Sat': '06:00-00:00', 'Fri': '06:00-00:00', 'Thu': '06:00-00:00', 'Wed': '06:00-00:00', 'Mon': '06:00-00:00'}",+442870822339,N000141,BT568HN,Hillcrest Maxol Service Station,,https://stations.maxol.ie/
185 Bushmills Road BT568JG Antrim,Antrim,GB,Maxol,"{'brand': 'Maxol', 'fascia': 'Maxol Service Station', 'category': 'Service Station', 'edit_date': '20250403', 'lat_lon_source': 'website'}",55.2017,-6.64502,"{'Tue': '06:00-23:00', 'Sat': '06:00-23:00', 'Sun': '06:00-23:00', 'Fri': '06:00-23:00', 'Thu': '06:00-23:00', 'Wed': '06:00-23:00', 'Mon': '06:00-23:00'}",+442870823432,N000073,BT568JG,Maxol Service Station Portrush,,https://stations.maxol.ie/
Ardcavan Y35X48P Wexford,Wexford,IE,Maxol,"{'brand': 'Maxol', 'fascia': 'Maxol Service Station', 'category': 'Service Station', 'edit_date': '20250403', 'lat_lon_source': 'website'}",52.3663749,-6.448914,"{'Fri': '07:00-22:00', 'Thu': '07:00-22:00', 'Wed': '07:00-22:00', 'Mon': '07:00-22:00', 'Tue': '07:00-22:00', 'Sat': '07:00-22:00', 'Sun': '08:00-22:00'}",+353539174990,S000211,Y35X48P,Maxol Service Station Ardcavan,,https://stations.maxol.ie/
"Walsh Car Sales, Belmont Road X91W9DT Waterford",Waterford,IE,Maxol,"{'brand': 'Maxol', 'fascia': 'Maxol Service Station', 'category': 'Service Station', 'edit_date': '20250403', 'lat_lon_source': 'website'}",52.27052264811479,-7.092062921850008,{},+35351832616,S000056,X91W9DT,Walsh's Maxol Service Station,,https://stations.maxol.ie/
Military Road X91ACOA Waterford,Waterford,IE,Maxol,"{'brand': 'Maxol', 'fascia': 'Maxol Service Station', 'category': 'Service Station', 'edit_date': '20250403', 'lat_lon_source': 'website'}",52.2604815,-7.1233526,"{'Sun': '07:30-21:50', 'Tue': '05:00-22:50', 'Sat': '06:00-22:50', 'Fri': '05:00-22:50', 'Thu': '05:00-22:50', 'Wed': '05:00-22:50', 'Mon': '05:00-22:50'}",+35351875922,S000375,X91ACOA,Motorpoint Maxol Service Station,,https://stations.maxol.ie/
Trinity Street Y35W7VY Wexford,Wexford,IE,Maxol,"{'brand': 'Maxol', 'fascia': 'Maxol Service Station', 'category': 'Service Station', 'edit_date': '20250403', 'lat_lon_source': 'website'}",52.3341604,-6.4547681,"{'Sat': '00:00-23:59', 'Tue': '00:00-23:59', 'Sun': '00:00-23:59', 'Fri': '00:00-23:59', 'Thu': '00:00-23:59', 'Wed': '00:00-23:59', 'Mon': '00:00-23:59'}",+353539144322,S000188,Y35W7VY,Maxol Auto24 Trinity Street,,https://stations.maxol.ie/
New Line Road Y35 ET3F Wexford,Wexford,IE,Maxol,"{'brand': 'Maxol', 'fascia': 'Maxol Service Station', 'category': 'Service Station', 'edit_date': '20250403', 'lat_lon_source': 'website'}",52.317349824796814,-6.520467301852421,"{'Fri': '07:00-22:00', 'Thu': '07:00-22:00', 'Wed': '07:00-22:00', 'Mon': '07:00-22:00', 'Tue': '07:00-22:00', 'Sat': '07:00-22:00', 'Sun': '07:00-22:00'}",+353539145082,S000390,Y35 ET3F,Maxol Service Station Killeens,,https://stations.maxol.ie/
Kingsmeadow X91EY4E Waterford,Waterford,IE,Maxol,"{'brand': 'Maxol', 'fascia': 'Maxol Service Station', 'category': 'Service Station', 'edit_date': '20250403', 'lat_lon_source': 'website'}",52.2464722,-7.1278954,"{'Sat': '06:00-23:00', 'Mon': '05:00-23:00', 'Fri': '05:00-23:00', 'Thu': '05:00-23:00', 'Wed': '05:00-23:00', 'Sun': '07:00-23:00', 'Tue': '05:00-23:00'}",+35351354787,S000206,X91EY4E,Maxol Service Station Kingsmeadow,,https://stations.maxol.ie/
Church Street V94Y02D Limerick,Limerick,IE,Maxol,"{'brand': 'Maxol', 'fascia': 'Maxol Service Station', 'category': 'Service Station', 'edit_date': '20250403', 'lat_lon_source': 'website'}",52.601840932982675,-8.965956677315525,"{'Fri': '08:00-20:00', 'Thu': '08:00-20:00', 'Wed': '08:00-20:00', 'Mon': '08:00-20:00', 'Tue': '08:00-20:00', 'Sat': '08:00-20:00', 'Sun': '09:00-18:00'}",+35361292122,S000373,V94Y02D,Twohig's Maxol Service Station,,https://stations.maxol.ie/
Collins Avenue X91YPW7 Waterford,Waterford,IE,Maxol,"{'brand': 'Maxol', 'fascia': 'Maxol Service Station', 'category': 'Service Station', 'edit_date': '20250403', 'lat_lon_source': 'website'}",52.2423145,-7.0693083,"{'Tue': '06:30-23:00', 'Fri': '06:30-23:00', 'Sat': '07:00-23:00', 'Thu': '06:30-23:00', 'Wed': '06:30-23:00', 'Sun': '07:00-23:00', 'Mon': '06:30-23:00'}",+35351820070,S000126,X91YPW7,Maxol Service Station Dunmore Road,,https://stations.maxol.ie/
Spar Castle Street BT546AR Antrim,Antrim,GB,Maxol,"{'brand': 'Maxol', 'fascia': 'Maxol Service Station', 'category': 'Service Station', 'edit_date': '20250403', 'lat_lon_source': 'website'}",55.20030404356898,-6.254218125660778,"{'Sun': '06:30-23:00', 'Sat': '06:30-23:00', 'Tue': '06:30-23:00', 'Fri': '06:30-23:00', 'Thu': '06:30-23:00', 'Wed': '06:30-23:00', 'Mon': '06:30-23:00'}",+442820762355,N000138,BT546AR,Ballycastle Maxol Service Station,,https://stations.maxol.ie/
Banogue Cross V35DX58 Limerick,Limerick,IE,Maxol,"{'brand': 'Maxol', 'fascia': 'Maxol Service Station', 'category': 'Service Station', 'edit_date': '20250403', 'lat_lon_source': 'website'}",52.47693158804379,-8.700122696571343,"{'Mon': '07:00-20:30', 'Fri': '07:00-20:30', 'Thu': '07:00-20:30', 'Wed': '07:00-20:30', 'Sun': '07:00-19:00', 'Sat': '07:00-19:00', 'Tue': '07:00-20:30'}",+35361397336,S000073,V35DX58,Dillon's Maxol Service Station,,https://stations.maxol.ie/
Dublin Road P67HE09 Cork,Cork,IE,Maxol,"{'brand': 'Maxol', 'fascia': 'Maxol Service Station', 'category': 'Service Station', 'edit_date': '20250403', 'lat_lon_source': 'website'}",52.2709447,-8.2708814,"{'Tue': '06:00-22:00', 'Sat': '07:00-22:00', 'Sun': '07:00-22:00', 'Fri': '06:00-22:00', 'Thu': '06:00-22:00', 'Wed': '06:00-22:00', 'Mon': '06:00-22:00'}",+3532584355,S000160,P67HE09,Maxol Service Station Mitchelstown,,https://stations.maxol.ie/
Carrigkerry V94REP2 Limerick,Limerick,IE,Maxol,"{'brand': 'Maxol', 'fascia': 'Maxol Service Station', 'category': 'Service Station', 'edit_date': '20250403', 'lat_lon_source': 'website'}",52.49539137835579,-9.14491932546161,"{'Fri': '07:00-22:00', 'Thu': '07:00-22:00', 'Wed': '07:00-22:00', 'Mon': '07:00-22:00', 'Tue': '07:00-22:00', 'Sat': '07:00-22:00', 'Sun': '08:00-22:00'}",+3536976845,S000334,V94REP2,Moloney's Maxol Service Station,,https://stations.maxol.ie/
St Mary's Road V42KW35 Limerick,Limerick,IE,Maxol,"{'brand': 'Maxol', 'fascia': 'Maxol Service Station', 'category': 'Service Station', 'edit_date': '20250403', 'lat_lon_source': 'website'}",52.44860124802114,-9.053375689649366,"{'Tue': '06:00-23:00', 'Sat': '06:00-23:00', 'Fri': '06:00-23:00', 'Sun': '07:00-23:00', 'Thu': '06:00-23:00', 'Wed': '06:00-23:00', 'Mon': '06:00-23:00'}",+3536977444,S000353,V42KW35,Garvey's Maxol Service Station,,https://stations.maxol.ie/
Abbeyside X35EP22 Waterford,Waterford,IE,Maxol,"{'brand': 'Maxol', 'fascia': 'Maxol Service Station', 'category': 'Service Station', 'edit_date': '20250403', 'lat_lon_source': 'website'}",52.088233719243945,-7.617032446261538,"{'Sat': '00:00-23:59', 'Tue': '00:00-23:59', 'Sun': '00:00-23:59', 'Fri': '00:00-23:59', 'Thu': '00:00-23:59', 'Wed': '00:00-23:59', 'Mon': '00:00-23:59'}",+3535842071,S000354,X35EP22,Garvey's Maxol Service Station,,https://stations.maxol.ie/
Ennis Road V15KH51 Clare,Clare,IE,Maxol,"{'brand': 'Maxol', 'fascia': 'Maxol Service Station', 'category': 'Service Station', 'edit_date': '20250403', 'lat_lon_source': 'website'}",52.642002989196435,-9.478981172526169,"{'Fri': '07:00-23:00', 'Thu': '07:00-23:00', 'Wed': '07:00-23:00', 'Mon': '07:00-23:00', 'Tue': '07:00-23:00', 'Sat': '07:00-23:00', 'Sun': '08:00-22:00'}",+353659051147,S000049,V15KH51,Whelan's Maxol Service Station,,https://stations.maxol.ie/
Mallow P51DT91 Cork,Cork,IE,Maxol,"{'brand': 'Maxol', 'fascia': 'Maxol Service Station', 'category': 'Service Station', 'edit_date': '20250403', 'lat_lon_source': 'website'}",52.144561033678976,-8.643457606434811,"{'Fri': '07:00-22:00', 'Thu': '07:00-22:00', 'Wed': '07:00-22:00', 'Mon': '07:00-22:00', 'Tue': '07:00-22:00', 'Sat': '07:00-22:00', 'Sun': '08:00-22:00'}",+3532242931,S000370,P51DT91,Dano's Maxol Service Station,,https://stations.maxol.ie/
Killarney Road V94C8XW Limerick,Limerick,IE,Maxol,"{'brand': 'Maxol', 'fascia': 'Maxol Service Station', 'category': 'Service Station', 'edit_date': '20250403', 'lat_lon_source': 'website'}",52.374571,-9.3096406,"{'Tue': '05:30-23:00', 'Sat': '05:30-23:00', 'Mon': '05:30-23:00', 'Sun': '07:00-23:00', 'Fri': '05:30-23:00', 'Thu': '05:30-23:00', 'Wed': '05:30-23:00'}",+3536831138,S000335,V94C8XW,Moloney's Maxol Service Station,,https://stations.maxol.ie/
Church Street P51DEH3 Cork,Cork,IE,Maxol,"{'brand': 'Maxol', 'fascia': 'Maxol Service Station', 'category': 'Service Station', 'edit_date': '20250403', 'lat_lon_source': 'website'}",52.214846802443624,-8.996592709600442,"{'Sat': '06:00-22:00', 'Tue': '06:00-22:00', 'Sun': '07:00-22:00', 'Fri': '06:00-22:00', 'Thu': '06:00-22:00', 'Wed': '06:00-22:00', 'Mon': '06:00-22:00'}",+3532960006,S000382,P51DEH3,Hannon's Maxol Service Station,,https://stations.maxol.ie/
O'Hare's Maxol Service Station P25X754 Cork,Cork,IE,Maxol,"{'brand': 'Maxol', 'fascia': 'Maxol Service Station', 'category': 'Service Station', 'edit_date': '20250403', 'lat_lon_source': 'website'}",51.91791327847544,-8.175369640643952,"{'Tue': '06:00-23:00', 'Sat': '06:00-23:00', 'Fri': '06:00-23:00', 'Sun': '07:00-23:00', 'Thu': '06:00-23:00', 'Wed': '06:00-23:00', 'Mon': '06:00-23:00'}",+353214633950,S000331,P25X754,O'Hare's Maxol Service Station,,https://stations.maxol.ie/
Boherbue P51C3FX Cork,Cork,IE,Maxol,"{'brand': 'Maxol', 'fascia': 'Maxol Service Station', 'category': 'Service Station', 'edit_date': '20250403', 'lat_lon_source': 'website'}",52.1591954,-9.0712893,"{'Fri': '07:00-22:00', 'Thu': '07:00-22:00', 'Wed': '07:00-22:00', 'Mon': '07:00-22:00', 'Sun': '08:30-22:00', 'Tue': '07:00-22:00', 'Sat': '07:00-22:00'}",+3532976004,S000227,P51C3FX,Boherbue Maxol Service Station,,https://stations.maxol.ie/
Lower Glanmire Road T23KDE4 Cork,Cork,IE,Maxol,"{'brand': 'Maxol', 'fascia': 'Maxol Service Station', 'category': 'Service Station', 'edit_date': '20250403', 'lat_lon_source': 'website'}",51.9031591,-8.429423,"{'Tue': '06:30-23:00', 'Fri': '06:30-23:00', 'Sat': '07:00-23:00', 'Thu': '06:30-23:00', 'Wed': '06:30-23:00', 'Sun': '07:00-23:00', 'Mon': '06:30-23:00'}",+353214552775,S000217,T23KDE4,Maxol Service Station Tivoli,,https://stations.maxol.ie/
Skehard Road T12HP2C Cork,Cork,IE,Maxol,"{'brand': 'Maxol', 'fascia': 'Maxol Service Station', 'category': 'Service Station', 'edit_date': '20250403', 'lat_lon_source': 'website'}",51.8900099,-8.4125569,"{'Tue': '06:30-22:00', 'Sat': '06:30-22:00', 'Mon': '06:30-22:00', 'Sun': '08:00-22:00', 'Fri': '06:30-22:00', 'Thu': '06:30-22:00', 'Wed': '06:30-22:00'}",+353214358882,S000332,T12HP2C,Maxol Service Station Skehard Road,,https://stations.maxol.ie/
Boreenmanna Road T12K030 Cork,Cork,IE,Maxol,"{'brand': 'Maxol', 'fascia': 'Maxol Service Station', 'category': 'Service Station', 'edit_date': '20250403', 'lat_lon_source': 'website'}",51.8909343,-8.4449502,"{'Mon': '07:00-21:00', 'Sat': '08:00-21:00', 'Fri': '07:00-21:00', 'Thu': '07:00-21:00', 'Wed': '07:00-21:00', 'Sun': '09:00-21:00', 'Tue': '07:00-21:00'}",+353214294411,S000225,T12K030,Maxol Service Station Boreenmanna Rd,,https://stations.maxol.ie/
Shean Lower P23X57R Cork,Cork,IE,Maxol,"{'brand': 'Maxol', 'fascia': 'Maxol Service Station', 'category': 'Service Station', 'edit_date': '20250403', 'lat_lon_source': 'website'}",51.92495,-8.60712,"{'Tue': '06:00-23:00', 'Sat': '06:00-23:00', 'Sun': '07:00-22:30', 'Fri': '06:00-23:00', 'Thu': '06:00-23:00', 'Wed': '06:00-23:00', 'Mon': '06:00-23:00'}",+353214381789,S000348,P23X57R,"Garvey's Maxol Service Station, Blarney",,https://stations.maxol.ie/
Minor Row P51PEOH Cork,Cork,IE,Maxol,"{'brand': 'Maxol', 'fascia': 'Maxol Service Station', 'category': 'Service Station', 'edit_date': '20250403', 'lat_lon_source': 'website'}",52.06058808113774,-9.056237307816392,"{'Fri': '07:00-22:00', 'Thu': '07:00-22:00', 'Wed': '07:00-22:00', 'Mon': '07:00-22:00', 'Tue': '07:00-22:00', 'Sun': '07:30-22:00', 'Sat': '07:30-22:00'}",+3532970205,S000325,P51PEOH,Coleman's Maxol Service Station,,https://stations.maxol.ie/
Dunmahon T12K6EK Cork,Cork,IE,Maxol,"{'brand': 'Maxol', 'fascia': 'Maxol Service Station', 'category': 'Service Station', 'edit_date': '20250403', 'lat_lon_source': 'website'}",51.8813436,-8.4441365,"{'Fri': '07:00-23:00', 'Thu': '07:00-23:00', 'Wed': '07:00-23:00', 'Mon': '07:00-23:00', 'Tue': '07:00-23:00', 'Sat': '07:00-23:00', 'Sun': '07:00-23:00'}",+353214295740,S000323,T12K6EK,Maxol Service Station Douglas Road,,https://stations.maxol.ie/
Pouladuff Road T12CCY8 Cork,Cork,IE,Maxol,"{'brand': 'Maxol', 'fascia': 'Maxol Service Station', 'category': 'Service Station', 'edit_date': '20250403', 'lat_lon_source': 'website'}",51.8879883,-8.4826383,"{'Mon': '07:00-21:00', 'Sat': '08:00-21:00', 'Fri': '07:00-21:00', 'Thu': '07:00-21:00', 'Wed': '07:00-21:00', 'Sun': '09:00-21:00', 'Tue': '07:00-21:00'}",+353214964947,S000065,T12CCY8,Maxol Service Station Pouladuff Road,,https://stations.maxol.ie/
Donnybrook T12Y583 Cork,Cork,IE,Maxol,"{'brand': 'Maxol', 'fascia': 'Maxol Service Station', 'category': 'Service Station', 'edit_date': '20250403', 'lat_lon_source': 'website'}",51.8687699,-8.4390678,"{'Sun': '08:00-21:00', 'Fri': '07:00-22:00', 'Thu': '07:00-22:00', 'Wed': '07:00-22:00', 'Mon': '07:00-22:00', 'Tue': '07:00-22:00', 'Sat': '07:00-22:00'}",+353214363469,S000062,T12Y583,Maxol Service Station Donnybrook,,https://stations.maxol.ie/
Glasheen Road T12FYN4 Cork,Cork,IE,Maxol,"{'brand': 'Maxol', 'fascia': 'Maxol Service Station', 'category': 'Service Station', 'edit_date': '20250403', 'lat_lon_source': 'website'}",51.8833593,-8.5048769,"{'Sat': '00:00-23:59', 'Tue': '00:00-23:59', 'Sun': '00:00-23:59', 'Fri': '00:00-23:59', 'Thu': '00:00-23:59', 'Wed': '00:00-23:59', 'Mon': '00:00-23:59'}",+353214342392,S000123,T12FYN4,Maxol Service Station Wilton,,https://stations.maxol.ie/
Main Street P31PF66 Cork,Cork,IE,Maxol,"{'brand': 'Maxol', 'fascia': 'Maxol Service Station', 'category': 'Service Station', 'edit_date': '20250403', 'lat_lon_source': 'website'}",51.8857404,-8.6098626,"{'Sat': '06:00-22:00', 'Tue': '06:00-22:00', 'Sun': '07:00-22:00', 'Fri': '06:00-22:00', 'Thu': '06:00-22:00', 'Wed': '06:00-22:00', 'Mon': '06:00-22:00'}",+353214876145,S000133,P31PF66,Maxol Service Station Ballincollig,,https://stations.maxol.ie/
Ballinrea Shannon Park P43K022 Cork,Cork,IE,Maxol,"{'brand': 'Maxol', 'fascia': 'Maxol Service Station', 'category': 'Service Station', 'edit_date': '20250403', 'lat_lon_source': 'website'}",51.8364801,-8.3947202,"{'Sat': '06:00-22:00', 'Tue': '06:00-22:00', 'Sun': '07:30-22:00', 'Fri': '06:00-22:00', 'Thu': '06:00-22:00', 'Wed': '06:00-22:00', 'Mon': '06:00-22:00'}",+353214372053,S000077,P43K022,Maxol Service Station Ballinrea,,https://stations.maxol.ie/
Cork Road P43XN76 Cork,Cork,IE,Maxol,"{'brand': 'Maxol', 'fascia': 'Maxol Service Station', 'category': 'Service Station', 'edit_date': '20250403', 'lat_lon_source': 'website'}",51.8195492,-8.3916762,"{'Tue': '06:00-23:00', 'Sat': '06:00-23:00', 'Sun': '06:00-23:00', 'Fri': '06:00-23:00', 'Thu': '06:00-23:00', 'Wed': '06:00-23:00', 'Mon': '06:00-23:00'}",+353214371992,S000082,P43XN76,Maxol Service Station Carrigaline,,https://stations.maxol.ie/
Bandon Road T12DY7F Cork,Cork,IE,Maxol,"{'brand': 'Maxol', 'fascia': 'Maxol Service Station', 'category': 'Service Station', 'edit_date': '20250403', 'lat_lon_source': 'website'}",51.840955,-8.5316817,"{'Fri': '07:00-20:00', 'Thu': '07:00-20:00', 'Wed': '07:00-20:00', 'Mon': '07:00-20:00', 'Sat': '08:00-20:00', 'Tue': '07:00-20:00', 'Sun': '09:00-19:00'}",+353214885991,S000117,T12DY7F,Maxol Service Station Bandon Road,,https://stations.maxol.ie/
Muckross Road V93WY60 Kerry,Kerry,IE,Maxol,"{'brand': 'Maxol', 'fascia': 'Maxol Service Station', 'category': 'Service Station', 'edit_date': '20250403', 'lat_lon_source': 'website'}",52.04146880158143,-9.49705604737371,"{'Sat': '00:00-23:59', 'Tue': '00:00-23:59', 'Sun': '00:00-23:59', 'Fri': '00:00-23:59', 'Thu': '00:00-23:59', 'Wed': '00:00-23:59', 'Mon': '00:00-23:59'}",+353646634456,S000350,V93WY60,Sheahan's  Maxol Service Station,,https://stations.maxol.ie/
Clonakilty Road P72H337 Cork,Cork,IE,Maxol,"{'brand': 'Maxol', 'fascia': 'Maxol Service Station', 'category': 'Service Station', 'edit_date': '20250403', 'lat_lon_source': 'website'}",51.7349344,-8.7568247,"{'Sat': '00:00-23:59', 'Tue': '00:00-23:59', 'Sun': '00:00-23:59', 'Fri': '00:00-23:59', 'Thu': '00:00-23:59', 'Wed': '00:00-23:59', 'Mon': '00:00-23:59'}",+353238852390,S000328,P72H337,O'Reilly's Maxol Service Station,,https://stations.maxol.ie/
Kilgarvan V93F86C Kerry,Kerry,IE,Maxol,"{'brand': 'Maxol', 'fascia': 'Maxol Service Station', 'category': 'Service Station', 'edit_date': '20250403', 'lat_lon_source': 'website'}",51.90348926871098,-9.442208171164172,"{'Mon': '06:00-21:00', 'Fri': '06:00-21:00', 'Thu': '06:00-21:00', 'Wed': '06:00-21:00', 'Sat': '06:00-21:00', 'Sun': '07:00-21:00', 'Tue': '06:00-21:00'}",+353646685982,S000362,V93F86C,Healy Rae's Maxol Service Station,,https://stations.maxol.ie/
The Village V93RXR5 Kerry,Kerry,IE,Maxol,"{'brand': 'Maxol', 'fascia': 'Maxol Service Station', 'category': 'Service Station', 'edit_date': '20250403', 'lat_lon_source': 'website'}",52.0566302060588,-9.93925543128281,"{'Fri': '07:00-23:00', 'Thu': '07:00-23:00', 'Wed': '07:00-23:00', 'Mon': '07:00-23:00', 'Tue': '07:00-23:00', 'Sat': '07:00-23:00', 'Sun': '07:00-23:00'}",+353669794821,S000343,V93RXR5,Sheahan's Maxol Service Station,,https://stations.maxol.ie/
Skibbereen Road P85R521 Cork,Cork,IE,Maxol,"{'brand': 'Maxol', 'fascia': 'Maxol Service Station', 'category': 'Service Station', 'edit_date': '20250403', 'lat_lon_source': 'website'}",51.620142584375145,-8.906520911905082,"{'Sat': '06:00-22:00', 'Tue': '06:00-22:00', 'Sun': '07:00-22:00', 'Fri': '06:00-22:00', 'Thu': '06:00-22:00', 'Wed': '06:00-22:00', 'Mon': '06:00-22:00'}",+353238863137,S000135,P85R521,Maxol Service Station Clonakilty,,https://stations.maxol.ie/
The Pier P75F772 Cork,Cork,IE,Maxol,"{'brand': 'Maxol', 'fascia': 'Maxol Service Station', 'category': 'Service Station', 'edit_date': '20250403', 'lat_lon_source': 'website'}",51.6798734,-9.4599028,"{'Fri': '07:00-22:00', 'Thu': '07:00-22:00', 'Wed': '07:00-22:00', 'Mon': '07:00-22:00', 'Tue': '07:00-22:00', 'Sat': '07:00-22:00', 'Sun': '08:00-22:00'}",+3532755850,S000237,P75F772,Maxol Service Station Bantry,,https://stations.maxol.ie/
Valentia Road V23T440 Kerry,Kerry,IE,Maxol,"{'brand': 'Maxol', 'fascia': 'Maxol Service Station', 'category': 'Service Station', 'edit_date': '20250403', 'lat_lon_source': 'website'}",51.940272,-10.237787,"{'Fri': '07:30-21:30', 'Thu': '07:30-21:30', 'Wed': '07:30-21:30', 'Mon': '07:30-21:30', 'Sat': '07:30-21:30', 'Tue': '07:30-21:30', 'Sun': '07:30-21:30'}",+353669472380,S000338,V23T440,Walsh's Maxol Service Station,,https://stations.maxol.ie/
