addr_full,brand,city,country,extras,lat,lon,name,opening_hours,phone,postcode,ref,state,website
1 Km E.O. Serron-Nigritas,Lidl Hellas,Serres,Greece,"{'brand': 'Lidl Hellas', 'fascia': 'Lidl Hellas', 'category': 'Retail', 'edit_date': '20250518', 'lat_lon_source': 'Third Party'}",41.0737,23.54155,Lidl Serres/Stathmos,"{'opening_hours': {'Mon': '07:45-21:00', 'Tue': '07:45-21:00', 'Wed': '07:45-21:00', 'Thu': '07:45-21:00', 'Fri': '07:45-21:00', 'Sat': '07:45-21:00'}}",,621 00,1,,https://www.lidl-hellas.gr/s/el-GR/anazitisi-katastimaton/Serres/1-Km-EO-Serron-Nigritas/
Filadelphias 36A,Lidl Hellas,Larisa,Greece,"{'brand': 'Lidl Hellas', 'fascia': 'Lidl Hellas', 'category': 'Retail', 'edit_date': '20250518', 'lat_lon_source': 'Third Party'}",39.63351,22.43407,Lidl Larisa/Agios Georgios,"{'opening_hours': {'Mon': '07:45-21:00', 'Tue': '07:45-21:00', 'Wed': '07:45-21:00', 'Thu': '07:45-21:00', 'Fri': '07:45-21:00', 'Sat': '07:45-21:00'}}",,413 36,10,,https://www.lidl-hellas.gr/s/el-GR/anazitisi-katastimaton/Larisa/Filadelphias-36A/
Makedonias,Lidl Hellas,Eleftheres,Greece,"{'brand': 'Lidl Hellas', 'fascia': 'Lidl Hellas', 'category': 'Retail', 'edit_date': '20250518', 'lat_lon_source': 'Third Party'}",40.87561,24.31238,Lidl Nea Iraklitsa,"{'opening_hours': {'Mon': '07:45-21:00', 'Tue': '07:45-21:00', 'Wed': '07:45-21:00', 'Thu': '07:45-21:00', 'Fri': '07:45-21:00', 'Sat': '07:45-21:00'}}",,640 07,101,,https://www.lidl-hellas.gr/s/el-GR/anazitisi-katastimaton/Eleftheres/Makedonias/
3 Km Neas Michanionas-Thessalonikis,Lidl Hellas,Michaniona,Greece,"{'brand': 'Lidl Hellas', 'fascia': 'Lidl Hellas', 'category': 'Retail', 'edit_date': '20250518', 'lat_lon_source': 'Third Party'}",40.48346,22.86809,Lidl Nea Michaniona,"{'opening_hours': {'Mon': '07:45-21:00', 'Tue': '07:45-21:00', 'Wed': '07:45-21:00', 'Thu': '07:45-21:00', 'Fri': '07:45-21:00', 'Sat': '07:45-21:00'}}",,570 04,102,,https://www.lidl-hellas.gr/s/el-GR/anazitisi-katastimaton/Michaniona/3-Km-Neas-Michanionas-Thessalonikis/
Anapafseos 1,Lidl Hellas,Katerini,Greece,"{'brand': 'Lidl Hellas', 'fascia': 'Lidl Hellas', 'category': 'Retail', 'edit_date': '20250518', 'lat_lon_source': 'Third Party'}",40.26889,22.59312,Lidl Katerini/Paralia,"{'opening_hours': {'Mon': '07:45-21:00', 'Tue': '07:45-21:00', 'Wed': '07:45-21:00', 'Thu': '07:45-21:00', 'Fri': '07:45-21:00', 'Sat': '07:45-21:00'}}",,601 00,104,,https://www.lidl-hellas.gr/s/el-GR/anazitisi-katastimaton/Katerini/Anapafseos-1/
1 Km Epanomis-Thessalonikis,Lidl Hellas,Thermaikos,Greece,"{'brand': 'Lidl Hellas', 'fascia': 'Lidl Hellas', 'category': 'Retail', 'edit_date': '20250518', 'lat_lon_source': 'Third Party'}",40.43744,22.93123,Lidl Epanomi,"{'opening_hours': {'Mon': '07:45-21:00', 'Tue': '07:45-21:00', 'Wed': '07:45-21:00', 'Thu': '07:45-21:00', 'Fri': '07:45-21:00', 'Sat': '07:45-21:00'}}",,575 00,108,,https://www.lidl-hellas.gr/s/el-GR/anazitisi-katastimaton/Thermaikos/1-Km-Epanomis-Thessalonikis/
Anapafseos 3-5,Lidl Hellas,Agria,Greece,"{'brand': 'Lidl Hellas', 'fascia': 'Lidl Hellas', 'category': 'Retail', 'edit_date': '20250518', 'lat_lon_source': 'Third Party'}",39.34418,23.00083,Lidl Agria,"{'opening_hours': {'Mon': '07:45-21:00', 'Tue': '07:45-21:00', 'Wed': '07:45-21:00', 'Thu': '07:45-21:00', 'Fri': '07:45-21:00', 'Sat': '07:45-21:00'}}",,373 00,109,,https://www.lidl-hellas.gr/s/el-GR/anazitisi-katastimaton/Agria/Anapafseos-3-5/
Perifereiaki Odos Lefkimmis,Lidl Hellas,Lefkimmaioi,Greece,"{'brand': 'Lidl Hellas', 'fascia': 'Lidl Hellas', 'category': 'Retail', 'edit_date': '20250518', 'lat_lon_source': 'Third Party'}",39.41986,20.0485,Lidl Corfu/Lefkimmi,"{'opening_hours': {'Mon': '07:45-21:00', 'Tue': '07:45-21:00', 'Wed': 'ΚΛΕΙΣΤΑ', 'Thu': '07:45-21:00', 'Fri': '07:45-21:00', 'Sat': '07:45-21:00'}}",,490 80,111,,https://www.lidl-hellas.gr/s/el-GR/anazitisi-katastimaton/Lefkimmaioi/Perifereiaki-Odos-Lefkimmis/
Christou Tsamani 29,Lidl Hellas,Almyros,Greece,"{'brand': 'Lidl Hellas', 'fascia': 'Lidl Hellas', 'category': 'Retail', 'edit_date': '20250518', 'lat_lon_source': 'Third Party'}",39.18919,22.75712,Lidl Almiros,"{'opening_hours': {'Mon': '07:45-21:00', 'Tue': '07:45-21:00', 'Wed': '07:45-21:00', 'Thu': '07:45-21:00', 'Fri': '07:45-21:00', 'Sat': '07:45-21:00'}}",,371 00,113,,https://www.lidl-hellas.gr/s/el-GR/anazitisi-katastimaton/Almyros/Christou-Tsamani-29/
3 Km E.O. Kerkyras-Palaiokastritsas,Lidl Hellas,Kerkyra,Greece,"{'brand': 'Lidl Hellas', 'fascia': 'Lidl Hellas', 'category': 'Retail', 'edit_date': '20250518', 'lat_lon_source': 'Third Party'}",39.63044,19.88463,Lidl Corfu/Alykes,"{'opening_hours': {'Mon': '07:45-21:00', 'Tue': '07:45-21:00', 'Wed': 'ΚΛΕΙΣΤΑ', 'Thu': '07:45-21:00', 'Fri': '07:45-21:00', 'Sat': '07:45-21:00'}}",,491 00,114,,https://www.lidl-hellas.gr/s/el-GR/anazitisi-katastimaton/Kerkyra/3-Km-EO-Kerkyras-Palaiokastritsas/
Olympiados 56,Lidl Hellas,Thessaloniki,Greece,"{'brand': 'Lidl Hellas', 'fascia': 'Lidl Hellas', 'category': 'Retail', 'edit_date': '20250518', 'lat_lon_source': 'Third Party'}",40.64083,22.9495,Lidl Thess/Olympiados,"{'opening_hours': {'Mon': '07:45-21:00', 'Tue': '07:45-21:00', 'Wed': '07:45-21:00', 'Thu': '07:45-21:00', 'Fri': '07:45-21:00', 'Sat': '07:45-21:00'}}",,546 33,116,,https://www.lidl-hellas.gr/s/el-GR/anazitisi-katastimaton/Thessaloniki/Olympiados-56/
Karaoli & Dimitriou 149,Lidl Hellas,Evosmos,Greece,"{'brand': 'Lidl Hellas', 'fascia': 'Lidl Hellas', 'category': 'Retail', 'edit_date': '20250518', 'lat_lon_source': 'Third Party'}",40.6667,22.9186,Lidl Thess/Evosmos-Karaoli,"{'opening_hours': {'Mon': '07:45-21:00', 'Tue': '07:45-21:00', 'Wed': '07:45-21:00', 'Thu': '07:45-21:00', 'Fri': '07:45-21:00', 'Sat': '07:45-21:00'}}",,562 24,120,,https://www.lidl-hellas.gr/s/el-GR/anazitisi-katastimaton/Evosmos/Karaoli-&-Dimitriou-149/
Vryoulon 33,Lidl Hellas,Kalamaria,Greece,"{'brand': 'Lidl Hellas', 'fascia': 'Lidl Hellas', 'category': 'Retail', 'edit_date': '20250518', 'lat_lon_source': 'Third Party'}",40.57342,22.96075,Lidl Thess/Kalamaria-Vrioulon,"{'opening_hours': {'Mon': '07:45-21:00', 'Tue': '07:45-21:00', 'Wed': '07:45-21:00', 'Thu': '07:45-21:00', 'Fri': '07:45-21:00', 'Sat': '07:45-21:00'}}",,551 32,124,,https://www.lidl-hellas.gr/s/el-GR/anazitisi-katastimaton/Kalamaria/Vryoulon-33/
3. km Naousas-Sid. Stathmou,Lidl Hellas,Naousa,Greece,"{'brand': 'Lidl Hellas', 'fascia': 'Lidl Hellas', 'category': 'Retail', 'edit_date': '20250518', 'lat_lon_source': 'Third Party'}",40.62001,22.08585,Lidl Naousa,"{'opening_hours': {'Mon': '07:45-21:00', 'Tue': '07:45-21:00', 'Wed': '07:45-21:00', 'Thu': '07:45-21:00', 'Fri': '07:45-21:00', 'Sat': '07:45-21:00'}}",,592 00,125,,https://www.lidl-hellas.gr/s/el-GR/anazitisi-katastimaton/Naousa/3-km-Naousas-Sid-Stathmou/
Dytiki Periferiaki Odos,Lidl Hellas,Kilkis,Greece,"{'brand': 'Lidl Hellas', 'fascia': 'Lidl Hellas', 'category': 'Retail', 'edit_date': '20250518', 'lat_lon_source': 'Third Party'}",40.98519,22.86311,Lidl Kilkis,"{'opening_hours': {'Mon': '07:45-21:00', 'Tue': '07:45-21:00', 'Wed': '07:45-21:00', 'Thu': '07:45-21:00', 'Fri': '07:45-21:00', 'Sat': '07:45-21:00'}}",,611 00,126,,https://www.lidl-hellas.gr/s/el-GR/anazitisi-katastimaton/Kilkis/Dytiki-Periferiaki-Odos/
Iatrou Gogousi 37,Lidl Hellas,Stavroupoli,Greece,"{'brand': 'Lidl Hellas', 'fascia': 'Lidl Hellas', 'category': 'Retail', 'edit_date': '20250518', 'lat_lon_source': 'Third Party'}",40.66247,22.92973,Lidl Thess/Stavroupoli-Terpsitheas,"{'opening_hours': {'Mon': '07:00-21:00', 'Tue': '07:00-21:00', 'Wed': '07:00-21:00', 'Thu': '07:00-21:00', 'Fri': '07:00-21:00', 'Sat': '07:00-21:00'}}",,564 30,127,,https://www.lidl-hellas.gr/s/el-GR/anazitisi-katastimaton/Stavroupoli/Iatrou-Gogousi-37/
Proektasi Papagou,Lidl Hellas,Thermi,Greece,"{'brand': 'Lidl Hellas', 'fascia': 'Lidl Hellas', 'category': 'Retail', 'edit_date': '20250518', 'lat_lon_source': 'Third Party'}",40.54188,23.01585,Lidl Thess/Thermi,"{'opening_hours': {'Mon': '07:45-21:00', 'Tue': '07:45-21:00', 'Wed': '07:45-21:00', 'Thu': '07:45-21:00', 'Fri': '07:45-21:00', 'Sat': '07:45-21:00'}}",,570 01,128,,https://www.lidl-hellas.gr/s/el-GR/anazitisi-katastimaton/Thermi/Proektasi-Papagou/
Leof. Georgikis Scholis 88,Lidl Hellas,Pylaia,Greece,"{'brand': 'Lidl Hellas', 'fascia': 'Lidl Hellas', 'category': 'Retail', 'edit_date': '20250518', 'lat_lon_source': 'Third Party'}",40.54664,22.98344,Lidl Thess/Pylea-Georg. Scholis,"{'opening_hours': {'Mon': '07:45-21:00', 'Tue': '07:45-21:00', 'Wed': '07:45-21:00', 'Thu': '07:45-21:00', 'Fri': '07:45-21:00', 'Sat': '07:45-21:00'}}",,555 35,129,,https://www.lidl-hellas.gr/s/el-GR/anazitisi-katastimaton/Pylaia/Leof-Georgikis-Scholis-88/
Eirinis 93-95,Lidl Hellas,Tyrnavos,Greece,"{'brand': 'Lidl Hellas', 'fascia': 'Lidl Hellas', 'category': 'Retail', 'edit_date': '20250518', 'lat_lon_source': 'Third Party'}",39.74595,22.28183,Lidl Tirnavos,"{'opening_hours': {'Mon': '07:45-21:00', 'Tue': '07:45-21:00', 'Wed': '07:45-21:00', 'Thu': '07:45-21:00', 'Fri': '07:45-21:00', 'Sat': '07:45-21:00'}}",,401 00,130,,https://www.lidl-hellas.gr/s/el-GR/anazitisi-katastimaton/Tyrnavos/Eirinis-93-95/
Larisis 99-105,Lidl Hellas,Volos,Greece,"{'brand': 'Lidl Hellas', 'fascia': 'Lidl Hellas', 'category': 'Retail', 'edit_date': '20250518', 'lat_lon_source': 'Third Party'}",39.36298,22.9295,Lidl Volos/Larisis,"{'opening_hours': {'Mon': '07:45-21:00', 'Tue': '07:45-21:00', 'Wed': '07:45-21:00', 'Thu': '07:45-21:00', 'Fri': '07:45-21:00', 'Sat': '07:45-21:00'}}",,383 34,131,,https://www.lidl-hellas.gr/s/el-GR/anazitisi-katastimaton/Volos/Larisis-99-105/
1 Km E.O. Peraia-Nea Michaniona,Lidl Hellas,Peraia,Greece,"{'brand': 'Lidl Hellas', 'fascia': 'Lidl Hellas', 'category': 'Retail', 'edit_date': '20250518', 'lat_lon_source': 'Third Party'}",40.50165,22.91812,Lidl Peraia,"{'opening_hours': {'Mon': '07:45-21:00', 'Tue': '07:45-21:00', 'Wed': '07:45-21:00', 'Thu': '07:45-21:00', 'Fri': '07:45-21:00', 'Sat': '07:45-21:00'}}",,570 19,133,,https://www.lidl-hellas.gr/s/el-GR/anazitisi-katastimaton/Peraia/1-Km-EO-Peraia-Nea-Michaniona/
Makedonias 60,Lidl Hellas,Evosmos,Greece,"{'brand': 'Lidl Hellas', 'fascia': 'Lidl Hellas', 'category': 'Retail', 'edit_date': '20250518', 'lat_lon_source': 'Third Party'}",40.66151,22.91137,Lidl Thess/Evosmos-Makedonias,"{'opening_hours': {'Mon': '07:00-21:00', 'Tue': '07:00-21:00', 'Wed': '07:00-21:00', 'Thu': '07:00-21:00', 'Fri': '07:00-21:00', 'Sat': '07:00-21:00'}}",,562 24,134,,https://www.lidl-hellas.gr/s/el-GR/anazitisi-katastimaton/Evosmos/Makedonias-60/
9 Km Thessalonikis-Edessas,Lidl Hellas,Diavata,Greece,"{'brand': 'Lidl Hellas', 'fascia': 'Lidl Hellas', 'category': 'Retail', 'edit_date': '20250518', 'lat_lon_source': 'Third Party'}",40.69193,22.84884,Lidl Thess/Diavata,"{'opening_hours': {'Mon': '07:45-21:00', 'Tue': '07:45-21:00', 'Wed': '07:45-21:00', 'Thu': '07:45-21:00', 'Fri': '07:45-21:00', 'Sat': '07:45-21:00'}}",,570 08,135,,https://www.lidl-hellas.gr/s/el-GR/anazitisi-katastimaton/Diavata/9-Km-Thessalonikis-Edessas/
2 Km Florinas-Armenochoriou,Lidl Hellas,Florina,Greece,"{'brand': 'Lidl Hellas', 'fascia': 'Lidl Hellas', 'category': 'Retail', 'edit_date': '20250518', 'lat_lon_source': 'Third Party'}",40.79447,21.43845,Lidl Florina,"{'opening_hours': {'Mon': '07:45-21:00', 'Tue': '07:45-21:00', 'Wed': '07:45-21:00', 'Thu': '07:45-21:00', 'Fri': '07:45-21:00', 'Sat': '07:45-21:00'}}",,531 00,136,,https://www.lidl-hellas.gr/s/el-GR/anazitisi-katastimaton/Florina/2-Km-Florinas-Armenochoriou/
Taigetou 36,Lidl Hellas,Lamia,Greece,"{'brand': 'Lidl Hellas', 'fascia': 'Lidl Hellas', 'category': 'Retail', 'edit_date': '20250518', 'lat_lon_source': 'Third Party'}",38.88807,22.44738,Lidl Lamia/Taigetou,"{'opening_hours': {'Mon': '07:45-21:00', 'Tue': '07:45-21:00', 'Wed': '07:45-21:00', 'Thu': '07:45-21:00', 'Fri': '07:45-21:00', 'Sat': '07:45-21:00'}}",,351 00,137,,https://www.lidl-hellas.gr/s/el-GR/anazitisi-katastimaton/Lamia/Taigetou-36/
2 Km Dramas-Kavalas,Lidl Hellas,Drama,Greece,"{'brand': 'Lidl Hellas', 'fascia': 'Lidl Hellas', 'category': 'Retail', 'edit_date': '20250518', 'lat_lon_source': 'Third Party'}",41.14374,24.17161,Lidl Drama/Kallifitos,"{'opening_hours': {'Mon': '07:45-21:00', 'Tue': '07:45-21:00', 'Wed': '07:45-21:00', 'Thu': '07:45-21:00', 'Fri': '07:45-21:00', 'Sat': '07:45-21:00'}}",,661 00,138,,https://www.lidl-hellas.gr/s/el-GR/anazitisi-katastimaton/Drama/2-Km-Dramas-Kavalas/
2 Km E.O. Alexandrupolis-Komotinis,Lidl Hellas,Alexandroupoli,Greece,"{'brand': 'Lidl Hellas', 'fascia': 'Lidl Hellas', 'category': 'Retail', 'edit_date': '20250518', 'lat_lon_source': 'Third Party'}",40.84954,25.84696,Lidl Alexandroupoli/Nea Chili,"{'opening_hours': {'Mon': '07:45-21:00', 'Tue': '07:45-21:00', 'Wed': '07:45-21:00', 'Thu': '07:45-21:00', 'Fri': '07:45-21:00', 'Sat': '07:45-21:00'}}",,681 00,14,,https://www.lidl-hellas.gr/s/el-GR/anazitisi-katastimaton/Alexandroupoli/2-Km-EO-Alexandrupolis-Komotinis/
2 Km E.O. N.Moudanion-Thessalonikis,Lidl Hellas,Moudania,Greece,"{'brand': 'Lidl Hellas', 'fascia': 'Lidl Hellas', 'category': 'Retail', 'edit_date': '20250518', 'lat_lon_source': 'Third Party'}",40.25854,23.27606,Lidl Nea Moudania,"{'opening_hours': {'Mon': '07:45-21:00', 'Tue': '07:45-21:00', 'Wed': '07:45-21:00', 'Thu': '07:45-21:00', 'Fri': '07:45-21:00', 'Sat': '07:45-21:00'}}",,632 00,140,,https://www.lidl-hellas.gr/s/el-GR/anazitisi-katastimaton/Moudania/2-Km-EO-NMoudanion-Thessalonikis/
Messinis 20,Lidl Hellas,Polichni,Greece,"{'brand': 'Lidl Hellas', 'fascia': 'Lidl Hellas', 'category': 'Retail', 'edit_date': '20250518', 'lat_lon_source': 'Third Party'}",40.65924,22.95426,Lidl Thess/Polichni,"{'opening_hours': {'Mon': '07:45-21:00', 'Tue': '07:45-21:00', 'Wed': '07:45-21:00', 'Thu': '07:45-21:00', 'Fri': '07:45-21:00', 'Sat': '07:45-21:00'}}",,565 32,141,,https://www.lidl-hellas.gr/s/el-GR/anazitisi-katastimaton/Polichni/Messinis-20/
2 Km Panoramatos-Thermis,Lidl Hellas,Panorama,Greece,"{'brand': 'Lidl Hellas', 'fascia': 'Lidl Hellas', 'category': 'Retail', 'edit_date': '20250518', 'lat_lon_source': 'Third Party'}",40.56085,23.02178,Lidl Thess/Panorama,"{'opening_hours': {'Mon': '07:45-21:00', 'Tue': '07:45-21:00', 'Wed': '07:45-21:00', 'Thu': '07:45-21:00', 'Fri': '07:45-21:00', 'Sat': '07:45-21:00'}}",,552 36,142,,https://www.lidl-hellas.gr/s/el-GR/anazitisi-katastimaton/Panorama/2-Km-Panoramatos-Thermis/
Nea Perifereiaki Od. Veroias,Lidl Hellas,Veroia,Greece,"{'brand': 'Lidl Hellas', 'fascia': 'Lidl Hellas', 'category': 'Retail', 'edit_date': '20250518', 'lat_lon_source': 'Third Party'}",40.51985,22.21349,Lidl Veria/Periferiakos,"{'opening_hours': {'Mon': '07:45-21:00', 'Tue': '07:45-21:00', 'Wed': '07:45-21:00', 'Thu': '07:45-21:00', 'Fri': '07:45-21:00', 'Sat': '07:45-21:00'}}",,591 00,144,,https://www.lidl-hellas.gr/s/el-GR/anazitisi-katastimaton/Veroia/Nea-Perifereiaki-Od-Veroias/
Gianni Ritsou 5,Lidl Hellas,Edessa,Greece,"{'brand': 'Lidl Hellas', 'fascia': 'Lidl Hellas', 'category': 'Retail', 'edit_date': '20250518', 'lat_lon_source': 'Third Party'}",40.80647,22.04172,Lidl Edessa,"{'opening_hours': {'Mon': '07:45-21:00', 'Tue': '07:45-21:00', 'Wed': '07:45-21:00', 'Thu': '07:45-21:00', 'Fri': '07:45-21:00', 'Sat': '07:45-21:00'}}",,582 00,145,,https://www.lidl-hellas.gr/s/el-GR/anazitisi-katastimaton/Edessa/Gianni-Ritsou-5/
2 Km E.O. Larisas-Kosanis,Lidl Hellas,Larisa,Greece,"{'brand': 'Lidl Hellas', 'fascia': 'Lidl Hellas', 'category': 'Retail', 'edit_date': '20250518', 'lat_lon_source': 'Third Party'}",39.6556,22.40678,Lidl Larisa/Giannouli,"{'opening_hours': {'Mon': '07:45-21:00', 'Tue': '07:45-21:00', 'Wed': '07:45-21:00', 'Thu': '07:45-21:00', 'Fri': '07:45-21:00', 'Sat': '07:45-21:00'}}",,415 00,146,,https://www.lidl-hellas.gr/s/el-GR/anazitisi-katastimaton/Larisa/2-Km-EO-Larisas-Kosanis/
Leof. Dimokratias 1,Lidl Hellas,Myrina,Greece,"{'brand': 'Lidl Hellas', 'fascia': 'Lidl Hellas', 'category': 'Retail', 'edit_date': '20250518', 'lat_lon_source': 'Third Party'}",39.88181,25.06768,Lidl Limnos,"{'opening_hours': {'Mon': '07:45-21:00', 'Tue': '07:45-21:00', 'Wed': '07:45-21:00', 'Thu': '07:45-21:00', 'Fri': '07:45-21:00', 'Sat': '07:45-21:00'}}",,814 00,148,,https://www.lidl-hellas.gr/s/el-GR/anazitisi-katastimaton/Myrina/Leof-Dimokratias-1/
2km Kassandreias - Kallitheas,Lidl Hellas,Kassandreia,Greece,"{'brand': 'Lidl Hellas', 'fascia': 'Lidl Hellas', 'category': 'Retail', 'edit_date': '20250518', 'lat_lon_source': 'Third Party'}",40.06117,23.43124,Lidl Kassandreia,"{'opening_hours': {'Mon': '07:45-21:00', 'Tue': '07:45-21:00', 'Wed': '07:45-21:00', 'Thu': '07:45-21:00', 'Fri': '07:45-21:00', 'Sat': '07:45-21:00'}}",,63077,149,,https://www.lidl-hellas.gr/s/el-GR/anazitisi-katastimaton/Kassandreia/2km-Kassandreias---Kallitheas/
1 Km Ep.O. Lagkada-Thessalonikis,Lidl Hellas,Lagkadas,Greece,"{'brand': 'Lidl Hellas', 'fascia': 'Lidl Hellas', 'category': 'Retail', 'edit_date': '20250518', 'lat_lon_source': 'Third Party'}",40.74316,23.05473,Lidl Lagadas,"{'opening_hours': {'Mon': '07:45-21:00', 'Tue': '07:45-21:00', 'Wed': '07:45-21:00', 'Thu': '07:45-21:00', 'Fri': '07:45-21:00', 'Sat': '07:45-21:00'}}",,572 00,15,,https://www.lidl-hellas.gr/s/el-GR/anazitisi-katastimaton/Lagkadas/1-Km-EpO-Lagkada-Thessalonikis/
1 km Ep.Odou Artas-Salaoras,Lidl Hellas,Arta,Greece,"{'brand': 'Lidl Hellas', 'fascia': 'Lidl Hellas', 'category': 'Retail', 'edit_date': '20250518', 'lat_lon_source': 'Third Party'}",39.14903,20.97078,Lidl Arta/Salaora,"{'opening_hours': {'Mon': '07:45-21:00', 'Tue': '07:45-21:00', 'Wed': '07:45-21:00', 'Thu': '07:45-21:00', 'Fri': '07:45-21:00', 'Sat': '07:45-21:00'}}",,471 50,150,,https://www.lidl-hellas.gr/s/el-GR/anazitisi-katastimaton/Arta/1-km-EpOdou-Artas-Salaoras/
G. Papandreou 1,Lidl Hellas,Katerini,Greece,"{'brand': 'Lidl Hellas', 'fascia': 'Lidl Hellas', 'category': 'Retail', 'edit_date': '20250518', 'lat_lon_source': 'Third Party'}",40.27125,22.47835,Lidl Katerini/Andromachi,"{'opening_hours': {'Mon': '07:45-21:00', 'Tue': '07:45-21:00', 'Wed': '07:45-21:00', 'Thu': '07:45-21:00', 'Fri': '07:45-21:00', 'Sat': '07:45-21:00'}}",,601 00,152,,https://www.lidl-hellas.gr/s/el-GR/anazitisi-katastimaton/Katerini/G-Papandreou-1/
Anonymi Odos O.T. 152,Lidl Hellas,Thasos,Greece,"{'brand': 'Lidl Hellas', 'fascia': 'Lidl Hellas', 'category': 'Retail', 'edit_date': '20250518', 'lat_lon_source': 'Third Party'}",40.7746,24.70053,Lidl ,"{'opening_hours': {'Mon': '07:45-21:00', 'Tue': '07:45-21:00', 'Wed': '07:45-21:00', 'Thu': '07:45-21:00', 'Fri': '07:45-21:00', 'Sat': '07:45-21:00'}}",,640 04,154,,https://www.lidl-hellas.gr/s/el-GR/anazitisi-katastimaton/Thasos/Anonymi-Odos-OT-152/
4 km. E.O. Artas-Ioanninon,Lidl Hellas,Ioannina,Greece,"{'brand': 'Lidl Hellas', 'fascia': 'Lidl Hellas', 'category': 'Retail', 'edit_date': '20250518', 'lat_lon_source': 'Third Party'}",39.6275,20.85782,Lidl ,"{'opening_hours': {'Mon': '07:45-21:00', 'Tue': '07:45-21:00', 'Wed': '07:45-21:00', 'Thu': '07:45-21:00', 'Fri': '07:45-21:00', 'Sat': '07:45-21:00'}}",,455 00,155,,https://www.lidl-hellas.gr/s/el-GR/anazitisi-katastimaton/Ioannina/4-km-EO-Artas-Ioanninon/
Fitokou 14,Lidl Hellas,Volos,Greece,"{'brand': 'Lidl Hellas', 'fascia': 'Lidl Hellas', 'category': 'Retail', 'edit_date': '20250518', 'lat_lon_source': 'Third Party'}",39.38214,22.93998,Lidl Volos/Nea Ionia,"{'opening_hours': {'Mon': '07:45-21:00', 'Tue': '07:45-21:00', 'Wed': '07:45-21:00', 'Thu': '07:45-21:00', 'Fri': '07:45-21:00', 'Sat': '07:45-21:00'}}",,384 46,17,,https://www.lidl-hellas.gr/s/el-GR/anazitisi-katastimaton/Volos/Fitokou-14/
Ferron,Lidl Hellas,Volos,Greece,"{'brand': 'Lidl Hellas', 'fascia': 'Lidl Hellas', 'category': 'Retail', 'edit_date': '20250518', 'lat_lon_source': 'Third Party'}",39.36669,22.93433,Lidl Volos/Ferron,"{'opening_hours': {'Mon': '07:45-21:00', 'Tue': '07:45-21:00', 'Wed': '07:45-21:00', 'Thu': '07:45-21:00', 'Fri': '07:45-21:00', 'Sat': '07:45-21:00'}}",,383 34,19,,https://www.lidl-hellas.gr/s/el-GR/anazitisi-katastimaton/Volos/Ferron/
Merarchias Serron,Lidl Hellas,Komotini,Greece,"{'brand': 'Lidl Hellas', 'fascia': 'Lidl Hellas', 'category': 'Retail', 'edit_date': '20250518', 'lat_lon_source': 'Third Party'}",41.11383,25.384,Lidl Komotini/Merarhias,"{'opening_hours': {'Mon': '07:45-21:00', 'Tue': '07:45-21:00', 'Wed': '07:45-21:00', 'Thu': '07:45-21:00', 'Fri': '07:45-21:00', 'Sat': '07:45-21:00'}}",,691 00,2,,https://www.lidl-hellas.gr/s/el-GR/anazitisi-katastimaton/Komotini/Merarchias-Serron/
1 Km P.E.O. Katerinis-Thessalonikis,Lidl Hellas,Katerini,Greece,"{'brand': 'Lidl Hellas', 'fascia': 'Lidl Hellas', 'category': 'Retail', 'edit_date': '20250518', 'lat_lon_source': 'Third Party'}",40.28298,22.52009,Lidl Katerini/Agios Athanasios,"{'opening_hours': {'Mon': '07:45-21:00', 'Tue': '07:45-21:00', 'Wed': '07:45-21:00', 'Thu': '07:45-21:00', 'Fri': '07:45-21:00', 'Sat': '07:45-21:00'}}",,601 00,20,,https://www.lidl-hellas.gr/s/el-GR/anazitisi-katastimaton/Katerini/1-Km-PEO-Katerinis-Thessalonikis/
Leoforos Dimokratias 156,Lidl Hellas,Karditsa,Greece,"{'brand': 'Lidl Hellas', 'fascia': 'Lidl Hellas', 'category': 'Retail', 'edit_date': '20250518', 'lat_lon_source': 'Third Party'}",39.36421,21.93874,Lidl Karditsa/Dimokratias,"{'opening_hours': {'Mon': '07:45-21:00', 'Tue': '07:45-21:00', 'Wed': '07:45-21:00', 'Thu': '07:45-21:00', 'Fri': '07:45-21:00', 'Sat': '07:45-21:00'}}",,431 00,23,,https://www.lidl-hellas.gr/s/el-GR/anazitisi-katastimaton/Karditsa/Leoforos-Dimokratias-156/
1 Km P.E.O. Alexandreias-Veroias,Lidl Hellas,Alexandreia,Greece,"{'brand': 'Lidl Hellas', 'fascia': 'Lidl Hellas', 'category': 'Retail', 'edit_date': '20250518', 'lat_lon_source': 'Third Party'}",40.62677,22.42865,Lidl Alexandria,"{'opening_hours': {'Mon': '07:45-21:00', 'Tue': '07:45-21:00', 'Wed': '07:45-21:00', 'Thu': '07:45-21:00', 'Fri': '07:45-21:00', 'Sat': '07:45-21:00'}}",,593 00,26,,https://www.lidl-hellas.gr/s/el-GR/anazitisi-katastimaton/Alexandreia/1-Km-PEO-Alexandreias-Veroias/
1 Km E.O. Ptolemaidas-Florinas,Lidl Hellas,Ptolemaida,Greece,"{'brand': 'Lidl Hellas', 'fascia': 'Lidl Hellas', 'category': 'Retail', 'edit_date': '20250518', 'lat_lon_source': 'Third Party'}",40.52234,21.68165,Lidl Ptolemaida,"{'opening_hours': {'Mon': '07:45-21:00', 'Tue': '07:45-21:00', 'Wed': '07:45-21:00', 'Thu': '07:45-21:00', 'Fri': '07:45-21:00', 'Sat': '07:45-21:00'}}",,502 00,27,,https://www.lidl-hellas.gr/s/el-GR/anazitisi-katastimaton/Ptolemaida/1-Km-EO-Ptolemaidas-Florinas/
2 Km Serron-Thessalonikis,Lidl Hellas,Serres,Greece,"{'brand': 'Lidl Hellas', 'fascia': 'Lidl Hellas', 'category': 'Retail', 'edit_date': '20250518', 'lat_lon_source': 'Third Party'}",41.09111,23.51516,Lidl Serres/Lefkonas,"{'opening_hours': {'Mon': '07:45-21:00', 'Tue': '07:45-21:00', 'Wed': '07:45-21:00', 'Thu': '07:45-21:00', 'Fri': '07:45-21:00', 'Sat': '07:45-21:00'}}",,621 00,28,,https://www.lidl-hellas.gr/s/el-GR/anazitisi-katastimaton/Serres/2-Km-Serron-Thessalonikis/
Terma Dimokritou,Lidl Hellas,Xanthi,Greece,"{'brand': 'Lidl Hellas', 'fascia': 'Lidl Hellas', 'category': 'Retail', 'edit_date': '20250518', 'lat_lon_source': 'Third Party'}",41.13139,24.89553,Lidl Xanthi/Dimokritou,"{'opening_hours': {'Mon': '07:45-21:00', 'Tue': '07:45-21:00', 'Wed': '07:45-21:00', 'Thu': '07:45-21:00', 'Fri': '07:45-21:00', 'Sat': '07:45-21:00'}}",,671 00,30,,https://www.lidl-hellas.gr/s/el-GR/anazitisi-katastimaton/Xanthi/Terma-Dimokritou/
Chaironias,Lidl Hellas,Livadeia,Greece,"{'brand': 'Lidl Hellas', 'fascia': 'Lidl Hellas', 'category': 'Retail', 'edit_date': '20250518', 'lat_lon_source': 'Third Party'}",38.44465,22.87421,Lidl Livadeia,"{'opening_hours': {'Mon': '07:45-21:00', 'Tue': '07:45-21:00', 'Wed': '07:45-21:00', 'Thu': '07:45-21:00', 'Fri': '07:45-21:00', 'Sat': '07:45-21:00'}}",,321 00,301,,https://www.lidl-hellas.gr/s/el-GR/anazitisi-katastimaton/Livadeia/Chaironias/
Agiou Alexandrou 57-59,Lidl Hellas,Palaio Faliro,Greece,"{'brand': 'Lidl Hellas', 'fascia': 'Lidl Hellas', 'category': 'Retail', 'edit_date': '20250518', 'lat_lon_source': 'Third Party'}",37.9305,23.69523,Lidl Ath/Palaio Faliro-Alexandrou,"{'opening_hours': {'Mon': '07:45-21:00', 'Tue': '07:45-21:00', 'Wed': '07:45-21:00', 'Thu': '07:45-21:00', 'Fri': '07:45-21:00', 'Sat': '07:45-21:00'}}",,175 61,302,,https://www.lidl-hellas.gr/s/el-GR/anazitisi-katastimaton/Palaio-Faliro/Agiou-Alexandrou-57-59/
Leoforos Marathonos 24,Lidl Hellas,Anoixi,Greece,"{'brand': 'Lidl Hellas', 'fascia': 'Lidl Hellas', 'category': 'Retail', 'edit_date': '20250518', 'lat_lon_source': 'Third Party'}",38.12298,23.85734,Lidl Ath/Anixi,"{'opening_hours': {'Mon': '07:45-21:00', 'Tue': '07:45-21:00', 'Wed': '07:45-21:00', 'Thu': '07:45-21:00', 'Fri': '07:45-21:00', 'Sat': '07:45-21:00'}}",,145 69,303,,https://www.lidl-hellas.gr/s/el-GR/anazitisi-katastimaton/Anoixi/Leoforos-Marathonos-24/
Agiou Nikolaou 52-54,Lidl Hellas,Ilion,Greece,"{'brand': 'Lidl Hellas', 'fascia': 'Lidl Hellas', 'category': 'Retail', 'edit_date': '20250518', 'lat_lon_source': 'Third Party'}",38.04204,23.70234,Lidl Ath/Ilion-Radiofonia,"{'opening_hours': {'Mon': '07:45-21:00', 'Tue': '07:45-21:00', 'Wed': '07:45-21:00', 'Thu': '07:45-21:00', 'Fri': '07:45-21:00', 'Sat': '07:45-21:00'}}",,131 23,304,,https://www.lidl-hellas.gr/s/el-GR/anazitisi-katastimaton/Ilion/Agiou-Nikolaou-52-54/
Fylis 1,Lidl Hellas,Aspropyrgos,Greece,"{'brand': 'Lidl Hellas', 'fascia': 'Lidl Hellas', 'category': 'Retail', 'edit_date': '20250518', 'lat_lon_source': 'Third Party'}",38.06478,23.59492,Lidl Attica/Aspropyrgos,"{'opening_hours': {'Mon': '07:45-21:00', 'Tue': '07:45-21:00', 'Wed': '07:45-21:00', 'Thu': '07:45-21:00', 'Fri': '07:45-21:00', 'Sat': '07:45-21:00'}}",,193 00,305,,https://www.lidl-hellas.gr/s/el-GR/anazitisi-katastimaton/Aspropyrgos/Fylis-1/
Leof. Irakleiou 412,Lidl Hellas,Irakleio,Greece,"{'brand': 'Lidl Hellas', 'fascia': 'Lidl Hellas', 'category': 'Retail', 'edit_date': '20250518', 'lat_lon_source': 'Third Party'}",38.05254,23.7677,Lidl Ath/Iraklio,"{'opening_hours': {'Mon': '07:45-21:00', 'Tue': '07:45-21:00', 'Wed': '07:45-21:00', 'Thu': '07:45-21:00', 'Fri': '07:45-21:00', 'Sat': '07:45-21:00'}}",,141 22,309,,https://www.lidl-hellas.gr/s/el-GR/anazitisi-katastimaton/Irakleio/Leof-Irakleiou-412/
2 Km Farsalon-Larisas,Lidl Hellas,Farsala,Greece,"{'brand': 'Lidl Hellas', 'fascia': 'Lidl Hellas', 'category': 'Retail', 'edit_date': '20250518', 'lat_lon_source': 'Third Party'}",39.30485,22.38547,Lidl Farsala,"{'opening_hours': {'Mon': '07:45-21:00', 'Tue': '07:45-21:00', 'Wed': '07:45-21:00', 'Thu': '07:45-21:00', 'Fri': '07:45-21:00', 'Sat': '07:45-21:00'}}",,403 00,31,,https://www.lidl-hellas.gr/s/el-GR/anazitisi-katastimaton/Farsala/2-Km-Farsalon-Larisas/
91. km Ep. odos Athinon - Lamias,Lidl Hellas,Thiva,Greece,"{'brand': 'Lidl Hellas', 'fascia': 'Lidl Hellas', 'category': 'Retail', 'edit_date': '20250518', 'lat_lon_source': 'Third Party'}",38.33392,23.31161,Lidl Thiva,"{'opening_hours': {'Mon': '07:45-21:00', 'Tue': '07:45-21:00', 'Wed': '07:45-21:00', 'Thu': '07:45-21:00', 'Fri': '07:45-21:00', 'Sat': '07:45-21:00'}}",,322 00,312,,https://www.lidl-hellas.gr/s/el-GR/anazitisi-katastimaton/Thiva/91-km-Ep-odos-Athinon---Lamias/
42 Km P.E.O. Athinon-Korinthou,Lidl Hellas,Megara,Greece,"{'brand': 'Lidl Hellas', 'fascia': 'Lidl Hellas', 'category': 'Retail', 'edit_date': '20250518', 'lat_lon_source': 'Third Party'}",37.9987,23.35521,Lidl Attica/Megara,"{'opening_hours': {'Mon': '07:45-21:00', 'Tue': '07:45-21:00', 'Wed': '07:45-21:00', 'Thu': '07:45-21:00', 'Fri': '07:45-21:00', 'Sat': '07:45-21:00'}}",,191 00,313,,https://www.lidl-hellas.gr/s/el-GR/anazitisi-katastimaton/Megara/42-Km-PEO-Athinon-Korinthou/
Ymittou 108-110,Lidl Hellas,Athens,Greece,"{'brand': 'Lidl Hellas', 'fascia': 'Lidl Hellas', 'category': 'Retail', 'edit_date': '20250518', 'lat_lon_source': 'Third Party'}",37.96689,23.74879,Lidl Ath/Pagkrati,"{'opening_hours': {'Mon': '07:45-21:00', 'Tue': '07:45-21:00', 'Wed': '07:45-21:00', 'Thu': '07:45-21:00', 'Fri': '07:45-21:00', 'Sat': '07:45-21:00'}}",,116 34,314,,https://www.lidl-hellas.gr/s/el-GR/anazitisi-katastimaton/Athens/Ymittou-108-110/
Leoforos Dimokratias 4-6,Lidl Hellas,Melissia,Greece,"{'brand': 'Lidl Hellas', 'fascia': 'Lidl Hellas', 'category': 'Retail', 'edit_date': '20250518', 'lat_lon_source': 'Third Party'}",38.05086,23.8331,Lidl Ath/Melissia,"{'opening_hours': {'Mon': '07:45-21:00', 'Tue': '07:45-21:00', 'Wed': '07:45-21:00', 'Thu': '07:45-21:00', 'Fri': '07:45-21:00', 'Sat': '07:45-21:00'}}",,151 27,316,,https://www.lidl-hellas.gr/s/el-GR/anazitisi-katastimaton/Melissia/Leoforos-Dimokratias-4-6/
Rodopis 2,Lidl Hellas,Nea Filadelfeia,Greece,"{'brand': 'Lidl Hellas', 'fascia': 'Lidl Hellas', 'category': 'Retail', 'edit_date': '20250518', 'lat_lon_source': 'Third Party'}",38.0337,23.74111,Lidl Ath/Nea Filadelfia,"{'opening_hours': {'Mon': '07:45-21:00', 'Tue': '07:45-21:00', 'Wed': '07:45-21:00', 'Thu': '07:45-21:00', 'Fri': '07:45-21:00', 'Sat': '07:45-21:00'}}",,143 41,319,,https://www.lidl-hellas.gr/s/el-GR/anazitisi-katastimaton/Nea-Filadelfeia/Rodopis-2/
1 Km Orestiadas-Pyrgou,Lidl Hellas,Orestiada,Greece,"{'brand': 'Lidl Hellas', 'fascia': 'Lidl Hellas', 'category': 'Retail', 'edit_date': '20250518', 'lat_lon_source': 'Third Party'}",41.50007,26.51639,Lidl Orestiada,"{'opening_hours': {'Mon': '07:45-21:00', 'Tue': '07:45-21:00', 'Wed': '07:45-21:00', 'Thu': '07:45-21:00', 'Fri': '07:45-21:00', 'Sat': '07:45-21:00'}}",,682 00,32,,https://www.lidl-hellas.gr/s/el-GR/anazitisi-katastimaton/Orestiada/1-Km-Orestiadas-Pyrgou/
Leof. Vasileos Konstantinou 20,Lidl Hellas,Kropia,Greece,"{'brand': 'Lidl Hellas', 'fascia': 'Lidl Hellas', 'category': 'Retail', 'edit_date': '20250518', 'lat_lon_source': 'Third Party'}",37.91295,23.87418,Lidl Attica/Koropi,"{'opening_hours': {'Mon': '07:45-21:00', 'Tue': '07:45-21:00', 'Wed': '07:45-21:00', 'Thu': '07:45-21:00', 'Fri': '07:45-21:00', 'Sat': '07:45-21:00'}}",,194 00,320,,https://www.lidl-hellas.gr/s/el-GR/anazitisi-katastimaton/Kropia/Leof-Vasileos-Konstantinou-20/
Christou Beka,Lidl Hellas,Artemida,Greece,"{'brand': 'Lidl Hellas', 'fascia': 'Lidl Hellas', 'category': 'Retail', 'edit_date': '20250518', 'lat_lon_source': 'Third Party'}",37.96773,23.90742,Lidl Attica/Spata,"{'opening_hours': {'Mon': '07:45-21:00', 'Tue': '07:45-21:00', 'Wed': '07:45-21:00', 'Thu': '07:45-21:00', 'Fri': '07:45-21:00', 'Sat': '07:45-21:00'}}",,190 04,321,,https://www.lidl-hellas.gr/s/el-GR/anazitisi-katastimaton/Artemida/Christou-Beka/
Leof. Dimokratias 216,Lidl Hellas,Acharnes,Greece,"{'brand': 'Lidl Hellas', 'fascia': 'Lidl Hellas', 'category': 'Retail', 'edit_date': '20250518', 'lat_lon_source': 'Third Party'}",38.0621,23.73177,Lidl Ath/Menidi-Dimokratias,"{'opening_hours': {'Mon': '07:45-21:00', 'Tue': '07:45-21:00', 'Wed': '07:45-21:00', 'Thu': '07:45-21:00', 'Fri': '07:45-21:00', 'Sat': '07:45-21:00'}}",,136 71,322,,https://www.lidl-hellas.gr/s/el-GR/anazitisi-katastimaton/Acharnes/Leof-Dimokratias-216/
Alekou Panagouli 91,Lidl Hellas,Nea Ionia,Greece,"{'brand': 'Lidl Hellas', 'fascia': 'Lidl Hellas', 'category': 'Retail', 'edit_date': '20250518', 'lat_lon_source': 'Third Party'}",38.04281,23.76049,Lidl Ath/Nea Ionia,"{'opening_hours': {'Mon': '07:45-21:00', 'Tue': '07:45-21:00', 'Wed': '07:45-21:00', 'Thu': '07:45-21:00', 'Fri': '07:45-21:00', 'Sat': '07:45-21:00'}}",,142 34,323,,https://www.lidl-hellas.gr/s/el-GR/anazitisi-katastimaton/Nea-Ionia/Alekou-Panagouli-91/
1. km E.O. Istieas - Chalkidas,Lidl Hellas,Istiea Evias,Greece,"{'brand': 'Lidl Hellas', 'fascia': 'Lidl Hellas', 'category': 'Retail', 'edit_date': '20250518', 'lat_lon_source': 'Third Party'}",38.95542,23.14106,Lidl Istiea,"{'opening_hours': {'Mon': '07:45-21:00', 'Tue': '07:45-21:00', 'Wed': '07:45-21:00', 'Thu': '07:45-21:00', 'Fri': '07:45-21:00', 'Sat': '07:45-21:00'}}",,342 00,324,,https://www.lidl-hellas.gr/s/el-GR/anazitisi-katastimaton/Istiea-Evias/1-km-EO-Istieas---Chalkidas/
Ethnikis Antistaseos 6,Lidl Hellas,Drapetsona,Greece,"{'brand': 'Lidl Hellas', 'fascia': 'Lidl Hellas', 'category': 'Retail', 'edit_date': '20250518', 'lat_lon_source': 'Third Party'}",37.94941,23.63416,Lidl Ath/Drapetsona,"{'opening_hours': {'Mon': '07:45-21:00', 'Tue': '07:45-21:00', 'Wed': '07:45-21:00', 'Thu': '07:45-21:00', 'Fri': '07:45-21:00', 'Sat': '07:45-21:00'}}",,186 48,327,,https://www.lidl-hellas.gr/s/el-GR/anazitisi-katastimaton/Drapetsona/Ethnikis-Antistaseos-6/
Leof. Alimou 79,Lidl Hellas,Argyroupoli,Greece,"{'brand': 'Lidl Hellas', 'fascia': 'Lidl Hellas', 'category': 'Retail', 'edit_date': '20250518', 'lat_lon_source': 'Third Party'}",37.90865,23.73733,Lidl Ath/Argiroupoli,"{'opening_hours': {'Mon': '07:45-21:00', 'Tue': '07:45-21:00', 'Wed': '07:45-21:00', 'Thu': '07:45-21:00', 'Fri': '07:45-21:00', 'Sat': '07:45-21:00'}}",,164 52,328,,https://www.lidl-hellas.gr/s/el-GR/anazitisi-katastimaton/Argyroupoli/Leof-Alimou-79/
Kritikou Pelagous 26,Lidl Hellas,Ano Liosia,Greece,"{'brand': 'Lidl Hellas', 'fascia': 'Lidl Hellas', 'category': 'Retail', 'edit_date': '20250518', 'lat_lon_source': 'Third Party'}",38.075,23.70918,Lidl Ath/Ano Liosia,"{'opening_hours': {'Mon': '07:45-21:00', 'Tue': '07:45-21:00', 'Wed': '07:45-21:00', 'Thu': '07:45-21:00', 'Fri': '07:45-21:00', 'Sat': '07:45-21:00'}}",,133 41,329,,https://www.lidl-hellas.gr/s/el-GR/anazitisi-katastimaton/Ano-Liosia/Kritikou-Pelagous-26/
1 Km Didymoteichou-Orestiadas,Lidl Hellas,Didymoteicho,Greece,"{'brand': 'Lidl Hellas', 'fascia': 'Lidl Hellas', 'category': 'Retail', 'edit_date': '20250518', 'lat_lon_source': 'Third Party'}",41.35692,26.50799,Lidl Didimoticho,"{'opening_hours': {'Mon': '07:45-21:00', 'Tue': '07:45-21:00', 'Wed': '07:45-21:00', 'Thu': '07:45-21:00', 'Fri': '07:45-21:00', 'Sat': '07:45-21:00'}}",,683 00,33,,https://www.lidl-hellas.gr/s/el-GR/anazitisi-katastimaton/Didymoteicho/1-Km-Didymoteichou-Orestiadas/
Konstadinoupoleos  1 & Leof.Kifisou,Lidl Hellas,Peristeri,Greece,"{'brand': 'Lidl Hellas', 'fascia': 'Lidl Hellas', 'category': 'Retail', 'edit_date': '20250518', 'lat_lon_source': 'Third Party'}",38.00813,23.71416,Lidl Ath/Peristeri-Kifisou,"{'opening_hours': {'Mon': '07:45-21:00', 'Tue': '07:45-21:00', 'Wed': '07:45-21:00', 'Thu': '07:45-21:00', 'Fri': '07:45-21:00', 'Sat': '07:45-21:00'}}",,121 32,330,,https://www.lidl-hellas.gr/s/el-GR/anazitisi-katastimaton/Peristeri/Konstadinoupoleos--1-&-LeofKifisou/
Alytroton Patridon 7,Lidl Hellas,Lamia,Greece,"{'brand': 'Lidl Hellas', 'fascia': 'Lidl Hellas', 'category': 'Retail', 'edit_date': '20250518', 'lat_lon_source': 'Third Party'}",38.92211,22.42573,Lidl Lamia/Galaneika,"{'opening_hours': {'Mon': '07:45-21:00', 'Tue': '07:45-21:00', 'Wed': '07:45-21:00', 'Thu': '07:45-21:00', 'Fri': '07:45-21:00', 'Sat': '07:45-21:00'}}",,351 00,331,,https://www.lidl-hellas.gr/s/el-GR/anazitisi-katastimaton/Lamia/Alytroton-Patridon-7/
Perifereiaki Odos Markopoulou,Lidl Hellas,Markopoulo Mesogaias,Greece,"{'brand': 'Lidl Hellas', 'fascia': 'Lidl Hellas', 'category': 'Retail', 'edit_date': '20250518', 'lat_lon_source': 'Third Party'}",37.88272,23.92592,Lidl Attica/Markopoulo,"{'opening_hours': {'Mon': '07:45-21:00', 'Tue': '07:45-21:00', 'Wed': '07:45-21:00', 'Thu': '07:45-21:00', 'Fri': '07:45-21:00', 'Sat': '07:45-21:00'}}",,190 03,333,,https://www.lidl-hellas.gr/s/el-GR/anazitisi-katastimaton/Markopoulo-Mesogaias/Perifereiaki-Odos-Markopoulou/
Thivon 226,Lidl Hellas,Agios Ioannis Rentis,Greece,"{'brand': 'Lidl Hellas', 'fascia': 'Lidl Hellas', 'category': 'Retail', 'edit_date': '20250518', 'lat_lon_source': 'Third Party'}",37.97385,23.66593,Lidl Ath/Rentis-Thivon 226,"{'opening_hours': {'Mon': '07:45-21:00', 'Tue': '07:45-21:00', 'Wed': '07:45-21:00', 'Thu': '07:45-21:00', 'Fri': '07:45-21:00', 'Sat': '07:45-21:00'}}",,182 33,334,,https://www.lidl-hellas.gr/s/el-GR/anazitisi-katastimaton/Agios-Ioannis-Rentis/Thivon-226/
Leof. Athinon 42,Lidl Hellas,Peristeri,Greece,"{'brand': 'Lidl Hellas', 'fascia': 'Lidl Hellas', 'category': 'Retail', 'edit_date': '20250518', 'lat_lon_source': 'Third Party'}",38.0,23.68878,Lidl Ath/Peristeri-Athinon,"{'opening_hours': {'Mon': '07:45-21:00', 'Tue': '07:45-21:00', 'Wed': '07:45-21:00', 'Thu': '07:45-21:00', 'Fri': '07:45-21:00', 'Sat': '07:45-21:00'}}",,121 31,336,,https://www.lidl-hellas.gr/s/el-GR/anazitisi-katastimaton/Peristeri/Leof-Athinon-42/
Leof. Thivon 40,Lidl Hellas,Piraeus,Greece,"{'brand': 'Lidl Hellas', 'fascia': 'Lidl Hellas', 'category': 'Retail', 'edit_date': '20250518', 'lat_lon_source': 'Third Party'}",37.9568,23.65092,Lidl Ath/Piraeus-Thivon,"{'opening_hours': {'Mon': '07:45-21:00', 'Tue': '07:45-21:00', 'Wed': '07:45-21:00', 'Thu': '07:45-21:00', 'Fri': '07:45-21:00', 'Sat': '07:45-21:00'}}",,185 43,337,,https://www.lidl-hellas.gr/s/el-GR/anazitisi-katastimaton/Piraeus/Leof-Thivon-40/
Petrou Ralli 21,Lidl Hellas,Tavros,Greece,"{'brand': 'Lidl Hellas', 'fascia': 'Lidl Hellas', 'category': 'Retail', 'edit_date': '20250518', 'lat_lon_source': 'Third Party'}",37.97568,23.69505,Lidl Ath/Tavros,"{'opening_hours': {'Mon': '07:45-21:00', 'Tue': '07:45-21:00', 'Wed': '07:45-21:00', 'Thu': '07:45-21:00', 'Fri': '07:45-21:00', 'Sat': '07:45-21:00'}}",,177 78,338,,https://www.lidl-hellas.gr/s/el-GR/anazitisi-katastimaton/Tavros/Petrou-Ralli-21/
14 Km E.O. Athinon-Lamias,Lidl Hellas,Metamorfosi,Greece,"{'brand': 'Lidl Hellas', 'fascia': 'Lidl Hellas', 'category': 'Retail', 'edit_date': '20250518', 'lat_lon_source': 'Third Party'}",38.06836,23.76073,Lidl Ath/Metamorfosi,"{'opening_hours': {'Mon': '07:45-21:00', 'Tue': '07:45-21:00', 'Wed': '07:45-21:00', 'Thu': '07:45-21:00', 'Fri': '07:45-21:00', 'Sat': '07:45-21:00'}}",,144 52,339,,https://www.lidl-hellas.gr/s/el-GR/anazitisi-katastimaton/Metamorfosi/14-Km-EO-Athinon-Lamias/
Melpomenis 1,Lidl Hellas,Evosmos,Greece,"{'brand': 'Lidl Hellas', 'fascia': 'Lidl Hellas', 'category': 'Retail', 'edit_date': '20250518', 'lat_lon_source': 'Third Party'}",40.67724,22.9003,Lidl Thess/Evosmos-Periferiakos,"{'opening_hours': {'Mon': '07:45-21:00', 'Tue': '07:45-21:00', 'Wed': '07:45-21:00', 'Thu': '07:45-21:00', 'Fri': '07:45-21:00', 'Sat': '07:45-21:00'}}",,562 24,34,,https://www.lidl-hellas.gr/s/el-GR/anazitisi-katastimaton/Evosmos/Melpomenis-1/
Leof. Vouliagmenis 323-325,Lidl Hellas,Agios Dimitrios,Greece,"{'brand': 'Lidl Hellas', 'fascia': 'Lidl Hellas', 'category': 'Retail', 'edit_date': '20250518', 'lat_lon_source': 'Third Party'}",37.94196,23.74065,Lidl Ath/Agios Dimitrios,"{'opening_hours': {'Mon': '07:45-21:00', 'Tue': '07:45-21:00', 'Wed': '07:45-21:00', 'Thu': '07:45-21:00', 'Fri': '07:45-21:00', 'Sat': '07:45-21:00'}}",,172 36,341,,https://www.lidl-hellas.gr/s/el-GR/anazitisi-katastimaton/Agios-Dimitrios/Leof-Vouliagmenis-323-325/
Iera Odos 319,Lidl Hellas,Aigaleo,Greece,"{'brand': 'Lidl Hellas', 'fascia': 'Lidl Hellas', 'category': 'Retail', 'edit_date': '20250518', 'lat_lon_source': 'Third Party'}",37.99643,23.66926,Lidl Ath/Egaleo-Iera Odos,"{'opening_hours': {'Mon': '07:45-21:00', 'Tue': '07:45-21:00', 'Wed': '07:45-21:00', 'Thu': '07:45-21:00', 'Fri': '07:45-21:00', 'Sat': '07:45-21:00'}}",,122 44,343,,https://www.lidl-hellas.gr/s/el-GR/anazitisi-katastimaton/Aigaleo/Iera-Odos-319/
Agias Sofias 65,Lidl Hellas,Vyronas,Greece,"{'brand': 'Lidl Hellas', 'fascia': 'Lidl Hellas', 'category': 'Retail', 'edit_date': '20250518', 'lat_lon_source': 'Third Party'}",37.95736,23.7533,Lidl Ath/Vironas,"{'opening_hours': {'Mon': '07:45-21:00', 'Tue': '07:45-21:00', 'Wed': '07:45-21:00', 'Thu': '07:45-21:00', 'Fri': '07:45-21:00', 'Sat': '07:45-21:00'}}",,162 32,344,,https://www.lidl-hellas.gr/s/el-GR/anazitisi-katastimaton/Vyronas/Agias-Sofias-65/
Lamias,Lidl Hellas,Stylida,Greece,"{'brand': 'Lidl Hellas', 'fascia': 'Lidl Hellas', 'category': 'Retail', 'edit_date': '20250518', 'lat_lon_source': 'Third Party'}",38.91046,22.60124,Lidl Stylida,"{'opening_hours': {'Mon': '07:45-21:00', 'Tue': '07:45-21:00', 'Wed': '07:45-21:00', 'Thu': '07:45-21:00', 'Fri': '07:45-21:00', 'Sat': '07:45-21:00'}}",,353 00,345,,https://www.lidl-hellas.gr/s/el-GR/anazitisi-katastimaton/Stylida/Lamias/
Liosion 132-134,Lidl Hellas,Athens,Greece,"{'brand': 'Lidl Hellas', 'fascia': 'Lidl Hellas', 'category': 'Retail', 'edit_date': '20250518', 'lat_lon_source': 'Third Party'}",38.00077,23.72237,Lidl ,"{'opening_hours': {'Mon': '07:45-21:00', 'Tue': '07:45-21:00', 'Wed': '07:45-21:00', 'Thu': '07:45-21:00', 'Fri': '07:45-21:00', 'Sat': '07:45-21:00'}}",,104 45,346,,https://www.lidl-hellas.gr/s/el-GR/anazitisi-katastimaton/Athens/Liosion-132-134/
1 Km E.O. Neas Artakis-Psachnon,Lidl Hellas,Nea Artaki,Greece,"{'brand': 'Lidl Hellas', 'fascia': 'Lidl Hellas', 'category': 'Retail', 'edit_date': '20250518', 'lat_lon_source': 'Third Party'}",38.5241,23.63731,Lidl Nea Artaki,"{'opening_hours': {'Mon': '07:45-21:00', 'Tue': '07:45-21:00', 'Wed': '07:45-21:00', 'Thu': '07:45-21:00', 'Fri': '07:45-21:00', 'Sat': '07:45-21:00'}}",,346 00,347,,https://www.lidl-hellas.gr/s/el-GR/anazitisi-katastimaton/Nea-Artaki/1-Km-EO-Neas-Artakis-Psachnon/
Leoforos Vouliagmenis 87,Lidl Hellas,Glyfada,Greece,"{'brand': 'Lidl Hellas', 'fascia': 'Lidl Hellas', 'category': 'Retail', 'edit_date': '20250518', 'lat_lon_source': 'Third Party'}",37.87078,23.75949,Lidl Ath/Glyfada,"{'opening_hours': {'Mon': '07:45-21:00', 'Tue': '07:45-21:00', 'Wed': '07:45-21:00', 'Thu': '07:45-21:00', 'Fri': '07:45-21:00', 'Sat': '07:45-21:00'}}",,166 74,348,,https://www.lidl-hellas.gr/s/el-GR/anazitisi-katastimaton/Glyfada/Leoforos-Vouliagmenis-87/
Leof. Souniou 7,Lidl Hellas,Keratea,Greece,"{'brand': 'Lidl Hellas', 'fascia': 'Lidl Hellas', 'category': 'Retail', 'edit_date': '20250518', 'lat_lon_source': 'Third Party'}",37.82549,23.95571,Lidl Attica/Keratea,"{'opening_hours': {'Mon': '07:45-21:00', 'Tue': '07:45-21:00', 'Wed': '07:45-21:00', 'Thu': '07:45-21:00', 'Fri': '07:45-21:00', 'Sat': '07:45-21:00'}}",,190 01,351,,https://www.lidl-hellas.gr/s/el-GR/anazitisi-katastimaton/Keratea/Leof-Souniou-7/
Leof. Mesogeion 191-193,Lidl Hellas,Athens,Greece,"{'brand': 'Lidl Hellas', 'fascia': 'Lidl Hellas', 'category': 'Retail', 'edit_date': '20250518', 'lat_lon_source': 'Third Party'}",37.99476,23.77684,Lidl Ath/Ellinorosson,"{'opening_hours': {'Mon': '07:45-21:00', 'Tue': '07:45-21:00', 'Wed': '07:45-21:00', 'Thu': '07:45-21:00', 'Fri': '07:45-21:00', 'Sat': '07:45-21:00'}}",,115 25,352,,https://www.lidl-hellas.gr/s/el-GR/anazitisi-katastimaton/Athens/Leof-Mesogeion-191-193/
Averof 36,Lidl Hellas,Nea Ionia,Greece,"{'brand': 'Lidl Hellas', 'fascia': 'Lidl Hellas', 'category': 'Retail', 'edit_date': '20250518', 'lat_lon_source': 'Third Party'}",38.03528,23.74881,Lidl Ath/Nea Ionia-Perissos,"{'opening_hours': {'Mon': '07:45-21:00', 'Tue': '07:45-21:00', 'Wed': '07:45-21:00', 'Thu': '07:45-21:00', 'Fri': '07:45-21:00', 'Sat': '07:45-21:00'}}",,142 32,353,,https://www.lidl-hellas.gr/s/el-GR/anazitisi-katastimaton/Nea-Ionia/Averof-36/
2 Km E.O. Chalkidas-Lepouron,Lidl Hellas,Chalkida,Greece,"{'brand': 'Lidl Hellas', 'fascia': 'Lidl Hellas', 'category': 'Retail', 'edit_date': '20250518', 'lat_lon_source': 'Third Party'}",38.43876,23.63486,Lidl Chalkida/Nea Lampsakos,"{'opening_hours': {'Mon': '07:45-21:00', 'Tue': '07:45-21:00', 'Wed': '07:45-21:00', 'Thu': '07:45-21:00', 'Fri': '07:45-21:00', 'Sat': '07:45-21:00'}}",,341 00,354,,https://www.lidl-hellas.gr/s/el-GR/anazitisi-katastimaton/Chalkida/2-Km-EO-Chalkidas-Lepouron/
Leof. Mesogeion 475-477,Lidl Hellas,Agia Paraskevi,Greece,"{'brand': 'Lidl Hellas', 'fascia': 'Lidl Hellas', 'category': 'Retail', 'edit_date': '20250518', 'lat_lon_source': 'Third Party'}",38.01394,23.82592,Lidl Ath/Agia Paraskevi,"{'opening_hours': {'Mon': '07:45-21:00', 'Tue': '07:45-21:00', 'Wed': '07:45-21:00', 'Thu': '07:45-21:00', 'Fri': '07:45-21:00', 'Sat': '07:45-21:00'}}",,153 43,356,,https://www.lidl-hellas.gr/s/el-GR/anazitisi-katastimaton/Agia-Paraskevi/Leof-Mesogeion-475-477/
Ipeirou 14,Lidl Hellas,Ymittos,Greece,"{'brand': 'Lidl Hellas', 'fascia': 'Lidl Hellas', 'category': 'Retail', 'edit_date': '20250518', 'lat_lon_source': 'Third Party'}",37.95572,23.74004,Lidl Ath/Dafni,"{'opening_hours': {'Mon': '07:45-21:00', 'Tue': '07:45-21:00', 'Wed': '07:45-21:00', 'Thu': '07:45-21:00', 'Fri': '07:45-21:00', 'Sat': '07:45-21:00'}}",,172 37,357,,https://www.lidl-hellas.gr/s/el-GR/anazitisi-katastimaton/Ymittos/Ipeirou-14/
Agisilaou 38-40,Lidl Hellas,Kallithea,Greece,"{'brand': 'Lidl Hellas', 'fascia': 'Lidl Hellas', 'category': 'Retail', 'edit_date': '20250518', 'lat_lon_source': 'Third Party'}",37.94525,23.68722,Lidl Ath/Kallithea-Agisilaou,"{'opening_hours': {'Mon': '07:45-21:00', 'Tue': '07:45-21:00', 'Wed': '07:45-21:00', 'Thu': '07:45-21:00', 'Fri': '07:45-21:00', 'Sat': '07:45-21:00'}}",,176 74,358,,https://www.lidl-hellas.gr/s/el-GR/anazitisi-katastimaton/Kallithea/Agisilaou-38-40/
2 Km Leof. Porto Rafti,Lidl Hellas,Markopoulo Mesogaias,Greece,"{'brand': 'Lidl Hellas', 'fascia': 'Lidl Hellas', 'category': 'Retail', 'edit_date': '20250518', 'lat_lon_source': 'Third Party'}",37.89373,23.98936,Lidl Attica/Porto Rafti,"{'opening_hours': {'Mon': '07:45-21:00', 'Tue': '07:45-21:00', 'Wed': '07:45-21:00', 'Thu': '07:45-21:00', 'Fri': '07:45-21:00', 'Sat': '07:45-21:00'}}",,190 03,361,,https://www.lidl-hellas.gr/s/el-GR/anazitisi-katastimaton/Markopoulo-Mesogaias/2-Km-Leof-Porto-Rafti/
Freiderikou Smith 37,Lidl Hellas,Athens,Greece,"{'brand': 'Lidl Hellas', 'fascia': 'Lidl Hellas', 'category': 'Retail', 'edit_date': '20250518', 'lat_lon_source': 'Third Party'}",37.95671,23.72142,Lidl Ath/Neos Kosmos,"{'opening_hours': {'Mon': '07:45-21:00', 'Tue': '07:45-21:00', 'Wed': '07:45-21:00', 'Thu': '07:45-21:00', 'Fri': '07:45-21:00', 'Sat': '07:45-21:00'}}",,117 45,364,,https://www.lidl-hellas.gr/s/el-GR/anazitisi-katastimaton/Athens/Freiderikou-Smith-37/
Leof. Lavriou 56-58,Lidl Hellas,Paiania,Greece,"{'brand': 'Lidl Hellas', 'fascia': 'Lidl Hellas', 'category': 'Retail', 'edit_date': '20250518', 'lat_lon_source': 'Third Party'}",37.96409,23.85447,Lidl Attica/Peania,"{'opening_hours': {'Mon': '07:45-21:00', 'Tue': '07:45-21:00', 'Wed': '07:45-21:00', 'Thu': '07:45-21:00', 'Fri': '07:45-21:00', 'Sat': '07:45-21:00'}}",,190 02,365,,https://www.lidl-hellas.gr/s/el-GR/anazitisi-katastimaton/Paiania/Leof-Lavriou-56-58/
Leof. Marathonos 100-102,Lidl Hellas,Gerakas,Greece,"{'brand': 'Lidl Hellas', 'fascia': 'Lidl Hellas', 'category': 'Retail', 'edit_date': '20250518', 'lat_lon_source': 'Third Party'}",38.00763,23.85773,Lidl Ath/Gerakas,"{'opening_hours': {'Mon': '07:45-21:00', 'Tue': '07:45-21:00', 'Wed': '07:45-21:00', 'Thu': '07:45-21:00', 'Fri': '07:45-21:00', 'Sat': '07:45-21:00'}}",,153 44,366,,https://www.lidl-hellas.gr/s/el-GR/anazitisi-katastimaton/Gerakas/Leof-Marathonos-100-102/
2 Km Leof. Varis-Koropiou,Lidl Hellas,Vari,Greece,"{'brand': 'Lidl Hellas', 'fascia': 'Lidl Hellas', 'category': 'Retail', 'edit_date': '20250518', 'lat_lon_source': 'Third Party'}",37.84563,23.82279,Lidl Attica/Vari,"{'opening_hours': {'Mon': '07:45-21:00', 'Tue': '07:45-21:00', 'Wed': '07:45-21:00', 'Thu': '07:45-21:00', 'Fri': '07:45-21:00', 'Sat': '07:45-21:00'}}",,166 72,368,,https://www.lidl-hellas.gr/s/el-GR/anazitisi-katastimaton/Vari/2-Km-Leof-Varis-Koropiou/
24 km Athinon-Lamias,Lidl Hellas,Agios Stefanos,Greece,"{'brand': 'Lidl Hellas', 'fascia': 'Lidl Hellas', 'category': 'Retail', 'edit_date': '20250518', 'lat_lon_source': 'Third Party'}",38.14616,23.84927,Lidl Ath/Agios Stefanos,"{'opening_hours': {'Mon': '07:45-21:00', 'Tue': '07:45-21:00', 'Wed': '07:45-21:00', 'Thu': '07:45-21:00', 'Fri': '07:45-21:00', 'Sat': '07:45-21:00'}}",,145 65,369,,https://www.lidl-hellas.gr/s/el-GR/anazitisi-katastimaton/Agios-Stefanos/24-km-Athinon-Lamias/
4 Km Oraiokastrou-Thessalonikis,Lidl Hellas,Oraiokastro,Greece,"{'brand': 'Lidl Hellas', 'fascia': 'Lidl Hellas', 'category': 'Retail', 'edit_date': '20250518', 'lat_lon_source': 'Third Party'}",40.70295,22.93876,Lidl Thess/Oreokastro,"{'opening_hours': {'Mon': '07:45-21:00', 'Tue': '07:45-21:00', 'Wed': '07:45-21:00', 'Thu': '07:45-21:00', 'Fri': '07:45-21:00', 'Sat': '07:45-21:00'}}",,570 13,37,,https://www.lidl-hellas.gr/s/el-GR/anazitisi-katastimaton/Oraiokastro/4-Km-Oraiokastrou-Thessalonikis/
44 Km E.O. Chalkidas-Lepouron,Lidl Hellas,Kymi,Greece,"{'brand': 'Lidl Hellas', 'fascia': 'Lidl Hellas', 'category': 'Retail', 'edit_date': '20250518', 'lat_lon_source': 'Third Party'}",38.40139,24.04925,Lidl Aliveri,"{'opening_hours': {'Mon': '07:45-21:00', 'Tue': '07:45-21:00', 'Wed': '07:45-21:00', 'Thu': '07:45-21:00', 'Fri': '07:45-21:00', 'Sat': '07:45-21:00'}}",,345 00,378,,https://www.lidl-hellas.gr/s/el-GR/anazitisi-katastimaton/Kymi/44-Km-EO-Chalkidas-Lepouron/
Leof. Agiou Dimitriou 300,Lidl Hellas,Agios Dimitrios,Greece,"{'brand': 'Lidl Hellas', 'fascia': 'Lidl Hellas', 'category': 'Retail', 'edit_date': '20250518', 'lat_lon_source': 'Third Party'}",37.92337,23.7233,Lidl Ath/Brachami,"{'opening_hours': {'Mon': '07:45-21:00', 'Tue': '07:45-21:00', 'Wed': '07:45-21:00', 'Thu': '07:45-21:00', 'Fri': '07:45-21:00', 'Sat': '07:45-21:00'}}",,173 42,379,,https://www.lidl-hellas.gr/s/el-GR/anazitisi-katastimaton/Agios-Dimitrios/Leof-Agiou-Dimitriou-300/
Dimitriou Elassona 2-4,Lidl Hellas,Elassona,Greece,"{'brand': 'Lidl Hellas', 'fascia': 'Lidl Hellas', 'category': 'Retail', 'edit_date': '20250518', 'lat_lon_source': 'Third Party'}",39.88425,22.18428,Lidl Elassona,"{'opening_hours': {'Mon': '07:45-21:00', 'Tue': '07:45-21:00', 'Wed': '07:45-21:00', 'Thu': '07:45-21:00', 'Fri': '07:45-21:00', 'Sat': '07:45-21:00'}}",,402 00,38,,https://www.lidl-hellas.gr/s/el-GR/anazitisi-katastimaton/Elassona/Dimitriou-Elassona-2-4/
Styron 3-5,Lidl Hellas,Zografos,Greece,"{'brand': 'Lidl Hellas', 'fascia': 'Lidl Hellas', 'category': 'Retail', 'edit_date': '20250518', 'lat_lon_source': 'Third Party'}",37.97984,23.76074,Lidl Ath/Zografou,"{'opening_hours': {'Mon': '07:45-21:00', 'Tue': '07:45-21:00', 'Wed': '07:45-21:00', 'Thu': '07:45-21:00', 'Fri': '07:45-21:00', 'Sat': '07:45-21:00'}}",,157 71,381,,https://www.lidl-hellas.gr/s/el-GR/anazitisi-katastimaton/Zografos/Styron-3-5/
Sevastoupoleos 133,Lidl Hellas,Athens,Greece,"{'brand': 'Lidl Hellas', 'fascia': 'Lidl Hellas', 'category': 'Retail', 'edit_date': '20250518', 'lat_lon_source': 'Third Party'}",37.99467,23.7691,Lidl Ath/Ampelokipi,"{'opening_hours': {'Mon': '07:45-21:00', 'Tue': '07:45-21:00', 'Wed': '07:45-21:00', 'Thu': '07:45-21:00', 'Fri': '07:45-21:00', 'Sat': '07:45-21:00'}}",,115 26,383,,https://www.lidl-hellas.gr/s/el-GR/anazitisi-katastimaton/Athens/Sevastoupoleos-133/
John Kennedy 148,Lidl Hellas,Peristeri,Greece,"{'brand': 'Lidl Hellas', 'fascia': 'Lidl Hellas', 'category': 'Retail', 'edit_date': '20250518', 'lat_lon_source': 'Third Party'}",38.00905,23.68071,Lidl Ath/Peristeri-John Kennedy,"{'opening_hours': {'Mon': '07:45-21:00', 'Tue': '07:45-21:00', 'Wed': '07:45-21:00', 'Thu': '07:45-21:00', 'Fri': '07:45-21:00', 'Sat': '07:45-21:00'}}",,121 36,384,,https://www.lidl-hellas.gr/s/el-GR/anazitisi-katastimaton/Peristeri/John-Kennedy-148/
Leof. Patision 318-320,Lidl Hellas,Athens,Greece,"{'brand': 'Lidl Hellas', 'fascia': 'Lidl Hellas', 'category': 'Retail', 'edit_date': '20250518', 'lat_lon_source': 'Third Party'}",38.01642,23.73541,Lidl Ath/Ano Patisia,"{'opening_hours': {'Mon': '07:45-21:00', 'Tue': '07:45-21:00', 'Wed': '07:45-21:00', 'Thu': '07:45-21:00', 'Fri': '07:45-21:00', 'Sat': '07:45-21:00'}}",,111 41,385,,https://www.lidl-hellas.gr/s/el-GR/anazitisi-katastimaton/Athens/Leof-Patision-318-320/
Tenedou 1-3,Lidl Hellas,Vrilissia,Greece,"{'brand': 'Lidl Hellas', 'fascia': 'Lidl Hellas', 'category': 'Retail', 'edit_date': '20250518', 'lat_lon_source': 'Third Party'}",38.02625,23.83199,Lidl Ath/Vrilissia,"{'opening_hours': {'Mon': '07:45-21:00', 'Tue': '07:45-21:00', 'Wed': '07:45-21:00', 'Thu': '07:45-21:00', 'Fri': '07:45-21:00', 'Sat': '07:45-21:00'}}",,152 35,386,,https://www.lidl-hellas.gr/s/el-GR/anazitisi-katastimaton/Vrilissia/Tenedou-1-3/
1 Km Trikalon-Pylis,Lidl Hellas,Trikkaia,Greece,"{'brand': 'Lidl Hellas', 'fascia': 'Lidl Hellas', 'category': 'Retail', 'edit_date': '20250518', 'lat_lon_source': 'Third Party'}",39.53818,21.75398,Lidl Trikala/Pilis,"{'opening_hours': {'Mon': '07:45-21:00', 'Tue': '07:45-21:00', 'Wed': '07:45-21:00', 'Thu': '07:45-21:00', 'Fri': '07:45-21:00', 'Sat': '07:45-21:00'}}",,421 00,39,,https://www.lidl-hellas.gr/s/el-GR/anazitisi-katastimaton/Trikkaia/1-Km-Trikalon-Pylis/
Leof.Thrakomakedonon 42-44,Lidl Hellas,Acharnes,Greece,"{'brand': 'Lidl Hellas', 'fascia': 'Lidl Hellas', 'category': 'Retail', 'edit_date': '20250518', 'lat_lon_source': 'Third Party'}",38.10257,23.74202,Lidl Ath/Menidi-Thrakomakedonon,"{'opening_hours': {'Mon': '07:45-21:00', 'Tue': '07:45-21:00', 'Wed': '07:45-21:00', 'Thu': '07:45-21:00', 'Fri': '07:45-21:00', 'Sat': '07:45-21:00'}}",,136 71,391,,https://www.lidl-hellas.gr/s/el-GR/anazitisi-katastimaton/Acharnes/LeofThrakomakedonon-42-44/
Athanasiou Diakou 29A,Lidl Hellas,Elliniko,Greece,"{'brand': 'Lidl Hellas', 'fascia': 'Lidl Hellas', 'category': 'Retail', 'edit_date': '20250518', 'lat_lon_source': 'Third Party'}",37.89311,23.75537,Lidl Ath/Elliniko,"{'opening_hours': {'Mon': '07:45-21:00', 'Tue': '07:45-21:00', 'Wed': '07:45-21:00', 'Thu': '07:45-21:00', 'Fri': '07:45-21:00', 'Sat': '07:45-21:00'}}",,167 77,393,,https://www.lidl-hellas.gr/s/el-GR/anazitisi-katastimaton/Elliniko/Athanasiou-Diakou-29A/
Iasonos 6,Lidl Hellas,Palaio Faliro,Greece,"{'brand': 'Lidl Hellas', 'fascia': 'Lidl Hellas', 'category': 'Retail', 'edit_date': '20250518', 'lat_lon_source': 'Third Party'}",37.93961,23.7001,Lidl Ath/Palaio Faliro-Iasonos,"{'opening_hours': {'Mon': '07:45-21:00', 'Tue': '07:45-21:00', 'Wed': '07:45-21:00', 'Thu': '07:45-21:00', 'Fri': '07:45-21:00', 'Sat': '07:45-21:00'}}",,175 61,396,,https://www.lidl-hellas.gr/s/el-GR/anazitisi-katastimaton/Palaio-Faliro/Iasonos-6/
Ep.O. Chalkidas-Drosias,Lidl Hellas,Chalkida,Greece,"{'brand': 'Lidl Hellas', 'fascia': 'Lidl Hellas', 'category': 'Retail', 'edit_date': '20250518', 'lat_lon_source': 'Third Party'}",38.4679,23.56435,Lidl Chalkida/Drosia,"{'opening_hours': {'Mon': '07:45-21:00', 'Tue': '07:45-21:00', 'Wed': '07:45-21:00', 'Thu': '07:45-21:00', 'Fri': '07:45-21:00', 'Sat': '07:45-21:00'}}",,341 00,397,,https://www.lidl-hellas.gr/s/el-GR/anazitisi-katastimaton/Chalkida/EpO-Chalkidas-Drosias/
Petras & Iera Odos 159,Lidl Hellas,Aigaleo,Greece,"{'brand': 'Lidl Hellas', 'fascia': 'Lidl Hellas', 'category': 'Retail', 'edit_date': '20250518', 'lat_lon_source': 'Third Party'}",37.98808,23.68882,Lidl Ath/Egaleo-Eleonas,"{'opening_hours': {'Mon': '07:45-21:00', 'Tue': '07:45-21:00', 'Wed': '07:45-21:00', 'Thu': '07:45-21:00', 'Fri': '07:45-21:00', 'Sat': '07:45-21:00'}}",,122 41,398,,https://www.lidl-hellas.gr/s/el-GR/anazitisi-katastimaton/Aigaleo/Petras-&-Iera-Odos-159/
Kountourioti 8,Lidl Hellas,Pylaia,Greece,"{'brand': 'Lidl Hellas', 'fascia': 'Lidl Hellas', 'category': 'Retail', 'edit_date': '20250518', 'lat_lon_source': 'Third Party'}",40.58764,22.97288,Lidl Thess/Pylea-Alatini,"{'opening_hours': {'Mon': '07:45-21:00', 'Tue': '07:45-21:00', 'Wed': '07:45-21:00', 'Thu': '07:45-21:00', 'Fri': '07:45-21:00', 'Sat': '07:45-21:00'}}",,555 35,4,,https://www.lidl-hellas.gr/s/el-GR/anazitisi-katastimaton/Pylaia/Kountourioti-8/
Amaseias,Lidl Hellas,Kavala,Greece,"{'brand': 'Lidl Hellas', 'fascia': 'Lidl Hellas', 'category': 'Retail', 'edit_date': '20250518', 'lat_lon_source': 'Third Party'}",40.92572,24.37903,Lidl Kavala/Neapoli,"{'opening_hours': {'Mon': '07:45-21:00', 'Tue': '07:45-21:00', 'Wed': '07:45-21:00', 'Thu': '07:45-21:00', 'Fri': '07:45-21:00', 'Sat': '07:45-21:00'}}",,654 04,40,,https://www.lidl-hellas.gr/s/el-GR/anazitisi-katastimaton/Kavala/Amaseias/
Leof. Athinon 253,Lidl Hellas,Chaidari,Greece,"{'brand': 'Lidl Hellas', 'fascia': 'Lidl Hellas', 'category': 'Retail', 'edit_date': '20250518', 'lat_lon_source': 'Third Party'}",38.01007,23.6501,Lidl Ath/Chaidari,"{'opening_hours': {'Mon': '07:45-21:00', 'Tue': '07:45-21:00', 'Wed': '07:45-21:00', 'Thu': '07:45-21:00', 'Fri': '07:45-21:00', 'Sat': '07:45-21:00'}}",,124 62,400,,https://www.lidl-hellas.gr/s/el-GR/anazitisi-katastimaton/Chaidari/Leof-Athinon-253/
Anthypolochagou Regoukou 12,Lidl Hellas,Athens,Greece,"{'brand': 'Lidl Hellas', 'fascia': 'Lidl Hellas', 'category': 'Retail', 'edit_date': '20250518', 'lat_lon_source': 'Third Party'}",38.01574,23.7209,Lidl Ath/Kato Patisia,"{'opening_hours': {'Mon': '07:45-21:00', 'Tue': '07:45-21:00', 'Wed': '07:45-21:00', 'Thu': '07:45-21:00', 'Fri': '07:45-21:00', 'Sat': '07:45-21:00'}}",,111 45,401,,https://www.lidl-hellas.gr/s/el-GR/anazitisi-katastimaton/Athens/Anthypolochagou-Regoukou-12/
Thivon 186-190,Lidl Hellas,Agios Ioannis Rentis,Greece,"{'brand': 'Lidl Hellas', 'fascia': 'Lidl Hellas', 'category': 'Retail', 'edit_date': '20250518', 'lat_lon_source': 'Third Party'}",37.96589,23.66037,Lidl Ath/Rentis-Thivon 186,"{'opening_hours': {'Mon': '07:45-21:00', 'Tue': '07:45-21:00', 'Wed': '07:45-21:00', 'Thu': '07:45-21:00', 'Fri': '07:45-21:00', 'Sat': '07:45-21:00'}}",,182 33,402,,https://www.lidl-hellas.gr/s/el-GR/anazitisi-katastimaton/Agios-Ioannis-Rentis/Thivon-186-190/
Leof. Marathonos 227,Lidl Hellas,Marathonas,Greece,"{'brand': 'Lidl Hellas', 'fascia': 'Lidl Hellas', 'category': 'Retail', 'edit_date': '20250518', 'lat_lon_source': 'Third Party'}",38.09488,23.97294,Lidl Attica/Nea Makri,"{'opening_hours': {'Mon': '07:45-21:00', 'Tue': '07:45-21:00', 'Wed': '07:45-21:00', 'Thu': '07:45-21:00', 'Fri': '07:45-21:00', 'Sat': '07:45-21:00'}}",,190 05,403,,https://www.lidl-hellas.gr/s/el-GR/anazitisi-katastimaton/Marathonas/Leof-Marathonos-227/
Leof. Eantiou 70,Lidl Hellas,Salamina,Greece,"{'brand': 'Lidl Hellas', 'fascia': 'Lidl Hellas', 'category': 'Retail', 'edit_date': '20250518', 'lat_lon_source': 'Third Party'}",37.92668,23.47203,Lidl Attica/Salamina,"{'opening_hours': {'Mon': '07:45-21:00', 'Tue': '07:45-21:00', 'Wed': '07:45-21:00', 'Thu': '07:45-21:00', 'Fri': '07:45-21:00', 'Sat': '07:45-21:00'}}",,189 00,405,,https://www.lidl-hellas.gr/s/el-GR/anazitisi-katastimaton/Salamina/Leof-Eantiou-70/
Grigoriou Lampraki 13,Lidl Hellas,Lykovrysi,Greece,"{'brand': 'Lidl Hellas', 'fascia': 'Lidl Hellas', 'category': 'Retail', 'edit_date': '20250518', 'lat_lon_source': 'Third Party'}",38.06736,23.77998,Lidl Ath/Lykovrisi,"{'opening_hours': {'Mon': '07:45-21:00', 'Tue': '07:45-21:00', 'Wed': '07:45-21:00', 'Thu': '07:45-21:00', 'Fri': '07:45-21:00', 'Sat': '07:45-21:00'}}",,141 23,407,,https://www.lidl-hellas.gr/s/el-GR/anazitisi-katastimaton/Lykovrysi/Grigoriou-Lampraki-13/
Leof. Athinon-Peiraios 161-165,Lidl Hellas,Agios Ioannis Rentis,Greece,"{'brand': 'Lidl Hellas', 'fascia': 'Lidl Hellas', 'category': 'Retail', 'edit_date': '20250518', 'lat_lon_source': 'Third Party'}",37.95437,23.67225,Lidl Ath/Rentis-Pireos,"{'opening_hours': {'Mon': '07:45-21:00', 'Tue': '07:45-21:00', 'Wed': '07:45-21:00', 'Thu': '07:45-21:00', 'Fri': '07:45-21:00', 'Sat': '07:45-21:00'}}",,182 33,409,,https://www.lidl-hellas.gr/s/el-GR/anazitisi-katastimaton/Agios-Ioannis-Rentis/Leof-Athinon-Peiraios-161-165/
1 Km Aridaias-Exaplatanou,Lidl Hellas,Aridaia,Greece,"{'brand': 'Lidl Hellas', 'fascia': 'Lidl Hellas', 'category': 'Retail', 'edit_date': '20250518', 'lat_lon_source': 'Third Party'}",40.97733,22.07866,Lidl Aridea,"{'opening_hours': {'Mon': '07:45-21:00', 'Tue': '07:45-21:00', 'Wed': '07:45-21:00', 'Thu': '07:45-21:00', 'Fri': '07:45-21:00', 'Sat': '07:45-21:00'}}",,584 00,41,,https://www.lidl-hellas.gr/s/el-GR/anazitisi-katastimaton/Aridaia/1-Km-Aridaias-Exaplatanou/
Leof. Athinon-Peiraios 28,Lidl Hellas,Piraeus,Greece,"{'brand': 'Lidl Hellas', 'fascia': 'Lidl Hellas', 'category': 'Retail', 'edit_date': '20250518', 'lat_lon_source': 'Third Party'}",37.94945,23.65053,Lidl Ath/Piraeus-Alipedou,"{'opening_hours': {'Mon': '07:45-21:00', 'Tue': '07:45-21:00', 'Wed': '07:45-21:00', 'Thu': '07:45-21:00', 'Fri': '07:45-21:00', 'Sat': '07:45-21:00'}}",,185 40,411,,https://www.lidl-hellas.gr/s/el-GR/anazitisi-katastimaton/Piraeus/Leof-Athinon-Peiraios-28/
2 Km Mytilinis-Thermis,Lidl Hellas,Mytilene,Greece,"{'brand': 'Lidl Hellas', 'fascia': 'Lidl Hellas', 'category': 'Retail', 'edit_date': '20250518', 'lat_lon_source': 'Third Party'}",39.12984,26.54304,Lidl Lesbos/Mytilini,"{'opening_hours': {'Mon': '07:45-21:00', 'Tue': '07:45-21:00', 'Wed': '07:45-21:00', 'Thu': '07:45-21:00', 'Fri': '07:45-21:00', 'Sat': '07:45-21:00'}}",,811 00,413,,https://www.lidl-hellas.gr/s/el-GR/anazitisi-katastimaton/Mytilene/2-Km-Mytilinis-Thermis/
Leof. Eleftheriou Venizelou 79,Lidl Hellas,Kallithea,Greece,"{'brand': 'Lidl Hellas', 'fascia': 'Lidl Hellas', 'category': 'Retail', 'edit_date': '20250518', 'lat_lon_source': 'Third Party'}",37.96029,23.70859,Lidl Ath/Kallithea-El. Venizelou,"{'opening_hours': {'Mon': '07:45-21:00', 'Tue': '07:45-21:00', 'Wed': '07:45-21:00', 'Thu': '07:45-21:00', 'Fri': '07:45-21:00', 'Sat': '07:45-21:00'}}",,176 71,414,,https://www.lidl-hellas.gr/s/el-GR/anazitisi-katastimaton/Kallithea/Leof-Eleftheriou-Venizelou-79/
Iliou 36,Lidl Hellas,Ilion,Greece,"{'brand': 'Lidl Hellas', 'fascia': 'Lidl Hellas', 'category': 'Retail', 'edit_date': '20250518', 'lat_lon_source': 'Third Party'}",38.03131,23.71217,Lidl ,"{'opening_hours': {'Mon': '07:45-21:00', 'Tue': '07:45-21:00', 'Wed': '07:45-21:00', 'Thu': '07:45-21:00', 'Fri': '07:45-21:00', 'Sat': '07:45-21:00'}}",,131 22,417,,https://www.lidl-hellas.gr/s/el-GR/anazitisi-katastimaton/Ilion/Iliou-36/
6 Km E.O. Ko-Choria,Lidl Hellas,Kos,Greece,"{'brand': 'Lidl Hellas', 'fascia': 'Lidl Hellas', 'category': 'Retail', 'edit_date': '20250518', 'lat_lon_source': 'Third Party'}",36.88024,27.23281,Lidl Kos,"{'opening_hours': {'Mon': '07:45-21:00', 'Tue': '07:45-21:00', 'Wed': '07:45-21:00', 'Thu': '07:45-21:00', 'Fri': '07:45-21:00', 'Sat': '07:45-21:00'}}",,853 00,418,,https://www.lidl-hellas.gr/s/el-GR/anazitisi-katastimaton/Kos/6-Km-EO-Ko-Choria/
3. Km Rhodou - Kallitheas,Lidl Hellas,Rhodos,Greece,"{'brand': 'Lidl Hellas', 'fascia': 'Lidl Hellas', 'category': 'Retail', 'edit_date': '20250518', 'lat_lon_source': 'Third Party'}",36.41613,28.22804,Lidl Rhodos/Kallitheas,"{'opening_hours': {'Mon': '07:45-21:00', 'Tue': '07:45-21:00', 'Wed': '07:45-21:00', 'Thu': '07:45-21:00', 'Fri': '07:45-21:00', 'Sat': '07:45-21:00'}}",,85100,419,,https://www.lidl-hellas.gr/s/el-GR/anazitisi-katastimaton/Rhodos/3-Km-Rhodou---Kallitheas/
E.O. Irakleiou-Gazi,Lidl Hellas,Gazi,Greece,"{'brand': 'Lidl Hellas', 'fascia': 'Lidl Hellas', 'category': 'Retail', 'edit_date': '20250518', 'lat_lon_source': 'Third Party'}",35.33265,25.09618,Lidl Crete/Iraklio-Gazi,"{'opening_hours': {'Mon': '07:45-21:00', 'Tue': '07:45-21:00', 'Wed': '07:45-21:00', 'Thu': '07:45-21:00', 'Fri': '07:45-21:00', 'Sat': '07:45-21:00'}}",,714 14,42,,https://www.lidl-hellas.gr/s/el-GR/anazitisi-katastimaton/Gazi/EO-Irakleiou-Gazi/
Leof. Dimokratias 97,Lidl Hellas,Keratsini,Greece,"{'brand': 'Lidl Hellas', 'fascia': 'Lidl Hellas', 'category': 'Retail', 'edit_date': '20250518', 'lat_lon_source': 'Third Party'}",37.95882,23.62053,Lidl Ath/Keratsini,"{'opening_hours': {'Mon': '07:45-21:00', 'Tue': '07:45-21:00', 'Wed': '07:45-21:00', 'Thu': '07:45-21:00', 'Fri': '07:45-21:00', 'Sat': '07:45-21:00'}}",,187 55,424,,https://www.lidl-hellas.gr/s/el-GR/anazitisi-katastimaton/Keratsini/Leof-Dimokratias-97/
Pireos 205-209 & Chamosternas,Lidl Hellas,Athens,Greece,"{'brand': 'Lidl Hellas', 'fascia': 'Lidl Hellas', 'category': 'Retail', 'edit_date': '20250518', 'lat_lon_source': 'Third Party'}",37.9684,23.7005,Lidl Ath/Kato Petralona,"{'opening_hours': {'Mon': '07:45-21:00', 'Tue': '07:45-21:00', 'Wed': '07:45-21:00', 'Thu': '07:45-21:00', 'Fri': '07:45-21:00', 'Sat': '07:45-21:00'}}",,118 53,425,,https://www.lidl-hellas.gr/s/el-GR/anazitisi-katastimaton/Athens/Pireos-205-209-&-Chamosternas/
Ilia Iliou 49,Lidl Hellas,Athens,Greece,"{'brand': 'Lidl Hellas', 'fascia': 'Lidl Hellas', 'category': 'Retail', 'edit_date': '20250518', 'lat_lon_source': 'Third Party'}",37.958,23.73227,Lidl ,"{'opening_hours': {'Mon': '07:45-21:00', 'Tue': '07:45-21:00', 'Wed': '07:45-21:00', 'Thu': '07:45-21:00', 'Fri': '07:45-21:00', 'Sat': '07:45-21:00'}}",,117 43,427,,https://www.lidl-hellas.gr/s/el-GR/anazitisi-katastimaton/Athens/Ilia-Iliou-49/
Leof. Chrysostomou Smyrnis,Lidl Hellas,Rafina,Greece,"{'brand': 'Lidl Hellas', 'fascia': 'Lidl Hellas', 'category': 'Retail', 'edit_date': '20250518', 'lat_lon_source': 'Third Party'}",38.01843,24.00921,Lidl ,"{'opening_hours': {'Mon': '07:45-21:00', 'Tue': '07:45-21:00', 'Wed': '07:45-21:00', 'Thu': '07:45-21:00', 'Fri': '07:45-21:00', 'Sat': '07:45-21:00'}}",,190 09,428,,https://www.lidl-hellas.gr/s/el-GR/anazitisi-katastimaton/Rafina/Leof-Chrysostomou-Smyrnis/
Riga Feraiou,Lidl Hellas,Kerkyra,Greece,"{'brand': 'Lidl Hellas', 'fascia': 'Lidl Hellas', 'category': 'Retail', 'edit_date': '20250518', 'lat_lon_source': 'Third Party'}",39.61528,19.90857,Lidl Corfu/Aerodromio,"{'opening_hours': {'Mon': '07:45-21:00', 'Tue': '07:45-21:00', 'Wed': 'ΚΛΕΙΣΤΑ', 'Thu': '07:45-21:00', 'Fri': '07:45-21:00', 'Sat': '07:45-21:00'}}",,491 00,43,,https://www.lidl-hellas.gr/s/el-GR/anazitisi-katastimaton/Kerkyra/Riga-Feraiou/
Thivon 475,Lidl Hellas,Ilion,Greece,"{'brand': 'Lidl Hellas', 'fascia': 'Lidl Hellas', 'category': 'Retail', 'edit_date': '20250518', 'lat_lon_source': 'Third Party'}",38.02884,23.69933,Lidl ,"{'opening_hours': {'Mon': '07:45-21:00', 'Tue': '07:45-21:00', 'Wed': '07:45-21:00', 'Thu': '07:45-21:00', 'Fri': '07:45-21:00', 'Sat': '07:45-21:00'}}",,131 21,430,,https://www.lidl-hellas.gr/s/el-GR/anazitisi-katastimaton/Ilion/Thivon-475/
1 Km Larisas-Ioanninon,Lidl Hellas,Larisa,Greece,"{'brand': 'Lidl Hellas', 'fascia': 'Lidl Hellas', 'category': 'Retail', 'edit_date': '20250518', 'lat_lon_source': 'Third Party'}",39.63418,22.38438,Lidl Larisa/Agios Thomas,"{'opening_hours': {'Mon': '07:45-21:00', 'Tue': '07:45-21:00', 'Wed': '07:45-21:00', 'Thu': '07:45-21:00', 'Fri': '07:45-21:00', 'Sat': '07:45-21:00'}}",,413 34,44,,https://www.lidl-hellas.gr/s/el-GR/anazitisi-katastimaton/Larisa/1-Km-Larisas-Ioanninon/
Aristarhou,Lidl Hellas,Kastoria,Greece,"{'brand': 'Lidl Hellas', 'fascia': 'Lidl Hellas', 'category': 'Retail', 'edit_date': '20250518', 'lat_lon_source': 'Third Party'}",40.51628,21.25399,Lidl Kastoria,"{'opening_hours': {'Mon': '07:45-21:00', 'Tue': '07:45-21:00', 'Wed': '07:45-21:00', 'Thu': '07:45-21:00', 'Fri': '07:45-21:00', 'Sat': '07:45-21:00'}}",,521 00,45,,https://www.lidl-hellas.gr/s/el-GR/anazitisi-katastimaton/Kastoria/Aristarhou/
Marathonos,Lidl Hellas,Chrysoupoli,Greece,"{'brand': 'Lidl Hellas', 'fascia': 'Lidl Hellas', 'category': 'Retail', 'edit_date': '20250518', 'lat_lon_source': 'Third Party'}",40.98117,24.69647,Lidl Chrisoupoli,"{'opening_hours': {'Mon': '07:45-21:00', 'Tue': '07:45-21:00', 'Wed': '07:45-21:00', 'Thu': '07:45-21:00', 'Fri': '07:45-21:00', 'Sat': '07:45-21:00'}}",,642 00,47,,https://www.lidl-hellas.gr/s/el-GR/anazitisi-katastimaton/Chrysoupoli/Marathonos/
Komvos Atsipopoulo,Lidl Hellas,Rethymno,Greece,"{'brand': 'Lidl Hellas', 'fascia': 'Lidl Hellas', 'category': 'Retail', 'edit_date': '20250518', 'lat_lon_source': 'Third Party'}",35.36303,24.44482,Lidl Crete/Rethymno-Atsipopoulo,"{'opening_hours': {'Mon': '07:45-21:00', 'Tue': '07:45-21:00', 'Wed': '07:45-21:00', 'Thu': '07:45-21:00', 'Fri': '07:45-21:00', 'Sat': '07:45-21:00'}}",,741 00,48,,https://www.lidl-hellas.gr/s/el-GR/anazitisi-katastimaton/Rethymno/Komvos-Atsipopoulo/
28is Oktovriou,Lidl Hellas,Xanthi,Greece,"{'brand': 'Lidl Hellas', 'fascia': 'Lidl Hellas', 'category': 'Retail', 'edit_date': '20250518', 'lat_lon_source': 'Third Party'}",41.12731,24.88311,Lidl Xanthi/28is Oktovriou,"{'opening_hours': {'Mon': '07:45-21:00', 'Tue': '07:45-21:00', 'Wed': '07:45-21:00', 'Thu': '07:45-21:00', 'Fri': '07:45-21:00', 'Sat': '07:45-21:00'}}",,671 00,5,,https://www.lidl-hellas.gr/s/el-GR/anazitisi-katastimaton/Xanthi/28is-Oktovriou/
1 Km E.O. Servion-Kosanis,Lidl Hellas,Servia,Greece,"{'brand': 'Lidl Hellas', 'fascia': 'Lidl Hellas', 'category': 'Retail', 'edit_date': '20250518', 'lat_lon_source': 'Third Party'}",40.19005,21.99352,Lidl Servia,"{'opening_hours': {'Mon': '07:45-21:00', 'Tue': '07:45-21:00', 'Wed': '07:45-21:00', 'Thu': '07:45-21:00', 'Fri': '07:45-21:00', 'Sat': '07:45-21:00'}}",,505 00,51,,https://www.lidl-hellas.gr/s/el-GR/anazitisi-katastimaton/Servia/1-Km-EO-Servion-Kosanis/
Enanti Ergatikon Katoikion,Lidl Hellas,Pangaio,Greece,"{'brand': 'Lidl Hellas', 'fascia': 'Lidl Hellas', 'category': 'Retail', 'edit_date': '20250518', 'lat_lon_source': 'Third Party'}",40.92047,24.26305,Lidl Eleftheroupoli,"{'opening_hours': {'Mon': '07:45-21:00', 'Tue': '07:45-21:00', 'Wed': '07:45-21:00', 'Thu': '07:45-21:00', 'Fri': '07:45-21:00', 'Sat': '07:45-21:00'}}",,641 00,52,,https://www.lidl-hellas.gr/s/el-GR/anazitisi-katastimaton/Pangaio/Enanti-Ergatikon-Katoikion/
1. km E.O. Grevenon - Kosanis,Lidl Hellas,Grevena,Greece,"{'brand': 'Lidl Hellas', 'fascia': 'Lidl Hellas', 'category': 'Retail', 'edit_date': '20250518', 'lat_lon_source': 'Third Party'}",40.09006,21.44355,Lidl Grevena,"{'opening_hours': {'Mon': '07:45-21:00', 'Tue': '07:45-21:00', 'Wed': '07:45-21:00', 'Thu': '07:45-21:00', 'Fri': '07:45-21:00', 'Sat': '07:45-21:00'}}",,511 00,56,,https://www.lidl-hellas.gr/s/el-GR/anazitisi-katastimaton/Grevena/1-km-EO-Grevenon---Kosanis/
1 Km E.O. Trikalon-Larisas,Lidl Hellas,Trikkaia,Greece,"{'brand': 'Lidl Hellas', 'fascia': 'Lidl Hellas', 'category': 'Retail', 'edit_date': '20250518', 'lat_lon_source': 'Third Party'}",39.55525,21.79021,Lidl Trikala/Delta,"{'opening_hours': {'Mon': '07:45-21:00', 'Tue': '07:45-21:00', 'Wed': '07:45-21:00', 'Thu': '07:45-21:00', 'Fri': '07:45-21:00', 'Sat': '07:45-21:00'}}",,421 00,57,,https://www.lidl-hellas.gr/s/el-GR/anazitisi-katastimaton/Trikkaia/1-Km-EO-Trikalon-Larisas/
1 Km Moires-Irakleio,Lidl Hellas,Moires,Greece,"{'brand': 'Lidl Hellas', 'fascia': 'Lidl Hellas', 'category': 'Retail', 'edit_date': '20250518', 'lat_lon_source': 'Third Party'}",35.05002,24.90298,Lidl Crete/Mires Irakliou,"{'opening_hours': {'Mon': '07:45-21:00', 'Tue': '07:45-21:00', 'Wed': '07:45-21:00', 'Thu': '07:45-21:00', 'Fri': '07:45-21:00', 'Sat': '07:45-21:00'}}",,704 00,58,,https://www.lidl-hellas.gr/s/el-GR/anazitisi-katastimaton/Moires/1-Km-Moires-Irakleio/
2 Km Polykastro-Kilkis,Lidl Hellas,Polykastro,Greece,"{'brand': 'Lidl Hellas', 'fascia': 'Lidl Hellas', 'category': 'Retail', 'edit_date': '20250518', 'lat_lon_source': 'Third Party'}",40.98996,22.60949,Lidl Polikastro,"{'opening_hours': {'Mon': '07:45-21:00', 'Tue': '07:45-21:00', 'Wed': '07:45-21:00', 'Thu': '07:45-21:00', 'Fri': '07:45-21:00', 'Sat': '07:45-21:00'}}",,612 00,59,,https://www.lidl-hellas.gr/s/el-GR/anazitisi-katastimaton/Polykastro/2-Km-Polykastro-Kilkis/
1 Km Agiou Nikolaou-Siteias,Lidl Hellas,Siteia,Greece,"{'brand': 'Lidl Hellas', 'fascia': 'Lidl Hellas', 'category': 'Retail', 'edit_date': '20250518', 'lat_lon_source': 'Third Party'}",35.20182,26.08593,Lidl Crete/Sitia,"{'opening_hours': {'Mon': '07:45-21:00', 'Tue': '07:45-21:00', 'Wed': '07:45-21:00', 'Thu': '07:45-21:00', 'Fri': '07:45-21:00', 'Sat': '07:45-21:00'}}",,723 00,60,,https://www.lidl-hellas.gr/s/el-GR/anazitisi-katastimaton/Siteia/1-Km-Agiou-Nikolaou-Siteias/
1 Km Agiou Nikolaou-Kritsas,Lidl Hellas,Agios Nikolaos,Greece,"{'brand': 'Lidl Hellas', 'fascia': 'Lidl Hellas', 'category': 'Retail', 'edit_date': '20250518', 'lat_lon_source': 'Third Party'}",35.18005,25.69329,Lidl Crete/Agios Nikolaos,"{'opening_hours': {'Mon': '07:45-21:00', 'Tue': '07:45-21:00', 'Wed': '07:45-21:00', 'Thu': '07:45-21:00', 'Fri': '07:45-21:00', 'Sat': '07:45-21:00'}}",,721 00,61,,https://www.lidl-hellas.gr/s/el-GR/anazitisi-katastimaton/Agios-Nikolaos/1-Km-Agiou-Nikolaou-Kritsas/
76 Km E.O. Thessalonikis-Kavalas,Lidl Hellas,Agios Georgios,Greece,"{'brand': 'Lidl Hellas', 'fascia': 'Lidl Hellas', 'category': 'Retail', 'edit_date': '20250518', 'lat_lon_source': 'Third Party'}",40.69277,23.68253,Lidl Vrasna,"{'opening_hours': {'Mon': '07:45-21:00', 'Tue': '07:45-21:00', 'Wed': '07:45-21:00', 'Thu': '07:45-21:00', 'Fri': '07:45-21:00', 'Sat': '07:45-21:00'}}",,570 21,63,,https://www.lidl-hellas.gr/s/el-GR/anazitisi-katastimaton/Agios-Georgios/76-Km-EO-Thessalonikis-Kavalas/
1 Km Polygyrou-Sithonias,Lidl Hellas,Sithonia,Greece,"{'brand': 'Lidl Hellas', 'fascia': 'Lidl Hellas', 'category': 'Retail', 'edit_date': '20250518', 'lat_lon_source': 'Third Party'}",40.21609,23.67904,Lidl Nikiti,"{'opening_hours': {'Mon': '07:45-21:00', 'Tue': '07:45-21:00', 'Wed': '07:45-21:00', 'Thu': '07:45-21:00', 'Fri': '07:45-21:00', 'Sat': '07:45-21:00'}}",,630 88,64,,https://www.lidl-hellas.gr/s/el-GR/anazitisi-katastimaton/Sithonia/1-Km-Polygyrou-Sithonias/
2 Km Kozanis-Thessalonikis,Lidl Hellas,Kozani,Greece,"{'brand': 'Lidl Hellas', 'fascia': 'Lidl Hellas', 'category': 'Retail', 'edit_date': '20250518', 'lat_lon_source': 'Third Party'}",40.30967,21.81733,Lidl Kosani,"{'opening_hours': {'Mon': '07:45-21:00', 'Tue': '07:45-21:00', 'Wed': '07:45-21:00', 'Thu': '07:45-21:00', 'Fri': '07:45-21:00', 'Sat': '07:45-21:00'}}",,501 00,66,,https://www.lidl-hellas.gr/s/el-GR/anazitisi-katastimaton/Kozani/2-Km-Kozanis-Thessalonikis/
1 Km Kallikrateias-Neon Moudanion,Lidl Hellas,Kallikrateia,Greece,"{'brand': 'Lidl Hellas', 'fascia': 'Lidl Hellas', 'category': 'Retail', 'edit_date': '20250518', 'lat_lon_source': 'Third Party'}",40.31679,23.07851,Lidl Nea Kallikrateia,"{'opening_hours': {'Mon': '07:45-21:00', 'Tue': '07:45-21:00', 'Wed': '07:45-21:00', 'Thu': '07:45-21:00', 'Fri': '07:45-21:00', 'Sat': '07:45-21:00'}}",,630 80,67,,https://www.lidl-hellas.gr/s/el-GR/anazitisi-katastimaton/Kallikrateia/1-Km-Kallikrateias-Neon-Moudanion/
1 Km Sidirokastrou-Serron,Lidl Hellas,Sidirokastro,Greece,"{'brand': 'Lidl Hellas', 'fascia': 'Lidl Hellas', 'category': 'Retail', 'edit_date': '20250518', 'lat_lon_source': 'Third Party'}",41.22824,23.39108,Lidl Sidirokastro,"{'opening_hours': {'Mon': '07:45-21:00', 'Tue': '07:45-21:00', 'Wed': '07:45-21:00', 'Thu': '07:45-21:00', 'Fri': '07:45-21:00', 'Sat': '07:45-21:00'}}",,623 00,69,,https://www.lidl-hellas.gr/s/el-GR/anazitisi-katastimaton/Sidirokastro/1-Km-Sidirokastrou-Serron/
3 Km E.O. Dramas-Serron,Lidl Hellas,Drama,Greece,"{'brand': 'Lidl Hellas', 'fascia': 'Lidl Hellas', 'category': 'Retail', 'edit_date': '20250518', 'lat_lon_source': 'Third Party'}",41.15563,24.10931,Lidl Drama/Xiropotamou,"{'opening_hours': {'Mon': '07:45-21:00', 'Tue': '07:45-21:00', 'Wed': '07:45-21:00', 'Thu': '07:45-21:00', 'Fri': '07:45-21:00', 'Sat': '07:45-21:00'}}",,661 00,7,,https://www.lidl-hellas.gr/s/el-GR/anazitisi-katastimaton/Drama/3-Km-EO-Dramas-Serron/
Megalou Alexandrou 147 A,Lidl Hellas,Orestida,Greece,"{'brand': 'Lidl Hellas', 'fascia': 'Lidl Hellas', 'category': 'Retail', 'edit_date': '20250518', 'lat_lon_source': 'Third Party'}",40.46144,21.26729,Lidl Argos Orestiko,"{'opening_hours': {'Mon': '07:45-21:00', 'Tue': '07:45-21:00', 'Wed': '07:45-21:00', 'Thu': '07:45-21:00', 'Fri': '07:45-21:00', 'Sat': '07:45-21:00'}}",,522 00,70,,https://www.lidl-hellas.gr/s/el-GR/anazitisi-katastimaton/Orestida/Megalou-Alexandrou-147-A/
5 Km Rodou-Lindou,Lidl Hellas,Rhodes,Greece,"{'brand': 'Lidl Hellas', 'fascia': 'Lidl Hellas', 'category': 'Retail', 'edit_date': '20250518', 'lat_lon_source': 'Third Party'}",36.4027,28.20307,Lidl Rhodos/Lindou,"{'opening_hours': {'Mon': '07:45-21:00', 'Tue': '07:45-21:00', 'Wed': '07:45-21:00', 'Thu': '07:45-21:00', 'Fri': '07:45-21:00', 'Sat': '07:45-21:00'}}",,851 00,700,,https://www.lidl-hellas.gr/s/el-GR/anazitisi-katastimaton/Rhodes/5-Km-Rodou-Lindou/
Leoforos Mournion 53,Lidl Hellas,Chania,Greece,"{'brand': 'Lidl Hellas', 'fascia': 'Lidl Hellas', 'category': 'Retail', 'edit_date': '20250518', 'lat_lon_source': 'Third Party'}",35.49754,24.01843,Lidl Crete/Chania-Mournion,"{'opening_hours': {'Mon': '07:45-21:00', 'Tue': '07:45-21:00', 'Wed': '07:45-21:00', 'Thu': '07:45-21:00', 'Fri': '07:45-21:00', 'Sat': '07:45-21:00'}}",,731 00,701,,https://www.lidl-hellas.gr/s/el-GR/anazitisi-katastimaton/Chania/Leoforos-Mournion-53/
Samou 17,Lidl Hellas,Rethymno,Greece,"{'brand': 'Lidl Hellas', 'fascia': 'Lidl Hellas', 'category': 'Retail', 'edit_date': '20250518', 'lat_lon_source': 'Third Party'}",35.36577,24.53034,Lidl Crete/Rethymno-Platanias,"{'opening_hours': {'Mon': '07:45-21:00', 'Tue': '07:45-21:00', 'Wed': '07:45-21:00', 'Thu': '07:45-21:00', 'Fri': '07:45-21:00', 'Sat': '07:45-21:00'}}",,741 00,703,,https://www.lidl-hellas.gr/s/el-GR/anazitisi-katastimaton/Rethymno/Samou-17/
Komvos Agion Apostolon,Lidl Hellas,Chania,Greece,"{'brand': 'Lidl Hellas', 'fascia': 'Lidl Hellas', 'category': 'Retail', 'edit_date': '20250518', 'lat_lon_source': 'Third Party'}",35.50863,23.98193,Lidl Crete/Chania-Apostoli,"{'opening_hours': {'Mon': '07:45-21:00', 'Tue': '07:45-21:00', 'Wed': '07:45-21:00', 'Thu': '07:45-21:00', 'Fri': '07:45-21:00', 'Sat': '07:45-21:00'}}",,731 00,706,,https://www.lidl-hellas.gr/s/el-GR/anazitisi-katastimaton/Chania/Komvos-Agion-Apostolon/
Profiti Ilia,Lidl Hellas,Chania,Greece,"{'brand': 'Lidl Hellas', 'fascia': 'Lidl Hellas', 'category': 'Retail', 'edit_date': '20250518', 'lat_lon_source': 'Third Party'}",35.52059,24.05168,Lidl Crete/Chania-Chalepa,"{'opening_hours': {'Mon': '07:45-21:00', 'Tue': '07:45-21:00', 'Wed': '07:45-21:00', 'Thu': '07:45-21:00', 'Fri': '07:45-21:00', 'Sat': '07:45-21:00'}}",,731 33,708,,https://www.lidl-hellas.gr/s/el-GR/anazitisi-katastimaton/Chania/Profiti-Ilia/
Lagkada 395,Lidl Hellas,Stavroupoli,Greece,"{'brand': 'Lidl Hellas', 'fascia': 'Lidl Hellas', 'category': 'Retail', 'edit_date': '20250518', 'lat_lon_source': 'Third Party'}",40.67562,22.93863,Lidl Thess/Stavroupoli-Lagada,"{'opening_hours': {'Mon': '07:45-21:00', 'Tue': '07:45-21:00', 'Wed': '07:45-21:00', 'Thu': '07:45-21:00', 'Fri': '07:45-21:00', 'Sat': '07:45-21:00'}}",,564 30,71,,https://www.lidl-hellas.gr/s/el-GR/anazitisi-katastimaton/Stavroupoli/Lagkada-395/
P.E.O. Chanion-Kissamou,Lidl Hellas,Platanias,Greece,"{'brand': 'Lidl Hellas', 'fascia': 'Lidl Hellas', 'category': 'Retail', 'edit_date': '20250518', 'lat_lon_source': 'Third Party'}",35.51818,23.89416,Lidl Crete/Chania-Platanias,"{'opening_hours': {'Mon': '07:45-21:00', 'Tue': '07:45-21:00', 'Wed': '07:45-21:00', 'Thu': '07:45-21:00', 'Fri': '07:45-21:00', 'Sat': '07:45-21:00'}}",,730 14,711,,https://www.lidl-hellas.gr/s/el-GR/anazitisi-katastimaton/Platanias/PEO-Chanion-Kissamou/
Lysistratis,Lidl Hellas,Irakleio,Greece,"{'brand': 'Lidl Hellas', 'fascia': 'Lidl Hellas', 'category': 'Retail', 'edit_date': '20250518', 'lat_lon_source': 'Third Party'}",35.3241,25.11232,Lidl Crete/Iraklio-Koroni,"{'opening_hours': {'Mon': '07:45-21:00', 'Tue': '07:45-21:00', 'Wed': '07:45-21:00', 'Thu': '07:45-21:00', 'Fri': '07:45-21:00', 'Sat': '07:45-21:00'}}",,713 04,712,,https://www.lidl-hellas.gr/s/el-GR/anazitisi-katastimaton/Irakleio/Lysistratis/
1 Km Ep.Od. Firon-Pyrgou,Lidl Hellas,Thira,Greece,"{'brand': 'Lidl Hellas', 'fascia': 'Lidl Hellas', 'category': 'Retail', 'edit_date': '20250518', 'lat_lon_source': 'Third Party'}",36.39928,25.43783,Lidl Santorini,"{'opening_hours': {'Mon': '07:45-21:00', 'Tue': '07:45-21:00', 'Wed': '07:45-21:00', 'Thu': '07:45-21:00', 'Fri': '07:45-21:00', 'Sat': '07:45-21:00'}}",,847 00,717,,https://www.lidl-hellas.gr/s/el-GR/anazitisi-katastimaton/Thira/1-Km-EpOd-Firon-Pyrgou/
25 Km P.E.O. Irakleiou-Ag.Nikolaou,Lidl Hellas,Chersonisos,Greece,"{'brand': 'Lidl Hellas', 'fascia': 'Lidl Hellas', 'category': 'Retail', 'edit_date': '20250518', 'lat_lon_source': 'Third Party'}",35.32259,25.38062,Lidl Crete/Chersonisos,"{'opening_hours': {'Mon': '07:45-22:00', 'Tue': '07:45-22:00', 'Wed': '07:45-22:00', 'Thu': '07:45-22:00', 'Fri': '07:45-22:00', 'Sat': '07:45-22:00'}}",,700 14,720,,https://www.lidl-hellas.gr/s/el-GR/anazitisi-katastimaton/Chersonisos/25-Km-PEO-Irakleiou-AgNikolaou/
Konstantinou Karamanli 5,Lidl Hellas,Ierapetra,Greece,"{'brand': 'Lidl Hellas', 'fascia': 'Lidl Hellas', 'category': 'Retail', 'edit_date': '20250518', 'lat_lon_source': 'Third Party'}",35.01484,25.74416,Lidl Crete/Ierapetra,"{'opening_hours': {'Mon': '07:45-21:00', 'Tue': '07:45-21:00', 'Wed': '07:45-21:00', 'Thu': '07:45-21:00', 'Fri': '07:45-21:00', 'Sat': '07:45-21:00'}}",,722 00,721,,https://www.lidl-hellas.gr/s/el-GR/anazitisi-katastimaton/Ierapetra/Konstantinou-Karamanli-5/
Iroon Politechneiou 32,Lidl Hellas,Ermoupoli,Greece,"{'brand': 'Lidl Hellas', 'fascia': 'Lidl Hellas', 'category': 'Retail', 'edit_date': '20250518', 'lat_lon_source': 'Third Party'}",37.43548,24.93577,Lidl Syros,"{'opening_hours': {'Mon': '07:45-21:00', 'Tue': '07:45-21:00', 'Wed': '07:45-21:00', 'Thu': '07:45-21:00', 'Fri': '07:45-21:00', 'Sat': '07:45-21:00'}}",,841 00,722,,https://www.lidl-hellas.gr/s/el-GR/anazitisi-katastimaton/Ermoupoli/Iroon-Politechneiou-32/
Monastiriou 232,Lidl Hellas,Menemeni,Greece,"{'brand': 'Lidl Hellas', 'fascia': 'Lidl Hellas', 'category': 'Retail', 'edit_date': '20250518', 'lat_lon_source': 'Third Party'}",40.65503,22.90642,Lidl Thess/Menemeni,"{'opening_hours': {'Mon': '07:45-21:00', 'Tue': '07:45-21:00', 'Wed': '07:45-21:00', 'Thu': '07:45-21:00', 'Fri': '07:45-21:00', 'Sat': '07:45-21:00'}}",,546 28,73,,https://www.lidl-hellas.gr/s/el-GR/anazitisi-katastimaton/Menemeni/Monastiriou-232/
Pontou,Lidl Hellas,Kalamaria,Greece,"{'brand': 'Lidl Hellas', 'fascia': 'Lidl Hellas', 'category': 'Retail', 'edit_date': '20250518', 'lat_lon_source': 'Third Party'}",40.56697,22.96773,Lidl Thess/Kalamaria-Mikras,"{'opening_hours': {'Mon': '07:45-21:00', 'Tue': '07:45-21:00', 'Wed': '07:45-21:00', 'Thu': '07:45-21:00', 'Fri': '07:45-21:00', 'Sat': '07:45-21:00'}}",,551 34,74,,https://www.lidl-hellas.gr/s/el-GR/anazitisi-katastimaton/Kalamaria/Pontou/
4 Km Chios-Meston,Lidl Hellas,Chios,Greece,"{'brand': 'Lidl Hellas', 'fascia': 'Lidl Hellas', 'category': 'Retail', 'edit_date': '20250518', 'lat_lon_source': 'Third Party'}",38.33611,26.1398,Lidl Chios,"{'opening_hours': {'Mon': '07:45-21:00', 'Tue': '07:45-21:00', 'Wed': '07:45-21:00', 'Thu': '07:45-21:00', 'Fri': '07:45-21:00', 'Sat': '07:45-21:00'}}",,821 00,75,,https://www.lidl-hellas.gr/s/el-GR/anazitisi-katastimaton/Chios/4-Km-Chios-Meston/
Leof.G.Papanikolaou 141,Lidl Hellas,Pefka,Greece,"{'brand': 'Lidl Hellas', 'fascia': 'Lidl Hellas', 'category': 'Retail', 'edit_date': '20250518', 'lat_lon_source': 'Third Party'}",40.65246,22.99701,Lidl Thess/Retziki,"{'opening_hours': {'Mon': '07:45-21:00', 'Tue': '07:45-21:00', 'Wed': '07:45-21:00', 'Thu': '07:45-21:00', 'Fri': '07:45-21:00', 'Sat': '07:45-21:00'}}",,570 10,77,,https://www.lidl-hellas.gr/s/el-GR/anazitisi-katastimaton/Pefka/LeofGPapanikolaou-141/
Kekropos 2,Lidl Hellas,Larisa,Greece,"{'brand': 'Lidl Hellas', 'fascia': 'Lidl Hellas', 'category': 'Retail', 'edit_date': '20250518', 'lat_lon_source': 'Third Party'}",39.61594,22.42922,Lidl Larisa/Farsalon,"{'opening_hours': {'Mon': '07:45-21:00', 'Tue': '07:45-21:00', 'Wed': '07:45-21:00', 'Thu': '07:45-21:00', 'Fri': '07:45-21:00', 'Sat': '07:45-21:00'}}",,413 35,78,,https://www.lidl-hellas.gr/s/el-GR/anazitisi-katastimaton/Larisa/Kekropos-2/
Trikalon 156,Lidl Hellas,Kalampaka,Greece,"{'brand': 'Lidl Hellas', 'fascia': 'Lidl Hellas', 'category': 'Retail', 'edit_date': '20250518', 'lat_lon_source': 'Third Party'}",39.70046,21.63623,Lidl Kalampaka,"{'opening_hours': {'Mon': '07:45-21:00', 'Tue': '07:45-21:00', 'Wed': '07:45-21:00', 'Thu': '07:45-21:00', 'Fri': '07:45-21:00', 'Sat': '07:45-21:00'}}",,422 00,79,,https://www.lidl-hellas.gr/s/el-GR/anazitisi-katastimaton/Kalampaka/Trikalon-156/
2 Km E.O. Skydras-Edessas,Lidl Hellas,Skydra,Greece,"{'brand': 'Lidl Hellas', 'fascia': 'Lidl Hellas', 'category': 'Retail', 'edit_date': '20250518', 'lat_lon_source': 'Third Party'}",40.77709,22.1563,Lidl Skydra,"{'opening_hours': {'Mon': '07:45-21:00', 'Tue': '07:45-21:00', 'Wed': '07:45-21:00', 'Thu': '07:45-21:00', 'Fri': '07:45-21:00', 'Sat': '07:45-21:00'}}",,585 00,8,,https://www.lidl-hellas.gr/s/el-GR/anazitisi-katastimaton/Skydra/2-Km-EO-Skydras-Edessas/
Ethnikis Antistaseos 11,Lidl Hellas,Kalamaria,Greece,"{'brand': 'Lidl Hellas', 'fascia': 'Lidl Hellas', 'category': 'Retail', 'edit_date': '20250518', 'lat_lon_source': 'Third Party'}",40.58846,22.96082,Lidl Thess/Kalamaria-Votsi,"{'opening_hours': {'Mon': '07:45-21:00', 'Tue': '07:45-21:00', 'Wed': '07:45-21:00', 'Thu': '07:45-21:00', 'Fri': '07:45-21:00', 'Sat': '07:45-21:00'}}",,551 34,80,,https://www.lidl-hellas.gr/s/el-GR/anazitisi-katastimaton/Kalamaria/Ethnikis-Antistaseos-11/
Alfiou 23,Lidl Hellas,Pyrgos,Greece,"{'brand': 'Lidl Hellas', 'fascia': 'Lidl Hellas', 'category': 'Retail', 'edit_date': '20250518', 'lat_lon_source': 'Third Party'}",37.66872,21.45,Lidl Pyrgos,"{'opening_hours': {'Mon': '07:45-21:00', 'Tue': '07:45-21:00', 'Wed': '07:45-21:00', 'Thu': '07:45-21:00', 'Fri': '07:45-21:00', 'Sat': '07:45-21:00'}}",,271 00,801,,https://www.lidl-hellas.gr/s/el-GR/anazitisi-katastimaton/Pyrgos/Alfiou-23/
Ionias 8,Lidl Hellas,Patra,Greece,"{'brand': 'Lidl Hellas', 'fascia': 'Lidl Hellas', 'category': 'Retail', 'edit_date': '20250518', 'lat_lon_source': 'Third Party'}",38.2312,21.74047,Lidl Patra/Ionias,"{'opening_hours': {'Mon': '07:45-21:00', 'Tue': '07:45-21:00', 'Wed': '07:45-21:00', 'Thu': '07:45-21:00', 'Fri': '07:45-21:00', 'Sat': '07:45-21:00'}}",,263 32,807,,https://www.lidl-hellas.gr/s/el-GR/anazitisi-katastimaton/Patra/Ionias-8/
Korinthou 100,Lidl Hellas,Aigio,Greece,"{'brand': 'Lidl Hellas', 'fascia': 'Lidl Hellas', 'category': 'Retail', 'edit_date': '20250518', 'lat_lon_source': 'Third Party'}",38.23888,22.09485,Lidl Aigio,"{'opening_hours': {'Mon': '07:45-21:00', 'Tue': '07:45-21:00', 'Wed': '07:45-21:00', 'Thu': '07:45-21:00', 'Fri': '07:45-21:00', 'Sat': '07:45-21:00'}}",,251 00,808,,https://www.lidl-hellas.gr/s/el-GR/anazitisi-katastimaton/Aigio/Korinthou-100/
4 Km Alexandroupolis-Feron,Lidl Hellas,Alexandroupoli,Greece,"{'brand': 'Lidl Hellas', 'fascia': 'Lidl Hellas', 'category': 'Retail', 'edit_date': '20250518', 'lat_lon_source': 'Third Party'}",40.85411,25.92574,Lidl Alexandroupoli/Maistros,"{'opening_hours': {'Mon': '07:45-21:00', 'Tue': '07:45-21:00', 'Wed': '07:45-21:00', 'Thu': '07:45-21:00', 'Fri': '07:45-21:00', 'Sat': '07:45-21:00'}}",,681 00,81,,https://www.lidl-hellas.gr/s/el-GR/anazitisi-katastimaton/Alexandroupoli/4-Km-Alexandroupolis-Feron/
1. Km E.O. Nafpaktou-Antiriou,Lidl Hellas,Nafpaktos,Greece,"{'brand': 'Lidl Hellas', 'fascia': 'Lidl Hellas', 'category': 'Retail', 'edit_date': '20250518', 'lat_lon_source': 'Third Party'}",38.38683,21.8124,Lidl Nafpaktos,"{'opening_hours': {'Mon': '07:45-21:00', 'Tue': '07:45-21:00', 'Wed': '07:45-21:00', 'Thu': '07:45-21:00', 'Fri': '07:45-21:00', 'Sat': '07:45-21:00'}}",,303 00,810,,https://www.lidl-hellas.gr/s/el-GR/anazitisi-katastimaton/Nafpaktos/1-Km-EO-Nafpaktou-Antiriou/
Iroon Politechneiou (Nea Eisodos),Lidl Hellas,Kalamata,Greece,"{'brand': 'Lidl Hellas', 'fascia': 'Lidl Hellas', 'category': 'Retail', 'edit_date': '20250518', 'lat_lon_source': 'Third Party'}",37.03479,22.10171,Lidl Kalamata/Nea Isodos,"{'opening_hours': {'Mon': '07:45-21:00', 'Tue': '07:45-21:00', 'Wed': '07:45-21:00', 'Thu': '07:45-21:00', 'Fri': '07:45-21:00', 'Sat': '07:45-21:00'}}",,241 00,812,,https://www.lidl-hellas.gr/s/el-GR/anazitisi-katastimaton/Kalamata/Iroon-Politechneiou-(Nea-Eisodos)/
2. Km Agriniou - Thermou,Lidl Hellas,Agrinio,Greece,"{'brand': 'Lidl Hellas', 'fascia': 'Lidl Hellas', 'category': 'Retail', 'edit_date': '20250518', 'lat_lon_source': 'Third Party'}",38.61323,21.43419,Lidl Agrinio/Thermou,"{'opening_hours': {'Mon': '07:45-21:00', 'Tue': '07:45-21:00', 'Wed': '07:45-21:00', 'Thu': '07:45-21:00', 'Fri': '07:45-21:00', 'Sat': '07:45-21:00'}}",,301 00,816,,https://www.lidl-hellas.gr/s/el-GR/anazitisi-katastimaton/Agrinio/2-Km-Agriniou---Thermou/
Notara 9,Lidl Hellas,Patra,Greece,"{'brand': 'Lidl Hellas', 'fascia': 'Lidl Hellas', 'category': 'Retail', 'edit_date': '20250518', 'lat_lon_source': 'Third Party'}",38.26326,21.74395,Lidl Patra/Notara,"{'opening_hours': {'Mon': '07:45-21:00', 'Tue': '07:45-21:00', 'Wed': '07:45-21:00', 'Thu': '07:45-21:00', 'Fri': '07:45-21:00', 'Sat': '07:45-21:00'}}",,264 42,817,,https://www.lidl-hellas.gr/s/el-GR/anazitisi-katastimaton/Patra/Notara-9/
2 Km Kyparissias-Pyrgou,Lidl Hellas,Kyparissia,Greece,"{'brand': 'Lidl Hellas', 'fascia': 'Lidl Hellas', 'category': 'Retail', 'edit_date': '20250518', 'lat_lon_source': 'Third Party'}",37.26501,21.6899,Lidl Kyparissia,"{'opening_hours': {'Mon': '07:45-21:00', 'Tue': '07:45-21:00', 'Wed': '07:45-21:00', 'Thu': '07:45-21:00', 'Fri': '07:45-21:00', 'Sat': '07:45-21:00'}}",,245 00,819,,https://www.lidl-hellas.gr/s/el-GR/anazitisi-katastimaton/Kyparissia/2-Km-Kyparissias-Pyrgou/
1 Km Koufalia-Chalkidona,Lidl Hellas,Koufalia,Greece,"{'brand': 'Lidl Hellas', 'fascia': 'Lidl Hellas', 'category': 'Retail', 'edit_date': '20250518', 'lat_lon_source': 'Third Party'}",40.76943,22.57573,Lidl Koufalia,"{'opening_hours': {'Mon': '07:45-21:00', 'Tue': '07:45-21:00', 'Wed': '07:45-21:00', 'Thu': '07:45-21:00', 'Fri': '07:45-21:00', 'Sat': '07:45-21:00'}}",,571 00,82,,https://www.lidl-hellas.gr/s/el-GR/anazitisi-katastimaton/Koufalia/1-Km-Koufalia-Chalkidona/
3 Km E.O. Prevezas-Ioanninon,Lidl Hellas,Preveza,Greece,"{'brand': 'Lidl Hellas', 'fascia': 'Lidl Hellas', 'category': 'Retail', 'edit_date': '20250518', 'lat_lon_source': 'Third Party'}",38.99389,20.7392,Lidl Preveza,"{'opening_hours': {'Mon': '07:45-21:00', 'Tue': '07:45-21:00', 'Wed': '07:45-21:00', 'Thu': '07:45-21:00', 'Fri': '07:45-21:00', 'Sat': '07:45-21:00'}}",,481 00,820,,https://www.lidl-hellas.gr/s/el-GR/anazitisi-katastimaton/Preveza/3-Km-EO-Prevezas-Ioanninon/
1 Km Korinthou-Examillion,Lidl Hellas,Korinthos,Greece,"{'brand': 'Lidl Hellas', 'fascia': 'Lidl Hellas', 'category': 'Retail', 'edit_date': '20250518', 'lat_lon_source': 'Third Party'}",37.92592,22.93169,Lidl Korinthos,"{'opening_hours': {'Mon': '07:45-21:00', 'Tue': '07:45-21:00', 'Wed': '07:45-21:00', 'Thu': '07:45-21:00', 'Fri': '07:45-21:00', 'Sat': '07:45-21:00'}}",,201 00,821,,https://www.lidl-hellas.gr/s/el-GR/anazitisi-katastimaton/Korinthos/1-Km-Korinthou-Examillion/
1 Km P.E.O. Kiatou-Korinthou,Lidl Hellas,Sikyona,Greece,"{'brand': 'Lidl Hellas', 'fascia': 'Lidl Hellas', 'category': 'Retail', 'edit_date': '20250518', 'lat_lon_source': 'Third Party'}",38.00303,22.76327,Lidl Kiato,"{'opening_hours': {'Mon': '07:45-21:00', 'Tue': '07:45-21:00', 'Wed': '07:45-21:00', 'Thu': '07:45-21:00', 'Fri': '07:45-21:00', 'Sat': '07:45-21:00'}}",,202 00,822,,https://www.lidl-hellas.gr/s/el-GR/anazitisi-katastimaton/Sikyona/1-Km-PEO-Kiatou-Korinthou/
3 Km E.O. Igoumenitsas-Ioanninon,Lidl Hellas,Igoumenitsa,Greece,"{'brand': 'Lidl Hellas', 'fascia': 'Lidl Hellas', 'category': 'Retail', 'edit_date': '20250518', 'lat_lon_source': 'Third Party'}",39.53382,20.26978,Lidl Igoumenitsa,"{'opening_hours': {'Mon': '07:45-21:00', 'Tue': '07:45-21:00', 'Wed': '07:45-21:00', 'Thu': '07:45-21:00', 'Fri': '07:45-21:00', 'Sat': '07:45-21:00'}}",,461 00,823,,https://www.lidl-hellas.gr/s/el-GR/anazitisi-katastimaton/Igoumenitsa/3-Km-EO-Igoumenitsas-Ioanninon/
2 Km Ep.Od. Lefkadas-Nidriou,Lidl Hellas,Lefkada,Greece,"{'brand': 'Lidl Hellas', 'fascia': 'Lidl Hellas', 'category': 'Retail', 'edit_date': '20250518', 'lat_lon_source': 'Third Party'}",38.81602,20.71113,Lidl Lefkada,"{'opening_hours': {'Mon': '07:45-21:00', 'Tue': '07:45-21:00', 'Wed': '07:45-21:00', 'Thu': '07:45-21:00', 'Fri': '07:45-21:00', 'Sat': '07:45-21:00'}}",,311 00,824,,https://www.lidl-hellas.gr/s/el-GR/anazitisi-katastimaton/Lefkada/2-Km-EpOd-Lefkadas-Nidriou/
3 Km 35 E.O. Zakynthou-Keriou,Lidl Hellas,Zakynthos,Greece,"{'brand': 'Lidl Hellas', 'fascia': 'Lidl Hellas', 'category': 'Retail', 'edit_date': '20250518', 'lat_lon_source': 'Third Party'}",37.76151,20.87557,Lidl Zakynthos,"{'opening_hours': {'Mon': '07:45-21:00', 'Tue': '07:45-21:00', 'Wed': '07:45-21:00', 'Thu': '07:45-21:00', 'Fri': '07:45-21:00', 'Sat': '07:45-21:00'}}",,291 00,825,,https://www.lidl-hellas.gr/s/el-GR/anazitisi-katastimaton/Zakynthos/3-Km-35-EO-Zakynthou-Keriou/
Argous - Inachou,Lidl Hellas,Argos,Greece,"{'brand': 'Lidl Hellas', 'fascia': 'Lidl Hellas', 'category': 'Retail', 'edit_date': '20250518', 'lat_lon_source': 'Third Party'}",37.64826,22.73006,Lidl Argos,"{'opening_hours': {'Mon': '07:45-21:00', 'Tue': '07:45-21:00', 'Wed': '07:45-21:00', 'Thu': '07:45-21:00', 'Fri': '07:45-21:00', 'Sat': '07:45-21:00'}}",,212 00,826,,https://www.lidl-hellas.gr/s/el-GR/anazitisi-katastimaton/Argos/Argous---Inachou/
1 Km Kranidiou-Nafpliou,Lidl Hellas,Kranidi,Greece,"{'brand': 'Lidl Hellas', 'fascia': 'Lidl Hellas', 'category': 'Retail', 'edit_date': '20250518', 'lat_lon_source': 'Third Party'}",37.39006,23.15785,Lidl Kranidi,"{'opening_hours': {'Mon': '07:45-21:00', 'Tue': '07:45-21:00', 'Wed': '07:45-21:00', 'Thu': '07:45-21:00', 'Fri': '07:45-21:00', 'Sat': '07:45-21:00'}}",,213 00,827,,https://www.lidl-hellas.gr/s/el-GR/anazitisi-katastimaton/Kranidi/1-Km-Kranidiou-Nafpliou/
Charilaou Trikoupi 63,Lidl Hellas,Karpenisi,Greece,"{'brand': 'Lidl Hellas', 'fascia': 'Lidl Hellas', 'category': 'Retail', 'edit_date': '20250518', 'lat_lon_source': 'Third Party'}",38.91131,21.79932,Lidl Karpenisi,"{'opening_hours': {'Mon': '07:45-21:00', 'Tue': '07:45-21:00', 'Wed': '07:45-21:00', 'Thu': '07:45-21:00', 'Fri': '07:45-21:00', 'Sat': '07:45-21:00'}}",,361 00,828,,https://www.lidl-hellas.gr/s/el-GR/anazitisi-katastimaton/Karpenisi/Charilaou-Trikoupi-63/
1 Km E.O. Skalas-Vlachioti,Lidl Hellas,Skala,Greece,"{'brand': 'Lidl Hellas', 'fascia': 'Lidl Hellas', 'category': 'Retail', 'edit_date': '20250518', 'lat_lon_source': 'Third Party'}",36.85458,22.68261,Lidl Skala Lakonias,"{'opening_hours': {'Mon': '07:45-21:00', 'Tue': '07:45-21:00', 'Wed': '07:45-21:00', 'Thu': '07:45-21:00', 'Fri': '07:45-21:00', 'Sat': '07:45-21:00'}}",,230 51,829,,https://www.lidl-hellas.gr/s/el-GR/anazitisi-katastimaton/Skala/1-Km-EO-Skalas-Vlachioti/
Megalis Choras,Lidl Hellas,Agrinio,Greece,"{'brand': 'Lidl Hellas', 'fascia': 'Lidl Hellas', 'category': 'Retail', 'edit_date': '20250518', 'lat_lon_source': 'Third Party'}",38.62827,21.39626,Lidl Agrinio/Agios Konstantinos,"{'opening_hours': {'Mon': '07:45-21:00', 'Tue': '07:45-21:00', 'Wed': '07:45-21:00', 'Thu': '07:45-21:00', 'Fri': '07:45-21:00', 'Sat': '07:45-21:00'}}",,301 00,830,,https://www.lidl-hellas.gr/s/el-GR/anazitisi-katastimaton/Agrinio/Megalis-Choras/
Lakonikis,Lidl Hellas,Kalamata,Greece,"{'brand': 'Lidl Hellas', 'fascia': 'Lidl Hellas', 'category': 'Retail', 'edit_date': '20250518', 'lat_lon_source': 'Third Party'}",37.02553,22.14572,Lidl Kalamata/Lakonikis,"{'opening_hours': {'Mon': '07:45-21:00', 'Tue': '07:45-21:00', 'Wed': '07:45-21:00', 'Thu': '07:45-21:00', 'Fri': '07:45-21:00', 'Sat': '07:45-21:00'}}",,241 00,831,,https://www.lidl-hellas.gr/s/el-GR/anazitisi-katastimaton/Kalamata/Lakonikis/
1 km E.O. Artas-Peta,Lidl Hellas,Arta,Greece,"{'brand': 'Lidl Hellas', 'fascia': 'Lidl Hellas', 'category': 'Retail', 'edit_date': '20250518', 'lat_lon_source': 'Third Party'}",39.15696,21.00955,Lidl Arta/Peta,"{'opening_hours': {'Mon': '07:45-21:00', 'Tue': '07:45-21:00', 'Wed': '07:45-21:00', 'Thu': '07:45-21:00', 'Fri': '07:45-21:00', 'Sat': '07:45-21:00'}}",,471 50,832,,https://www.lidl-hellas.gr/s/el-GR/anazitisi-katastimaton/Arta/1-km-EO-Artas-Peta/
Leoforos Asklipiou 36,Lidl Hellas,Nafplio,Greece,"{'brand': 'Lidl Hellas', 'fascia': 'Lidl Hellas', 'category': 'Retail', 'edit_date': '20250518', 'lat_lon_source': 'Third Party'}",37.56805,22.81139,Lidl Nafplio,"{'opening_hours': {'Mon': '07:45-21:00', 'Tue': '07:45-21:00', 'Wed': '07:45-21:00', 'Thu': '07:45-21:00', 'Fri': '07:45-21:00', 'Sat': '07:45-21:00'}}",,211 00,835,,https://www.lidl-hellas.gr/s/el-GR/anazitisi-katastimaton/Nafplio/Leoforos-Asklipiou-36/
Patron Klaous 243,Lidl Hellas,Patra,Greece,"{'brand': 'Lidl Hellas', 'fascia': 'Lidl Hellas', 'category': 'Retail', 'edit_date': '20250518', 'lat_lon_source': 'Third Party'}",38.20959,21.76026,Lidl Patra/Perivola,"{'opening_hours': {'Mon': '07:45-21:00', 'Tue': '07:45-21:00', 'Wed': '07:45-21:00', 'Thu': '07:45-21:00', 'Fri': '07:45-21:00', 'Sat': '07:45-21:00'}}",,263 32,836,,https://www.lidl-hellas.gr/s/el-GR/anazitisi-katastimaton/Patra/Patron-Klaous-243/
P.E.O. Patron-Pyrgou,Lidl Hellas,Patra,Greece,"{'brand': 'Lidl Hellas', 'fascia': 'Lidl Hellas', 'category': 'Retail', 'edit_date': '20250518', 'lat_lon_source': 'Third Party'}",38.20824,21.71288,Lidl Patra/Paralia,"{'opening_hours': {'Mon': '07:45-21:00', 'Tue': '07:45-21:00', 'Wed': '07:45-21:00', 'Thu': '07:45-21:00', 'Fri': '07:45-21:00', 'Sat': '07:45-21:00'}}",,263 33,837,,https://www.lidl-hellas.gr/s/el-GR/anazitisi-katastimaton/Patra/PEO-Patron-Pyrgou/
1 Km Veroias-Alexandreias,Lidl Hellas,Veroia,Greece,"{'brand': 'Lidl Hellas', 'fascia': 'Lidl Hellas', 'category': 'Retail', 'edit_date': '20250518', 'lat_lon_source': 'Third Party'}",40.54045,22.22318,Lidl Veria/Makrochori,"{'opening_hours': {'Mon': '07:45-21:00', 'Tue': '07:45-21:00', 'Wed': '07:45-21:00', 'Thu': '07:45-21:00', 'Fri': '07:45-21:00', 'Sat': '07:45-21:00'}}",,591 00,84,,https://www.lidl-hellas.gr/s/el-GR/anazitisi-katastimaton/Veroia/1-Km-Veroias-Alexandreias/
96 Km P.E.O. Patron-Korinthou,Lidl Hellas,Korinthos,Greece,"{'brand': 'Lidl Hellas', 'fascia': 'Lidl Hellas', 'category': 'Retail', 'edit_date': '20250518', 'lat_lon_source': 'Third Party'}",37.94593,22.81775,Lidl Assos,"{'opening_hours': {'Mon': '07:45-21:00', 'Tue': '07:45-21:00', 'Wed': '07:45-21:00', 'Thu': '07:45-21:00', 'Fri': '07:45-21:00', 'Sat': '07:45-21:00'}}",,200 06,840,,https://www.lidl-hellas.gr/s/el-GR/anazitisi-katastimaton/Korinthos/96-Km-PEO-Patron-Korinthou/
Palaia Ethniki Odos Korinthou-Patron,Lidl Hellas,Rio,Greece,"{'brand': 'Lidl Hellas', 'fascia': 'Lidl Hellas', 'category': 'Retail', 'edit_date': '20250518', 'lat_lon_source': 'Third Party'}",38.30629,21.80571,Lidl Rio/Akteo,"{'opening_hours': {'Mon': '07:45-21:00', 'Tue': '07:45-21:00', 'Wed': '07:45-21:00', 'Thu': '07:45-21:00', 'Fri': '07:45-21:00', 'Sat': '07:45-21:00'}}",,265 00,841,,https://www.lidl-hellas.gr/s/el-GR/anazitisi-katastimaton/Rio/Palaia-Ethniki-Odos-Korinthou-Patron/
1 Km Amaliadas-Kouroutas,Lidl Hellas,Amaliada,Greece,"{'brand': 'Lidl Hellas', 'fascia': 'Lidl Hellas', 'category': 'Retail', 'edit_date': '20250518', 'lat_lon_source': 'Third Party'}",37.78777,21.33196,Lidl Amaliada,"{'opening_hours': {'Mon': '07:45-21:00', 'Tue': '07:45-21:00', 'Wed': '07:45-21:00', 'Thu': '07:45-21:00', 'Fri': '07:45-21:00', 'Sat': '07:45-21:00'}}",,272 00,842,,https://www.lidl-hellas.gr/s/el-GR/anazitisi-katastimaton/Amaliada/1-Km-Amaliadas-Kouroutas/
Iroon Polytechneiou 79,Lidl Hellas,Elefsina,Greece,"{'brand': 'Lidl Hellas', 'fascia': 'Lidl Hellas', 'category': 'Retail', 'edit_date': '20250518', 'lat_lon_source': 'Third Party'}",38.04601,23.53292,Lidl Attica/Elefsina,"{'opening_hours': {'Mon': '07:45-21:00', 'Tue': '07:45-21:00', 'Wed': '07:45-21:00', 'Thu': '07:45-21:00', 'Fri': '07:45-21:00', 'Sat': '07:45-21:00'}}",,192 00,843,,https://www.lidl-hellas.gr/s/el-GR/anazitisi-katastimaton/Elefsina/Iroon-Polytechneiou-79/
1 Km Messinis-Kalamatas,Lidl Hellas,Messini,Greece,"{'brand': 'Lidl Hellas', 'fascia': 'Lidl Hellas', 'category': 'Retail', 'edit_date': '20250518', 'lat_lon_source': 'Third Party'}",37.05251,22.01553,Lidl Messini,"{'opening_hours': {'Mon': '07:45-21:00', 'Tue': '07:45-21:00', 'Wed': '07:45-21:00', 'Thu': '07:45-21:00', 'Fri': '07:45-21:00', 'Sat': '07:45-21:00'}}",,242 00,844,,https://www.lidl-hellas.gr/s/el-GR/anazitisi-katastimaton/Messini/1-Km-Messinis-Kalamatas/
Lachanagora,Lidl Hellas,Irakleio,Greece,"{'brand': 'Lidl Hellas', 'fascia': 'Lidl Hellas', 'category': 'Retail', 'edit_date': '20250518', 'lat_lon_source': 'Third Party'}",35.3272,25.17889,Lidl Crete/Iraklio-Alikarnassos,"{'opening_hours': {'Mon': '07:45-21:00', 'Tue': '07:45-21:00', 'Wed': '07:45-21:00', 'Thu': '07:45-21:00', 'Fri': '07:45-21:00', 'Sat': '07:45-21:00'}}",,713 03,845,,https://www.lidl-hellas.gr/s/el-GR/anazitisi-katastimaton/Irakleio/Lachanagora/
Mountzouropoulou,Lidl Hellas,Tripoli,Greece,"{'brand': 'Lidl Hellas', 'fascia': 'Lidl Hellas', 'category': 'Retail', 'edit_date': '20250518', 'lat_lon_source': 'Third Party'}",37.5125,22.38354,Lidl Tripoli,"{'opening_hours': {'Mon': '07:45-21:00', 'Tue': '07:45-21:00', 'Wed': '07:45-21:00', 'Thu': 'ΚΛΕΙΣΤΑ', 'Fri': '07:45-21:00', 'Sat': '07:45-21:00'}}",,221 00,846,,https://www.lidl-hellas.gr/s/el-GR/anazitisi-katastimaton/Tripoli/Mountzouropoulou/
Papadiamantopoulou 56,Lidl Hellas,Iera Polis Mesolongiou,Greece,"{'brand': 'Lidl Hellas', 'fascia': 'Lidl Hellas', 'category': 'Retail', 'edit_date': '20250518', 'lat_lon_source': 'Third Party'}",38.38031,21.42631,Lidl Mesolongi,"{'opening_hours': {'Mon': '07:45-21:00', 'Tue': '07:45-21:00', 'Wed': '07:45-21:00', 'Thu': '07:45-21:00', 'Fri': '07:45-21:00', 'Sat': '07:45-21:00'}}",,302 00,847,,https://www.lidl-hellas.gr/s/el-GR/anazitisi-katastimaton/Iera-Polis-Mesolongiou/Papadiamantopoulou-56/
4 Km Ep.Od. Argostoliou-Porou,Lidl Hellas,Argostoli,Greece,"{'brand': 'Lidl Hellas', 'fascia': 'Lidl Hellas', 'category': 'Retail', 'edit_date': '20250518', 'lat_lon_source': 'Third Party'}",38.15028,20.52201,Lidl Kefalonia,"{'opening_hours': {'Mon': '07:45-21:00', 'Tue': '07:45-21:00', 'Wed': '07:45-21:00', 'Thu': '07:45-21:00', 'Fri': '07:45-21:00', 'Sat': '07:45-21:00'}}",,281 00,849,,https://www.lidl-hellas.gr/s/el-GR/anazitisi-katastimaton/Argostoli/4-Km-EpOd-Argostoliou-Porou/
4 Km Samou-Pythagoreiou,Lidl Hellas,Vathy,Greece,"{'brand': 'Lidl Hellas', 'fascia': 'Lidl Hellas', 'category': 'Retail', 'edit_date': '20250518', 'lat_lon_source': 'Third Party'}",37.73808,26.98522,Lidl Samos,"{'opening_hours': {'Mon': '07:45-21:00', 'Tue': '07:45-21:00', 'Wed': '07:45-21:00', 'Thu': '07:45-21:00', 'Fri': '07:45-21:00', 'Sat': '07:45-21:00'}}",,831 00,85,,https://www.lidl-hellas.gr/s/el-GR/anazitisi-katastimaton/Vathy/4-Km-Samou-Pythagoreiou/
Alexandrou Papanastasiou 114,Lidl Hellas,Irakleio,Greece,"{'brand': 'Lidl Hellas', 'fascia': 'Lidl Hellas', 'category': 'Retail', 'edit_date': '20250518', 'lat_lon_source': 'Third Party'}",35.31433,25.14148,Lidl ,"{'opening_hours': {'Mon': '07:45-21:00', 'Tue': '07:45-21:00', 'Wed': '07:45-21:00', 'Thu': '07:45-21:00', 'Fri': '07:45-21:00', 'Sat': '07:45-21:00'}}",,714 09,850,,https://www.lidl-hellas.gr/s/el-GR/anazitisi-katastimaton/Irakleio/Alexandrou-Papanastasiou-114/
3 Km Spartis-Gytheiou,Lidl Hellas,Sparti,Greece,"{'brand': 'Lidl Hellas', 'fascia': 'Lidl Hellas', 'category': 'Retail', 'edit_date': '20250518', 'lat_lon_source': 'Third Party'}",37.04786,22.43521,Lidl ,"{'opening_hours': {'Mon': '07:45-21:00', 'Tue': '07:45-21:00', 'Wed': '07:45-21:00', 'Thu': '07:45-21:00', 'Fri': '07:45-21:00', 'Sat': '07:45-21:00'}}",,231 00,851,,https://www.lidl-hellas.gr/s/el-GR/anazitisi-katastimaton/Sparti/3-Km-Spartis-Gytheiou/
Leoforos Archiepiskopou Makariou 2,Lidl Hellas,Irakleio,Greece,"{'brand': 'Lidl Hellas', 'fascia': 'Lidl Hellas', 'category': 'Retail', 'edit_date': '20250518', 'lat_lon_source': 'Third Party'}",35.33782,25.12481,Lidl ,"{'opening_hours': {'Mon': '07:45-21:00', 'Tue': '07:45-21:00', 'Wed': '07:45-21:00', 'Thu': '07:45-21:00', 'Fri': '07:45-21:00', 'Sat': '07:45-21:00'}}",,712 02,853,,https://www.lidl-hellas.gr/s/el-GR/anazitisi-katastimaton/Irakleio/Leoforos-Archiepiskopou-Makariou-2/
1 Km Polygyrou-Gerakinis,Lidl Hellas,Polygyros,Greece,"{'brand': 'Lidl Hellas', 'fascia': 'Lidl Hellas', 'category': 'Retail', 'edit_date': '20250518', 'lat_lon_source': 'Third Party'}",40.36692,23.43756,Lidl Poligiros,"{'opening_hours': {'Mon': '07:45-21:00', 'Tue': '07:45-21:00', 'Wed': '07:45-21:00', 'Thu': '07:45-21:00', 'Fri': '07:45-21:00', 'Sat': '07:45-21:00'}}",,631 00,86,,https://www.lidl-hellas.gr/s/el-GR/anazitisi-katastimaton/Polygyros/1-Km-Polygyrou-Gerakinis/
Alexandrou Papanastasiou 102,Lidl Hellas,Thessaloniki,Greece,"{'brand': 'Lidl Hellas', 'fascia': 'Lidl Hellas', 'category': 'Retail', 'edit_date': '20250518', 'lat_lon_source': 'Third Party'}",40.60659,22.96728,Lidl Thess/Charilaou,"{'opening_hours': {'Mon': '07:00-21:00', 'Tue': '07:00-21:00', 'Wed': '07:00-21:00', 'Thu': '07:00-21:00', 'Fri': '07:00-21:00', 'Sat': '07:00-21:00'}}",,546 44,87,,https://www.lidl-hellas.gr/s/el-GR/anazitisi-katastimaton/Thessaloniki/Alexandrou-Papanastasiou-102/
Enanti Palaion Ergatikon Katoikion,Lidl Hellas,Kavala,Greece,"{'brand': 'Lidl Hellas', 'fascia': 'Lidl Hellas', 'category': 'Retail', 'edit_date': '20250518', 'lat_lon_source': 'Third Party'}",40.94775,24.43097,Lidl Kavala/Perigiali,"{'opening_hours': {'Mon': '07:45-21:00', 'Tue': '07:45-21:00', 'Wed': '07:45-21:00', 'Thu': '07:45-21:00', 'Fri': '07:45-21:00', 'Sat': '07:45-21:00'}}",,652 01,88,,https://www.lidl-hellas.gr/s/el-GR/anazitisi-katastimaton/Kavala/Enanti-Palaion-Ergatikon-Katoikion/
Thanasi Chatzi,Lidl Hellas,Amyntaio,Greece,"{'brand': 'Lidl Hellas', 'fascia': 'Lidl Hellas', 'category': 'Retail', 'edit_date': '20250518', 'lat_lon_source': 'Third Party'}",40.68371,21.68077,Lidl Amideo,"{'opening_hours': {'Mon': '07:45-21:00', 'Tue': '07:45-21:00', 'Wed': 'ΚΛΕΙΣΤΑ', 'Thu': '07:45-21:00', 'Fri': '07:45-21:00', 'Sat': '07:45-21:00'}}",,532 00,89,,https://www.lidl-hellas.gr/s/el-GR/anazitisi-katastimaton/Amyntaio/Thanasi-Chatzi/
1 Km Giannitson-Edessas,Lidl Hellas,Giannitsa,Greece,"{'brand': 'Lidl Hellas', 'fascia': 'Lidl Hellas', 'category': 'Retail', 'edit_date': '20250518', 'lat_lon_source': 'Third Party'}",40.78446,22.40315,Lidl Giannitsa,"{'opening_hours': {'Mon': '07:45-21:00', 'Tue': '07:45-21:00', 'Wed': '07:45-21:00', 'Thu': '07:45-21:00', 'Fri': '07:45-21:00', 'Sat': '07:45-21:00'}}",,581 00,9,,https://www.lidl-hellas.gr/s/el-GR/anazitisi-katastimaton/Giannitsa/1-Km-Giannitson-Edessas/
3 Km Serron-Dramas,Lidl Hellas,Serres,Greece,"{'brand': 'Lidl Hellas', 'fascia': 'Lidl Hellas', 'category': 'Retail', 'edit_date': '20250518', 'lat_lon_source': 'Third Party'}",41.09271,23.58088,Lidl Serres/Agios Ioannis,"{'opening_hours': {'Mon': '07:45-21:00', 'Tue': '07:45-21:00', 'Wed': '07:45-21:00', 'Thu': '07:45-21:00', 'Fri': '07:45-21:00', 'Sat': '07:45-21:00'}}",,621 00,90,,https://www.lidl-hellas.gr/s/el-GR/anazitisi-katastimaton/Serres/3-Km-Serron-Dramas/
2 Km Karditsas-Trikalon,Lidl Hellas,Karditsa,Greece,"{'brand': 'Lidl Hellas', 'fascia': 'Lidl Hellas', 'category': 'Retail', 'edit_date': '20250518', 'lat_lon_source': 'Third Party'}",39.38529,21.90887,Lidl Karditsa/Trikalon,"{'opening_hours': {'Mon': '07:45-21:00', 'Tue': '07:45-21:00', 'Wed': '07:45-21:00', 'Thu': '07:45-21:00', 'Fri': '07:45-21:00', 'Sat': '07:45-21:00'}}",,431 00,91,,https://www.lidl-hellas.gr/s/el-GR/anazitisi-katastimaton/Karditsa/2-Km-Karditsas-Trikalon/
Alexandrou Ypsilanti 2,Lidl Hellas,Ioannina,Greece,"{'brand': 'Lidl Hellas', 'fascia': 'Lidl Hellas', 'category': 'Retail', 'edit_date': '20250518', 'lat_lon_source': 'Third Party'}",39.6887,20.82744,Lidl Ioannina/Nea Zoi,"{'opening_hours': {'Mon': '07:45-21:00', 'Tue': '07:45-21:00', 'Wed': '07:45-21:00', 'Thu': '07:45-21:00', 'Fri': '07:45-21:00', 'Sat': '07:45-21:00'}}",,452 21,92,,https://www.lidl-hellas.gr/s/el-GR/anazitisi-katastimaton/Ioannina/Alexandrou-Ypsilanti-2/
Terpsitheas 11,Lidl Hellas,Pylaia,Greece,"{'brand': 'Lidl Hellas', 'fascia': 'Lidl Hellas', 'category': 'Retail', 'edit_date': '20250518', 'lat_lon_source': 'Third Party'}",40.60809,22.98987,Lidl Thess/Pylea-Malakopi,"{'opening_hours': {'Mon': '07:45-21:00', 'Tue': '07:45-21:00', 'Wed': '07:45-21:00', 'Thu': '07:45-21:00', 'Fri': '07:45-21:00', 'Sat': '07:45-21:00'}}",,555 34,93,,https://www.lidl-hellas.gr/s/el-GR/anazitisi-katastimaton/Pylaia/Terpsitheas-11/
1 Km Ierissou-Gomatiou,Lidl Hellas,Stageira-Akanthos,Greece,"{'brand': 'Lidl Hellas', 'fascia': 'Lidl Hellas', 'category': 'Retail', 'edit_date': '20250518', 'lat_lon_source': 'Third Party'}",40.39415,23.87257,Lidl Ierissos,"{'opening_hours': {'Mon': '07:45-21:00', 'Tue': '07:45-21:00', 'Wed': '07:45-21:00', 'Thu': '07:45-21:00', 'Fri': '07:45-21:00', 'Sat': '07:45-21:00'}}",,630 75,95,,https://www.lidl-hellas.gr/s/el-GR/anazitisi-katastimaton/Stageira-Akanthos/1-Km-Ierissou-Gomatiou/
I. Sismanoglou 1,Lidl Hellas,Komotini,Greece,"{'brand': 'Lidl Hellas', 'fascia': 'Lidl Hellas', 'category': 'Retail', 'edit_date': '20250518', 'lat_lon_source': 'Third Party'}",41.11082,25.41287,Lidl Komotini/Sismanoglou,"{'opening_hours': {'Mon': '07:45-21:00', 'Tue': '07:45-21:00', 'Wed': '07:45-21:00', 'Thu': '07:45-21:00', 'Fri': '07:45-21:00', 'Sat': '07:45-21:00'}}",,691 00,96,,https://www.lidl-hellas.gr/s/el-GR/anazitisi-katastimaton/Komotini/I-Sismanoglou-1/
Anonymi Odos A,Lidl Hellas,Anatolikos Olympos,Greece,"{'brand': 'Lidl Hellas', 'fascia': 'Lidl Hellas', 'category': 'Retail', 'edit_date': '20250518', 'lat_lon_source': 'Third Party'}",40.05203,22.56167,Lidl Leptokaria,"{'opening_hours': {'Mon': '07:45-21:00', 'Tue': '07:45-21:00', 'Wed': '07:45-21:00', 'Thu': '07:45-21:00', 'Fri': '07:45-21:00', 'Sat': '07:45-21:00'}}",,600 63,97,,https://www.lidl-hellas.gr/s/el-GR/anazitisi-katastimaton/Anatolikos-Olympos/Anonymi-Odos-A/
1 Km Sindou-Chalastras,Lidl Hellas,Echedoro,Greece,"{'brand': 'Lidl Hellas', 'fascia': 'Lidl Hellas', 'category': 'Retail', 'edit_date': '20250518', 'lat_lon_source': 'Third Party'}",40.66869,22.79465,Lidl Sindos,"{'opening_hours': {'Mon': '07:45-21:00', 'Tue': '07:45-21:00', 'Wed': '07:45-21:00', 'Thu': '07:45-21:00', 'Fri': '07:45-21:00', 'Sat': '07:45-21:00'}}",,574 00,99,,https://www.lidl-hellas.gr/s/el-GR/anazitisi-katastimaton/Echedoro/1-Km-Sindou-Chalastras/
