addr_full,city,country,brand,extras,lat,lon,opening_hours,phone,ref,postcode,name,state,website
Av. General Francisco Munguia No. 55,Ecatepec de Morelos,Mexico,Chedraui,"{'brand': 'Chedraui', 'fascia': 'Chedraui', 'category': 'Retail', 'edit_date': '20250426', 'lat_lon_source': 'google'}",19.500271,-99.026213,"{'opening_hours': {'Mon': '07:00-23:00', 'Tue': '07:00-23:00', 'Wed': '07:00-23:00', 'Thu': '07:00-23:00', 'Fri': '07:00-23:00', 'Sat': '07:00-23:00', 'Sun': '07:00-23:00'}}",,681,55299,Supercito Valle Del Jucar,,https://www.chedraui.com.mx/encuentra-tu-tienda
Antigua Carretera A Minatitlan Km8,Coatzacoalcos,Mexico,Chedraui,"{'brand': 'Chedraui', 'fascia': 'Chedraui', 'category': 'Retail', 'edit_date': '20250426', 'lat_lon_source': 'google'}",18.14151427334122,-94.48771756149512,"{'opening_hours': {'Mon': '07:00-23:00', 'Tue': '07:00-23:00', 'Wed': '07:00-23:00', 'Thu': '07:00-23:00', 'Fri': '07:00-23:00', 'Sat': '07:00-23:00', 'Sun': '07:00-23:00'}}",,818,96537,Súper Chedraui Selecto Fórum Coatzacoalcos,,https://www.chedraui.com.mx/encuentra-tu-tienda
Calle 23 No. 612,Merida,Mexico,Chedraui,"{'brand': 'Chedraui', 'fascia': 'Chedraui', 'category': 'Retail', 'edit_date': '20250426', 'lat_lon_source': 'google'}",21.005049,-89.689575,"{'opening_hours': {'Mon': '07:00-23:00', 'Tue': '07:00-23:00', 'Wed': '07:00-23:00', 'Thu': '07:00-23:00', 'Fri': '07:00-23:00', 'Sat': '07:00-23:00', 'Sun': '07:00-23:00'}}",,135,97314,Chedraui Mérida Caucel,,https://www.chedraui.com.mx/encuentra-tu-tienda
Paseo del Bajio No. 203,Celaya,Mexico,Chedraui,"{'brand': 'Chedraui', 'fascia': 'Chedraui', 'category': 'Retail', 'edit_date': '20250426', 'lat_lon_source': 'google'}",20.518265,-100.795664,"{'opening_hours': {'Mon': '07:00-23:00', 'Tue': '07:00-23:00', 'Wed': '07:00-23:00', 'Thu': '07:00-23:00', 'Fri': '07:00-23:00', 'Sat': '07:00-23:00', 'Sun': '07:00-23:00'}}",,267,38080,Chedraui Celaya Campestre,,https://www.chedraui.com.mx/encuentra-tu-tienda
Calle 42 No. 2909,Valladolid,Mexico,Chedraui,"{'brand': 'Chedraui', 'fascia': 'Chedraui', 'category': 'Retail', 'edit_date': '20250426', 'lat_lon_source': 'google'}",20.70225,-88.20273,"{'opening_hours': {'Mon': '07:00-23:00', 'Tue': '07:00-23:00', 'Wed': '07:00-23:00', 'Thu': '07:00-23:00', 'Fri': '07:00-23:00', 'Sat': '07:00-23:00', 'Sun': '07:00-23:00'}}",,631,97780,Super Chedraui Valladolid,,https://www.chedraui.com.mx/encuentra-tu-tienda
Km. 1 Autopista Orizaba-Córdoba Esq. Av. 21 S/N,Córdoba,Mexico,Chedraui,"{'brand': 'Chedraui', 'fascia': 'Chedraui', 'category': 'Retail', 'edit_date': '20250426', 'lat_lon_source': 'google'}",18.889761,-96.947397,"{'opening_hours': {'Mon': '07:00-23:00', 'Tue': '07:00-23:00', 'Wed': '07:00-23:00', 'Thu': '07:00-23:00', 'Fri': '07:00-23:00', 'Sat': '07:00-23:00', 'Sun': '07:00-23:00'}}",,009,94570,Chedraui Córdoba Crystal,,https://www.chedraui.com.mx/encuentra-tu-tienda
Carret. Mex-Xal-Ver Km. 435.3,Veracruz,Mexico,Chedraui,"{'brand': 'Chedraui', 'fascia': 'Chedraui', 'category': 'Retail', 'edit_date': '20250426', 'lat_lon_source': 'google'}",19.175396,-96.189198,"{'opening_hours': {'Mon': '07:00-23:00', 'Tue': '07:00-23:00', 'Wed': '07:00-23:00', 'Thu': '07:00-23:00', 'Fri': '07:00-23:00', 'Sat': '07:00-23:00', 'Sun': '07:00-23:00'}}",,172,91726,Chedraui Veracruz Aluminio,,https://www.chedraui.com.mx/encuentra-tu-tienda
Carret. Picacho-Ajusco No. 175,Tlalpan,Mexico,Chedraui,"{'brand': 'Chedraui', 'fascia': 'Chedraui', 'category': 'Retail', 'edit_date': '20250426', 'lat_lon_source': 'google'}",19.299276,-99.212515,"{'opening_hours': {'Mon': '07:00-23:00', 'Tue': '07:00-23:00', 'Wed': '07:00-23:00', 'Thu': '07:00-23:00', 'Fri': '07:00-23:00', 'Sat': '07:00-23:00', 'Sun': '07:00-23:00'}}",,234,14200,Chedraui  Ajusco,,https://www.chedraui.com.mx/encuentra-tu-tienda
Calz. Del Hueso No. 670,Coyoacán,Mexico,Chedraui,"{'brand': 'Chedraui', 'fascia': 'Chedraui', 'category': 'Retail', 'edit_date': '20250426', 'lat_lon_source': 'google'}",19.304096,-99.118488,"{'opening_hours': {'Mon': '07:00-23:00', 'Tue': '07:00-23:00', 'Wed': '07:00-23:00', 'Thu': '07:00-23:00', 'Fri': '07:00-23:00', 'Sat': '07:00-23:00', 'Sun': '07:00-23:00'}}",,233,04870,Chedraui  Coapa,,https://www.chedraui.com.mx/encuentra-tu-tienda
Blvrd. Campestre No. 694,León De Los Aldama,Mexico,Chedraui,"{'brand': 'Chedraui', 'fascia': 'Chedraui', 'category': 'Retail', 'edit_date': '20250426', 'lat_lon_source': 'google'}",21.14335,-101.660578,"{'opening_hours': {'Mon': '07:00-23:00', 'Tue': '07:00-23:00', 'Wed': '07:00-23:00', 'Thu': '07:00-23:00', 'Fri': '07:00-23:00', 'Sat': '07:00-23:00', 'Sun': '07:00-23:00'}}",,246,37230,Chedraui León Campestre,,https://www.chedraui.com.mx/encuentra-tu-tienda
Calle Colón No. 4856,Tlaquepaque,Mexico,Chedraui,"{'brand': 'Chedraui', 'fascia': 'Chedraui', 'category': 'Retail', 'edit_date': '20250426', 'lat_lon_source': 'google'}",20.614699,-103.396031,"{'opening_hours': {'Mon': '07:00-23:00', 'Tue': '07:00-23:00', 'Wed': '07:00-23:00', 'Thu': '07:00-23:00', 'Fri': '07:00-23:00', 'Sat': '07:00-23:00', 'Sun': '07:00-23:00'}}",,159,45608,Chedraui Guadalajara Colón,,https://www.chedraui.com.mx/encuentra-tu-tienda
Calle Vialidad Mexiquense Parcela 16 Z1P1/1 No. 92,San Francisco Coacalco,Mexico,Chedraui,"{'brand': 'Chedraui', 'fascia': 'Chedraui', 'category': 'Retail', 'edit_date': '20250426', 'lat_lon_source': 'google'}",19.645028,-99.108261,"{'opening_hours': {'Mon': '07:00-22:00', 'Tue': '07:00-22:00', 'Wed': '07:00-22:00', 'Thu': '07:00-22:00', 'Fri': '07:00-22:00', 'Sat': '07:00-22:00', 'Sun': '07:00-22:00'}}",,146,55712,Chedraui  Coacalco,,https://www.chedraui.com.mx/encuentra-tu-tienda
Melchor Ocampo No. 75,Coatepec,Mexico,Chedraui,"{'brand': 'Chedraui', 'fascia': 'Chedraui', 'category': 'Retail', 'edit_date': '20250426', 'lat_lon_source': 'google'}",19.448909,-96.963147,"{'opening_hours': {'Mon': '07:00-22:00', 'Tue': '07:00-22:00', 'Wed': '07:00-22:00', 'Thu': '07:00-22:00', 'Fri': '07:00-22:00', 'Sat': '07:00-22:00', 'Sun': '07:00-22:00'}}",,017,91500,Chedraui Coatepec Cristal,,https://www.chedraui.com.mx/encuentra-tu-tienda
Isabel  La  Católica No. 1915,La Paz,Mexico,Chedraui,"{'brand': 'Chedraui', 'fascia': 'Chedraui', 'category': 'Retail', 'edit_date': '20250426', 'lat_lon_source': 'google'}",24.149926,-110.307548,"{'opening_hours': {'Mon': '07:00-23:00', 'Tue': '07:00-23:00', 'Wed': '07:00-23:00', 'Thu': '07:00-23:00', 'Fri': '07:00-23:00', 'Sat': '07:00-23:00', 'Sun': '07:00-23:00'}}",,126,23000,Chedraui La Paz Palacio,,https://www.chedraui.com.mx/encuentra-tu-tienda
Calle Neptuno Mza 004 Lote 001,Tulum,Mexico,Chedraui,"{'brand': 'Chedraui', 'fascia': 'Chedraui', 'category': 'Retail', 'edit_date': '20250426', 'lat_lon_source': 'google'}",20.211613,-87.449646,"{'opening_hours': {'Mon': '07:00-23:00', 'Tue': '07:00-23:00', 'Wed': '07:00-23:00', 'Thu': '07:00-23:00', 'Fri': '07:00-23:00', 'Sat': '07:00-23:00', 'Sun': '07:00-23:00'}}",,153,77780,Chedraui Tulum Ipae,,https://www.chedraui.com.mx/encuentra-tu-tienda
"Carretera Veracruz - Xalapa S/N  Col. Valente Diaz, Ver.",Xalapa-Enríquez,Mexico,Chedraui,"{'brand': 'Chedraui', 'fascia': 'Chedraui', 'category': 'Retail', 'edit_date': '20250426', 'lat_lon_source': 'google'}",19.16668582,-96.22265524,"{'opening_hours': {'Mon': '07:00-23:00', 'Tue': '07:00-23:00', 'Wed': '07:00-23:00', 'Thu': '07:00-23:00', 'Fri': '07:00-23:00', 'Sat': '07:00-23:00', 'Sun': '07:00-23:00'}}",,194,91697,Chedraui Veracruz Tejería,,https://www.chedraui.com.mx/encuentra-tu-tienda
Blvrd. Lopez Portillo No. 50,Nanchital,Mexico,Chedraui,"{'brand': 'Chedraui', 'fascia': 'Chedraui', 'category': 'Retail', 'edit_date': '20250426', 'lat_lon_source': 'google'}",18.076551,-94.407967,"{'opening_hours': {'Mon': '07:00-23:59', 'Tue': '07:00-23:59', 'Wed': '07:00-23:59', 'Thu': '07:00-23:59', 'Fri': '07:00-23:59', 'Sat': '07:00-23:59', 'Sun': '07:00-23:59'}}",,613,96360,Super Chedraui Nanchital,,https://www.chedraui.com.mx/encuentra-tu-tienda
Calle Benito Juárez S/N,Tenancingo,Mexico,Chedraui,"{'brand': 'Chedraui', 'fascia': 'Chedraui', 'category': 'Retail', 'edit_date': '20250426', 'lat_lon_source': 'google'}",18.956988,-99.591519,"{'opening_hours': {'Mon': '07:00-22:00', 'Tue': '07:00-22:00', 'Wed': '07:00-22:00', 'Thu': '07:00-22:00', 'Fri': '07:00-22:00', 'Sat': '07:00-22:00', 'Sun': '07:00-22:00'}}",,635,52400,Super Chedraui Tenancingo,,https://www.chedraui.com.mx/encuentra-tu-tienda
Calz. Francisco I. Madero No. 1322,Oaxaca De Juárez,Mexico,Chedraui,"{'brand': 'Chedraui', 'fascia': 'Chedraui', 'category': 'Retail', 'edit_date': '20250426', 'lat_lon_source': 'google'}",17.07883,-96.741866,"{'opening_hours': {'Mon': '07:00-23:00', 'Tue': '07:00-23:00', 'Wed': '07:00-23:00', 'Thu': '07:00-23:00', 'Fri': '07:00-23:00', 'Sat': '07:00-23:00', 'Sun': '07:00-23:00'}}",,105,68030,Chedraui Oaxaca Madero,,https://www.chedraui.com.mx/encuentra-tu-tienda
Blvrd. Francisco Villa No. 105,León De Los Aldama,Mexico,Chedraui,"{'brand': 'Chedraui', 'fascia': 'Chedraui', 'category': 'Retail', 'edit_date': '20250426', 'lat_lon_source': 'google'}",21.112807,-101.65251,"{'opening_hours': {'Mon': '07:00-23:00', 'Tue': '07:00-23:00', 'Wed': '07:00-23:00', 'Thu': '07:00-23:00', 'Fri': '07:00-23:00', 'Sat': '07:00-23:00', 'Sun': '07:00-23:00'}}",,247,37270,Chedraui León Poliforum,,https://www.chedraui.com.mx/encuentra-tu-tienda
Av. Fortuna No. 334,Gustavo A. Madero,Mexico,Chedraui,"{'brand': 'Chedraui', 'fascia': 'Chedraui', 'category': 'Retail', 'edit_date': '20250426', 'lat_lon_source': 'google'}",19.48359,-99.133245,"{'opening_hours': {'Mon': '07:00-23:00', 'Tue': '07:00-23:00', 'Wed': '07:00-23:00', 'Thu': '07:00-23:00', 'Fri': '07:00-23:00', 'Sat': '07:00-23:00', 'Sun': '07:00-23:00'}}",,174,07760,Chedraui Selecto  Fortuna,,https://www.chedraui.com.mx/encuentra-tu-tienda
Av. De Los Gavilanes S/N  Mza 013 Lote 001,Playa Del Carmen,Mexico,Chedraui,"{'brand': 'Chedraui', 'fascia': 'Chedraui', 'category': 'Retail', 'edit_date': '20250426', 'lat_lon_source': 'google'}",20.670321,-87.11448,"{'opening_hours': {'Mon': '07:00-23:00', 'Tue': '07:00-23:00', 'Wed': '07:00-23:00', 'Thu': '07:00-23:00', 'Fri': '07:00-23:00', 'Sat': '07:00-23:00', 'Sun': '07:00-23:00'}}",,094,77723,Chedraui Playa Del Carmen Villas Del Sol,,https://www.chedraui.com.mx/encuentra-tu-tienda
Av. Chac Mool Lote 1 Mza 1 Super Mza 315,Benito Juárez,Mexico,Chedraui,"{'brand': 'Chedraui', 'fascia': 'Chedraui', 'category': 'Retail', 'edit_date': '20250426', 'lat_lon_source': 'google'}",21.129843,-86.865074,"{'opening_hours': {'Mon': '07:00-23:00', 'Tue': '07:00-23:00', 'Wed': '07:00-23:00', 'Thu': '07:00-23:00', 'Fri': '07:00-23:00', 'Sat': '07:00-23:00', 'Sun': '07:00-23:00'}}",,144,77560,Chedraui Cancún Chacmool,,https://www.chedraui.com.mx/encuentra-tu-tienda
Calz. La Huerta No. 2555,Morelia,Mexico,Chedraui,"{'brand': 'Chedraui', 'fascia': 'Chedraui', 'category': 'Retail', 'edit_date': '20250426', 'lat_lon_source': 'google'}",19.679258,-101.216488,"{'opening_hours': {'Mon': '07:00-23:00', 'Tue': '07:00-23:00', 'Wed': '07:00-23:00', 'Thu': '07:00-23:00', 'Fri': '07:00-23:00', 'Sat': '07:00-23:00', 'Sun': '07:00-23:00'}}",,160,58080,Chedraui Morelia La Huerta,,https://www.chedraui.com.mx/encuentra-tu-tienda
Blvrd. Reforma No. 42,Tultitlán,Mexico,Chedraui,"{'brand': 'Chedraui', 'fascia': 'Chedraui', 'category': 'Retail', 'edit_date': '20250426', 'lat_lon_source': 'google'}",19.608267,-99.177547,"{'opening_hours': {'Mon': '07:00-23:00', 'Tue': '07:00-23:00', 'Wed': '07:00-23:00', 'Thu': '07:00-23:00', 'Fri': '07:00-23:00', 'Sat': '07:00-23:00', 'Sun': '07:00-23:00'}}",,130,54944,Chedraui  Ciudad Labor,,https://www.chedraui.com.mx/encuentra-tu-tienda
Av. Paseo De La Reforma No. 250,Cuauhtémoc,Mexico,Chedraui,"{'brand': 'Chedraui', 'fascia': 'Chedraui', 'category': 'Retail', 'edit_date': '20250426', 'lat_lon_source': 'google'}",19.446603,-99.135874,"{'opening_hours': {'Mon': '07:00-22:30', 'Tue': '07:00-22:30', 'Wed': '07:00-22:30', 'Thu': '07:00-22:30', 'Fri': '07:00-22:30', 'Sat': '07:00-22:30', 'Sun': '07:00-22:30'}}",,700,06220,Super Che Reforma Peralvillo Mex,,https://www.chedraui.com.mx/encuentra-tu-tienda
Autopista  - Pachuca No. 6201,Pachuca de Soto,Mexico,Chedraui,"{'brand': 'Chedraui', 'fascia': 'Chedraui', 'category': 'Retail', 'edit_date': '20250426', 'lat_lon_source': 'google'}",20.036877,-98.796545,"{'opening_hours': {'Mon': '07:00-23:00', 'Tue': '07:00-23:00', 'Wed': '07:00-23:00', 'Thu': '07:00-23:00', 'Fri': '07:00-23:00', 'Sat': '07:00-23:00', 'Sun': '07:00-23:00'}}",,779,42083,Super Chedraui Pachuca Explanada,,https://www.chedraui.com.mx/encuentra-tu-tienda
Manuel Antonio Romero Zurita S/N,Paraíso,Mexico,Chedraui,"{'brand': 'Chedraui', 'fascia': 'Chedraui', 'category': 'Retail', 'edit_date': '20250426', 'lat_lon_source': 'google'}",18.398634,-93.205927,"{'opening_hours': {'Mon': '07:00-23:00', 'Tue': '07:00-23:00', 'Wed': '07:00-23:00', 'Thu': '07:00-23:00', 'Fri': '07:00-23:00', 'Sat': '07:00-23:00', 'Sun': '07:00-23:00'}}",,171,86605,Chedraui Paraíso Tabasco,,https://www.chedraui.com.mx/encuentra-tu-tienda
Av. De Los Volcanes No. 1019,Tlalnepantla De Baz,Mexico,Chedraui,"{'brand': 'Chedraui', 'fascia': 'Chedraui', 'category': 'Retail', 'edit_date': '20250426', 'lat_lon_source': 'google'}",19.536038,-99.119639,"{'opening_hours': {'Mon': '07:00-23:00', 'Tue': '07:00-23:00', 'Wed': '07:00-23:00', 'Thu': '07:00-23:00', 'Fri': '07:00-23:00', 'Sat': '07:00-23:00', 'Sun': '07:00-23:00'}}",,741,54189,"Supercito La Presa, Tlalnepantla",,https://www.chedraui.com.mx/encuentra-tu-tienda
Av. Periférico No. 300,Oaxaca De Juárez,Mexico,Chedraui,"{'brand': 'Chedraui', 'fascia': 'Chedraui', 'category': 'Retail', 'edit_date': '20250426', 'lat_lon_source': 'google'}",17.052202,-96.716823,"{'opening_hours': {'Mon': '07:00-23:00', 'Tue': '07:00-23:00', 'Wed': '07:00-23:00', 'Thu': '07:00-23:00', 'Fri': '07:00-23:00', 'Sat': '07:00-23:00', 'Sun': '07:00-23:00'}}",,023,68120,Chedraui Oaxaca La Noria,,https://www.chedraui.com.mx/encuentra-tu-tienda
Sur 16 No. 271,Iztacalco,Mexico,Chedraui,"{'brand': 'Chedraui', 'fascia': 'Chedraui', 'category': 'Retail', 'edit_date': '20250426', 'lat_lon_source': 'google'}",19.39456,-99.074617,"{'opening_hours': {'Mon': '07:00-23:00', 'Tue': '07:00-23:00', 'Wed': '07:00-23:00', 'Thu': '07:00-23:00', 'Fri': '07:00-23:00', 'Sat': '07:00-23:00', 'Sun': '07:00-23:00'}}",,132,08500,Super Chedraui Agrícola Oriental,,https://www.chedraui.com.mx/encuentra-tu-tienda
Av. Juarez No. 466-B,Nogales,Mexico,Chedraui,"{'brand': 'Chedraui', 'fascia': 'Chedraui', 'category': 'Retail', 'edit_date': '20250426', 'lat_lon_source': 'google'}",18.813764,-97.168635,"{'opening_hours': {'Mon': '07:00-23:00', 'Tue': '07:00-23:00', 'Wed': '07:00-23:00', 'Thu': '07:00-23:00', 'Fri': '07:00-23:00', 'Sat': '07:00-23:00', 'Sun': '07:00-23:00'}}",,636,94720,Super Chedraui Nogales,,https://www.chedraui.com.mx/encuentra-tu-tienda
Av. Bernardo Quintana Sur No. 502,Santiago De Querétaro,Mexico,Chedraui,"{'brand': 'Chedraui', 'fascia': 'Chedraui', 'category': 'Retail', 'edit_date': '20250426', 'lat_lon_source': 'google'}",20.568189,-100.35985,"{'opening_hours': {'Mon': '07:00-23:00', 'Tue': '07:00-23:00', 'Wed': '07:00-23:00', 'Thu': '07:00-23:00', 'Fri': '07:00-23:00', 'Sat': '07:00-23:00', 'Sun': '07:00-23:00'}}",,268,76090,Chedraui Querétaro Centro Sur,,https://www.chedraui.com.mx/encuentra-tu-tienda
Boulevard Interlomas 5,Hacienda de las palmas,Mexico,Chedraui,"{'brand': 'Chedraui', 'fascia': 'Chedraui', 'category': 'Retail', 'edit_date': '20250426', 'lat_lon_source': 'google'}",19.392977,-99.281831,"{'opening_hours': {'Mon': '07:00-23:00', 'Tue': '07:00-23:00', 'Wed': '07:00-23:00', 'Thu': '07:00-23:00', 'Fri': '07:00-23:00', 'Sat': '07:00-23:00', 'Sun': '07:00-23:00'}}",,109,52787,Super Chedraui Selecto Interlomas Hill,,https://www.chedraui.com.mx/encuentra-tu-tienda
Av. Lázaro Cárdenas S/N,Xalapa-Enríquez,Mexico,Chedraui,"{'brand': 'Chedraui', 'fascia': 'Chedraui', 'category': 'Retail', 'edit_date': '20250426', 'lat_lon_source': 'google'}",19.521035,-96.884009,"{'opening_hours': {'Mon': '07:00-23:00', 'Tue': '07:00-23:00', 'Wed': '07:00-23:00', 'Thu': '07:00-23:00', 'Fri': '07:00-23:00', 'Sat': '07:00-23:00', 'Sun': '07:00-23:00'}}",,059,91194,Chedraui Selecto Xalapa Ánimas,,https://www.chedraui.com.mx/encuentra-tu-tienda
Carret. Toro Del Paso-Boca Del Rio-Antón Lizardo 4405,Boca Del Río,Mexico,Chedraui,"{'brand': 'Chedraui', 'fascia': 'Chedraui', 'category': 'Retail', 'edit_date': '20250426', 'lat_lon_source': 'google'}",19.095413,-96.105371,"{'opening_hours': {'Mon': '07:00-00:00', 'Tue': '07:00-00:00', 'Wed': '07:00-00:00', 'Thu': '07:00-00:00', 'Fri': '07:00-00:00', 'Sat': '07:00-00:00', 'Sun': '07:00-00:00'}}",,139,94290,Chedraui Selecto Veracruz El Dorado,,https://www.chedraui.com.mx/encuentra-tu-tienda
"Av, Constitución De La República No. 221",Aragón,Mexico,Chedraui,"{'brand': 'Chedraui', 'fascia': 'Chedraui', 'category': 'Retail', 'edit_date': '20250426', 'lat_lon_source': 'google'}",19.480536,-99.06554232,"{'opening_hours': {'Mon': '07:00-23:00', 'Tue': '07:00-23:00', 'Wed': '07:00-23:00', 'Thu': '07:00-23:00', 'Fri': '07:00-23:00', 'Sat': '07:00-23:00', 'Sun': '07:00-23:00'}}",,179,07500,Chedraui Mexico Aragon Norte,,https://www.chedraui.com.mx/encuentra-tu-tienda
Obispo De Las Casas No. 101,Papantla De Olarte,Mexico,Chedraui,"{'brand': 'Chedraui', 'fascia': 'Chedraui', 'category': 'Retail', 'edit_date': '20250426', 'lat_lon_source': 'google'}",20.446356,-97.319969,"{'opening_hours': {'Mon': '07:00-23:00', 'Tue': '07:00-23:00', 'Wed': '07:00-23:00', 'Thu': '07:00-23:00', 'Fri': '07:00-23:00', 'Sat': '07:00-23:00', 'Sun': '07:00-23:00'}}",,602,93400,Super Chedraui Papantla,,https://www.chedraui.com.mx/encuentra-tu-tienda
Av. Constituyentes Del 74 No. 254 Mza 066 Lote 001,Othón Blanco,Mexico,Chedraui,"{'brand': 'Chedraui', 'fascia': 'Chedraui', 'category': 'Retail', 'edit_date': '20250426', 'lat_lon_source': 'google'}",18.537397,-88.297119,"{'opening_hours': {'Mon': '07:00-23:00', 'Tue': '07:00-23:00', 'Wed': '07:00-23:00', 'Thu': '07:00-23:00', 'Fri': '07:00-23:00', 'Sat': '07:00-23:00', 'Sun': '07:00-23:00'}}",,118,77086,Chedraui Chetumal Multiplaza,,https://www.chedraui.com.mx/encuentra-tu-tienda
Av. 16 De Septiembre No. 313,Capulhuac,Mexico,Chedraui,"{'brand': 'Chedraui', 'fascia': 'Chedraui', 'category': 'Retail', 'edit_date': '20250426', 'lat_lon_source': 'google'}",19.1902579,-99.4651526,"{'opening_hours': {'Mon': '07:00-23:00', 'Tue': '07:00-23:00', 'Wed': '07:00-23:00', 'Thu': '07:00-23:00', 'Fri': '07:00-23:00', 'Sat': '07:00-23:00', 'Sun': '07:00-23:00'}}",,737,52730,Super Chedraui Capulhuac,,https://www.chedraui.com.mx/encuentra-tu-tienda
Av. De Los Plateros No. 66,Taxco,Mexico,Chedraui,"{'brand': 'Chedraui', 'fascia': 'Chedraui', 'category': 'Retail', 'edit_date': '20250426', 'lat_lon_source': 'google'}",18.56433,-99.602867,"{'opening_hours': {'Mon': '08:00-20:00', 'Tue': '08:00-20:00', 'Wed': '08:00-20:00', 'Thu': '08:00-20:00', 'Fri': '08:00-20:00', 'Sat': '08:00-20:00', 'Sun': '08:00-20:00'}}",,603,40230,Super Chedraui Taxco Guerrero,,https://www.chedraui.com.mx/encuentra-tu-tienda
Emiliano Zapata No. 60,La Antigua,Mexico,Chedraui,"{'brand': 'Chedraui', 'fascia': 'Chedraui', 'category': 'Retail', 'edit_date': '20250426', 'lat_lon_source': 'google'}",19.370484,-96.369394,"{'opening_hours': {'Mon': '07:00-00:00', 'Tue': '07:00-00:00', 'Wed': '07:00-00:00', 'Thu': '07:00-00:00', 'Fri': '07:00-00:00', 'Sat': '07:00-00:00', 'Sun': '07:00-00:00'}}",,606,91685,Chedraui Cardel El Modelo,,https://www.chedraui.com.mx/encuentra-tu-tienda
Av. Canal De Tezontle No. 2645,Iztapalapa,Mexico,Chedraui,"{'brand': 'Chedraui', 'fascia': 'Chedraui', 'category': 'Retail', 'edit_date': '20250426', 'lat_lon_source': 'google'}",19.382809,-99.063504,"{'opening_hours': {'Mon': '07:00-22:00', 'Tue': '07:00-22:00', 'Wed': '07:00-22:00', 'Thu': '07:00-22:00', 'Fri': '07:00-22:00', 'Sat': '07:00-22:00', 'Sun': '07:00-22:00'}}",,664,09310,Supercito Supercito Tezontle Iztapalapa,,https://www.chedraui.com.mx/encuentra-tu-tienda
"Av. Mexico, No. 1348",Magdalena Contreras,Mexico,Chedraui,"{'brand': 'Chedraui', 'fascia': 'Chedraui', 'category': 'Retail', 'edit_date': '20250426', 'lat_lon_source': 'google'}",19.306173,-99.233564,"{'opening_hours': {'Mon': '07:00-22:00', 'Tue': '07:00-22:00', 'Wed': '07:00-22:00', 'Thu': '07:00-22:00', 'Fri': '07:00-22:00', 'Sat': '07:00-22:00', 'Sun': '07:00-22:00'}}",,739,10820,Supercito Magdalena Contreras,,https://www.chedraui.com.mx/encuentra-tu-tienda
Avenida Petempich Ma. 002,Playa Del Carmen,Mexico,Chedraui,"{'brand': 'Chedraui', 'fascia': 'Chedraui', 'category': 'Retail', 'edit_date': '20250426', 'lat_lon_source': 'google'}",20.671503,-87.059127,"{'opening_hours': {'Mon': '07:00-23:00', 'Tue': '07:00-23:00', 'Wed': '07:00-23:00', 'Thu': '07:00-23:00', 'Fri': '07:00-23:00', 'Sat': '07:00-23:00', 'Sun': '07:00-23:00'}}",,199,77712,Chedraui Velamar,,https://www.chedraui.com.mx/encuentra-tu-tienda
Calle 21 No. 213,Ticul,Mexico,Chedraui,"{'brand': 'Chedraui', 'fascia': 'Chedraui', 'category': 'Retail', 'edit_date': '20250426', 'lat_lon_source': 'google'}",20.399289,-89.537785,"{'opening_hours': {'Mon': '07:00-23:00', 'Tue': '07:00-23:00', 'Wed': '07:00-23:00', 'Thu': '07:00-23:00', 'Fri': '07:00-23:00', 'Sat': '07:00-23:00', 'Sun': '07:00-23:00'}}",,608,97860,Super Chedraui Ticul,,https://www.chedraui.com.mx/encuentra-tu-tienda
Calle 19 Av. 31 No. 164,Ciudad Del Carmen,Mexico,Chedraui,"{'brand': 'Chedraui', 'fascia': 'Chedraui', 'category': 'Retail', 'edit_date': '20250426', 'lat_lon_source': 'google'}",18.642545,-91.821463,"{'opening_hours': {'Mon': '07:00-23:00', 'Tue': '07:00-23:00', 'Wed': '07:00-23:00', 'Thu': '07:00-23:00', 'Fri': '07:00-23:00', 'Sat': '07:00-23:00', 'Sun': '07:00-23:00'}}",,050,24100,Chedraui Ciudad Del Carmen Tacubaya,,https://www.chedraui.com.mx/encuentra-tu-tienda
Calle 37 No. 215-A,Mérida,Mexico,Chedraui,"{'brand': 'Chedraui', 'fascia': 'Chedraui', 'category': 'Retail', 'edit_date': '20250426', 'lat_lon_source': 'google'}",21.020565,-89.596863,"{'opening_hours': {'Mon': '07:00-23:00', 'Tue': '07:00-23:00', 'Wed': '07:00-23:00', 'Thu': '07:00-23:00', 'Fri': '07:00-23:00', 'Sat': '07:00-23:00', 'Sun': '07:00-23:00'}}",,078,97133,Super Chedraui Selecto Mérida Monterreal,,https://www.chedraui.com.mx/encuentra-tu-tienda
Dr. Rafael Lucio No. 28,Xalapa-Enríquez,Mexico,Chedraui,"{'brand': 'Chedraui', 'fascia': 'Chedraui', 'category': 'Retail', 'edit_date': '20250426', 'lat_lon_source': 'google'}",19.528531,-96.922229,"{'opening_hours': {'Mon': '07:00-22:00', 'Tue': '07:00-22:00', 'Wed': '07:00-22:00', 'Thu': '07:00-22:00', 'Fri': '07:00-22:00', 'Sat': '07:00-22:00', 'Sun': '07:00-22:00'}}",,002,91000,Chedraui Xalapa Centro,,https://www.chedraui.com.mx/encuentra-tu-tienda
Avenida Club de  Golf Lomas 21,Huixquilucan,Mexico,Chedraui,"{'brand': 'Chedraui', 'fascia': 'Chedraui', 'category': 'Retail', 'edit_date': '20250426', 'lat_lon_source': 'google'}",19.4041136,-99.2813592,"{'opening_hours': {'Mon': '07:00-23:00', 'Tue': '07:00-23:00', 'Wed': '07:00-23:00', 'Thu': '07:00-23:00', 'Fri': '07:00-23:00', 'Sat': '07:00-23:00', 'Sun': '07:00-23:00'}}",,808,52779,Súper Chedraui Selecto Lomas Country,,https://www.chedraui.com.mx/encuentra-tu-tienda
Calle Morelos Sur No. 309-B,Tepeaca,Mexico,Chedraui,"{'brand': 'Chedraui', 'fascia': 'Chedraui', 'category': 'Retail', 'edit_date': '20250426', 'lat_lon_source': 'google'}",18.962407,-97.906315,"{'opening_hours': {'Mon': '07:00-23:00', 'Tue': '07:00-23:00', 'Wed': '07:00-23:00', 'Thu': '07:00-23:00', 'Fri': '07:00-23:00', 'Sat': '07:00-23:00', 'Sun': '07:00-23:00'}}",,622,75200,Super Chedraui Tepeaca,,https://www.chedraui.com.mx/encuentra-tu-tienda
Calle Matamoros S/N,Veracruz,Mexico,Chedraui,"{'brand': 'Chedraui', 'fascia': 'Chedraui', 'category': 'Retail', 'edit_date': '20250426', 'lat_lon_source': 'google'}",19.205119,-96.161621,"{'opening_hours': {'Mon': '07:00-23:00', 'Tue': '07:00-23:00', 'Wed': '07:00-23:00', 'Thu': '07:00-23:00', 'Fri': '07:00-23:00', 'Sat': '07:00-23:00', 'Sun': '07:00-23:00'}}",,007,91870,Chedraui Veracruz Norte,,https://www.chedraui.com.mx/encuentra-tu-tienda
Calle Morelos No. 197,Tlapa De Comonfort,Mexico,Chedraui,"{'brand': 'Chedraui', 'fascia': 'Chedraui', 'category': 'Retail', 'edit_date': '20250426', 'lat_lon_source': 'google'}",17.548749,-98.574039,"{'opening_hours': {'Mon': '07:00-23:00', 'Tue': '07:00-23:00', 'Wed': '07:00-23:00', 'Thu': '07:00-23:00', 'Fri': '07:00-23:00', 'Sat': '07:00-23:00', 'Sun': '07:00-23:00'}}",,625,41300,Super Chedraui Tlapa De Comonfort,,https://www.chedraui.com.mx/encuentra-tu-tienda
Revolución S/N,Coatzacoalcos,Mexico,Chedraui,"{'brand': 'Chedraui', 'fascia': 'Chedraui', 'category': 'Retail', 'edit_date': '20250426', 'lat_lon_source': 'google'}",18.147483,-94.43475,"{'opening_hours': {'Mon': '07:00-23:59', 'Tue': '07:00-23:59', 'Wed': '07:00-23:59', 'Thu': '07:00-23:59', 'Fri': '07:00-23:59', 'Sat': '07:00-23:59', 'Sun': '07:00-23:59'}}",,008,96410,Chedraui Coatzacoalcos Centro,,https://www.chedraui.com.mx/encuentra-tu-tienda
"Av. Ignacio Allende, No. 1915",Veracruz,Mexico,Chedraui,"{'brand': 'Chedraui', 'fascia': 'Chedraui', 'category': 'Retail', 'edit_date': '20250426', 'lat_lon_source': 'google'}",19.193482,-96.142024,"{'opening_hours': {'Mon': '07:00-23:00', 'Tue': '07:00-23:00', 'Wed': '07:00-23:00', 'Thu': '07:00-23:00', 'Fri': '07:00-23:00', 'Sat': '07:00-23:00', 'Sun': '07:00-23:00'}}",,738,91700,Supercito Veracruz Allende,,https://www.chedraui.com.mx/encuentra-tu-tienda
Carret. A Durango S/N,Fresnillo,Mexico,Chedraui,"{'brand': 'Chedraui', 'fascia': 'Chedraui', 'category': 'Retail', 'edit_date': '20250426', 'lat_lon_source': 'google'}",23.187247,-102.879665,"{'opening_hours': {'Mon': '07:00-23:00', 'Tue': '07:00-23:00', 'Wed': '07:00-23:00', 'Thu': '07:00-23:00', 'Fri': '07:00-23:00', 'Sat': '07:00-23:00', 'Sun': '07:00-23:00'}}",,123,99020,Chedraui Fresnillo Plateros,,https://www.chedraui.com.mx/encuentra-tu-tienda
Av. Acueducto No. 650,Gustavo A. Madero,Mexico,Chedraui,"{'brand': 'Chedraui', 'fascia': 'Chedraui', 'category': 'Retail', 'edit_date': '20250426', 'lat_lon_source': 'google'}",19.501268,-99.121493,"{'opening_hours': {'Mon': '07:00-23:00', 'Tue': '07:00-23:00', 'Wed': '07:00-23:00', 'Thu': '07:00-23:00', 'Fri': '07:00-23:00', 'Sat': '07:00-23:00', 'Sun': '07:00-23:00'}}",,181,07369,Chedraui Vista Norte (Cienfuegos),,https://www.chedraui.com.mx/encuentra-tu-tienda
Manuel Cañas S/N,Iztapalapa,Mexico,Chedraui,"{'brand': 'Chedraui', 'fascia': 'Chedraui', 'category': 'Retail', 'edit_date': '20250426', 'lat_lon_source': 'google'}",19.3336395,-99.04287618,"{'opening_hours': {'Mon': '07:00-22:00', 'Tue': '07:00-22:00', 'Wed': '07:00-22:00', 'Thu': '07:00-22:00', 'Fri': '07:00-22:00', 'Sat': '07:00-22:00', 'Sun': '07:00-22:00'}}",,772,09070,Supercito Iztapalapa Manuel Cañas,,https://www.chedraui.com.mx/encuentra-tu-tienda
Lateral Sur De La Vía Atlixcáyotl No. 6510,San Andrés Cholula,Mexico,Chedraui,"{'brand': 'Chedraui', 'fascia': 'Chedraui', 'category': 'Retail', 'edit_date': '20250426', 'lat_lon_source': 'google'}",19.005786,-98.267076,"{'opening_hours': {'Mon': '07:00-23:00', 'Tue': '07:00-23:00', 'Wed': '07:00-23:00', 'Thu': '07:00-23:00', 'Fri': '07:00-23:00', 'Sat': '07:00-23:00', 'Sun': '07:00-23:00'}}",,668,72820,Chedraui Selecto Puebla Angelópolis,,https://www.chedraui.com.mx/encuentra-tu-tienda
Pedro Antonio De Los Santos No. 55,Ciudad Valles,Mexico,Chedraui,"{'brand': 'Chedraui', 'fascia': 'Chedraui', 'category': 'Retail', 'edit_date': '20250426', 'lat_lon_source': 'google'}",21.993233,-99.021106,"{'opening_hours': {'Mon': '07:00-23:00', 'Tue': '07:00-23:00', 'Wed': '07:00-23:00', 'Thu': '07:00-23:00', 'Fri': '07:00-23:00', 'Sat': '07:00-23:00', 'Sun': '07:00-23:00'}}",,025,79000,Chedraui Ciudad Valles Cuauhtemoc,,https://www.chedraui.com.mx/encuentra-tu-tienda
34 Norte Lote 003 Manzana 100,Playa del Carmen,Mexico,Chedraui,"{'brand': 'Chedraui', 'fascia': 'Chedraui', 'category': 'Retail', 'edit_date': '20250426', 'lat_lon_source': 'google'}",20.635117,-87.068491,"{'opening_hours': {'Mon': '07:00-23:00', 'Tue': '07:00-23:00', 'Wed': '07:00-23:00', 'Thu': '07:00-23:00', 'Fri': '07:00-23:00', 'Sat': '07:00-23:00', 'Sun': '07:00-23:00'}}",,801,77720,Súper Chedraui Selecto Playa del Carmen 5 Av.,,https://www.chedraui.com.mx/encuentra-tu-tienda
Camino Unión Del Cuatro No. 101 Parcela 17Z1P 1/2,Tlajomulco De Zúñiga,Mexico,Chedraui,"{'brand': 'Chedraui', 'fascia': 'Chedraui', 'category': 'Retail', 'edit_date': '20250426', 'lat_lon_source': 'google'}",20.526783,-103.387642,"{'opening_hours': {'Mon': '07:00-23:00', 'Tue': '07:00-23:00', 'Wed': '07:00-23:00', 'Thu': '07:00-23:00', 'Fri': '07:00-23:00', 'Sat': '07:00-23:00', 'Sun': '07:00-23:00'}}",,119,45654,Chedraui Tlajomulco,,https://www.chedraui.com.mx/encuentra-tu-tienda
Av. Tláhuac No. 4409,Iztapalapa,Mexico,Chedraui,"{'brand': 'Chedraui', 'fascia': 'Chedraui', 'category': 'Retail', 'edit_date': '20250426', 'lat_lon_source': 'google'}",19.320998,-99.094302,"{'opening_hours': {'Mon': '07:00-23:00', 'Tue': '07:00-23:00', 'Wed': '07:00-23:00', 'Thu': '07:00-23:00', 'Fri': '07:00-23:00', 'Sat': '07:00-23:00', 'Sun': '07:00-23:00'}}",,175,09890,Chedraui  Lomas Estrella,,https://www.chedraui.com.mx/encuentra-tu-tienda
Roberto Esquerra Peaza No. 591,Gustavo A. Madero,Mexico,Chedraui,"{'brand': 'Chedraui', 'fascia': 'Chedraui', 'category': 'Retail', 'edit_date': '20250426', 'lat_lon_source': 'google'}",19.555151,-99.131249,"{'opening_hours': {'Mon': '06:00-18:00', 'Tue': '06:00-18:00', 'Wed': '06:00-18:00', 'Thu': '06:00-18:00', 'Fri': '06:00-18:00', 'Sat': '06:00-18:00', 'Sun': '06:00-18:00'}}",,683,071800,Supercito Barrio Alto Gustavo A. Madero,,https://www.chedraui.com.mx/encuentra-tu-tienda
Blvrd. De Los Patos Fracción 1 No. 493  Ponti 700  P,Veracruz,Mexico,Chedraui,"{'brand': 'Chedraui', 'fascia': 'Chedraui', 'category': 'Retail', 'edit_date': '20250426', 'lat_lon_source': 'google'}",19.208751,-96.223851,"{'opening_hours': {'Mon': '07:00-23:00', 'Tue': '07:00-23:00', 'Wed': '07:00-23:00', 'Thu': '07:00-23:00', 'Fri': '07:00-23:00', 'Sat': '07:00-23:00', 'Sun': '07:00-23:00'}}",,120,91803,Chedraui Veracruz Ponti,,https://www.chedraui.com.mx/encuentra-tu-tienda
Av. Alejandro Von Humboldt Sur No. 26,Veracruz,Mexico,Chedraui,"{'brand': 'Chedraui', 'fascia': 'Chedraui', 'category': 'Retail', 'edit_date': '20250426', 'lat_lon_source': 'google'}",19.561968,-97.247128,"{'opening_hours': {'Mon': '07:00-22:00', 'Tue': '07:00-22:00', 'Wed': '07:00-22:00', 'Thu': '07:00-22:00', 'Fri': '07:00-22:00', 'Sat': '07:00-22:00', 'Sun': '07:00-22:00'}}",,661,91270,Super Chedraui Perote,,https://www.chedraui.com.mx/encuentra-tu-tienda
Calle 60 No. 301 A,Mérida,Mexico,Chedraui,"{'brand': 'Chedraui', 'fascia': 'Chedraui', 'category': 'Retail', 'edit_date': '20250426', 'lat_lon_source': 'google'}",21.029953,-89.630084,"{'opening_hours': {'Mon': '07:00-23:00', 'Tue': '07:00-23:00', 'Wed': '07:00-23:00', 'Thu': '07:00-23:00', 'Fri': '07:00-23:00', 'Sat': '07:00-23:00', 'Sun': '07:00-23:00'}}",,253,97110,Chedraui Selecto Mérida Norte 5,,https://www.chedraui.com.mx/encuentra-tu-tienda
Av. San Mateo No. 17,Atizapán De Zaragoza,Mexico,Chedraui,"{'brand': 'Chedraui', 'fascia': 'Chedraui', 'category': 'Retail', 'edit_date': '20250426', 'lat_lon_source': 'google'}",19.561792,-99.244287,"{'opening_hours': {'Mon': '07:00-23:00', 'Tue': '07:00-23:00', 'Wed': '07:00-23:00', 'Thu': '07:00-23:00', 'Fri': '07:00-23:00', 'Sat': '07:00-23:00', 'Sun': '07:00-23:00'}}",,018,52900,Chedraui  Atizapán,,https://www.chedraui.com.mx/encuentra-tu-tienda
Calle Manzanillo No.107,Iztapalapa,Mexico,Chedraui,"{'brand': 'Chedraui', 'fascia': 'Chedraui', 'category': 'Retail', 'edit_date': '20250426', 'lat_lon_source': 'google'}",19.361583,-99.01329,"{'opening_hours': {'Mon': '07:00-22:00', 'Tue': '07:00-22:00', 'Wed': '07:00-22:00', 'Thu': '07:00-22:00', 'Fri': '07:00-22:00', 'Sat': '07:00-22:00', 'Sun': '07:00-22:00'}}",,736,09520,Supercito Tecoloxtitla,,https://www.chedraui.com.mx/encuentra-tu-tienda
Av. Hector Perez Martinez No. 71,Escárcega,Mexico,Chedraui,"{'brand': 'Chedraui', 'fascia': 'Chedraui', 'category': 'Retail', 'edit_date': '20250426', 'lat_lon_source': 'google'}",18.60454,-90.730611,"{'opening_hours': {'Mon': '07:00-22:00', 'Tue': '07:00-22:00', 'Wed': '07:00-22:00', 'Thu': '07:00-22:00', 'Fri': '07:00-22:00', 'Sat': '07:00-22:00', 'Sun': '07:00-22:00'}}",,610,24350,Super Chedraui  Escárcega,,https://www.chedraui.com.mx/encuentra-tu-tienda
Av. Álvaro Obregón No.  443,San Francisco De Campeche,Mexico,Chedraui,"{'brand': 'Chedraui', 'fascia': 'Chedraui', 'category': 'Retail', 'edit_date': '20250426', 'lat_lon_source': 'google'}",19.848788,-90.495379,"{'opening_hours': {'Mon': '07:00-23:00', 'Tue': '07:00-23:00', 'Wed': '07:00-23:00', 'Thu': '07:00-23:00', 'Fri': '07:00-23:00', 'Sat': '07:00-23:00', 'Sun': '07:00-23:00'}}",,102,24020,Chedraui Campeche Villaturquesa,,https://www.chedraui.com.mx/encuentra-tu-tienda
Av. De La Industria Km 12.5 No. 10940,Altamira,Mexico,Chedraui,"{'brand': 'Chedraui', 'fascia': 'Chedraui', 'category': 'Retail', 'edit_date': '20250426', 'lat_lon_source': 'google'}",22.331956,-97.872282,"{'opening_hours': {'Mon': '07:00-23:00', 'Tue': '07:00-23:00', 'Wed': '07:00-23:00', 'Thu': '07:00-23:00', 'Fri': '07:00-23:00', 'Sat': '07:00-23:00', 'Sun': '07:00-23:00'}}",,163,89604,Chedraui Tampico Altamira,,https://www.chedraui.com.mx/encuentra-tu-tienda
CALLE ALEJANDRA NO. 512,SAN PEDRO CHOLULA,Mexico,Chedraui,"{'brand': 'Chedraui', 'fascia': 'Chedraui', 'category': 'Retail', 'edit_date': '20250426', 'lat_lon_source': 'google'}",19.071307,-98.2808236.17,"{'opening_hours': {'Mon': '07:00-23:00', 'Tue': '07:00-23:00', 'Wed': '07:00-23:00', 'Thu': '07:00-23:00', 'Fri': '07:00-23:00', 'Sat': '07:00-23:00', 'Sun': '07:00-23:00'}}",,749,72775,Chedraui Explanada Puebla,,https://www.chedraui.com.mx/encuentra-tu-tienda
"Carretera Federal 140, Las trancas Emiliano Zapata",Xalapa,Mexico,Chedraui,"{'brand': 'Chedraui', 'fascia': 'Chedraui', 'category': 'Retail', 'edit_date': '20250426', 'lat_lon_source': 'google'}",19.5077487579431,-96.8577957181065,"{'opening_hours': {'Mon': '07:00-23:59', 'Tue': '07:00-23:59', 'Wed': '07:00-23:59', 'Thu': '07:00-23:59', 'Fri': '07:00-23:59', 'Sat': '07:00-23:59', 'Sun': '07:00-23:59'}}",,270,91637,Chedraui Xalapa El Juguete,,https://www.chedraui.com.mx/encuentra-tu-tienda
Dr. Rafael Lucio No. 25,Xalapa Enríquez,Mexico,Chedraui,"{'brand': 'Chedraui', 'fascia': 'Chedraui', 'category': 'Retail', 'edit_date': '20250426', 'lat_lon_source': 'google'}",19.52863,-96.92257,"{'opening_hours': {'Mon': '07:00-23:00', 'Tue': '07:00-23:00', 'Wed': '07:00-23:00', 'Thu': '07:00-23:00', 'Fri': '07:00-23:00', 'Sat': '07:00-23:00', 'Sun': '07:00-23:00'}}",,003,91000,Chedraui Xalapa Almacenes,,https://www.chedraui.com.mx/encuentra-tu-tienda
Calle 57 No. 746 A,Pacabtún,Mexico,Chedraui,"{'brand': 'Chedraui', 'fascia': 'Chedraui', 'category': 'Retail', 'edit_date': '20250426', 'lat_lon_source': 'google'}",20.96705,-89.590552,"{'opening_hours': {'Mon': '07:00-23:00', 'Tue': '07:00-23:00', 'Wed': '07:00-23:00', 'Thu': '07:00-23:00', 'Fri': '07:00-23:00', 'Sat': '07:00-23:00', 'Sun': '07:00-23:00'}}",,066,97160,Chedraui Mérida Oriente,,https://www.chedraui.com.mx/encuentra-tu-tienda
Blvrd. Francisco Trujillo Gurria No. 1,Teapa,Mexico,Chedraui,"{'brand': 'Chedraui', 'fascia': 'Chedraui', 'category': 'Retail', 'edit_date': '20250426', 'lat_lon_source': 'google'}",17.554059,-92.946782,"{'opening_hours': {'Mon': '07:00-23:00', 'Tue': '07:00-23:00', 'Wed': '07:00-23:00', 'Thu': '07:00-23:00', 'Fri': '07:00-23:00', 'Sat': '07:00-23:00', 'Sun': '07:00-23:00'}}",,654,86800,Super Chedraui Súper Che Teapa,,https://www.chedraui.com.mx/encuentra-tu-tienda
Buen Tono No. 8,Cuauhtémoc,Mexico,Chedraui,"{'brand': 'Chedraui', 'fascia': 'Chedraui', 'category': 'Retail', 'edit_date': '20250426', 'lat_lon_source': 'google'}",19.428604,-99.143277,"{'opening_hours': {'Mon': '07:30-22:00', 'Tue': '07:30-22:00', 'Wed': '07:30-22:00', 'Thu': '07:30-22:00', 'Fri': '07:30-22:00', 'Sat': '07:30-22:00', 'Sun': '07:30-22:00'}}",,129,06070,Chedraui  Issste Buen Tono,,https://www.chedraui.com.mx/encuentra-tu-tienda
Av. Aquiles Serdán No. 360,Xochimilco,Mexico,Chedraui,"{'brand': 'Chedraui', 'fascia': 'Chedraui', 'category': 'Retail', 'edit_date': '20250426', 'lat_lon_source': 'google'}",19.257253,-99.022324,"{'opening_hours': {'Mon': '07:00-23:00', 'Tue': '07:00-23:00', 'Wed': '07:00-23:00', 'Thu': '07:00-23:00', 'Fri': '07:00-23:00', 'Sat': '07:00-23:00', 'Sun': '07:00-23:00'}}",,140,16740,Chedraui  Tulyehualco,,https://www.chedraui.com.mx/encuentra-tu-tienda
Blvrd. Forjadores De Puebla No. 1099,Cuautlacingo,Mexico,Chedraui,"{'brand': 'Chedraui', 'fascia': 'Chedraui', 'category': 'Retail', 'edit_date': '20250426', 'lat_lon_source': 'google'}",19.074297,-98.257942,"{'opening_hours': {'Mon': '07:00-23:00', 'Tue': '07:00-23:00', 'Wed': '07:00-23:00', 'Thu': '07:00-23:00', 'Fri': '07:00-23:00', 'Sat': '07:00-23:00', 'Sun': '07:00-23:00'}}",,052,72730,Chedraui Puebla Cruz Del Sur,,https://www.chedraui.com.mx/encuentra-tu-tienda
Blvd. Nuevo Hidalgo No. 2703,Pachuca de Soto,Mexico,Chedraui,"{'brand': 'Chedraui', 'fascia': 'Chedraui', 'category': 'Retail', 'edit_date': '20250426', 'lat_lon_source': 'google'}",20.05699,-98.7771,"{'opening_hours': {'Mon': '07:00-23:00', 'Tue': '07:00-23:00', 'Wed': '07:00-23:00', 'Thu': '07:00-23:00', 'Fri': '07:00-23:00', 'Sat': '07:00-23:00', 'Sun': '07:00-23:00'}}",,754,42083,Chedraui Pachuca Tulipanes,,https://www.chedraui.com.mx/encuentra-tu-tienda
José Peon Del Valle No. 180,Iztapalapa,Mexico,Chedraui,"{'brand': 'Chedraui', 'fascia': 'Chedraui', 'category': 'Retail', 'edit_date': '20250426', 'lat_lon_source': 'google'}",19.369929,-99.023282,"{'opening_hours': {'Mon': '07:00-23:00', 'Tue': '07:00-23:00', 'Wed': '07:00-23:00', 'Thu': '07:00-23:00', 'Fri': '07:00-23:00', 'Sat': '07:00-23:00', 'Sun': '07:00-23:00'}}",,699,09530,Supercito Cayetano Andrade,,https://www.chedraui.com.mx/encuentra-tu-tienda
Euquerio Guerrero 36250,Yerbabuena,Mexico,Chedraui,"{'brand': 'Chedraui', 'fascia': 'Chedraui', 'category': 'Retail', 'edit_date': '20250426', 'lat_lon_source': 'google'}",20.975074,-101.279725,"{'opening_hours': {'Mon': '07:00-23:00', 'Tue': '07:00-23:00', 'Wed': '07:00-23:00', 'Thu': '07:00-23:00', 'Fri': '07:00-23:00', 'Sat': '07:00-23:00', 'Sun': '07:00-23:00'}}",,200,36256,Chedraui Guanajuato,,https://www.chedraui.com.mx/encuentra-tu-tienda
Av. Emilio Portes Gil No. 1903,Tampico,Mexico,Chedraui,"{'brand': 'Chedraui', 'fascia': 'Chedraui', 'category': 'Retail', 'edit_date': '20250426', 'lat_lon_source': 'google'}",22.229679,-97.845111,"{'opening_hours': {'Mon': '07:00-23:00', 'Tue': '07:00-23:00', 'Wed': '07:00-23:00', 'Thu': '07:00-23:00', 'Fri': '07:00-23:00', 'Sat': '07:00-23:00', 'Sun': '07:00-23:00'}}",,044,89060,Chedraui Tampico Andonegui,,https://www.chedraui.com.mx/encuentra-tu-tienda
Costera Miguel Aleman No. 243,Acapulco De Juárez,Mexico,Chedraui,"{'brand': 'Chedraui', 'fascia': 'Chedraui', 'category': 'Retail', 'edit_date': '20250426', 'lat_lon_source': 'google'}",16.853822,-99.900825,"{'opening_hours': {'Mon': '07:00-23:00', 'Tue': '07:00-23:00', 'Wed': '07:00-23:00', 'Thu': '07:00-23:00', 'Fri': '07:00-23:00', 'Sat': '07:00-23:00', 'Sun': '07:00-23:00'}}",,265,39300,Chedraui Acapulco Costera,,https://www.chedraui.com.mx/encuentra-tu-tienda
Prolongación De Mina No. 754,Teziutlán,Mexico,Chedraui,"{'brand': 'Chedraui', 'fascia': 'Chedraui', 'category': 'Retail', 'edit_date': '20250426', 'lat_lon_source': 'google'}",19.807408,-97.366204,"{'opening_hours': {'Mon': '07:00-23:00', 'Tue': '07:00-23:00', 'Wed': '07:00-23:00', 'Thu': '07:00-23:00', 'Fri': '07:00-23:00', 'Sat': '07:00-23:00', 'Sun': '07:00-23:00'}}",,064,73890,Chedraui Teziutlan Crystal,,https://www.chedraui.com.mx/encuentra-tu-tienda
Av. La Ventisca No. 100,Gustavo A. Madero,Mexico,Chedraui,"{'brand': 'Chedraui', 'fascia': 'Chedraui', 'category': 'Retail', 'edit_date': '20250426', 'lat_lon_source': 'google'}",19.529377,-99.157326,"{'opening_hours': {'Mon': '07:00-23:00', 'Tue': '07:00-23:00', 'Wed': '07:00-23:00', 'Thu': '07:00-23:00', 'Fri': '07:00-23:00', 'Sat': '07:00-23:00', 'Sun': '07:00-23:00'}}",,237,07268,Chedraui  Tenayuca,,https://www.chedraui.com.mx/encuentra-tu-tienda
Av. 27 De Septiembre No. 60,Tejupilco,Mexico,Chedraui,"{'brand': 'Chedraui', 'fascia': 'Chedraui', 'category': 'Retail', 'edit_date': '20250426', 'lat_lon_source': 'google'}",18.911014,-100.151165,"{'opening_hours': {'Mon': '07:00-22:00', 'Tue': '07:00-22:00', 'Wed': '07:00-22:00', 'Thu': '07:00-22:00', 'Fri': '07:00-22:00', 'Sat': '07:00-22:00', 'Sun': '07:00-22:00'}}",,648,51400,Super Chedraui Tejupilco,,https://www.chedraui.com.mx/encuentra-tu-tienda
Avenida Rafael Melgar 44  CP 77580  Quintana Roo,Puerto Morelos,Mexico,Chedraui,"{'brand': 'Chedraui', 'fascia': 'Chedraui', 'category': 'Retail', 'edit_date': '20250426', 'lat_lon_source': 'google'}",20.846756,-86.87682,"{'opening_hours': {'Mon': '07:00-23:00', 'Tue': '07:00-23:00', 'Wed': '07:00-23:00', 'Thu': '07:00-23:00', 'Fri': '07:00-23:00', 'Sat': '07:00-23:00', 'Sun': '07:00-23:00'}}",,723,77580,Super Chedraui Puerto Morelos Centro,,https://www.chedraui.com.mx/encuentra-tu-tienda
Calle Perú No. 6301,Nuevo Laredo,Mexico,Chedraui,"{'brand': 'Chedraui', 'fascia': 'Chedraui', 'category': 'Retail', 'edit_date': '20250426', 'lat_lon_source': 'google'}",27.481338,-99.53987,"{'opening_hours': {'Mon': '07:00-23:00', 'Tue': '07:00-23:00', 'Wed': '07:00-23:00', 'Thu': '07:00-23:00', 'Fri': '07:00-23:00', 'Sat': '07:00-23:00', 'Sun': '07:00-23:00'}}",,110,88170,Chedraui Nuevo Laredo Hipódromo,,https://www.chedraui.com.mx/encuentra-tu-tienda
Blvrd. Valsequillo No. 115,Heroica Puebla De Zaragoza,Mexico,Chedraui,"{'brand': 'Chedraui', 'fascia': 'Chedraui', 'category': 'Retail', 'edit_date': '20250426', 'lat_lon_source': 'google'}",19.02217,-98.214867,"{'opening_hours': {'Mon': '07:00-23:00', 'Tue': '07:00-23:00', 'Wed': '07:00-23:00', 'Thu': '07:00-23:00', 'Fri': '07:00-23:00', 'Sat': '07:00-23:00', 'Sun': '07:00-23:00'}}",,015,72440,Chedraui Puebla Crystal,,https://www.chedraui.com.mx/encuentra-tu-tienda
Calle Luis Donaldo Colosio No. 358,Champotón,Mexico,Chedraui,"{'brand': 'Chedraui', 'fascia': 'Chedraui', 'category': 'Retail', 'edit_date': '20250426', 'lat_lon_source': 'google'}",19.342265,-90.726174,"{'opening_hours': {'Mon': '07:00-23:00', 'Tue': '07:00-23:00', 'Wed': '07:00-23:00', 'Thu': '07:00-23:00', 'Fri': '07:00-23:00', 'Sat': '07:00-23:00', 'Sun': '07:00-23:00'}}",,618,24400,Super Chedraui Champotón,,https://www.chedraui.com.mx/encuentra-tu-tienda
Berlín S/N Zona V,Minatitlán,Mexico,Chedraui,"{'brand': 'Chedraui', 'fascia': 'Chedraui', 'category': 'Retail', 'edit_date': '20250426', 'lat_lon_source': 'google'}",17.994326,-94.575083,"{'opening_hours': {'Mon': '07:00-23:59', 'Tue': '07:00-23:59', 'Wed': '07:00-23:59', 'Thu': '07:00-23:59', 'Fri': '07:00-23:59', 'Sat': '07:00-23:59', 'Sun': '07:00-23:59'}}",,022,96710,Chedraui Minatitlán Berlin,,https://www.chedraui.com.mx/encuentra-tu-tienda
Allende Norte No. 602,Huamantla,Mexico,Chedraui,"{'brand': 'Chedraui', 'fascia': 'Chedraui', 'category': 'Retail', 'edit_date': '20250426', 'lat_lon_source': 'google'}",19.322235,-97.921753,"{'opening_hours': {'Mon': '07:00-23:00', 'Tue': '07:00-23:00', 'Wed': '07:00-23:00', 'Thu': '07:00-23:00', 'Fri': '07:00-23:00', 'Sat': '07:00-23:00', 'Sun': '07:00-23:00'}}",,601,90500,Super Chedraui Huamantla,,https://www.chedraui.com.mx/encuentra-tu-tienda
Av. Independencia Ote S/N,Tehuacán,Mexico,Chedraui,"{'brand': 'Chedraui', 'fascia': 'Chedraui', 'category': 'Retail', 'edit_date': '20250426', 'lat_lon_source': 'google'}",18.463885,-97.386464,"{'opening_hours': {'Mon': '07:00-23:00', 'Tue': '07:00-23:00', 'Wed': '07:00-23:00', 'Thu': '07:00-23:00', 'Fri': '07:00-23:00', 'Sat': '07:00-23:00', 'Sun': '07:00-23:00'}}",,046,75700,Chedraui Tehuacán Centro,,https://www.chedraui.com.mx/encuentra-tu-tienda
Blvrd. Juan José Torres Landa Pte. No. 305,León De Los Aldama,Mexico,Chedraui,"{'brand': 'Chedraui', 'fascia': 'Chedraui', 'category': 'Retail', 'edit_date': '20250426', 'lat_lon_source': 'google'}",21.102878,-101.69358,"{'opening_hours': {'Mon': '07:00-23:00', 'Tue': '07:00-23:00', 'Wed': '07:00-23:00', 'Thu': '07:00-23:00', 'Fri': '07:00-23:00', 'Sat': '07:00-23:00', 'Sun': '07:00-23:00'}}",,055,37450,Chedraui León Torres,,https://www.chedraui.com.mx/encuentra-tu-tienda
"Carret Federal Cancún-Playa Km 291, Supermanzana No. 22 Local A1",Playa Del Carmen,Mexico,Chedraui,"{'brand': 'Chedraui', 'fascia': 'Chedraui', 'category': 'Retail', 'edit_date': '20250426', 'lat_lon_source': 'google'}",20.64933,-87.08313,"{'opening_hours': {'Mon': '07:00-23:00', 'Tue': '07:00-23:00', 'Wed': '07:00-23:00', 'Thu': '07:00-23:00', 'Fri': '07:00-23:00', 'Sat': '07:00-23:00', 'Sun': '07:00-23:00'}}",,090,77710,Chedraui Playa Del Carmen Américas,,https://www.chedraui.com.mx/encuentra-tu-tienda
Av. Nereo Rodriguez Barragán No. 450,San Luis Potosí,Mexico,Chedraui,"{'brand': 'Chedraui', 'fascia': 'Chedraui', 'category': 'Retail', 'edit_date': '20250426', 'lat_lon_source': 'google'}",22.156963,-101.003065,"{'opening_hours': {'Mon': '07:00-23:00', 'Tue': '07:00-23:00', 'Wed': '07:00-23:00', 'Thu': '07:00-23:00', 'Fri': '07:00-23:00', 'Sat': '07:00-23:00', 'Sun': '07:00-23:00'}}",,251,78250,Chedraui San Luis Potosí El Dorado,,https://www.chedraui.com.mx/encuentra-tu-tienda
Av. Carlos Hank González No. 58,Ecatepec de Morelos,Mexico,Chedraui,"{'brand': 'Chedraui', 'fascia': 'Chedraui', 'category': 'Retail', 'edit_date': '20250426', 'lat_lon_source': 'google'}",19.509289,-99.062953,"{'opening_hours': {'Mon': '07:00-23:00', 'Tue': '07:00-23:00', 'Wed': '07:00-23:00', 'Thu': '07:00-23:00', 'Fri': '07:00-23:00', 'Sat': '07:00-23:00', 'Sun': '07:00-23:00'}}",,693,55270,Supercito Hank González,,https://www.chedraui.com.mx/encuentra-tu-tienda
Av. Rueda Medina Sm-003 Mza 113 No. L -017,Isla Mujeres,Mexico,Chedraui,"{'brand': 'Chedraui', 'fascia': 'Chedraui', 'category': 'Retail', 'edit_date': '20250426', 'lat_lon_source': 'google'}",21.235011,-86.735452,"{'opening_hours': {'Mon': '07:00-23:00', 'Tue': '07:00-23:00', 'Wed': '07:00-23:00', 'Thu': '07:00-23:00', 'Fri': '07:00-23:00', 'Sat': '07:00-23:00', 'Sun': '07:00-23:00'}}",,644,77407,Chedraui Isla Mujeres,,https://www.chedraui.com.mx/encuentra-tu-tienda
Calzada Antigua De Guadalupe No. 203,Azcapotzalco,Mexico,Chedraui,"{'brand': 'Chedraui', 'fascia': 'Chedraui', 'category': 'Retail', 'edit_date': '20250426', 'lat_lon_source': 'google'}",19.489134,-99.181829,"{'opening_hours': {'Mon': '07:00-20:00', 'Tue': '07:00-20:00', 'Wed': '07:00-20:00', 'Thu': '07:00-20:00', 'Fri': '07:00-20:00', 'Sat': '07:00-20:00', 'Sun': '07:00-20:00'}}",,678,02020,"Supercito Eje 4 Norte, Azcapotzalco",,https://www.chedraui.com.mx/encuentra-tu-tienda
Av. Rio Nilo No. 7540,Tonalá,Mexico,Chedraui,"{'brand': 'Chedraui', 'fascia': 'Chedraui', 'category': 'Retail', 'edit_date': '20250426', 'lat_lon_source': 'google'}",20.640415,-103.278365,"{'opening_hours': {'Mon': '07:00-23:00', 'Tue': '07:00-23:00', 'Wed': '07:00-23:00', 'Thu': '07:00-23:00', 'Fri': '07:00-23:00', 'Sat': '07:00-23:00', 'Sun': '07:00-23:00'}}",,248,44840,Chedraui Guadalajara Lomas Tonala,,https://www.chedraui.com.mx/encuentra-tu-tienda
4Ta. Avenida No. 257 Lote 1,Nezahualcóyotl,Mexico,Chedraui,"{'brand': 'Chedraui', 'fascia': 'Chedraui', 'category': 'Retail', 'edit_date': '20250426', 'lat_lon_source': 'google'}",19.400626,-98.98726,"{'opening_hours': {'Mon': '07:00-22:00', 'Tue': '07:00-22:00', 'Wed': '07:00-22:00', 'Thu': '07:00-22:00', 'Fri': '07:00-22:00', 'Sat': '07:00-22:00', 'Sun': '07:00-22:00'}}",,240,57000,Chedraui  Neza Estadio,,https://www.chedraui.com.mx/encuentra-tu-tienda
Boulevard Bellavista 22,Atizapán de Zaragoza,Mexico,Chedraui,"{'brand': 'Chedraui', 'fascia': 'Chedraui', 'category': 'Retail', 'edit_date': '20250426', 'lat_lon_source': 'google'}",19.520995000,-99.251357000,"{'opening_hours': {'Mon': '07:00-23:00', 'Tue': '07:00-23:00', 'Wed': '07:00-23:00', 'Thu': '07:00-23:00', 'Fri': '07:00-23:00', 'Sat': '07:00-23:00', 'Sun': '07:00-23:00'}}",,161,52994,Súper Chedraui México Bellavista,,https://www.chedraui.com.mx/encuentra-tu-tienda
Blvrd. Juan Herrera Y Piña No. 7,Valle De Bravo,Mexico,Chedraui,"{'brand': 'Chedraui', 'fascia': 'Chedraui', 'category': 'Retail', 'edit_date': '20250426', 'lat_lon_source': 'google'}",19.20408,-100.125485,"{'opening_hours': {'Mon': '07:00-23:00', 'Tue': '07:00-23:00', 'Wed': '07:00-23:00', 'Thu': '07:00-23:00', 'Fri': '07:00-23:00', 'Sat': '07:00-23:00', 'Sun': '07:00-23:00'}}",,611,51200,Super Chedraui Valle De Bravo,,https://www.chedraui.com.mx/encuentra-tu-tienda
Av. Canal De Tezontle No. 1512,Iztapalapa,Mexico,Chedraui,"{'brand': 'Chedraui', 'fascia': 'Chedraui', 'category': 'Retail', 'edit_date': '20250426', 'lat_lon_source': 'google'}",19.384245,-99.08269,"{'opening_hours': {'Mon': '07:00-23:00', 'Tue': '07:00-23:00', 'Wed': '07:00-23:00', 'Thu': '07:00-23:00', 'Fri': '07:00-23:00', 'Sat': '07:00-23:00', 'Sun': '07:00-23:00'}}",,670,09020,Super Chedraui Tezontle,,https://www.chedraui.com.mx/encuentra-tu-tienda
"Av. Juárez, Mz.21 Lt.21",Nezahualcoyolt,Mexico,Chedraui,"{'brand': 'Chedraui', 'fascia': 'Chedraui', 'category': 'Retail', 'edit_date': '20250426', 'lat_lon_source': 'google'}",19.40874,-99.055248,"{'opening_hours': {'Mon': '07:00-22:00', 'Tue': '07:00-22:00', 'Wed': '07:00-22:00', 'Thu': '07:00-22:00', 'Fri': '07:00-22:00', 'Sat': '07:00-22:00', 'Sun': '07:00-22:00'}}",,727,57430,Supercito Juárez Neza,,https://www.chedraui.com.mx/encuentra-tu-tienda
Blvd. Manuel Ávila Camacho No. 5,Naucalpan De Juárez,Mexico,Chedraui,"{'brand': 'Chedraui', 'fascia': 'Chedraui', 'category': 'Retail', 'edit_date': '20250426', 'lat_lon_source': 'google'}",19.454265,-99.219102,"{'opening_hours': {'Mon': '07:00-23:00', 'Tue': '07:00-23:00', 'Wed': '07:00-23:00', 'Thu': '07:00-23:00', 'Fri': '07:00-23:00', 'Sat': '07:00-23:00', 'Sun': '07:00-23:00'}}",,106,53390,Chedraui Selecto  Toreo,,https://www.chedraui.com.mx/encuentra-tu-tienda
Av. Santa Lucia No. 343,Álvaro Obregón,Mexico,Chedraui,"{'brand': 'Chedraui', 'fascia': 'Chedraui', 'category': 'Retail', 'edit_date': '20250426', 'lat_lon_source': 'google'}",19.371818,-99.212614,"{'opening_hours': {'Mon': '07:00-22:00', 'Tue': '07:00-22:00', 'Wed': '07:00-22:00', 'Thu': '07:00-22:00', 'Fri': '07:00-22:00', 'Sat': '07:00-22:00', 'Sun': '07:00-22:00'}}",,731,01408,Supercito Santa Lucia,,https://www.chedraui.com.mx/encuentra-tu-tienda
Av. Rafael E. Melgar No. 1001,Cozumel,Mexico,Chedraui,"{'brand': 'Chedraui', 'fascia': 'Chedraui', 'category': 'Retail', 'edit_date': '20250426', 'lat_lon_source': 'google'}",20.502019,-86.957452,"{'opening_hours': {'Mon': '07:00-23:00', 'Tue': '07:00-23:00', 'Wed': '07:00-23:00', 'Thu': '07:00-23:00', 'Fri': '07:00-23:00', 'Sat': '07:00-23:00', 'Sun': '07:00-23:00'}}",,058,77600,Chedraui Cozumel Centro,,https://www.chedraui.com.mx/encuentra-tu-tienda
"Calzada Victorico Rincón Grajales No. 5 , 1A. Sección",Chiapa De Corzo,Mexico,Chedraui,"{'brand': 'Chedraui', 'fascia': 'Chedraui', 'category': 'Retail', 'edit_date': '20250426', 'lat_lon_source': 'google'}",16.713296,-93.01648,"{'opening_hours': {'Mon': '07:00-23:00', 'Tue': '07:00-23:00', 'Wed': '07:00-23:00', 'Thu': '07:00-23:00', 'Fri': '07:00-23:00', 'Sat': '07:00-23:00', 'Sun': '07:00-23:00'}}",,630,29160,Super Chedraui Chiapa De Corzo,,https://www.chedraui.com.mx/encuentra-tu-tienda
Bosque de Duraznos 39,Miguel Hidalgo,Mexico,Chedraui,"{'brand': 'Chedraui', 'fascia': 'Chedraui', 'category': 'Retail', 'edit_date': '20250426', 'lat_lon_source': 'google'}",19.403290,-99.242731,"{'opening_hours': {'Mon': '07:00-23:00', 'Tue': '07:00-23:00', 'Wed': '07:00-23:00', 'Thu': '07:00-23:00', 'Fri': '07:00-23:00', 'Sat': '07:00-23:00', 'Sun': '07:00-23:00'}}",,805,11700,Súper Chedraui Selecto Parque Duraznos,,https://www.chedraui.com.mx/encuentra-tu-tienda
Blvrd. Domingo Arrieta No. 601,Victoria De Durango,Mexico,Chedraui,"{'brand': 'Chedraui', 'fascia': 'Chedraui', 'category': 'Retail', 'edit_date': '20250426', 'lat_lon_source': 'google'}",24.011501,-104.661098,"{'opening_hours': {'Mon': '07:00-23:00', 'Tue': '07:00-23:00', 'Wed': '07:00-23:00', 'Thu': '07:00-23:00', 'Fri': '07:00-23:00', 'Sat': '07:00-23:00', 'Sun': '07:00-23:00'}}",,125,34170,Chedraui Durango El Refugio,,https://www.chedraui.com.mx/encuentra-tu-tienda
Calle Heroica Escuela Naval Militar No. 917,Oaxaca De Juárez,Mexico,Chedraui,"{'brand': 'Chedraui', 'fascia': 'Chedraui', 'category': 'Retail', 'edit_date': '20250426', 'lat_lon_source': 'google'}",17.078313,-96.708732,"{'opening_hours': {'Mon': '07:00-23:00', 'Tue': '07:00-23:00', 'Wed': '07:00-23:00', 'Thu': '07:00-23:00', 'Fri': '07:00-23:00', 'Sat': '07:00-23:00', 'Sun': '07:00-23:00'}}",,099,68050,Chedraui Oaxaca Reforma,,https://www.chedraui.com.mx/encuentra-tu-tienda
Blvrd. De Las Naciones No. 1817,Acapulco de Juárez,Mexico,Chedraui,"{'brand': 'Chedraui', 'fascia': 'Chedraui', 'category': 'Retail', 'edit_date': '20250426', 'lat_lon_source': 'google'}",16.771306,-99.77435,"{'opening_hours': {'Mon': '07:00-23:00', 'Tue': '07:00-23:00', 'Wed': '07:00-23:00', 'Thu': '07:00-23:00', 'Fri': '07:00-23:00', 'Sat': '07:00-23:00', 'Sun': '07:00-23:00'}}",,138,39897,Chedraui Selecto Acapulco Diamante,,https://www.chedraui.com.mx/encuentra-tu-tienda
Av. Gobernadores No. 418,San Francisco De Campeche,Mexico,Chedraui,"{'brand': 'Chedraui', 'fascia': 'Chedraui', 'category': 'Retail', 'edit_date': '20250426', 'lat_lon_source': 'google'}",19.844227,-90.52469,"{'opening_hours': {'Mon': '07:00-23:00', 'Tue': '07:00-23:00', 'Wed': '07:00-23:00', 'Thu': '07:00-23:00', 'Fri': '07:00-23:00', 'Sat': '07:00-23:00', 'Sun': '07:00-23:00'}}",,041,24050,Chedraui Campeche Santa Ana,,https://www.chedraui.com.mx/encuentra-tu-tienda
Blvrd. Pino Pallas No. 105,La Paz,Mexico,Chedraui,"{'brand': 'Chedraui', 'fascia': 'Chedraui', 'category': 'Retail', 'edit_date': '20250426', 'lat_lon_source': 'google'}",24.098274,-110.327515,"{'opening_hours': {'Mon': '07:00-23:00', 'Tue': '07:00-23:00', 'Wed': '07:00-23:00', 'Thu': '07:00-23:00', 'Fri': '07:00-23:00', 'Sat': '07:00-23:00', 'Sun': '07:00-23:00'}}",,122,23085,Chedraui La Paz  Santa Fe,,https://www.chedraui.com.mx/encuentra-tu-tienda
Av. Central No. 50,Ecatepec De Morelos,Mexico,Chedraui,"{'brand': 'Chedraui', 'fascia': 'Chedraui', 'category': 'Retail', 'edit_date': '20250426', 'lat_lon_source': 'google'}",19.534364,-99.026592,"{'opening_hours': {'Mon': '07:00-23:00', 'Tue': '07:00-23:00', 'Wed': '07:00-23:00', 'Thu': '07:00-23:00', 'Fri': '07:00-23:00', 'Sat': '07:00-23:00', 'Sun': '07:00-23:00'}}",,650,55120,Super Chedraui Ciudad Azteca,,https://www.chedraui.com.mx/encuentra-tu-tienda
Av. José López Portillo No. 220,San Francisco Coacalco,Mexico,Chedraui,"{'brand': 'Chedraui', 'fascia': 'Chedraui', 'category': 'Retail', 'edit_date': '20250426', 'lat_lon_source': 'google'}",19.626563,-99.082131,"{'opening_hours': {'Mon': '07:00-22:00', 'Tue': '07:00-22:00', 'Wed': '07:00-22:00', 'Thu': '07:00-22:00', 'Fri': '07:00-22:00', 'Sat': '07:00-22:00', 'Sun': '07:00-22:00'}}",,266,55714,Chedraui Plaza Coacalco,,https://www.chedraui.com.mx/encuentra-tu-tienda
Av. Universidad S/N,Villahermosa,Mexico,Chedraui,"{'brand': 'Chedraui', 'fascia': 'Chedraui', 'category': 'Retail', 'edit_date': '20250426', 'lat_lon_source': 'google'}",18.013828,-92.918905,"{'opening_hours': {'Mon': '07:00-23:00', 'Tue': '07:00-23:00', 'Wed': '07:00-23:00', 'Thu': '07:00-23:00', 'Fri': '07:00-23:00', 'Sat': '07:00-23:00', 'Sun': '07:00-23:00'}}",,061,96010,Chedraui Villahermosa Americas,,https://www.chedraui.com.mx/encuentra-tu-tienda
Calle 86 B No. 544,Mérida,Mexico,Chedraui,"{'brand': 'Chedraui', 'fascia': 'Chedraui', 'category': 'Retail', 'edit_date': '20250426', 'lat_lon_source': 'google'}",20.960197,-89.640591,"{'opening_hours': {'Mon': '07:00-23:00', 'Tue': '07:00-23:00', 'Wed': '07:00-23:00', 'Thu': '07:00-23:00', 'Fri': '07:00-23:00', 'Sat': '07:00-23:00', 'Sun': '07:00-23:00'}}",,029,97000,Chedraui Mérida Itzaes,,https://www.chedraui.com.mx/encuentra-tu-tienda
Calle Akil No. 203,Tlalpan,Mexico,Chedraui,"{'brand': 'Chedraui', 'fascia': 'Chedraui', 'category': 'Retail', 'edit_date': '20250426', 'lat_lon_source': 'google'}",19.290379,-99.22257558,"{'opening_hours': {'Mon': '07:00-22:00', 'Tue': '07:00-22:00', 'Wed': '07:00-22:00', 'Thu': '07:00-22:00', 'Fri': '07:00-22:00', 'Sat': '07:00-22:00', 'Sun': '07:00-22:00'}}",,742,14240,Supercito Ancanceh,,https://www.chedraui.com.mx/encuentra-tu-tienda
Av. CentralS/N,Ecatepec De Morelos,Mexico,Chedraui,"{'brand': 'Chedraui', 'fascia': 'Chedraui', 'category': 'Retail', 'edit_date': '20250426', 'lat_lon_source': 'google'}",19.603782,-99.012909,"{'opening_hours': {'Mon': '07:00-23:00', 'Tue': '07:00-23:00', 'Wed': '07:00-23:00', 'Thu': '07:00-23:00', 'Fri': '07:00-23:00', 'Sat': '07:00-23:00', 'Sun': '07:00-23:00'}}",,039,55065,Chedraui  Palomas,,https://www.chedraui.com.mx/encuentra-tu-tienda
Av. Porfirio Díaz S/N,Pinotepa Nacional,Mexico,Chedraui,"{'brand': 'Chedraui', 'fascia': 'Chedraui', 'category': 'Retail', 'edit_date': '20250426', 'lat_lon_source': 'google'}",16.3412,-98.053185,"{'opening_hours': {'Mon': '07:00-23:00', 'Tue': '07:00-23:00', 'Wed': '07:00-23:00', 'Thu': '07:00-23:00', 'Fri': '07:00-23:00', 'Sat': '07:00-23:00', 'Sun': '07:00-23:00'}}",,685,71600,Super Chedraui Santiago Pinotepa Nacional,,https://www.chedraui.com.mx/encuentra-tu-tienda
Lucio Blanco S/N,Xalapa-Enríquez,Mexico,Chedraui,"{'brand': 'Chedraui', 'fascia': 'Chedraui', 'category': 'Retail', 'edit_date': '20250426', 'lat_lon_source': 'google'}",19.548002,-96.933184,"{'opening_hours': {'Mon': '07:00-23:00', 'Tue': '07:00-23:00', 'Wed': '07:00-23:00', 'Thu': '07:00-23:00', 'Fri': '07:00-23:00', 'Sat': '07:00-23:00', 'Sun': '07:00-23:00'}}",,019,91020,Chedraui Xalapa Museo,,https://www.chedraui.com.mx/encuentra-tu-tienda
Av. Aquiles Serdán No. 86,Atoyac De Alvarez,Mexico,Chedraui,"{'brand': 'Chedraui', 'fascia': 'Chedraui', 'category': 'Retail', 'edit_date': '20250426', 'lat_lon_source': 'google'}",17.204405,-100.437788,"{'opening_hours': {'Mon': '07:00-23:00', 'Tue': '07:00-23:00', 'Wed': '07:00-23:00', 'Thu': '07:00-23:00', 'Fri': '07:00-23:00', 'Sat': '07:00-23:00', 'Sun': '07:00-23:00'}}",,621,40930,Super Chedraui Atoyac,,https://www.chedraui.com.mx/encuentra-tu-tienda
Calle 33 No. 200 A Int 40 Y 44,Mérida,Mexico,Chedraui,"{'brand': 'Chedraui', 'fascia': 'Chedraui', 'category': 'Retail', 'edit_date': '20250426', 'lat_lon_source': 'google'}",20.999266,-89.574294,"{'opening_hours': {'Mon': '07:00-23:00', 'Tue': '07:00-23:00', 'Wed': '07:00-23:00', 'Thu': '07:00-23:00', 'Fri': '07:00-23:00', 'Sat': '07:00-23:00', 'Sun': '07:00-23:00'}}",,093,97143,Chedraui Mérida Polígono,,https://www.chedraui.com.mx/encuentra-tu-tienda
Blvrd. Juan N Alvarez No. 24,Ometepec,Mexico,Chedraui,"{'brand': 'Chedraui', 'fascia': 'Chedraui', 'category': 'Retail', 'edit_date': '20250426', 'lat_lon_source': 'google'}",16.692467,-98.414501,"{'opening_hours': {'Mon': '07:00-23:00', 'Tue': '07:00-23:00', 'Wed': '07:00-23:00', 'Thu': '07:00-23:00', 'Fri': '07:00-23:00', 'Sat': '07:00-23:00', 'Sun': '07:00-23:00'}}",,633,41700,Super Chedraui Ometepec,,https://www.chedraui.com.mx/encuentra-tu-tienda
Av. Francisco Morázan No. 8,Gustavo A. Madero,Mexico,Chedraui,"{'brand': 'Chedraui', 'fascia': 'Chedraui', 'category': 'Retail', 'edit_date': '20250426', 'lat_lon_source': 'google'}",19.471261,-99.066614,"{'opening_hours': {'Mon': '07:00-23:00', 'Tue': '07:00-23:00', 'Wed': '07:00-23:00', 'Thu': '07:00-23:00', 'Fri': '07:00-23:00', 'Sat': '07:00-23:00', 'Sun': '07:00-23:00'}}",,753,07509,Supercito La Pradera,,https://www.chedraui.com.mx/encuentra-tu-tienda
Av. Isla De Tris S/N,Ciudad Del Carmen,Mexico,Chedraui,"{'brand': 'Chedraui', 'fascia': 'Chedraui', 'category': 'Retail', 'edit_date': '20250426', 'lat_lon_source': 'google'}",18.656715,-91.791869,"{'opening_hours': {'Mon': '07:00-23:00', 'Tue': '07:00-23:00', 'Wed': '07:00-23:00', 'Thu': '07:00-23:00', 'Fri': '07:00-23:00', 'Sat': '07:00-23:00', 'Sun': '07:00-23:00'}}",,101,24100,Chedraui Ciudad Del Carmen Palmiras,,https://www.chedraui.com.mx/encuentra-tu-tienda
Av. Alta Tensión No. 202,Cuernavaca,Mexico,Chedraui,"{'brand': 'Chedraui', 'fascia': 'Chedraui', 'category': 'Retail', 'edit_date': '20250426', 'lat_lon_source': 'google'}",18.919343,-99.218647,"{'opening_hours': {'Mon': '07:00-23:00', 'Tue': '07:00-23:00', 'Wed': '07:00-23:00', 'Thu': '07:00-23:00', 'Fri': '07:00-23:00', 'Sat': '07:00-23:00', 'Sun': '07:00-23:00'}}",,658,62448,Super Chedraui Cuernavaca Alta Tensión,,https://www.chedraui.com.mx/encuentra-tu-tienda
Salida A Villacorzo Desvió A Fco. Villa No. 245,Villaflores,Mexico,Chedraui,"{'brand': 'Chedraui', 'fascia': 'Chedraui', 'category': 'Retail', 'edit_date': '20250426', 'lat_lon_source': 'google'}",16.224281,-93.275767,"{'opening_hours': {'Mon': '07:00-23:00', 'Tue': '07:00-23:00', 'Wed': '07:00-23:00', 'Thu': '07:00-23:00', 'Fri': '07:00-23:00', 'Sat': '07:00-23:00', 'Sun': '07:00-23:00'}}",,628,30470,Super Chedraui Villa Flores,,https://www.chedraui.com.mx/encuentra-tu-tienda
Calle Kaua No.77,Tlalpan,Mexico,Chedraui,"{'brand': 'Chedraui', 'fascia': 'Chedraui', 'category': 'Retail', 'edit_date': '20250426', 'lat_lon_source': 'google'}",19.278412,-99.24132,"{'opening_hours': {'Mon': '07:00-22:00', 'Tue': '07:00-22:00', 'Wed': '07:00-22:00', 'Thu': '07:00-22:00', 'Fri': '07:00-22:00', 'Sat': '07:00-22:00', 'Sun': '07:00-22:00'}}",,694,14100,"Supercito Kaua, Tlalpan",,https://www.chedraui.com.mx/encuentra-tu-tienda
Av. Heroico Colegio Militar S/N,Villahermosa,Mexico,Chedraui,"{'brand': 'Chedraui', 'fascia': 'Chedraui', 'category': 'Retail', 'edit_date': '20250426', 'lat_lon_source': 'google'}",17.980631,-92.939374,"{'opening_hours': {'Mon': '07:00-23:00', 'Tue': '07:00-23:00', 'Wed': '07:00-23:00', 'Thu': '07:00-23:00', 'Fri': '07:00-23:00', 'Sat': '07:00-23:00', 'Sun': '07:00-23:00'}}",,011,86100,Chedraui Villahermosa Crystal,,https://www.chedraui.com.mx/encuentra-tu-tienda
Av. Salvador Díaz Mirón 2069,Veracruz,Mexico,Chedraui,"{'brand': 'Chedraui', 'fascia': 'Chedraui', 'category': 'Retail', 'edit_date': '20250426', 'lat_lon_source': 'google'}",19.174983,-96.13468,"{'opening_hours': {'Mon': '07:00-23:00', 'Tue': '07:00-23:00', 'Wed': '07:00-23:00', 'Thu': '07:00-23:00', 'Fri': '07:00-23:00', 'Sat': '07:00-23:00', 'Sun': '07:00-23:00'}}",,198,91918,Chedraui Portal Veracruz,,https://www.chedraui.com.mx/encuentra-tu-tienda
Calle Henry Ford No. 120,Gustavo A. Madero,Mexico,Chedraui,"{'brand': 'Chedraui', 'fascia': 'Chedraui', 'category': 'Retail', 'edit_date': '20250426', 'lat_lon_source': 'google'}",19.469225,-99.114786,"{'opening_hours': {'Mon': '07:00-23:00', 'Tue': '07:00-23:00', 'Wed': '07:00-23:00', 'Thu': '07:00-23:00', 'Fri': '07:00-23:00', 'Sat': '07:00-23:00', 'Sun': '07:00-23:00'}}",,173,07850,Chedraui Tepeyac,,https://www.chedraui.com.mx/encuentra-tu-tienda
Blvrd. Miguel Alemán No. 1390,Cosamaloapan,Mexico,Chedraui,"{'brand': 'Chedraui', 'fascia': 'Chedraui', 'category': 'Retail', 'edit_date': '20250426', 'lat_lon_source': 'google'}",18.363806,-95.79437,"{'opening_hours': {'Mon': '07:00-23:59', 'Tue': '07:00-23:59', 'Wed': '07:00-23:59', 'Thu': '07:00-23:59', 'Fri': '07:00-23:59', 'Sat': '07:00-23:59', 'Sun': '07:00-23:59'}}",,634,95400,Super Chedraui Cosamaloapan,,https://www.chedraui.com.mx/encuentra-tu-tienda
Gral. Ignacio Gutierrez Gómez No. 155 A,Huimanguillo,Mexico,Chedraui,"{'brand': 'Chedraui', 'fascia': 'Chedraui', 'category': 'Retail', 'edit_date': '20250426', 'lat_lon_source': 'google'}",17.832182,-93.396765,"{'opening_hours': {'Mon': '07:00-23:00', 'Tue': '07:00-23:00', 'Wed': '07:00-23:00', 'Thu': '07:00-23:00', 'Fri': '07:00-23:00', 'Sat': '07:00-23:00', 'Sun': '07:00-23:00'}}",,671,86400,Super Chedraui Huimanguillo,,https://www.chedraui.com.mx/encuentra-tu-tienda
Av. Lázaro Cárdenas No. 639,Felipe Carrillo Puerto,Mexico,Chedraui,"{'brand': 'Chedraui', 'fascia': 'Chedraui', 'category': 'Retail', 'edit_date': '20250426', 'lat_lon_source': 'google'}",19.581989,-88.052465,"{'opening_hours': {'Mon': '07:00-23:00', 'Tue': '07:00-23:00', 'Wed': '07:00-23:00', 'Thu': '07:00-23:00', 'Fri': '07:00-23:00', 'Sat': '07:00-23:00', 'Sun': '07:00-23:00'}}",,645,77230,Super Chedraui Felipe Carrillo Puerto,,https://www.chedraui.com.mx/encuentra-tu-tienda
Eje 1 Sur/Poniente No. 101,Veracruz,Mexico,Chedraui,"{'brand': 'Chedraui', 'fascia': 'Chedraui', 'category': 'Retail', 'edit_date': '20250426', 'lat_lon_source': 'google'}",19.170545,-96.156135,"{'opening_hours': {'Mon': '07:00-23:00', 'Tue': '07:00-23:00', 'Wed': '07:00-23:00', 'Thu': '07:00-23:00', 'Fri': '07:00-23:00', 'Sat': '07:00-23:00', 'Sun': '07:00-23:00'}}",,048,91713,Chedraui Veracruz El Coyol,,https://www.chedraui.com.mx/encuentra-tu-tienda
Carr. Fray Junípero Serra No. 3301,Juriquilla,Mexico,Chedraui,"{'brand': 'Chedraui', 'fascia': 'Chedraui', 'category': 'Retail', 'edit_date': '20250426', 'lat_lon_source': 'google'}",20.691139,-100.448936,"{'opening_hours': {'Mon': '07:00-23:00', 'Tue': '07:00-23:00', 'Wed': '07:00-23:00', 'Thu': '07:00-23:00', 'Fri': '07:00-23:00', 'Sat': '07:00-23:00', 'Sun': '07:00-23:00'}}",,186,76230,Chedraui Selecto Juriquilla,,https://www.chedraui.com.mx/encuentra-tu-tienda
Calle Guerrero Poniente No. 33,Huixtla,Mexico,Chedraui,"{'brand': 'Chedraui', 'fascia': 'Chedraui', 'category': 'Retail', 'edit_date': '20250426', 'lat_lon_source': 'google'}",15.140785,-92.465117,"{'opening_hours': {'Mon': '07:00-23:00', 'Tue': '07:00-23:00', 'Wed': '07:00-23:00', 'Thu': '07:00-23:00', 'Fri': '07:00-23:00', 'Sat': '07:00-23:00', 'Sun': '07:00-23:00'}}",,722,30640,Super Chedraui Huixtla,,https://www.chedraui.com.mx/encuentra-tu-tienda
Blvrd. Norte No. 3622,Heroica Puebla De Zaragoza,Mexico,Chedraui,"{'brand': 'Chedraui', 'fascia': 'Chedraui', 'category': 'Retail', 'edit_date': '20250426', 'lat_lon_source': 'google'}",19.070619,-98.206042,"{'opening_hours': {'Mon': '07:00-23:00', 'Tue': '07:00-23:00', 'Wed': '07:00-23:00', 'Thu': '07:00-23:00', 'Fri': '07:00-23:00', 'Sat': '07:00-23:00', 'Sun': '07:00-23:00'}}",,038,72050,Chedraui Puebla Capu,,https://www.chedraui.com.mx/encuentra-tu-tienda
Blvrd. Lopez Mateos S/N,Ciudad Madero,Mexico,Chedraui,"{'brand': 'Chedraui', 'fascia': 'Chedraui', 'category': 'Retail', 'edit_date': '20250426', 'lat_lon_source': 'google'}",22.254228,-97.854209,"{'opening_hours': {'Mon': '07:00-23:00', 'Tue': '07:00-23:00', 'Wed': '07:00-23:00', 'Thu': '07:00-23:00', 'Fri': '07:00-23:00', 'Sat': '07:00-23:00', 'Sun': '07:00-23:00'}}",,036,89460,Chedraui Tampico Cd Madero,,https://www.chedraui.com.mx/encuentra-tu-tienda
Carretera Zapata - Tezoyuca No. 38,Emiliano Zapata,Mexico,Chedraui,"{'brand': 'Chedraui', 'fascia': 'Chedraui', 'category': 'Retail', 'edit_date': '20250426', 'lat_lon_source': 'google'}",18.832799,-99.187733,"{'opening_hours': {'Mon': '07:00-23:00', 'Tue': '07:00-23:00', 'Wed': '07:00-23:00', 'Thu': '07:00-23:00', 'Fri': '07:00-23:00', 'Sat': '07:00-23:00', 'Sun': '07:00-23:00'}}",,151,62766,Chedraui Cuernavaca Central De Abastos,,https://www.chedraui.com.mx/encuentra-tu-tienda
Blvd. Coacalco 417-B,Coacalco,Mexico,Chedraui,"{'brand': 'Chedraui', 'fascia': 'Chedraui', 'category': 'Retail', 'edit_date': '20250426', 'lat_lon_source': 'google'}",19.653208,-99.09539,"{'opening_hours': {'Mon': '07:00-22:00', 'Tue': '07:00-22:00', 'Wed': '07:00-22:00', 'Thu': '07:00-22:00', 'Fri': '07:00-22:00', 'Sat': '07:00-22:00', 'Sun': '07:00-22:00'}}",,719,55710,Supercito Villa De Las Flores,,https://www.chedraui.com.mx/encuentra-tu-tienda
"AVENIDA 8 NO. 801 ENTRE CALLE 11 Y CALLE 13, CORDOBA, VERACRUZ.",Córdoba,Mexico,Chedraui,"{'brand': 'Chedraui', 'fascia': 'Chedraui', 'category': 'Retail', 'edit_date': '20250426', 'lat_lon_source': 'google'}",18.894164,-96.929092,"{'opening_hours': {'Mon': '07:00-23:00', 'Tue': '07:00-23:00', 'Wed': '07:00-23:00', 'Thu': '07:00-23:00', 'Fri': '07:00-23:00', 'Sat': '07:00-23:00', 'Sun': '07:00-23:00'}}",,053,94500,Chedraui Córdoba Centro,,https://www.chedraui.com.mx/encuentra-tu-tienda
Plaza Ámbar 29040,Tuxtla Gutiérrez,Mexico,Chedraui,"{'brand': 'Chedraui', 'fascia': 'Chedraui', 'category': 'Retail', 'edit_date': '20250426', 'lat_lon_source': 'google'}",16.747813,-93.074384,"{'opening_hours': {'Mon': '07:00-23:00', 'Tue': '07:00-23:00', 'Wed': '07:00-23:00', 'Thu': '07:00-23:00', 'Fri': '07:00-23:00', 'Sat': '07:00-23:00', 'Sun': '07:00-23:00'}}",,752,29044,Super Chedraui Tuxtla Ambar,,https://www.chedraui.com.mx/encuentra-tu-tienda
Av. Las Palmas No. 596,Nayarit,Mexico,Chedraui,"{'brand': 'Chedraui', 'fascia': 'Chedraui', 'category': 'Retail', 'edit_date': '20250426', 'lat_lon_source': 'google'}",20.750147,-105.324942,"{'opening_hours': {'Mon': '07:00-23:00', 'Tue': '07:00-23:00', 'Wed': '07:00-23:00', 'Thu': '07:00-23:00', 'Fri': '07:00-23:00', 'Sat': '07:00-23:00', 'Sun': '07:00-23:00'}}",,176,63732,Chedraui Bucerias,,https://www.chedraui.com.mx/encuentra-tu-tienda
Av. Rafael Cuervo No. 1150,Veracruz,Mexico,Chedraui,"{'brand': 'Chedraui', 'fascia': 'Chedraui', 'category': 'Retail', 'edit_date': '20250426', 'lat_lon_source': 'google'}",19.213264,-96.18767,"{'opening_hours': {'Mon': '07:00-23:00', 'Tue': '07:00-23:00', 'Wed': '07:00-23:00', 'Thu': '07:00-23:00', 'Fri': '07:00-23:00', 'Sat': '07:00-23:00', 'Sun': '07:00-23:00'}}",,079,91855,Chedraui Veracruz Las Brisas,,https://www.chedraui.com.mx/encuentra-tu-tienda
Av. Tlalnepantla Tenayuca No. 25,Tlalnepantla De Baz,Mexico,Chedraui,"{'brand': 'Chedraui', 'fascia': 'Chedraui', 'category': 'Retail', 'edit_date': '20250426', 'lat_lon_source': 'google'}",19.532286,-99.1728,"{'opening_hours': {'Mon': '07:00-23:00', 'Tue': '07:00-23:00', 'Wed': '07:00-23:00', 'Thu': '07:00-23:00', 'Fri': '07:00-23:00', 'Sat': '07:00-23:00', 'Sun': '07:00-23:00'}}",,747,54510,Super Chedraui Encuentro Tlalnepantla,,https://www.chedraui.com.mx/encuentra-tu-tienda
Carret. A Todos Santos Km. 1.5 S/N,Cabo San Lucas,Mexico,Chedraui,"{'brand': 'Chedraui', 'fascia': 'Chedraui', 'category': 'Retail', 'edit_date': '20250426', 'lat_lon_source': 'google'}",22.901241,-109.927754,"{'opening_hours': {'Mon': '07:00-23:00', 'Tue': '07:00-23:00', 'Wed': '07:00-23:00', 'Thu': '07:00-23:00', 'Fri': '07:00-23:00', 'Sat': '07:00-23:00', 'Sun': '07:00-23:00'}}",,128,23474,Chedraui Cabo San Lucas,,https://www.chedraui.com.mx/encuentra-tu-tienda
Av. Alfredo Del Mazo No. 62,Ecatepec de Morelos,Mexico,Chedraui,"{'brand': 'Chedraui', 'fascia': 'Chedraui', 'category': 'Retail', 'edit_date': '20250426', 'lat_lon_source': 'google'}",19.513903,-99.056278,"{'opening_hours': {'Mon': '07:00-23:00', 'Tue': '07:00-23:00', 'Wed': '07:00-23:00', 'Thu': '07:00-23:00', 'Fri': '07:00-23:00', 'Sat': '07:00-23:00', 'Sun': '07:00-23:00'}}",,701,55270,Super Che  Ecatepec Rosales,,https://www.chedraui.com.mx/encuentra-tu-tienda
Av. Juan De La Luz Enríquez No. 711,Acayucan,Mexico,Chedraui,"{'brand': 'Chedraui', 'fascia': 'Chedraui', 'category': 'Retail', 'edit_date': '20250426', 'lat_lon_source': 'google'}",17.955975,-94.920269,"{'opening_hours': {'Mon': '07:00-23:59', 'Tue': '07:00-23:59', 'Wed': '07:00-23:59', 'Thu': '07:00-23:59', 'Fri': '07:00-23:59', 'Sat': '07:00-23:59', 'Sun': '07:00-23:59'}}",,071,96056,Chedraui Acayucan La Palma,,https://www.chedraui.com.mx/encuentra-tu-tienda
Blvrd. Belisario Domínguez No. 1691,Tuxtla Gutierrez,Mexico,Chedraui,"{'brand': 'Chedraui', 'fascia': 'Chedraui', 'category': 'Retail', 'edit_date': '20250426', 'lat_lon_source': 'google'}",16.753345,-93.149915,"{'opening_hours': {'Mon': '07:00-23:00', 'Tue': '07:00-23:00', 'Wed': '07:00-23:00', 'Thu': '07:00-23:00', 'Fri': '07:00-23:00', 'Sat': '07:00-23:00', 'Sun': '07:00-23:00'}}",,013,29000,Chedraui Tuxtla Crystal,,https://www.chedraui.com.mx/encuentra-tu-tienda
Libramiento Norte Oriente No. 126,Tuxtla Gutiérrez,Mexico,Chedraui,"{'brand': 'Chedraui', 'fascia': 'Chedraui', 'category': 'Retail', 'edit_date': '20250426', 'lat_lon_source': 'google'}",16.769852,-93.112492,"{'opening_hours': {'Mon': '07:00-23:00', 'Tue': '07:00-23:00', 'Wed': '07:00-23:00', 'Thu': '07:00-23:00', 'Fri': '07:00-23:00', 'Sat': '07:00-23:00', 'Sun': '07:00-23:00'}}",,170,29034,Chedraui Tuxtla Norte,,https://www.chedraui.com.mx/encuentra-tu-tienda
Ánfora No. 71,Venustiano Carranza,Mexico,Chedraui,"{'brand': 'Chedraui', 'fascia': 'Chedraui', 'category': 'Retail', 'edit_date': '20250426', 'lat_lon_source': 'google'}",19.435433,-99.110255,"{'opening_hours': {'Mon': '07:00-23:00', 'Tue': '07:00-23:00', 'Wed': '07:00-23:00', 'Thu': '07:00-23:00', 'Fri': '07:00-23:00', 'Sat': '07:00-23:00', 'Sun': '07:00-23:00'}}",,241,15320,Chedraui  Ánfora,,https://www.chedraui.com.mx/encuentra-tu-tienda
Prolong. De La Av. Constitución No. 25,Jalpa De Méndez,Mexico,Chedraui,"{'brand': 'Chedraui', 'fascia': 'Chedraui', 'category': 'Retail', 'edit_date': '20250426', 'lat_lon_source': 'google'}",18.17668,-93.049564,"{'opening_hours': {'Mon': '07:00-22:00', 'Tue': '07:00-22:00', 'Wed': '07:00-22:00', 'Thu': '07:00-22:00', 'Fri': '07:00-22:00', 'Sat': '07:00-22:00', 'Sun': '07:00-22:00'}}",,612,86200,Super Chedraui Xalpa De Méndez,,https://www.chedraui.com.mx/encuentra-tu-tienda
Abetos No. 15 Frac Rancho Alegre 1,Coatzacoalcos,Mexico,Chedraui,"{'brand': 'Chedraui', 'fascia': 'Chedraui', 'category': 'Retail', 'edit_date': '20250426', 'lat_lon_source': 'google'}",18.139653,-94.465431,"{'opening_hours': {'Mon': '07:00-23:59', 'Tue': '07:00-23:59', 'Wed': '07:00-23:59', 'Thu': '07:00-23:59', 'Fri': '07:00-23:59', 'Sat': '07:00-23:59', 'Sun': '07:00-23:59'}}",,021,96558,Chedraui Coatzacoalcos Crystal,,https://www.chedraui.com.mx/encuentra-tu-tienda
Calle Soto Y Gama No. 21,Iztapalapa,Mexico,Chedraui,"{'brand': 'Chedraui', 'fascia': 'Chedraui', 'category': 'Retail', 'edit_date': '20250426', 'lat_lon_source': 'google'}",19.359089,-99.063427,"{'opening_hours': {'Mon': '07:00-22:30', 'Tue': '07:00-22:30', 'Wed': '07:00-22:30', 'Thu': '07:00-22:30', 'Fri': '07:00-22:30', 'Sat': '07:00-22:30', 'Sun': '07:00-22:30'}}",,100,09240,Chedraui  Iztapalapa,,https://www.chedraui.com.mx/encuentra-tu-tienda
Puente De Guerra No.47,Azcapotzalco,Mexico,Chedraui,"{'brand': 'Chedraui', 'fascia': 'Chedraui', 'category': 'Retail', 'edit_date': '20250426', 'lat_lon_source': 'google'}",19.498214,-99.198243,"{'opening_hours': {'Mon': '07:00-22:00', 'Tue': '07:00-22:00', 'Wed': '07:00-22:00', 'Thu': '07:00-22:00', 'Fri': '07:00-22:00', 'Sat': '07:00-22:00', 'Sun': '07:00-22:00'}}",,720,02120,Supercito Puente De Guerra,,https://www.chedraui.com.mx/encuentra-tu-tienda
Av. Lázaro Cárdenas S/N,San Pedro Pochutla,Mexico,Chedraui,"{'brand': 'Chedraui', 'fascia': 'Chedraui', 'category': 'Retail', 'edit_date': '20250426', 'lat_lon_source': 'google'}",15.74232,-96.467382,"{'opening_hours': {'Mon': '07:00-22:00', 'Tue': '07:00-22:00', 'Wed': '07:00-22:00', 'Thu': '07:00-22:00', 'Fri': '07:00-22:00', 'Sat': '07:00-22:00', 'Sun': '07:00-22:00'}}",,734,70900,Super Chedraui San Pedro Pochutla,,https://www.chedraui.com.mx/encuentra-tu-tienda
3 Av. Norte No. 22,Ciudad Hidalgo,Mexico,Chedraui,"{'brand': 'Chedraui', 'fascia': 'Chedraui', 'category': 'Retail', 'edit_date': '20250426', 'lat_lon_source': 'google'}",14.681872,-92.148701,"{'opening_hours': {'Mon': '07:00-23:00', 'Tue': '07:00-23:00', 'Wed': '07:00-23:00', 'Thu': '07:00-23:00', 'Fri': '07:00-23:00', 'Sat': '07:00-23:00', 'Sun': '07:00-23:00'}}",,709,30840,Super Chedraui Ciudad Hidalgo,,https://www.chedraui.com.mx/encuentra-tu-tienda
Av. Xicoténcatl Km. 1 Carret. San Martín Texmelucan-Tlax. S/N,San Martin Texmelucan,Mexico,Chedraui,"{'brand': 'Chedraui', 'fascia': 'Chedraui', 'category': 'Retail', 'edit_date': '20250426', 'lat_lon_source': 'google'}",19.289251,-98.423209,"{'opening_hours': {'Mon': '07:00-23:00', 'Tue': '07:00-23:00', 'Wed': '07:00-23:00', 'Thu': '07:00-23:00', 'Fri': '07:00-23:00', 'Sat': '07:00-23:00', 'Sun': '07:00-23:00'}}",,070,74000,Chedraui San Martín Texmelucan,,https://www.chedraui.com.mx/encuentra-tu-tienda
Av. 29 De Octubre 236,Alvaro Obregón,Mexico,Chedraui,"{'brand': 'Chedraui', 'fascia': 'Chedraui', 'category': 'Retail', 'edit_date': '20250426', 'lat_lon_source': 'google'}",19.321915,-99.262328,"{'opening_hours': {'Mon': '07:00-22:00', 'Tue': '07:00-22:00', 'Wed': '07:00-22:00', 'Thu': '07:00-22:00', 'Fri': '07:00-22:00', 'Sat': '07:00-22:00', 'Sun': '07:00-22:00'}}",,726,01860,Supercito La Era,,https://www.chedraui.com.mx/encuentra-tu-tienda
Carret. Mezcales-Puerto Vallarta No. 1487,Bahía de Banderas,Mexico,Chedraui,"{'brand': 'Chedraui', 'fascia': 'Chedraui', 'category': 'Retail', 'edit_date': '20250426', 'lat_lon_source': 'google'}",20.713231,-105.273797,"{'opening_hours': {'Mon': '07:00-23:00', 'Tue': '07:00-23:00', 'Wed': '07:00-23:00', 'Thu': '07:00-23:00', 'Fri': '07:00-23:00', 'Sat': '07:00-23:00', 'Sun': '07:00-23:00'}}",,143,63735,Chedraui Nuevo Vallarta,,https://www.chedraui.com.mx/encuentra-tu-tienda
Blvrd. Interlomas No. 5 Col. San Fernando La Herradura.,Huixquilucan,Mexico,Chedraui,"{'brand': 'Chedraui', 'fascia': 'Chedraui', 'category': 'Retail', 'edit_date': '20250426', 'lat_lon_source': 'google'}",19.402569,-99.270151,"{'opening_hours': {'Mon': '08:00-23:00', 'Tue': '08:00-23:00', 'Wed': '08:00-23:00', 'Thu': '08:00-23:00', 'Fri': '08:00-23:00', 'Sat': '08:00-23:00', 'Sun': '08:00-23:00'}}",,231,52760,Chedraui Selecto  Interlomas,,https://www.chedraui.com.mx/encuentra-tu-tienda
Constituyentes No. 3,Álamo,Mexico,Chedraui,"{'brand': 'Chedraui', 'fascia': 'Chedraui', 'category': 'Retail', 'edit_date': '20250426', 'lat_lon_source': 'google'}",20.917687,-97.676231,"{'opening_hours': {'Mon': '07:00-23:00', 'Tue': '07:00-23:00', 'Wed': '07:00-23:00', 'Thu': '07:00-23:00', 'Fri': '07:00-23:00', 'Sat': '07:00-23:00', 'Sun': '07:00-23:00'}}",,637,92730,Super Chedraui Alamo Centro Veracruz,,https://www.chedraui.com.mx/encuentra-tu-tienda
Km. 270 Carret. Federal 307 Mza 012.002 Lote 001.060,Puerto Aventuras,Mexico,Chedraui,"{'brand': 'Chedraui', 'fascia': 'Chedraui', 'category': 'Retail', 'edit_date': '20250426', 'lat_lon_source': 'google'}",20.508959,-87.225745,"{'opening_hours': {'Mon': '07:00-23:00', 'Tue': '07:00-23:00', 'Wed': '07:00-23:00', 'Thu': '07:00-23:00', 'Fri': '07:00-23:00', 'Sat': '07:00-23:00', 'Sun': '07:00-23:00'}}",,651,77733,Super Chedraui Puerto Aventuras,,https://www.chedraui.com.mx/encuentra-tu-tienda
Av. Cuautepec No. 117,Gustavo A. Madero,Mexico,Chedraui,"{'brand': 'Chedraui', 'fascia': 'Chedraui', 'category': 'Retail', 'edit_date': '20250426', 'lat_lon_source': 'google'}",19.526138,-99.141336,"{'opening_hours': {'Mon': '07:00-23:00', 'Tue': '07:00-23:00', 'Wed': '07:00-23:00', 'Thu': '07:00-23:00', 'Fri': '07:00-23:00', 'Sat': '07:00-23:00', 'Sun': '07:00-23:00'}}",,702,7280,Super Che  Cuautepec,,https://www.chedraui.com.mx/encuentra-tu-tienda
Av. Lázaro Cárdenas S/N,Acapulco De Juárez,Mexico,Chedraui,"{'brand': 'Chedraui', 'fascia': 'Chedraui', 'category': 'Retail', 'edit_date': '20250426', 'lat_lon_source': 'google'}",16.862368,-99.809874,"{'opening_hours': {'Mon': '07:00-23:00', 'Tue': '07:00-23:00', 'Wed': '07:00-23:00', 'Thu': '07:00-23:00', 'Fri': '07:00-23:00', 'Sat': '07:00-23:00', 'Sun': '07:00-23:00'}}",,060,39799,Chedraui  Acapulco Cayaco,,https://www.chedraui.com.mx/encuentra-tu-tienda
Carr. Fed. Mex-Pachuca Km. 35.3 S/N,Tecámac De Felipe Villanueva Centro,Mexico,Chedraui,"{'brand': 'Chedraui', 'fascia': 'Chedraui', 'category': 'Retail', 'edit_date': '20250426', 'lat_lon_source': 'google'}",19.689062,-98.989491,"{'opening_hours': {'Mon': '07:00-23:00', 'Tue': '07:00-23:00', 'Wed': '07:00-23:00', 'Thu': '07:00-23:00', 'Fri': '07:00-23:00', 'Sat': '07:00-23:00', 'Sun': '07:00-23:00'}}",,091,55740,Chedraui  Tecámac,,https://www.chedraui.com.mx/encuentra-tu-tienda
Blvrd. Alfinio Flores No. 903,Martinez De La Torre,Mexico,Chedraui,"{'brand': 'Chedraui', 'fascia': 'Chedraui', 'category': 'Retail', 'edit_date': '20250426', 'lat_lon_source': 'google'}",20.070043,-97.064815,"{'opening_hours': {'Mon': '07:00-23:00', 'Tue': '07:00-23:00', 'Wed': '07:00-23:00', 'Thu': '07:00-23:00', 'Fri': '07:00-23:00', 'Sat': '07:00-23:00', 'Sun': '07:00-23:00'}}",,033,93607,Chedraui Martínez De La Torre,,https://www.chedraui.com.mx/encuentra-tu-tienda
Av. 16 De Septiembre No. 34,Loma Bonita,Mexico,Chedraui,"{'brand': 'Chedraui', 'fascia': 'Chedraui', 'category': 'Retail', 'edit_date': '20250426', 'lat_lon_source': 'google'}",18.107013,-95.879331,"{'opening_hours': {'Mon': '07:00-23:59', 'Tue': '07:00-23:59', 'Wed': '07:00-23:59', 'Thu': '07:00-23:59', 'Fri': '07:00-23:59', 'Sat': '07:00-23:59', 'Sun': '07:00-23:59'}}",,627,68400,Super Chedraui Loma Bonita,,https://www.chedraui.com.mx/encuentra-tu-tienda
Av. Pedro Enríquez Ureña No. 514,Coyoacán,Mexico,Chedraui,"{'brand': 'Chedraui', 'fascia': 'Chedraui', 'category': 'Retail', 'edit_date': '20250426', 'lat_lon_source': 'google'}",19.335933,-99.158491,"{'opening_hours': {'Mon': '07:00-23:00', 'Tue': '07:00-23:00', 'Wed': '07:00-23:00', 'Thu': '07:00-23:00', 'Fri': '07:00-23:00', 'Sat': '07:00-23:00', 'Sun': '07:00-23:00'}}",,141,04330,Chedraui  Copilco,,https://www.chedraui.com.mx/encuentra-tu-tienda
Av. Francisco Javier Mina S/N,Villahermosa,Mexico,Chedraui,"{'brand': 'Chedraui', 'fascia': 'Chedraui', 'category': 'Retail', 'edit_date': '20250426', 'lat_lon_source': 'google'}",17.997977,-92.920864,"{'opening_hours': {'Mon': '07:00-23:00', 'Tue': '07:00-23:00', 'Wed': '07:00-23:00', 'Thu': '07:00-23:00', 'Fri': '07:00-23:00', 'Sat': '07:00-23:00', 'Sun': '07:00-23:00'}}",,010,86000,Chedraui Villahermosa Mina,,https://www.chedraui.com.mx/encuentra-tu-tienda
Anillo Vial Fray Junípero Serra No. 7901,Epigmenio González,Mexico,Chedraui,"{'brand': 'Chedraui', 'fascia': 'Chedraui', 'category': 'Retail', 'edit_date': '20250426', 'lat_lon_source': 'google'}",20.630616,-100.356895,"{'opening_hours': {'Mon': '07:00-23:00', 'Tue': '07:00-23:00', 'Wed': '07:00-23:00', 'Thu': '07:00-23:00', 'Fri': '07:00-23:00', 'Sat': '07:00-23:00', 'Sun': '07:00-23:00'}}",,185,76146,Chedraui Paseo Querétaro,,https://www.chedraui.com.mx/encuentra-tu-tienda
Av. 45 Sur  S/N,Playa Del Carmen,Mexico,Chedraui,"{'brand': 'Chedraui', 'fascia': 'Chedraui', 'category': 'Retail', 'edit_date': '20250426', 'lat_lon_source': 'google'}",20.625153,-87.084589,"{'opening_hours': {'Mon': '07:00-23:00', 'Tue': '07:00-23:00', 'Wed': '07:00-23:00', 'Thu': '07:00-23:00', 'Fri': '07:00-23:00', 'Sat': '07:00-23:00', 'Sun': '07:00-23:00'}}",,062,77710,Chedraui Playa Del Carmen Centro,,https://www.chedraui.com.mx/encuentra-tu-tienda
Av. De Los Insurgentes No. 2179,Tepic,Mexico,Chedraui,"{'brand': 'Chedraui', 'fascia': 'Chedraui', 'category': 'Retail', 'edit_date': '20250426', 'lat_lon_source': 'google'}",21.48454,-104.876112,"{'opening_hours': {'Mon': '07:00-23:00', 'Tue': '07:00-23:00', 'Wed': '07:00-23:00', 'Thu': '07:00-23:00', 'Fri': '07:00-23:00', 'Sat': '07:00-23:00', 'Sun': '07:00-23:00'}}",,124,63173,Chedraui Tepic Nayarit,,https://www.chedraui.com.mx/encuentra-tu-tienda
Av. Lopez Portillo No. 558  Super Manzana 61,Benito Juárez,Mexico,Chedraui,"{'brand': 'Chedraui', 'fascia': 'Chedraui', 'category': 'Retail', 'edit_date': '20250426', 'lat_lon_source': 'google'}",21.165123,-86.843491,"{'opening_hours': {'Mon': '07:00-23:00', 'Tue': '07:00-23:00', 'Wed': '07:00-23:00', 'Thu': '07:00-23:00', 'Fri': '07:00-23:00', 'Sat': '07:00-23:00', 'Sun': '07:00-23:00'}}",,045,77516,Chedraui Cancún Portillo,,https://www.chedraui.com.mx/encuentra-tu-tienda
"Av. Lázaro Cárdenas , Plaza Crystal Local 10",Xalapa-Enríquez,Mexico,Chedraui,"{'brand': 'Chedraui', 'fascia': 'Chedraui', 'category': 'Retail', 'edit_date': '20250426', 'lat_lon_source': 'google'}",19.538139,-96.906501,"{'opening_hours': {'Mon': '07:00-23:59', 'Tue': '07:00-23:59', 'Wed': '07:00-23:59', 'Thu': '07:00-23:59', 'Fri': '07:00-23:59', 'Sat': '07:00-23:59', 'Sun': '07:00-23:59'}}",,004,91150,Chedraui Xalapa Crystal,,https://www.chedraui.com.mx/encuentra-tu-tienda
Adolfo Ruiz Cortines,Atizapán de Zaragoza,Mexico,Chedraui,"{'brand': 'Chedraui', 'fascia': 'Chedraui', 'category': 'Retail', 'edit_date': '20250426', 'lat_lon_source': 'google'}",19.547629,-99.273873,"{'opening_hours': {'Mon': '07:00-23:00', 'Tue': '07:00-23:00', 'Wed': '07:00-23:00', 'Thu': '07:00-23:00', 'Fri': '07:00-23:00', 'Sat': '07:00-23:00', 'Sun': '07:00-23:00'}}",,815,52977,Súper Chedraui México Atizapán Galerías,,https://www.chedraui.com.mx/encuentra-tu-tienda
"Av. Lázaro Cárdenas, Calz Juan Pablo II 108",Veracruz,Mexico,Chedraui,"{'brand': 'Chedraui', 'fascia': 'Chedraui', 'category': 'Retail', 'edit_date': '20250426', 'lat_lon_source': 'google'}",19.160562,-96.119069,"{'opening_hours': {'Mon': '07:00-23:00', 'Tue': '07:00-23:00', 'Wed': '07:00-23:00', 'Thu': '07:00-23:00', 'Fri': '07:00-23:00', 'Sat': '07:00-23:00', 'Sun': '07:00-23:00'}}",,789,94296,Súper Chedraui Selecto Veracruz Juan Pablo II,,https://www.chedraui.com.mx/encuentra-tu-tienda
Boulevard Adolfo Ruiz Cortinez-Oaxaca,Poza Rica,Mexico,Chedraui,"{'brand': 'Chedraui', 'fascia': 'Chedraui', 'category': 'Retail', 'edit_date': '20250426', 'lat_lon_source': 'google'}",20.548339000,-97.451270000,"{'opening_hours': {'Mon': '07:00-23:59', 'Tue': '07:00-23:59', 'Wed': '07:00-23:59', 'Thu': '07:00-23:59', 'Fri': '07:00-23:59', 'Sat': '07:00-23:59', 'Sun': '07:00-23:59'}}",,27,93300,Chedraui Poza Rica Palmas,,https://www.chedraui.com.mx/encuentra-tu-tienda
Boulevard de las cascadas 1301,Santa Clara Ocoyucan,Mexico,Chedraui,"{'brand': 'Chedraui', 'fascia': 'Chedraui', 'category': 'Retail', 'edit_date': '20250426', 'lat_lon_source': 'google'}",18.9701920,-98.2852311,"{'opening_hours': {'Mon': '07:00-23:00', 'Tue': '07:00-23:00', 'Wed': '07:00-23:00', 'Thu': '07:00-23:00', 'Fri': '07:00-23:00', 'Sat': '07:00-23:00', 'Sun': '07:00-23:00'}}",,839,72850,Selecto Barrio Casatta,,https://www.chedraui.com.mx/encuentra-tu-tienda
Calle 21 No. 329 A,Mérida,Mexico,Chedraui,"{'brand': 'Chedraui', 'fascia': 'Chedraui', 'category': 'Retail', 'edit_date': '20250426', 'lat_lon_source': 'google'}",20.992575,-89.650161,"{'opening_hours': {'Mon': '07:00-23:00', 'Tue': '07:00-23:00', 'Wed': '07:00-23:00', 'Thu': '07:00-23:00', 'Fri': '07:00-23:00', 'Sat': '07:00-23:00', 'Sun': '07:00-23:00'}}",,043,97229,Chedraui Mérida Américas,,https://www.chedraui.com.mx/encuentra-tu-tienda
Calz. San Esteban No. 46,Naucalpan De Juárez,Mexico,Chedraui,"{'brand': 'Chedraui', 'fascia': 'Chedraui', 'category': 'Retail', 'edit_date': '20250426', 'lat_lon_source': 'google'}",19.458661,-99.233801,"{'opening_hours': {'Mon': '07:00-23:00', 'Tue': '07:00-23:00', 'Wed': '07:00-23:00', 'Thu': '07:00-23:00', 'Fri': '07:00-23:00', 'Sat': '07:00-23:00', 'Sun': '07:00-23:00'}}",,117,53550,Chedraui  San Esteban,,https://www.chedraui.com.mx/encuentra-tu-tienda
Pról. Salvador Diaz Mirón S/N,Veracruz,Mexico,Chedraui,"{'brand': 'Chedraui', 'fascia': 'Chedraui', 'category': 'Retail', 'edit_date': '20250426', 'lat_lon_source': 'google'}",19.160006,-96.133389,"{'opening_hours': {'Mon': '07:00-23:00', 'Tue': '07:00-23:00', 'Wed': '07:00-23:00', 'Thu': '07:00-23:00', 'Fri': '07:00-23:00', 'Sat': '07:00-23:00', 'Sun': '07:00-23:00'}}",,006,91940,Chedraui Veracruz Floresta,,https://www.chedraui.com.mx/encuentra-tu-tienda
Montaña Monarca No. 1000,Morelia,Mexico,Chedraui,"{'brand': 'Chedraui', 'fascia': 'Chedraui', 'category': 'Retail', 'edit_date': '20250426', 'lat_lon_source': 'google'}",19.674084,-101.162663,"{'opening_hours': {'Mon': '07:00-23:00', 'Tue': '07:00-23:00', 'Wed': '07:00-23:00', 'Thu': '07:00-23:00', 'Fri': '07:00-23:00', 'Sat': '07:00-23:00', 'Sun': '07:00-23:00'}}",,774,58350,Super Chedraui Selecto Altozano,,https://www.chedraui.com.mx/encuentra-tu-tienda
Av. Tulum No. 260,Benito Juárez,Mexico,Chedraui,"{'brand': 'Chedraui', 'fascia': 'Chedraui', 'category': 'Retail', 'edit_date': '20250426', 'lat_lon_source': 'google'}",21.145592,-86.823063,"{'opening_hours': {'Mon': '07:00-23:00', 'Tue': '07:00-23:00', 'Wed': '07:00-23:00', 'Thu': '07:00-23:00', 'Fri': '07:00-23:00', 'Sat': '07:00-23:00', 'Sun': '07:00-23:00'}}",,047,77500,Chedraui Selecto Cancún  Américas,,https://www.chedraui.com.mx/encuentra-tu-tienda
Prolongación Vasco De Quiroga No. 3800,Cuajimalpa de Morelos,Mexico,Chedraui,"{'brand': 'Chedraui', 'fascia': 'Chedraui', 'category': 'Retail', 'edit_date': '20250426', 'lat_lon_source': 'google'}",19.36002,-99.274353,"{'opening_hours': {'Mon': '07:00-23:00', 'Tue': '07:00-23:00', 'Wed': '07:00-23:00', 'Thu': '07:00-23:00', 'Fri': '07:00-23:00', 'Sat': '07:00-23:00', 'Sun': '07:00-23:00'}}",,098,05348,Chedraui Selecto  Santa Fe,,https://www.chedraui.com.mx/encuentra-tu-tienda
Av. Insurgentes Km 5.025 Mz. 1 Lote 4,Othón Blanco,Mexico,Chedraui,"{'brand': 'Chedraui', 'fascia': 'Chedraui', 'category': 'Retail', 'edit_date': '20250426', 'lat_lon_source': 'google'}",18.520551,-88.321066,"{'opening_hours': {'Mon': '07:00-23:00', 'Tue': '07:00-23:00', 'Wed': '07:00-23:00', 'Thu': '07:00-23:00', 'Fri': '07:00-23:00', 'Sat': '07:00-23:00', 'Sun': '07:00-23:00'}}",,069,77084,Chedraui Chetumal Insurgentes,,https://www.chedraui.com.mx/encuentra-tu-tienda
Av. Mexico 3300,Guadalajara,Mexico,Chedraui,"{'brand': 'Chedraui', 'fascia': 'Chedraui', 'category': 'Retail', 'edit_date': '20250426', 'lat_lon_source': 'google'}",20.679324,-103.39931,"{'opening_hours': {'Mon': '07:00-23:00', 'Tue': '07:00-23:00', 'Wed': '07:00-23:00', 'Thu': '07:00-23:00', 'Fri': '07:00-23:00', 'Sat': '07:00-23:00', 'Sun': '07:00-23:00'}}",,262,44670,Chedraui Selecto Guadalajara Plaza,,https://www.chedraui.com.mx/encuentra-tu-tienda
Blvd. Luis Donaldo Colosio Murrieta No. 784,Aguascalientes,Mexico,Chedraui,"{'brand': 'Chedraui', 'fascia': 'Chedraui', 'category': 'Retail', 'edit_date': '20250426', 'lat_lon_source': 'google'}",21.925445,-102.295141,"{'opening_hours': {'Mon': '07:00-23:00', 'Tue': '07:00-23:00', 'Wed': '07:00-23:00', 'Thu': '07:00-23:00', 'Fri': '07:00-23:00', 'Sat': '07:00-23:00', 'Sun': '07:00-23:00'}}",,196,20120,Chedraui Selecto Aguascalientes Colosio,,https://www.chedraui.com.mx/encuentra-tu-tienda
Diagonal Hermanos Paniagua No. 50,San Cristóbal De Las Casas,Mexico,Chedraui,"{'brand': 'Chedraui', 'fascia': 'Chedraui', 'category': 'Retail', 'edit_date': '20250426', 'lat_lon_source': 'google'}",16.734934,-92.653298,"{'opening_hours': {'Mon': '07:00-23:00', 'Tue': '07:00-23:00', 'Wed': '07:00-23:00', 'Thu': '07:00-23:00', 'Fri': '07:00-23:00', 'Sat': '07:00-23:00', 'Sun': '07:00-23:00'}}",,072,29240,Chedraui San Cristóbal De Las Casas San Román,,https://www.chedraui.com.mx/encuentra-tu-tienda
Esq. Benito Juarez Y Alatorre S/N,Macuspana,Mexico,Chedraui,"{'brand': 'Chedraui', 'fascia': 'Chedraui', 'category': 'Retail', 'edit_date': '20250426', 'lat_lon_source': 'google'}",17.762309,-92.588624,"{'opening_hours': {'Mon': '07:00-22:00', 'Tue': '07:00-22:00', 'Wed': '07:00-22:00', 'Thu': '07:00-22:00', 'Fri': '07:00-22:00', 'Sat': '07:00-22:00', 'Sun': '07:00-22:00'}}",,131,86706,Chedraui Macuspana Centro,,https://www.chedraui.com.mx/encuentra-tu-tienda
Carr. Transpeninsular Izq. Libre Aeropuerto S/N,San José Del Cabo,Mexico,Chedraui,"{'brand': 'Chedraui', 'fascia': 'Chedraui', 'category': 'Retail', 'edit_date': '20250426', 'lat_lon_source': 'google'}",23.043956,-109.707651,"{'opening_hours': {'Mon': '07:00-23:00', 'Tue': '07:00-23:00', 'Wed': '07:00-23:00', 'Thu': '07:00-23:00', 'Fri': '07:00-23:00', 'Sat': '07:00-23:00', 'Sun': '07:00-23:00'}}",,178,23406,Chedraui Selecto San José Del Cabo Campestre,,https://www.chedraui.com.mx/encuentra-tu-tienda
Av. Dr. Victor Sánchez Tapia No. 309,Veracruz,Mexico,Chedraui,"{'brand': 'Chedraui', 'fascia': 'Chedraui', 'category': 'Retail', 'edit_date': '20250426', 'lat_lon_source': 'google'}",19.2022397,-96.20382995,"{'opening_hours': {'Mon': '07:00-23:00', 'Tue': '07:00-23:00', 'Wed': '07:00-23:00', 'Thu': '07:00-23:00', 'Fri': '07:00-23:00', 'Sat': '07:00-23:00', 'Sun': '07:00-23:00'}}",,773,91809,Supercito Veracruz Rio Medio,,https://www.chedraui.com.mx/encuentra-tu-tienda
Blvd. Francisco Villa 2000,Victoria de durango,Mexico,Chedraui,"{'brand': 'Chedraui', 'fascia': 'Chedraui', 'category': 'Retail', 'edit_date': '20250426', 'lat_lon_source': 'google'}",24.046184,-104.62258,"{'opening_hours': {'Mon': '07:00-23:00', 'Tue': '07:00-23:00', 'Wed': '07:00-23:00', 'Thu': '07:00-23:00', 'Fri': '07:00-23:00', 'Sat': '07:00-23:00', 'Sun': '07:00-23:00'}}",,192,54234,Chedraui Durango Francisco Villa,,https://www.chedraui.com.mx/encuentra-tu-tienda
Prolongación 11 Sur No. 11904,Heroica Puebla De Zaragoza,Mexico,Chedraui,"{'brand': 'Chedraui', 'fascia': 'Chedraui', 'category': 'Retail', 'edit_date': '20250426', 'lat_lon_source': 'google'}",18.98729,-98.246705,"{'opening_hours': {'Mon': '07:00-23:00', 'Tue': '07:00-23:00', 'Wed': '07:00-23:00', 'Thu': '07:00-23:00', 'Fri': '07:00-23:00', 'Sat': '07:00-23:00', 'Sun': '07:00-23:00'}}",,076,72490,Chedraui Puebla Centro Sur,,https://www.chedraui.com.mx/encuentra-tu-tienda
Blvrd. Adolfo Ruiz Cortínez S/N,Boca Del Río,Mexico,Chedraui,"{'brand': 'Chedraui', 'fascia': 'Chedraui', 'category': 'Retail', 'edit_date': '20250426', 'lat_lon_source': 'google'}",19.139573,-96.105677,"{'opening_hours': {'Mon': '08:00-23:00', 'Tue': '08:00-23:00', 'Wed': '08:00-23:00', 'Thu': '08:00-23:00', 'Fri': '08:00-23:00', 'Sat': '08:00-23:00', 'Sun': '08:00-23:00'}}",,020,94298,Chedraui Veracruz Américas,,https://www.chedraui.com.mx/encuentra-tu-tienda
Av. Héroes De Nocupétaro No. 201,Morelia,Mexico,Chedraui,"{'brand': 'Chedraui', 'fascia': 'Chedraui', 'category': 'Retail', 'edit_date': '20250426', 'lat_lon_source': 'google'}",19.709465,-101.190484,"{'opening_hours': {'Mon': '07:00-23:00', 'Tue': '07:00-23:00', 'Wed': '07:00-23:00', 'Thu': '07:00-23:00', 'Fri': '07:00-23:00', 'Sat': '07:00-23:00', 'Sun': '07:00-23:00'}}",,056,58000,Chedraui Morelia Centro,,https://www.chedraui.com.mx/encuentra-tu-tienda
Blvrd.  Lázaro Cárdenas No. 807,Poza Rica De Hidalgo,Mexico,Chedraui,"{'brand': 'Chedraui', 'fascia': 'Chedraui', 'category': 'Retail', 'edit_date': '20250426', 'lat_lon_source': 'google'}",20.535921,-97.473114,"{'opening_hours': {'Mon': '07:00-23:00', 'Tue': '07:00-23:00', 'Wed': '07:00-23:00', 'Thu': '07:00-23:00', 'Fri': '07:00-23:00', 'Sat': '07:00-23:00', 'Sun': '07:00-23:00'}}",,016,93340,Chedraui Poza Rica Crystal,,https://www.chedraui.com.mx/encuentra-tu-tienda
Blvd. Kukulcán Mz. 48 Y 48 Lt. Zc1 - F1 Y 6A Sec. A,Benito Juárez,Mexico,Chedraui,"{'brand': 'Chedraui', 'fascia': 'Chedraui', 'category': 'Retail', 'edit_date': '20250426', 'lat_lon_source': 'google'}",21.135969,-86.748017,"{'opening_hours': {'Mon': '07:00-23:00', 'Tue': '07:00-23:00', 'Wed': '07:00-23:00', 'Thu': '07:00-23:00', 'Fri': '07:00-23:00', 'Sat': '07:00-23:00', 'Sun': '07:00-23:00'}}",,665,77500,Super Chedraui Selecto Cancún Zona Hotelera,,https://www.chedraui.com.mx/encuentra-tu-tienda
Pino Suarez Norte No. 58,San Juan del Río,Mexico,Chedraui,"{'brand': 'Chedraui', 'fascia': 'Chedraui', 'category': 'Retail', 'edit_date': '20250426', 'lat_lon_source': 'google'}",20.388375,-99.991283,"{'opening_hours': {'Mon': '07:00-23:00', 'Tue': '07:00-23:00', 'Wed': '07:00-23:00', 'Thu': '07:00-23:00', 'Fri': '07:00-23:00', 'Sat': '07:00-23:00', 'Sun': '07:00-23:00'}}",,096,76800,Chedraui San Juan Del Río Centro,,https://www.chedraui.com.mx/encuentra-tu-tienda
Av. Plazas Central No. 1,Nezahualcóyotl,Mexico,Chedraui,"{'brand': 'Chedraui', 'fascia': 'Chedraui', 'category': 'Retail', 'edit_date': '20250426', 'lat_lon_source': 'google'}",19.482776,-99.035668,"{'opening_hours': {'Mon': '07:00-23:00', 'Tue': '07:00-23:00', 'Wed': '07:00-23:00', 'Thu': '07:00-23:00', 'Fri': '07:00-23:00', 'Sat': '07:00-23:00', 'Sun': '07:00-23:00'}}",,260,57139,Chedraui  Neza Impulsora,,https://www.chedraui.com.mx/encuentra-tu-tienda
Pról. 18 Norte,Chilapa De Alvarez,Mexico,Chedraui,"{'brand': 'Chedraui', 'fascia': 'Chedraui', 'category': 'Retail', 'edit_date': '20250426', 'lat_lon_source': 'google'}",17.59813,-99.172601,"{'opening_hours': {'Mon': '07:00-22:00', 'Tue': '07:00-22:00', 'Wed': '07:00-22:00', 'Thu': '07:00-22:00', 'Fri': '07:00-22:00', 'Sat': '07:00-22:00', 'Sun': '07:00-22:00'}}",,620,41100,Super Chedraui Chilapa,,https://www.chedraui.com.mx/encuentra-tu-tienda
Av. Hidalgo S/N,Tampico,Mexico,Chedraui,"{'brand': 'Chedraui', 'fascia': 'Chedraui', 'category': 'Retail', 'edit_date': '20250426', 'lat_lon_source': 'google'}",22.261745,-97.873483,"{'opening_hours': {'Mon': '07:00-23:00', 'Tue': '07:00-23:00', 'Wed': '07:00-23:00', 'Thu': '07:00-23:00', 'Fri': '07:00-23:00', 'Sat': '07:00-23:00', 'Sun': '07:00-23:00'}}",,012,89349,Chedraui Tampico Crystal,,https://www.chedraui.com.mx/encuentra-tu-tienda
Carretera Apizaco-Huamantla No. 407,Apizaco,Mexico,Chedraui,"{'brand': 'Chedraui', 'fascia': 'Chedraui', 'category': 'Retail', 'edit_date': '20250426', 'lat_lon_source': 'google'}",19.412094,-98.133536,"{'opening_hours': {'Mon': '07:00-23:00', 'Tue': '07:00-23:00', 'Wed': '07:00-23:00', 'Thu': '07:00-23:00', 'Fri': '07:00-23:00', 'Sat': '07:00-23:00', 'Sun': '07:00-23:00'}}",,145,90347,Chedraui Tlaxcala Apizaco,,https://www.chedraui.com.mx/encuentra-tu-tienda
Av. Alfredo Del Mazo No. 705,Toluca,Mexico,Chedraui,"{'brand': 'Chedraui', 'fascia': 'Chedraui', 'category': 'Retail', 'edit_date': '20250426', 'lat_lon_source': 'google'}",19.310171,-99.636054,"{'opening_hours': {'Mon': '07:00-23:00', 'Tue': '07:00-23:00', 'Wed': '07:00-23:00', 'Thu': '07:00-23:00', 'Fri': '07:00-23:00', 'Sat': '07:00-23:00', 'Sun': '07:00-23:00'}}",,242,50100,Chedraui Toluca Alfredo Del Mazo,,https://www.chedraui.com.mx/encuentra-tu-tienda
Blvrd. Demetrio Ruiz Malerva No. 65,León De Los Aldama,Mexico,Chedraui,"{'brand': 'Chedraui', 'fascia': 'Chedraui', 'category': 'Retail', 'edit_date': '20250426', 'lat_lon_source': 'google'}",20.950884,-97.420229,"{'opening_hours': {'Mon': '07:00-23:00', 'Tue': '07:00-23:00', 'Wed': '07:00-23:00', 'Thu': '07:00-23:00', 'Fri': '07:00-23:00', 'Sat': '07:00-23:00', 'Sun': '07:00-23:00'}}",,028,92860,Chedraui Tuxpan Crystal,,https://www.chedraui.com.mx/encuentra-tu-tienda
Blvrd. Chahue Lote 23 A Manz 02  Sector R,Crucecita,Mexico,Chedraui,"{'brand': 'Chedraui', 'fascia': 'Chedraui', 'category': 'Retail', 'edit_date': '20250426', 'lat_lon_source': 'google'}",15.762836,-96.128757,"{'opening_hours': {'Mon': '07:00-23:00', 'Tue': '07:00-23:00', 'Wed': '07:00-23:00', 'Thu': '07:00-23:00', 'Fri': '07:00-23:00', 'Sat': '07:00-23:00', 'Sun': '07:00-23:00'}}",,615,70989,Chedraui Huatulco,,https://www.chedraui.com.mx/encuentra-tu-tienda
Oriente 6 No. 1265,Orizaba,Mexico,Chedraui,"{'brand': 'Chedraui', 'fascia': 'Chedraui', 'category': 'Retail', 'edit_date': '20250426', 'lat_lon_source': 'google'}",18.847772,-97.092301,"{'opening_hours': {'Mon': '07:00-23:00', 'Tue': '07:00-23:00', 'Wed': '07:00-23:00', 'Thu': '07:00-23:00', 'Fri': '07:00-23:00', 'Sat': '07:00-23:00', 'Sun': '07:00-23:00'}}",,032,94300,Chedraui Orizaba Centro,,https://www.chedraui.com.mx/encuentra-tu-tienda
Av. Fernando de Alva No. 76,Ciudad Sahagún,Mexico,Chedraui,"{'brand': 'Chedraui', 'fascia': 'Chedraui', 'category': 'Retail', 'edit_date': '20250426', 'lat_lon_source': 'google'}",19.7769517,-98.58010403,"{'opening_hours': {'Mon': '07:00-23:00', 'Tue': '07:00-23:00', 'Wed': '07:00-23:00', 'Thu': '07:00-23:00', 'Fri': '07:00-23:00', 'Sat': '07:00-23:00', 'Sun': '07:00-23:00'}}",,735,43990,Super Chedraui Sahagún Hidalgo,,https://www.chedraui.com.mx/encuentra-tu-tienda
Blvd. Sur Dr. Belisario Domínguez No. 809,Comitán De Domínguez,Mexico,Chedraui,"{'brand': 'Chedraui', 'fascia': 'Chedraui', 'category': 'Retail', 'edit_date': '20250426', 'lat_lon_source': 'google'}",16.242477,-92.137693,"{'opening_hours': {'Mon': '07:00-23:00', 'Tue': '07:00-23:00', 'Wed': '07:00-23:00', 'Thu': '07:00-23:00', 'Fri': '07:00-23:00', 'Sat': '07:00-23:00', 'Sun': '07:00-23:00'}}",,183,30029,Chedraui Comitán,,https://www.chedraui.com.mx/encuentra-tu-tienda
Blvrd. Benito Juárez No. 1291,San Juan Bautista Tuxtepec,Mexico,Chedraui,"{'brand': 'Chedraui', 'fascia': 'Chedraui', 'category': 'Retail', 'edit_date': '20250426', 'lat_lon_source': 'google'}",18.091747,-96.130865,"{'opening_hours': {'Mon': '07:00-23:59', 'Tue': '07:00-23:59', 'Wed': '07:00-23:59', 'Thu': '07:00-23:59', 'Fri': '07:00-23:59', 'Sat': '07:00-23:59', 'Sun': '07:00-23:59'}}",,042,68300,Chedraui Tuxtepec Los Ángeles,,https://www.chedraui.com.mx/encuentra-tu-tienda
Carret. Transistmica No. 932,Jáltipan De Morelos,Mexico,Chedraui,"{'brand': 'Chedraui', 'fascia': 'Chedraui', 'category': 'Retail', 'edit_date': '20250426', 'lat_lon_source': 'google'}",17.960545,-94.71225,"{'opening_hours': {'Mon': '07:00-23:59', 'Tue': '07:00-23:59', 'Wed': '07:00-23:59', 'Thu': '07:00-23:59', 'Fri': '07:00-23:59', 'Sat': '07:00-23:59', 'Sun': '07:00-23:59'}}",,616,96280,Super Chedraui Jaltipan,,https://www.chedraui.com.mx/encuentra-tu-tienda
Colima S/N,La Paz,Mexico,Chedraui,"{'brand': 'Chedraui', 'fascia': 'Chedraui', 'category': 'Retail', 'edit_date': '20250426', 'lat_lon_source': 'google'}",24.142779,-110.330912,"{'opening_hours': {'Mon': '07:00-23:00', 'Tue': '07:00-23:00', 'Wed': '07:00-23:00', 'Thu': '07:00-23:00', 'Fri': '07:00-23:00', 'Sat': '07:00-23:00', 'Sun': '07:00-23:00'}}",,127,23096,Chedraui La Paz Colima,,https://www.chedraui.com.mx/encuentra-tu-tienda
Av. Antonio Díaz Varela No. 72,Santa Ana Chiautempan,Mexico,Chedraui,"{'brand': 'Chedraui', 'fascia': 'Chedraui', 'category': 'Retail', 'edit_date': '20250426', 'lat_lon_source': 'google'}",19.316616,-98.199988,"{'opening_hours': {'Mon': '07:00-23:00', 'Tue': '07:00-23:00', 'Wed': '07:00-23:00', 'Thu': '07:00-23:00', 'Fri': '07:00-23:00', 'Sat': '07:00-23:00', 'Sun': '07:00-23:00'}}",,193,90800,Chedraui Chiautenpam Tlaxcala,,https://www.chedraui.com.mx/encuentra-tu-tienda
Carretera Atizapán-Villa Nicolás Romero No. 4,Nicolas Romero,Mexico,Chedraui,"{'brand': 'Chedraui', 'fascia': 'Chedraui', 'category': 'Retail', 'edit_date': '20250426', 'lat_lon_source': 'google'}",19.593917,-99.279943,"{'opening_hours': {'Mon': '07:00-23:00', 'Tue': '07:00-23:00', 'Wed': '07:00-23:00', 'Thu': '07:00-23:00', 'Fri': '07:00-23:00', 'Sat': '07:00-23:00', 'Sun': '07:00-23:00'}}",,111,54473,Chedraui  Nicolás Romero,,https://www.chedraui.com.mx/encuentra-tu-tienda
Pról. Federalismo Norte No. 1786,Zapopan,Mexico,Chedraui,"{'brand': 'Chedraui', 'fascia': 'Chedraui', 'category': 'Retail', 'edit_date': '20250426', 'lat_lon_source': 'google'}",20.735654,-103.349978,"{'opening_hours': {'Mon': '07:00-23:00', 'Tue': '07:00-23:00', 'Wed': '07:00-23:00', 'Thu': '07:00-23:00', 'Fri': '07:00-23:00', 'Sat': '07:00-23:00', 'Sun': '07:00-23:00'}}",,114,45180,Chedraui Guadalajara Federalismo,,https://www.chedraui.com.mx/encuentra-tu-tienda
Calle Panaderos No. 80,Venustiano Carranza,Mexico,Chedraui,"{'brand': 'Chedraui', 'fascia': 'Chedraui', 'category': 'Retail', 'edit_date': '20250426', 'lat_lon_source': 'google'}",19.446395,-99.12152,"{'opening_hours': {'Mon': '07:00-22:00', 'Tue': '07:00-22:00', 'Wed': '07:00-22:00', 'Thu': '07:00-22:00', 'Fri': '07:00-22:00', 'Sat': '07:00-22:00', 'Sun': '07:00-22:00'}}",,746,15270,Supercito Morelos Venustiano Carranza,,https://www.chedraui.com.mx/encuentra-tu-tienda
Blvd. Niños Héroes No. 814,Atlixco,Mexico,Chedraui,"{'brand': 'Chedraui', 'fascia': 'Chedraui', 'category': 'Retail', 'edit_date': '20250426', 'lat_lon_source': 'google'}",18.896823,-98.43212,"{'opening_hours': {'Mon': '07:00-23:00', 'Tue': '07:00-23:00', 'Wed': '07:00-23:00', 'Thu': '07:00-23:00', 'Fri': '07:00-23:00', 'Sat': '07:00-23:00', 'Sun': '07:00-23:00'}}",,191,74295,Chedraui Atlixco,,https://www.chedraui.com.mx/encuentra-tu-tienda
Carret. A Santiago Tepelcatlalpan No. 400,Xochimilco,Mexico,Chedraui,"{'brand': 'Chedraui', 'fascia': 'Chedraui', 'category': 'Retail', 'edit_date': '20250426', 'lat_lon_source': 'google'}",19.257629,-99.122421,"{'opening_hours': {'Mon': '07:00-23:00', 'Tue': '07:00-23:00', 'Wed': '07:00-23:00', 'Thu': '07:00-23:00', 'Fri': '07:00-23:00', 'Sat': '07:00-23:00', 'Sun': '07:00-23:00'}}",,154,16210,Chedraui  Xochimilco,,https://www.chedraui.com.mx/encuentra-tu-tienda
Av. José María Castorena No. 316,Cuajimalpa de Morelos,Mexico,Chedraui,"{'brand': 'Chedraui', 'fascia': 'Chedraui', 'category': 'Retail', 'edit_date': '20250426', 'lat_lon_source': 'google'}",19.360418,-99.293033,"{'opening_hours': {'Mon': '07:00-23:00', 'Tue': '07:00-23:00', 'Wed': '07:00-23:00', 'Thu': '07:00-23:00', 'Fri': '07:00-23:00', 'Sat': '07:00-23:00', 'Sun': '07:00-23:00'}}",,147,05000,Chedraui  Cuajimalpa Frondoso,,https://www.chedraui.com.mx/encuentra-tu-tienda
Carr. Palenque Pakal-Na No. 84,Palenque,Mexico,Chedraui,"{'brand': 'Chedraui', 'fascia': 'Chedraui', 'category': 'Retail', 'edit_date': '20250426', 'lat_lon_source': 'google'}",17.51251,-91.990999,"{'opening_hours': {'Mon': '07:00-23:00', 'Tue': '07:00-23:00', 'Wed': '07:00-23:00', 'Thu': '07:00-23:00', 'Fri': '07:00-23:00', 'Sat': '07:00-23:00', 'Sun': '07:00-23:00'}}",,604,29960,Chedraui Palenque,,https://www.chedraui.com.mx/encuentra-tu-tienda
Blvrd. José Ma. Chavez No. 1809,Aguascalientes,Mexico,Chedraui,"{'brand': 'Chedraui', 'fascia': 'Chedraui', 'category': 'Retail', 'edit_date': '20250426', 'lat_lon_source': 'google'}",21.855106,-102.293637,"{'opening_hours': {'Mon': '07:00-00:00', 'Tue': '07:00-00:00', 'Wed': '07:00-00:00', 'Thu': '07:00-00:00', 'Fri': '07:00-00:00', 'Sat': '07:00-00:00', 'Sun': '07:00-00:00'}}",,250,20280,Chedraui Aguascalientes Asunción,,https://www.chedraui.com.mx/encuentra-tu-tienda
Av. Oaxaca No. 105,Puerto Escondido,Mexico,Chedraui,"{'brand': 'Chedraui', 'fascia': 'Chedraui', 'category': 'Retail', 'edit_date': '20250426', 'lat_lon_source': 'google'}",15.8625,-97.067466,"{'opening_hours': {'Mon': '07:00-23:00', 'Tue': '07:00-23:00', 'Wed': '07:00-23:00', 'Thu': '07:00-23:00', 'Fri': '07:00-23:00', 'Sat': '07:00-23:00', 'Sun': '07:00-23:00'}}",,617,71980,Chedraui Puerto Escondido,,https://www.chedraui.com.mx/encuentra-tu-tienda
Salvador Díaz Mirón No. 400,Veracruz,Mexico,Chedraui,"{'brand': 'Chedraui', 'fascia': 'Chedraui', 'category': 'Retail', 'edit_date': '20250426', 'lat_lon_source': 'google'}",19.190841,-96.134113,"{'opening_hours': {'Mon': '07:00-23:00', 'Tue': '07:00-23:00', 'Wed': '07:00-23:00', 'Thu': '07:00-23:00', 'Fri': '07:00-23:00', 'Sat': '07:00-23:00', 'Sun': '07:00-23:00'}}",,005,91700,Chedraui Veracruz Centro,,https://www.chedraui.com.mx/encuentra-tu-tienda
Av. Acueducto No. 6050,Zapopan,Mexico,Chedraui,"{'brand': 'Chedraui', 'fascia': 'Chedraui', 'category': 'Retail', 'edit_date': '20250426', 'lat_lon_source': 'google'}",20.722722,-103.415515,"{'opening_hours': {'Mon': '07:00-23:00', 'Tue': '07:00-23:00', 'Wed': '07:00-23:00', 'Thu': '07:00-23:00', 'Fri': '07:00-23:00', 'Sat': '07:00-23:00', 'Sun': '07:00-23:00'}}",,249,45110,Chedraui Selecto Guadalajara Acueducto,,https://www.chedraui.com.mx/encuentra-tu-tienda
Av. Santa Cruz Ojo De Agua No. 88,Ojo De Agua,Mexico,Chedraui,"{'brand': 'Chedraui', 'fascia': 'Chedraui', 'category': 'Retail', 'edit_date': '20250426', 'lat_lon_source': 'google'}",19.66522,-99.01798,"{'opening_hours': {'Mon': '07:00-23:00', 'Tue': '07:00-23:00', 'Wed': '07:00-23:00', 'Thu': '07:00-23:00', 'Fri': '07:00-23:00', 'Sat': '07:00-23:00', 'Sun': '07:00-23:00'}}",,107,55770,Chedraui  Ojo De Agua,,https://www.chedraui.com.mx/encuentra-tu-tienda
Río Churubusco No. 1072,Iztapalapa,Mexico,Chedraui,"{'brand': 'Chedraui', 'fascia': 'Chedraui', 'category': 'Retail', 'edit_date': '20250426', 'lat_lon_source': 'google'}",19.378811,-99.102248,"{'opening_hours': {'Mon': '07:00-23:00', 'Tue': '07:00-23:00', 'Wed': '07:00-23:00', 'Thu': '07:00-23:00', 'Fri': '07:00-23:00', 'Sat': '07:00-23:00', 'Sun': '07:00-23:00'}}",,121,09420,Chedraui  Churubusco,,https://www.chedraui.com.mx/encuentra-tu-tienda
Blvrd. Xonaca  No. 3408,Puebla,Mexico,Chedraui,"{'brand': 'Chedraui', 'fascia': 'Chedraui', 'category': 'Retail', 'edit_date': '20250426', 'lat_lon_source': 'google'}",19.049422,-98.17051,"{'opening_hours': {'Mon': '07:00-23:00', 'Tue': '07:00-23:00', 'Wed': '07:00-23:00', 'Thu': '07:00-23:00', 'Fri': '07:00-23:00', 'Sat': '07:00-23:00', 'Sun': '07:00-23:00'}}",,092,72270,Chedraui Puebla Xonaca,,https://www.chedraui.com.mx/encuentra-tu-tienda
Paseo José Narciso Rovirosa No. 130,Macuspana,Mexico,Chedraui,"{'brand': 'Chedraui', 'fascia': 'Chedraui', 'category': 'Retail', 'edit_date': '20250426', 'lat_lon_source': 'google'}",17.763775,-92.596582,"{'opening_hours': {'Mon': '07:00-22:00', 'Tue': '07:00-22:00', 'Wed': '07:00-22:00', 'Thu': '07:00-22:00', 'Fri': '07:00-22:00', 'Sat': '07:00-22:00', 'Sun': '07:00-22:00'}}",,614,86706,Super Chedraui Macuspana,,https://www.chedraui.com.mx/encuentra-tu-tienda
Paseo Cuauhnáhuac Km 1.5 S/N,Cuernavaca,Mexico,Chedraui,"{'brand': 'Chedraui', 'fascia': 'Chedraui', 'category': 'Retail', 'edit_date': '20250426', 'lat_lon_source': 'google'}",18.920907,-99.197826,"{'opening_hours': {'Mon': '07:00-23:00', 'Tue': '07:00-23:00', 'Wed': '07:00-23:00', 'Thu': '07:00-23:00', 'Fri': '07:00-23:00', 'Sat': '07:00-23:00', 'Sun': '07:00-23:00'}}",,238,62370,Chedraui Cuernavaca Flores Magón,,https://www.chedraui.com.mx/encuentra-tu-tienda
Av. Arco Norte S/N,Cancún,Mexico,Chedraui,"{'brand': 'Chedraui', 'fascia': 'Chedraui', 'category': 'Retail', 'edit_date': '20250426', 'lat_lon_source': 'google'}",21.175643,-86.913241,"{'opening_hours': {'Mon': '07:00-23:00', 'Tue': '07:00-23:00', 'Wed': '07:00-23:00', 'Thu': '07:00-23:00', 'Fri': '07:00-23:00', 'Sat': '07:00-23:00', 'Sun': '07:00-23:00'}}",,184,77519,Chedraui Cancún Arco Norte,,https://www.chedraui.com.mx/encuentra-tu-tienda
Av. De Los Bosques No. 128,Naucalpan De Juárez,Mexico,Chedraui,"{'brand': 'Chedraui', 'fascia': 'Chedraui', 'category': 'Retail', 'edit_date': '20250426', 'lat_lon_source': 'google'}",19.411127,-99.250931,"{'opening_hours': {'Mon': '07:00-23:00', 'Tue': '07:00-23:00', 'Wed': '07:00-23:00', 'Thu': '07:00-23:00', 'Fri': '07:00-23:00', 'Sat': '07:00-23:00', 'Sun': '07:00-23:00'}}",,655,52780,Super Chedraui Selecto Tecamachalco,,https://www.chedraui.com.mx/encuentra-tu-tienda
Calle 2 No. 274,Iztacalco,Mexico,Chedraui,"{'brand': 'Chedraui', 'fascia': 'Chedraui', 'category': 'Retail', 'edit_date': '20250426', 'lat_lon_source': 'google'}",19.417053,-99.066605,"{'opening_hours': {'Mon': '07:00-23:00', 'Tue': '07:00-23:00', 'Wed': '07:00-23:00', 'Thu': '07:00-23:00', 'Fri': '07:00-23:00', 'Sat': '07:00-23:00', 'Sun': '07:00-23:00'}}",,712,08100,Super Che Pantitlán,,https://www.chedraui.com.mx/encuentra-tu-tienda
Calle San Jerónimo No. 236,Coyoacán,Mexico,Chedraui,"{'brand': 'Chedraui', 'fascia': 'Chedraui', 'category': 'Retail', 'edit_date': '20250426', 'lat_lon_source': 'google'}",19.3320403,-99.2062658,"{'opening_hours': {'Mon': '07:00-23:00', 'Tue': '07:00-23:00', 'Wed': '07:00-23:00', 'Thu': '07:00-23:00', 'Fri': '07:00-23:00', 'Sat': '07:00-23:00', 'Sun': '07:00-23:00'}}",,177,04519,Chedraui Selecto Pedregal,,https://www.chedraui.com.mx/encuentra-tu-tienda
Av. Del Niño  No. 121,Matamoros,Mexico,Chedraui,"{'brand': 'Chedraui', 'fascia': 'Chedraui', 'category': 'Retail', 'edit_date': '20250426', 'lat_lon_source': 'google'}",25.836359,-97.49946,"{'opening_hours': {'Mon': '07:00-23:00', 'Tue': '07:00-23:00', 'Wed': '07:00-23:00', 'Thu': '07:00-23:00', 'Fri': '07:00-23:00', 'Sat': '07:00-23:00', 'Sun': '07:00-23:00'}}",,063,87315,Chedraui Matamoros Del Niño,,https://www.chedraui.com.mx/encuentra-tu-tienda
Av. Miguel De Cervantes Saavedra No. 397,Miguel Hidalgo,Mexico,Chedraui,"{'brand': 'Chedraui', 'fascia': 'Chedraui', 'category': 'Retail', 'edit_date': '20250426', 'lat_lon_source': 'google'}",19.441868,-99.206893,"{'opening_hours': {'Mon': '07:00-23:59', 'Tue': '07:00-23:59', 'Wed': '07:00-23:59', 'Thu': '07:00-23:59', 'Fri': '07:00-23:59', 'Sat': '07:00-23:59', 'Sun': '07:00-23:59'}}",,232,11579,Chedraui Selecto Polanco,,https://www.chedraui.com.mx/encuentra-tu-tienda
Pról. Guadalupe Victoria No. 471 Norte,Metepec,Mexico,Chedraui,"{'brand': 'Chedraui', 'fascia': 'Chedraui', 'category': 'Retail', 'edit_date': '20250426', 'lat_lon_source': 'google'}",19.258808,-99.628236,"{'opening_hours': {'Mon': '07:00-23:00', 'Tue': '07:00-23:00', 'Wed': '07:00-23:00', 'Thu': '07:00-23:00', 'Fri': '07:00-23:00', 'Sat': '07:00-23:00', 'Sun': '07:00-23:00'}}",,243,52140,Chedraui Toluca Metepec,,https://www.chedraui.com.mx/encuentra-tu-tienda
Blvd. Francisco Medina No. 2735,Puerto Vallarta Jalisco,Mexico,Chedraui,"{'brand': 'Chedraui', 'fascia': 'Chedraui', 'category': 'Retail', 'edit_date': '20250426', 'lat_lon_source': 'google'}",20.650653,-105.241865,"{'opening_hours': {'Mon': '07:00-23:00', 'Tue': '07:00-23:00', 'Wed': '07:00-23:00', 'Thu': '07:00-23:00', 'Fri': '07:00-23:00', 'Sat': '07:00-23:00', 'Sun': '07:00-23:00'}}",,264,48310,Chedraui Puerto Vallarta,,https://www.chedraui.com.mx/encuentra-tu-tienda
Av. Aquiles Serdán No. 1102,Tierra Blanca,Mexico,Chedraui,"{'brand': 'Chedraui', 'fascia': 'Chedraui', 'category': 'Retail', 'edit_date': '20250426', 'lat_lon_source': 'google'}",18.451735,-96.353053,"{'opening_hours': {'Mon': '07:00-23:00', 'Tue': '07:00-23:00', 'Wed': '07:00-23:00', 'Thu': '07:00-23:00', 'Fri': '07:00-23:00', 'Sat': '07:00-23:00', 'Sun': '07:00-23:00'}}",,605,95110,Chedraui Tierra Blanca,,https://www.chedraui.com.mx/encuentra-tu-tienda
Avenida 6ª. No. 200,Matamoros,Mexico,Chedraui,"{'brand': 'Chedraui', 'fascia': 'Chedraui', 'category': 'Retail', 'edit_date': '20250426', 'lat_lon_source': 'google'}",25.869766,-97.503237,"{'opening_hours': {'Mon': '07:00-23:00', 'Tue': '07:00-23:00', 'Wed': '07:00-23:00', 'Thu': '07:00-23:00', 'Fri': '07:00-23:00', 'Sat': '07:00-23:00', 'Sun': '07:00-23:00'}}",,054,87300,Chedraui Matamoros Sexta,,https://www.chedraui.com.mx/encuentra-tu-tienda
Calle Orquídeas Sm 259 Mza 101 L-01,Benito Juárez,Mexico,Chedraui,"{'brand': 'Chedraui', 'fascia': 'Chedraui', 'category': 'Retail', 'edit_date': '20250426', 'lat_lon_source': 'google'}",21.14519,-86.905778,"{'opening_hours': {'Mon': '07:00-23:00', 'Tue': '07:00-23:00', 'Wed': '07:00-23:00', 'Thu': '07:00-23:00', 'Fri': '07:00-23:00', 'Sat': '07:00-23:00', 'Sun': '07:00-23:00'}}",,134,77500,Chedraui Cancún Lankin,,https://www.chedraui.com.mx/encuentra-tu-tienda
Av. Corregidora No. 600,Emiliano Zapata,Mexico,Chedraui,"{'brand': 'Chedraui', 'fascia': 'Chedraui', 'category': 'Retail', 'edit_date': '20250426', 'lat_lon_source': 'google'}",17.742385,-91.772016,"{'opening_hours': {'Mon': '07:00-22:00', 'Tue': '07:00-22:00', 'Wed': '07:00-22:00', 'Thu': '07:00-22:00', 'Fri': '07:00-22:00', 'Sat': '07:00-22:00', 'Sun': '07:00-22:00'}}",,632,86981,Super Chedraui Emiliano Zapata,,https://www.chedraui.com.mx/encuentra-tu-tienda
Av. Central No. 258,Azcapotzalco,Mexico,Chedraui,"{'brand': 'Chedraui', 'fascia': 'Chedraui', 'category': 'Retail', 'edit_date': '20250426', 'lat_lon_source': 'google'}",19.476131,-99.156639,"{'opening_hours': {'Mon': '07:00-23:00', 'Tue': '07:00-23:00', 'Wed': '07:00-23:00', 'Thu': '07:00-23:00', 'Fri': '07:00-23:00', 'Sat': '07:00-23:00', 'Sun': '07:00-23:00'}}",,743,2600,Supercito Pro-Hogar,,https://www.chedraui.com.mx/encuentra-tu-tienda
Jacinto Lopez S/N,Cárdenas,Mexico,Chedraui,"{'brand': 'Chedraui', 'fascia': 'Chedraui', 'category': 'Retail', 'edit_date': '20250426', 'lat_lon_source': 'google'}",17.987489,-93.383642,"{'opening_hours': {'Mon': '07:00-23:00', 'Tue': '07:00-23:00', 'Wed': '07:00-23:00', 'Thu': '07:00-23:00', 'Fri': '07:00-23:00', 'Sat': '07:00-23:00', 'Sun': '07:00-23:00'}}",,031,86500,Chedraui Cardenas Pueblo Nuevo,,https://www.chedraui.com.mx/encuentra-tu-tienda
Calz. Club De Leones No. 56,Teloloapan,Mexico,Chedraui,"{'brand': 'Chedraui', 'fascia': 'Chedraui', 'category': 'Retail', 'edit_date': '20250426', 'lat_lon_source': 'google'}",18.366348,-99.863396,"{'opening_hours': {'Mon': '07:00-20:00', 'Tue': '07:00-20:00', 'Wed': '07:00-20:00', 'Thu': '07:00-20:00', 'Fri': '07:00-20:00', 'Sat': '07:00-20:00', 'Sun': '07:00-20:00'}}",,619,40400,Super Chedraui Teloloapan,,https://www.chedraui.com.mx/encuentra-tu-tienda
Parque Central No. 44,Tlalnepantla De Baz,Mexico,Chedraui,"{'brand': 'Chedraui', 'fascia': 'Chedraui', 'category': 'Retail', 'edit_date': '20250426', 'lat_lon_source': 'google'}",19.523921,-99.212811,"{'opening_hours': {'Mon': '07:00-23:00', 'Tue': '07:00-23:00', 'Wed': '07:00-23:00', 'Thu': '07:00-23:00', 'Fri': '07:00-23:00', 'Sat': '07:00-23:00', 'Sun': '07:00-23:00'}}",,667,54070,Super Chedraui Viveros,,https://www.chedraui.com.mx/encuentra-tu-tienda
Boulevard Salvador Diaz Mirón No. 701,Pánuco,Mexico,Chedraui,"{'brand': 'Chedraui', 'fascia': 'Chedraui', 'category': 'Retail', 'edit_date': '20250426', 'lat_lon_source': 'google'}",22.058716,-98.185951,"{'opening_hours': {'Mon': '07:00-23:00', 'Tue': '07:00-23:00', 'Wed': '07:00-23:00', 'Thu': '07:00-23:00', 'Fri': '07:00-23:00', 'Sat': '07:00-23:00', 'Sun': '07:00-23:00'}}",,673,93990,Super Chedraui Panuco,,https://www.chedraui.com.mx/encuentra-tu-tienda
Calle. Manuel Salazar No. 197,Azcapotzalco,Mexico,Chedraui,"{'brand': 'Chedraui', 'fascia': 'Chedraui', 'category': 'Retail', 'edit_date': '20250426', 'lat_lon_source': 'google'}",19.493975,-99.206793,"{'opening_hours': {'Mon': '07:00-22:00', 'Tue': '07:00-22:00', 'Wed': '07:00-22:00', 'Thu': '07:00-22:00', 'Fri': '07:00-22:00', 'Sat': '07:00-22:00', 'Sun': '07:00-22:00'}}",,732,02400,Supercito Azcapotzalco,,https://www.chedraui.com.mx/encuentra-tu-tienda
Av. Aquiles Serdán No. 1725,Nuevo Laredo,Mexico,Chedraui,"{'brand': 'Chedraui', 'fascia': 'Chedraui', 'category': 'Retail', 'edit_date': '20250426', 'lat_lon_source': 'google'}",27.484441,-99.503353,"{'opening_hours': {'Mon': '07:00-23:00', 'Tue': '07:00-23:00', 'Wed': '07:00-23:00', 'Thu': '07:00-23:00', 'Fri': '07:00-23:00', 'Sat': '07:00-23:00', 'Sun': '07:00-23:00'}}",,065,88050,Chedraui Nuevo Laredo Aquiles Serdán,,https://www.chedraui.com.mx/encuentra-tu-tienda
Montecito 38,Benito Juarez,Mexico,Chedraui,"{'brand': 'Chedraui', 'fascia': 'Chedraui', 'category': 'Retail', 'edit_date': '20250426', 'lat_lon_source': 'google'}",19.394289,-99.173965,{'opening_hours': {}},,814,03810,Super Chedraui Selecto WTC,,https://www.chedraui.com.mx/encuentra-tu-tienda
Carret Mex-Tampico Km 215 S/N,Huejutla De Reyes,Mexico,Chedraui,"{'brand': 'Chedraui', 'fascia': 'Chedraui', 'category': 'Retail', 'edit_date': '20250426', 'lat_lon_source': 'google'}",21.143479,-98.413477,"{'opening_hours': {'Mon': '07:00-23:00', 'Tue': '07:00-23:00', 'Wed': '07:00-23:00', 'Thu': '07:00-23:00', 'Fri': '07:00-23:00', 'Sat': '07:00-23:00', 'Sun': '07:00-23:00'}}",,649,43000,Chedraui Huejutla De Reyes,,https://www.chedraui.com.mx/encuentra-tu-tienda
Av. Universidad No. 740  Col. Sta. Cruz Atoyac.,Benito Juárez,Mexico,Chedraui,"{'brand': 'Chedraui', 'fascia': 'Chedraui', 'category': 'Retail', 'edit_date': '20250426', 'lat_lon_source': 'google'}",19.373422,-99.162219,"{'opening_hours': {'Mon': '07:00-23:00', 'Tue': '07:00-23:00', 'Wed': '07:00-23:00', 'Thu': '07:00-23:00', 'Fri': '07:00-23:00', 'Sat': '07:00-23:00', 'Sun': '07:00-23:00'}}",,235,03300,Chedraui Selecto Universidad,,https://www.chedraui.com.mx/encuentra-tu-tienda
Calle 26 No. 804,Tenosique de Pino,Mexico,Chedraui,"{'brand': 'Chedraui', 'fascia': 'Chedraui', 'category': 'Retail', 'edit_date': '20250426', 'lat_lon_source': 'google'}",17.472369,-91.425605,"{'opening_hours': {'Mon': '07:00-23:00', 'Tue': '07:00-23:00', 'Wed': '07:00-23:00', 'Thu': '07:00-23:00', 'Fri': '07:00-23:00', 'Sat': '07:00-23:00', 'Sun': '07:00-23:00'}}",,659,86901,Super Chedraui Tenosique,,https://www.chedraui.com.mx/encuentra-tu-tienda
Av. 7 Pte. No. 644,Huatusco de Chicuellar,Mexico,Chedraui,"{'brand': 'Chedraui', 'fascia': 'Chedraui', 'category': 'Retail', 'edit_date': '20250426', 'lat_lon_source': 'google'}",19.146846,-96.967404,"{'opening_hours': {'Mon': '07:00-22:30', 'Tue': '07:00-22:30', 'Wed': '07:00-22:30', 'Thu': '07:00-22:30', 'Fri': '07:00-22:30', 'Sat': '07:00-22:30', 'Sun': '07:00-22:30'}}",,660,94100,Super Chedraui Huatusco,,https://www.chedraui.com.mx/encuentra-tu-tienda
Calle 5 De Mayo No. 103,San Luis De La Paz,Mexico,Chedraui,"{'brand': 'Chedraui', 'fascia': 'Chedraui', 'category': 'Retail', 'edit_date': '20250426', 'lat_lon_source': 'google'}",21.30034,-100.513424,"{'opening_hours': {'Mon': '07:00-22:00', 'Tue': '07:00-22:00', 'Wed': '07:00-22:00', 'Thu': '07:00-22:00', 'Fri': '07:00-22:00', 'Sat': '07:00-22:00', 'Sun': '07:00-22:00'}}",,643,37900,Super Chedraui San Luis De La Paz,,https://www.chedraui.com.mx/encuentra-tu-tienda
Calz. Pie De La Cuesta No. 239,Acapulco De Juárez,Mexico,Chedraui,"{'brand': 'Chedraui', 'fascia': 'Chedraui', 'category': 'Retail', 'edit_date': '20250426', 'lat_lon_source': 'google'}",16.857859,-99.91569,"{'opening_hours': {'Mon': '07:00-23:00', 'Tue': '07:00-23:00', 'Wed': '07:00-23:00', 'Thu': '07:00-23:00', 'Fri': '07:00-23:00', 'Sat': '07:00-23:00', 'Sun': '07:00-23:00'}}",,254,39480,Chedraui Acapulco Pie De La Cuesta,,https://www.chedraui.com.mx/encuentra-tu-tienda
Av. Universidad Veracruzana Km. 9.5,Coatzacoalcos,Mexico,Chedraui,"{'brand': 'Chedraui', 'fascia': 'Chedraui', 'category': 'Retail', 'edit_date': '20250426', 'lat_lon_source': 'google'}",18.138064,-94.49998,"{'opening_hours': {'Mon': '07:00-23:59', 'Tue': '07:00-23:59', 'Wed': '07:00-23:59', 'Thu': '07:00-23:59', 'Fri': '07:00-23:59', 'Sat': '07:00-23:59', 'Sun': '07:00-23:59'}}",,150,96536,Chedraui Coatzacoalcos Universidad,,https://www.chedraui.com.mx/encuentra-tu-tienda
Blvrd. Adolfo Lopez Mateos Norte No. 102,Comalcalco,Mexico,Chedraui,"{'brand': 'Chedraui', 'fascia': 'Chedraui', 'category': 'Retail', 'edit_date': '20250426', 'lat_lon_source': 'google'}",18.267471,-93.21827,"{'opening_hours': {'Mon': '07:00-22:00', 'Tue': '07:00-22:00', 'Wed': '07:00-22:00', 'Thu': '07:00-22:00', 'Fri': '07:00-22:00', 'Sat': '07:00-22:00', 'Sun': '07:00-22:00'}}",,113,86300,Chedraui Comalcalco Norte,,https://www.chedraui.com.mx/encuentra-tu-tienda
Av. Ruiz Cortines No. 1310,Villahermosa,Mexico,Chedraui,"{'brand': 'Chedraui', 'fascia': 'Chedraui', 'category': 'Retail', 'edit_date': '20250426', 'lat_lon_source': 'google'}",17.995158,-92.943238,"{'opening_hours': {'Mon': '07:00-23:00', 'Tue': '07:00-23:00', 'Wed': '07:00-23:00', 'Thu': '07:00-23:00', 'Fri': '07:00-23:00', 'Sat': '07:00-23:00', 'Sun': '07:00-23:00'}}",,024,86030,Chedraui Selecto Villahermosa Olmeca,,https://www.chedraui.com.mx/encuentra-tu-tienda
Av. Eduardo Molina No. 1623,Gustavo A. Madero,Mexico,Chedraui,"{'brand': 'Chedraui', 'fascia': 'Chedraui', 'category': 'Retail', 'edit_date': '20250426', 'lat_lon_source': 'google'}",19.485285,-99.093089,"{'opening_hours': {'Mon': '07:00-23:00', 'Tue': '07:00-23:00', 'Wed': '07:00-23:00', 'Thu': '07:00-23:00', 'Fri': '07:00-23:00', 'Sat': '07:00-23:00', 'Sun': '07:00-23:00'}}",,239,07420,Chedraui  Molina,,https://www.chedraui.com.mx/encuentra-tu-tienda
Av. Tules Super Mza. 248 M11 L111016,Benito Juárez,Mexico,Chedraui,"{'brand': 'Chedraui', 'fascia': 'Chedraui', 'category': 'Retail', 'edit_date': '20250426', 'lat_lon_source': 'google'}",21.189063,-86.871584,"{'opening_hours': {'Mon': '07:00-23:00', 'Tue': '07:00-23:00', 'Wed': '07:00-23:00', 'Thu': '07:00-23:00', 'Fri': '07:00-23:00', 'Sat': '07:00-23:00', 'Sun': '07:00-23:00'}}",,112,77516,Chedraui Cancún Villas Del Mar,,https://www.chedraui.com.mx/encuentra-tu-tienda
Blvd. 5 Febrero No. 131,San Andrés tuxtla,Mexico,Chedraui,"{'brand': 'Chedraui', 'fascia': 'Chedraui', 'category': 'Retail', 'edit_date': '20250426', 'lat_lon_source': 'google'}",18.452086,-95.219293,"{'opening_hours': {'Mon': '07:00-23:59', 'Tue': '07:00-23:59', 'Wed': '07:00-23:59', 'Thu': '07:00-23:59', 'Fri': '07:00-23:59', 'Sat': '07:00-23:59', 'Sun': '07:00-23:59'}}",,675,95700,Chedraui San Andrés Tuxtla,,https://www.chedraui.com.mx/encuentra-tu-tienda
Av. del Peñón 355,Venustiano Carranza,Mexico,Chedraui,"{'brand': 'Chedraui', 'fascia': 'Chedraui', 'category': 'Retail', 'edit_date': '20250426', 'lat_lon_source': 'google'}",19.439867,-99.096905,"{'opening_hours': {'Mon': '07:00-23:00', 'Tue': '07:00-23:00', 'Wed': '07:00-23:00', 'Thu': '07:00-23:00', 'Fri': '07:00-23:00', 'Sat': '07:00-23:00', 'Sun': '07:00-23:00'}}",,182,15530,Super Chedraui Selecto México Oceania,,https://www.chedraui.com.mx/encuentra-tu-tienda
Av. Adolfo Ruiz Cortínez S/N,Villahermosa,Mexico,Chedraui,"{'brand': 'Chedraui', 'fascia': 'Chedraui', 'category': 'Retail', 'edit_date': '20250426', 'lat_lon_source': 'google'}",17.988693,-92.962918,"{'opening_hours': {'Mon': '07:00-23:00', 'Tue': '07:00-23:00', 'Wed': '07:00-23:00', 'Thu': '07:00-23:00', 'Fri': '07:00-23:00', 'Sat': '07:00-23:00', 'Sun': '07:00-23:00'}}",,252,86038,Chedraui Villahermosa Carrizal,,https://www.chedraui.com.mx/encuentra-tu-tienda
Av. Río De La Loza No. 4,Del. Tlanepantla,Mexico,Chedraui,"{'brand': 'Chedraui', 'fascia': 'Chedraui', 'category': 'Retail', 'edit_date': '20250426', 'lat_lon_source': 'google'}",19.544937,-99.152427,"{'opening_hours': {'Mon': '06:00-18:00', 'Tue': '06:00-18:00', 'Wed': '06:00-18:00', 'Thu': '06:00-18:00', 'Fri': '06:00-18:00', 'Sat': '06:00-18:00', 'Sun': '06:00-18:00'}}",,713,07160,Super Che Chalma Norte,,https://www.chedraui.com.mx/encuentra-tu-tienda
Av. Vallarta No. 5556,Zapopan,Mexico,Chedraui,"{'brand': 'Chedraui', 'fascia': 'Chedraui', 'category': 'Retail', 'edit_date': '20250426', 'lat_lon_source': 'google'}",20.682498,-103.434012,"{'opening_hours': {'Mon': '07:00-23:00', 'Tue': '07:00-23:00', 'Wed': '07:00-23:00', 'Thu': '07:00-23:00', 'Fri': '07:00-23:00', 'Sat': '07:00-23:00', 'Sun': '07:00-23:00'}}",,108,45029,Chedraui Guadalajara Vallarta,,https://www.chedraui.com.mx/encuentra-tu-tienda
Km. 4 Carret. Federal 57 Tramo Slp-Matehuala,Soledad De Graciano Sánchez,Mexico,Chedraui,"{'brand': 'Chedraui', 'fascia': 'Chedraui', 'category': 'Retail', 'edit_date': '20250426', 'lat_lon_source': 'google'}",22.183506,-100.952227,"{'opening_hours': {'Mon': '07:00-23:00', 'Tue': '07:00-23:00', 'Wed': '07:00-23:00', 'Thu': '07:00-23:00', 'Fri': '07:00-23:00', 'Sat': '07:00-23:00', 'Sun': '07:00-23:00'}}",,155,78433,Chedraui San Luis Potosí Soledad De Graciano,,https://www.chedraui.com.mx/encuentra-tu-tienda
Blvrd. Manuel Ávila Camacho No. 1007,Tlalnepantla De Baz,Mexico,Chedraui,"{'brand': 'Chedraui', 'fascia': 'Chedraui', 'category': 'Retail', 'edit_date': '20250426', 'lat_lon_source': 'google'}",19.525009,-99.230161,"{'opening_hours': {'Mon': '07:00-23:00', 'Tue': '07:00-23:00', 'Wed': '07:00-23:00', 'Thu': '07:00-23:00', 'Fri': '07:00-23:00', 'Sat': '07:00-23:00', 'Sun': '07:00-23:00'}}",,236,54055,Chedraui  Mundo E,,https://www.chedraui.com.mx/encuentra-tu-tienda
Av. Tepozanes No. 3,Los Reyes La Paz,Mexico,Chedraui,"{'brand': 'Chedraui', 'fascia': 'Chedraui', 'category': 'Retail', 'edit_date': '20250426', 'lat_lon_source': 'google'}",19.362166,-98.988547,"{'opening_hours': {'Mon': '07:00-22:00', 'Tue': '07:00-22:00', 'Wed': '07:00-22:00', 'Thu': '07:00-22:00', 'Fri': '07:00-22:00', 'Sat': '07:00-22:00', 'Sun': '07:00-22:00'}}",,116,56430,Chedraui  Tepozán,,https://www.chedraui.com.mx/encuentra-tu-tienda
Av. Coba Manzana 1 Lote  2,Benito Juárez,Mexico,Chedraui,"{'brand': 'Chedraui', 'fascia': 'Chedraui', 'category': 'Retail', 'edit_date': '20250426', 'lat_lon_source': 'google'}",21.153508,-86.840913,"{'opening_hours': {'Mon': '07:00-23:00', 'Tue': '07:00-23:00', 'Wed': '07:00-23:00', 'Thu': '07:00-23:00', 'Fri': '07:00-23:00', 'Sat': '07:00-23:00', 'Sun': '07:00-23:00'}}",,255,77501,Chedraui Cancún Kabah,,https://www.chedraui.com.mx/encuentra-tu-tienda
4ª Av. Sur Prolong. C Las Palomas No. 224,Tapachula,Mexico,Chedraui,"{'brand': 'Chedraui', 'fascia': 'Chedraui', 'category': 'Retail', 'edit_date': '20250426', 'lat_lon_source': 'google'}",14.894449,-92.276099,"{'opening_hours': {'Mon': '07:00-23:00', 'Tue': '07:00-23:00', 'Wed': '07:00-23:00', 'Thu': '07:00-23:00', 'Fri': '07:00-23:00', 'Sat': '07:00-23:00', 'Sun': '07:00-23:00'}}",,030,30700,Chedraui Tapachula Sur,,https://www.chedraui.com.mx/encuentra-tu-tienda
Av. Prolongación Candiles No. 204,Villa Corregidora,Mexico,Chedraui,"{'brand': 'Chedraui', 'fascia': 'Chedraui', 'category': 'Retail', 'edit_date': '20250426', 'lat_lon_source': 'google'}",20.546129,-100.397015,"{'opening_hours': {'Mon': '07:00-23:00', 'Tue': '07:00-23:00', 'Wed': '07:00-23:00', 'Thu': '07:00-23:00', 'Fri': '07:00-23:00', 'Sat': '07:00-23:00', 'Sun': '07:00-23:00'}}",,095,76903,Chedraui Querétaro Candiles,,https://www.chedraui.com.mx/encuentra-tu-tienda
Calle San Martin 12,Cuautla,Mexico,Chedraui,"{'brand': 'Chedraui', 'fascia': 'Chedraui', 'category': 'Retail', 'edit_date': '20250426', 'lat_lon_source': 'google'}",18.81497,-98.94969,"{'opening_hours': {'Mon': '07:00-23:00', 'Tue': '07:00-23:00', 'Wed': '07:00-23:00', 'Thu': '07:00-23:00', 'Fri': '07:00-23:00', 'Sat': '07:00-23:00', 'Sun': '07:00-23:00'}}",,073,62740,Chedraui Cuautla,,https://www.chedraui.com.mx/encuentra-tu-tienda
Av. Periferico 68,Cunduacán,Mexico,Chedraui,"{'brand': 'Chedraui', 'fascia': 'Chedraui', 'category': 'Retail', 'edit_date': '20250426', 'lat_lon_source': 'google'}",18.06939933987234,-93.17373906682228,"{'opening_hours': {'Mon': '07:00-23:00', 'Tue': '07:00-23:00', 'Wed': '07:00-23:00', 'Thu': '07:00-23:00', 'Fri': '07:00-23:00', 'Sat': '07:00-23:00', 'Sun': '07:00-23:00'}}",,838,86690,Chedraui Cunduacán,,https://www.chedraui.com.mx/encuentra-tu-tienda
Paseo de Zihuatanejo oriente No. 2,Zihuatanejo,Mexico,Chedraui,"{'brand': 'Chedraui', 'fascia': 'Chedraui', 'category': 'Retail', 'edit_date': '20250426', 'lat_lon_source': 'google'}",17.6511,-101.5402,{'opening_hours': {}},,275,40880,Chedraui Zihuatanejo Central,,https://www.chedraui.com.mx/encuentra-tu-tienda
Av. Central Ote. 505,Poza Rica,Mexico,Chedraui,"{'brand': 'Chedraui', 'fascia': 'Chedraui', 'category': 'Retail', 'edit_date': '20250426', 'lat_lon_source': 'google'}",20.520802000,-97.450827000,"{'opening_hours': {'Mon': '07:00-23:59', 'Tue': '07:00-23:59', 'Wed': '07:00-23:59', 'Thu': '07:00-23:59', 'Fri': '07:00-23:59', 'Sat': '07:00-23:59', 'Sun': '07:00-23:59'}}",,676,93260,Chedraui Poza Rica Petromex,,https://www.chedraui.com.mx/encuentra-tu-tienda
Ayutla Cruz Grande 4 s/n,Ayutla De Los Libres,Mexico,Chedraui,"{'brand': 'Chedraui', 'fascia': 'Chedraui', 'category': 'Retail', 'edit_date': '20250426', 'lat_lon_source': 'google'}",16.96031252,-99.10076720,"{'opening_hours': {'Mon': '07:00-23:59', 'Tue': '07:00-23:59', 'Wed': '07:00-23:59', 'Thu': '07:00-23:59', 'Fri': '07:00-23:59', 'Sat': '07:00-23:59', 'Sun': '07:00-23:59'}}",,837,39200,Super Chedraui Ayutla de Libres,,https://www.chedraui.com.mx/encuentra-tu-tienda
