addr_full,brand,city,country,extras,lat,lon,name,opening_hours,phone,postcode,ref,state,website
"Dr. Dürrwanger-Straße 60, 86156 Augsburg",Metro AG,Augsburg,Germany,"{'brand': 'Metro AG', 'fascia': 'Metro AG', 'category': 'Retail', 'edit_date': '20250503', 'lat_lon_source': 'Third Party'}",48.38465,10.85727,METRO Augsburg,"{'opening_hours': {'Mon': '07:00-21:00', 'Tue': '07:00-21:00', 'Wed': '07:00-21:00', 'Thu': '07:00-21:00', 'Fri': '07:00-21:00', 'Sat': '07:00-20:00'}}",082144030,86156,403,,https://www.metro.de/standorte/augsburg
"Nonnendammallee 135, 13599 Berlin",Metro AG,Berlin,Germany,"{'brand': 'Metro AG', 'fascia': 'Metro AG', 'category': 'Retail', 'edit_date': '20250503', 'lat_lon_source': 'Third Party'}",52.5386917,13.245977,METRO Berlin-Berolina,"{'opening_hours': {'Mon': '07:00-22:00', 'Tue': '07:00-22:00', 'Wed': '07:00-22:00', 'Thu': '07:00-22:00', 'Fri': '07:00-22:00', 'Sat': '07:00-20:00'}}",030354820,13599,79,,https://www.metro.de/standorte/berlin-berolina
"An der Ostbahn 5, 10243 Berlin",Metro AG,Berlin,Germany,"{'brand': 'Metro AG', 'fascia': 'Metro AG', 'category': 'Retail', 'edit_date': '20250503', 'lat_lon_source': 'Third Party'}",52.509136,13.443832,METRO Berlin-Friedrichshain,"{'opening_hours': {'Mon': '07:00-22:00', 'Tue': '07:00-22:00', 'Wed': '07:00-22:00', 'Thu': '07:00-22:00', 'Fri': '07:00-22:00', 'Sat': '07:00-20:00'}}",0302757120,10243,32,,https://www.metro.de/standorte/berlin-friedrichshain
"Buckower Chaussee 25-35, 12277 Berlin",Metro AG,Berlin,Germany,"{'brand': 'Metro AG', 'fascia': 'Metro AG', 'category': 'Retail', 'edit_date': '20250503', 'lat_lon_source': 'Third Party'}",52.41289,13.39062,METRO Berlin-Marienfelde,"{'opening_hours': {'Mon': '07:00-21:00', 'Tue': '07:00-21:00', 'Wed': '07:00-21:00', 'Thu': '07:00-21:00', 'Fri': '07:00-21:00', 'Sat': '07:00-20:00'}}",030762800,12277,22,,https://www.metro.de/standorte/berlin-marienfelde
"Dieselstraße 13, 38122 Braunschweig",Metro AG,Braunschweig,Germany,"{'brand': 'Metro AG', 'fascia': 'Metro AG', 'category': 'Retail', 'edit_date': '20250503', 'lat_lon_source': 'Third Party'}",52.21628,10.49736,METRO Braunschweig,"{'opening_hours': {'Mon': '07:00-21:00', 'Tue': '07:00-21:00', 'Wed': '07:00-21:00', 'Thu': '07:00-21:00', 'Fri': '07:00-21:00', 'Sat': '07:00-20:00'}}",053128800,38122,36,,https://www.metro.de/standorte/braunschweig
"Neuenlander Straße 111, 28201 Bremen",Metro AG,Bremen,Germany,"{'brand': 'Metro AG', 'fascia': 'Metro AG', 'category': 'Retail', 'edit_date': '20250503', 'lat_lon_source': 'Third Party'}",53.05199,8.80457,METRO Bremen,"{'opening_hours': {'Mon': '07:00-22:00', 'Tue': '07:00-22:00', 'Wed': '07:00-22:00', 'Thu': '07:00-22:00', 'Fri': '07:00-22:00', 'Sat': '07:00-20:00'}}",042155940,28201,31,,https://www.metro.de/standorte/bremen
"Zusestraße 6, 85649 Brunnthal",Metro AG,Brunnthal,Germany,"{'brand': 'Metro AG', 'fascia': 'Metro AG', 'category': 'Retail', 'edit_date': '20250503', 'lat_lon_source': 'Third Party'}",48.0387894,11.6583578,METRO Brunnthal,"{'opening_hours': {'Mon': '07:00-22:00', 'Tue': '07:00-22:00', 'Wed': '07:00-22:00', 'Thu': '07:00-22:00', 'Fri': '07:00-22:00', 'Sat': '07:00-20:00'}}",0892420790,85649,30,,https://www.metro.de/standorte/brunnthal
"Röhrsdorfer Allee 1, 09247 Chemnitz-Röhrsdorf",Metro AG,Chemnitz-Röhrsdorf,Germany,"{'brand': 'Metro AG', 'fascia': 'Metro AG', 'category': 'Retail', 'edit_date': '20250503', 'lat_lon_source': 'Third Party'}",50.86416,12.86062,METRO Chemnitz-Röhrsdorf,"{'opening_hours': {'Mon': '07:00-21:00', 'Tue': '07:00-21:00', 'Wed': '07:00-21:00', 'Thu': '07:00-21:00', 'Fri': '07:00-21:00', 'Sat': '07:00-20:00'}}",037226030,09247,109,,https://www.metro.de/standorte/roehrsdorf
"Brackeler Straße 51, 44145 Dortmund",Metro AG,Dortmund,Germany,"{'brand': 'Metro AG', 'fascia': 'Metro AG', 'category': 'Retail', 'edit_date': '20250503', 'lat_lon_source': 'Third Party'}",51.52393,7.48932,METRO Dortmund-Mitte,"{'opening_hours': {'Mon': '07:00-22:00', 'Tue': '07:00-22:00', 'Wed': '07:00-22:00', 'Thu': '07:00-22:00', 'Fri': '07:00-22:00', 'Sat': '07:00-20:00'}}",023198310,44145,24,,https://www.metro.de/standorte/dortmund-mitte
"Borussiastraße 101, 44149 Dortmund",Metro AG,Dortmund,Germany,"{'brand': 'Metro AG', 'fascia': 'Metro AG', 'category': 'Retail', 'edit_date': '20250503', 'lat_lon_source': 'Third Party'}",51.494057,7.373359,METRO Dortmund-Oespel,"{'opening_hours': {'Mon': '07:00-22:00', 'Tue': '07:00-22:00', 'Wed': '07:00-22:00', 'Thu': '07:00-22:00', 'Fri': '07:00-22:00', 'Sat': '07:00-20:00'}}",023196560,44149,18,,https://www.metro.de/standorte/dortmund-oespel
"Marie-Curie-Straße 9, 01139 Dresden",Metro AG,Dresden,Germany,"{'brand': 'Metro AG', 'fascia': 'Metro AG', 'category': 'Retail', 'edit_date': '20250503', 'lat_lon_source': 'Third Party'}",51.07386,13.68387,METRO Dresden,"{'opening_hours': {'Mon': '07:00-21:00', 'Tue': '07:00-21:00', 'Wed': '07:00-21:00', 'Thu': '07:00-21:00', 'Fri': '07:00-21:00', 'Sat': '07:00-20:00'}}",035185120,01139,26,,https://www.metro.de/standorte/dresden
"Max-Peters-Straße 20, 47059 Duisburg",Metro AG,Duisburg,Germany,"{'brand': 'Metro AG', 'fascia': 'Metro AG', 'category': 'Retail', 'edit_date': '20250503', 'lat_lon_source': 'Third Party'}",51.444,6.76339,METRO Duisburg,"{'opening_hours': {'Mon': '07:00-22:00', 'Tue': '07:00-22:00', 'Wed': '07:00-22:00', 'Thu': '07:00-22:00', 'Fri': '07:00-22:00', 'Sat': '07:00-20:00'}}",020399350,47059,25,,https://www.metro.de/standorte/duisburg
"Schlüterstraße 3, 40235 Düsseldorf",Metro AG,Düsseldorf,Germany,"{'brand': 'Metro AG', 'fascia': 'Metro AG', 'category': 'Retail', 'edit_date': '20250503', 'lat_lon_source': 'Third Party'}",51.23557,6.823724,METRO Düsseldorf,"{'opening_hours': {'Mon': '07:00-22:00', 'Tue': '07:00-22:00', 'Wed': '07:00-22:00', 'Thu': '07:00-22:00', 'Fri': '07:00-22:00', 'Sat': '07:00-20:00'}}",021196250,40235,15,,https://www.metro.de/standorte/duesseldorf
"Linderbacher Weg 32, 99099 Erfurt",Metro AG,Erfurt,Germany,"{'brand': 'Metro AG', 'fascia': 'Metro AG', 'category': 'Retail', 'edit_date': '20250503', 'lat_lon_source': 'Third Party'}",50.974437,11.088339,METRO Erfurt,"{'opening_hours': {'Mon': '07:00-21:00', 'Tue': '07:00-21:00', 'Wed': '07:00-21:00', 'Thu': '07:00-21:00', 'Fri': '07:00-21:00', 'Sat': '07:00-20:00'}}",036142820,99099,106,,https://www.metro.de/standorte/erfurt
"Lütkenbrauk 64, 45329 Essen",Metro AG,Essen,Germany,"{'brand': 'Metro AG', 'fascia': 'Metro AG', 'category': 'Retail', 'edit_date': '20250503', 'lat_lon_source': 'Third Party'}",51.48788,6.98972,METRO Essen,"{'opening_hours': {'Mon': '07:00-22:00', 'Tue': '07:00-22:00', 'Wed': '07:00-22:00', 'Thu': '07:00-22:00', 'Fri': '07:00-22:00', 'Sat': '07:00-20:00'}}",020183470,45329,12,,https://www.metro.de/standorte/essen
"Dornierstraße 9, 73730 Esslingen",Metro AG,Esslingen,Germany,"{'brand': 'Metro AG', 'fascia': 'Metro AG', 'category': 'Retail', 'edit_date': '20250503', 'lat_lon_source': 'Third Party'}",48.71767,9.34448,METRO Esslingen,"{'opening_hours': {'Mon': '07:00-22:00', 'Tue': '07:00-22:00', 'Wed': '07:00-22:00', 'Thu': '07:00-22:00', 'Fri': '07:00-22:00', 'Sat': '07:00-20:00'}}",071193140,73730,67,,https://www.metro.de/standorte/esslingen
"Am Riederbruch 10, 60386 Frankfurt",Metro AG,Frankfurt,Germany,"{'brand': 'Metro AG', 'fascia': 'Metro AG', 'category': 'Retail', 'edit_date': '20250503', 'lat_lon_source': 'Third Party'}",50.12322,8.73067,METRO Frankfurt-Riederwald,"{'opening_hours': {'Mon': '07:00-22:00', 'Tue': '07:00-22:00', 'Wed': '07:00-22:00', 'Thu': '07:00-22:00', 'Fri': '07:00-22:00', 'Sat': '07:00-20:00'}}",069942030,60386,57,,https://www.metro.de/standorte/frankfurt-riederwald
"Guerickestraße 8, 60488 Frankfurt",Metro AG,Frankfurt,Germany,"{'brand': 'Metro AG', 'fascia': 'Metro AG', 'category': 'Retail', 'edit_date': '20250503', 'lat_lon_source': 'Third Party'}",50.1353389,8.6007328,METRO Frankfurt-Rödelheim,"{'opening_hours': {'Mon': '07:00-22:00', 'Tue': '07:00-22:00', 'Wed': '07:00-22:00', 'Thu': '07:00-22:00', 'Fri': '07:00-22:00', 'Sat': '07:00-20:00'}}",069976530,60488,53,,https://www.metro.de/standorte/frankfurt-roedelheim
"Sigmaringer Straße 106, 72458 Albstadt",Metro AG,Albstadt,Germany,"{'brand': 'Metro AG', 'fascia': 'Metro AG', 'category': 'Retail', 'edit_date': '20250503', 'lat_lon_source': 'Third Party'}",48.2053583,9.04222400000003,METRO GASTRO Albstadt,"{'opening_hours': {'Mon': '08:00-18:00', 'Tue': '08:00-18:00', 'Wed': '08:00-18:00', 'Thu': '08:00-18:00', 'Fri': '08:00-18:00', 'Sat': '08:00-13:00'}}",0743113080,72458,618,,https://www.metro.de/standorte/albstadt
"Lärchenstraße, 4, 76532 Baden-Baden",Metro AG,Baden-Baden,Germany,"{'brand': 'Metro AG', 'fascia': 'Metro AG', 'category': 'Retail', 'edit_date': '20250503', 'lat_lon_source': 'Third Party'}",48.8154523,8.19656239999995,METRO GASTRO Baden-Baden,"{'opening_hours': {'Mon': '07:00-18:00', 'Tue': '07:00-18:00', 'Wed': '07:00-18:00', 'Thu': '07:00-18:00', 'Fri': '07:00-18:00', 'Sat': '07:00-15:00'}}",0722150620,76532,623,,https://www.metro.de/standorte/baden-baden
"Dresdener Straße, 57, 02625 Bautzen",Metro AG,Bautzen,Germany,"{'brand': 'Metro AG', 'fascia': 'Metro AG', 'category': 'Retail', 'edit_date': '20250503', 'lat_lon_source': 'Third Party'}",51.1797972,14.4024808,METRO GASTRO Bautzen,"{'opening_hours': {'Mon': '07:00-19:00', 'Tue': '07:00-19:00', 'Wed': '07:00-19:00', 'Thu': '07:00-19:00', 'Fri': '07:00-19:00', 'Sat': '08:00-13:00'}}",0359167950,02625,609,,https://www.metro.de/standorte/bautzen
"Caasmannstraße 3, 14770 Brandenburg",Metro AG,Brandenburg,Germany,"{'brand': 'Metro AG', 'fascia': 'Metro AG', 'category': 'Retail', 'edit_date': '20250503', 'lat_lon_source': 'Third Party'}",52.4050943,12.5332885,METRO GASTRO Brandenburg,"{'opening_hours': {'Mon': '06:30-19:00', 'Tue': '06:30-19:00', 'Wed': '06:30-19:00', 'Thu': '06:30-19:00', 'Fri': '06:30-19:00', 'Sat': '08:00-13:00'}}",0338133560,14770,665,,https://www.metro.de/standorte/brandenburg
"Im Wendelrot 11, 76646 Bruchsal",Metro AG,Bruchsal,Germany,"{'brand': 'Metro AG', 'fascia': 'Metro AG', 'category': 'Retail', 'edit_date': '20250503', 'lat_lon_source': 'Third Party'}",49.138409,8.56692169999997,METRO GASTRO Bruchsal,"{'opening_hours': {'Mon': '07:00-18:00', 'Tue': '07:00-18:00', 'Wed': '07:00-18:00', 'Thu': '07:00-18:00', 'Fri': '07:00-18:00', 'Sat': '07:00-14:00'}}",0725197810,76646,624,,https://www.metro.de/standorte/bruchsal
"Herrenberger Straße 100, 71034 Böblingen",Metro AG,Böblingen,Germany,"{'brand': 'Metro AG', 'fascia': 'Metro AG', 'category': 'Retail', 'edit_date': '20250503', 'lat_lon_source': 'Third Party'}",48.6807393,8.99380940000003,METRO GASTRO Böblingen,"{'opening_hours': {'Mon': '07:00-18:00', 'Tue': '07:00-18:00', 'Wed': '07:00-18:00', 'Thu': '07:00-18:00', 'Fri': '07:00-18:00', 'Sat': '07:00-16:00'}}",0703143660,71034,632,,https://www.metro.de/standorte/boeblingen
"Bremer Weg 203, 29223 Celle",Metro AG,Celle,Germany,"{'brand': 'Metro AG', 'fascia': 'Metro AG', 'category': 'Retail', 'edit_date': '20250503', 'lat_lon_source': 'Third Party'}",52.63699,10.05085,METRO GASTRO Celle,"{'opening_hours': {'Mon': '07:00-19:00', 'Tue': '07:00-19:00', 'Wed': '07:00-19:00', 'Thu': '07:00-19:00', 'Fri': '07:00-19:00', 'Sat': '07:00-13:00'}}",05141956090,29223,652,,https://www.metro.de/standorte/celle
"Gewerbegebiet Rurbenden 44, 52353 Düren",Metro AG,Düren,Germany,"{'brand': 'Metro AG', 'fascia': 'Metro AG', 'category': 'Retail', 'edit_date': '20250503', 'lat_lon_source': 'Third Party'}",50.8408531,6.45632260000002,METRO GASTRO Düren,"{'opening_hours': {'Mon': '07:00-19:00', 'Tue': '07:00-19:00', 'Wed': '07:00-19:00', 'Thu': '07:00-19:00', 'Fri': '07:00-19:00', 'Sat': '07:00-14:00'}}",0242894820,52353,646,,https://www.metro.de/standorte/dueren
"Adam-Opel-Straße 9, 99817 Eisenach",Metro AG,Eisenach,Germany,"{'brand': 'Metro AG', 'fascia': 'Metro AG', 'category': 'Retail', 'edit_date': '20250503', 'lat_lon_source': 'Third Party'}",50.9796879,10.2954044000001,METRO GASTRO Eisenach,"{'opening_hours': {'Mon': '07:00-19:00', 'Tue': '07:00-19:00', 'Wed': '07:00-19:00', 'Thu': '07:00-19:00', 'Fri': '07:00-19:00', 'Sat': '08:00-13:00'}}",0369179100,99817,608,,https://www.metro.de/standorte/eisenach
"Auf Nauwies 12 (Saarplateau), 66806 Ensdorf",Metro AG,Ensdorf,Germany,"{'brand': 'Metro AG', 'fascia': 'Metro AG', 'category': 'Retail', 'edit_date': '20250503', 'lat_lon_source': 'Third Party'}",49.30026,6.76900999999998,METRO GASTRO Ensdorf,"{'opening_hours': {'Mon': '07:00-19:00', 'Tue': '07:00-19:00', 'Wed': '07:00-19:00', 'Thu': '07:00-19:00', 'Fri': '07:00-19:00', 'Sat': '07:00-16:00'}}",068315015960,66806,687,,https://www.metro.de/standorte/ensdorf
"Drangstedter Chaussee 101,27607 Langen/Debstedt",Metro AG,Langen,Germany,"{'brand': 'Metro AG', 'fascia': 'Metro AG', 'category': 'Retail', 'edit_date': '20250503', 'lat_lon_source': 'Third Party'}",53.6209351,8.65695099999994,METRO GASTRO Geestland,"{'opening_hours': {'Mon': '07:00-19:00', 'Tue': '07:00-19:00', 'Wed': '07:00-19:00', 'Thu': '07:00-19:00', 'Fri': '07:00-19:00', 'Sat': '07:00-13:00'}}",0474393990,27607,611,,https://www.metro.de/standorte/geestland
"Ohmenhäuser Straße 15, 72810 Gomaringen",Metro AG,Gomaringen,Germany,"{'brand': 'Metro AG', 'fascia': 'Metro AG', 'category': 'Retail', 'edit_date': '20250503', 'lat_lon_source': 'Third Party'}",48.4596962,9.10299020000002,METRO GASTRO Gomaringen,"{'opening_hours': {'Mon': '07:00-18:00', 'Tue': '07:00-18:00', 'Wed': '07:00-18:00', 'Thu': '07:00-18:00', 'Fri': '07:00-18:00', 'Sat': '07:00-16:00'}}",0707291380,72810,633,,https://www.metro.de/standorte/gomaringen
"Gerhard Weule Straße 1, 38644 Goslar",Metro AG,Goslar,Germany,"{'brand': 'Metro AG', 'fascia': 'Metro AG', 'category': 'Retail', 'edit_date': '20250503', 'lat_lon_source': 'Third Party'}",51.9344641,10.4070914,METRO GASTRO Goslar,"{'opening_hours': {'Mon': '07:00-19:00', 'Tue': '07:00-19:00', 'Wed': '07:00-19:00', 'Thu': '07:00-19:00', 'Fri': '07:00-19:00', 'Sat': '07:00-15:00'}}",0532137540,38644,653,,https://www.metro.de/standorte/goslar
"Sandfuhr 2, 17491Greifswald",Metro AG,,Germany,"{'brand': 'Metro AG', 'fascia': 'Metro AG', 'category': 'Retail', 'edit_date': '20250503', 'lat_lon_source': 'Third Party'}",54.0733,13.40571,METRO GASTRO Greifswald,"{'opening_hours': {'Mon': '07:00-19:00', 'Tue': '07:00-19:00', 'Wed': '07:00-19:00', 'Thu': '07:00-19:00', 'Fri': '07:00-19:00', 'Sat': '07:00-13:00'}}",0383458530,,602,,https://www.metro.de/standorte/greifswald
"Langes Feld 14, 31789 Hameln",Metro AG,Hameln,Germany,"{'brand': 'Metro AG', 'fascia': 'Metro AG', 'category': 'Retail', 'edit_date': '20250503', 'lat_lon_source': 'Third Party'}",52.09852,9.39633000000003,METRO GASTRO Hameln,"{'opening_hours': {'Mon': '07:00-19:00', 'Tue': '07:00-19:00', 'Wed': '07:00-19:00', 'Thu': '07:00-19:00', 'Fri': '07:00-19:00', 'Sat': '07:00-13:00'}}",05151557330,31789,656,,https://www.metro.de/standorte/hameln
"Eckenerstraße 2a, 30179 Hannover",Metro AG,Hannover,Germany,"{'brand': 'Metro AG', 'fascia': 'Metro AG', 'category': 'Retail', 'edit_date': '20250503', 'lat_lon_source': 'Third Party'}",52.41804,9.74455,METRO GASTRO Hannover-Vahrenheide,"{'opening_hours': {'Mon': '06:30-19:00', 'Tue': '06:30-19:00', 'Wed': '06:30-19:00', 'Thu': '06:30-19:00', 'Fri': '06:30-19:00', 'Sat': '07:00-15:00'}}",05116799860,30179,639,,https://www.metro.de/standorte/hannover-vahrenheide
"Westerwaldstraße 8, 64646 Heppenheim",Metro AG,Heppenheim,Germany,"{'brand': 'Metro AG', 'fascia': 'Metro AG', 'category': 'Retail', 'edit_date': '20250503', 'lat_lon_source': 'Third Party'}",49.6430559,8.638889,METRO GASTRO Heppenheim,"{'opening_hours': {'Mon': '07:00-19:00', 'Tue': '07:00-19:00', 'Wed': '07:00-19:00', 'Thu': '07:00-19:00', 'Fri': '07:00-19:00', 'Sat': '08:00-15:00'}}",06252670970,64646,685,,https://www.metro.de/standorte/heppenheim
"An der Hohensaas 12, 95039 Hof",Metro AG,Hof,Germany,"{'brand': 'Metro AG', 'fascia': 'Metro AG', 'category': 'Retail', 'edit_date': '20250503', 'lat_lon_source': 'Third Party'}",50.3146337,11.8778847,METRO GASTRO Hof,"{'opening_hours': {'Mon': '07:00-19:00', 'Tue': '07:00-19:00', 'Wed': '07:00-19:00', 'Thu': '07:00-19:00', 'Fri': '07:00-19:00', 'Sat': '08:00-13:00'}}",0928170760,95039,610,,https://www.metro.de/standorte/hof
"Humboldtstraße 2, 37603 Holzminden",Metro AG,Holzminden,Germany,"{'brand': 'Metro AG', 'fascia': 'Metro AG', 'category': 'Retail', 'edit_date': '20250503', 'lat_lon_source': 'Third Party'}",51.8414746845403,9.47215090957488,METRO GASTRO Holzminden,"{'opening_hours': {'Mon': '07:00-19:00', 'Tue': '07:00-19:00', 'Wed': '07:00-19:00', 'Thu': '07:00-19:00', 'Fri': '07:00-19:00', 'Sat': '07:00-14:00'}}",0553112820,37603,654,,https://www.metro.de/standorte/holzminden
"Am Großmarkt 10, 76137 Karlsruhe",Metro AG,Karlsruhe,Germany,"{'brand': 'Metro AG', 'fascia': 'Metro AG', 'category': 'Retail', 'edit_date': '20250503', 'lat_lon_source': 'Third Party'}",49.0071059,8.44483869999999,METRO GASTRO Karlsruhe-Rintheim,"{'opening_hours': {'Mon': '06:00-18:00', 'Tue': '06:00-18:00', 'Wed': '06:00-18:00', 'Thu': '06:00-18:00', 'Fri': '06:00-18:00', 'Sat': '06:00-16:00'}}",0721962270,76137,622,,https://www.metro.de/standorte/karlsruhe-rintheim
"Tonberg 7, 24113 Kiel",Metro AG,Kiel,Germany,"{'brand': 'Metro AG', 'fascia': 'Metro AG', 'category': 'Retail', 'edit_date': '20250503', 'lat_lon_source': 'Third Party'}",54.30165,10.1333999999999,METRO GASTRO Kiel,"{'opening_hours': {'Mon': '07:00-19:00', 'Tue': '07:00-19:00', 'Wed': '07:00-19:00', 'Thu': '07:00-19:00', 'Fri': '07:00-19:00', 'Sat': '07:00-16:00'}}",04312395190,24113,630,,https://www.metro.de/standorte/kiel
"Handelsstraße 6, 49809 Lingen",Metro AG,Lingen,Germany,"{'brand': 'Metro AG', 'fascia': 'Metro AG', 'category': 'Retail', 'edit_date': '20250503', 'lat_lon_source': 'Third Party'}",52.5374259,7.33629529999996,METRO GASTRO Lingen,"{'opening_hours': {'Mon': '07:00-19:00', 'Tue': '07:00-19:00', 'Wed': '07:00-19:00', 'Thu': '07:00-19:00', 'Fri': '07:00-19:00', 'Sat': '07:00-14:00'}}",0591710920,49809,642,,https://www.metro.de/standorte/lingen
"Mühlbergweg 7, 15907 Lübben",Metro AG,Lübben,Germany,"{'brand': 'Metro AG', 'fascia': 'Metro AG', 'category': 'Retail', 'edit_date': '20250503', 'lat_lon_source': 'Third Party'}",51.90509,13.85329,METRO GASTRO Lübben,"{'opening_hours': {'Mon': '07:00-18:00', 'Tue': '07:00-18:00', 'Wed': '07:00-18:00', 'Thu': '07:00-18:00', 'Fri': '07:00-18:00', 'Sat': '08:00-13:00'}}",0354622520,15907,664,,https://www.metro.de/standorte/luebben
"Fraunhoferstraße 86, 87700 Memmingen",Metro AG,Memmingen,Germany,"{'brand': 'Metro AG', 'fascia': 'Metro AG', 'category': 'Retail', 'edit_date': '20250503', 'lat_lon_source': 'Third Party'}",48.00099,10.1569500000001,METRO GASTRO Memmingen,"{'opening_hours': {'Mon': '08:00-18:00', 'Tue': '08:00-18:00', 'Wed': '08:00-18:00', 'Thu': '08:00-18:00', 'Fri': '08:00-18:00', 'Sat': '08:00-15:00'}}",08331924280,87700,677,,https://www.metro.de/standorte/memmingen
"Beim Schwarzen Feld 14, 99974 Mühlhausen",Metro AG,Mühlhausen,Germany,"{'brand': 'Metro AG', 'fascia': 'Metro AG', 'category': 'Retail', 'edit_date': '20250503', 'lat_lon_source': 'Third Party'}",51.1972603,10.478207,METRO GASTRO Mühlhausen,"{'opening_hours': {'Mon': '07:00-19:00', 'Tue': '07:00-19:00', 'Wed': '07:00-19:00', 'Thu': '07:00-19:00', 'Fri': '07:00-19:00', 'Sat': '08:00-13:00'}}",0360146430,99974,606,,https://www.metro.de/standorte/muehlhausen
"Leinestraße 42, 24539 Neumünster",Metro AG,Neumünster,Germany,"{'brand': 'Metro AG', 'fascia': 'Metro AG', 'category': 'Retail', 'edit_date': '20250503', 'lat_lon_source': 'Third Party'}",54.0386559,10.0073482,METRO GASTRO Neumünster,"{'opening_hours': {'Mon': '07:00-18:00', 'Tue': '07:00-18:00', 'Wed': '07:00-18:00', 'Thu': '07:00-18:00', 'Fri': '07:00-18:00', 'Sat': '07:00-13:00'}}",04321851910,24539,675,,https://www.metro.de/standorte/neumuenster
"Gewerbepark Ost 7, 17235 Neustrelitz",Metro AG,Neustrelitz,Germany,"{'brand': 'Metro AG', 'fascia': 'Metro AG', 'category': 'Retail', 'edit_date': '20250503', 'lat_lon_source': 'Third Party'}",53.3679642,13.0875847,METRO GASTRO Neustrelitz,"{'opening_hours': {'Mon': '07:00-18:00', 'Tue': '07:00-18:00', 'Wed': '07:00-18:00', 'Thu': '07:00-18:00', 'Fri': '07:00-18:00', 'Sat': '07:00-13:00'}}",0398128690,17235,644,,https://www.metro.de/standorte/neustrelitz
"Südring 15, 31582 Nienburg",Metro AG,Nienburg,Germany,"{'brand': 'Metro AG', 'fascia': 'Metro AG', 'category': 'Retail', 'edit_date': '20250503', 'lat_lon_source': 'Third Party'}",52.6191867,9.20784849999995,METRO GASTRO Nienburg,"{'opening_hours': {'Mon': '07:00-19:00', 'Tue': '07:00-19:00', 'Wed': '07:00-19:00', 'Thu': '07:00-19:00', 'Fri': '07:00-19:00', 'Sat': '07:00-13:00'}}",0502160130,31582,655,,https://www.metro.de/standorte/nienburg
"Straße der Genossenschaften 119, 99734 Nordhausen",Metro AG,Nordhausen,Germany,"{'brand': 'Metro AG', 'fascia': 'Metro AG', 'category': 'Retail', 'edit_date': '20250503', 'lat_lon_source': 'Third Party'}",51.5083,10.7723,METRO GASTRO Nordhausen,"{'opening_hours': {'Mon': '07:00-19:00', 'Tue': '07:00-19:00', 'Wed': '07:00-19:00', 'Thu': '07:00-19:00', 'Fri': '07:00-19:00', 'Sat': '08:00-13:00'}}",03631479210,99734,669,,https://www.metro.de/standorte/nordhausen
"Sachsenhausener Straße 27, 16515 Oranienburg",Metro AG,Oranienburg,Germany,"{'brand': 'Metro AG', 'fascia': 'Metro AG', 'category': 'Retail', 'edit_date': '20250503', 'lat_lon_source': 'Third Party'}",52.76304,13.24293,METRO GASTRO Oranienburg,"{'opening_hours': {'Mon': '07:00-19:00', 'Tue': '07:00-19:00', 'Wed': '07:00-19:00', 'Thu': '07:00-19:00', 'Fri': '07:00-19:00', 'Sat': '08:00-13:00'}}",033012019610,16515,671,,https://www.metro.de/standorte/oranienburg
"Ackerstraße 10, 19348 Perleberg",Metro AG,Perleberg,Germany,"{'brand': 'Metro AG', 'fascia': 'Metro AG', 'category': 'Retail', 'edit_date': '20250503', 'lat_lon_source': 'Third Party'}",53.086,11.85716,METRO GASTRO Perleberg,"{'opening_hours': {'Mon': '07:00-18:00', 'Tue': '07:00-18:00', 'Wed': '07:00-18:00', 'Thu': '07:00-18:00', 'Fri': '07:00-18:00', 'Sat': '07:00-13:00'}}",03876300430,19348,643,,https://www.metro.de/standorte/perleberg
"Gewerbestraße 2, 17291 Prenzlau",Metro AG,Prenzlau,Germany,"{'brand': 'Metro AG', 'fascia': 'Metro AG', 'category': 'Retail', 'edit_date': '20250503', 'lat_lon_source': 'Third Party'}",53.3377629,13.8697985,METRO GASTRO Prenzlau,"{'opening_hours': {'Mon': '07:00-18:00', 'Tue': '07:00-18:00', 'Wed': '07:00-18:00', 'Thu': '07:00-18:00', 'Fri': '07:00-18:00', 'Sat': '07:00-13:00'}}",0398486480,17291,645,,https://www.metro.de/standorte/prenzlau
"Bleicherstraße 51, 88212 Ravensburg",Metro AG,Ravensburg,Germany,"{'brand': 'Metro AG', 'fascia': 'Metro AG', 'category': 'Retail', 'edit_date': '20250503', 'lat_lon_source': 'Third Party'}",47.794209,9.61277530000007,METRO GASTRO Ravensburg,"{'opening_hours': {'Mon': '07:00-18:00', 'Tue': '07:00-18:00', 'Wed': '07:00-18:00', 'Thu': '07:00-18:00', 'Fri': '07:00-18:00', 'Sat': '07:00-16:00'}}",0751769640,88212,629,,https://www.metro.de/standorte/ravensburg
"Oststraße 53, 07407 Rudolstadt",Metro AG,Rudolstadt,Germany,"{'brand': 'Metro AG', 'fascia': 'Metro AG', 'category': 'Retail', 'edit_date': '20250503', 'lat_lon_source': 'Third Party'}",50.7238767,11.3618848999999,METRO GASTRO Rudolstadt,"{'opening_hours': {'Mon': '07:00-19:00', 'Tue': '07:00-19:00', 'Wed': '07:00-19:00', 'Thu': '07:00-19:00', 'Fri': '07:00-19:00', 'Sat': '08:00-13:00'}}",0367243300,07407,607,,https://www.metro.de/standorte/rudolstadt
"Im Alber 7, 73084  Salach",Metro AG,Salach,Germany,"{'brand': 'Metro AG', 'fascia': 'Metro AG', 'category': 'Retail', 'edit_date': '20250503', 'lat_lon_source': 'Third Party'}",48.68544,9.72720000000004,METRO GASTRO Salach,"{'opening_hours': {'Mon': '07:00-18:00', 'Tue': '07:00-18:00', 'Wed': '07:00-18:00', 'Thu': '07:00-18:00', 'Fri': '07:00-18:00', 'Sat': '07:00-16:00'}}",07162930230,73084,619,,https://www.metro.de/standorte/salach
"Feldstraße 25a, 29410 Salzwedel",Metro AG,Salzwedel,Germany,"{'brand': 'Metro AG', 'fascia': 'Metro AG', 'category': 'Retail', 'edit_date': '20250503', 'lat_lon_source': 'Third Party'}",52.8614144,11.1538726,METRO GASTRO Salzwedel,"{'opening_hours': {'Mon': '07:00-19:00', 'Tue': '07:00-19:00', 'Wed': '07:00-19:00', 'Thu': '07:00-19:00', 'Fri': '07:00-19:00', 'Sat': '07:00-13:00'}}",0390183960,29410,666,,https://www.metro.de/standorte/salzwedel
"Industriestraße 14, 74589 Satteldorf",Metro AG,Satteldorf,Germany,"{'brand': 'Metro AG', 'fascia': 'Metro AG', 'category': 'Retail', 'edit_date': '20250503', 'lat_lon_source': 'Third Party'}",49.1814899,10.0741836,METRO GASTRO Satteldorf,"{'opening_hours': {'Mon': '07:00-18:00', 'Tue': '07:00-18:00', 'Wed': '07:00-18:00', 'Thu': '07:00-18:00', 'Fri': '07:00-18:00', 'Sat': '07:00-14:00'}}",0795194630,74589,621,,https://www.metro.de/standorte/satteldorf
"Opelstraße 4, 39576 Stendal",Metro AG,Stendal,Germany,"{'brand': 'Metro AG', 'fascia': 'Metro AG', 'category': 'Retail', 'edit_date': '20250503', 'lat_lon_source': 'Third Party'}",52.5782004,11.8721422,METRO GASTRO Stendal,"{'opening_hours': {'Mon': '07:00-19:00', 'Tue': '07:00-19:00', 'Wed': '07:00-19:00', 'Thu': '07:00-19:00', 'Fri': '07:00-19:00', 'Sat': '08:00-13:00'}}",0393168470,39576,640,,https://www.metro.de/standorte/stendal
"Monaiser Straße 1, 54294 Trier",Metro AG,Trier,Germany,"{'brand': 'Metro AG', 'fascia': 'Metro AG', 'category': 'Retail', 'edit_date': '20250503', 'lat_lon_source': 'Third Party'}",49.7208614,6.59378449999997,METRO GASTRO Trier,"{'opening_hours': {'Mon': '07:00-19:00', 'Tue': '07:00-19:00', 'Wed': '07:00-19:00', 'Thu': '07:00-19:00', 'Fri': '07:00-19:00', 'Sat': '07:00-16:00'}}",065182580,54294,689,,https://www.metro.de/standorte/trier
"Im Neuen Felde 42, 29525 Uelzen",Metro AG,Uelzen,Germany,"{'brand': 'Metro AG', 'fascia': 'Metro AG', 'category': 'Retail', 'edit_date': '20250503', 'lat_lon_source': 'Third Party'}",52.98182,10.56307,METRO GASTRO Uelzen,"{'opening_hours': {'Mon': '07:00-19:00', 'Tue': '07:00-19:00', 'Wed': '07:00-19:00', 'Thu': '07:00-19:00', 'Fri': '07:00-19:00', 'Sat': '07:00-14:00'}}",058190260,29525,612,,https://www.metro.de/standorte/uelzen
"Simoniusstraße 7, 88239 Wangen (Allgäu)",Metro AG,Wangen,Germany,"{'brand': 'Metro AG', 'fascia': 'Metro AG', 'category': 'Retail', 'edit_date': '20250503', 'lat_lon_source': 'Third Party'}",47.68013,9.84537,METRO GASTRO Wangen im Allgäu,"{'opening_hours': {'Mon': '08:00-18:00', 'Tue': '08:00-18:00', 'Wed': '08:00-18:00', 'Thu': '08:00-18:00', 'Fri': '08:00-18:00', 'Sat': '08:00-14:00'}}",0752279530,88239,626,,https://www.metro.de/standorte/wangen
"Warendorferstraße 15,17192  Waren",Metro AG,Waren,Germany,"{'brand': 'Metro AG', 'fascia': 'Metro AG', 'category': 'Retail', 'edit_date': '20250503', 'lat_lon_source': 'Third Party'}",53.5254,12.6459,METRO GASTRO Waren,"{'opening_hours': {'Mon': '07:00-18:00', 'Tue': '07:00-18:00', 'Wed': '07:00-18:00', 'Thu': '07:00-18:00', 'Fri': '07:00-18:00', 'Sat': '07:00-13:00'}}",0399118320,17192,647,,https://www.metro.de/standorte/waren
"Karpendiek 2, 23970 Kritzow/ Wismar Ost",Metro AG,Kritzow,Germany,"{'brand': 'Metro AG', 'fascia': 'Metro AG', 'category': 'Retail', 'edit_date': '20250503', 'lat_lon_source': 'Third Party'}",53.88982,11.53215,METRO GASTRO Wismar-Kritzow,"{'opening_hours': {'Mon': '07:00-19:00', 'Tue': '07:00-19:00', 'Wed': '07:00-19:00', 'Thu': '07:00-19:00', 'Fri': '07:00-19:00', 'Sat': '07:00-13:00'}}",0384124210,23970,603,,https://www.metro.de/standorte/kritzow
"Krugfeld 16 (Gewerbegebiet Warmenau Nord) , 38448 Wolfsburg",Metro AG,Wolfsburg,Germany,"{'brand': 'Metro AG', 'fascia': 'Metro AG', 'category': 'Retail', 'edit_date': '20250503', 'lat_lon_source': 'Third Party'}",52.4587944,10.7473728,METRO GASTRO Wolfsburg,"{'opening_hours': {'Mon': '07:00-19:00', 'Tue': '07:00-19:00', 'Wed': '07:00-19:00', 'Thu': '07:00-19:00', 'Fri': '07:00-19:00', 'Sat': '07:00-14:00'}}",0536182800,38448,658,,https://www.metro.de/standorte/wolfsburg
"Leeranerstraße 4, 17438 Wolgast",Metro AG,Wolgast,Germany,"{'brand': 'Metro AG', 'fascia': 'Metro AG', 'category': 'Retail', 'edit_date': '20250503', 'lat_lon_source': 'Third Party'}",54.0461739,13.7524951,METRO GASTRO Wolgast,"{'opening_hours': {'Mon': '07:00-18:00', 'Tue': '07:00-18:00', 'Wed': '07:00-18:00', 'Thu': '07:00-18:00', 'Fri': '07:00-18:00', 'Sat': '07:00-13:00'}}",0383627090,17438,601,,https://www.metro.de/standorte/wolgast
"Industriestraße 1, 63607 Wächtersbach",Metro AG,Wächtersbach,Germany,"{'brand': 'Metro AG', 'fascia': 'Metro AG', 'category': 'Retail', 'edit_date': '20250503', 'lat_lon_source': 'Third Party'}",50.2536114,9.30033990000004,METRO GASTRO Wächtersbach,"{'opening_hours': {'Mon': '07:00-19:00', 'Tue': '07:00-19:00', 'Wed': '07:00-19:00', 'Thu': '07:00-19:00', 'Fri': '07:00-19:00', 'Sat': '07:00-14:00'}}",0605361520,63607,676,,https://www.metro.de/standorte/waechtersbach
"Industriestraße 42, 79194 Gundelfingen",Metro AG,Gundelfingen,Germany,"{'brand': 'Metro AG', 'fascia': 'Metro AG', 'category': 'Retail', 'edit_date': '20250503', 'lat_lon_source': 'Third Party'}",48.04671,7.8609,METRO Gundelfingen,"{'opening_hours': {'Mon': '07:00-21:00', 'Tue': '07:00-21:00', 'Wed': '07:00-21:00', 'Thu': '07:00-21:00', 'Fri': '07:00-21:00', 'Sat': '07:00-20:00'}}",076159090,79194,71,,https://www.metro.de/standorte/gundelfingen
"Plöner Straße 8, 22769 Hamburg",Metro AG,Hamburg,Germany,"{'brand': 'Metro AG', 'fascia': 'Metro AG', 'category': 'Retail', 'edit_date': '20250503', 'lat_lon_source': 'Third Party'}",53.566177,9.935243,METRO Hamburg-Altona,"{'opening_hours': {'Mon': '07:00-22:00', 'Tue': '07:00-22:00', 'Wed': '07:00-22:00', 'Thu': '07:00-22:00', 'Fri': '07:00-22:00', 'Sat': '07:00-20:00'}}",0405238790,22769,21,,https://www.metro.de/standorte/hamburg-altona
"Großmoorbogen 1, 21079 Hamburg",Metro AG,Hamburg,Germany,"{'brand': 'Metro AG', 'fascia': 'Metro AG', 'category': 'Retail', 'edit_date': '20250503', 'lat_lon_source': 'Third Party'}",53.46178,10.01319,METRO Hamburg-Harburg,"{'opening_hours': {'Mon': '07:00-22:00', 'Tue': '07:00-22:00', 'Wed': '07:00-22:00', 'Thu': '07:00-22:00', 'Fri': '07:00-22:00', 'Sat': '07:00-20:00'}}",040771720,21079,34,,https://www.metro.de/standorte/hamburg-harburg
"Papenreye 33, 22453 Hamburg",Metro AG,Hamburg,Germany,"{'brand': 'Metro AG', 'fascia': 'Metro AG', 'category': 'Retail', 'edit_date': '20250503', 'lat_lon_source': 'Third Party'}",53.61324,9.96581,METRO Hamburg-Niendorf,"{'opening_hours': {'Mon': '07:00-22:00', 'Tue': '07:00-22:00', 'Wed': '07:00-22:00', 'Thu': '07:00-22:00', 'Fri': '07:00-22:00', 'Sat': '07:00-20:00'}}",040554270,22453,33,,https://www.metro.de/standorte/hamburg-niendorf
"Bargkoppelweg 50, 22145 Hamburg",Metro AG,Hamburg,Germany,"{'brand': 'Metro AG', 'fascia': 'Metro AG', 'category': 'Retail', 'edit_date': '20250503', 'lat_lon_source': 'Third Party'}",53.6194691,10.1548431,METRO Hamburg-Rahlstedt,"{'opening_hours': {'Mon': '07:00-22:00', 'Tue': '07:00-22:00', 'Wed': '07:00-22:00', 'Thu': '07:00-22:00', 'Fri': '07:00-22:00', 'Sat': '07:00-20:00'}}",040679020,22145,38,,https://www.metro.de/standorte/hamburg-rahlstedt
"Am Tönniesberg 16-18, 30453 Hannover (Bornum)",Metro AG,Hannover,Germany,"{'brand': 'Metro AG', 'fascia': 'Metro AG', 'category': 'Retail', 'edit_date': '20250503', 'lat_lon_source': 'Third Party'}",52.35177,9.70312,METRO Hannover-Bornum,"{'opening_hours': {'Mon': '07:00-21:00', 'Tue': '07:00-21:00', 'Wed': '07:00-21:00', 'Thu': '07:00-21:00', 'Fri': '07:00-21:00', 'Sat': '07:00-20:00'}}",051146040,30453,35,,https://www.metro.de/standorte/hannover-bornum
"Bannwaldallee 42, 76185 Karlsruhe",Metro AG,Karlsruhe,Germany,"{'brand': 'Metro AG', 'fascia': 'Metro AG', 'category': 'Retail', 'edit_date': '20250503', 'lat_lon_source': 'Third Party'}",48.998287,8.3701169,METRO Karlsruhe,"{'opening_hours': {'Mon': '07:00-21:00', 'Tue': '07:00-21:00', 'Wed': '07:00-21:00', 'Thu': '07:00-21:00', 'Fri': '07:00-21:00', 'Sat': '07:00-20:00'}}",072198750,76185,62,,https://www.metro.de/standorte/karlsruhe
"Werner-Heisenberg-Straße 10 (Industriegebiet), 34123 Kassel",Metro AG,Kassel,Germany,"{'brand': 'Metro AG', 'fascia': 'Metro AG', 'category': 'Retail', 'edit_date': '20250503', 'lat_lon_source': 'Third Party'}",51.28045,9.49611,METRO Kassel,"{'opening_hours': {'Mon': '07:00-21:00', 'Tue': '07:00-21:00', 'Wed': '07:00-21:00', 'Thu': '07:00-21:00', 'Fri': '07:00-21:00', 'Sat': '07:00-20:00'}}",056195880,34123,37,,https://www.metro.de/standorte/kassel
"Carl-Zeiss-Straße 6, 56070 Koblenz",Metro AG,Koblenz,Germany,"{'brand': 'Metro AG', 'fascia': 'Metro AG', 'category': 'Retail', 'edit_date': '20250503', 'lat_lon_source': 'Third Party'}",50.387798,7.559542,METRO Koblenz,"{'opening_hours': {'Mon': '06:00-21:00', 'Tue': '06:00-21:00', 'Wed': '06:00-21:00', 'Thu': '06:00-21:00', 'Fri': '06:00-21:00', 'Sat': '06:00-20:00'}}",02618940,56070,19,,https://www.metro.de/standorte/koblenz
"Motorstraße 16-18, 70825 Korntal-Münchingen (Navigationssystem: 70499 Stuttgart/Weilimdorf)",Metro AG,Korntal-Münchingen,Germany,"{'brand': 'Metro AG', 'fascia': 'Metro AG', 'category': 'Retail', 'edit_date': '20250503', 'lat_lon_source': 'Third Party'}",48.8277353,9.1085295,METRO Korntal,"{'opening_hours': {'Mon': '07:00-21:00', 'Tue': '07:00-21:00', 'Wed': '07:00-21:00', 'Thu': '07:00-21:00', 'Fri': '07:00-21:00', 'Sat': '07:00-20:00'}}",071183830,70825,66,,https://www.metro.de/standorte/korntal
"Parkstraße 200, 47829 Krefeld-Uerdingen",Metro AG,Krefeld-Uerdingen,Germany,"{'brand': 'Metro AG', 'fascia': 'Metro AG', 'category': 'Retail', 'edit_date': '20250503', 'lat_lon_source': 'Third Party'}",51.37502,6.63694,METRO Krefeld,"{'opening_hours': {'Mon': '07:00-22:00', 'Tue': '07:00-22:00', 'Wed': '07:00-22:00', 'Thu': '07:00-22:00', 'Fri': '07:00-22:00', 'Sat': '07:00-20:00'}}",021514970,47829,16,,https://www.metro.de/standorte/krefeld
"Otto-Hahn-Straße 15, 50997 Köln",Metro AG,Köln,Germany,"{'brand': 'Metro AG', 'fascia': 'Metro AG', 'category': 'Retail', 'edit_date': '20250503', 'lat_lon_source': 'Third Party'}",50.8579403,6.9717666,METRO Köln,"{'opening_hours': {'Mon': '07:00-22:00', 'Tue': '07:00-22:00', 'Wed': '07:00-22:00', 'Thu': '07:00-22:00', 'Fri': '07:00-22:00', 'Sat': '07:00-20:00'}}",0223696400,50997,14,,https://www.metro.de/standorte/koeln
"Lüneburger Straße 1, 30880 Laatzen",Metro AG,Laatzen,Germany,"{'brand': 'Metro AG', 'fascia': 'Metro AG', 'category': 'Retail', 'edit_date': '20250503', 'lat_lon_source': 'Third Party'}",52.29447,9.82468,METRO Laatzen,"{'opening_hours': {'Mon': '07:00-21:00', 'Tue': '07:00-21:00', 'Wed': '07:00-21:00', 'Thu': '07:00-21:00', 'Fri': '07:00-21:00', 'Sat': '07:00-20:00'}}",051029180,30880,77,,https://www.metro.de/standorte/laatzen
"Geithainer Straße 62, 04328 Leipzig",Metro AG,Leipzig,Germany,"{'brand': 'Metro AG', 'fascia': 'Metro AG', 'category': 'Retail', 'edit_date': '20250503', 'lat_lon_source': 'Third Party'}",51.341342,12.4436915,METRO Leipzig,"{'opening_hours': {'Mon': '07:00-21:00', 'Tue': '07:00-21:00', 'Wed': '07:00-21:00', 'Thu': '07:00-21:00', 'Fri': '07:00-21:00', 'Sat': '07:00-20:00'}}",034165700,04328,108,,https://www.metro.de/standorte/leipzig
"Syltstraße 13, 51377 Leverkusen",Metro AG,Leverkusen,Germany,"{'brand': 'Metro AG', 'fascia': 'Metro AG', 'category': 'Retail', 'edit_date': '20250503', 'lat_lon_source': 'Third Party'}",51.03487,7.01096,METRO Leverkusen,"{'opening_hours': {'Mon': '07:00-22:00', 'Tue': '07:00-22:00', 'Wed': '07:00-22:00', 'Thu': '07:00-22:00', 'Fri': '07:00-22:00', 'Sat': '07:00-20:00'}}",021487590,51377,13,,https://www.metro.de/standorte/leverkusen
"Siemensstraße 7 (Gewerbegebiet an der B3), 35440 Linden",Metro AG,Linden,Germany,"{'brand': 'Metro AG', 'fascia': 'Metro AG', 'category': 'Retail', 'edit_date': '20250503', 'lat_lon_source': 'Third Party'}",50.541331,8.652683,METRO Linden,"{'opening_hours': {'Mon': '07:00-21:00', 'Tue': '07:00-21:00', 'Wed': '07:00-21:00', 'Thu': '07:00-21:00', 'Fri': '07:00-21:00', 'Sat': '07:00-18:00'}}",064039100,35440,72,,https://www.metro.de/standorte/linden
"Oderstraße 2 (Im Gewerbegebiet Oggersheim-West),  67071 Ludwigshafen",Metro AG,Ludwigshafen,Germany,"{'brand': 'Metro AG', 'fascia': 'Metro AG', 'category': 'Retail', 'edit_date': '20250503', 'lat_lon_source': 'Third Party'}",49.48866,8.34764,METRO Ludwigshafen,"{'opening_hours': {'Mon': '07:00-22:00', 'Tue': '07:00-22:00', 'Wed': '07:00-22:00', 'Thu': '07:00-22:00', 'Fri': '07:00-22:00', 'Sat': '07:00-20:00'}}",062153840,67071,54,,https://www.metro.de/standorte/ludwigshafen
"Werner von Siemens Ring 9, 39116 Magdeburg",Metro AG,Magdeburg,Germany,"{'brand': 'Metro AG', 'fascia': 'Metro AG', 'category': 'Retail', 'edit_date': '20250503', 'lat_lon_source': 'Third Party'}",52.07878,11.57682,METRO Magdeburg,"{'opening_hours': {'Mon': '07:00-21:00', 'Tue': '07:00-21:00', 'Wed': '07:00-21:00', 'Thu': '07:00-21:00', 'Fri': '07:00-21:00', 'Sat': '07:00-20:00'}}",039160960,39116,105,,https://www.metro.de/standorte/magdeburg
"Boelckestraße 78, 55252 Mainz-Kastel",Metro AG,Mainz-Kastel,Germany,"{'brand': 'Metro AG', 'fascia': 'Metro AG', 'category': 'Retail', 'edit_date': '20250503', 'lat_lon_source': 'Third Party'}",50.02203,8.28969,METRO Mainz-Kastel,"{'opening_hours': {'Mon': '07:00-22:00', 'Tue': '07:00-22:00', 'Wed': '07:00-22:00', 'Thu': '07:00-22:00', 'Fri': '07:00-22:00', 'Sat': '07:00-20:00'}}",061347210,55252,58,,https://www.metro.de/standorte/mainz-kastel
"Floßwörthstraße 30, 68199 Mannheim",Metro AG,Mannheim,Germany,"{'brand': 'Metro AG', 'fascia': 'Metro AG', 'category': 'Retail', 'edit_date': '20250503', 'lat_lon_source': 'Third Party'}",49.4591939,8.5009684,METRO Mannheim,"{'opening_hours': {'Mon': '07:00-22:00', 'Tue': '07:00-22:00', 'Wed': '07:00-22:00', 'Thu': '07:00-22:00', 'Fri': '07:00-22:00', 'Sat': '07:00-20:00'}}",062184410,68199,75,,https://www.metro.de/standorte/mannheim
"Heifeskamp 32-36, 45475 Mülheim",Metro AG,Mülheim,Germany,"{'brand': 'Metro AG', 'fascia': 'Metro AG', 'category': 'Retail', 'edit_date': '20250503', 'lat_lon_source': 'Third Party'}",51.45793,6.88171,METRO Mülheim an der Ruhr,"{'opening_hours': {'Mon': '07:00-22:00', 'Tue': '07:00-22:00', 'Wed': '07:00-22:00', 'Thu': '07:00-22:00', 'Fri': '07:00-22:00', 'Sat': '07:00-20:00'}}",020899690,45475,10,,https://www.metro.de/standorte/muelheim
"Helene-Wessel-Bogen 39, 80939 München",Metro AG,München,Germany,"{'brand': 'Metro AG', 'fascia': 'Metro AG', 'category': 'Retail', 'edit_date': '20250503', 'lat_lon_source': 'Third Party'}",48.1943148,11.5994071,METRO München-Freimann,"{'opening_hours': {'Mon': '06:00-22:00', 'Tue': '06:00-22:00', 'Wed': '06:00-22:00', 'Thu': '06:00-22:00', 'Fri': '06:00-22:00', 'Sat': '06:00-20:00'}}",089316910,80939,46,,https://www.metro.de/standorte/muenchen-freimann
"Am Gleisdreieck 15, 81243 München",Metro AG,München,Germany,"{'brand': 'Metro AG', 'fascia': 'Metro AG', 'category': 'Retail', 'edit_date': '20250503', 'lat_lon_source': 'Third Party'}",48.141577,11.4309616,METRO München-Pasing,"{'opening_hours': {'Mon': '05:30-22:00', 'Tue': '05:30-22:00', 'Wed': '05:30-22:00', 'Thu': '05:30-22:00', 'Fri': '05:30-22:00', 'Sat': '05:30-20:00'}}",089896970,81243,41,,https://www.metro.de/standorte/muenchen-pasing
"Borsigstraße 8, 89231 Neu-Ulm",Metro AG,Neu-Ulm,Germany,"{'brand': 'Metro AG', 'fascia': 'Metro AG', 'category': 'Retail', 'edit_date': '20250503', 'lat_lon_source': 'Third Party'}",48.39357,10.01942,METRO Neu-Ulm,"{'opening_hours': {'Mon': '07:00-21:00', 'Tue': '07:00-21:00', 'Wed': '07:00-21:00', 'Thu': '07:00-21:00', 'Fri': '07:00-21:00', 'Sat': '07:00-20:00'}}",073117600,89231,402,,https://www.metro.de/standorte/neu-ulm
"Jagenbergstraße 6, 41468 Neuss-Grimlinghausen",Metro AG,Neuss-Grimlinghausen,Germany,"{'brand': 'Metro AG', 'fascia': 'Metro AG', 'category': 'Retail', 'edit_date': '20250503', 'lat_lon_source': 'Third Party'}",51.16528,6.75421,METRO Neuss,"{'opening_hours': {'Mon': '07:00-22:00', 'Tue': '07:00-22:00', 'Wed': '07:00-22:00', 'Thu': '07:00-22:00', 'Fri': '07:00-22:00', 'Sat': '07:00-20:00'}}",0213152390,41468,39,,https://www.metro.de/standorte/neuss
"Bucher Hauptstraße 40, 90427 Nürnberg",Metro AG,Nürnberg,Germany,"{'brand': 'Metro AG', 'fascia': 'Metro AG', 'category': 'Retail', 'edit_date': '20250503', 'lat_lon_source': 'Third Party'}",49.49396,11.05119,METRO Nürnberg-Buch,"{'opening_hours': {'Mon': '07:00-22:00', 'Tue': '07:00-22:00', 'Wed': '07:00-22:00', 'Thu': '07:00-22:00', 'Fri': '07:00-22:00', 'Sat': '07:00-20:00'}}",091199380,90427,49,,https://www.metro.de/standorte/nuernberg-buch
"Donaustraße 135, 90451 Nürnberg",Metro AG,Nürnberg,Germany,"{'brand': 'Metro AG', 'fascia': 'Metro AG', 'category': 'Retail', 'edit_date': '20250503', 'lat_lon_source': 'Third Party'}",49.4099398,11.0522353,METRO Nürnberg-Eibach,"{'opening_hours': {'Mon': '07:00-22:00', 'Tue': '07:00-22:00', 'Wed': '07:00-22:00', 'Thu': '07:00-22:00', 'Fri': '07:00-22:00', 'Sat': '07:00-20:00'}}",091196300,90451,48,,https://www.metro.de/standorte/nuernberg-eibach
"An der Schmiede 1 (Gewerbegebiet Tweelbäke II), 26135 Oldenburg",Metro AG,Oldenburg,Germany,"{'brand': 'Metro AG', 'fascia': 'Metro AG', 'category': 'Retail', 'edit_date': '20250503', 'lat_lon_source': 'Third Party'}",53.1083691,8.2690301,METRO Oldenburg,"{'opening_hours': {'Mon': '07:00-22:00', 'Tue': '07:00-22:00', 'Wed': '07:00-22:00', 'Thu': '07:00-22:00', 'Fri': '07:00-22:00', 'Sat': '07:00-20:00'}}",044120020,26135,74,,https://www.metro.de/standorte/oldenburg
"Ellernstraße 18, 32457 Porta Westfalica",Metro AG,Porta Westfalica,Germany,"{'brand': 'Metro AG', 'fascia': 'Metro AG', 'category': 'Retail', 'edit_date': '20250503', 'lat_lon_source': 'Third Party'}",52.213243,8.880052,METRO Porta Westfalica,"{'opening_hours': {'Mon': '07:00-21:00', 'Tue': '07:00-21:00', 'Wed': '07:00-21:00', 'Thu': '07:00-21:00', 'Fri': '07:00-21:00', 'Sat': '07:00-20:00'}}",057312430,32457,80,,https://www.metro.de/standorte/porta-westfalica
"Querstraße 53, 45661 Recklinghausen",Metro AG,Recklinghausen,Germany,"{'brand': 'Metro AG', 'fascia': 'Metro AG', 'category': 'Retail', 'edit_date': '20250503', 'lat_lon_source': 'Third Party'}",51.58073,7.18781,METRO Recklinghausen,"{'opening_hours': {'Mon': '07:00-22:00', 'Tue': '07:00-22:00', 'Wed': '07:00-22:00', 'Thu': '07:00-22:00', 'Fri': '07:00-22:00', 'Sat': '07:00-20:00'}}",023616020,45661,23,,https://www.metro.de/standorte/recklinghausen
"Bajuwarenstraße 11, 93053 Regensburg",Metro AG,Regensburg,Germany,"{'brand': 'Metro AG', 'fascia': 'Metro AG', 'category': 'Retail', 'edit_date': '20250503', 'lat_lon_source': 'Third Party'}",48.9954928,12.11916,METRO Regensburg,"{'opening_hours': {'Mon': '07:00-21:00', 'Tue': '07:00-21:00', 'Wed': '07:00-21:00', 'Thu': '07:00-21:00', 'Fri': '07:00-21:00', 'Sat': '07:00-20:00'}}",094146050,93053,45,,https://www.metro.de/standorte/regensburg
"Camphauser Straße 4, 66125 Dudweiler",Metro AG,Dudweiler,Germany,"{'brand': 'Metro AG', 'fascia': 'Metro AG', 'category': 'Retail', 'edit_date': '20250503', 'lat_lon_source': 'Third Party'}",49.28819,7.02479,METRO Saarbrücken,"{'opening_hours': {'Mon': '07:00-21:00', 'Tue': '07:00-21:00', 'Wed': '07:00-21:00', 'Thu': '07:00-21:00', 'Fri': '07:00-21:00', 'Sat': '07:00-20:00'}}",068979550,66125,56,,https://www.metro.de/standorte/saarbruecken
"Einsteinstraße 28, 53757 St. Augustin",Metro AG,St,Germany,"{'brand': 'Metro AG', 'fascia': 'Metro AG', 'category': 'Retail', 'edit_date': '20250503', 'lat_lon_source': 'Third Party'}",50.79137,7.18072,METRO Sankt Augustin,"{'opening_hours': {'Mon': '07:00-22:00', 'Tue': '07:00-22:00', 'Wed': '07:00-22:00', 'Thu': '07:00-22:00', 'Fri': '07:00-22:00', 'Sat': '07:00-20:00'}}",022419890,53757,20,,https://www.metro.de/standorte/sankt-augustin
"Saarstraße 9, 58332 Schwelm",Metro AG,Schwelm,Germany,"{'brand': 'Metro AG', 'fascia': 'Metro AG', 'category': 'Retail', 'edit_date': '20250503', 'lat_lon_source': 'Third Party'}",51.288828,7.273433,METRO Schwelm,"{'opening_hours': {'Mon': '06:00-22:00', 'Tue': '06:00-22:00', 'Wed': '06:00-22:00', 'Thu': '06:00-22:00', 'Fri': '06:00-22:00', 'Sat': '06:00-20:00'}}",0233680490,58332,11,,https://www.metro.de/standorte/schwelm
"Grünauer Straße 5, 12529 Schönefeld",Metro AG,Schönefeld,Germany,"{'brand': 'Metro AG', 'fascia': 'Metro AG', 'category': 'Retail', 'edit_date': '20250503', 'lat_lon_source': 'Third Party'}",52.375554,13.5645943,METRO Schönefeld,"{'opening_hours': {'Mon': '07:00-20:00', 'Tue': '07:00-\xa020:00', 'Wed': '07:00-\xa020:00', 'Thu': '07:00-\xa020:00', 'Fri': '07:00-\xa020:00', 'Sat': '07:00-\xa020:00'}}",0306331490,12529,99,,https://www.metro.de/standorte/schoenefeld
"Eiserfelder Straße 176, 57072 Siegen",Metro AG,Siegen,Germany,"{'brand': 'Metro AG', 'fascia': 'Metro AG', 'category': 'Retail', 'edit_date': '20250503', 'lat_lon_source': 'Third Party'}",50.855269,8.008856,METRO Siegen,"{'opening_hours': {'Mon': '07:00-21:00', 'Tue': '07:00-21:00', 'Wed': '07:00-21:00', 'Thu': '07:00-21:00', 'Fri': '07:00-21:00', 'Sat': '07:00-20:00'}}",027131330,57072,401,,https://www.metro.de/standorte/siegen
"Im Rödling 8, 64331 Weiterstadt",Metro AG,Weiterstadt,Germany,"{'brand': 'Metro AG', 'fascia': 'Metro AG', 'category': 'Retail', 'edit_date': '20250503', 'lat_lon_source': 'Third Party'}",49.89535,8.60195,METRO Weiterstadt,"{'opening_hours': {'Mon': '07:00-21:00', 'Tue': '07:00-21:00', 'Wed': '07:00-21:00', 'Thu': '07:00-21:00', 'Fri': '07:00-21:00', 'Sat': '07:00-20:00'}}",061501850,64331,29,,https://www.metro.de/standorte/weiterstadt
"Schumanstraße 6, 52146 Würselen",Metro AG,Würselen,Germany,"{'brand': 'Metro AG', 'fascia': 'Metro AG', 'category': 'Retail', 'edit_date': '20250503', 'lat_lon_source': 'Third Party'}",50.80883,6.15518,METRO Würselen,"{'opening_hours': {'Mon': '07:00-21:00', 'Tue': '07:00-21:00', 'Wed': '07:00-21:00', 'Thu': '07:00-21:00', 'Fri': '07:00-21:00', 'Sat': '07:00-20:00'}}",024054420,52146,17,,https://www.metro.de/standorte/wuerselen
