addr_full,city,country,brand,extras,lat,lon,opening_times,name,phone,postcode,ref,state,website
Staufener Str.30 79189 Bad Krozingen,Bad Krozingen,Germany,Mix Markt,"{'brand': 'Mix Markt', 'fascia': 'Mix Markt', 'category': 'Retail', 'edit_date': '20250506', 'lat_lon_source': 'Third Party'}",47.9177300,7.7039200,"{'opening_hours': {'Mon': '', 'Tue': '', 'Wed': '', 'Thu': '', 'Fri': '', 'Sat': '', 'Sun': ''}}","Mini Mix, Bad Krozingen",Phone: 07633 9290182,,135,,https://www.mixmarkt.eu/en/germany/stores/334/
Holzdamm 8 50374 Erftstadt,Erftstadt,Germany,Mix Markt,"{'brand': 'Mix Markt', 'fascia': 'Mix Markt', 'category': 'Retail', 'edit_date': '20250506', 'lat_lon_source': 'Third Party'}",50.8027100,6.8152800,"{'opening_hours': {'Mon': '', 'Tue': '', 'Wed': '', 'Thu': '', 'Fri': '', 'Sat': '', 'Sun': ''}}","Mini Mix, Erftstadt",Phone: 02235 9898652,,304,,https://www.mixmarkt.eu/en/germany/stores/353/
Fritz-Erler-Strasse 16 40595 Düsseldorf,Düsseldorf,Germany,Mix Markt,"{'brand': 'Mix Markt', 'fascia': 'Mix Markt', 'category': 'Retail', 'edit_date': '20250506', 'lat_lon_source': 'Third Party'}",51.1448593,6.8998608,,"Mini Mix, Düsseldorf",Phone: 0211 17909690,,202,,https://www.mixmarkt.eu/en/germany/stores/348/
Henkelstr. 295 40599 Düsseldorf,Düsseldorf,Germany,Mix Markt,"{'brand': 'Mix Markt', 'fascia': 'Mix Markt', 'category': 'Retail', 'edit_date': '20250506', 'lat_lon_source': 'Third Party'}",0.00,,"{'opening_hours': {'Mon': '', 'Tue': '', 'Wed': '', 'Thu': '', 'Fri': '', 'Sat': '', 'Sun': ''}}","Mini Mix, Düsseldorf",Phone:,,1051,,https://www.mixmarkt.eu/en/germany/stores/377/
Mötscher Str.14 54634 Bitburg,Bitburg,Germany,Mix Markt,"{'brand': 'Mix Markt', 'fascia': 'Mix Markt', 'category': 'Retail', 'edit_date': '20250506', 'lat_lon_source': 'Third Party'}",49.9675152,6.5246085,,"Mini Mix, Bitburg",Phone: 06561 67591,,134,,https://www.mixmarkt.eu/en/germany/stores/333/
Saalestr. 1 97616 Bad Neustadt an der Saale,Bad Neustadt an der Saale,Germany,Mix Markt,"{'brand': 'Mix Markt', 'fascia': 'Mix Markt', 'category': 'Retail', 'edit_date': '20250506', 'lat_lon_source': 'Third Party'}",50.3206300,10.1977900,,"Mini Mix, Bad Neustadt",Phone: 09771 6877860,,542,,https://www.mixmarkt.eu/en/germany/stores/342/
Liebigstr.2g 85057 Ingolstadt,Ingolstadt,Germany,Mix Markt,"{'brand': 'Mix Markt', 'fascia': 'Mix Markt', 'category': 'Retail', 'edit_date': '20250506', 'lat_lon_source': 'Third Party'}",48.7761200,11.4049700,"{'opening_hours': {'Mon': '', 'Tue': '', 'Wed': '', 'Thu': '', 'Fri': '', 'Sat': '', 'Sun': ''}}","Mini Mix, Ingolstadt",Phone: 0841 99389850,,85,,https://www.mixmarkt.eu/en/germany/stores/93/
Heisenbergstr. 4a 97076 Würzburg,Würzburg,Germany,Mix Markt,"{'brand': 'Mix Markt', 'fascia': 'Mix Markt', 'category': 'Retail', 'edit_date': '20250506', 'lat_lon_source': 'Third Party'}",49.8067100,9.9767900,"{'opening_hours': {'Mon': '09:00-20:00', 'Tue': '09:00-20:00', 'Wed': '09:00-20:00', 'Thu': '09:00-20:00', 'Fri': '09:00-20:00', 'Sat': '09:00-20:00', 'Sun': ''}}","Mix Markt, Würzburg",Phone: 0931 26081636,,80,,https://www.mixmarkt.eu/en/germany/stores/87/
Klingelholl 32-34 42281 Wuppertal,Wuppertal,Germany,Mix Markt,"{'brand': 'Mix Markt', 'fascia': 'Mix Markt', 'category': 'Retail', 'edit_date': '20250506', 'lat_lon_source': 'Third Party'}",51.2811829,7.1958005,"{'opening_hours': {'Mon': '08:00-20:00', 'Tue': '08:00-20:00', 'Wed': '08:00-20:00', 'Thu': '08:00-20:00', 'Fri': '08:00-20:00', 'Sat': '08:00-20:00', 'Sun': ''}}","Mix Markt, Wuppertal",Phone: 0202 87079771,,199,,https://www.mixmarkt.eu/en/germany/stores/27/
Theodor-Heuss-Str. 41a 67549 Worms,Worms,Germany,Mix Markt,"{'brand': 'Mix Markt', 'fascia': 'Mix Markt', 'category': 'Retail', 'edit_date': '20250506', 'lat_lon_source': 'Third Party'}",49.6473200,8.3446800,"{'opening_hours': {'Mon': '08:00-20:00', 'Tue': '08:00-20:00', 'Wed': '08:00-20:00', 'Thu': '08:00-20:00', 'Fri': '08:00-20:00', 'Sat': '08:00-20:00', 'Sun': ''}}","Mix Markt, Worms",Phone: 06241 2088144,,13,,https://www.mixmarkt.eu/en/germany/stores/13/
Werftstr.152 26382 Wilhelmshaven,Wilhelmshaven,Germany,Mix Markt,"{'brand': 'Mix Markt', 'fascia': 'Mix Markt', 'category': 'Retail', 'edit_date': '20250506', 'lat_lon_source': 'Third Party'}",53.5278210,8.0982500,"{'opening_hours': {'Mon': '', 'Tue': '', 'Wed': '', 'Thu': '', 'Fri': '', 'Sat': '', 'Sun': ''}}","Mix Markt, Wilhelmshaven",Phone: 04421 5005988,,78,,https://www.mixmarkt.eu/en/germany/stores/84/
Goerdelerstr.49a 65197 Wiesbaden,Wiesbaden,Germany,Mix Markt,"{'brand': 'Mix Markt', 'fascia': 'Mix Markt', 'category': 'Retail', 'edit_date': '20250506', 'lat_lon_source': 'Third Party'}",50.0877800,8.1999400,"{'opening_hours': {'Mon': '09:00-20:00', 'Tue': '09:00-20:00', 'Wed': '09:00-20:00', 'Thu': '09:00-20:00', 'Fri': '09:00-20:00', 'Sat': '09:00-20:00', 'Sun': ''}}","Mix Markt, Wiesbaden",Phone: 0611 60922280,,299,,https://www.mixmarkt.eu/en/germany/stores/132/
Karl-Carstens-Straße 4 97877 Wertheim,Wertheim,Germany,Mix Markt,"{'brand': 'Mix Markt', 'fascia': 'Mix Markt', 'category': 'Retail', 'edit_date': '20250506', 'lat_lon_source': 'Third Party'}",49.7587000,9.4934100,"{'opening_hours': {'Mon': '09:00-20:00', 'Tue': '09:00-20:00', 'Wed': '09:00-20:00', 'Thu': '09:00-20:00', 'Fri': '09:00-20:00', 'Sat': '09:00-20:00', 'Sun': ''}}","Mix Markt, Wertheim",Phone: 09342 935352,,99,,https://www.mixmarkt.eu/en/germany/stores/110/
Boschstr. 10 88250 Weingarten,Weingarten,Germany,Mix Markt,"{'brand': 'Mix Markt', 'fascia': 'Mix Markt', 'category': 'Retail', 'edit_date': '20250506', 'lat_lon_source': 'Third Party'}",47.8151318,9.6275422,"{'opening_hours': {'Mon': '09:00-20:00', 'Tue': '09:00-20:00', 'Wed': '09:00-20:00', 'Thu': '09:00-20:00', 'Fri': '09:00-20:00', 'Sat': '09:00-20:00', 'Sun': ''}}","Mix Markt, Weingarten",Phone: 0751 56994275,,69,,https://www.mixmarkt.eu/en/germany/stores/74/
Pfeifferstr. 2 92637 Weiden,Weiden,Germany,Mix Markt,"{'brand': 'Mix Markt', 'fascia': 'Mix Markt', 'category': 'Retail', 'edit_date': '20250506', 'lat_lon_source': 'Third Party'}",49.691821,12.171097,"{'opening_hours': {'Mon': '09:00-19:00', 'Tue': '09:00-19:00', 'Wed': '09:00-19:00', 'Thu': '09:00-19:00', 'Fri': '09:00-19:00', 'Sat': '', 'Sun': ''}}","Mix Markt, Weiden",Phone: 0961 38178169,,951,,https://www.mixmarkt.eu/en/germany/stores/208/
Brandenburger Strasse 2 79761 Waldshut,Waldshut,Germany,Mix Markt,"{'brand': 'Mix Markt', 'fascia': 'Mix Markt', 'category': 'Retail', 'edit_date': '20250506', 'lat_lon_source': 'Third Party'}",47.6319400,8.2717300,"{'opening_hours': {'Mon': '09:00-20:00', 'Tue': '09:00-20:00', 'Wed': '09:00-20:00', 'Thu': '09:00-20:00', 'Fri': '09:00-20:00', 'Sat': '09:00-20:00', 'Sun': ''}}","Mix Markt, Waldshut-Tiengen",Phone: 07741 686121,,5,,https://www.mixmarkt.eu/en/germany/stores/5/
Aussiger Str. 25g 84478 Waldkraiburg,Waldkraiburg,Germany,Mix Markt,"{'brand': 'Mix Markt', 'fascia': 'Mix Markt', 'category': 'Retail', 'edit_date': '20250506', 'lat_lon_source': 'Third Party'}",48.199134,12.394404,,"Mix Markt, Waldkraiburg",Phone: 08638 9555615,,957,,https://www.mixmarkt.eu/en/germany/stores/206/
Brandenburger Str. 6 51545 Waldbröl,Waldbröl,Germany,Mix Markt,"{'brand': 'Mix Markt', 'fascia': 'Mix Markt', 'category': 'Retail', 'edit_date': '20250506', 'lat_lon_source': 'Third Party'}",50.8867887,7.6216611,"{'opening_hours': {'Mon': '', 'Tue': '', 'Wed': '', 'Thu': '', 'Fri': '', 'Sat': '', 'Sun': ''}}","Mix Markt, Waldbröl",Phone: 02291 9125477,,784,,https://www.mixmarkt.eu/en/germany/stores/77/
Mannheimer Str. 129 68519 Viernheim,Viernheim,Germany,Mix Markt,"{'brand': 'Mix Markt', 'fascia': 'Mix Markt', 'category': 'Retail', 'edit_date': '20250506', 'lat_lon_source': 'Third Party'}",49.5274200,8.5613500,"{'opening_hours': {'Mon': '09:00-20:00', 'Tue': '09:00-20:00', 'Wed': '09:00-20:00', 'Thu': '09:00-20:00', 'Fri': '09:00-20:00', 'Sat': '09:00-20:00', 'Sun': ''}}","Mix Markt, Viernheim",Phone: 06204 6087238,,83,,https://www.mixmarkt.eu/en/germany/stores/90/
Am Weidengraben 9 54296 Trier,Trier,Germany,Mix Markt,"{'brand': 'Mix Markt', 'fascia': 'Mix Markt', 'category': 'Retail', 'edit_date': '20250506', 'lat_lon_source': 'Third Party'}",49.7517071,6.6851196,"{'opening_hours': {'Mon': '', 'Tue': '', 'Wed': '', 'Thu': '', 'Fri': '', 'Sat': '', 'Sun': ''}}","Mix Markt, Trier",Phone: 0651 99144866,,47,,https://www.mixmarkt.eu/en/germany/stores/49/
Ernst-Reuter-Platz 4 70499 Stuttgart,Stuttgart,Germany,Mix Markt,"{'brand': 'Mix Markt', 'fascia': 'Mix Markt', 'category': 'Retail', 'edit_date': '20250506', 'lat_lon_source': 'Third Party'}",48.813033,9.104408,,"Mix Markt, Stuttgart",Phone: 0711 80638730,,732,,https://www.mixmarkt.eu/en/germany/stores/166/
Wallensteinstraße 3 70437 Stuttgart,Stuttgart,Germany,Mix Markt,"{'brand': 'Mix Markt', 'fascia': 'Mix Markt', 'category': 'Retail', 'edit_date': '20250506', 'lat_lon_source': 'Third Party'}",48.8417200,9.2076300,"{'opening_hours': {'Mon': '08:00-20:00', 'Tue': '08:00-20:00', 'Wed': '08:00-20:00', 'Thu': '08:00-20:00', 'Fri': '08:00-20:00', 'Sat': '', 'Sun': ''}}","Mix Markt, Stuttgart",Phone: 0711 8494241,,41,,https://www.mixmarkt.eu/en/germany/stores/43/
Finkenstr.17 94315 Straubing,Straubing,Germany,Mix Markt,"{'brand': 'Mix Markt', 'fascia': 'Mix Markt', 'category': 'Retail', 'edit_date': '20250506', 'lat_lon_source': 'Third Party'}",48.8829823,12.5971876,,"Mix Markt, Straubing",Phone: 09421 185996,,101,,https://www.mixmarkt.eu/en/germany/stores/112/
Alte Dorfstr. 25 21684 Stade,Stade,Germany,Mix Markt,"{'brand': 'Mix Markt', 'fascia': 'Mix Markt', 'category': 'Retail', 'edit_date': '20250506', 'lat_lon_source': 'Third Party'}",53.5865700,9.4207300,"{'opening_hours': {'Mon': '09:00-19:00', 'Tue': '09:00-19:00', 'Wed': '09:00-19:00', 'Thu': '09:00-19:00', 'Fri': '09:00-19:00', 'Sat': '', 'Sun': ''}}","Mix Markt, Stade-Wiepenkathen",Phone: 04141 9399736,,32,,https://www.mixmarkt.eu/en/germany/stores/34/
Dudenhofer Strasse 44 67346 Speyer,Speyer,Germany,Mix Markt,"{'brand': 'Mix Markt', 'fascia': 'Mix Markt', 'category': 'Retail', 'edit_date': '20250506', 'lat_lon_source': 'Third Party'}",49.3184500,8.4176200,"{'opening_hours': {'Mon': '09:00-20:00', 'Tue': '09:00-20:00', 'Wed': '09:00-20:00', 'Thu': '09:00-20:00', 'Fri': '09:00-20:00', 'Sat': '09:00-20:00', 'Sun': ''}}","Mix Markt, Speyer",Phone: 06232 6580378,,8,,https://www.mixmarkt.eu/en/germany/stores/8/
Kaiser-Otto-Weg 7 59494 Soest,Soest,Germany,Mix Markt,"{'brand': 'Mix Markt', 'fascia': 'Mix Markt', 'category': 'Retail', 'edit_date': '20250506', 'lat_lon_source': 'Third Party'}",51.5566700,8.1077900,"{'opening_hours': {'Mon': '', 'Tue': '', 'Wed': '', 'Thu': '', 'Fri': '', 'Sat': '', 'Sun': ''}}","Mix Markt, Soest",Phone: 02921 6712167,,365,,https://www.mixmarkt.eu/en/germany/stores/140/
Neulandstr.12 74889 Sinsheim,Sinsheim,Germany,Mix Markt,"{'brand': 'Mix Markt', 'fascia': 'Mix Markt', 'category': 'Retail', 'edit_date': '20250506', 'lat_lon_source': 'Third Party'}",49.2467252,8.8806480,,"Mix Markt, Sinsheim",Phone: 07261 9734880,,702,,https://www.mixmarkt.eu/en/germany/stores/156/
Berliner Str.6 78224 Singen,Singen,Germany,Mix Markt,"{'brand': 'Mix Markt', 'fascia': 'Mix Markt', 'category': 'Retail', 'edit_date': '20250506', 'lat_lon_source': 'Third Party'}",47.7430200,8.8505600,"{'opening_hours': {'Mon': '09:00-20:00', 'Tue': '09:00-20:00', 'Wed': '09:00-20:00', 'Thu': '09:00-20:00', 'Fri': '09:00-20:00', 'Sat': '09:00-20:00', 'Sun': ''}}","Mix Markt, Singen",Phone: 07731 8279819,,92,,https://www.mixmarkt.eu/en/germany/stores/101/
Mercedesstr. 12 71063 Sindelfingen,Sindelfingen,Germany,Mix Markt,"{'brand': 'Mix Markt', 'fascia': 'Mix Markt', 'category': 'Retail', 'edit_date': '20250506', 'lat_lon_source': 'Third Party'}",48.7058988,8.9983377,,"Mix Markt, Sindelfingen",Phone:,,67,,https://www.mixmarkt.eu/en/germany/stores/72/
Friedrich-Wilhelm-Straße 134 57074 Siegen,Siegen,Germany,Mix Markt,"{'brand': 'Mix Markt', 'fascia': 'Mix Markt', 'category': 'Retail', 'edit_date': '20250506', 'lat_lon_source': 'Third Party'}",50.8641300,8.0334700,"{'opening_hours': {'Mon': '09:00-20:00', 'Tue': '09:00-20:00', 'Wed': '09:00-20:00', 'Thu': '09:00-20:00', 'Fri': '09:00-20:00', 'Sat': '', 'Sun': ''}}","Mix Markt, Siegen",Phone: 0271 31922300,,91,,https://www.mixmarkt.eu/en/germany/stores/99/
Bismarckstr. 55 56470 Bad Marienberg,Bad Marienberg,Germany,Mix Markt,"{'brand': 'Mix Markt', 'fascia': 'Mix Markt', 'category': 'Retail', 'edit_date': '20250506', 'lat_lon_source': 'Third Party'}",50.6459900,7.9441600,"{'opening_hours': {'Mon': '', 'Tue': '', 'Wed': '', 'Thu': '', 'Fri': '', 'Sat': '', 'Sun': ''}}","Mini Mix, Bad Marienberg",Phone: 02661 6880,,286,,https://www.mixmarkt.eu/en/germany/stores/351/
Händelstr.14 53721 Siegburg,Siegburg,Germany,Mix Markt,"{'brand': 'Mix Markt', 'fascia': 'Mix Markt', 'category': 'Retail', 'edit_date': '20250506', 'lat_lon_source': 'Third Party'}",50.7873279,7.2141876,"{'opening_hours': {'Mon': '08:00-19:00', 'Tue': '08:00-19:00', 'Wed': '08:00-19:00', 'Thu': '08:00-19:00', 'Fri': '08:00-19:00', 'Sat': '', 'Sun': ''}}","Mix Markt, Siegburg",Phone: 02241 1275888,,98,,https://www.mixmarkt.eu/en/germany/stores/109/
Danziger Str. 1 89250 Senden,Senden,Germany,Mix Markt,"{'brand': 'Mix Markt', 'fascia': 'Mix Markt', 'category': 'Retail', 'edit_date': '20250506', 'lat_lon_source': 'Third Party'}",48.3320357,10.0412855,"{'opening_hours': {'Mon': '09:00-20:00', 'Tue': '09:00-20:00', 'Wed': '09:00-20:00', 'Thu': '09:00-20:00', 'Fri': '09:00-20:00', 'Sat': '', 'Sun': ''}}","Mix Markt, Senden",Phone: 07307 952190,,56,,https://www.mixmarkt.eu/en/germany/stores/60/
Breslaustraße 14 97424 Schweinfurt,Schweinfurt,Germany,Mix Markt,"{'brand': 'Mix Markt', 'fascia': 'Mix Markt', 'category': 'Retail', 'edit_date': '20250506', 'lat_lon_source': 'Third Party'}",50.0375491,10.2002441,"{'opening_hours': {'Mon': '09:00-20:00', 'Tue': '09:00-20:00', 'Wed': '09:00-20:00', 'Thu': '09:00-20:00', 'Fri': '09:00-20:00', 'Sat': '', 'Sun': ''}}","Mix Markt, Schweinfurt",Phone: 09721 4731759,,4,,https://www.mixmarkt.eu/en/germany/stores/4/
Ettmannsdorfer Str. 24 92421 Schwandorf,Schwandorf,Germany,Mix Markt,"{'brand': 'Mix Markt', 'fascia': 'Mix Markt', 'category': 'Retail', 'edit_date': '20250506', 'lat_lon_source': 'Third Party'}",49.3297279,12.1027862,"{'opening_hours': {'Mon': '', 'Tue': '', 'Wed': '', 'Thu': '', 'Fri': '', 'Sat': '', 'Sun': ''}}","Mix Markt, Schwandorf",Phone:,,709,,https://www.mixmarkt.eu/en/germany/stores/164/
Werrenwiesenstraße 78 73525 Schwäbisch Gmünd,Schwäbisch Gmünd,Germany,Mix Markt,"{'brand': 'Mix Markt', 'fascia': 'Mix Markt', 'category': 'Retail', 'edit_date': '20250506', 'lat_lon_source': 'Third Party'}",48.7993579,9.8242768,,"Mix Markt, Schwäbisch Gmünd",Phone: 07171 9982516,,800,,https://www.mixmarkt.eu/en/germany/stores/200/
Fürther Str. 35 91126 Schwabach,Schwabach,Germany,Mix Markt,"{'brand': 'Mix Markt', 'fascia': 'Mix Markt', 'category': 'Retail', 'edit_date': '20250506', 'lat_lon_source': 'Third Party'}",49.3364173,11.0218803,,"Mix Markt, Schwabach",Phone: 09122 6939835,,23,,https://www.mixmarkt.eu/en/germany/stores/187/
Krühgarten 79 38228 Salzgitter,Salzgitter,Germany,Mix Markt,"{'brand': 'Mix Markt', 'fascia': 'Mix Markt', 'category': 'Retail', 'edit_date': '20250506', 'lat_lon_source': 'Third Party'}",52.1319899,10.2920944,"{'opening_hours': {'Mon': '', 'Tue': '', 'Wed': '', 'Thu': '', 'Fri': '', 'Sat': '', 'Sun': ''}}","Mix Markt, Salzgitter",Phone: 05341 2259420,,100,,https://www.mixmarkt.eu/en/germany/stores/111/
Käthe-Kollwitz-Str. 16 66115 Saarbrücken,Saarbrücken,Germany,Mix Markt,"{'brand': 'Mix Markt', 'fascia': 'Mix Markt', 'category': 'Retail', 'edit_date': '20250506', 'lat_lon_source': 'Third Party'}",49.2431953,6.9655584,"{'opening_hours': {'Mon': '08:00-20:00', 'Tue': '08:00-20:00', 'Wed': '08:00-20:00', 'Thu': '08:00-20:00', 'Fri': '08:00-20:00', 'Sat': '08:00-20:00', 'Sun': ''}}","Mix Markt, Saarbrücken",Phone: 0681 99196633,,81,,https://www.mixmarkt.eu/en/germany/stores/88/
Talliner Straße 3 18107 Rostock,Rostock,Germany,Mix Markt,"{'brand': 'Mix Markt', 'fascia': 'Mix Markt', 'category': 'Retail', 'edit_date': '20250506', 'lat_lon_source': 'Third Party'}",54.1333802,12.0584400,"{'opening_hours': {'Mon': '09:00-19:00', 'Tue': '09:00-19:00', 'Wed': '09:00-19:00', 'Thu': '09:00-19:00', 'Fri': '09:00-19:00', 'Sat': '09:00-19:00', 'Sun': ''}}","Mix Markt, Rostock",Phone: 0381 44056599,,691,,https://www.mixmarkt.eu/en/germany/stores/100/
Finsterwalderstr.48 83026 Rosenheim,Rosenheim,Germany,Mix Markt,"{'brand': 'Mix Markt', 'fascia': 'Mix Markt', 'category': 'Retail', 'edit_date': '20250506', 'lat_lon_source': 'Third Party'}",47.8503400,12.0966800,"{'opening_hours': {'Mon': '09:00-20:00', 'Tue': '09:00-20:00', 'Wed': '09:00-20:00', 'Thu': '09:00-20:00', 'Fri': '09:00-20:00', 'Sat': '', 'Sun': ''}}","Mix Markt, Rosenheim",Phone: 08031 3045185,,42,,https://www.mixmarkt.eu/en/germany/stores/44/
Alter Lingener Damm 15 48429 Rheine,Rheine,Germany,Mix Markt,"{'brand': 'Mix Markt', 'fascia': 'Mix Markt', 'category': 'Retail', 'edit_date': '20250506', 'lat_lon_source': 'Third Party'}",52.2877982,7.4417657,"{'opening_hours': {'Mon': '', 'Tue': '', 'Wed': '', 'Thu': '', 'Fri': '', 'Sat': '', 'Sun': ''}}","Mix Markt, Rheine",Phone: 05971 9149655,,744,,https://www.mixmarkt.eu/en/germany/stores/71/
Olgastraße 9 72770 Reutlingen,Reutlingen,Germany,Mix Markt,"{'brand': 'Mix Markt', 'fascia': 'Mix Markt', 'category': 'Retail', 'edit_date': '20250506', 'lat_lon_source': 'Third Party'}",48.4964018,9.1768192,"{'opening_hours': {'Mon': '08:00-20:00', 'Tue': '08:00-20:00', 'Wed': '08:00-20:00', 'Thu': '08:00-20:00', 'Fri': '08:00-20:00', 'Sat': '', 'Sun': ''}}","Mix Markt, Reutlingen - Betzingen",Phone: 07121 3043438,,2,,https://www.mixmarkt.eu/en/germany/stores/2/
Langobardenstr.2 93053 Regensburg,Regensburg,Germany,Mix Markt,"{'brand': 'Mix Markt', 'fascia': 'Mix Markt', 'category': 'Retail', 'edit_date': '20250506', 'lat_lon_source': 'Third Party'}",48.9947899,12.1144325,"{'opening_hours': {'Mon': '', 'Tue': '', 'Wed': '', 'Thu': '', 'Fri': '', 'Sat': '', 'Sun': ''}}","Mix Markt, Regensburg",Phone: 0941 78527410,,282,,https://www.mixmarkt.eu/en/germany/stores/121/
Sohlstättenstraße 46 40880 Ratingen,Ratingen,Germany,Mix Markt,"{'brand': 'Mix Markt', 'fascia': 'Mix Markt', 'category': 'Retail', 'edit_date': '20250506', 'lat_lon_source': 'Third Party'}",51.3090981,6.8170862,,"Mix Markt, Ratingen",Phone: 02102 1537991,,921,,https://www.mixmarkt.eu/en/germany/stores/191/
Gutenbergstr.1-3 76437 Rastatt,Rastatt,Germany,Mix Markt,"{'brand': 'Mix Markt', 'fascia': 'Mix Markt', 'category': 'Retail', 'edit_date': '20250506', 'lat_lon_source': 'Third Party'}",48.866284,8.189762,"{'opening_hours': {'Mon': '08:00-20:00', 'Tue': '08:00-20:00', 'Wed': '08:00-20:00', 'Thu': '08:00-20:00', 'Fri': '08:00-20:00', 'Sat': '', 'Sun': ''}}","Mix Markt, Rastatt",Phone: 07222 4067861,,10,,https://www.mixmarkt.eu/en/germany/stores/10/
St.-Ulrich-Str.6 94060 Pocking,Pocking,Germany,Mix Markt,"{'brand': 'Mix Markt', 'fascia': 'Mix Markt', 'category': 'Retail', 'edit_date': '20250506', 'lat_lon_source': 'Third Party'}",48.4029500,13.3090700,"{'opening_hours': {'Mon': '', 'Tue': '', 'Wed': '', 'Thu': '', 'Fri': '', 'Sat': '', 'Sun': ''}}","Mix Markt, Pocking",Phone: 08531 4119395,,658,,https://www.mixmarkt.eu/en/germany/stores/149/
Winzler Str. 67 66955 Pirmasens,Pirmasens,Germany,Mix Markt,"{'brand': 'Mix Markt', 'fascia': 'Mix Markt', 'category': 'Retail', 'edit_date': '20250506', 'lat_lon_source': 'Third Party'}",49.1964838,7.5994178,,"Mix Markt, Pirmasens",Phone: 06331 1442094,,104,,https://www.mixmarkt.eu/en/germany/stores/115/
Pillauer Straße 14 75181 Pforzheim,Pforzheim,Germany,Mix Markt,"{'brand': 'Mix Markt', 'fascia': 'Mix Markt', 'category': 'Retail', 'edit_date': '20250506', 'lat_lon_source': 'Third Party'}",48.8837000,8.7345100,"{'opening_hours': {'Mon': '08:00-20:00', 'Tue': '08:00-20:00', 'Wed': '08:00-20:00', 'Thu': '08:00-20:00', 'Fri': '08:00-20:00', 'Sat': '08:00-20:00', 'Sun': ''}}","Mix Markt, Pforzheim",Phone: 07231 2980085,,61,,https://www.mixmarkt.eu/en/germany/stores/65/
Alte Raiffeisenstrasse 3 94036 Passau,Passau,Germany,Mix Markt,"{'brand': 'Mix Markt', 'fascia': 'Mix Markt', 'category': 'Retail', 'edit_date': '20250506', 'lat_lon_source': 'Third Party'}",48.5844541,13.3953161,,"Mix Markt, Passau",Phone: 0851 96611104,,849,,https://www.mixmarkt.eu/en/germany/stores/186/
Cloppenburger Straße 228 26133 Oldenburg,Oldenburg,Germany,Mix Markt,"{'brand': 'Mix Markt', 'fascia': 'Mix Markt', 'category': 'Retail', 'edit_date': '20250506', 'lat_lon_source': 'Third Party'}",53.1141300,8.2127800,"{'opening_hours': {'Mon': '09:00-19:00', 'Tue': '09:00-19:00', 'Wed': '09:00-19:00', 'Thu': '09:00-19:00', 'Fri': '09:00-19:00', 'Sat': '09:00-19:00', 'Sun': ''}}","Mix Markt, Oldenburg",Phone: 0441 96027123,,43,,https://www.mixmarkt.eu/en/germany/stores/45/
Wichernstr. 2 77656 Offenburg,Offenburg,Germany,Mix Markt,"{'brand': 'Mix Markt', 'fascia': 'Mix Markt', 'category': 'Retail', 'edit_date': '20250506', 'lat_lon_source': 'Third Party'}",48.4622000,7.9241900,"{'opening_hours': {'Mon': '', 'Tue': '', 'Wed': '', 'Thu': '', 'Fri': '', 'Sat': '', 'Sun': ''}}","Mix Markt, Offenburg",Phone: 0781 99024074,,377,,https://www.mixmarkt.eu/en/germany/stores/143/
Richard-Wagner-Str.32 63069 Offenbach,Offenbach,Germany,Mix Markt,"{'brand': 'Mix Markt', 'fascia': 'Mix Markt', 'category': 'Retail', 'edit_date': '20250506', 'lat_lon_source': 'Third Party'}",50.0889215,8.7556932,"{'opening_hours': {'Mon': '', 'Tue': '', 'Wed': '', 'Thu': '', 'Fri': '', 'Sat': '', 'Sun': ''}}","Mix Markt, Offenbach",Phone: 069 83005988,,34,,https://www.mixmarkt.eu/en/germany/stores/36/
Stukenbrocker Weg 18a 33813 Oerlinghausen,Oerlinghausen,Germany,Mix Markt,"{'brand': 'Mix Markt', 'fascia': 'Mix Markt', 'category': 'Retail', 'edit_date': '20250506', 'lat_lon_source': 'Third Party'}",51.9406200,8.6546800,"{'opening_hours': {'Mon': '09:00-19:00', 'Tue': '09:00-19:00', 'Wed': '09:00-19:00', 'Thu': '09:00-19:00', 'Fri': '09:00-19:00', 'Sat': '', 'Sun': ''}}","Mix Markt, Oerlinghausen",Phone: 05202 9776861,,1,,https://www.mixmarkt.eu/en/germany/stores/1/
Leipziger Str.1 63179 Obertshausen,Obertshausen,Germany,Mix Markt,"{'brand': 'Mix Markt', 'fascia': 'Mix Markt', 'category': 'Retail', 'edit_date': '20250506', 'lat_lon_source': 'Third Party'}",50.0751469,8.8531144,,"Mix Markt, Obertshausen",Phone: 06104 4053930,,783,,https://www.mixmarkt.eu/en/germany/stores/181/
Staufenstr.6 72622 Nürtingen,Nürtingen,Germany,Mix Markt,"{'brand': 'Mix Markt', 'fascia': 'Mix Markt', 'category': 'Retail', 'edit_date': '20250506', 'lat_lon_source': 'Third Party'}",48.6158300,9.3505200,,"Mix Markt, Nürtingen",Phone: 07022 604516,,86,,https://www.mixmarkt.eu/en/germany/stores/94/
Schweinauer Hauptstraße 127 90441 Nürnberg,Nürnberg,Germany,Mix Markt,"{'brand': 'Mix Markt', 'fascia': 'Mix Markt', 'category': 'Retail', 'edit_date': '20250506', 'lat_lon_source': 'Third Party'}",49.4267565,11.0421750,"{'opening_hours': {'Mon': '09:00-20:00', 'Tue': '09:00-20:00', 'Wed': '09:00-20:00', 'Thu': '09:00-20:00', 'Fri': '09:00-20:00', 'Sat': '09:00-20:00', 'Sun': ''}}","Mix Markt, Nürnberg-Schweinau",Phone: 0911 6249844,,71,,https://www.mixmarkt.eu/en/germany/stores/76/
Wettersteinstr.39 90471 Nürnberg,Nürnberg,Germany,Mix Markt,"{'brand': 'Mix Markt', 'fascia': 'Mix Markt', 'category': 'Retail', 'edit_date': '20250506', 'lat_lon_source': 'Third Party'}",49.411538,11.120736,,"Mix Markt, Nürnberg-Langwasser",Phone: 0911 80099479,,1009,,https://www.mixmarkt.eu/en/germany/stores/178/
Neulichtenhofstr.16 90461 Nürnberg,Nürnberg,Germany,Mix Markt,"{'brand': 'Mix Markt', 'fascia': 'Mix Markt', 'category': 'Retail', 'edit_date': '20250506', 'lat_lon_source': 'Third Party'}",49.4301276,11.0877200,"{'opening_hours': {'Mon': '09:00-20:00', 'Tue': '09:00-20:00', 'Wed': '09:00-20:00', 'Thu': '09:00-20:00', 'Fri': '09:00-20:00', 'Sat': '', 'Sun': ''}}","Mix Markt, Nürnberg-Hummelstein",Phone: 0911 99446248,,97,,https://www.mixmarkt.eu/en/germany/stores/108/
Schnieglinger Str. 45 90419 Nürnberg,Nürnberg,Germany,Mix Markt,"{'brand': 'Mix Markt', 'fascia': 'Mix Markt', 'category': 'Retail', 'edit_date': '20250506', 'lat_lon_source': 'Third Party'}",49.4570619,11.0345596,"{'opening_hours': {'Mon': '', 'Tue': '', 'Wed': '', 'Thu': '', 'Fri': '', 'Sat': '', 'Sun': ''}}","Mix Markt, Nürnberg",Phone: 0911 35063937,,70,,https://www.mixmarkt.eu/en/germany/stores/180/
Westfalenstr. 13 48529 Nordhorn,Nordhorn,Germany,Mix Markt,"{'brand': 'Mix Markt', 'fascia': 'Mix Markt', 'category': 'Retail', 'edit_date': '20250506', 'lat_lon_source': 'Third Party'}",52.4148300,7.0774700,"{'opening_hours': {'Mon': '09:00-19:00', 'Tue': '09:00-19:00', 'Wed': '09:00-19:00', 'Thu': '09:00-19:00', 'Fri': '09:00-19:00', 'Sat': '', 'Sun': ''}}","Mix Markt, Nordhorn",Phone: 05921 7272952,,665,,https://www.mixmarkt.eu/en/germany/stores/146/
Ulzburger Straße 398 22846 Norderstedt,Norderstedt,Germany,Mix Markt,"{'brand': 'Mix Markt', 'fascia': 'Mix Markt', 'category': 'Retail', 'edit_date': '20250506', 'lat_lon_source': 'Third Party'}",53.722681,9.99836,"{'opening_hours': {'Mon': '', 'Tue': '', 'Wed': '', 'Thu': '', 'Fri': '', 'Sat': '', 'Sun': ''}}","Mix Markt, Norderstedt",Phone: 040 28056098,,994,,https://www.mixmarkt.eu/en/germany/stores/210/
Königsberger Straße 1 56564 Neuwied,Neuwied,Germany,Mix Markt,"{'brand': 'Mix Markt', 'fascia': 'Mix Markt', 'category': 'Retail', 'edit_date': '20250506', 'lat_lon_source': 'Third Party'}",50.4341800,7.4874300,"{'opening_hours': {'Mon': '09:00-20:00', 'Tue': '09:00-20:00', 'Wed': '09:00-20:00', 'Thu': '09:00-20:00', 'Fri': '09:00-20:00', 'Sat': '09:00-20:00', 'Sun': ''}}","Mix Markt, Neuwied",Phone: 02631 824209,,26,,https://www.mixmarkt.eu/en/germany/stores/28/
Bayernplatz 7 67433 Neustadt an der Weinstraße,Neustadt an der Weinstraße,Germany,Mix Markt,"{'brand': 'Mix Markt', 'fascia': 'Mix Markt', 'category': 'Retail', 'edit_date': '20250506', 'lat_lon_source': 'Third Party'}",49.3591500,8.1565400,"{'opening_hours': {'Mon': '09:00-20:00', 'Tue': '09:00-20:00', 'Wed': '09:00-20:00', 'Thu': '09:00-20:00', 'Fri': '09:00-20:00', 'Sat': '09:00-20:00', 'Sun': ''}}","Mix Markt, Neustadt an der Weinstraße",Phone: 06321 5789607,,110,,https://www.mixmarkt.eu/en/germany/stores/124/
Neusser Weyhe 74 41462 Neuss,Neuss,Germany,Mix Markt,"{'brand': 'Mix Markt', 'fascia': 'Mix Markt', 'category': 'Retail', 'edit_date': '20250506', 'lat_lon_source': 'Third Party'}",51.2157445,6.6767372,"{'opening_hours': {'Mon': '09:00-19:00', 'Tue': '09:00-19:00', 'Wed': '09:00-19:00', 'Thu': '09:00-19:00', 'Fri': '09:00-19:00', 'Sat': '', 'Sun': ''}}","Mix Markt, Neuss",Phone: 02131 2981787,,48,,https://www.mixmarkt.eu/en/germany/stores/50/
Untere Bliesstr. 61B 66539 Neunkirchen,Neunkirchen,Germany,Mix Markt,"{'brand': 'Mix Markt', 'fascia': 'Mix Markt', 'category': 'Retail', 'edit_date': '20250506', 'lat_lon_source': 'Third Party'}",49.3522318,7.219583,"{'opening_hours': {'Mon': '09:00-20:00', 'Tue': '09:00-20:00', 'Wed': '09:00-20:00', 'Thu': '09:00-20:00', 'Fri': '09:00-20:00', 'Sat': '09:00-20:00', 'Sun': ''}}","Mix Markt, Neunkirchen",Phone: 06821 7902464,,946,,https://www.mixmarkt.eu/en/germany/stores/198/
Kieler Straße 221 24536 Neumünster,Neumünster,Germany,Mix Markt,"{'brand': 'Mix Markt', 'fascia': 'Mix Markt', 'category': 'Retail', 'edit_date': '20250506', 'lat_lon_source': 'Third Party'}",54.0912000,9.9854100,"{'opening_hours': {'Mon': '09:00-19:00', 'Tue': '09:00-19:00', 'Wed': '09:00-19:00', 'Thu': '09:00-19:00', 'Fri': '09:00-19:00', 'Sat': '', 'Sun': ''}}","Mix Markt, Neumünster",Phone: 04321 4896939,,59,,https://www.mixmarkt.eu/en/germany/stores/63/
Müllheimer Str.34 79395 Neuenburg am Rhein,Neuenburg am Rhein,Germany,Mix Markt,"{'brand': 'Mix Markt', 'fascia': 'Mix Markt', 'category': 'Retail', 'edit_date': '20250506', 'lat_lon_source': 'Third Party'}",47.8118500,7.5684200,"{'opening_hours': {'Mon': '', 'Tue': '', 'Wed': '', 'Thu': '', 'Fri': '', 'Sat': '', 'Sun': ''}}","Mix Markt, Neuenburg am Rhein",Phone: 07631 175993,,103,,https://www.mixmarkt.eu/en/germany/stores/114/
Amorbacher Str. 30 74172 Neckarsulm,Neckarsulm,Germany,Mix Markt,"{'brand': 'Mix Markt', 'fascia': 'Mix Markt', 'category': 'Retail', 'edit_date': '20250506', 'lat_lon_source': 'Third Party'}",49.211324,9.249868,,"Mix Markt, Neckarsulm",Phone: 07132 3410836,,33,,https://www.mixmarkt.eu/en/germany/stores/35/
Leonhardstr.21 72202 Nagold,Nagold,Germany,Mix Markt,"{'brand': 'Mix Markt', 'fascia': 'Mix Markt', 'category': 'Retail', 'edit_date': '20250506', 'lat_lon_source': 'Third Party'}",48.5516313,8.7268215,"{'opening_hours': {'Mon': '', 'Tue': '', 'Wed': '', 'Thu': '', 'Fri': '', 'Sat': '', 'Sun': ''}}","Mix Markt, Nagold",Phone: 07452 810791,,31,,https://www.mixmarkt.eu/en/germany/stores/33/
Isoldenstr. 60 80804 München,München,Germany,Mix Markt,"{'brand': 'Mix Markt', 'fascia': 'Mix Markt', 'category': 'Retail', 'edit_date': '20250506', 'lat_lon_source': 'Third Party'}",48.1753718,11.5826078,"{'opening_hours': {'Mon': '09:00-20:00', 'Tue': '09:00-20:00', 'Wed': '09:00-20:00', 'Thu': '09:00-20:00', 'Fri': '09:00-20:00', 'Sat': '09:00-20:00', 'Sun': ''}}","Mix Markt, München",Phone:,,316,,https://www.mixmarkt.eu/en/germany/stores/125/
Eisenbahnstr.2-8 72116  Mössingen,Mössingen,Germany,Mix Markt,"{'brand': 'Mix Markt', 'fascia': 'Mix Markt', 'category': 'Retail', 'edit_date': '20250506', 'lat_lon_source': 'Third Party'}",48.4064042,9.0461381,,"Mix Markt, Mössingen",Phone: 07473 9218350,,278,,https://www.mixmarkt.eu/en/germany/stores/117/
Mittelstr.21 41236 Mönchengladbach,Mönchengladbach,Germany,Mix Markt,"{'brand': 'Mix Markt', 'fascia': 'Mix Markt', 'category': 'Retail', 'edit_date': '20250506', 'lat_lon_source': 'Third Party'}",51.1707500,6.4572900,"{'opening_hours': {'Mon': '09:00-19:00', 'Tue': '09:00-19:00', 'Wed': '09:00-19:00', 'Thu': '09:00-19:00', 'Fri': '09:00-19:00', 'Sat': '', 'Sun': ''}}","Mix Markt, Mönchengladbach",Phone: 02166 130513,,45,,https://www.mixmarkt.eu/en/germany/stores/47/
Oderstraße 58a 47445 Moers,Moers,Germany,Mix Markt,"{'brand': 'Mix Markt', 'fascia': 'Mix Markt', 'category': 'Retail', 'edit_date': '20250506', 'lat_lon_source': 'Third Party'}",51.4836400,6.6274100,"{'opening_hours': {'Mon': '09:00-19:00', 'Tue': '09:00-19:00', 'Wed': '09:00-19:00', 'Thu': '09:00-19:00', 'Fri': '09:00-19:00', 'Sat': '09:00-19:00', 'Sun': ''}}","Mix Markt, Moers",Phone: 02841 9996353,,82,,https://www.mixmarkt.eu/en/germany/stores/89/
Rodenbecker Strasse 79 32427 Minden,Minden,Germany,Mix Markt,"{'brand': 'Mix Markt', 'fascia': 'Mix Markt', 'category': 'Retail', 'edit_date': '20250506', 'lat_lon_source': 'Third Party'}",52.2865472,8.8924917,"{'opening_hours': {'Mon': '09:00-19:00', 'Tue': '09:00-19:00', 'Wed': '09:00-19:00', 'Thu': '09:00-19:00', 'Fri': '09:00-19:00', 'Sat': '', 'Sun': ''}}","Mix Markt, Minden",Phone: 0571 3885501,,40,,https://www.mixmarkt.eu/en/germany/stores/42/
Mönchstr. 3a 34431 Marsberg,Marsberg,Germany,Mix Markt,"{'brand': 'Mix Markt', 'fascia': 'Mix Markt', 'category': 'Retail', 'edit_date': '20250506', 'lat_lon_source': 'Third Party'}",51.46226,8.8511013,"{'opening_hours': {'Mon': '09:00-19:00', 'Tue': '09:00-19:00', 'Wed': '09:00-19:00', 'Thu': '09:00-19:00', 'Fri': '09:00-19:00', 'Sat': '', 'Sun': ''}}","Mix Markt, Marsberg",Phone: 02992 9748857,,714,,https://www.mixmarkt.eu/en/germany/stores/168/
Friedrich-Ebert-Str. 27  35039 Marburg,Marburg,Germany,Mix Markt,"{'brand': 'Mix Markt', 'fascia': 'Mix Markt', 'category': 'Retail', 'edit_date': '20250506', 'lat_lon_source': 'Third Party'}",50.7881630,8.7704845,"{'opening_hours': {'Mon': '09:00-19:00', 'Tue': '09:00-19:00', 'Wed': '09:00-19:00', 'Thu': '09:00-19:00', 'Fri': '09:00-19:00', 'Sat': '', 'Sun': ''}}","Mix Markt, Marburg",Phone: 06421 1836064,,294,,https://www.mixmarkt.eu/en/germany/stores/130/
Konzstraße 25 68169 Mannheim,Mannheim,Germany,Mix Markt,"{'brand': 'Mix Markt', 'fascia': 'Mix Markt', 'category': 'Retail', 'edit_date': '20250506', 'lat_lon_source': 'Third Party'}",49.5118302,8.4700277,"{'opening_hours': {'Mon': '09:00-20:00', 'Tue': '09:00-20:00', 'Wed': '09:00-20:00', 'Thu': '09:00-20:00', 'Fri': '09:00-20:00', 'Sat': '09:00-20:00', 'Sun': ''}}","Mix Markt, Mannheim",Phone: 0621 3214151,,17,,https://www.mixmarkt.eu/en/germany/stores/17/
Schmidtstr. 57-59 39124 Magdeburg,Magdeburg,Germany,Mix Markt,"{'brand': 'Mix Markt', 'fascia': 'Mix Markt', 'category': 'Retail', 'edit_date': '20250506', 'lat_lon_source': 'Third Party'}",52.155294,11.640694,,"Mix Markt, Magdeburg",Phone: 0391 50695441,,338,,https://www.mixmarkt.eu/en/germany/stores/135/
Schützenstr. 4a 58511 Lüdenscheid,Lüdenscheid,Germany,Mix Markt,"{'brand': 'Mix Markt', 'fascia': 'Mix Markt', 'category': 'Retail', 'edit_date': '20250506', 'lat_lon_source': 'Third Party'}",51.2123306,7.6442711,"{'opening_hours': {'Mon': '08:00-20:00', 'Tue': '08:00-20:00', 'Wed': '08:00-20:00', 'Thu': '08:00-20:00', 'Fri': '08:00-20:00', 'Sat': '', 'Sun': ''}}","Mix Markt, Lüdenscheid",Phone: 02351 677377,,687,,https://www.mixmarkt.eu/en/germany/stores/159/
Moislinger Allee 81 23558 Lübeck,Lübeck,Germany,Mix Markt,"{'brand': 'Mix Markt', 'fascia': 'Mix Markt', 'category': 'Retail', 'edit_date': '20250506', 'lat_lon_source': 'Third Party'}",53.8533900,10.6627000,"{'opening_hours': {'Mon': '09:00-19:00', 'Tue': '09:00-19:00', 'Wed': '09:00-19:00', 'Thu': '09:00-19:00', 'Fri': '09:00-19:00', 'Sat': '', 'Sun': ''}}","Mix Markt, Lübeck",Phone: 0451 4798945,,88,,https://www.mixmarkt.eu/en/germany/stores/96/
Südstraße 26-28 59557 Lippstadt,Lippstadt,Germany,Mix Markt,"{'brand': 'Mix Markt', 'fascia': 'Mix Markt', 'category': 'Retail', 'edit_date': '20250506', 'lat_lon_source': 'Third Party'}",51.6618721,8.3516864,"{'opening_hours': {'Mon': '09:00-19:00', 'Tue': '09:00-19:00', 'Wed': '09:00-19:00', 'Thu': '09:00-19:00', 'Fri': '09:00-19:00', 'Sat': '', 'Sun': ''}}","Mix Markt, Lippstadt",Phone: 02941 923036,,20,,https://www.mixmarkt.eu/en/germany/stores/20/
Heisfelder Straße 83 26789 Leer,Leer,Germany,Mix Markt,"{'brand': 'Mix Markt', 'fascia': 'Mix Markt', 'category': 'Retail', 'edit_date': '20250506', 'lat_lon_source': 'Third Party'}",53.2344300,7.4525100,"{'opening_hours': {'Mon': '', 'Tue': '', 'Wed': '', 'Thu': '', 'Fri': '', 'Sat': '', 'Sun': ''}}","Mix Markt, Leer",Phone: 0491 97110720,,657,,https://www.mixmarkt.eu/en/germany/stores/134/
Zeppelinstr. 4  65549 Limburg,Limburg,Germany,Mix Markt,"{'brand': 'Mix Markt', 'fascia': 'Mix Markt', 'category': 'Retail', 'edit_date': '20250506', 'lat_lon_source': 'Third Party'}",50.3715880,8.0646170,"{'opening_hours': {'Mon': '09:00-20:00', 'Tue': '09:00-20:00', 'Wed': '09:00-20:00', 'Thu': '09:00-20:00', 'Fri': '09:00-20:00', 'Sat': '09:00-20:00', 'Sun': ''}}","Mix Markt, Limburg-Blumenrod",Phone: 06431 479628,,16,,https://www.mixmarkt.eu/en/germany/stores/16/
Ferdinand-Porsche-Straße 6-8 69181 Leimen,Leimen,Germany,Mix Markt,"{'brand': 'Mix Markt', 'fascia': 'Mix Markt', 'category': 'Retail', 'edit_date': '20250506', 'lat_lon_source': 'Third Party'}",49.3433400,8.6787200,"{'opening_hours': {'Mon': '09:00-20:00', 'Tue': '09:00-20:00', 'Wed': '09:00-20:00', 'Thu': '09:00-20:00', 'Fri': '09:00-20:00', 'Sat': '09:00-20:00', 'Sun': ''}}","Mix Markt, Leimen",Phone: 06224 148911,,53,,https://www.mixmarkt.eu/en/germany/stores/56/
Lange Weihe 65 30880 Laatzen,Laatzen,Germany,Mix Markt,"{'brand': 'Mix Markt', 'fascia': 'Mix Markt', 'category': 'Retail', 'edit_date': '20250506', 'lat_lon_source': 'Third Party'}",52.3051700,9.8225200,"{'opening_hours': {'Mon': '09:00-19:00', 'Tue': '09:00-19:00', 'Wed': '09:00-19:00', 'Thu': '09:00-19:00', 'Fri': '09:00-19:00', 'Sat': '', 'Sun': ''}}","Mix Markt, Laatzen",Phone: 0511 4756800,,108,,https://www.mixmarkt.eu/en/germany/stores/122/
Traarer Str. 26-30 47829 Krefeld,Krefeld,Germany,Mix Markt,"{'brand': 'Mix Markt', 'fascia': 'Mix Markt', 'category': 'Retail', 'edit_date': '20250506', 'lat_lon_source': 'Third Party'}",51.3556182,6.6406171,"{'opening_hours': {'Mon': '', 'Tue': '', 'Wed': '', 'Thu': '', 'Fri': '', 'Sat': '', 'Sun': ''}}","Mix Markt, Krefeld",Phone: 02151 6558200,,1084,,https://www.mixmarkt.eu/en/germany/stores/223/
Dülkener Straße 44-46 47804 Krefeld,Krefeld,Germany,Mix Markt,"{'brand': 'Mix Markt', 'fascia': 'Mix Markt', 'category': 'Retail', 'edit_date': '20250506', 'lat_lon_source': 'Third Party'}",51.3203700,6.5268700,"{'opening_hours': {'Mon': '08:00-20:00', 'Tue': '08:00-20:00', 'Wed': '08:00-20:00', 'Thu': '08:00-20:00', 'Fri': '08:00-20:00', 'Sat': '', 'Sun': ''}}","Mix Markt, Krefeld",Phone: 02151 7672521,,298,,https://www.mixmarkt.eu/en/germany/stores/133/
Konrad-Adenauer-Straße 40/42 51149 Köln,Köln,Germany,Mix Markt,"{'brand': 'Mix Markt', 'fascia': 'Mix Markt', 'category': 'Retail', 'edit_date': '20250506', 'lat_lon_source': 'Third Party'}",50.8956492,7.0633662,"{'opening_hours': {'Mon': '09:00-20:00', 'Tue': '09:00-20:00', 'Wed': '09:00-20:00', 'Thu': '09:00-20:00', 'Fri': '09:00-20:00', 'Sat': '', 'Sun': ''}}","Mix Markt, Köln- Porz-Eil",Phone: 02203 1037834,,73,,https://www.mixmarkt.eu/en/germany/stores/79/
Piccoloministr. 523 51067 Köln,Köln,Germany,Mix Markt,"{'brand': 'Mix Markt', 'fascia': 'Mix Markt', 'category': 'Retail', 'edit_date': '20250506', 'lat_lon_source': 'Third Party'}",50.9733586,7.0519781,"{'opening_hours': {'Mon': '', 'Tue': '', 'Wed': '', 'Thu': '', 'Fri': '', 'Sat': '', 'Sun': ''}}","Mix Markt, Köln",Phone: 0221 62092640,,671,,https://www.mixmarkt.eu/en/germany/stores/155/
Henriette-Sontag-Str.4 56070 Koblenz,Koblenz,Germany,Mix Markt,"{'brand': 'Mix Markt', 'fascia': 'Mix Markt', 'category': 'Retail', 'edit_date': '20250506', 'lat_lon_source': 'Third Party'}",50.3700900,7.5970700,"{'opening_hours': {'Mon': '09:00-20:00', 'Tue': '09:00-20:00', 'Wed': '09:00-20:00', 'Thu': '09:00-20:00', 'Fri': '09:00-20:00', 'Sat': '', 'Sun': ''}}","Mix Markt, Koblenz",Phone: 0261 98279889,,89,,https://www.mixmarkt.eu/en/germany/stores/97/
Jütlandring 22 24109 Kiel,Kiel,Germany,Mix Markt,"{'brand': 'Mix Markt', 'fascia': 'Mix Markt', 'category': 'Retail', 'edit_date': '20250506', 'lat_lon_source': 'Third Party'}",54.3142300,10.0502700,"{'opening_hours': {'Mon': '09:00-19:00', 'Tue': '09:00-19:00', 'Wed': '09:00-19:00', 'Thu': '09:00-19:00', 'Fri': '09:00-19:00', 'Sat': '', 'Sun': ''}}","Mix Markt, Kiel",Phone: 0431 99079908,,107,,https://www.mixmarkt.eu/en/germany/stores/119/
Schwalbenweg 71 87439 Kempten,Kempten,Germany,Mix Markt,"{'brand': 'Mix Markt', 'fascia': 'Mix Markt', 'category': 'Retail', 'edit_date': '20250506', 'lat_lon_source': 'Third Party'}",47.7375000,10.2898900,"{'opening_hours': {'Mon': '', 'Tue': '', 'Wed': '', 'Thu': '', 'Fri': '', 'Sat': '', 'Sun': ''}}","Mix Markt, Kempten",Phone: 0831 51278-05,,7,,https://www.mixmarkt.eu/en/germany/stores/7/
Heinrich-Plett-Str. 55-57 34132 Kassel,Kassel,Germany,Mix Markt,"{'brand': 'Mix Markt', 'fascia': 'Mix Markt', 'category': 'Retail', 'edit_date': '20250506', 'lat_lon_source': 'Third Party'}",0.00,,"{'opening_hours': {'Mon': '09:00-19:00', 'Tue': '09:00-19:00', 'Wed': '09:00-19:00', 'Thu': '09:00-19:00', 'Fri': '09:00-19:00', 'Sat': '', 'Sun': ''}}","Mix Markt, Kassel",Phone: 0561 4003510,,1083,,https://www.mixmarkt.eu/en/germany/stores/225/
Holländische Straße 41-43 34127 Kassel,Kassel,Germany,Mix Markt,"{'brand': 'Mix Markt', 'fascia': 'Mix Markt', 'category': 'Retail', 'edit_date': '20250506', 'lat_lon_source': 'Third Party'}",51.3235528,9.5007851,"{'opening_hours': {'Mon': '09:00-19:00', 'Tue': '09:00-19:00', 'Wed': '09:00-19:00', 'Thu': '09:00-19:00', 'Fri': '09:00-19:00', 'Sat': '', 'Sun': ''}}","Mix Markt, Kassel",Phone: 0561 4754917,,30,,https://www.mixmarkt.eu/en/germany/stores/32/
Otto-Wels-Str. 29 76189 Karlsruhe,Karlsruhe,Germany,Mix Markt,"{'brand': 'Mix Markt', 'fascia': 'Mix Markt', 'category': 'Retail', 'edit_date': '20250506', 'lat_lon_source': 'Third Party'}",48.9861500,8.3627900,"{'opening_hours': {'Mon': '09:00-20:00', 'Tue': '09:00-20:00', 'Wed': '09:00-20:00', 'Thu': '09:00-20:00', 'Fri': '09:00-20:00', 'Sat': '09:00-20:00', 'Sun': ''}}","Mix Markt, Karlsruhe",Phone: 0721 1832649,,62,,https://www.mixmarkt.eu/en/germany/stores/66/
Am Sandfeld 1 76149 Karlsruhe,Karlsruhe,Germany,Mix Markt,"{'brand': 'Mix Markt', 'fascia': 'Mix Markt', 'category': 'Retail', 'edit_date': '20250506', 'lat_lon_source': 'Third Party'}",49.0443094,8.3890913,,"Mix Markt, Karlsruhe",Phone: 0721 78195193,,6,,https://www.mixmarkt.eu/en/germany/stores/6/
Königsberger Str. 2a 59174 Kamen,Kamen,Germany,Mix Markt,"{'brand': 'Mix Markt', 'fascia': 'Mix Markt', 'category': 'Retail', 'edit_date': '20250506', 'lat_lon_source': 'Third Party'}",51.5967048,7.6694641,"{'opening_hours': {'Mon': '', 'Tue': '', 'Wed': '', 'Thu': '', 'Fri': '', 'Sat': '', 'Sun': ''}}","Mix Markt, Kamen",Phone: 02307 9104925,,773,,https://www.mixmarkt.eu/en/germany/stores/179/
Merkurstr.2 67663 Kaiserslautern,Kaiserslautern,Germany,Mix Markt,"{'brand': 'Mix Markt', 'fascia': 'Mix Markt', 'category': 'Retail', 'edit_date': '20250506', 'lat_lon_source': 'Third Party'}",49.4449500,7.7321400,"{'opening_hours': {'Mon': '09:00-20:00', 'Tue': '09:00-20:00', 'Wed': '09:00-20:00', 'Thu': '09:00-20:00', 'Fri': '09:00-20:00', 'Sat': '09:00-20:00', 'Sun': ''}}","Mix Markt, Kaiserslautern",Phone: 0631 3502972,,76,,https://www.mixmarkt.eu/en/germany/stores/82/
Giesestr. 4 58636 Iserlohn,Iserlohn,Germany,Mix Markt,"{'brand': 'Mix Markt', 'fascia': 'Mix Markt', 'category': 'Retail', 'edit_date': '20250506', 'lat_lon_source': 'Third Party'}",51.3959278,7.6919262,"{'opening_hours': {'Mon': '', 'Tue': '', 'Wed': '', 'Thu': '', 'Fri': '', 'Sat': '', 'Sun': ''}}","Mix Markt, Iserlohn",Phone: 02371 1595117,,11,,https://www.mixmarkt.eu/en/germany/stores/11/
Theodor-Heuss-Str. 64 85055 Ingolstadt,Ingolstadt,Germany,Mix Markt,"{'brand': 'Mix Markt', 'fascia': 'Mix Markt', 'category': 'Retail', 'edit_date': '20250506', 'lat_lon_source': 'Third Party'}",48.7782275,11.4414024,"{'opening_hours': {'Mon': '09:00-20:00', 'Tue': '09:00-20:00', 'Wed': '09:00-20:00', 'Thu': '09:00-20:00', 'Fri': '09:00-20:00', 'Sat': '09:00-20:00', 'Sun': ''}}","Mix Markt, Ingolstadt",Phone: 0841 3706562,,25,,https://www.mixmarkt.eu/en/germany/stores/26/
Tiefensteiner Str.197 55743 Idar,Idar,Germany,Mix Markt,"{'brand': 'Mix Markt', 'fascia': 'Mix Markt', 'category': 'Retail', 'edit_date': '20250506', 'lat_lon_source': 'Third Party'}",49.7359200,7.2829000,"{'opening_hours': {'Mon': '09:00-20:00', 'Tue': '09:00-20:00', 'Wed': '09:00-20:00', 'Thu': '09:00-20:00', 'Fri': '09:00-20:00', 'Sat': '09:00-20:00', 'Sun': ''}}","Mix Markt, Idar-Oberstein",Phone: 06781 5626863,,77,,https://www.mixmarkt.eu/en/germany/stores/83/
Am Zweibrücker Tor 12 66424 Homburg,Homburg,Germany,Mix Markt,"{'brand': 'Mix Markt', 'fascia': 'Mix Markt', 'category': 'Retail', 'edit_date': '20250506', 'lat_lon_source': 'Third Party'}",49.319117,7.3363797,,"Mix Markt, Homburg",Phone: 06841 7575693,,736,,https://www.mixmarkt.eu/en/germany/stores/129/
Heiligengrabstraße 27 95028 Hof,Hof,Germany,Mix Markt,"{'brand': 'Mix Markt', 'fascia': 'Mix Markt', 'category': 'Retail', 'edit_date': '20250506', 'lat_lon_source': 'Third Party'}",50.3228600,11.9237500,"{'opening_hours': {'Mon': '09:00-19:00', 'Tue': '09:00-19:00', 'Wed': '09:00-19:00', 'Thu': '09:00-19:00', 'Fri': '09:00-19:00', 'Sat': '', 'Sun': ''}}","Mix Markt, Hof",Phone: 09281 8339317,,64,,https://www.mixmarkt.eu/en/germany/stores/68/
Drispenstedter Str. 6 31135 Hildesheim,Hildesheim,Germany,Mix Markt,"{'brand': 'Mix Markt', 'fascia': 'Mix Markt', 'category': 'Retail', 'edit_date': '20250506', 'lat_lon_source': 'Third Party'}",52.1627200,9.9640800,"{'opening_hours': {'Mon': '09:00-19:00', 'Tue': '09:00-19:00', 'Wed': '09:00-19:00', 'Thu': '09:00-19:00', 'Fri': '09:00-19:00', 'Sat': '', 'Sun': ''}}","Mix Markt, Hildesheim",Phone: 05121 2061040,,36,,https://www.mixmarkt.eu/en/germany/stores/38/
Roonstr. 23a 44629 Herne,Herne,Germany,Mix Markt,"{'brand': 'Mix Markt', 'fascia': 'Mix Markt', 'category': 'Retail', 'edit_date': '20250506', 'lat_lon_source': 'Third Party'}",51.5506665,7.2209108,,"Mix Markt, Herne",Phone: 02323 9467953,,1027,,https://www.mixmarkt.eu/en/germany/stores/199/
Magdeburger Str.23 32049 Herford,Herford,Germany,Mix Markt,"{'brand': 'Mix Markt', 'fascia': 'Mix Markt', 'category': 'Retail', 'edit_date': '20250506', 'lat_lon_source': 'Third Party'}",52.1357400,8.6953500,"{'opening_hours': {'Mon': '09:00-19:00', 'Tue': '09:00-19:00', 'Wed': '09:00-19:00', 'Thu': '09:00-19:00', 'Fri': '09:00-19:00', 'Sat': '', 'Sun': ''}}","Mix Markt, Herford",Phone: 05221 7636794,,60,,https://www.mixmarkt.eu/en/germany/stores/64/
Sebastianusstraße 31 52525 Heinsberg,Heinsberg,Germany,Mix Markt,"{'brand': 'Mix Markt', 'fascia': 'Mix Markt', 'category': 'Retail', 'edit_date': '20250506', 'lat_lon_source': 'Third Party'}",51.040443,6.144147,,"Mix Markt, Heinsberg",Phone: 02452 1560417,,967,,https://www.mixmarkt.eu/en/germany/stores/194/
Sinsheimer Straße 7 - 11 74080 Heilbronn,Heilbronn,Germany,Mix Markt,"{'brand': 'Mix Markt', 'fascia': 'Mix Markt', 'category': 'Retail', 'edit_date': '20250506', 'lat_lon_source': 'Third Party'}",49.1456299,9.1822955,"{'opening_hours': {'Mon': '09:00-20:00', 'Tue': '09:00-20:00', 'Wed': '09:00-20:00', 'Thu': '09:00-20:00', 'Fri': '09:00-20:00', 'Sat': '09:00-20:00', 'Sun': ''}}","Mix Markt, Heilbronn",Phone: 07131 5945885,,3,,https://www.mixmarkt.eu/en/germany/stores/3/
Friedrich-Ebert-Straße 17 89522 Heidenheim,Heidenheim,Germany,Mix Markt,"{'brand': 'Mix Markt', 'fascia': 'Mix Markt', 'category': 'Retail', 'edit_date': '20250506', 'lat_lon_source': 'Third Party'}",48.6767100,10.1609300,"{'opening_hours': {'Mon': '09:00-20:00', 'Tue': '09:00-20:00', 'Wed': '09:00-20:00', 'Thu': '09:00-20:00', 'Fri': '09:00-20:00', 'Sat': '09:00-20:00', 'Sun': ''}}","Mix Markt, Heidenheim",Phone: 07321 277879,,22,,https://www.mixmarkt.eu/en/germany/stores/22/
Königsberger Str. 1  65795 Hattersheim ,Hattersheim ,Germany,Mix Markt,"{'brand': 'Mix Markt', 'fascia': 'Mix Markt', 'category': 'Retail', 'edit_date': '20250506', 'lat_lon_source': 'Third Party'}",50.0727356,8.4965521,,"Mix Markt, Hattersheim",Phone: 06190 933712,,762,,https://www.mixmarkt.eu/en/germany/stores/174/
Holmberg 23 24955 Harrislee,Harrislee,Germany,Mix Markt,"{'brand': 'Mix Markt', 'fascia': 'Mix Markt', 'category': 'Retail', 'edit_date': '20250506', 'lat_lon_source': 'Third Party'}",54.8051600,9.3880300,"{'opening_hours': {'Mon': '08:00-19:00', 'Tue': '08:00-19:00', 'Wed': '08:00-19:00', 'Thu': '08:00-19:00', 'Fri': '08:00-19:00', 'Sat': '08:00-19:00', 'Sun': ''}}","Mix Markt, Harrislee",Phone: 0461 9957545,,57,,https://www.mixmarkt.eu/en/germany/stores/61/
Vahrenheider Markt 6 30179 Hannover,Hannover,Germany,Mix Markt,"{'brand': 'Mix Markt', 'fascia': 'Mix Markt', 'category': 'Retail', 'edit_date': '20250506', 'lat_lon_source': 'Third Party'}",52.4111500,9.7497000,"{'opening_hours': {'Mon': '09:00-19:00', 'Tue': '09:00-19:00', 'Wed': '09:00-19:00', 'Thu': '09:00-19:00', 'Fri': '09:00-19:00', 'Sat': '', 'Sun': ''}}","Mix Markt, Hannover-Vahrenheide",Phone: 0511 2619855,,18,,https://www.mixmarkt.eu/en/germany/stores/18/
Schierholzstr. 128 30655 Hannover,Hannover,Germany,Mix Markt,"{'brand': 'Mix Markt', 'fascia': 'Mix Markt', 'category': 'Retail', 'edit_date': '20250506', 'lat_lon_source': 'Third Party'}",52.3999700,9.8285000,"{'opening_hours': {'Mon': '09:00-19:00', 'Tue': '09:00-19:00', 'Wed': '09:00-19:00', 'Thu': '09:00-19:00', 'Fri': '09:00-19:00', 'Sat': '09:00-19:00', 'Sun': ''}}","Mix Markt, Hannover",Phone: 0511 5859848,,12,,https://www.mixmarkt.eu/en/germany/stores/12/
Großer Sandweg 23 59065 Hamm,Hamm,Germany,Mix Markt,"{'brand': 'Mix Markt', 'fascia': 'Mix Markt', 'category': 'Retail', 'edit_date': '20250506', 'lat_lon_source': 'Third Party'}",51.6921508,7.8034536,"{'opening_hours': {'Mon': '09:00-19:00', 'Tue': '09:00-19:00', 'Wed': '09:00-19:00', 'Thu': '09:00-19:00', 'Fri': '09:00-19:00', 'Sat': '', 'Sun': ''}}","Mix Markt, Hamm",Phone: 02381 4825141,,63,,https://www.mixmarkt.eu/en/germany/stores/67/
Spreestr.12 22547 Hamburg,Hamburg,Germany,Mix Markt,"{'brand': 'Mix Markt', 'fascia': 'Mix Markt', 'category': 'Retail', 'edit_date': '20250506', 'lat_lon_source': 'Third Party'}",53.6013600,9.8848300,"{'opening_hours': {'Mon': '09:00-19:00', 'Tue': '09:00-19:00', 'Wed': '09:00-19:00', 'Thu': '09:00-19:00', 'Fri': '09:00-19:00', 'Sat': '', 'Sun': ''}}","Mix Markt, Hamburg-Lurup",Phone: 040 80010615,,9,,https://www.mixmarkt.eu/en/germany/stores/9/
Friedrich-Frank-Bogen 81 21033 Hamburg,Hamburg,Germany,Mix Markt,"{'brand': 'Mix Markt', 'fascia': 'Mix Markt', 'category': 'Retail', 'edit_date': '20250506', 'lat_lon_source': 'Third Party'}",53.4893422,10.1826671,"{'opening_hours': {'Mon': '09:00-19:00', 'Tue': '09:00-19:00', 'Wed': '09:00-19:00', 'Thu': '09:00-19:00', 'Fri': '09:00-19:00', 'Sat': '', 'Sun': ''}}","Mix Markt, Hamburg-Bergedorf",Phone: 040 51327645,,27,,https://www.mixmarkt.eu/en/germany/stores/29/
Tonndorfer Hauptstraße 66 22045  Hamburg,Hamburg,Germany,Mix Markt,"{'brand': 'Mix Markt', 'fascia': 'Mix Markt', 'category': 'Retail', 'edit_date': '20250506', 'lat_lon_source': 'Third Party'}",53.5851695,10.1226634,,"Mix Markt, Hamburg",Phone: 040 66935430,,349,,https://www.mixmarkt.eu/en/germany/stores/98/
Emil-Kemmer-Str.9a 96103 Hallstadt,Hallstadt,Germany,Mix Markt,"{'brand': 'Mix Markt', 'fascia': 'Mix Markt', 'category': 'Retail', 'edit_date': '20250506', 'lat_lon_source': 'Third Party'}",49.9160185,10.8651364,"{'opening_hours': {'Mon': '', 'Tue': '', 'Wed': '', 'Thu': '', 'Fri': '', 'Sat': '', 'Sun': ''}}","Mix Markt, Hallstadt",Phone: 0951 96842494,,825,,https://www.mixmarkt.eu/en/germany/stores/196/
Pfälzer Str.2 33332 Gütersloh,Gütersloh,Germany,Mix Markt,"{'brand': 'Mix Markt', 'fascia': 'Mix Markt', 'category': 'Retail', 'edit_date': '20250506', 'lat_lon_source': 'Third Party'}",51.9146567,8.3908437,"{'opening_hours': {'Mon': '09:00-19:00', 'Tue': '09:00-19:00', 'Wed': '09:00-19:00', 'Thu': '09:00-19:00', 'Fri': '09:00-19:00', 'Sat': '', 'Sun': ''}}","Mix Markt, Gütersloh",Phone: 05241 307842,,96,,https://www.mixmarkt.eu/en/germany/stores/106/
Wiesenstr. 20-24 51643 Gummersbach,Gummersbach,Germany,Mix Markt,"{'brand': 'Mix Markt', 'fascia': 'Mix Markt', 'category': 'Retail', 'edit_date': '20250506', 'lat_lon_source': 'Third Party'}",51.0228564,7.5766380,"{'opening_hours': {'Mon': '08:00-19:00', 'Tue': '08:00-19:00', 'Wed': '08:00-19:00', 'Thu': '08:00-19:00', 'Fri': '08:00-19:00', 'Sat': '', 'Sun': ''}}","Mix Markt, Gummersbach",Phone: 02261 2908849,,65,,https://www.mixmarkt.eu/en/germany/stores/69/
Backhausstraße 21-23 37081 Göttingen,Göttingen,Germany,Mix Markt,"{'brand': 'Mix Markt', 'fascia': 'Mix Markt', 'category': 'Retail', 'edit_date': '20250506', 'lat_lon_source': 'Third Party'}",51.5328284,9.8948756,"{'opening_hours': {'Mon': '08:00-19:00', 'Tue': '08:00-19:00', 'Wed': '08:00-19:00', 'Thu': '08:00-19:00', 'Fri': '08:00-19:00', 'Sat': '', 'Sun': ''}}","Mix Markt, Göttingen",Phone: 0551 5096306,,58,,https://www.mixmarkt.eu/en/germany/stores/62/
Reuterstraße 7 99867 Gotha,Gotha,Germany,Mix Markt,"{'brand': 'Mix Markt', 'fascia': 'Mix Markt', 'category': 'Retail', 'edit_date': '20250506', 'lat_lon_source': 'Third Party'}",50.95521,10.71198,,"Mix Markt, Gotha",Phone: 03621 7364940,,852,,https://www.mixmarkt.eu/en/germany/stores/202/
Hohenstaufenstr.18-20 73033 Göppingen,Göppingen,Germany,Mix Markt,"{'brand': 'Mix Markt', 'fascia': 'Mix Markt', 'category': 'Retail', 'edit_date': '20250506', 'lat_lon_source': 'Third Party'}",48.7043500,9.6638600,,"Mix Markt, Göppingen",Phone: 07161 9564104,,28,,https://www.mixmarkt.eu/en/germany/stores/30/
Bantzerweg 1 35396 Gießen,Gießen,Germany,Mix Markt,"{'brand': 'Mix Markt', 'fascia': 'Mix Markt', 'category': 'Retail', 'edit_date': '20250506', 'lat_lon_source': 'Third Party'}",50.5963700,8.6886300,"{'opening_hours': {'Mon': '09:00-20:00', 'Tue': '09:00-20:00', 'Wed': '09:00-20:00', 'Thu': '09:00-20:00', 'Fri': '09:00-20:00', 'Sat': '', 'Sun': ''}}","Mix Markt, Gießen",Phone: 0641 9312827,,52,,https://www.mixmarkt.eu/en/germany/stores/55/
Im Steinigen Graben 36 63571 Gelnhausen,Gelnhausen,Germany,Mix Markt,"{'brand': 'Mix Markt', 'fascia': 'Mix Markt', 'category': 'Retail', 'edit_date': '20250506', 'lat_lon_source': 'Third Party'}",50.18826,9.18605,"{'opening_hours': {'Mon': '09:00-20:00', 'Tue': '09:00-20:00', 'Wed': '09:00-20:00', 'Thu': '09:00-20:00', 'Fri': '09:00-20:00', 'Sat': '09:00-20:00', 'Sun': ''}}","Mix Markt, Gelnhausen",Phone: 06051 9719236,,721,,https://www.mixmarkt.eu/en/germany/stores/165/
Schwabacher Str. 137 90763 Fürth,Fürth,Germany,Mix Markt,"{'brand': 'Mix Markt', 'fascia': 'Mix Markt', 'category': 'Retail', 'edit_date': '20250506', 'lat_lon_source': 'Third Party'}",49.464074,10.9861733,"{'opening_hours': {'Mon': '', 'Tue': '', 'Wed': '', 'Thu': '', 'Fri': '', 'Sat': '', 'Sun': ''}}","Mix Markt, Fürth",Phone: 0911 78720249,,751,,https://www.mixmarkt.eu/en/germany/stores/171/
Voltastraße 9 90766 Fürth,Fürth,Germany,Mix Markt,"{'brand': 'Mix Markt', 'fascia': 'Mix Markt', 'category': 'Retail', 'edit_date': '20250506', 'lat_lon_source': 'Third Party'}",49.4824902,10.9550198,,"Mix Markt, Fürth",Phone: 0911 97499740,,716,,https://www.mixmarkt.eu/en/germany/stores/162/
Michael-Henkel-Strasse 16 36043 Fulda,Fulda,Germany,Mix Markt,"{'brand': 'Mix Markt', 'fascia': 'Mix Markt', 'category': 'Retail', 'edit_date': '20250506', 'lat_lon_source': 'Third Party'}",50.545833,9.699264,"{'opening_hours': {'Mon': '09:00-19:00', 'Tue': '09:00-19:00', 'Wed': '09:00-19:00', 'Thu': '09:00-19:00', 'Fri': '09:00-19:00', 'Sat': '09:00-19:00', 'Sun': ''}}","Mix Markt, Fulda",Phone: 0661 9338748,,815,,https://www.mixmarkt.eu/en/germany/stores/151/
Donaustraße  13 88046 Friedrichshafen,Friedrichshafen,Germany,Mix Markt,"{'brand': 'Mix Markt', 'fascia': 'Mix Markt', 'category': 'Retail', 'edit_date': '20250506', 'lat_lon_source': 'Third Party'}",47.6724916,9.4913381,,"Mix Markt, Friedrichshafen",Phone: 07541 9414225,,737,,https://www.mixmarkt.eu/en/germany/stores/167/
Krozinger Str. 7-11 79114 Freiburg,Freiburg,Germany,Mix Markt,"{'brand': 'Mix Markt', 'fascia': 'Mix Markt', 'category': 'Retail', 'edit_date': '20250506', 'lat_lon_source': 'Third Party'}",47.9943761,7.808593,,"Mix Markt, Freiburg",Phone: 0761 1375376,,779,,https://www.mixmarkt.eu/en/germany/stores/175/
An der Vogelrute 36 53879 Euskirchen,Euskirchen,Germany,Mix Markt,"{'brand': 'Mix Markt', 'fascia': 'Mix Markt', 'category': 'Retail', 'edit_date': '20250506', 'lat_lon_source': 'Third Party'}",50.6547100,6.7972600,,"Mix Markt, Euskirchen",Phone: 02251 625670,,87,,https://www.mixmarkt.eu/en/germany/stores/95/
Altendorfer Str. 241-245 45143 Essen,Essen,Germany,Mix Markt,"{'brand': 'Mix Markt', 'fascia': 'Mix Markt', 'category': 'Retail', 'edit_date': '20250506', 'lat_lon_source': 'Third Party'}",51.4591651,6.9834878,,"Mix Markt, Essen",Phone: 0201 86940095,,782,,https://www.mixmarkt.eu/en/germany/stores/177/
Am Hügel 23-25 32339 Espelkamp,Espelkamp,Germany,Mix Markt,"{'brand': 'Mix Markt', 'fascia': 'Mix Markt', 'category': 'Retail', 'edit_date': '20250506', 'lat_lon_source': 'Third Party'}",52.373575,8.628092,"{'opening_hours': {'Mon': '', 'Tue': '', 'Wed': '', 'Thu': '', 'Fri': '', 'Sat': '', 'Sun': ''}}","Mix Markt, Espelkamp",Phone: 05772 9168423,,950,,https://www.mixmarkt.eu/en/germany/stores/211/
Adam-Opel-Straße 2 41812 Erkelenz,Erkelenz,Germany,Mix Markt,"{'brand': 'Mix Markt', 'fascia': 'Mix Markt', 'category': 'Retail', 'edit_date': '20250506', 'lat_lon_source': 'Third Party'}",51.0762817,6.3020337,"{'opening_hours': {'Mon': '', 'Tue': '', 'Wed': '', 'Thu': '', 'Fri': '', 'Sat': '', 'Sun': ''}}","Mix Markt, Erkelenz",Phone: 02431 9710851,,200,,https://www.mixmarkt.eu/en/germany/stores/120/
Riethstr.1a 99089 Erfurt,Erfurt,Germany,Mix Markt,"{'brand': 'Mix Markt', 'fascia': 'Mix Markt', 'category': 'Retail', 'edit_date': '20250506', 'lat_lon_source': 'Third Party'}",51.0027482,11.0202484,"{'opening_hours': {'Mon': '', 'Tue': '', 'Wed': '', 'Thu': '', 'Fri': '', 'Sat': '', 'Sun': ''}}","Mix Markt, Erfurt",Phone: 0361 65435788,,676,,https://www.mixmarkt.eu/en/germany/stores/154/
Hainholzer Damm 21 25337 Elmshorn,Elmshorn,Germany,Mix Markt,"{'brand': 'Mix Markt', 'fascia': 'Mix Markt', 'category': 'Retail', 'edit_date': '20250506', 'lat_lon_source': 'Third Party'}",53.7413700,9.6708500,"{'opening_hours': {'Mon': '09:00-19:00', 'Tue': '09:00-19:00', 'Wed': '09:00-19:00', 'Thu': '09:00-19:00', 'Fri': '09:00-19:00', 'Sat': '', 'Sun': ''}}","Mix Markt, Elmshorn",Phone: 04121 7807788,,35,,https://www.mixmarkt.eu/en/germany/stores/37/
Katharinenstr. 78 99817 Eisenach,Eisenach,Germany,Mix Markt,"{'brand': 'Mix Markt', 'fascia': 'Mix Markt', 'category': 'Retail', 'edit_date': '20250506', 'lat_lon_source': 'Third Party'}",50.976953,10.30944,"{'opening_hours': {'Mon': '', 'Tue': '', 'Wed': '', 'Thu': '', 'Fri': '', 'Sat': '', 'Sun': ''}}","Mix Markt, Eisenach",Phone:,,966,,https://www.mixmarkt.eu/en/germany/stores/213/
Arnoldsweilerstr. 31 52351 Düren,Düren,Germany,Mix Markt,"{'brand': 'Mix Markt', 'fascia': 'Mix Markt', 'category': 'Retail', 'edit_date': '20250506', 'lat_lon_source': 'Third Party'}",50.8101500,6.4861000,"{'opening_hours': {'Mon': '09:00-19:00', 'Tue': '09:00-19:00', 'Wed': '09:00-19:00', 'Thu': '09:00-19:00', 'Fri': '09:00-19:00', 'Sat': '09:00-19:00', 'Sun': ''}}","Mix Markt, Düren",Phone: 02421 204682,,37,,https://www.mixmarkt.eu/en/germany/stores/39/
Emmericher Str. 143 47138 Duisburg,Duisburg,Germany,Mix Markt,"{'brand': 'Mix Markt', 'fascia': 'Mix Markt', 'category': 'Retail', 'edit_date': '20250506', 'lat_lon_source': 'Third Party'}",51.4664100,6.7927500,"{'opening_hours': {'Mon': '09:00-20:00', 'Tue': '09:00-20:00', 'Wed': '09:00-20:00', 'Thu': '09:00-20:00', 'Fri': '09:00-20:00', 'Sat': '', 'Sun': ''}}","Mix Markt, Duisburg",Phone: 0203 4103366,,19,,https://www.mixmarkt.eu/en/germany/stores/19/
Amalie-Dietrich-Platz 6 01169 Dresden,Dresden,Germany,Mix Markt,"{'brand': 'Mix Markt', 'fascia': 'Mix Markt', 'category': 'Retail', 'edit_date': '20250506', 'lat_lon_source': 'Third Party'}",51.0430658,13.6788833,,"Mix Markt, Dresden",Phone: 0351 43848421,,664,,https://www.mixmarkt.eu/en/germany/stores/152/
Otto -Dix-Ring 100 01219 Dresden,Dresden,Germany,Mix Markt,"{'brand': 'Mix Markt', 'fascia': 'Mix Markt', 'category': 'Retail', 'edit_date': '20250506', 'lat_lon_source': 'Third Party'}",51.0178674,13.7778186,,"Mix Markt, Dresden",Phone: 0351 20437229,,879,,https://www.mixmarkt.eu/en/germany/stores/203/
Brackeler Hellweg 117 44309 Dortmund,Dortmund,Germany,Mix Markt,"{'brand': 'Mix Markt', 'fascia': 'Mix Markt', 'category': 'Retail', 'edit_date': '20250506', 'lat_lon_source': 'Third Party'}",51.5232277,7.5444459,"{'opening_hours': {'Mon': '', 'Tue': '', 'Wed': '', 'Thu': '', 'Fri': '', 'Sat': '', 'Sun': ''}}","Mix Markt, Dortmund",Phone: 0231 58939163,,903,,https://www.mixmarkt.eu/en/germany/stores/176/
Bielefelder Straße 235 32758 Detmold,Detmold,Germany,Mix Markt,"{'brand': 'Mix Markt', 'fascia': 'Mix Markt', 'category': 'Retail', 'edit_date': '20250506', 'lat_lon_source': 'Third Party'}",51.9424000,8.8424900,"{'opening_hours': {'Mon': '09:00-19:00', 'Tue': '09:00-19:00', 'Wed': '09:00-19:00', 'Thu': '09:00-19:00', 'Fri': '09:00-19:00', 'Sat': '', 'Sun': ''}}","Mix Markt, Detmold",Phone: 05231 9619-19,,24,,https://www.mixmarkt.eu/en/germany/stores/24/
Oldenburger Straße 65 27753 Delmenhorst,Delmenhorst,Germany,Mix Markt,"{'brand': 'Mix Markt', 'fascia': 'Mix Markt', 'category': 'Retail', 'edit_date': '20250506', 'lat_lon_source': 'Third Party'}",53.0487652,8.6102040,"{'opening_hours': {'Mon': '', 'Tue': '', 'Wed': '', 'Thu': '', 'Fri': '', 'Sat': '', 'Sun': ''}}","Mix Markt, Delmenhorst",Phone: 04221 8008590,,660,,https://www.mixmarkt.eu/en/germany/stores/136/
Hans-Krämer-Str.24  94469 Deggendorf,Deggendorf,Germany,Mix Markt,"{'brand': 'Mix Markt', 'fascia': 'Mix Markt', 'category': 'Retail', 'edit_date': '20250506', 'lat_lon_source': 'Third Party'}",48.8292262,12.9589647,,"Mix Markt, Deggendorf",Phone: 0991 99137373,,789,,https://www.mixmarkt.eu/en/germany/stores/183/
Siemensstraße 2-16 64289 Darmstadt,Darmstadt,Germany,Mix Markt,"{'brand': 'Mix Markt', 'fascia': 'Mix Markt', 'category': 'Retail', 'edit_date': '20250506', 'lat_lon_source': 'Third Party'}",49.8960500,8.6800700,"{'opening_hours': {'Mon': '09:00-20:00', 'Tue': '09:00-20:00', 'Wed': '09:00-20:00', 'Thu': '09:00-20:00', 'Fri': '09:00-20:00', 'Sat': '09:00-20:00', 'Sun': ''}}","Mix Markt, Darmstadt",Phone: 06151 9615314,,51,,https://www.mixmarkt.eu/en/germany/stores/53/
Konrad-Adenauer-Straße 1-3 74564 Crailsheim,Crailsheim,Germany,Mix Markt,"{'brand': 'Mix Markt', 'fascia': 'Mix Markt', 'category': 'Retail', 'edit_date': '20250506', 'lat_lon_source': 'Third Party'}",49.1304088,10.0841856,"{'opening_hours': {'Mon': '09:00-20:00', 'Tue': '09:00-20:00', 'Wed': '09:00-20:00', 'Thu': '09:00-20:00', 'Fri': '09:00-20:00', 'Sat': '09:00-20:00', 'Sun': ''}}","Mix Markt, Crailsheim",Phone: 07951 2970204,,95,,https://www.mixmarkt.eu/en/germany/stores/105/
Rodacher Str. 10a 96450 Coburg,Coburg,Germany,Mix Markt,"{'brand': 'Mix Markt', 'fascia': 'Mix Markt', 'category': 'Retail', 'edit_date': '20250506', 'lat_lon_source': 'Third Party'}",50.272423,10.963827,,"Mix Markt, Coburg",Phone: 09561 4263904,,761,,https://www.mixmarkt.eu/en/germany/stores/170/
Markersdorfer Str. 96  09123 Chemnitz ,Chemnitz ,Germany,Mix Markt,"{'brand': 'Mix Markt', 'fascia': 'Mix Markt', 'category': 'Retail', 'edit_date': '20250506', 'lat_lon_source': 'Third Party'}",50.7920087,12.8929524,"{'opening_hours': {'Mon': '', 'Tue': '', 'Wed': '', 'Thu': '', 'Fri': '', 'Sat': '', 'Sun': ''}}","Mix Markt, Chemnitz",Phone: 0371 77418970,,733,,https://www.mixmarkt.eu/en/germany/stores/172/
Holser Str. 33 32257 Bünde,Bünde,Germany,Mix Markt,"{'brand': 'Mix Markt', 'fascia': 'Mix Markt', 'category': 'Retail', 'edit_date': '20250506', 'lat_lon_source': 'Third Party'}",52.2034100,8.5624951,"{'opening_hours': {'Mon': '09:00-19:00', 'Tue': '09:00-19:00', 'Wed': '09:00-19:00', 'Thu': '09:00-19:00', 'Fri': '09:00-19:00', 'Sat': '', 'Sun': ''}}","Mix Markt, Bünde",Phone: 05223 1897905,,93,,https://www.mixmarkt.eu/en/germany/stores/102/
Berliner Freiheit 9b 28327 Bremen,Bremen,Germany,Mix Markt,"{'brand': 'Mix Markt', 'fascia': 'Mix Markt', 'category': 'Retail', 'edit_date': '20250506', 'lat_lon_source': 'Third Party'}",53.0819400,8.8932300,"{'opening_hours': {'Mon': '09:00-19:00', 'Tue': '09:00-19:00', 'Wed': '09:00-19:00', 'Thu': '09:00-19:00', 'Fri': '09:00-19:00', 'Sat': '', 'Sun': ''}}","Mix Markt, Bremen-Vahr",Phone: 0421 4684927,,50,,https://www.mixmarkt.eu/en/germany/stores/52/
Illerstraße 61a/62 38120 Braunschweig,Braunschweig,Germany,Mix Markt,"{'brand': 'Mix Markt', 'fascia': 'Mix Markt', 'category': 'Retail', 'edit_date': '20250506', 'lat_lon_source': 'Third Party'}",52.2422000,10.4811300,"{'opening_hours': {'Mon': '', 'Tue': '', 'Wed': '', 'Thu': '', 'Fri': '', 'Sat': '', 'Sun': ''}}","Mix Markt, Braunschweig",Phone: 0531 87440814,,329,,https://www.mixmarkt.eu/en/germany/stores/54/
Schneidemühler Straße 1 53119 Bonn,Bonn,Germany,Mix Markt,"{'brand': 'Mix Markt', 'fascia': 'Mix Markt', 'category': 'Retail', 'edit_date': '20250506', 'lat_lon_source': 'Third Party'}",50.7468055,7.0618032,"{'opening_hours': {'Mon': '08:00-19:00', 'Tue': '08:00-19:00', 'Wed': '08:00-19:00', 'Thu': '08:00-19:00', 'Fri': '08:00-19:00', 'Sat': '', 'Sun': ''}}","Mix Markt, Bonn",Phone: 0228 2428310,,55,,https://www.mixmarkt.eu/en/germany/stores/59/
Harpener Hellweg 137 44805 Bochum,Bochum,Germany,Mix Markt,"{'brand': 'Mix Markt', 'fascia': 'Mix Markt', 'category': 'Retail', 'edit_date': '20250506', 'lat_lon_source': 'Third Party'}",51.5002934,7.2821578,"{'opening_hours': {'Mon': '09:00-19:00', 'Tue': '09:00-19:00', 'Wed': '09:00-19:00', 'Thu': '09:00-19:00', 'Fri': '09:00-19:00', 'Sat': '', 'Sun': ''}}","Mix Markt, Bochum-Harpen",Phone: 0234 6104644,,46,,https://www.mixmarkt.eu/en/germany/stores/48/
Goerdelerstr. 1 71034 Böblingen,Böblingen,Germany,Mix Markt,"{'brand': 'Mix Markt', 'fascia': 'Mix Markt', 'category': 'Retail', 'edit_date': '20250506', 'lat_lon_source': 'Third Party'}",48.6767492,9.0034642,"{'opening_hours': {'Mon': '08:00-20:00', 'Tue': '08:00-20:00', 'Wed': '08:00-20:00', 'Thu': '08:00-20:00', 'Fri': '08:00-20:00', 'Sat': '08:00-20:00', 'Sun': ''}}","Mix Markt, Böblingen",Phone: 07031 439817,,29,,https://www.mixmarkt.eu/en/germany/stores/31/
Neue Torstr. 48a 32825 Blomberg,Blomberg,Germany,Mix Markt,"{'brand': 'Mix Markt', 'fascia': 'Mix Markt', 'category': 'Retail', 'edit_date': '20250506', 'lat_lon_source': 'Third Party'}",51.9463700,9.0906500,"{'opening_hours': {'Mon': '09:00-19:00', 'Tue': '09:00-19:00', 'Wed': '09:00-19:00', 'Thu': '09:00-19:00', 'Fri': '09:00-19:00', 'Sat': '', 'Sun': ''}}","Mix Markt, Blomberg",Phone: 05235 5090422,,435,,https://www.mixmarkt.eu/en/germany/stores/147/
Beckhausstraße 72 33611 Bielefeld,Bielefeld,Germany,Mix Markt,"{'brand': 'Mix Markt', 'fascia': 'Mix Markt', 'category': 'Retail', 'edit_date': '20250506', 'lat_lon_source': 'Third Party'}",52.0403978,8.5438390,"{'opening_hours': {'Mon': '09:00-19:00', 'Tue': '09:00-19:00', 'Wed': '09:00-19:00', 'Thu': '09:00-19:00', 'Fri': '09:00-19:00', 'Sat': '', 'Sun': ''}}","Mix Markt, Bielefeld",Phone: 0521 1364112,,49,,https://www.mixmarkt.eu/en/germany/stores/51/
Jan-Petersen-Straße 18 12679 Berlin Marzahn,Berlin Marzahn,Germany,Mix Markt,"{'brand': 'Mix Markt', 'fascia': 'Mix Markt', 'category': 'Retail', 'edit_date': '20250506', 'lat_lon_source': 'Third Party'}",52.5497062,13.5646177,"{'opening_hours': {'Mon': '08:00-20:00', 'Tue': '08:00-20:00', 'Wed': '08:00-20:00', 'Thu': '08:00-20:00', 'Fri': '08:00-20:00', 'Sat': '08:00-20:00', 'Sun': ''}}","Mix Markt, Berlin Carree Marzahn",Phone: 030 97891881,,14,,https://www.mixmarkt.eu/en/germany/stores/14/
Brunsbütteler Damm 273 13591 Berlin,Berlin,Germany,Mix Markt,"{'brand': 'Mix Markt', 'fascia': 'Mix Markt', 'category': 'Retail', 'edit_date': '20250506', 'lat_lon_source': 'Third Party'}",52.5326363,13.1554824,"{'opening_hours': {'Mon': '08:00-20:00', 'Tue': '08:00-20:00', 'Wed': '08:00-20:00', 'Thu': '08:00-20:00', 'Fri': '08:00-20:00', 'Sat': '08:00-20:00', 'Sun': ''}}","Mix Markt, Berlin",Phone: 030 77322931,,1040,,https://www.mixmarkt.eu/en/germany/stores/222/
Leuschnerstr. 80 95447 Bayreuth,Bayreuth,Germany,Mix Markt,"{'brand': 'Mix Markt', 'fascia': 'Mix Markt', 'category': 'Retail', 'edit_date': '20250506', 'lat_lon_source': 'Third Party'}",49.9333300,11.5661400,"{'opening_hours': {'Mon': '09:00-19:00', 'Tue': '09:00-19:00', 'Wed': '09:00-19:00', 'Thu': '09:00-19:00', 'Fri': '09:00-19:00', 'Sat': '', 'Sun': ''}}","Mix Markt, Bayreuth",Phone: 0921 1507966,,38,,https://www.mixmarkt.eu/en/germany/stores/40/
Lichtentaler Str. 66 76530 Baden,Baden,Germany,Mix Markt,"{'brand': 'Mix Markt', 'fascia': 'Mix Markt', 'category': 'Retail', 'edit_date': '20250506', 'lat_lon_source': 'Third Party'}",48.7552129,8.2434671,,"Mix Markt, Baden-Baden",Phone: 07221 3967069,,862,,https://www.mixmarkt.eu/en/germany/stores/220/
Max-Eyth-Str.14/1 97980 Bad Mergentheim,Bad Mergentheim,Germany,Mix Markt,"{'brand': 'Mix Markt', 'fascia': 'Mix Markt', 'category': 'Retail', 'edit_date': '20250506', 'lat_lon_source': 'Third Party'}",49.4950200,9.7632600,"{'opening_hours': {'Mon': '09:00-20:00', 'Tue': '09:00-20:00', 'Wed': '09:00-20:00', 'Thu': '09:00-20:00', 'Fri': '09:00-20:00', 'Sat': '09:00-20:00', 'Sun': ''}}","Mix Markt, Bad Mergentheim",Phone: 07931 9681381,,109,,https://www.mixmarkt.eu/en/germany/stores/123/
Bosenheimer Str. 165 55543 Bad Kreuznach,Bad Kreuznach,Germany,Mix Markt,"{'brand': 'Mix Markt', 'fascia': 'Mix Markt', 'category': 'Retail', 'edit_date': '20250506', 'lat_lon_source': 'Third Party'}",49.8453200,7.8767400,"{'opening_hours': {'Mon': '09:00-20:00', 'Tue': '09:00-20:00', 'Wed': '09:00-20:00', 'Thu': '09:00-20:00', 'Fri': '09:00-20:00', 'Sat': '09:00-20:00', 'Sun': ''}}","Mix Markt, Bad Kreuznach",Phone: 0671 79676024,,277,,https://www.mixmarkt.eu/en/germany/stores/128/
Hainchenweg 3 36251 Bad Hersfeld,Bad Hersfeld,Germany,Mix Markt,"{'brand': 'Mix Markt', 'fascia': 'Mix Markt', 'category': 'Retail', 'edit_date': '20250506', 'lat_lon_source': 'Third Party'}",50.8645416,9.7127008,"{'opening_hours': {'Mon': '09:00-19:00', 'Tue': '09:00-19:00', 'Wed': '09:00-19:00', 'Thu': '09:00-19:00', 'Fri': '09:00-19:00', 'Sat': '', 'Sun': ''}}","Mix Markt, Bad Hersfeld",Phone: 06621 6406385,,94,,https://www.mixmarkt.eu/en/germany/stores/104/
Carl-Friedrich-Benz-Straße 17 78073 Bad Dürrheim,Bad Dürrheim,Germany,Mix Markt,"{'brand': 'Mix Markt', 'fascia': 'Mix Markt', 'category': 'Retail', 'edit_date': '20250506', 'lat_lon_source': 'Third Party'}",48.0313800,8.5277900,"{'opening_hours': {'Mon': '09:00-20:00', 'Tue': '09:00-20:00', 'Wed': '09:00-20:00', 'Thu': '09:00-20:00', 'Fri': '09:00-20:00', 'Sat': '09:00-20:00', 'Sun': ''}}","Mix Markt, Bad Dürrheim",Phone: 07726 928412,,15,,https://www.mixmarkt.eu/en/germany/stores/15/
Dresdener Ring 23 71522 Backnang,Backnang,Germany,Mix Markt,"{'brand': 'Mix Markt', 'fascia': 'Mix Markt', 'category': 'Retail', 'edit_date': '20250506', 'lat_lon_source': 'Third Party'}",48.9579200,9.4274200,,"Mix Markt, Backnang",Phone: 07191 9118193,,345,,https://www.mixmarkt.eu/en/germany/stores/139/
Stukenbrocker Str. 15 32832 Augustdorf,Augustdorf,Germany,Mix Markt,"{'brand': 'Mix Markt', 'fascia': 'Mix Markt', 'category': 'Retail', 'edit_date': '20250506', 'lat_lon_source': 'Third Party'}",51.908047,8.726115,"{'opening_hours': {'Mon': '', 'Tue': '', 'Wed': '', 'Thu': '', 'Fri': '', 'Sat': '', 'Sun': ''}}","Mix Markt, Augustdorf",Phone: 05237 8989630,,916,,https://www.mixmarkt.eu/en/germany/stores/205/
Johann-Georg-Halske-Str. 20 86159 Augsburg,Augsburg,Germany,Mix Markt,"{'brand': 'Mix Markt', 'fascia': 'Mix Markt', 'category': 'Retail', 'edit_date': '20250506', 'lat_lon_source': 'Third Party'}",48.3459174,10.9032960,"{'opening_hours': {'Mon': '08:00-19:00', 'Tue': '08:00-19:00', 'Wed': '08:00-19:00', 'Thu': '08:00-19:00', 'Fri': '08:00-19:00', 'Sat': '08:00-19:00', 'Sun': ''}}","Mix Markt, Augsburg",Phone: 0821 60998618,,106,,https://www.mixmarkt.eu/en/germany/stores/118/
Steinerne Furt 34 a 86167 Augsburg,Augsburg,Germany,Mix Markt,"{'brand': 'Mix Markt', 'fascia': 'Mix Markt', 'category': 'Retail', 'edit_date': '20250506', 'lat_lon_source': 'Third Party'}",48.3921700,10.9209800,,"Mix Markt, Augsburg",Phone: 0821 74766155,,75,,https://www.mixmarkt.eu/en/germany/stores/81/
Alter Postweg 97b 86159 Augsburg,Augsburg,Germany,Mix Markt,"{'brand': 'Mix Markt', 'fascia': 'Mix Markt', 'category': 'Retail', 'edit_date': '20250506', 'lat_lon_source': 'Third Party'}",48.3397800,10.9007500,"{'opening_hours': {'Mon': '09:00-20:00', 'Tue': '09:00-20:00', 'Wed': '09:00-20:00', 'Thu': '09:00-20:00', 'Fri': '09:00-20:00', 'Sat': '09:00-20:00', 'Sun': ''}}","Mix Markt, Augsburg",Phone: 0821 5998481,,21,,https://www.mixmarkt.eu/en/germany/stores/21/
Engelbertstr.16 59755 Arnsberg,Arnsberg,Germany,Mix Markt,"{'brand': 'Mix Markt', 'fascia': 'Mix Markt', 'category': 'Retail', 'edit_date': '20250506', 'lat_lon_source': 'Third Party'}",51.449139,7.968303,"{'opening_hours': {'Mon': '', 'Tue': '', 'Wed': '', 'Thu': '', 'Fri': '', 'Sat': '', 'Sun': ''}}","Mix Markt, Arnsberg",Phone: 02932 9311227,,962,,https://www.mixmarkt.eu/en/germany/stores/219/
Benzstr. 3 91522 Ansbach,Ansbach,Germany,Mix Markt,"{'brand': 'Mix Markt', 'fascia': 'Mix Markt', 'category': 'Retail', 'edit_date': '20250506', 'lat_lon_source': 'Third Party'}",49.297222,10.568333,"{'opening_hours': {'Mon': '', 'Tue': '', 'Wed': '', 'Thu': '', 'Fri': '', 'Sat': '', 'Sun': ''}}","Mix Markt, Ansbach",Phone: 0981 6505804,,845,,https://www.mixmarkt.eu/en/germany/stores/158/
Schwindstraße 1 92224 Amberg,Amberg,Germany,Mix Markt,"{'brand': 'Mix Markt', 'fascia': 'Mix Markt', 'category': 'Retail', 'edit_date': '20250506', 'lat_lon_source': 'Third Party'}",49.4376800,11.8773700,"{'opening_hours': {'Mon': '09:00-20:00', 'Tue': '09:00-20:00', 'Wed': '09:00-20:00', 'Thu': '09:00-20:00', 'Fri': '09:00-20:00', 'Sat': '09:00-20:00', 'Sun': ''}}","Mix Markt, Amberg",Phone: 09621 470498,,39,,https://www.mixmarkt.eu/en/germany/stores/184/
Friedrichstr.30 72458 Albstadt,Albstadt,Germany,Mix Markt,"{'brand': 'Mix Markt', 'fascia': 'Mix Markt', 'category': 'Retail', 'edit_date': '20250506', 'lat_lon_source': 'Third Party'}",48.2137100,9.0223300,"{'opening_hours': {'Mon': '09:00-20:00', 'Tue': '09:00-20:00', 'Wed': '09:00-20:00', 'Thu': '09:00-20:00', 'Fri': '09:00-20:00', 'Sat': '09:00-20:00', 'Sun': ''}}","Mix Markt, Albstadt-Ebingen",Phone: 07431 9482040,,79,,https://www.mixmarkt.eu/en/germany/stores/86/
Eugenstr.44 73433 Aalen,Aalen,Germany,Mix Markt,"{'brand': 'Mix Markt', 'fascia': 'Mix Markt', 'category': 'Retail', 'edit_date': '20250506', 'lat_lon_source': 'Third Party'}",48.8657700,10.1069800,,"Mix Markt, Aalen",Phone: 07361 5277310,,311,,https://www.mixmarkt.eu/en/germany/stores/131/
Sittarder Straße 30 52078 Aachen,Aachen,Germany,Mix Markt,"{'brand': 'Mix Markt', 'fascia': 'Mix Markt', 'category': 'Retail', 'edit_date': '20250506', 'lat_lon_source': 'Third Party'}",50.7562300,6.1388500,"{'opening_hours': {'Mon': '09:00-20:00', 'Tue': '09:00-20:00', 'Wed': '09:00-20:00', 'Thu': '09:00-20:00', 'Fri': '09:00-20:00', 'Sat': '', 'Sun': ''}}","Mix Markt, Aachen",Phone: 0241 5597795,,54,,https://www.mixmarkt.eu/en/germany/stores/57/
Mühlenstraße 5 27356 Rotenburg (Wümme),Rotenburg (Wümme),Germany,Mix Markt,"{'brand': 'Mix Markt', 'fascia': 'Mix Markt', 'category': 'Retail', 'edit_date': '20250506', 'lat_lon_source': 'Third Party'}",53.1078187,9.3987686,"{'opening_hours': {'Mon': '', 'Tue': '', 'Wed': '', 'Thu': '', 'Fri': '', 'Sat': '', 'Sun': ''}}","Mini Mix, Rotenburg (Wümme)",Phone: 04261 2125,,336,,https://www.mixmarkt.eu/en/germany/stores/364/
Martin-Luther-Str. 40A 96472 Rödental,Rödental,Germany,Mix Markt,"{'brand': 'Mix Markt', 'fascia': 'Mix Markt', 'category': 'Retail', 'edit_date': '20250506', 'lat_lon_source': 'Third Party'}",50.291127,11.035177,,"Mini Mix, Rödental",Phone:,,1022,,https://www.mixmarkt.eu/en/germany/stores/214/
Fecampring 44 79618 Rheinfelden,Rheinfelden,Germany,Mix Markt,"{'brand': 'Mix Markt', 'fascia': 'Mix Markt', 'category': 'Retail', 'edit_date': '20250506', 'lat_lon_source': 'Third Party'}",47.5622609,7.7797155,"{'opening_hours': {'Mon': '', 'Tue': '', 'Wed': '', 'Thu': '', 'Fri': '', 'Sat': '', 'Sun': ''}}","Mini Mix, Rheinfelden",Phone: 07623 741972,,285,,https://www.mixmarkt.eu/en/germany/stores/346/
Konsumstr.23 31228 Peine/Stederdorf,Peine/Stederdorf,Germany,Mix Markt,"{'brand': 'Mix Markt', 'fascia': 'Mix Markt', 'category': 'Retail', 'edit_date': '20250506', 'lat_lon_source': 'Third Party'}",52.3474621,10.2468395,"{'opening_hours': {'Mon': '', 'Tue': '', 'Wed': '', 'Thu': '', 'Fri': '', 'Sat': '', 'Sun': ''}}","Mini Mix, Peine/Stederdorf",Phone: 05171 9409800,,112,,https://www.mixmarkt.eu/en/germany/stores/302/
Herzog-Ludwig Str.15 93333 Neustadt an der Donau,Neustadt an der Donau,Germany,Mix Markt,"{'brand': 'Mix Markt', 'fascia': 'Mix Markt', 'category': 'Retail', 'edit_date': '20250506', 'lat_lon_source': 'Third Party'}",48.8094000,11.7627500,"{'opening_hours': {'Mon': '', 'Tue': '', 'Wed': '', 'Thu': '', 'Fri': '', 'Sat': '', 'Sun': ''}}","Mini Mix, Neustadt an der Donau",Phone: 09445 752454,,127,,https://www.mixmarkt.eu/en/germany/stores/322/
Raiffeisenstr. 9 91413 Neustadt an der Aisch,Neustadt an der Aisch,Germany,Mix Markt,"{'brand': 'Mix Markt', 'fascia': 'Mix Markt', 'category': 'Retail', 'edit_date': '20250506', 'lat_lon_source': 'Third Party'}",49.5777600,10.6068700,"{'opening_hours': {'Mon': '', 'Tue': '', 'Wed': '', 'Thu': '', 'Fri': '', 'Sat': '', 'Sun': ''}}","Mini Mix, Neustadt an der Aisch",Phone: 09161 874765,,131,,https://www.mixmarkt.eu/en/germany/stores/328/
Mauerstraße 6-8 35279 Neustadt (Hessen),Neustadt (Hessen),Germany,Mix Markt,"{'brand': 'Mix Markt', 'fascia': 'Mix Markt', 'category': 'Retail', 'edit_date': '20250506', 'lat_lon_source': 'Third Party'}",50.8521800,9.1173100,,"Mini Mix, Neustadt (Hessen)",Phone: 06692 2045820,,130,,https://www.mixmarkt.eu/en/germany/stores/327/
Gutenbergstr. 4 92318 Neumarkt,Neumarkt,Germany,Mix Markt,"{'brand': 'Mix Markt', 'fascia': 'Mix Markt', 'category': 'Retail', 'edit_date': '20250506', 'lat_lon_source': 'Third Party'}",49.2629900,11.4737100,"{'opening_hours': {'Mon': '', 'Tue': '', 'Wed': '', 'Thu': '', 'Fri': '', 'Sat': '', 'Sun': ''}}","Mini Mix, Neumarkt",Phone: 09181 466431,,129,,https://www.mixmarkt.eu/en/germany/stores/325/
Rektoratsweg 63-65 48159 Münster,Münster,Germany,Mix Markt,"{'brand': 'Mix Markt', 'fascia': 'Mix Markt', 'category': 'Retail', 'edit_date': '20250506', 'lat_lon_source': 'Third Party'}",51.9906921,7.6081763,"{'opening_hours': {'Mon': '09:00-19:00', 'Tue': '09:00-19:00', 'Wed': '09:00-19:00', 'Thu': '09:00-19:00', 'Fri': '09:00-19:00', 'Sat': '', 'Sun': ''}}","Mini Mix, Münster",Phone: 0251 20308309,,124,,https://www.mixmarkt.eu/en/germany/stores/317/
Albert-Einstein-Str. 25 06122 Halle,Halle,Germany,Mix Markt,"{'brand': 'Mix Markt', 'fascia': 'Mix Markt', 'category': 'Retail', 'edit_date': '20250506', 'lat_lon_source': 'Third Party'}",51.481356,11.923265,"{'opening_hours': {'Mon': '', 'Tue': '', 'Wed': '', 'Thu': '', 'Fri': '', 'Sat': '', 'Sun': ''}}","Mini Mix, Halle",Phone:,,111,,https://www.mixmarkt.eu/en/germany/stores/182/
Dillinger Str. 9 89312 Günzburg,Günzburg,Germany,Mix Markt,"{'brand': 'Mix Markt', 'fascia': 'Mix Markt', 'category': 'Retail', 'edit_date': '20250506', 'lat_lon_source': 'Third Party'}",48.4575922,10.2796250,"{'opening_hours': {'Mon': '', 'Tue': '', 'Wed': '', 'Thu': '', 'Fri': '', 'Sat': '', 'Sun': ''}}","Mini Mix, Günzburg",Phone: 08221 9638151,,309,,https://www.mixmarkt.eu/en/germany/stores/341/
