addr_full,brand,city,country,extras,lat,lon,name,opening_hours,phone,postcode,ref,state,website
〒390-0803　長野県松本市元町1-2-1,Seiyu,長野県,Japan,"{'brand': 'Seiyu', 'fascia': 'Seiyu', 'category': 'Food and Beverage', 'edit_date': '2025-04-21', 'lat_lon_source': 'Website'}",36.23875247422547,137.98071205615997,西友元町店,"{'Mon': '00:00-24:00', 'Tue': '00:00-24:00', 'Wed': '00:00-24:00', 'Thu': '00:00-24:00', 'Fri': '00:00-24:00', 'Sat': '00:00-24:00', 'Sun': '00:00-24:00'}",0263-41-5912,〒390-0803,36.23875247422547-137.98071205615997,中部,https://www.seiyu.co.jp/shop/%e8%a5%bf%e5%8f%8b%e5%85%83%e7%94%ba%e5%ba%97/
〒384-2204　長野県佐久市協和字下田119-1,Seiyu,長野県,Japan,"{'brand': 'Seiyu', 'fascia': 'Seiyu', 'category': 'Food and Beverage', 'edit_date': '2025-04-21', 'lat_lon_source': 'Website'}",36.26215657107827,138.3579272031784,西友望月店,"{'Mon': '00:00-24:00', 'Tue': '00:00-24:00', 'Wed': '00:00-24:00', 'Thu': '00:00-24:00', 'Fri': '00:00-24:00', 'Sat': '00:00-24:00', 'Sun': '00:00-24:00'}",0267-54-2300,〒384-2204,36.26215657107827-138.3579272031784,中部,https://www.seiyu.co.jp/shop/%e8%a5%bf%e5%8f%8b%e6%9c%9b%e6%9c%88%e5%ba%97/
〒372-0033　群馬県伊勢崎市南千木町5202-3,Seiyu,茨城県,Japan,"{'brand': 'Seiyu', 'fascia': 'Seiyu', 'category': 'Food and Beverage', 'edit_date': '2025-04-21', 'lat_lon_source': 'Website'}",36.29696854336405,139.21514511108398,西友伊勢崎茂呂店,"{'Mon': '00:00-24:00', 'Tue': '00:00-24:00', 'Wed': '00:00-24:00', 'Thu': '00:00-24:00', 'Fri': '00:00-24:00', 'Sat': '00:00-24:00', 'Sun': '00:00-24:00'}",0270-25-1378,〒372-0033,36.29696854336405-139.21514511108398,関東,https://www.seiyu.co.jp/shop/%e8%a5%bf%e5%8f%8b%e4%bc%8a%e5%8b%a2%e5%b4%8e%e8%8c%82%e5%91%82%e5%ba%97/
〒302-0128　茨城県守谷市けやき台4-1-5,Seiyu,茨城県,Japan,"{'brand': 'Seiyu', 'fascia': 'Seiyu', 'category': 'Food and Beverage', 'edit_date': '2025-04-21', 'lat_lon_source': 'Website'}",35.93524976862182,139.99732779206545,西友守谷店,"{'Mon': '00:00-24:00', 'Tue': '00:00-24:00', 'Wed': '00:00-24:00', 'Thu': '00:00-24:00', 'Fri': '00:00-24:00', 'Sat': '00:00-24:00', 'Sun': '00:00-24:00'}",0297-21-1821,〒302-0128,35.93524976862182-139.99732779206545,関東,https://www.seiyu.co.jp/shop/%e8%a5%bf%e5%8f%8b%e5%ae%88%e8%b0%b7%e5%ba%97/
〒300-1207　茨城県牛久市ひたち野東1-23-1,Seiyu,茨城県,Japan,"{'brand': 'Seiyu', 'fascia': 'Seiyu', 'category': 'Food and Beverage', 'edit_date': '2025-04-21', 'lat_lon_source': 'Website'}",36.00899565778003,140.16002297401428,西友ひたち野うしく店,"{'Mon': '00:00-24:00', 'Tue': '00:00-24:00', 'Wed': '00:00-24:00', 'Thu': '00:00-24:00', 'Fri': '00:00-24:00', 'Sat': '00:00-24:00', 'Sun': '00:00-24:00'}",029-830-8910,〒300-1207,36.00899565778003-140.16002297401428,関東,https://www.seiyu.co.jp/shop/%e8%a5%bf%e5%8f%8b%e3%81%b2%e3%81%9f%e3%81%a1%e9%87%8e%e3%81%86%e3%81%97%e3%81%8f%e5%ba%97/
〒146-0095　東京都大田区多摩川1-33-20,Seiyu,茨城県,Japan,"{'brand': 'Seiyu', 'fascia': 'Seiyu', 'category': 'Food and Beverage', 'edit_date': '2025-04-21', 'lat_lon_source': 'Website'}",35.56049224460441,139.70037013292313,西友矢口ノ渡店,"{'Mon': '00:00-24:00', 'Tue': '00:00-24:00', 'Wed': '00:00-24:00', 'Thu': '00:00-24:00', 'Fri': '00:00-24:00', 'Sat': '00:00-24:00', 'Sun': '00:00-24:00'}",03-3757-1951,〒146-0095,35.56049224460441-139.70037013292313,関東,https://www.seiyu.co.jp/shop/%e8%a5%bf%e5%8f%8b%e7%9f%a2%e5%8f%a3%e3%83%8e%e6%b8%a1%e5%ba%97/
〒274-0077　千葉県船橋市薬円台6-6-7,Seiyu,茨城県,Japan,"{'brand': 'Seiyu', 'fascia': 'Seiyu', 'category': 'Food and Beverage', 'edit_date': '2025-04-21', 'lat_lon_source': 'Website'}",35.7129721307448,140.03738701343536,西友薬円台店,"{'Mon': '00:00-24:00', 'Tue': '00:00-24:00', 'Wed': '00:00-24:00', 'Thu': '00:00-24:00', 'Fri': '00:00-24:00', 'Sat': '00:00-24:00', 'Sun': '00:00-24:00'}",047-466-2433,〒274-0077,35.7129721307448-140.03738701343536,関東,https://www.seiyu.co.jp/shop/%e8%a5%bf%e5%8f%8b%e8%96%ac%e5%86%86%e5%8f%b0%e5%ba%97/
〒134-0085　東京都江戸川区南葛西5-6-2,Seiyu,茨城県,Japan,"{'brand': 'Seiyu', 'fascia': 'Seiyu', 'category': 'Food and Beverage', 'edit_date': '2025-04-21', 'lat_lon_source': 'Website'}",35.6458876586946,139.8722916841507,西友南葛西店,"{'Mon': '00:00-24:00', 'Tue': '00:00-24:00', 'Wed': '00:00-24:00', 'Thu': '00:00-24:00', 'Fri': '00:00-24:00', 'Sat': '00:00-24:00', 'Sun': '00:00-24:00'}",03-5676-1851,〒134-0085,35.6458876586946-139.8722916841507,関東,https://www.seiyu.co.jp/shop/%e8%a5%bf%e5%8f%8b%e5%8d%97%e8%91%9b%e8%a5%bf%e5%ba%97/
〒984-0042　宮城県仙台市若林区大和町5-2-19,Seiyu,宮城県,Japan,"{'brand': 'Seiyu', 'fascia': 'Seiyu', 'category': 'Food and Beverage', 'edit_date': '2025-04-21', 'lat_lon_source': 'Website'}",38.250591893758035,140.9211426973343,西友大和町店,"{'Mon': '00:00-24:00', 'Tue': '00:00-24:00', 'Wed': '00:00-24:00', 'Thu': '00:00-24:00', 'Fri': '00:00-24:00', 'Sat': '00:00-24:00', 'Sun': '00:00-24:00'}",022-782-3010,〒984-0042,38.250591893758035-140.9211426973343,東北,https://www.seiyu.co.jp/shop/%e8%a5%bf%e5%8f%8b%e5%a4%a7%e5%92%8c%e7%94%ba%e5%ba%97/
〒981-3621　宮城県黒川郡大和町吉岡字館下103,Seiyu,宮城県,Japan,"{'brand': 'Seiyu', 'fascia': 'Seiyu', 'category': 'Food and Beverage', 'edit_date': '2025-04-21', 'lat_lon_source': 'Website'}",38.447938222103005,140.88274955749512,西友吉岡店,"{'Mon': '00:00-24:00', 'Tue': '00:00-24:00', 'Wed': '00:00-24:00', 'Thu': '00:00-24:00', 'Fri': '00:00-24:00', 'Sat': '00:00-24:00', 'Sun': '00:00-24:00'}",022-344-1070,〒981-3621,38.447938222103005-140.88274955749512,東北,https://www.seiyu.co.jp/shop/%e8%a5%bf%e5%8f%8b%e5%90%89%e5%b2%a1%e5%ba%97/
〒636-0003　奈良県北葛城郡王寺町久度2-2-1,Seiyu,滋賀県,Japan,"{'brand': 'Seiyu', 'fascia': 'Seiyu', 'category': 'Food and Beverage', 'edit_date': '2025-04-21', 'lat_lon_source': 'Website'}",34.59806376867868,135.704924762249,西友王寺店,"{'Mon': '00:00-24:00', 'Tue': '00:00-24:00', 'Wed': '00:00-24:00', 'Thu': '00:00-24:00', 'Fri': '00:00-24:00', 'Sat': '00:00-24:00', 'Sun': '00:00-24:00'}",0745-33-1201,〒636-0003,34.59806376867868-135.704924762249,関西,https://www.seiyu.co.jp/shop/%e8%a5%bf%e5%8f%8b%e7%8e%8b%e5%af%ba%e5%ba%97/
〒666-0129　兵庫県川西市緑台5-1-108,Seiyu,滋賀県,Japan,"{'brand': 'Seiyu', 'fascia': 'Seiyu', 'category': 'Food and Beverage', 'edit_date': '2025-04-21', 'lat_lon_source': 'Website'}",34.87095944696311,135.40206849575043,西友多田店,"{'Mon': '00:00-24:00', 'Tue': '00:00-24:00', 'Wed': '00:00-24:00', 'Thu': '00:00-24:00', 'Fri': '00:00-24:00', 'Sat': '00:00-24:00', 'Sun': '00:00-24:00'}",072-793-0331,〒666-0129,34.87095944696311-135.40206849575043,関西,https://www.seiyu.co.jp/shop/%e8%a5%bf%e5%8f%8b%e5%a4%9a%e7%94%b0%e5%ba%97/
〒983-0046　宮城県仙台市宮城野区西宮城野7-1,Seiyu,宮城県,Japan,"{'brand': 'Seiyu', 'fascia': 'Seiyu', 'category': 'Food and Beverage', 'edit_date': '2025-04-21', 'lat_lon_source': 'Website'}",38.25538793315186,140.8989018201828,西友宮城野原店,"{'Mon': '00:00-24:00', 'Tue': '00:00-24:00', 'Wed': '00:00-24:00', 'Thu': '00:00-24:00', 'Fri': '00:00-24:00', 'Sat': '00:00-24:00', 'Sun': '00:00-24:00'}", 022-298-8400,〒983-0046,38.25538793315186-140.8989018201828,東北,https://www.seiyu.co.jp/shop/%e8%a5%bf%e5%8f%8b%e5%ae%ae%e5%9f%8e%e9%87%8e%e5%8e%9f%e5%ba%97/
〒520-2362　滋賀県野洲市市三宅1013,Seiyu,滋賀県,Japan,"{'brand': 'Seiyu', 'fascia': 'Seiyu', 'category': 'Food and Beverage', 'edit_date': '2025-04-21', 'lat_lon_source': 'Website'}",35.06869973464773,136.01741015911102,西友野洲店,"{'Mon': '00:00-24:00', 'Tue': '00:00-24:00', 'Wed': '00:00-24:00', 'Thu': '00:00-24:00', 'Fri': '00:00-24:00', 'Sat': '00:00-24:00', 'Sun': '00:00-24:00'}",077-586-3601,〒520-2362,35.06869973464773-136.01741015911102,関西,https://www.seiyu.co.jp/shop/%e8%a5%bf%e5%8f%8b%e9%87%8e%e6%b4%b2%e5%ba%97/
〒527-0023　滋賀県東近江市八日市緑町9-30,Seiyu,滋賀県,Japan,"{'brand': 'Seiyu', 'fascia': 'Seiyu', 'category': 'Food and Beverage', 'edit_date': '2025-04-21', 'lat_lon_source': 'Website'}",35.11235238589137,136.20624840259552,西友八日市店,"{'Mon': '00:00-24:00', 'Tue': '00:00-24:00', 'Wed': '00:00-24:00', 'Thu': '00:00-24:00', 'Fri': '00:00-24:00', 'Sat': '00:00-24:00', 'Sun': '00:00-24:00'}",0748-23-3133,〒527-0023,35.11235238589137-136.20624840259552,関西,https://www.seiyu.co.jp/shop/%e8%a5%bf%e5%8f%8b%e5%85%ab%e6%97%a5%e5%b8%82%e5%ba%97/
〒524-0041　滋賀県守山市勝部1-19-25,Seiyu,滋賀県,Japan,"{'brand': 'Seiyu', 'fascia': 'Seiyu', 'category': 'Food and Beverage', 'edit_date': '2025-04-21', 'lat_lon_source': 'Website'}",35.05073149781492,135.99393546581268,西友守山店,"{'Mon': '00:00-24:00', 'Tue': '00:00-24:00', 'Wed': '00:00-24:00', 'Thu': '00:00-24:00', 'Fri': '00:00-24:00', 'Sat': '00:00-24:00', 'Sun': '00:00-24:00'}",077-582-5345,〒524-0041,35.05073149781492-135.99393546581268,関西,https://www.seiyu.co.jp/shop/%e8%a5%bf%e5%8f%8b%e5%ae%88%e5%b1%b1%e5%ba%97/
〒507-0022　岐阜県多治見市上山町1-175,Seiyu,長野県,Japan,"{'brand': 'Seiyu', 'fascia': 'Seiyu', 'category': 'Food and Beverage', 'edit_date': '2025-04-21', 'lat_lon_source': 'Website'}",35.33936733598912,137.13339686393738,西友多治見店,"{'Mon': '00:00-24:00', 'Tue': '00:00-24:00', 'Wed': '00:00-24:00', 'Thu': '00:00-24:00', 'Fri': '00:00-24:00', 'Sat': '00:00-24:00', 'Sun': '00:00-24:00'}",0572-22-6162,〒507-0022,35.33936733598912-137.13339686393738,中部,https://www.seiyu.co.jp/shop/%e8%a5%bf%e5%8f%8b%e5%a4%9a%e6%b2%bb%e8%a6%8b%e5%ba%97/
〒505-0301　岐阜県加茂郡八百津町八百津4250-1,Seiyu,長野県,Japan,"{'brand': 'Seiyu', 'fascia': 'Seiyu', 'category': 'Food and Beverage', 'edit_date': '2025-04-21', 'lat_lon_source': 'Website'}",35.478101941390655,137.14058250188828,西友八百津店,"{'Mon': '06:00-21:00', 'Tue': '06:00-21:00', 'Wed': '06:00-21:00', 'Thu': '06:00-21:00', 'Fri': '06:00-21:00', 'Sat': '06:00-21:00', 'Sun': '06:00-21:00'}",0574-43-1234,〒505-0301,35.478101941390655-137.14058250188828,中部,https://www.seiyu.co.jp/shop/%e8%a5%bf%e5%8f%8b%e5%85%ab%e7%99%be%e6%b4%a5%e5%ba%97/
〒507-0813　岐阜県多治見市滝呂町12-185-1,Seiyu,長野県,Japan,"{'brand': 'Seiyu', 'fascia': 'Seiyu', 'category': 'Food and Beverage', 'edit_date': '2025-04-21', 'lat_lon_source': 'Website'}",35.314449,137.15549,西友滝呂店,"{'Mon': '00:00-24:00', 'Tue': '00:00-24:00', 'Wed': '00:00-24:00', 'Thu': '00:00-24:00', 'Fri': '00:00-24:00', 'Sat': '00:00-24:00', 'Sun': '00:00-24:00'}",0572-44-2882,〒507-0813,35.314449-137.15549,中部,https://www.seiyu.co.jp/shop/%e8%a5%bf%e5%8f%8b%e6%bb%9d%e5%91%82%e5%ba%97/
〒509-0235　岐阜県可児市桜ヶ丘6-74-3,Seiyu,長野県,Japan,"{'brand': 'Seiyu', 'fascia': 'Seiyu', 'category': 'Food and Beverage', 'edit_date': '2025-04-21', 'lat_lon_source': 'Website'}",35.37784484522226,137.11373090744019,西友桜ヶ丘店,"{'Mon': '00:00-24:00', 'Tue': '00:00-24:00', 'Wed': '00:00-24:00', 'Thu': '00:00-24:00', 'Fri': '00:00-24:00', 'Sat': '00:00-24:00', 'Sun': '00:00-24:00'}",0574-64-1500,〒509-0235,35.37784484522226-137.11373090744019,中部,https://www.seiyu.co.jp/shop/%e8%a5%bf%e5%8f%8b%e6%a1%9c%e3%83%b6%e4%b8%98%e5%ba%97/
〒500-8157　岐阜県岐阜市五坪1-10-10,Seiyu,長野県,Japan,"{'brand': 'Seiyu', 'fascia': 'Seiyu', 'category': 'Food and Beverage', 'edit_date': '2025-04-21', 'lat_lon_source': 'Website'}",35.40810209718827,136.77197456359863,西友岐阜華陽店,"{'Mon': '00:00-24:00', 'Tue': '00:00-24:00', 'Wed': '00:00-24:00', 'Thu': '00:00-24:00', 'Fri': '00:00-24:00', 'Sat': '00:00-24:00', 'Sun': '00:00-24:00'}",058-240-2711,〒500-8157,35.40810209718827-136.77197456359863,中部,https://www.seiyu.co.jp/shop/%e8%a5%bf%e5%8f%8b%e5%b2%90%e9%98%9c%e8%8f%af%e9%99%bd%e5%ba%97/
〒501-1162　岐阜県岐阜市西改田字若宮62-1,Seiyu,長野県,Japan,"{'brand': 'Seiyu', 'fascia': 'Seiyu', 'category': 'Food and Beverage', 'edit_date': '2025-04-21', 'lat_lon_source': 'Website'}",35.449555632012604,136.70991897583008,西友改田店,"{'Mon': '00:00-24:00', 'Tue': '00:00-24:00', 'Wed': '00:00-24:00', 'Thu': '00:00-24:00', 'Fri': '00:00-24:00', 'Sat': '00:00-24:00', 'Sun': '00:00-24:00'}",058-234-6120,〒501-1162,35.449555632012604-136.70991897583008,中部,https://www.seiyu.co.jp/shop/%e8%a5%bf%e5%8f%8b%e6%94%b9%e7%94%b0%e5%ba%97/
〒410-0874　静岡県沼津市松長12-3,Seiyu,長野県,Japan,"{'brand': 'Seiyu', 'fascia': 'Seiyu', 'category': 'Food and Beverage', 'edit_date': '2025-04-21', 'lat_lon_source': 'Website'}",35.114923849262965,138.81777048110962,西友松長店,"{'Mon': '00:00-24:00', 'Tue': '00:00-24:00', 'Wed': '00:00-24:00', 'Thu': '00:00-24:00', 'Fri': '00:00-24:00', 'Sat': '00:00-24:00', 'Sun': '00:00-24:00'}",055-968-6700,〒410-0874,35.114923849262965-138.81777048110962,中部,https://www.seiyu.co.jp/shop/%e8%a5%bf%e5%8f%8b%e6%9d%be%e9%95%b7%e5%ba%97/
〒426-0072　静岡県藤枝市南新屋408-4,Seiyu,長野県,Japan,"{'brand': 'Seiyu', 'fascia': 'Seiyu', 'category': 'Food and Beverage', 'edit_date': '2025-04-21', 'lat_lon_source': 'Website'}",34.85289496869107,138.24639558792114,西友南新屋店,"{'Mon': '00:00-24:00', 'Tue': '00:00-24:00', 'Wed': '00:00-24:00', 'Thu': '00:00-24:00', 'Fri': '00:00-24:00', 'Sat': '00:00-24:00', 'Sun': '00:00-24:00'}", 054-644-7010,〒426-0072,34.85289496869107-138.24639558792114,中部,https://www.seiyu.co.jp/shop/%e8%a5%bf%e5%8f%8b%e5%8d%97%e6%96%b0%e5%b1%8b%e5%ba%97/
〒417-0047　静岡県富士市青島町218,Seiyu,長野県,Japan,"{'brand': 'Seiyu', 'fascia': 'Seiyu', 'category': 'Food and Beverage', 'edit_date': '2025-04-21', 'lat_lon_source': 'Website'}",35.15952976519339,138.67378950119019,西友富士青島店,"{'Mon': '00:00-24:00', 'Tue': '00:00-24:00', 'Wed': '00:00-24:00', 'Thu': '00:00-24:00', 'Fri': '00:00-24:00', 'Sat': '00:00-24:00', 'Sun': '00:00-24:00'}",0545-57-7800,〒417-0047,35.15952976519339-138.67378950119019,中部,https://www.seiyu.co.jp/shop/%e8%a5%bf%e5%8f%8b%e5%af%8c%e5%a3%ab%e9%9d%92%e5%b3%b6%e5%ba%97/
〒417-0001　静岡県富士市今泉3-5-1,Seiyu,長野県,Japan,"{'brand': 'Seiyu', 'fascia': 'Seiyu', 'category': 'Food and Beverage', 'edit_date': '2025-04-21', 'lat_lon_source': 'Website'}",35.164678402169386,138.696990609169,西友富士今泉店,"{'Mon': '00:00-24:00', 'Tue': '00:00-24:00', 'Wed': '00:00-24:00', 'Thu': '00:00-24:00', 'Fri': '00:00-24:00', 'Sat': '00:00-24:00', 'Sun': '00:00-24:00'}", 0545-57-1411,〒417-0001,35.164678402169386-138.696990609169,中部,https://www.seiyu.co.jp/shop/%e8%a5%bf%e5%8f%8b%e5%af%8c%e5%a3%ab%e4%bb%8a%e6%b3%89%e5%ba%97/
〒430-0913　静岡県浜松市中央区船越町26-10,Seiyu,長野県,Japan,"{'brand': 'Seiyu', 'fascia': 'Seiyu', 'category': 'Food and Beverage', 'edit_date': '2025-04-21', 'lat_lon_source': 'Website'}",34.7163537,137.7443246,西友浜松船越店,"{'Mon': '00:00-24:00', 'Tue': '00:00-24:00', 'Wed': '00:00-24:00', 'Thu': '00:00-24:00', 'Fri': '00:00-24:00', 'Sat': '00:00-24:00', 'Sun': '00:00-24:00'}",053-466-6111,〒430-0913,34.7163537-137.7443246,中部,https://www.seiyu.co.jp/shop/%e8%a5%bf%e5%8f%8b%e6%b5%9c%e6%9d%be%e8%88%b9%e8%b6%8a%e5%ba%97/
〒431-3122　静岡県浜松市中央区有玉南町2321-1,Seiyu,長野県,Japan,"{'brand': 'Seiyu', 'fascia': 'Seiyu', 'category': 'Food and Beverage', 'edit_date': '2025-04-21', 'lat_lon_source': 'Website'}",34.7467227,137.7498561,西友浜松有玉南店,"{'Mon': '00:00-24:00', 'Tue': '00:00-24:00', 'Wed': '00:00-24:00', 'Thu': '00:00-24:00', 'Fri': '00:00-24:00', 'Sat': '00:00-24:00', 'Sun': '00:00-24:00'}",053-476-6100,〒431-3122,34.7467227-137.7498561,中部,https://www.seiyu.co.jp/shop/%e8%a5%bf%e5%8f%8b%e6%b5%9c%e6%9d%be%e6%9c%89%e7%8e%89%e5%8d%97%e5%ba%97/
〒434-0041　静岡県浜松市浜名区平口2861,Seiyu,長野県,Japan,"{'brand': 'Seiyu', 'fascia': 'Seiyu', 'category': 'Food and Beverage', 'edit_date': '2025-04-21', 'lat_lon_source': 'Website'}",34.7948041,137.7609387,西友浜北店,"{'Mon': '00:00-24:00', 'Tue': '00:00-24:00', 'Wed': '00:00-24:00', 'Thu': '00:00-24:00', 'Fri': '00:00-24:00', 'Sat': '00:00-24:00', 'Sun': '00:00-24:00'}",053-584-2222,〒434-0041,34.7948041-137.7609387,中部,https://www.seiyu.co.jp/shop/%e8%a5%bf%e5%8f%8b%e6%b5%9c%e5%8c%97%e5%ba%97/
〒410-0022　静岡県沼津市大岡1330-1,Seiyu,長野県,Japan,"{'brand': 'Seiyu', 'fascia': 'Seiyu', 'category': 'Food and Beverage', 'edit_date': '2025-04-21', 'lat_lon_source': 'Website'}",35.101916502072285,138.8754916191101,西友沼津店,"{'Mon': '00:00-24:00', 'Tue': '00:00-24:00', 'Wed': '00:00-24:00', 'Thu': '00:00-24:00', 'Fri': '00:00-24:00', 'Sat': '00:00-24:00', 'Sun': '00:00-24:00'}",055-964-2121,〒410-0022,35.101916502072285-138.8754916191101,中部,https://www.seiyu.co.jp/shop/%e8%a5%bf%e5%8f%8b%e6%b2%bc%e6%b4%a5%e5%ba%97/
〒486-0932　愛知県春日井市松河戸町2-10-9,Seiyu,長野県,Japan,"{'brand': 'Seiyu', 'fascia': 'Seiyu', 'category': 'Food and Beverage', 'edit_date': '2025-04-21', 'lat_lon_source': 'Website'}",35.224026438334825,136.9647717475891,西友松河戸店,"{'Mon': '00:00-24:00', 'Tue': '00:00-24:00', 'Wed': '00:00-24:00', 'Thu': '00:00-24:00', 'Fri': '00:00-24:00', 'Sat': '00:00-24:00', 'Sun': '00:00-24:00'}",0568-89-3570,〒486-0932,35.224026438334825-136.9647717475891,中部,https://www.seiyu.co.jp/shop/%e8%a5%bf%e5%8f%8b%e6%9d%be%e6%b2%b3%e6%88%b8%e5%ba%97/
〒432-8042　静岡県浜松市中央区上浅田1-8-7,Seiyu,長野県,Japan,"{'brand': 'Seiyu', 'fascia': 'Seiyu', 'category': 'Food and Beverage', 'edit_date': '2025-04-21', 'lat_lon_source': 'Website'}",34.6969198647967,137.72636890411377,西友上浅田店,"{'Mon': '00:00-24:00', 'Tue': '00:00-24:00', 'Wed': '00:00-24:00', 'Thu': '00:00-24:00', 'Fri': '00:00-24:00', 'Sat': '00:00-24:00', 'Sun': '00:00-24:00'}",053-451-6811,〒432-8042,34.6969198647967-137.72636890411377,中部,https://www.seiyu.co.jp/shop/%e8%a5%bf%e5%8f%8b%e4%b8%8a%e6%b5%85%e7%94%b0%e5%ba%97/
〒491-0053　愛知県一宮市今伊勢町本神戸字立切1-3,Seiyu,長野県,Japan,"{'brand': 'Seiyu', 'fascia': 'Seiyu', 'category': 'Food and Beverage', 'edit_date': '2025-04-21', 'lat_lon_source': 'Website'}",35.31807104947991,136.79657578468323,西友ピア・タウン店,"{'Mon': '00:00-24:00', 'Tue': '00:00-24:00', 'Wed': '00:00-24:00', 'Thu': '00:00-24:00', 'Fri': '00:00-24:00', 'Sat': '00:00-24:00', 'Sun': '00:00-24:00'}", 0586-72-7271,〒491-0053,35.31807104947991-136.79657578468323,中部,https://www.seiyu.co.jp/shop/%e8%a5%bf%e5%8f%8b%e3%83%94%e3%82%a2%e3%83%bb%e3%82%bf%e3%82%a6%e3%83%b3%e5%ba%97/
〒485-0069　愛知県小牧市藤島町梵天36,Seiyu,長野県,Japan,"{'brand': 'Seiyu', 'fascia': 'Seiyu', 'category': 'Food and Beverage', 'edit_date': '2025-04-21', 'lat_lon_source': 'Website'}",35.26859003077354,136.88720762729645,西友藤島店,"{'Mon': '00:00-24:00', 'Tue': '00:00-24:00', 'Wed': '00:00-24:00', 'Thu': '00:00-24:00', 'Fri': '00:00-24:00', 'Sat': '00:00-24:00', 'Sun': '00:00-24:00'}",0568-73-3588,〒485-0069,35.26859003077354-136.88720762729645,中部,https://www.seiyu.co.jp/shop/%e8%a5%bf%e5%8f%8b%e8%97%a4%e5%b3%b6%e5%ba%97/
〒458-0003　愛知県名古屋市緑区黒沢台4-801,Seiyu,長野県,Japan,"{'brand': 'Seiyu', 'fascia': 'Seiyu', 'category': 'Food and Beverage', 'edit_date': '2025-04-21', 'lat_lon_source': 'Website'}",35.09805866093937,136.992124915123,西友鳴海店,"{'Mon': '00:00-24:00', 'Tue': '00:00-24:00', 'Wed': '00:00-24:00', 'Thu': '00:00-24:00', 'Fri': '00:00-24:00', 'Sat': '00:00-24:00', 'Sun': '00:00-24:00'}",052-877-3311,〒458-0003,35.09805866093937-136.992124915123,中部,https://www.seiyu.co.jp/shop/%e8%a5%bf%e5%8f%8b%e9%b3%b4%e6%b5%b7%e5%ba%97/
〒480-0202　愛知県西春日井郡豊山町大字豊場字神戸31-5,Seiyu,長野県,Japan,"{'brand': 'Seiyu', 'fascia': 'Seiyu', 'category': 'Food and Beverage', 'edit_date': '2025-04-21', 'lat_lon_source': 'Website'}",35.23995858857692,136.92004323005676,西友豊山店,"{'Mon': '00:00-24:00', 'Tue': '00:00-24:00', 'Wed': '00:00-24:00', 'Thu': '00:00-24:00', 'Fri': '00:00-24:00', 'Sat': '00:00-24:00', 'Sun': '00:00-24:00'}",0568-29-3730,〒480-0202,35.23995858857692-136.92004323005676,中部,https://www.seiyu.co.jp/shop/%e8%a5%bf%e5%8f%8b%e8%b1%8a%e5%b1%b1%e5%ba%97/
〒489-0925　愛知県瀬戸市西寺山町18,Seiyu,長野県,Japan,"{'brand': 'Seiyu', 'fascia': 'Seiyu', 'category': 'Food and Beverage', 'edit_date': '2025-04-21', 'lat_lon_source': 'Website'}",35.21432802871912,137.06963539123535,西友瀬戸店,"{'Mon': '00:00-24:00', 'Tue': '00:00-24:00', 'Wed': '00:00-24:00', 'Thu': '00:00-24:00', 'Fri': '00:00-24:00', 'Sat': '00:00-24:00', 'Sun': '00:00-24:00'}",0561-87-4010,〒489-0925,35.21432802871912-137.06963539123535,中部,https://www.seiyu.co.jp/shop/%e8%a5%bf%e5%8f%8b%e7%80%ac%e6%88%b8%e5%ba%97/
〒465-0068　愛知県名古屋市名東区牧の里1-401,Seiyu,長野県,Japan,"{'brand': 'Seiyu', 'fascia': 'Seiyu', 'category': 'Food and Beverage', 'edit_date': '2025-04-21', 'lat_lon_source': 'Website'}",35.154323784717974,137.00685024261475,西友高針店,"{'Mon': '00:00-24:00', 'Tue': '00:00-24:00', 'Wed': '00:00-24:00', 'Thu': '00:00-24:00', 'Fri': '00:00-24:00', 'Sat': '00:00-24:00', 'Sun': '00:00-24:00'}",052-704-3030,〒465-0068,35.154323784717974-137.00685024261475,中部,https://www.seiyu.co.jp/shop/%e8%a5%bf%e5%8f%8b%e9%ab%98%e9%87%9d%e5%ba%97/
〒486-0941　愛知県春日井市勝川新町1-27,Seiyu,長野県,Japan,"{'brand': 'Seiyu', 'fascia': 'Seiyu', 'category': 'Food and Beverage', 'edit_date': '2025-04-21', 'lat_lon_source': 'Website'}",35.23243108133377,136.94743663072586,西友勝川店,"{'Mon': '00:00-24:00', 'Tue': '00:00-24:00', 'Wed': '00:00-24:00', 'Thu': '00:00-24:00', 'Fri': '00:00-24:00', 'Sat': '00:00-24:00', 'Sun': '00:00-24:00'}",0568-34-8901,〒486-0941,35.23243108133377-136.94743663072586,中部,https://www.seiyu.co.jp/shop/%e8%a5%bf%e5%8f%8b%e5%8b%9d%e5%b7%9d%e5%ba%97/
〒483-8322　愛知県江南市村久野町鳥附44-3,Seiyu,長野県,Japan,"{'brand': 'Seiyu', 'fascia': 'Seiyu', 'category': 'Food and Beverage', 'edit_date': '2025-04-21', 'lat_lon_source': 'Website'}",35.351877,136.867872,西友江南店,"{'Mon': '00:00-24:00', 'Tue': '00:00-24:00', 'Wed': '00:00-24:00', 'Thu': '00:00-24:00', 'Fri': '00:00-24:00', 'Sat': '00:00-24:00', 'Sun': '00:00-24:00'}",0587-53-5311,〒483-8322,35.351877-136.867872,中部,https://www.seiyu.co.jp/shop/%e8%a5%bf%e5%8f%8b%e6%b1%9f%e5%8d%97%e5%ba%97/
〒444-0840　愛知県岡崎市戸崎町越舞2-1,Seiyu,長野県,Japan,"{'brand': 'Seiyu', 'fascia': 'Seiyu', 'category': 'Food and Beverage', 'edit_date': '2025-04-21', 'lat_lon_source': 'Website'}",34.931537129544814,137.16543316841125,西友岡崎店,"{'Mon': '00:00-24:00', 'Tue': '00:00-24:00', 'Wed': '00:00-24:00', 'Thu': '00:00-24:00', 'Fri': '00:00-24:00', 'Sat': '00:00-24:00', 'Sun': '00:00-24:00'}",0564-58-2000,〒444-0840,34.931537129544814-137.16543316841125,中部,https://www.seiyu.co.jp/shop/%e8%a5%bf%e5%8f%8b%e5%b2%a1%e5%b4%8e%e5%ba%97/
,Seiyu,長野県,Japan,"{'brand': 'Seiyu', 'fascia': 'Seiyu', 'category': 'Food and Beverage', 'edit_date': '2025-04-21', 'lat_lon_source': 'Website'}",35.25932498640791,136.98309494972855,西友イーアス春日井店,"{'Mon': '00:00-24:00', 'Tue': '00:00-24:00', 'Wed': '00:00-24:00', 'Thu': '00:00-24:00', 'Fri': '00:00-24:00', 'Sat': '00:00-24:00', 'Sun': '00:00-24:00'}",,,35.25932498640791-136.98309494972855,中部,https://www.seiyu.co.jp/shop/%e8%a5%bf%e5%8f%8b%e3%82%a4%e3%83%bc%e3%82%a2%e3%82%b9%e6%98%a5%e6%97%a5%e4%ba%95%e5%ba%97/
〒446-8530　愛知県安城市大東町9-30 ららぽーと安城1階1100,Seiyu,長野県,Japan,"{'brand': 'Seiyu', 'fascia': 'Seiyu', 'category': 'Food and Beverage', 'edit_date': '2025-04-21', 'lat_lon_source': 'Website'}",34.965382096769666,137.07834945503572,西友安城店,"{'Mon': '00:00-24:00', 'Tue': '00:00-24:00', 'Wed': '00:00-24:00', 'Thu': '00:00-24:00', 'Fri': '00:00-24:00', 'Sat': '00:00-24:00', 'Sun': '00:00-24:00'}",0566-45-5494,〒446-8530,34.965382096769666-137.07834945503572,中部,https://www.seiyu.co.jp/shop/%e8%a5%bf%e5%8f%8b%e5%ae%89%e5%9f%8e%e5%ba%97/
〒456-0056　愛知県名古屋市熱田区三番町2-34,Seiyu,長野県,Japan,"{'brand': 'Seiyu', 'fascia': 'Seiyu', 'category': 'Food and Beverage', 'edit_date': '2025-04-21', 'lat_lon_source': 'Website'}",35.11787259473939,136.89265251159668,西友熱田三番町店,"{'Mon': '00:00-24:00', 'Tue': '00:00-24:00', 'Wed': '00:00-24:00', 'Thu': '00:00-24:00', 'Fri': '00:00-24:00', 'Sat': '00:00-24:00', 'Sun': '00:00-24:00'}",052-659-3933,〒456-0056,35.11787259473939-136.89265251159668,中部,https://www.seiyu.co.jp/shop/%e8%a5%bf%e5%8f%8b%e7%86%b1%e7%94%b0%e4%b8%89%e7%95%aa%e7%94%ba%e5%ba%97/
〒485-0828　愛知県小牧市小松寺5-24,Seiyu,長野県,Japan,"{'brand': 'Seiyu', 'fascia': 'Seiyu', 'category': 'Food and Beverage', 'edit_date': '2025-04-21', 'lat_lon_source': 'Website'}",35.309535,136.942345,西友味岡店,"{'Mon': '00:00-24:00', 'Tue': '00:00-24:00', 'Wed': '00:00-24:00', 'Thu': '00:00-24:00', 'Fri': '00:00-24:00', 'Sat': '00:00-24:00', 'Sun': '00:00-24:00'}",0568-73-5661,〒485-0828,35.309535-136.942345,中部,https://www.seiyu.co.jp/shop/%e8%a5%bf%e5%8f%8b%e5%91%b3%e5%b2%a1%e5%ba%97/
〒525-0059　滋賀県草津市野路1-13-36,Seiyu,滋賀県,Japan,"{'brand': 'Seiyu', 'fascia': 'Seiyu', 'category': 'Food and Beverage', 'edit_date': '2025-04-21', 'lat_lon_source': 'Website'}",35.00268262442075,135.94895482063293,西友南草津店,"{'Mon': '00:00-24:00', 'Tue': '00:00-24:00', 'Wed': '00:00-24:00', 'Thu': '00:00-24:00', 'Fri': '00:00-24:00', 'Sat': '00:00-24:00', 'Sun': '00:00-24:00'}",077-565-8666,〒525-0059,35.00268262442075-135.94895482063293,関西,https://www.seiyu.co.jp/shop/%e8%a5%bf%e5%8f%8b%e5%8d%97%e8%8d%89%e6%b4%a5%e5%ba%97/
〒528-0005　滋賀県甲賀市水口町水口6084-1,Seiyu,滋賀県,Japan,"{'brand': 'Seiyu', 'fascia': 'Seiyu', 'category': 'Food and Beverage', 'edit_date': '2025-04-21', 'lat_lon_source': 'Website'}",34.9650755,136.1675948,西友水口店,"{'Mon': '00:00-24:00', 'Tue': '00:00-24:00', 'Wed': '00:00-24:00', 'Thu': '00:00-24:00', 'Fri': '00:00-24:00', 'Sat': '00:00-24:00', 'Sun': '00:00-24:00'}",0748-63-8111,〒528-0005,34.9650755-136.1675948,関西,https://www.seiyu.co.jp/shop/%e8%a5%bf%e5%8f%8b%e6%b0%b4%e5%8f%a3%e5%ba%97/
〒526-0031　滋賀県長浜市八幡東町9-1,Seiyu,滋賀県,Japan,"{'brand': 'Seiyu', 'fascia': 'Seiyu', 'category': 'Food and Beverage', 'edit_date': '2025-04-21', 'lat_lon_source': 'Website'}",35.38724378202692,136.28159165382385,西友長浜楽市店,"{'Mon': '00:00-24:00', 'Tue': '00:00-24:00', 'Wed': '00:00-24:00', 'Thu': '00:00-24:00', 'Fri': '00:00-24:00', 'Sat': '00:00-24:00', 'Sun': '00:00-24:00'}",0749-65-0111,〒526-0031,35.38724378202692-136.28159165382385,関西,https://www.seiyu.co.jp/shop/%e8%a5%bf%e5%8f%8b%e9%95%b7%e6%b5%9c%e6%a5%bd%e5%b8%82%e5%ba%97/
〒607-8075　京都府京都市山科区音羽野田町1,Seiyu,滋賀県,Japan,"{'brand': 'Seiyu', 'fascia': 'Seiyu', 'category': 'Food and Beverage', 'edit_date': '2025-04-21', 'lat_lon_source': 'Website'}",34.98463394268517,135.81652879714966,西友山科店,"{'Mon': '00:00-24:00', 'Tue': '00:00-24:00', 'Wed': '00:00-24:00', 'Thu': '00:00-24:00', 'Fri': '00:00-24:00', 'Sat': '00:00-24:00', 'Sun': '00:00-24:00'}",075-592-9770,〒607-8075,34.98463394268517-135.81652879714966,関西,https://www.seiyu.co.jp/shop/%e8%a5%bf%e5%8f%8b%e5%b1%b1%e7%a7%91%e5%ba%97/
〒617-0823　京都府長岡京市長岡2-2-35,Seiyu,滋賀県,Japan,"{'brand': 'Seiyu', 'fascia': 'Seiyu', 'category': 'Food and Beverage', 'edit_date': '2025-04-21', 'lat_lon_source': 'Website'}",34.926967534876354,135.69013237953186,西友長岡店,"{'Mon': '00:00-24:00', 'Tue': '00:00-24:00', 'Wed': '00:00-24:00', 'Thu': '00:00-24:00', 'Fri': '00:00-24:00', 'Sat': '00:00-24:00', 'Sun': '00:00-24:00'}",075-955-1900,〒617-0823,34.926967534876354-135.69013237953186,関西,https://www.seiyu.co.jp/shop/%e8%a5%bf%e5%8f%8b%e9%95%b7%e5%b2%a1%e5%ba%97/
〒612-8393　京都府京都市伏見区下鳥羽渡瀬町101,Seiyu,滋賀県,Japan,"{'brand': 'Seiyu', 'fascia': 'Seiyu', 'category': 'Food and Beverage', 'edit_date': '2025-04-21', 'lat_lon_source': 'Website'}",34.9395317,135.7459306,西友下鳥羽店,"{'Mon': '00:00-24:00', 'Tue': '00:00-24:00', 'Wed': '00:00-24:00', 'Thu': '00:00-24:00', 'Fri': '00:00-24:00', 'Sat': '00:00-24:00', 'Sun': '00:00-24:00'}",075-602-9166,〒612-8393,34.9395317-135.7459306,関西,https://www.seiyu.co.jp/shop/%e8%a5%bf%e5%8f%8b%e4%b8%8b%e9%b3%a5%e7%be%bd%e5%ba%97/
〒615-8236　京都府京都市西京区山田大吉見町11-13,Seiyu,滋賀県,Japan,"{'brand': 'Seiyu', 'fascia': 'Seiyu', 'category': 'Food and Beverage', 'edit_date': '2025-04-21', 'lat_lon_source': 'Website'}",34.98098592922593,135.69225668907166,西友桂店,"{'Mon': '00:00-24:00', 'Tue': '00:00-24:00', 'Wed': '00:00-24:00', 'Thu': '00:00-24:00', 'Fri': '00:00-24:00', 'Sat': '00:00-24:00', 'Sun': '00:00-24:00'}",075-392-8611,〒615-8236,34.98098592922593-135.69225668907166,関西,https://www.seiyu.co.jp/shop/%e8%a5%bf%e5%8f%8b%e6%a1%82%e5%ba%97/
 JR山陰本線　二条駅 東口から徒歩9分/バス「市営特18」「市営18」「市営201甲」「市営206甲」「市営46」「市営55」「市営6」「市営69」で8分/地下鉄東西線　二条城前駅から徒歩8分/ 阪急京都線 大宮駅及び京福電気鉄道嵐山本線　四条大宮駅から徒歩10分・バス　「市営特18」「市営18」「市営6」「市営18」「市営46」「市営55」「市営201乙」「市営206乙」で6分,Seiyu,滋賀県,Japan,"{'brand': 'Seiyu', 'fascia': 'Seiyu', 'category': 'Food and Beverage', 'edit_date': '2025-04-21', 'lat_lon_source': 'Website'}",35.008642,135.747336,西友三条店,"{'Mon': '00:00-24:00', 'Tue': '00:00-24:00', 'Wed': '00:00-24:00', 'Thu': '00:00-24:00', 'Fri': '00:00-24:00', 'Sat': '00:00-24:00', 'Sun': '00:00-24:00'}",,JR山陰本線,35.008642-135.747336,関西,https://www.seiyu.co.jp/shop/%e8%a5%bf%e5%8f%8b%e4%b8%89%e6%9d%a1%e5%ba%97/
 京阪本線 守口市駅,Seiyu,滋賀県,Japan,"{'brand': 'Seiyu', 'fascia': 'Seiyu', 'category': 'Food and Beverage', 'edit_date': '2025-04-21', 'lat_lon_source': 'Website'}",34.73496921720624,135.56676417589188,西友守口店,"{'Mon': '00:00-24:00', 'Tue': '00:00-24:00', 'Wed': '00:00-24:00', 'Thu': '00:00-24:00', 'Fri': '00:00-24:00', 'Sat': '00:00-24:00', 'Sun': '00:00-24:00'}",,京阪本線,34.73496921720624-135.56676417589188,関西,https://www.seiyu.co.jp/shop/%e8%a5%bf%e5%8f%8b%e5%ae%88%e5%8f%a3%e5%ba%97/
〒586-0009　大阪府河内長野市木戸西町2-1-20,Seiyu,滋賀県,Japan,"{'brand': 'Seiyu', 'fascia': 'Seiyu', 'category': 'Food and Beverage', 'edit_date': '2025-04-21', 'lat_lon_source': 'Website'}",34.46718622049609,135.56478202342987,西友千代田店,"{'Mon': '00:00-24:00', 'Tue': '00:00-24:00', 'Wed': '00:00-24:00', 'Thu': '00:00-24:00', 'Fri': '00:00-24:00', 'Sat': '00:00-24:00', 'Sun': '00:00-24:00'}",0721-54-3501,〒586-0009,34.46718622049609-135.56478202342987,関西,https://www.seiyu.co.jp/shop/%e8%a5%bf%e5%8f%8b%e5%8d%83%e4%bb%a3%e7%94%b0%e5%ba%97/
〒537-0011　大阪府大阪市東成区東今里3-1-2,Seiyu,滋賀県,Japan,"{'brand': 'Seiyu', 'fascia': 'Seiyu', 'category': 'Food and Beverage', 'edit_date': '2025-04-21', 'lat_lon_source': 'Website'}",34.67714528310765,135.5493539571762,西友緑橋店,"{'Mon': '00:00-24:00', 'Tue': '00:00-24:00', 'Wed': '00:00-24:00', 'Thu': '00:00-24:00', 'Fri': '00:00-24:00', 'Sat': '00:00-24:00', 'Sun': '00:00-24:00'}",06-6972-3181,〒537-0011,34.67714528310765-135.5493539571762,関西,https://www.seiyu.co.jp/shop/%e8%a5%bf%e5%8f%8b%e7%b7%91%e6%a9%8b%e5%ba%97/
〒599-8242　大阪府堺市中区陶器北1678,Seiyu,滋賀県,Japan,"{'brand': 'Seiyu', 'fascia': 'Seiyu', 'category': 'Food and Beverage', 'edit_date': '2025-04-21', 'lat_lon_source': 'Website'}",34.52658841651359,135.52432358264923,西友堺福田店,"{'Mon': '00:00-24:00', 'Tue': '00:00-24:00', 'Wed': '00:00-24:00', 'Thu': '00:00-24:00', 'Fri': '00:00-24:00', 'Sat': '00:00-24:00', 'Sun': '00:00-24:00'}",072-239-5221,〒599-8242,34.52658841651359-135.52432358264923,関西,https://www.seiyu.co.jp/shop/%e8%a5%bf%e5%8f%8b%e5%a0%ba%e7%a6%8f%e7%94%b0%e5%ba%97/
〒593-8301　大阪府堺市西区上野芝町2-7-3,Seiyu,滋賀県,Japan,"{'brand': 'Seiyu', 'fascia': 'Seiyu', 'category': 'Food and Beverage', 'edit_date': '2025-04-21', 'lat_lon_source': 'Website'}",34.55049915105299,135.48182666301727,西友上野芝店,"{'Mon': '00:00-24:00', 'Tue': '00:00-24:00', 'Wed': '00:00-24:00', 'Thu': '00:00-24:00', 'Fri': '00:00-24:00', 'Sat': '00:00-24:00', 'Sun': '00:00-24:00'}",072-281-7800,〒593-8301,34.55049915105299-135.48182666301727,関西,https://www.seiyu.co.jp/shop/%e8%a5%bf%e5%8f%8b%e4%b8%8a%e9%87%8e%e8%8a%9d%e5%ba%97/
〒653-0038　兵庫県神戸市長田区若松町5-5-1,Seiyu,滋賀県,Japan,"{'brand': 'Seiyu', 'fascia': 'Seiyu', 'category': 'Food and Beverage', 'edit_date': '2025-04-21', 'lat_lon_source': 'Website'}",34.65630253624619,135.14430284500122,西友新長田店,"{'Mon': '00:00-24:00', 'Tue': '00:00-24:00', 'Wed': '00:00-24:00', 'Thu': '00:00-24:00', 'Fri': '00:00-24:00', 'Sat': '00:00-24:00', 'Sun': '00:00-24:00'}", 078-646-2883,〒653-0038,34.65630253624619-135.14430284500122,関西,https://www.seiyu.co.jp/shop/%e8%a5%bf%e5%8f%8b%e6%96%b0%e9%95%b7%e7%94%b0%e5%ba%97/
〒981-1105　宮城県仙台市太白区西中田1-17-75,Seiyu,宮城県,Japan,"{'brand': 'Seiyu', 'fascia': 'Seiyu', 'category': 'Food and Beverage', 'edit_date': '2025-04-21', 'lat_lon_source': 'Website'}",38.19904135830286,140.882186293602,西友南仙台店,"{'Mon': '00:00-24:00', 'Tue': '00:00-24:00', 'Wed': '00:00-24:00', 'Thu': '00:00-24:00', 'Fri': '00:00-24:00', 'Sat': '00:00-24:00', 'Sun': '00:00-24:00'}",022-741-2050,〒981-1105,38.19904135830286-140.882186293602,東北,https://www.seiyu.co.jp/shop/%e8%a5%bf%e5%8f%8b%e5%8d%97%e4%bb%99%e5%8f%b0%e5%ba%97/
〒980-0871　宮城県仙台市青葉区八幡4-1-3,Seiyu,宮城県,Japan,"{'brand': 'Seiyu', 'fascia': 'Seiyu', 'category': 'Food and Beverage', 'edit_date': '2025-04-21', 'lat_lon_source': 'Website'}",38.270528028526535,140.84999978542328,西友八幡町店,"{'Mon': '00:00-24:00', 'Tue': '00:00-24:00', 'Wed': '00:00-24:00', 'Thu': '00:00-24:00', 'Fri': '00:00-24:00', 'Sat': '00:00-24:00', 'Sun': '00:00-24:00'}",022-301-4570,〒980-0871,38.270528028526535-140.84999978542328,東北,https://www.seiyu.co.jp/shop/%e8%a5%bf%e5%8f%8b%e5%85%ab%e5%b9%a1%e7%94%ba%e5%ba%97/
〒983-0824　宮城県仙台市宮城野区鶴ヶ谷6-6-2,Seiyu,宮城県,Japan,"{'brand': 'Seiyu', 'fascia': 'Seiyu', 'category': 'Food and Beverage', 'edit_date': '2025-04-21', 'lat_lon_source': 'Website'}",38.290591320407685,140.92497557401657,西友鶴ヶ谷店,"{'Mon': '00:00-24:00', 'Tue': '00:00-24:00', 'Wed': '00:00-24:00', 'Thu': '00:00-24:00', 'Fri': '00:00-24:00', 'Sat': '00:00-24:00', 'Sun': '00:00-24:00'}",022-388-4551,〒983-0824,38.290591320407685-140.92497557401657,東北,https://www.seiyu.co.jp/shop/%e8%a5%bf%e5%8f%8b%e9%b6%b4%e3%83%b6%e8%b0%b7%e5%ba%97/
〒983-0823　宮城県仙台市宮城野区燕沢1-24-1,Seiyu,宮城県,Japan,"{'brand': 'Seiyu', 'fascia': 'Seiyu', 'category': 'Food and Beverage', 'edit_date': '2025-04-21', 'lat_lon_source': 'Website'}",38.282201584801705,140.9234493970871,西友燕沢店,"{'Mon': '00:00-24:00', 'Tue': '00:00-24:00', 'Wed': '00:00-24:00', 'Thu': '00:00-24:00', 'Fri': '00:00-24:00', 'Sat': '00:00-24:00', 'Sun': '00:00-24:00'}",022-251-3551,〒983-0823,38.282201584801705-140.9234493970871,東北,https://www.seiyu.co.jp/shop/%e8%a5%bf%e5%8f%8b%e7%87%95%e6%b2%a2%e5%ba%97/
〒983-0014　宮城県仙台市宮城野区高砂1-15-1,Seiyu,宮城県,Japan,"{'brand': 'Seiyu', 'fascia': 'Seiyu', 'category': 'Food and Beverage', 'edit_date': '2025-04-21', 'lat_lon_source': 'Website'}",38.270970242886065,140.96961557865143,西友高砂駅前店,"{'Mon': '00:00-24:00', 'Tue': '00:00-24:00', 'Wed': '00:00-24:00', 'Thu': '00:00-24:00', 'Fri': '00:00-24:00', 'Sat': '00:00-24:00', 'Sun': '00:00-24:00'}",022-259-8383,〒983-0014,38.270970242886065-140.96961557865143,東北,https://www.seiyu.co.jp/shop/%e8%a5%bf%e5%8f%8b%e9%ab%98%e7%a0%82%e9%a7%85%e5%89%8d%e5%ba%97/
〒982-0212　宮城県仙台市太白区太白1-6-1,Seiyu,宮城県,Japan,"{'brand': 'Seiyu', 'fascia': 'Seiyu', 'category': 'Food and Beverage', 'edit_date': '2025-04-21', 'lat_lon_source': 'Website'}",38.23194604836211,140.8184489607811,西友太白店,"{'Mon': '00:00-23:00', 'Tue': '00:00-23:00', 'Wed': '00:00-23:00', 'Thu': '00:00-23:00', 'Fri': '00:00-23:00', 'Sat': '00:00-23:00', 'Sun': '00:00-23:00'}",022-244-2711,〒982-0212,38.23194604836211-140.8184489607811,東北,https://www.seiyu.co.jp/shop/%e8%a5%bf%e5%8f%8b%e5%a4%aa%e7%99%bd%e5%ba%97/
〒981-0912　宮城県仙台市青葉区堤町3-9-1,Seiyu,宮城県,Japan,"{'brand': 'Seiyu', 'fascia': 'Seiyu', 'category': 'Food and Beverage', 'edit_date': '2025-04-21', 'lat_lon_source': 'Website'}",38.2880266,140.870496,西友台原店,"{'Mon': '00:00-24:00', 'Tue': '00:00-24:00', 'Wed': '00:00-24:00', 'Thu': '00:00-24:00', 'Fri': '00:00-24:00', 'Sat': '00:00-24:00', 'Sun': '00:00-24:00'}",022-274-6411,〒981-0912,38.2880266-140.870496,東北,https://www.seiyu.co.jp/shop/%e8%a5%bf%e5%8f%8b%e5%8f%b0%e5%8e%9f%e5%ba%97/
〒982-0011　宮城県仙台市太白区長町7-20-3,Seiyu,宮城県,Japan,"{'brand': 'Seiyu', 'fascia': 'Seiyu', 'category': 'Food and Beverage', 'edit_date': '2025-04-21', 'lat_lon_source': 'Website'}",38.225960078444864,140.8766770362854,ザ・モール仙台長町店,"{'Mon': '00:00-24:00', 'Tue': '00:00-24:00', 'Wed': '00:00-24:00', 'Thu': '00:00-24:00', 'Fri': '00:00-24:00', 'Sat': '00:00-24:00', 'Sun': '00:00-24:00'}",022-304-1212,〒982-0011,38.225960078444864-140.8766770362854,東北,https://www.seiyu.co.jp/shop/%e3%82%b6%e3%83%bb%e3%83%a2%e3%83%bc%e3%83%ab%e4%bb%99%e5%8f%b0%e9%95%b7%e7%94%ba%e5%ba%97/
〒985-0821　宮城県宮城郡七ヶ浜町汐見台1-1-3,Seiyu,宮城県,Japan,"{'brand': 'Seiyu', 'fascia': 'Seiyu', 'category': 'Food and Beverage', 'edit_date': '2025-04-21', 'lat_lon_source': 'Website'}",38.29679931092568,141.0553765296936,西友汐見台店,"{'Mon': '00:00-24:00', 'Tue': '00:00-24:00', 'Wed': '00:00-24:00', 'Thu': '00:00-24:00', 'Fri': '00:00-24:00', 'Sat': '00:00-24:00', 'Sun': '00:00-24:00'}",022-357-5141,〒985-0821,38.29679931092568-141.0553765296936,東北,https://www.seiyu.co.jp/shop/%e8%a5%bf%e5%8f%8b%e6%b1%90%e8%a6%8b%e5%8f%b0%e5%ba%97/
〒981-0913　宮城県仙台市青葉区昭和町3-42,Seiyu,宮城県,Japan,"{'brand': 'Seiyu', 'fascia': 'Seiyu', 'category': 'Food and Beverage', 'edit_date': '2025-04-21', 'lat_lon_source': 'Website'}",38.28110674225659,140.8696335554123,西友北仙台店,"{'Mon': '00:00-24:00', 'Tue': '00:00-24:00', 'Wed': '00:00-24:00', 'Thu': '00:00-24:00', 'Fri': '00:00-24:00', 'Sat': '00:00-24:00', 'Sun': '00:00-24:00'}",022-301-8221,〒981-0913,38.28110674225659-140.8696335554123,東北,https://www.seiyu.co.jp/shop/%e8%a5%bf%e5%8f%8b%e5%8c%97%e4%bb%99%e5%8f%b0%e5%ba%97/
〒981-0932　宮城県仙台市青葉区木町1-31,Seiyu,宮城県,Japan,"{'brand': 'Seiyu', 'fascia': 'Seiyu', 'category': 'Food and Beverage', 'edit_date': '2025-04-21', 'lat_lon_source': 'Website'}",38.276611398358845,140.86197584867477,西友木町店,"{'Mon': '00:00-24:00', 'Tue': '00:00-24:00', 'Wed': '00:00-24:00', 'Thu': '00:00-24:00', 'Fri': '00:00-24:00', 'Sat': '00:00-24:00', 'Sun': '00:00-24:00'}",022-271-1651,〒981-0932,38.276611398358845-140.86197584867477,東北,https://www.seiyu.co.jp/shop/%e8%a5%bf%e5%8f%8b%e6%9c%a8%e7%94%ba%e5%ba%97/
〒980-0011　宮城県仙台市青葉区上杉5-1-1,Seiyu,宮城県,Japan,"{'brand': 'Seiyu', 'fascia': 'Seiyu', 'category': 'Food and Beverage', 'edit_date': '2025-04-21', 'lat_lon_source': 'Website'}",38.27432256130658,140.87937533855438,西友上杉店,"{'Mon': '00:00-24:00', 'Tue': '00:00-24:00', 'Wed': '00:00-24:00', 'Thu': '00:00-24:00', 'Fri': '00:00-24:00', 'Sat': '00:00-24:00', 'Sun': '00:00-24:00'}",022-715-7850,〒980-0011,38.27432256130658-140.87937533855438,東北,https://www.seiyu.co.jp/shop/%e8%a5%bf%e5%8f%8b%e4%b8%8a%e6%9d%89%e5%ba%97/
〒980-0003　宮城県仙台市青葉区小田原6-1-25,Seiyu,宮城県,Japan,"{'brand': 'Seiyu', 'fascia': 'Seiyu', 'category': 'Food and Beverage', 'edit_date': '2025-04-21', 'lat_lon_source': 'Website'}",38.27082494417922,140.88510185480118,西友小田原店,"{'Mon': '00:00-24:00', 'Tue': '00:00-24:00', 'Wed': '00:00-24:00', 'Thu': '00:00-24:00', 'Fri': '00:00-24:00', 'Sat': '00:00-24:00', 'Sun': '00:00-24:00'}",022-222-9074,〒980-0003,38.27082494417922-140.88510185480118,東北,https://www.seiyu.co.jp/shop/%e8%a5%bf%e5%8f%8b%e5%b0%8f%e7%94%b0%e5%8e%9f%e5%ba%97/
〒980-0022　宮城県仙台市青葉区五橋2-7-13,Seiyu,宮城県,Japan,"{'brand': 'Seiyu', 'fascia': 'Seiyu', 'category': 'Food and Beverage', 'edit_date': '2025-04-21', 'lat_lon_source': 'Website'}",38.250507,140.878418,西友五橋店,"{'Mon': '00:00-24:00', 'Tue': '00:00-24:00', 'Wed': '00:00-24:00', 'Thu': '00:00-24:00', 'Fri': '00:00-24:00', 'Sat': '00:00-24:00', 'Sun': '00:00-24:00'}",022-723-0745,〒980-0022,38.250507-140.878418,東北,https://www.seiyu.co.jp/shop/%e8%a5%bf%e5%8f%8b%e4%ba%94%e6%a9%8b%e5%ba%97/
〒960-0619　福島県伊達市保原町9-5,Seiyu,宮城県,Japan,"{'brand': 'Seiyu', 'fascia': 'Seiyu', 'category': 'Food and Beverage', 'edit_date': '2025-04-21', 'lat_lon_source': 'Website'}",37.82263293681484,140.5547046661377,西友保原店,"{'Mon': '00:00-24:00', 'Tue': '00:00-24:00', 'Wed': '00:00-24:00', 'Thu': '00:00-24:00', 'Fri': '00:00-24:00', 'Sat': '00:00-24:00', 'Sun': '00:00-24:00'}",024-575-4111,〒960-0619,37.82263293681484-140.5547046661377,東北,https://www.seiyu.co.jp/shop/%e8%a5%bf%e5%8f%8b%e4%bf%9d%e5%8e%9f%e5%ba%97/
〒181-0002　東京都三鷹市牟礼6-8-12,Seiyu,茨城県,Japan,"{'brand': 'Seiyu', 'fascia': 'Seiyu', 'category': 'Food and Beverage', 'edit_date': '2025-04-21', 'lat_lon_source': 'Website'}",35.685910261154255,139.57613825798035,西友三鷹牟礼店,"{'Mon': '00:00-24:00', 'Tue': '00:00-24:00', 'Wed': '00:00-24:00', 'Thu': '00:00-24:00', 'Fri': '00:00-24:00', 'Sat': '00:00-24:00', 'Sun': '00:00-24:00'}",0422-72-3511,〒181-0002,35.685910261154255-139.57613825798035,関東,https://www.seiyu.co.jp/shop/%e8%a5%bf%e5%8f%8b%e4%b8%89%e9%b7%b9%e7%89%9f%e7%a4%bc%e5%ba%97/
〒963-8017　福島県郡山市長者1-1-56,Seiyu,宮城県,Japan,"{'brand': 'Seiyu', 'fascia': 'Seiyu', 'category': 'Food and Beverage', 'edit_date': '2025-04-21', 'lat_lon_source': 'Website'}",37.3975735157469,140.37027597427368,ザ・モール郡山店,"{'Mon': '00:00-24:00', 'Tue': '00:00-24:00', 'Wed': '00:00-24:00', 'Thu': '00:00-24:00', 'Fri': '00:00-24:00', 'Sat': '00:00-24:00', 'Sun': '00:00-24:00'}", 024-933-0100,〒963-8017,37.3975735157469-140.37027597427368,東北,https://www.seiyu.co.jp/shop/%e3%82%b6%e3%83%bb%e3%83%a2%e3%83%bc%e3%83%ab%e9%83%a1%e5%b1%b1%e5%ba%97/
〒202-0012　東京都西東京市東町3-14-30,Seiyu,茨城県,Japan,"{'brand': 'Seiyu', 'fascia': 'Seiyu', 'category': 'Food and Beverage', 'edit_date': '2025-04-21', 'lat_lon_source': 'Website'}",35.74795771266943,139.56754446029663,西友保谷店,"{'Mon': '00:00-24:00', 'Tue': '00:00-24:00', 'Wed': '00:00-24:00', 'Thu': '00:00-24:00', 'Fri': '00:00-24:00', 'Sat': '00:00-24:00', 'Sun': '00:00-24:00'}",042-438-6211,〒202-0012,35.74795771266943-139.56754446029663,関東,https://www.seiyu.co.jp/shop/%e8%a5%bf%e5%8f%8b%e4%bf%9d%e8%b0%b7%e5%ba%97/
〒194-0022　東京都町田市森野1-14-17,Seiyu,茨城県,Japan,"{'brand': 'Seiyu', 'fascia': 'Seiyu', 'category': 'Food and Beverage', 'edit_date': '2025-04-21', 'lat_lon_source': 'Website'}",35.54362374672447,139.44364249706268,西友町田店,"{'Mon': '00:00-24:00', 'Tue': '00:00-24:00', 'Wed': '00:00-24:00', 'Thu': '00:00-24:00', 'Fri': '00:00-24:00', 'Sat': '00:00-24:00', 'Sun': '00:00-24:00'}",042-726-3611,〒194-0022,35.54362374672447-139.44364249706268,関東,https://www.seiyu.co.jp/shop/%e8%a5%bf%e5%8f%8b%e7%94%ba%e7%94%b0%e5%ba%97/
〒197-0021　東京都福生市東町5-1,Seiyu,茨城県,Japan,"{'brand': 'Seiyu', 'fascia': 'Seiyu', 'category': 'Food and Beverage', 'edit_date': '2025-04-21', 'lat_lon_source': 'Website'}",35.74329472717631,139.32804465293884,西友福生店,"{'Mon': '00:00-24:00', 'Tue': '00:00-24:00', 'Wed': '00:00-24:00', 'Thu': '00:00-24:00', 'Fri': '00:00-24:00', 'Sat': '00:00-24:00', 'Sun': '00:00-24:00'}",042-552-5111,〒197-0021,35.74329472717631-139.32804465293884,関東,https://www.seiyu.co.jp/shop/%e8%a5%bf%e5%8f%8b%e7%a6%8f%e7%94%9f%e5%ba%97/
〒183-0035　東京都府中市四谷5-23-12,Seiyu,茨城県,Japan,"{'brand': 'Seiyu', 'fascia': 'Seiyu', 'category': 'Food and Beverage', 'edit_date': '2025-04-21', 'lat_lon_source': 'Website'}",35.66707654370428,139.4374680519104,西友府中四谷店,"{'Mon': '00:00-24:00', 'Tue': '00:00-24:00', 'Wed': '00:00-24:00', 'Thu': '00:00-24:00', 'Fri': '00:00-24:00', 'Sat': '00:00-24:00', 'Sun': '00:00-24:00'}",042-335-1532,〒183-0035,35.66707654370428-139.4374680519104,関東,https://www.seiyu.co.jp/shop/%e8%a5%bf%e5%8f%8b%e5%ba%9c%e4%b8%ad%e5%9b%9b%e8%b0%b7%e5%ba%97/
〒168-0071　東京都杉並区高井戸西2-10-13,Seiyu,茨城県,Japan,"{'brand': 'Seiyu', 'fascia': 'Seiyu', 'category': 'Food and Beverage', 'edit_date': '2025-04-21', 'lat_lon_source': 'Website'}",35.68627843738197,139.60845351219177,西友富士見ヶ丘店,"{'Mon': '00:00-24:00', 'Tue': '00:00-24:00', 'Wed': '00:00-24:00', 'Thu': '00:00-24:00', 'Fri': '00:00-24:00', 'Sat': '00:00-24:00', 'Sun': '00:00-24:00'}",03-3335-3401,〒168-0071,35.68627843738197-139.60845351219177,関東,https://www.seiyu.co.jp/shop/%e8%a5%bf%e5%8f%8b%e5%af%8c%e5%a3%ab%e8%a6%8b%e3%83%b6%e4%b8%98%e5%ba%97/
,Seiyu,茨城県,Japan,"{'brand': 'Seiyu', 'fascia': 'Seiyu', 'category': 'Food and Beverage', 'edit_date': '2025-04-21', 'lat_lon_source': 'Website'}",35.6140687,139.6609141,西友深沢目黒通り店,"{'Mon': '00:00-24:00', 'Tue': '00:00-24:00', 'Wed': '00:00-24:00', 'Thu': '00:00-24:00', 'Fri': '00:00-24:00', 'Sat': '00:00-24:00', 'Sun': '00:00-24:00'}",,,35.6140687-139.6609141,関東,https://www.seiyu.co.jp/shop/%e8%a5%bf%e5%8f%8b%e6%b7%b1%e6%b2%a2%e7%9b%ae%e9%bb%92%e9%80%9a%e3%82%8a%e5%ba%97/
 JR総武線 平井駅 北口から徒歩2分,Seiyu,茨城県,Japan,"{'brand': 'Seiyu', 'fascia': 'Seiyu', 'category': 'Food and Beverage', 'edit_date': '2025-04-21', 'lat_lon_source': 'Website'}",35.70659956492206,139.84162867069244,西友平井店,"{'Mon': '00:00-24:00', 'Tue': '00:00-24:00', 'Wed': '00:00-24:00', 'Thu': '00:00-24:00', 'Fri': '00:00-24:00', 'Sat': '00:00-24:00', 'Sun': '00:00-24:00'}",,JR総武線,35.70659956492206-139.84162867069244,関東,https://www.seiyu.co.jp/shop/%e8%a5%bf%e5%8f%8b%e5%b9%b3%e4%ba%95%e5%ba%97/
〒202-0005　東京都西東京市住吉町3-9-8,Seiyu,茨城県,Japan,"{'brand': 'Seiyu', 'fascia': 'Seiyu', 'category': 'Food and Beverage', 'edit_date': '2025-04-21', 'lat_lon_source': 'Website'}",35.75074405353843,139.54521775245667,西友ひばりヶ丘店,"{'Mon': '07:00-25:00', 'Tue': '07:00-25:00', 'Wed': '07:00-25:00', 'Thu': '07:00-25:00', 'Fri': '07:00-25:00', 'Sat': '07:00-25:00', 'Sun': '07:00-25:00'}", 042-423-6111,〒202-0005,35.75074405353843-139.54521775245667,関東,https://www.seiyu.co.jp/shop/%e8%a5%bf%e5%8f%8b%e3%81%b2%e3%81%b0%e3%82%8a%e3%83%b6%e4%b8%98%e5%ba%97/
〒202-0001　東京都西東京市ひばりが丘3-6-26,Seiyu,茨城県,Japan,"{'brand': 'Seiyu', 'fascia': 'Seiyu', 'category': 'Food and Beverage', 'edit_date': '2025-04-21', 'lat_lon_source': 'Website'}",35.74751363058153,139.53600704669952,西友ひばりが丘団地店,"{'Mon': '00:00-24:00', 'Tue': '00:00-24:00', 'Wed': '00:00-24:00', 'Thu': '00:00-24:00', 'Fri': '00:00-24:00', 'Sat': '00:00-24:00', 'Sun': '00:00-24:00'}",042-461-0155,〒202-0001,35.74751363058153-139.53600704669952,関東,https://www.seiyu.co.jp/shop/%e8%a5%bf%e5%8f%8b%e3%81%b2%e3%81%b0%e3%82%8a%e3%81%8c%e4%b8%98%e5%9b%a3%e5%9c%b0%e5%ba%97/
〒179-0072　東京都練馬区光が丘5-1-1,Seiyu,茨城県,Japan,"{'brand': 'Seiyu', 'fascia': 'Seiyu', 'category': 'Food and Beverage', 'edit_date': '2025-04-21', 'lat_lon_source': 'Website'}",35.760138527648806,139.628484249115,リヴィン光が丘店,"{'Mon': '00:00-24:00', 'Tue': '00:00-24:00', 'Wed': '00:00-24:00', 'Thu': '00:00-24:00', 'Fri': '00:00-24:00', 'Sat': '00:00-24:00', 'Sun': '00:00-24:00'}",03-3976-8111,〒179-0072,35.760138527648806-139.628484249115,関東,https://www.seiyu.co.jp/shop/%e3%83%aa%e3%83%b4%e3%82%a3%e3%83%b3%e5%85%89%e3%81%8c%e4%b8%98%e5%ba%97/
〒187-0032　東京都小平市小川町1丁目396番地の1,Seiyu,茨城県,Japan,"{'brand': 'Seiyu', 'fascia': 'Seiyu', 'category': 'Food and Beverage', 'edit_date': '2025-04-21', 'lat_lon_source': 'Website'}",35.732079392042316,139.43564075169832,西友東大和店,"{'Mon': '07:00-22:45', 'Tue': '07:00-22:45', 'Wed': '07:00-22:45', 'Thu': '07:00-22:45', 'Fri': '07:00-22:45', 'Sat': '07:00-22:45', 'Sun': '07:00-22:45'}",042-349-3738,〒187-0032,35.732079392042316-139.43564075169832,関東,https://www.seiyu.co.jp/shop/%e8%a5%bf%e5%8f%8b%e6%9d%b1%e5%a4%a7%e5%92%8c%e5%ba%97/
〒171-0052　東京都豊島区南長崎5-33-7,Seiyu,茨城県,Japan,"{'brand': 'Seiyu', 'fascia': 'Seiyu', 'category': 'Food and Beverage', 'edit_date': '2025-04-21', 'lat_lon_source': 'Website'}",35.72961331881083,139.68351781368256,西友東長崎店,"{'Mon': '00:00-24:00', 'Tue': '00:00-24:00', 'Wed': '00:00-24:00', 'Thu': '00:00-24:00', 'Fri': '00:00-24:00', 'Sat': '00:00-24:00', 'Sun': '00:00-24:00'}",03-5988-9577,〒171-0052,35.72961331881083-139.68351781368256,関東,https://www.seiyu.co.jp/shop/%e8%a5%bf%e5%8f%8b%e6%9d%b1%e9%95%b7%e5%b4%8e%e5%ba%97/
〒205-0011　東京都羽村市五ノ神1-8-14,Seiyu,茨城県,Japan,"{'brand': 'Seiyu', 'fascia': 'Seiyu', 'category': 'Food and Beverage', 'edit_date': '2025-04-21', 'lat_lon_source': 'Website'}",35.75796196415614,139.31693494319916,西友羽村店,"{'Mon': '00:00-24:00', 'Tue': '00:00-24:00', 'Wed': '00:00-24:00', 'Thu': '00:00-24:00', 'Fri': '00:00-24:00', 'Sat': '00:00-24:00', 'Sun': '00:00-24:00'}", 042-555-4141,〒205-0011,35.75796196415614-139.31693494319916,関東,https://www.seiyu.co.jp/shop/%e8%a5%bf%e5%8f%8b%e7%be%bd%e6%9d%91%e5%ba%97/
〒203-0001　東京都東久留米市上の原1-4-17,Seiyu,茨城県,Japan,"{'brand': 'Seiyu', 'fascia': 'Seiyu', 'category': 'Food and Beverage', 'edit_date': '2025-04-21', 'lat_lon_source': 'Website'}",35.77117714075294,139.54326510429382,西友東久留米店,"{'Mon': '00:00-24:00', 'Tue': '00:00-24:00', 'Wed': '00:00-24:00', 'Thu': '00:00-24:00', 'Fri': '00:00-24:00', 'Sat': '00:00-24:00', 'Sun': '00:00-24:00'}",042-470-3141,〒203-0001,35.77117714075294-139.54326510429382,関東,https://www.seiyu.co.jp/shop/%e8%a5%bf%e5%8f%8b%e6%9d%b1%e4%b9%85%e7%95%99%e7%b1%b3%e5%ba%97/
〒168-0065　東京都杉並区浜田山3-29-6,Seiyu,茨城県,Japan,"{'brand': 'Seiyu', 'fascia': 'Seiyu', 'category': 'Food and Beverage', 'edit_date': '2025-04-21', 'lat_lon_source': 'Website'}",35.68282,139.6274726,西友浜田山店,"{'Mon': '00:00-24:00', 'Tue': '00:00-24:00', 'Wed': '00:00-24:00', 'Thu': '00:00-24:00', 'Fri': '00:00-24:00', 'Sat': '00:00-24:00', 'Sun': '00:00-24:00'}",03-3304-4491,〒168-0065,35.68282-139.6274726,関東,https://www.seiyu.co.jp/shop/%e8%a5%bf%e5%8f%8b%e6%b5%9c%e7%94%b0%e5%b1%b1%e5%ba%97/
〒187-0002　東京都小平市花小金井1-2-23,Seiyu,茨城県,Japan,"{'brand': 'Seiyu', 'fascia': 'Seiyu', 'category': 'Food and Beverage', 'edit_date': '2025-04-21', 'lat_lon_source': 'Website'}",35.72784963079705,139.51172769069672,西友花小金井店,"{'Mon': '00:00-24:00', 'Tue': '00:00-24:00', 'Wed': '00:00-24:00', 'Thu': '00:00-24:00', 'Fri': '00:00-24:00', 'Sat': '00:00-24:00', 'Sun': '00:00-24:00'}",042-462-2121,〒187-0002,35.72784963079705-139.51172769069672,関東,https://www.seiyu.co.jp/shop/%e8%a5%bf%e5%8f%8b%e8%8a%b1%e5%b0%8f%e9%87%91%e4%ba%95%e5%ba%97/
〒174-0043　東京都板橋区坂下2-23-1,Seiyu,茨城県,Japan,"{'brand': 'Seiyu', 'fascia': 'Seiyu', 'category': 'Food and Beverage', 'edit_date': '2025-04-21', 'lat_lon_source': 'Website'}",35.78361712998282,139.68485684418033,西友蓮根坂下店,"{'Mon': '00:00-24:00', 'Tue': '00:00-24:00', 'Wed': '00:00-24:00', 'Thu': '00:00-24:00', 'Fri': '00:00-24:00', 'Sat': '00:00-24:00', 'Sun': '00:00-24:00'}",03-5916-0155,〒174-0043,35.78361712998282-139.68485684418033,関東,https://www.seiyu.co.jp/shop/%e8%a5%bf%e5%8f%8b%e8%93%ae%e6%a0%b9%e5%9d%82%e4%b8%8b%e5%ba%97/
〒176-0001　東京都練馬区練馬1-3-10,Seiyu,茨城県,Japan,"{'brand': 'Seiyu', 'fascia': 'Seiyu', 'category': 'Food and Beverage', 'edit_date': '2025-04-21', 'lat_lon_source': 'Website'}",35.737778032161394,139.65386867523193,西友練馬店,"{'Mon': '00:00-24:00', 'Tue': '00:00-24:00', 'Wed': '00:00-24:00', 'Thu': '00:00-24:00', 'Fri': '00:00-24:00', 'Sat': '00:00-24:00', 'Sun': '00:00-24:00'}",03-3991-3091,〒176-0001,35.737778032161394-139.65386867523193,関東,https://www.seiyu.co.jp/shop/%e8%a5%bf%e5%8f%8b%e7%b7%b4%e9%a6%ac%e5%ba%97/
〒190-0021　東京都立川市羽衣町2-40-1,Seiyu,茨城県,Japan,"{'brand': 'Seiyu', 'fascia': 'Seiyu', 'category': 'Food and Beverage', 'edit_date': '2025-04-21', 'lat_lon_source': 'Website'}",35.69355447099514,139.4254705309868,西友西国立店,"{'Mon': '00:00-24:00', 'Tue': '00:00-24:00', 'Wed': '00:00-24:00', 'Thu': '00:00-24:00', 'Fri': '00:00-24:00', 'Sat': '00:00-24:00', 'Sun': '00:00-24:00'}",042-524-5101,〒190-0021,35.69355447099514-139.4254705309868,関東,https://www.seiyu.co.jp/shop/%e8%a5%bf%e5%8f%8b%e8%a5%bf%e5%9b%bd%e7%ab%8b%e5%ba%97/
〒167-0053　東京都杉並区西荻南3-25-27,Seiyu,茨城県,Japan,"{'brand': 'Seiyu', 'fascia': 'Seiyu', 'category': 'Food and Beverage', 'edit_date': '2025-04-21', 'lat_lon_source': 'Website'}",35.70385524088831,139.59960758686066,西友西荻窪店,"{'Mon': '00:00-24:00', 'Tue': '00:00-24:00', 'Wed': '00:00-24:00', 'Thu': '00:00-24:00', 'Fri': '00:00-24:00', 'Sat': '00:00-24:00', 'Sun': '00:00-24:00'}",03-3394-6211,〒167-0053,35.70385524088831-139.59960758686066,関東,https://www.seiyu.co.jp/shop/%e8%a5%bf%e5%8f%8b%e8%a5%bf%e8%8d%bb%e7%aa%aa%e5%ba%97/
〒206-0025　東京都多摩市永山1-4　グリナード永山内,Seiyu,茨城県,Japan,"{'brand': 'Seiyu', 'fascia': 'Seiyu', 'category': 'Food and Beverage', 'edit_date': '2025-04-21', 'lat_lon_source': 'Website'}",35.629256250286076,139.44842219352722,西友永山店,"{'Mon': '00:00-24:00', 'Tue': '00:00-24:00', 'Wed': '00:00-24:00', 'Thu': '00:00-24:00', 'Fri': '00:00-24:00', 'Sat': '00:00-24:00', 'Sun': '00:00-24:00'}",042-371-1221,〒206-0025,35.629256250286076-139.44842219352722,関東,https://www.seiyu.co.jp/shop/%e8%a5%bf%e5%8f%8b%e6%b0%b8%e5%b1%b1%e5%ba%97/
〒175-0094　東京都板橋区成増3-11-3,Seiyu,茨城県,Japan,"{'brand': 'Seiyu', 'fascia': 'Seiyu', 'category': 'Food and Beverage', 'edit_date': '2025-04-21', 'lat_lon_source': 'Website'}",35.77824740319721,139.6333122253418,西友成増店,"{'Mon': '00:00-24:00', 'Tue': '00:00-24:00', 'Wed': '00:00-24:00', 'Thu': '00:00-24:00', 'Fri': '00:00-24:00', 'Sat': '00:00-24:00', 'Sun': '00:00-24:00'}", 03-5998-6111,〒175-0094,35.77824740319721-139.6333122253418,関東,https://www.seiyu.co.jp/shop/%e8%a5%bf%e5%8f%8b%e6%88%90%e5%a2%97%e5%ba%97/
,Seiyu,茨城県,Japan,"{'brand': 'Seiyu', 'fascia': 'Seiyu', 'category': 'Food and Beverage', 'edit_date': '2025-04-21', 'lat_lon_source': 'Website'}",35.7368723345738,139.6383172273636,西友中村橋店,"{'Mon': '00:00-24:00', 'Tue': '00:00-24:00', 'Wed': '00:00-24:00', 'Thu': '00:00-24:00', 'Fri': '00:00-24:00', 'Sat': '00:00-24:00', 'Sun': '00:00-24:00'}",,,35.7368723345738-139.6383172273636,関東,https://www.seiyu.co.jp/shop/%e8%a5%bf%e5%8f%8b%e4%b8%ad%e6%9d%91%e6%a9%8b%e5%ba%97/
,Seiyu,茨城県,Japan,"{'brand': 'Seiyu', 'fascia': 'Seiyu', 'category': 'Food and Beverage', 'edit_date': '2025-04-21', 'lat_lon_source': 'Website'}",35.70925232168584,139.66564893722534,西友中野店,"{'Mon': '00:00-24:00', 'Tue': '00:00-24:00', 'Wed': '00:00-24:00', 'Thu': '00:00-24:00', 'Fri': '00:00-24:00', 'Sat': '00:00-24:00', 'Sun': '00:00-24:00'}",,,35.70925232168584-139.66564893722534,関東,https://www.seiyu.co.jp/shop/%e8%a5%bf%e5%8f%8b%e4%b8%ad%e9%87%8e%e5%ba%97/
〒183-0034　東京都府中市住吉町4-11-13,Seiyu,茨城県,Japan,"{'brand': 'Seiyu', 'fascia': 'Seiyu', 'category': 'Food and Beverage', 'edit_date': '2025-04-21', 'lat_lon_source': 'Website'}",35.6598156,139.4568636,西友中河原店,"{'Mon': '00:00-24:00', 'Tue': '00:00-24:00', 'Wed': '00:00-24:00', 'Thu': '00:00-24:00', 'Fri': '00:00-24:00', 'Sat': '00:00-24:00', 'Sun': '00:00-24:00'}",042-362-5811,〒183-0034,35.6598156-139.4568636,関東,https://www.seiyu.co.jp/shop/%e8%a5%bf%e5%8f%8b%e4%b8%ad%e6%b2%b3%e5%8e%9f%e5%ba%97/
〒176-0014　東京都練馬区豊玉南2丁目24-5,Seiyu,茨城県,Japan,"{'brand': 'Seiyu', 'fascia': 'Seiyu', 'category': 'Food and Beverage', 'edit_date': '2025-04-21', 'lat_lon_source': 'Website'}",35.7274381,139.65461870000001,西友豊玉南店,"{'Mon': '00:00-24:00', 'Tue': '00:00-24:00', 'Wed': '00:00-24:00', 'Thu': '00:00-24:00', 'Fri': '00:00-24:00', 'Sat': '00:00-24:00', 'Sun': '00:00-24:00'}",03-5912-1271,〒176-0014,35.7274381-139.65461870000001,関東,https://www.seiyu.co.jp/shop/%e8%a5%bf%e5%8f%8b%e8%b1%8a%e7%8e%89%e5%8d%97%e5%ba%97/
〒135-0016　東京都江東区東陽4-12-30,Seiyu,茨城県,Japan,"{'brand': 'Seiyu', 'fascia': 'Seiyu', 'category': 'Food and Beverage', 'edit_date': '2025-04-21', 'lat_lon_source': 'Website'}",35.672602491161356,139.81920808553696,西友東陽町店,"{'Mon': '00:00-24:00', 'Tue': '00:00-24:00', 'Wed': '00:00-24:00', 'Thu': '00:00-24:00', 'Fri': '00:00-24:00', 'Sat': '00:00-24:00', 'Sun': '00:00-24:00'}",03-3615-1191,〒135-0016,35.672602491161356-139.81920808553696,関東,https://www.seiyu.co.jp/shop/%e8%a5%bf%e5%8f%8b%e6%9d%b1%e9%99%bd%e7%94%ba%e5%ba%97/
〒182-0026　東京都調布市小島町1-10-1,Seiyu,茨城県,Japan,"{'brand': 'Seiyu', 'fascia': 'Seiyu', 'category': 'Food and Beverage', 'edit_date': '2025-04-21', 'lat_lon_source': 'Website'}",35.653621790069465,139.54395174980164,西友調布店,"{'Mon': '00:00-24:00', 'Tue': '00:00-24:00', 'Wed': '00:00-24:00', 'Thu': '00:00-24:00', 'Fri': '00:00-24:00', 'Sat': '00:00-24:00', 'Sun': '00:00-24:00'}",042-485-4111,〒182-0026,35.653621790069465-139.54395174980164,関東,https://www.seiyu.co.jp/shop/%e8%a5%bf%e5%8f%8b%e8%aa%bf%e5%b8%83%e5%ba%97/
〒182-0004　東京都調布市入間町1-29-11,Seiyu,茨城県,Japan,"{'brand': 'Seiyu', 'fascia': 'Seiyu', 'category': 'Food and Beverage', 'edit_date': '2025-04-21', 'lat_lon_source': 'Website'}",35.6524034715923,139.59159582853317,西友調布入間町店,"{'Mon': '00:00-24:00', 'Tue': '00:00-24:00', 'Wed': '00:00-24:00', 'Thu': '00:00-24:00', 'Fri': '00:00-24:00', 'Sat': '00:00-24:00', 'Sun': '00:00-24:00'}",03-3300-1511,〒182-0004,35.6524034715923-139.59159582853317,関東,https://www.seiyu.co.jp/shop/%e8%a5%bf%e5%8f%8b%e8%aa%bf%e5%b8%83%e5%85%a5%e9%96%93%e7%94%ba%e5%ba%97/
〒157-0062　東京都世田谷区南烏山6丁目4-22,Seiyu,茨城県,Japan,"{'brand': 'Seiyu', 'fascia': 'Seiyu', 'category': 'Food and Beverage', 'edit_date': '2025-04-21', 'lat_lon_source': 'Website'}",35.66917529584921,139.59988287184126,西友千歳烏山店,"{'Mon': '00:00-24:00', 'Tue': '00:00-24:00', 'Wed': '00:00-24:00', 'Thu': '00:00-24:00', 'Fri': '00:00-24:00', 'Sat': '00:00-24:00', 'Sun': '00:00-24:00'}",03-5384-7051,〒157-0062,35.66917529584921-139.59988287184126,関東,https://www.seiyu.co.jp/shop/%e8%a5%bf%e5%8f%8b%e5%8d%83%e6%ad%b3%e7%83%8f%e5%b1%b1%e5%ba%97/
〒121-0822　東京都足立区西竹の塚1-11-2,Seiyu,茨城県,Japan,"{'brand': 'Seiyu', 'fascia': 'Seiyu', 'category': 'Food and Beverage', 'edit_date': '2025-04-21', 'lat_lon_source': 'Website'}",35.793278053957266,139.7897493839264,西友竹の塚店,"{'Mon': '00:00-24:00', 'Tue': '00:00-24:00', 'Wed': '00:00-24:00', 'Thu': '00:00-24:00', 'Fri': '00:00-24:00', 'Sat': '00:00-24:00', 'Sun': '00:00-24:00'}",03-5838-2333,〒121-0822,35.793278053957266-139.7897493839264,関東,https://www.seiyu.co.jp/shop/%e8%a5%bf%e5%8f%8b%e7%ab%b9%e3%81%ae%e5%a1%9a%e5%ba%97/
〒188-0011　東京都西東京市田無町2-1-1,Seiyu,茨城県,Japan,"{'brand': 'Seiyu', 'fascia': 'Seiyu', 'category': 'Food and Beverage', 'edit_date': '2025-04-21', 'lat_lon_source': 'Website'}",35.72826769370944,139.54047560691833,リヴィン田無店,"{'Mon': '00:00-24:00', 'Tue': '00:00-24:00', 'Wed': '00:00-24:00', 'Thu': '00:00-24:00', 'Fri': '00:00-24:00', 'Sat': '00:00-24:00', 'Sun': '00:00-24:00'}",042-466-1511,〒188-0011,35.72826769370944-139.54047560691833,関東,https://www.seiyu.co.jp/shop/%e3%83%aa%e3%83%b4%e3%82%a3%e3%83%b3%e7%94%b0%e7%84%a1%e5%ba%97/
,Seiyu,茨城県,Japan,"{'brand': 'Seiyu', 'fascia': 'Seiyu', 'category': 'Food and Beverage', 'edit_date': '2025-04-21', 'lat_lon_source': 'Website'}",35.74805091051119,139.51235487329404,西友滝山店,"{'Mon': '00:00-24:00', 'Tue': '00:00-24:00', 'Wed': '00:00-24:00', 'Thu': '00:00-24:00', 'Fri': '00:00-24:00', 'Sat': '00:00-24:00', 'Sun': '00:00-24:00'}",,,35.74805091051119-139.51235487329404,関東,https://www.seiyu.co.jp/shop/%e8%a5%bf%e5%8f%8b%e6%bb%9d%e5%b1%b1%e5%ba%97/
〒177-0033　東京都練馬区高野台1-20-1,Seiyu,茨城県,Japan,"{'brand': 'Seiyu', 'fascia': 'Seiyu', 'category': 'Food and Beverage', 'edit_date': '2025-04-21', 'lat_lon_source': 'Website'}",35.74435056247289,139.61948543787003,西友高野台店,"{'Mon': '00:00-24:00', 'Tue': '00:00-24:00', 'Wed': '00:00-24:00', 'Thu': '00:00-24:00', 'Fri': '00:00-24:00', 'Sat': '00:00-24:00', 'Sun': '00:00-24:00'}",03-5393-7481,〒177-0033,35.74435056247289-139.61948543787003,関東,https://www.seiyu.co.jp/shop/%e8%a5%bf%e5%8f%8b%e9%ab%98%e9%87%8e%e5%8f%b0%e5%ba%97/
〒169-0075　東京都新宿区高田馬場3丁目3番8号,Seiyu,茨城県,Japan,"{'brand': 'Seiyu', 'fascia': 'Seiyu', 'category': 'Food and Beverage', 'edit_date': '2025-04-21', 'lat_lon_source': 'Website'}",35.71376397918094,139.70168759999999,西友高田馬場店,"{'Mon': '00:00-24:00', 'Tue': '00:00-24:00', 'Wed': '00:00-24:00', 'Thu': '00:00-24:00', 'Fri': '00:00-24:00', 'Sat': '00:00-24:00', 'Sun': '00:00-24:00'}",03-3227-7001,〒169-0075,35.71376397918094-139.70168759999999,関東,https://www.seiyu.co.jp/shop/%e8%a5%bf%e5%8f%8b%e9%ab%98%e7%94%b0%e9%a6%ac%e5%a0%b4%e5%ba%97/
〒168-0072　東京都杉並区高井戸東4-11-26,Seiyu,茨城県,Japan,"{'brand': 'Seiyu', 'fascia': 'Seiyu', 'category': 'Food and Beverage', 'edit_date': '2025-04-21', 'lat_lon_source': 'Website'}",35.69202525195396,139.61715191602707,西友高井戸東店,"{'Mon': '00:00-24:00', 'Tue': '00:00-24:00', 'Wed': '00:00-24:00', 'Thu': '00:00-24:00', 'Fri': '00:00-24:00', 'Sat': '00:00-24:00', 'Sun': '00:00-24:00'}",03-3247-2441,〒168-0072,35.69202525195396-139.61715191602707,関東,https://www.seiyu.co.jp/shop/%e8%a5%bf%e5%8f%8b%e9%ab%98%e4%ba%95%e6%88%b8%e6%9d%b1%e5%ba%97/
〒182-0002　東京都調布市仙川町1-11-18,Seiyu,茨城県,Japan,"{'brand': 'Seiyu', 'fascia': 'Seiyu', 'category': 'Food and Beverage', 'edit_date': '2025-04-21', 'lat_lon_source': 'Website'}",35.66174198551785,139.5844316482544,西友仙川店,"{'Mon': '00:00-24:00', 'Tue': '00:00-24:00', 'Wed': '00:00-24:00', 'Thu': '00:00-24:00', 'Fri': '00:00-24:00', 'Sat': '00:00-24:00', 'Sun': '00:00-24:00'}",03-3309-0111,〒182-0002,35.66174198551785-139.5844316482544,関東,https://www.seiyu.co.jp/shop/%e8%a5%bf%e5%8f%8b%e4%bb%99%e5%b7%9d%e5%ba%97/
〒177-0053　東京都練馬区関町南4-20-19,Seiyu,茨城県,Japan,"{'brand': 'Seiyu', 'fascia': 'Seiyu', 'category': 'Food and Beverage', 'edit_date': '2025-04-21', 'lat_lon_source': 'Website'}",35.72278262094844,139.57002818584442,西友関町店,"{'Mon': '00:00-24:00', 'Tue': '00:00-24:00', 'Wed': '00:00-24:00', 'Thu': '00:00-24:00', 'Fri': '00:00-24:00', 'Sat': '00:00-24:00', 'Sun': '00:00-24:00'}",03-3929-5131,〒177-0053,35.72278262094844-139.57002818584442,関東,https://www.seiyu.co.jp/shop/%e8%a5%bf%e5%8f%8b%e9%96%a2%e7%94%ba%e5%ba%97/
〒170-0002　東京都豊島区巣鴨2-6-1,Seiyu,茨城県,Japan,"{'brand': 'Seiyu', 'fascia': 'Seiyu', 'category': 'Food and Beverage', 'edit_date': '2025-04-21', 'lat_lon_source': 'Website'}",35.73418130692895,139.74002122879028,西友巣鴨店,"{'Mon': '00:00-24:00', 'Tue': '00:00-24:00', 'Wed': '00:00-24:00', 'Thu': '00:00-24:00', 'Fri': '00:00-24:00', 'Sat': '00:00-24:00', 'Sun': '00:00-24:00'}",03-3917-7121,〒170-0002,35.73418130692895-139.74002122879028,関東,https://www.seiyu.co.jp/shop/%e8%a5%bf%e5%8f%8b%e5%b7%a3%e9%b4%a8%e5%ba%97/
〒124-0024　東京都葛飾区新小岩1-29-1,Seiyu,茨城県,Japan,"{'brand': 'Seiyu', 'fascia': 'Seiyu', 'category': 'Food and Beverage', 'edit_date': '2025-04-21', 'lat_lon_source': 'Website'}",35.71610813464377,139.85744297504425,西友新小岩店,"{'Mon': '00:00-24:00', 'Tue': '00:00-24:00', 'Wed': '00:00-24:00', 'Thu': '00:00-24:00', 'Fri': '00:00-24:00', 'Sat': '00:00-24:00', 'Sun': '00:00-24:00'}",03-3655-2230,〒124-0024,35.71610813464377-139.85744297504425,関東,https://www.seiyu.co.jp/shop/%e8%a5%bf%e5%8f%8b%e6%96%b0%e5%b0%8f%e5%b2%a9%e5%ba%97/
 東急多摩川線 下丸子駅すぐ,Seiyu,茨城県,Japan,"{'brand': 'Seiyu', 'fascia': 'Seiyu', 'category': 'Food and Beverage', 'edit_date': '2025-04-21', 'lat_lon_source': 'Website'}",35.571261785561944,139.68519151210785,西友下丸子店,"{'Mon': '00:00-24:00', 'Tue': '00:00-24:00', 'Wed': '00:00-24:00', 'Thu': '00:00-24:00', 'Fri': '00:00-24:00', 'Sat': '00:00-24:00', 'Sun': '00:00-24:00'}",,東急多摩川線,35.571261785561944-139.68519151210785,関東,https://www.seiyu.co.jp/shop/%e8%a5%bf%e5%8f%8b%e4%b8%8b%e4%b8%b8%e5%ad%90%e5%ba%97/
〒156-0043　東京都世田谷区松原3-41-5,Seiyu,茨城県,Japan,"{'brand': 'Seiyu', 'fascia': 'Seiyu', 'category': 'Food and Beverage', 'edit_date': '2025-04-21', 'lat_lon_source': 'Website'}",35.666900038289604,139.64183628559113,西友下高井戸店,"{'Mon': '00:00-24:00', 'Tue': '00:00-24:00', 'Wed': '00:00-24:00', 'Thu': '00:00-24:00', 'Fri': '00:00-24:00', 'Sat': '00:00-24:00', 'Sun': '00:00-24:00'}",03-3322-2111,〒156-0043,35.666900038289604-139.64183628559113,関東,https://www.seiyu.co.jp/shop/%e8%a5%bf%e5%8f%8b%e4%b8%8b%e9%ab%98%e4%ba%95%e6%88%b8%e5%ba%97/
〒167-0022　東京都杉並区下井草2-41-8,Seiyu,茨城県,Japan,"{'brand': 'Seiyu', 'fascia': 'Seiyu', 'category': 'Food and Beverage', 'edit_date': '2025-04-21', 'lat_lon_source': 'Website'}",35.72338144638327,139.62580740451813,西友下井草店,"{'Mon': '00:00-24:00', 'Tue': '00:00-24:00', 'Wed': '00:00-24:00', 'Thu': '00:00-24:00', 'Fri': '00:00-24:00', 'Sat': '00:00-24:00', 'Sun': '00:00-24:00'}",03-3396-0521,〒167-0022,35.72338144638327-139.62580740451813,関東,https://www.seiyu.co.jp/shop/%e8%a5%bf%e5%8f%8b%e4%b8%8b%e4%ba%95%e8%8d%89%e5%ba%97/
〒170-0013　東京都豊島区東池袋4-27-10,Seiyu,茨城県,Japan,"{'brand': 'Seiyu', 'fascia': 'Seiyu', 'category': 'Food and Beverage', 'edit_date': '2025-04-21', 'lat_lon_source': 'Website'}",35.72805648511648,139.71917778253555,サンシャイン西友,"{'Mon': '00:00-24:00', 'Tue': '00:00-24:00', 'Wed': '00:00-24:00', 'Thu': '00:00-24:00', 'Fri': '00:00-24:00', 'Sat': '00:00-24:00', 'Sun': '00:00-24:00'}",03-3989-4300,〒170-0013,35.72805648511648-139.71917778253555,関東,https://www.seiyu.co.jp/shop/%e3%82%b5%e3%83%b3%e3%82%b7%e3%83%a3%e3%82%a4%e3%83%b3%e8%a5%bf%e5%8f%8b/
〒176-0002　東京都練馬区桜台1-10-1,Seiyu,茨城県,Japan,"{'brand': 'Seiyu', 'fascia': 'Seiyu', 'category': 'Food and Beverage', 'edit_date': '2025-04-21', 'lat_lon_source': 'Website'}",35.7389315,139.6630038,西友桜台店,"{'Mon': '00:00-24:00', 'Tue': '00:00-24:00', 'Wed': '00:00-24:00', 'Thu': '00:00-24:00', 'Fri': '00:00-24:00', 'Sat': '00:00-24:00', 'Sun': '00:00-24:00'}",03-3992-3680,〒176-0002,35.7389315-139.6630038,関東,https://www.seiyu.co.jp/shop/%e8%a5%bf%e5%8f%8b%e6%a1%9c%e5%8f%b0%e5%ba%97/
 東急田園都市線　駒沢大学駅 駒沢公園口から徒歩8分,Seiyu,茨城県,Japan,"{'brand': 'Seiyu', 'fascia': 'Seiyu', 'category': 'Food and Beverage', 'edit_date': '2025-04-21', 'lat_lon_source': 'Website'}",35.630546864183316,139.65578109025955,西友駒沢店,"{'Mon': '00:00-24:00', 'Tue': '00:00-24:00', 'Wed': '00:00-24:00', 'Thu': '00:00-24:00', 'Fri': '00:00-24:00', 'Sat': '00:00-24:00', 'Sun': '00:00-24:00'}",,東急田園都市線,35.630546864183316-139.65578109025955,関東,https://www.seiyu.co.jp/shop/%e8%a5%bf%e5%8f%8b%e9%a7%92%e6%b2%a2%e5%ba%97/
〒154-0004　東京都世田谷区太子堂4-24-8,Seiyu,茨城県,Japan,"{'brand': 'Seiyu', 'fascia': 'Seiyu', 'category': 'Food and Beverage', 'edit_date': '2025-04-21', 'lat_lon_source': 'Website'}",35.6445839,139.6702486,西友三軒茶屋店,"{'Mon': '00:00-24:00', 'Tue': '00:00-24:00', 'Wed': '00:00-24:00', 'Thu': '00:00-24:00', 'Fri': '00:00-24:00', 'Sat': '00:00-24:00', 'Sun': '00:00-24:00'}",03-3413-1111,〒154-0004,35.6445839-139.6702486,関東,https://www.seiyu.co.jp/shop/%e8%a5%bf%e5%8f%8b%e4%b8%89%e8%bb%92%e8%8c%b6%e5%b1%8b%e5%ba%97/
西武新宿線 小平駅南口から徒歩1分,Seiyu,茨城県,Japan,"{'brand': 'Seiyu', 'fascia': 'Seiyu', 'category': 'Food and Beverage', 'edit_date': '2025-04-21', 'lat_lon_source': 'Website'}",35.73646302555349,139.48875188827515,西友小平店,"{'Mon': '00:00-24:00', 'Tue': '00:00-24:00', 'Wed': '00:00-24:00', 'Thu': '00:00-24:00', 'Fri': '00:00-24:00', 'Sat': '00:00-24:00', 'Sun': '00:00-24:00'}",,西武新宿線,35.73646302555349-139.48875188827515,関東,https://www.seiyu.co.jp/shop/%e8%a5%bf%e5%8f%8b%e5%b0%8f%e5%b9%b3%e5%ba%97/
〒182-0022　東京都調布市国領町2-5-15,Seiyu,茨城県,Japan,"{'brand': 'Seiyu', 'fascia': 'Seiyu', 'category': 'Food and Beverage', 'edit_date': '2025-04-21', 'lat_lon_source': 'Website'}",35.65071871793039,139.55816745758057,西友国領店,"{'Mon': '00:00-24:00', 'Tue': '00:00-24:00', 'Wed': '00:00-24:00', 'Thu': '00:00-24:00', 'Fri': '00:00-24:00', 'Sat': '00:00-24:00', 'Sun': '00:00-24:00'}",042-440-2241,〒182-0022,35.65071871793039-139.55816745758057,関東,https://www.seiyu.co.jp/shop/%e8%a5%bf%e5%8f%8b%e5%9b%bd%e9%a0%98%e5%ba%97/
〒185-0012　東京都国分寺市本町2-10-2,Seiyu,茨城県,Japan,"{'brand': 'Seiyu', 'fascia': 'Seiyu', 'category': 'Food and Beverage', 'edit_date': '2025-04-21', 'lat_lon_source': 'Website'}",35.701128247561606,139.48141872882843,西友国分寺店,"{'Mon': '00:00-24:00', 'Tue': '00:00-24:00', 'Wed': '00:00-24:00', 'Thu': '00:00-24:00', 'Fri': '00:00-24:00', 'Sat': '00:00-24:00', 'Sun': '00:00-24:00'}", 042-322-3311,〒185-0012,35.701128247561606-139.48141872882843,関東,https://www.seiyu.co.jp/shop/%e8%a5%bf%e5%8f%8b%e5%9b%bd%e5%88%86%e5%af%ba%e5%ba%97/
JR中央線・総武線 高円寺駅 南口から徒歩4分,Seiyu,茨城県,Japan,"{'brand': 'Seiyu', 'fascia': 'Seiyu', 'category': 'Food and Beverage', 'edit_date': '2025-04-21', 'lat_lon_source': 'Website'}",35.7036375,139.6479062,西友高円寺店,"{'Mon': '00:00-24:00', 'Tue': '00:00-24:00', 'Wed': '00:00-24:00', 'Thu': '00:00-24:00', 'Fri': '00:00-24:00', 'Sat': '00:00-24:00', 'Sun': '00:00-24:00'}",,JR中央線・総武線,35.7036375-139.6479062,関東,https://www.seiyu.co.jp/shop/%e8%a5%bf%e5%8f%8b%e9%ab%98%e5%86%86%e5%af%ba%e5%ba%97/
〒189-0013　東京都東村山市栄町2-3-4,Seiyu,茨城県,Japan,"{'brand': 'Seiyu', 'fascia': 'Seiyu', 'category': 'Food and Beverage', 'edit_date': '2025-04-21', 'lat_lon_source': 'Website'}",35.7495196,139.4725529,西友久米川店,"{'Mon': '00:00-24:00', 'Tue': '00:00-24:00', 'Wed': '00:00-24:00', 'Thu': '00:00-24:00', 'Fri': '00:00-24:00', 'Sat': '00:00-24:00', 'Sun': '00:00-24:00'}",042-394-3311,〒189-0013,35.7495196-139.4725529,関東,https://www.seiyu.co.jp/shop/%e8%a5%bf%e5%8f%8b%e4%b9%85%e7%b1%b3%e5%b7%9d%e5%ba%97/
,Seiyu,茨城県,Japan,"{'brand': 'Seiyu', 'fascia': 'Seiyu', 'category': 'Food and Beverage', 'edit_date': '2025-04-21', 'lat_lon_source': 'Website'}",35.77324,139.5205229,西友清瀬店,"{'Mon': '00:00-24:00', 'Tue': '00:00-24:00', 'Wed': '00:00-24:00', 'Thu': '00:00-24:00', 'Fri': '00:00-24:00', 'Sat': '00:00-24:00', 'Sun': '00:00-24:00'}",,,35.77324-139.5205229,関東,https://www.seiyu.co.jp/shop/%e8%a5%bf%e5%8f%8b%e6%b8%85%e7%80%ac%e5%ba%97/
,Seiyu,茨城県,Japan,"{'brand': 'Seiyu', 'fascia': 'Seiyu', 'category': 'Food and Beverage', 'edit_date': '2025-04-21', 'lat_lon_source': 'Website'}",35.696471233420404,139.815793633461,西友錦糸町店,"{'Mon': '00:00-24:00', 'Tue': '00:00-24:00', 'Wed': '00:00-24:00', 'Thu': '00:00-24:00', 'Fri': '00:00-24:00', 'Sat': '00:00-24:00', 'Sun': '00:00-24:00'}",,,35.696471233420404-139.815793633461,関東,https://www.seiyu.co.jp/shop/%e8%a5%bf%e5%8f%8b%e9%8c%a6%e7%b3%b8%e7%94%ba%e5%ba%97/
,Seiyu,茨城県,Japan,"{'brand': 'Seiyu', 'fascia': 'Seiyu', 'category': 'Food and Beverage', 'edit_date': '2025-04-21', 'lat_lon_source': 'Website'}",35.6978581,139.4457792,西友国立店,"{'Mon': '00:00-24:00', 'Tue': '00:00-24:00', 'Wed': '00:00-24:00', 'Thu': '00:00-24:00', 'Fri': '00:00-24:00', 'Sat': '00:00-24:00', 'Sun': '00:00-24:00'}",,,35.6978581-139.4457792,関東,https://www.seiyu.co.jp/shop/%e8%a5%bf%e5%8f%8b%e5%9b%bd%e7%ab%8b%e5%ba%97/
〒180-0004　東京都武蔵野市吉祥寺本町1-12-10,Seiyu,茨城県,Japan,"{'brand': 'Seiyu', 'fascia': 'Seiyu', 'category': 'Food and Beverage', 'edit_date': '2025-04-21', 'lat_lon_source': 'Website'}",35.705776277631514,139.5812290906906,西友吉祥寺店,"{'Mon': '00:00-24:00', 'Tue': '00:00-24:00', 'Wed': '00:00-24:00', 'Thu': '00:00-24:00', 'Fri': '00:00-24:00', 'Sat': '00:00-24:00', 'Sun': '00:00-24:00'}",0422-21-1311,〒180-0004,35.705776277631514-139.5812290906906,関東,https://www.seiyu.co.jp/shop/%e8%a5%bf%e5%8f%8b%e5%90%89%e7%a5%a5%e5%af%ba%e5%ba%97/
〒120-0003　東京都足立区東和5-12-13,Seiyu,茨城県,Japan,"{'brand': 'Seiyu', 'fascia': 'Seiyu', 'category': 'Food and Beverage', 'edit_date': '2025-04-21', 'lat_lon_source': 'Website'}",35.77573403935152,139.83633399009705,西友北綾瀬店,"{'Mon': '00:00-24:00', 'Tue': '00:00-24:00', 'Wed': '00:00-24:00', 'Thu': '00:00-24:00', 'Fri': '00:00-24:00', 'Sat': '00:00-24:00', 'Sun': '00:00-24:00'}",03-5697-2201,〒120-0003,35.77573403935152-139.83633399009705,関東,https://www.seiyu.co.jp/shop/%e8%a5%bf%e5%8f%8b%e5%8c%97%e7%b6%be%e7%80%ac%e5%ba%97/
西武新宿線 上石神井駅 南口から徒歩1分,Seiyu,茨城県,Japan,"{'brand': 'Seiyu', 'fascia': 'Seiyu', 'category': 'Food and Beverage', 'edit_date': '2025-04-21', 'lat_lon_source': 'Website'}",35.7260339,139.5920494,西友上石神井店,"{'Mon': '00:00-24:00', 'Tue': '00:00-24:00', 'Wed': '00:00-24:00', 'Thu': '00:00-24:00', 'Fri': '00:00-24:00', 'Sat': '00:00-24:00', 'Sun': '00:00-24:00'}",,西武新宿線,35.7260339-139.5920494,関東,https://www.seiyu.co.jp/shop/%e8%a5%bf%e5%8f%8b%e4%b8%8a%e7%9f%b3%e7%a5%9e%e4%ba%95%e5%ba%97/
〒198-0036　東京都青梅市河辺町10-9-1,Seiyu,茨城県,Japan,"{'brand': 'Seiyu', 'fascia': 'Seiyu', 'category': 'Food and Beverage', 'edit_date': '2025-04-21', 'lat_lon_source': 'Website'}",35.7856491,139.2843206,西友河辺店,"{'Mon': '00:00-24:00', 'Tue': '00:00-24:00', 'Wed': '00:00-24:00', 'Thu': '00:00-24:00', 'Fri': '00:00-24:00', 'Sat': '00:00-24:00', 'Sun': '00:00-24:00'}",0428-24-6711,〒198-0036,35.7856491-139.2843206,関東,https://www.seiyu.co.jp/shop/%e8%a5%bf%e5%8f%8b%e6%b2%b3%e8%be%ba%e5%ba%97/
〒125-0051　東京都葛飾区新宿4-14-17,Seiyu,茨城県,Japan,"{'brand': 'Seiyu', 'fascia': 'Seiyu', 'category': 'Food and Beverage', 'edit_date': '2025-04-21', 'lat_lon_source': 'Website'}",35.76320955745405,139.86126244068146,西友葛飾新宿店,"{'Mon': '00:00-24:00', 'Tue': '00:00-24:00', 'Wed': '00:00-24:00', 'Thu': '00:00-24:00', 'Fri': '00:00-24:00', 'Sat': '00:00-24:00', 'Sun': '00:00-24:00'}",03-3608-1141,〒125-0051,35.76320955745405-139.86126244068146,関東,https://www.seiyu.co.jp/shop/%e8%a5%bf%e5%8f%8b%e8%91%9b%e9%a3%be%e6%96%b0%e5%ae%bf%e5%ba%97/
〒123-0861　東京都足立区加賀1-3,Seiyu,茨城県,Japan,"{'brand': 'Seiyu', 'fascia': 'Seiyu', 'category': 'Food and Beverage', 'edit_date': '2025-04-21', 'lat_lon_source': 'Website'}",35.789102916555784,139.76050794124603,西友加賀鹿浜店,"{'Mon': '00:00-24:00', 'Tue': '00:00-24:00', 'Wed': '00:00-24:00', 'Thu': '00:00-24:00', 'Fri': '00:00-24:00', 'Sat': '00:00-24:00', 'Sun': '00:00-24:00'}",03-3853-8711,〒123-0861,35.789102916555784-139.76050794124603,関東,https://www.seiyu.co.jp/shop/%e8%a5%bf%e5%8f%8b%e5%8a%a0%e8%b3%80%e9%b9%bf%e6%b5%9c%e5%ba%97/
〒167-0043　東京都杉並区上荻1-9-1 タウンセブン,Seiyu,茨城県,Japan,"{'brand': 'Seiyu', 'fascia': 'Seiyu', 'category': 'Food and Beverage', 'edit_date': '2025-04-21', 'lat_lon_source': 'Website'}",35.70512722504364,139.61962223052979,西友荻窪店,"{'Mon': '00:00-24:00', 'Tue': '00:00-24:00', 'Wed': '00:00-24:00', 'Thu': '00:00-24:00', 'Fri': '00:00-24:00', 'Sat': '00:00-24:00', 'Sun': '00:00-24:00'}",03-3393-1151,〒167-0043,35.70512722504364-139.61962223052979,関東,https://www.seiyu.co.jp/shop/%e8%a5%bf%e5%8f%8b%e8%8d%bb%e7%aa%aa%e5%ba%97/
〒178-0063　東京都練馬区東大泉2-10-11,Seiyu,茨城県,Japan,"{'brand': 'Seiyu', 'fascia': 'Seiyu', 'category': 'Food and Beverage', 'edit_date': '2025-04-21', 'lat_lon_source': 'Website'}",35.752276499437265,139.59539651870728,リヴィンオズ大泉店,"{'Mon': '00:00-24:00', 'Tue': '00:00-24:00', 'Wed': '00:00-24:00', 'Thu': '00:00-24:00', 'Fri': '00:00-24:00', 'Sat': '00:00-24:00', 'Sun': '00:00-24:00'}",03-3978-4111,〒178-0063,35.752276499437265-139.59539651870728,関東,https://www.seiyu.co.jp/shop/%e3%83%aa%e3%83%b4%e3%82%a3%e3%83%b3%e3%82%aa%e3%82%ba%e5%a4%a7%e6%b3%89%e5%ba%97/
〒140-0013　東京都品川区南大井6-27-25,Seiyu,茨城県,Japan,"{'brand': 'Seiyu', 'fascia': 'Seiyu', 'category': 'Food and Beverage', 'edit_date': '2025-04-21', 'lat_lon_source': 'Website'}",35.58839930138751,139.73041355609894,西友大森店,"{'Mon': '00:00-24:00', 'Tue': '00:00-24:00', 'Wed': '00:00-24:00', 'Thu': '00:00-24:00', 'Fri': '00:00-24:00', 'Sat': '00:00-24:00', 'Sun': '00:00-24:00'}",03-3768-1211,〒140-0013,35.58839930138751-139.73041355609894,関東,https://www.seiyu.co.jp/shop/%e8%a5%bf%e5%8f%8b%e5%a4%a7%e6%a3%ae%e5%ba%97/
〒140-0011　東京都品川区東大井5-18-1,Seiyu,茨城県,Japan,"{'brand': 'Seiyu', 'fascia': 'Seiyu', 'category': 'Food and Beverage', 'edit_date': '2025-04-21', 'lat_lon_source': 'Website'}",35.60613721672314,139.7359013557434,西友大井町店,"{'Mon': '00:00-24:00', 'Tue': '00:00-24:00', 'Wed': '00:00-24:00', 'Thu': '00:00-24:00', 'Fri': '00:00-24:00', 'Sat': '00:00-24:00', 'Sun': '00:00-24:00'}",03-5461-3220,〒140-0011,35.60613721672314-139.7359013557434,関東,https://www.seiyu.co.jp/shop/%e8%a5%bf%e5%8f%8b%e5%a4%a7%e4%ba%95%e7%94%ba%e5%ba%97/
〒132-0021　東京都江戸川区中央1-7-14,Seiyu,茨城県,Japan,"{'brand': 'Seiyu', 'fascia': 'Seiyu', 'category': 'Food and Beverage', 'edit_date': '2025-04-21', 'lat_lon_source': 'Website'}",35.7085733,139.8685127,西友江戸川中央店,"{'Mon': '00:00-24:00', 'Tue': '00:00-24:00', 'Wed': '00:00-24:00', 'Thu': '00:00-24:00', 'Fri': '00:00-24:00', 'Sat': '00:00-24:00', 'Sun': '00:00-24:00'}",03-5661-1670,〒132-0021,35.7085733-139.8685127,関東,https://www.seiyu.co.jp/shop/%e8%a5%bf%e5%8f%8b%e6%b1%9f%e6%88%b8%e5%b7%9d%e4%b8%ad%e5%a4%ae%e5%ba%97/
〒121-0815　東京都足立区島根3-20-18,Seiyu,茨城県,Japan,"{'brand': 'Seiyu', 'fascia': 'Seiyu', 'category': 'Food and Beverage', 'edit_date': '2025-04-21', 'lat_lon_source': 'Website'}",35.7806999,139.7973543,西友足立島根店,"{'Mon': '00:00-24:00', 'Tue': '00:00-24:00', 'Wed': '00:00-24:00', 'Thu': '00:00-24:00', 'Fri': '00:00-24:00', 'Sat': '00:00-24:00', 'Sun': '00:00-24:00'}",03-3859-8671,〒121-0815,35.7806999-139.7973543,関東,https://www.seiyu.co.jp/shop/%e8%a5%bf%e5%8f%8b%e8%b6%b3%e7%ab%8b%e5%b3%b6%e6%a0%b9%e5%ba%97/
〒111-0032　東京都台東区浅草1-25-15 ROXビルB1,Seiyu,茨城県,Japan,"{'brand': 'Seiyu', 'fascia': 'Seiyu', 'category': 'Food and Beverage', 'edit_date': '2025-04-21', 'lat_lon_source': 'Website'}",35.712915507318,139.79283928871155,西友浅草ROX食品館,"{'Mon': '00:00-24:00', 'Tue': '00:00-24:00', 'Wed': '00:00-24:00', 'Thu': '00:00-24:00', 'Fri': '00:00-24:00', 'Sat': '00:00-24:00', 'Sun': '00:00-24:00'}",03-3845-6771,〒111-0032,35.712915507318-139.79283928871155,関東,https://www.seiyu.co.jp/shop/%e8%a5%bf%e5%8f%8b%e6%b5%85%e8%8d%89rox%e9%a3%9f%e5%93%81%e9%a4%a8/
〒186-0013　東京都国立市青柳3-8-3,Seiyu,茨城県,Japan,"{'brand': 'Seiyu', 'fascia': 'Seiyu', 'category': 'Food and Beverage', 'edit_date': '2025-04-21', 'lat_lon_source': 'Website'}",35.68624140198032,139.42151427268982,西友青柳店,"{'Mon': '00:00-24:00', 'Tue': '00:00-24:00', 'Wed': '00:00-24:00', 'Thu': '00:00-24:00', 'Fri': '00:00-24:00', 'Sat': '00:00-24:00', 'Sun': '00:00-24:00'}",042-522-3735,〒186-0013,35.68624140198032-139.42151427268982,関東,https://www.seiyu.co.jp/shop/%e8%a5%bf%e5%8f%8b%e9%9d%92%e6%9f%b3%e5%ba%97/
〒120-0012　東京都足立区青井3-1-1,Seiyu,茨城県,Japan,"{'brand': 'Seiyu', 'fascia': 'Seiyu', 'category': 'Food and Beverage', 'edit_date': '2025-04-21', 'lat_lon_source': 'Website'}",35.77019783046176,139.81713473796844,西友青井店,"{'Mon': '00:00-24:00', 'Tue': '00:00-24:00', 'Wed': '00:00-24:00', 'Thu': '00:00-24:00', 'Fri': '00:00-24:00', 'Sat': '00:00-24:00', 'Sun': '00:00-24:00'}",03-3887-5021,〒120-0012,35.77019783046176-139.81713473796844,関東,https://www.seiyu.co.jp/shop/%e8%a5%bf%e5%8f%8b%e9%9d%92%e4%ba%95%e5%ba%97/
〒166-0001　東京都杉並区阿佐谷北1-5-6,Seiyu,茨城県,Japan,"{'brand': 'Seiyu', 'fascia': 'Seiyu', 'category': 'Food and Beverage', 'edit_date': '2025-04-21', 'lat_lon_source': 'Website'}",35.70558025559484,139.63687419891357,西友阿佐ヶ谷店,"{'Mon': '00:00-24:00', 'Tue': '00:00-24:00', 'Wed': '00:00-24:00', 'Thu': '00:00-24:00', 'Fri': '00:00-24:00', 'Sat': '00:00-24:00', 'Sun': '00:00-24:00'}",03-3337-0111,〒166-0001,35.70558025559484-139.63687419891357,関東,https://www.seiyu.co.jp/shop/%e8%a5%bf%e5%8f%8b%e9%98%bf%e4%bd%90%e3%83%b6%e8%b0%b7%e5%ba%97/
〒211-0045　神奈川県川崎市中原区上新城2-12-1,Seiyu,茨城県,Japan,"{'brand': 'Seiyu', 'fascia': 'Seiyu', 'category': 'Food and Beverage', 'edit_date': '2025-04-21', 'lat_lon_source': 'Website'}",35.58788016880213,139.62950885295868,西友武蔵新城店,"{'Mon': '00:00-24:00', 'Tue': '00:00-24:00', 'Wed': '00:00-24:00', 'Thu': '00:00-24:00', 'Fri': '00:00-24:00', 'Sat': '00:00-24:00', 'Sun': '00:00-24:00'}",044-755-5151,〒211-0045,35.58788016880213-139.62950885295868,関東,https://www.seiyu.co.jp/shop/%e8%a5%bf%e5%8f%8b%e6%ad%a6%e8%94%b5%e6%96%b0%e5%9f%8e%e5%ba%97/
〒239-0801　神奈川県横須賀市馬堀海岸2-27-2,Seiyu,茨城県,Japan,"{'brand': 'Seiyu', 'fascia': 'Seiyu', 'category': 'Food and Beverage', 'edit_date': '2025-04-21', 'lat_lon_source': 'Website'}",35.26043880940376,139.7072821855545,西友馬堀店,"{'Mon': '00:00-24:00', 'Tue': '00:00-24:00', 'Wed': '00:00-24:00', 'Thu': '00:00-24:00', 'Fri': '00:00-24:00', 'Sat': '00:00-24:00', 'Sun': '00:00-24:00'}",046-843-2055,〒239-0801,35.26043880940376-139.7072821855545,関東,https://www.seiyu.co.jp/shop/%e8%a5%bf%e5%8f%8b%e9%a6%ac%e5%a0%80%e5%ba%97/
〒238-0013　神奈川県横須賀市平成町3-21-4,Seiyu,茨城県,Japan,"{'brand': 'Seiyu', 'fascia': 'Seiyu', 'category': 'Food and Beverage', 'edit_date': '2025-04-21', 'lat_lon_source': 'Website'}",35.27491421787892,139.6837592124939,リヴィンよこすか店,"{'Mon': '00:00-24:00', 'Tue': '00:00-24:00', 'Wed': '00:00-24:00', 'Thu': '00:00-24:00', 'Fri': '00:00-24:00', 'Sat': '00:00-24:00', 'Sun': '00:00-24:00'}",046-821-6311,〒238-0013,35.27491421787892-139.6837592124939,関東,https://www.seiyu.co.jp/shop/%e3%83%aa%e3%83%b4%e3%82%a3%e3%83%b3%e3%82%88%e3%81%93%e3%81%99%e3%81%8b%e5%ba%97/
〒241-0821　神奈川県横浜市旭区二俣川2-52-1,Seiyu,茨城県,Japan,"{'brand': 'Seiyu', 'fascia': 'Seiyu', 'category': 'Food and Beverage', 'edit_date': '2025-04-21', 'lat_lon_source': 'Website'}",35.46147391584207,139.5335555076599,西友二俣川店,"{'Mon': '00:00-24:00', 'Tue': '00:00-24:00', 'Wed': '00:00-24:00', 'Thu': '00:00-24:00', 'Fri': '00:00-24:00', 'Sat': '00:00-24:00', 'Sun': '00:00-24:00'}",045-365-1111,〒241-0821,35.46147391584207-139.5335555076599,関東,https://www.seiyu.co.jp/shop/%e8%a5%bf%e5%8f%8b%e4%ba%8c%e4%bf%a3%e5%b7%9d%e5%ba%97/
〒252-0815　神奈川県藤沢市石川2-14-16,Seiyu,茨城県,Japan,"{'brand': 'Seiyu', 'fascia': 'Seiyu', 'category': 'Food and Beverage', 'edit_date': '2025-04-21', 'lat_lon_source': 'Website'}",35.377470876971934,139.4547602534294,西友藤沢石川店,"{'Mon': '00:00-24:00', 'Tue': '00:00-24:00', 'Wed': '00:00-24:00', 'Thu': '00:00-24:00', 'Fri': '00:00-24:00', 'Sat': '00:00-24:00', 'Sun': '00:00-24:00'}",0466-86-0468,〒252-0815,35.377470876971934-139.4547602534294,関東,https://www.seiyu.co.jp/shop/%e8%a5%bf%e5%8f%8b%e8%97%a4%e6%b2%a2%e7%9f%b3%e5%b7%9d%e5%ba%97/
〒236-0017　神奈川県横浜市金沢区西柴1-3-1,Seiyu,茨城県,Japan,"{'brand': 'Seiyu', 'fascia': 'Seiyu', 'category': 'Food and Beverage', 'edit_date': '2025-04-21', 'lat_lon_source': 'Website'}",35.355141176048036,139.62847083806992,西友能見台店,"{'Mon': '00:00-24:00', 'Tue': '00:00-24:00', 'Wed': '00:00-24:00', 'Thu': '00:00-24:00', 'Fri': '00:00-24:00', 'Sat': '00:00-24:00', 'Sun': '00:00-24:00'}",045-701-6361,〒236-0017,35.355141176048036-139.62847083806992,関東,https://www.seiyu.co.jp/shop/%e8%a5%bf%e5%8f%8b%e8%83%bd%e8%a6%8b%e5%8f%b0%e5%ba%97/
〒254-0077　神奈川県平塚市東中原1-1-25,Seiyu,茨城県,Japan,"{'brand': 'Seiyu', 'fascia': 'Seiyu', 'category': 'Food and Beverage', 'edit_date': '2025-04-21', 'lat_lon_source': 'Website'}",35.35148349467546,139.3423891067505,西友平塚店,"{'Mon': '00:00-24:00', 'Tue': '00:00-24:00', 'Wed': '00:00-24:00', 'Thu': '00:00-24:00', 'Fri': '00:00-24:00', 'Sat': '00:00-24:00', 'Sun': '00:00-24:00'}",0463-37-4600,〒254-0077,35.35148349467546-139.3423891067505,関東,https://www.seiyu.co.jp/shop/%e8%a5%bf%e5%8f%8b%e5%b9%b3%e5%a1%9a%e5%ba%97/
〒259-0131　神奈川県中郡二宮町中里2-6-28,Seiyu,茨城県,Japan,"{'brand': 'Seiyu', 'fascia': 'Seiyu', 'category': 'Food and Beverage', 'edit_date': '2025-04-21', 'lat_lon_source': 'Website'}",35.308643,139.2475165,西友二宮店,"{'Mon': '00:00-24:00', 'Tue': '00:00-24:00', 'Wed': '00:00-24:00', 'Thu': '00:00-24:00', 'Fri': '00:00-24:00', 'Sat': '00:00-24:00', 'Sun': '00:00-24:00'}",0463-72-1111,〒259-0131,35.308643-139.2475165,関東,https://www.seiyu.co.jp/shop/%e8%a5%bf%e5%8f%8b%e4%ba%8c%e5%ae%ae%e5%ba%97/
〒230-0062　神奈川県横浜市鶴見区豊岡町2-1,Seiyu,茨城県,Japan,"{'brand': 'Seiyu', 'fascia': 'Seiyu', 'category': 'Food and Beverage', 'edit_date': '2025-04-21', 'lat_lon_source': 'Website'}",35.50853114440486,139.67518955469131,西友鶴見店,"{'Mon': '09:00-23:00', 'Tue': '09:00-23:00', 'Wed': '09:00-23:00', 'Thu': '09:00-23:00', 'Fri': '09:00-23:00', 'Sat': '09:00-23:00', 'Sun': '09:00-23:00'}",045-575-7711,〒230-0062,35.50853114440486-139.67518955469131,関東,https://www.seiyu.co.jp/shop/%e8%a5%bf%e5%8f%8b%e9%b6%b4%e8%a6%8b%e5%ba%97/
 相模鉄道線 鶴ヶ峰駅 北口から徒歩2分,Seiyu,茨城県,Japan,"{'brand': 'Seiyu', 'fascia': 'Seiyu', 'category': 'Food and Beverage', 'edit_date': '2025-04-21', 'lat_lon_source': 'Website'}",35.47537161613438,139.54804480075836,西友鶴ケ峰店,"{'Mon': '00:00-24:00', 'Tue': '00:00-24:00', 'Wed': '00:00-24:00', 'Thu': '00:00-24:00', 'Fri': '00:00-24:00', 'Sat': '00:00-24:00', 'Sun': '00:00-24:00'}",,相模鉄道線,35.47537161613438-139.54804480075836,関東,https://www.seiyu.co.jp/shop/%e8%a5%bf%e5%8f%8b%e9%b6%b4%e3%82%b1%e5%b3%b0%e5%ba%97/
〒251-0046　神奈川県藤沢市辻堂西海岸3-1-48,Seiyu,茨城県,Japan,"{'brand': 'Seiyu', 'fascia': 'Seiyu', 'category': 'Food and Beverage', 'edit_date': '2025-04-21', 'lat_lon_source': 'Website'}",35.32082640290613,139.45327699184418,西友辻堂店,"{'Mon': '00:00-24:00', 'Tue': '00:00-24:00', 'Wed': '00:00-24:00', 'Thu': '00:00-24:00', 'Fri': '00:00-24:00', 'Sat': '00:00-24:00', 'Sun': '00:00-24:00'}",0466-36-2578,〒251-0046,35.32082640290613-139.45327699184418,関東,https://www.seiyu.co.jp/shop/%e8%a5%bf%e5%8f%8b%e8%be%bb%e5%a0%82%e5%ba%97/
〒237-0066　神奈川県横須賀市湘南鷹取4-5-1,Seiyu,茨城県,Japan,"{'brand': 'Seiyu', 'fascia': 'Seiyu', 'category': 'Food and Beverage', 'edit_date': '2025-04-21', 'lat_lon_source': 'Website'}",35.308457216692204,139.61617827415466,西友鷹取店,"{'Mon': '00:00-24:00', 'Tue': '00:00-24:00', 'Wed': '00:00-24:00', 'Thu': '00:00-24:00', 'Fri': '00:00-24:00', 'Sat': '00:00-24:00', 'Sun': '00:00-24:00'}",046-865-2970,〒237-0066,35.308457216692204-139.61617827415466,関東,https://www.seiyu.co.jp/shop/%e8%a5%bf%e5%8f%8b%e9%b7%b9%e5%8f%96%e5%ba%97/
〒249-0001　神奈川県逗子市久木8-13-12,Seiyu,茨城県,Japan,"{'brand': 'Seiyu', 'fascia': 'Seiyu', 'category': 'Food and Beverage', 'edit_date': '2025-04-21', 'lat_lon_source': 'Website'}",35.31028595746871,139.5746013522148,西友逗子ハイランド店,"{'Mon': '00:00-24:00', 'Tue': '00:00-24:00', 'Wed': '00:00-24:00', 'Thu': '00:00-24:00', 'Fri': '00:00-24:00', 'Sat': '00:00-24:00', 'Sun': '00:00-24:00'}",046-873-6903,〒249-0001,35.31028595746871-139.5746013522148,関東,https://www.seiyu.co.jp/shop/%e8%a5%bf%e5%8f%8b%e9%80%97%e5%ad%90%e3%83%8f%e3%82%a4%e3%83%a9%e3%83%b3%e3%83%89%e5%ba%97/
〒215-0014　神奈川県川崎市麻生区白山4-1-3,Seiyu,茨城県,Japan,"{'brand': 'Seiyu', 'fascia': 'Seiyu', 'category': 'Food and Beverage', 'edit_date': '2025-04-21', 'lat_lon_source': 'Website'}",35.59120430410004,139.51029539108276,西友新ゆりグリーンタウン店,"{'Mon': '00:00-24:00', 'Tue': '00:00-24:00', 'Wed': '00:00-24:00', 'Thu': '00:00-24:00', 'Fri': '00:00-24:00', 'Sat': '00:00-24:00', 'Sun': '00:00-24:00'}",044-981-1134,〒215-0014,35.59120430410004-139.51029539108276,関東,https://www.seiyu.co.jp/shop/%e8%a5%bf%e5%8f%8b%e6%96%b0%e3%82%86%e3%82%8a%e3%82%b0%e3%83%aa%e3%83%bc%e3%83%b3%e3%82%bf%e3%82%a6%e3%83%b3%e5%ba%97/
〒248-0025　神奈川県鎌倉市七里ガ浜東4-1-3,Seiyu,茨城県,Japan,"{'brand': 'Seiyu', 'fascia': 'Seiyu', 'category': 'Food and Beverage', 'edit_date': '2025-04-21', 'lat_lon_source': 'Website'}",35.30993137541438,139.51663613319397,西友七里ヶ浜店,"{'Mon': '00:00-22:00', 'Tue': '00:00-22:00', 'Wed': '00:00-22:00', 'Thu': '00:00-22:00', 'Fri': '00:00-22:00', 'Sat': '00:00-22:00', 'Sun': '00:00-22:00'}",0467-32-0200,〒248-0025,35.30993137541438-139.51663613319397,関東,https://www.seiyu.co.jp/shop/%e8%a5%bf%e5%8f%8b%e4%b8%83%e9%87%8c%e3%83%b6%e6%b5%9c%e5%ba%97/
〒238-0031　神奈川県横須賀市衣笠栄町1-70,Seiyu,茨城県,Japan,"{'brand': 'Seiyu', 'fascia': 'Seiyu', 'category': 'Food and Beverage', 'edit_date': '2025-04-21', 'lat_lon_source': 'Website'}",35.25715137070607,139.66252952814102,西友衣笠店,"{'Mon': '00:00-24:00', 'Tue': '00:00-24:00', 'Wed': '00:00-24:00', 'Thu': '00:00-24:00', 'Fri': '00:00-24:00', 'Sat': '00:00-24:00', 'Sun': '00:00-24:00'}",046-851-5980,〒238-0031,35.25715137070607-139.66252952814102,関東,https://www.seiyu.co.jp/shop/%e8%a5%bf%e5%8f%8b%e8%a1%a3%e7%ac%a0%e5%ba%97/
〒212-0022　神奈川県川崎市幸区神明町2-89,Seiyu,茨城県,Japan,"{'brand': 'Seiyu', 'fascia': 'Seiyu', 'category': 'Food and Beverage', 'edit_date': '2025-04-21', 'lat_lon_source': 'Website'}",35.53556140278884,139.6852344274521,西友川崎神明店,"{'Mon': '00:00-24:00', 'Tue': '00:00-24:00', 'Wed': '00:00-24:00', 'Thu': '00:00-24:00', 'Fri': '00:00-24:00', 'Sat': '00:00-24:00', 'Sun': '00:00-24:00'}",044-544-4271,〒212-0022,35.53556140278884-139.6852344274521,関東,https://www.seiyu.co.jp/shop/%e8%a5%bf%e5%8f%8b%e5%b7%9d%e5%b4%8e%e7%a5%9e%e6%98%8e%e5%ba%97/
〒247-0056　神奈川県鎌倉市大船1-25-30,Seiyu,茨城県,Japan,"{'brand': 'Seiyu', 'fascia': 'Seiyu', 'category': 'Food and Beverage', 'edit_date': '2025-04-21', 'lat_lon_source': 'Website'}",35.35367331066058,139.53361719846725,西友大船店,"{'Mon': '00:00-24:00', 'Tue': '00:00-24:00', 'Wed': '00:00-24:00', 'Thu': '00:00-24:00', 'Fri': '00:00-24:00', 'Sat': '00:00-24:00', 'Sun': '00:00-24:00'}",0467-44-8511,〒247-0056,35.35367331066058-139.53361719846725,関東,https://www.seiyu.co.jp/shop/%e8%a5%bf%e5%8f%8b%e5%a4%a7%e8%88%b9%e5%ba%97/
〒225-0024　神奈川県横浜市青葉区市ヶ尾町1055-5,Seiyu,茨城県,Japan,"{'brand': 'Seiyu', 'fascia': 'Seiyu', 'category': 'Food and Beverage', 'edit_date': '2025-04-21', 'lat_lon_source': 'Website'}",35.549987493486164,139.54096376895905,西友市ヶ尾店,"{'Mon': '00:00-24:00', 'Tue': '00:00-24:00', 'Wed': '00:00-24:00', 'Thu': '00:00-24:00', 'Fri': '00:00-24:00', 'Sat': '00:00-24:00', 'Sun': '00:00-24:00'}",045-973-7511,〒225-0024,35.549987493486164-139.54096376895905,関東,https://www.seiyu.co.jp/shop/%e8%a5%bf%e5%8f%8b%e5%b8%82%e3%83%b6%e5%b0%be%e5%ba%97/
〒246-0025　神奈川県横浜市瀬谷区阿久和西1-25-1,Seiyu,茨城県,Japan,"{'brand': 'Seiyu', 'fascia': 'Seiyu', 'category': 'Food and Beverage', 'edit_date': '2025-04-21', 'lat_lon_source': 'Website'}",35.45742342677624,139.49651956558228,西友阿久和店,"{'Mon': '00:00-24:00', 'Tue': '00:00-24:00', 'Wed': '00:00-24:00', 'Thu': '00:00-24:00', 'Fri': '00:00-24:00', 'Sat': '00:00-24:00', 'Sun': '00:00-24:00'}",045-392-2040,〒246-0025,35.45742342677624-139.49651956558228,関東,https://www.seiyu.co.jp/shop/%e8%a5%bf%e5%8f%8b%e9%98%bf%e4%b9%85%e5%92%8c%e5%ba%97/
〒335-0004　埼玉県蕨市中央3-17-18,Seiyu,茨城県,Japan,"{'brand': 'Seiyu', 'fascia': 'Seiyu', 'category': 'Food and Beverage', 'edit_date': '2025-04-21', 'lat_lon_source': 'Website'}",35.82739978051001,139.68592375516891,西友蕨店,"{'Mon': '00:00-24:00', 'Tue': '00:00-24:00', 'Wed': '00:00-24:00', 'Thu': '00:00-24:00', 'Fri': '00:00-24:00', 'Sat': '00:00-24:00', 'Sun': '00:00-24:00'}",048-432-5661,〒335-0004,35.82739978051001-139.68592375516891,関東,https://www.seiyu.co.jp/shop/%e8%a5%bf%e5%8f%8b%e8%95%a8%e5%ba%97/
,Seiyu,茨城県,Japan,"{'brand': 'Seiyu', 'fascia': 'Seiyu', 'category': 'Food and Beverage', 'edit_date': '2025-04-21', 'lat_lon_source': 'Website'}",35.788047560814306,139.6104218901683,西友和光市駅前店,"{'Mon': '00:00-24:00', 'Tue': '00:00-24:00', 'Wed': '00:00-24:00', 'Thu': '00:00-24:00', 'Fri': '00:00-24:00', 'Sat': '00:00-24:00', 'Sun': '00:00-24:00'}",,,35.788047560814306-139.6104218901683,関東,https://www.seiyu.co.jp/shop/%e8%a5%bf%e5%8f%8b%e5%92%8c%e5%85%89%e5%b8%82%e9%a7%85%e5%89%8d%e5%ba%97/
〒338-0002　埼玉県さいたま市中央区下落合3-7-9,Seiyu,茨城県,Japan,"{'brand': 'Seiyu', 'fascia': 'Seiyu', 'category': 'Food and Beverage', 'edit_date': '2025-04-21', 'lat_lon_source': 'Website'}",35.884634417146756,139.63172435760498,西友与野店,"{'Mon': '00:00-24:00', 'Tue': '00:00-24:00', 'Wed': '00:00-24:00', 'Thu': '00:00-24:00', 'Fri': '00:00-24:00', 'Sat': '00:00-24:00', 'Sun': '00:00-24:00'}",048-833-3221,〒338-0002,35.884634417146756-139.63172435760498,関東,https://www.seiyu.co.jp/shop/%e8%a5%bf%e5%8f%8b%e4%b8%8e%e9%87%8e%e5%ba%97/
〒369-0112　埼玉県鴻巣市鎌塚4-8-19,Seiyu,茨城県,Japan,"{'brand': 'Seiyu', 'fascia': 'Seiyu', 'category': 'Food and Beverage', 'edit_date': '2025-04-21', 'lat_lon_source': 'Website'}",36.109623004579035,139.44738149642944,西友吹上店,"{'Mon': '00:00-24:00', 'Tue': '00:00-24:00', 'Wed': '00:00-24:00', 'Thu': '00:00-24:00', 'Fri': '00:00-24:00', 'Sat': '00:00-24:00', 'Sun': '00:00-24:00'}",048-549-2280,〒369-0112,36.109623004579035-139.44738149642944,関東,https://www.seiyu.co.jp/shop/%e8%a5%bf%e5%8f%8b%e5%90%b9%e4%b8%8a%e5%ba%97/
〒355-0013　埼玉県東松山市小松原町11-2,Seiyu,茨城県,Japan,"{'brand': 'Seiyu', 'fascia': 'Seiyu', 'category': 'Food and Beverage', 'edit_date': '2025-04-21', 'lat_lon_source': 'Website'}",36.04364690771302,139.4080013036728,西友東松山店,"{'Mon': '00:00-24:00', 'Tue': '00:00-24:00', 'Wed': '00:00-24:00', 'Thu': '00:00-24:00', 'Fri': '00:00-24:00', 'Sat': '00:00-24:00', 'Sun': '00:00-24:00'}",0493-25-3111,〒355-0013,36.04364690771302-139.4080013036728,関東,https://www.seiyu.co.jp/shop/%e8%a5%bf%e5%8f%8b%e6%9d%b1%e6%9d%be%e5%b1%b1%e5%ba%97/
,Seiyu,茨城県,Japan,"{'brand': 'Seiyu', 'fascia': 'Seiyu', 'category': 'Food and Beverage', 'edit_date': '2025-04-21', 'lat_lon_source': 'Website'}",35.9488371800048,139.6424102783203,西友東大宮店,"{'Mon': '00:00-24:00', 'Tue': '00:00-24:00', 'Wed': '00:00-24:00', 'Thu': '00:00-24:00', 'Fri': '00:00-24:00', 'Sat': '00:00-24:00', 'Sun': '00:00-24:00'}",,,35.9488371800048-139.6424102783203,関東,https://www.seiyu.co.jp/shop/%e8%a5%bf%e5%8f%8b%e6%9d%b1%e5%a4%a7%e5%ae%ae%e5%ba%97/
〒333-0801　埼玉県川口市東川口3-1-34,Seiyu,茨城県,Japan,"{'brand': 'Seiyu', 'fascia': 'Seiyu', 'category': 'Food and Beverage', 'edit_date': '2025-04-21', 'lat_lon_source': 'Website'}",35.87684990910185,139.7445648908615,西友東川口店,"{'Mon': '00:00-24:00', 'Tue': '00:00-24:00', 'Wed': '00:00-24:00', 'Thu': '00:00-24:00', 'Fri': '00:00-24:00', 'Sat': '00:00-24:00', 'Sun': '00:00-24:00'}",048-298-7530,〒333-0801,35.87684990910185-139.7445648908615,関東,https://www.seiyu.co.jp/shop/%e8%a5%bf%e5%8f%8b%e6%9d%b1%e5%b7%9d%e5%8f%a3%e5%ba%97/
〒334-0003　埼玉県川口市坂下町2-5-14,Seiyu,茨城県,Japan,"{'brand': 'Seiyu', 'fascia': 'Seiyu', 'category': 'Food and Beverage', 'edit_date': '2025-04-21', 'lat_lon_source': 'Website'}",35.829900637051054,139.74155008792877,西友鳩ヶ谷店,"{'Mon': '00:00-24:00', 'Tue': '00:00-24:00', 'Wed': '00:00-24:00', 'Thu': '00:00-24:00', 'Fri': '00:00-24:00', 'Sat': '00:00-24:00', 'Sun': '00:00-24:00'}",048-282-5111,〒334-0003,35.829900637051054-139.74155008792877,関東,https://www.seiyu.co.jp/shop/%e8%a5%bf%e5%8f%8b%e9%b3%a9%e3%83%b6%e8%b0%b7%e5%ba%97/
〒350-0313　埼玉県比企郡鳩山町松ヶ丘1-2-1,Seiyu,茨城県,Japan,"{'brand': 'Seiyu', 'fascia': 'Seiyu', 'category': 'Food and Beverage', 'edit_date': '2025-04-21', 'lat_lon_source': 'Website'}",35.987321664675136,139.35468703508377,西友鳩山ニュータウン店,"{'Mon': '00:00-24:00', 'Tue': '00:00-24:00', 'Wed': '00:00-24:00', 'Thu': '00:00-24:00', 'Fri': '00:00-24:00', 'Sat': '00:00-24:00', 'Sun': '00:00-24:00'}",049-296-4331,〒350-0313,35.987321664675136-139.35468703508377,関東,https://www.seiyu.co.jp/shop/%e8%a5%bf%e5%8f%8b%e9%b3%a9%e5%b1%b1%e3%83%8b%e3%83%a5%e3%83%bc%e3%82%bf%e3%82%a6%e3%83%b3%e5%ba%97/
〒359-1144　埼玉県所沢市西所沢1-26-4,Seiyu,茨城県,Japan,"{'brand': 'Seiyu', 'fascia': 'Seiyu', 'category': 'Food and Beverage', 'edit_date': '2025-04-21', 'lat_lon_source': 'Website'}",35.79127645214342,139.45898473262787,西友西所沢店,"{'Mon': '00:00-24:00', 'Tue': '00:00-24:00', 'Wed': '00:00-24:00', 'Thu': '00:00-24:00', 'Fri': '00:00-24:00', 'Sat': '00:00-24:00', 'Sun': '00:00-24:00'}",04-2925-8701,〒359-1144,35.79127645214342-139.45898473262787,関東,https://www.seiyu.co.jp/shop/%e8%a5%bf%e5%8f%8b%e8%a5%bf%e6%89%80%e6%b2%a2%e5%ba%97/
〒336-0038　埼玉県さいたま市南区関1-1-11,Seiyu,茨城県,Japan,"{'brand': 'Seiyu', 'fascia': 'Seiyu', 'category': 'Food and Beverage', 'edit_date': '2025-04-21', 'lat_lon_source': 'Website'}",35.85269176750951,139.63728189468384,西友中浦和店,"{'Mon': '00:00-24:00', 'Tue': '00:00-24:00', 'Wed': '00:00-24:00', 'Thu': '00:00-24:00', 'Fri': '00:00-24:00', 'Sat': '00:00-24:00', 'Sun': '00:00-24:00'}", 048-838-8351,〒336-0038,35.85269176750951-139.63728189468384,関東,https://www.seiyu.co.jp/shop/%e8%a5%bf%e5%8f%8b%e4%b8%ad%e6%b5%a6%e5%92%8c%e5%ba%97/
〒352-0011　埼玉県新座市野火止8-16-13,Seiyu,茨城県,Japan,"{'brand': 'Seiyu', 'fascia': 'Seiyu', 'category': 'Food and Beverage', 'edit_date': '2025-04-21', 'lat_lon_source': 'Website'}",35.802234604423795,139.57098841667175,西友新座店,"{'Mon': '00:00-24:00', 'Tue': '00:00-24:00', 'Wed': '00:00-24:00', 'Thu': '00:00-24:00', 'Fri': '00:00-24:00', 'Sat': '00:00-24:00', 'Sun': '00:00-24:00'}",048-481-7990,〒352-0011,35.802234604423795-139.57098841667175,関東,https://www.seiyu.co.jp/shop/%e8%a5%bf%e5%8f%8b%e6%96%b0%e5%ba%a7%e5%ba%97/
〒359-0041　埼玉県所沢市中新井3-20-37,Seiyu,茨城県,Japan,"{'brand': 'Seiyu', 'fascia': 'Seiyu', 'category': 'Food and Beverage', 'edit_date': '2025-04-21', 'lat_lon_source': 'Website'}",35.815177069729764,139.4753462076187,西友所沢ニュータウン店,"{'Mon': '00:00-24:00', 'Tue': '00:00-24:00', 'Wed': '00:00-24:00', 'Thu': '00:00-24:00', 'Fri': '00:00-24:00', 'Sat': '00:00-24:00', 'Sun': '00:00-24:00'}",04-2942-4121,〒359-0041,35.815177069729764-139.4753462076187,関東,https://www.seiyu.co.jp/shop/%e8%a5%bf%e5%8f%8b%e6%89%80%e6%b2%a2%e3%83%8b%e3%83%a5%e3%83%bc%e3%82%bf%e3%82%a6%e3%83%b3%e5%ba%97/
〒359-1104　埼玉県所沢市榎町1-19,Seiyu,茨城県,Japan,"{'brand': 'Seiyu', 'fascia': 'Seiyu', 'category': 'Food and Beverage', 'edit_date': '2025-04-21', 'lat_lon_source': 'Website'}",35.80482326621927,139.44489777088165,西友所沢榎町店,"{'Mon': '00:00-24:00', 'Tue': '00:00-24:00', 'Wed': '00:00-24:00', 'Thu': '00:00-24:00', 'Fri': '00:00-24:00', 'Sat': '00:00-24:00', 'Sun': '00:00-24:00'}",04-2939-3022,〒359-1104,35.80482326621927-139.44489777088165,関東,https://www.seiyu.co.jp/shop/%e8%a5%bf%e5%8f%8b%e6%89%80%e6%b2%a2%e6%a6%8e%e7%94%ba%e5%ba%97/
,Seiyu,茨城県,Japan,"{'brand': 'Seiyu', 'fascia': 'Seiyu', 'category': 'Food and Beverage', 'edit_date': '2025-04-21', 'lat_lon_source': 'Website'}",35.78723610880901,139.47304487228394,西友所沢駅前店,"{'Mon': '00:00-24:00', 'Tue': '00:00-24:00', 'Wed': '00:00-24:00', 'Thu': '00:00-24:00', 'Fri': '00:00-24:00', 'Sat': '00:00-24:00', 'Sun': '00:00-24:00'}",,,35.78723610880901-139.47304487228394,関東,https://www.seiyu.co.jp/shop/%e8%a5%bf%e5%8f%8b%e6%89%80%e6%b2%a2%e9%a7%85%e5%89%8d%e5%ba%97/
〒359-1111　埼玉県所沢市緑町1-21-26,Seiyu,茨城県,Japan,"{'brand': 'Seiyu', 'fascia': 'Seiyu', 'category': 'Food and Beverage', 'edit_date': '2025-04-21', 'lat_lon_source': 'Website'}",35.80662222771241,139.45576071739197,西友新所沢店,"{'Mon': '00:00-24:00', 'Tue': '00:00-24:00', 'Wed': '00:00-24:00', 'Thu': '00:00-24:00', 'Fri': '00:00-24:00', 'Sat': '00:00-24:00', 'Sun': '00:00-24:00'}",04-2923-5111,〒359-1111,35.80662222771241-139.45576071739197,関東,https://www.seiyu.co.jp/shop/%e8%a5%bf%e5%8f%8b%e6%96%b0%e6%89%80%e6%b2%a2%e5%ba%97/
〒340-0015　埼玉県草加市高砂1-6-21,Seiyu,茨城県,Japan,"{'brand': 'Seiyu', 'fascia': 'Seiyu', 'category': 'Food and Beverage', 'edit_date': '2025-04-21', 'lat_lon_source': 'Website'}",35.82606015885385,139.8045390844345,西友草加店,"{'Mon': '00:00-24:00', 'Tue': '00:00-24:00', 'Wed': '00:00-24:00', 'Thu': '00:00-24:00', 'Fri': '00:00-24:00', 'Sat': '00:00-24:00', 'Sun': '00:00-24:00'}",048-929-3325,〒340-0015,35.82606015885385-139.8045390844345,関東,https://www.seiyu.co.jp/shop/%e8%a5%bf%e5%8f%8b%e8%8d%89%e5%8a%a0%e5%ba%97/
,Seiyu,茨城県,Japan,"{'brand': 'Seiyu', 'fascia': 'Seiyu', 'category': 'Food and Beverage', 'edit_date': '2025-04-21', 'lat_lon_source': 'Website'}",35.80081189218702,139.72152203321457,西友川口本町店,"{'Mon': '00:00-24:00', 'Tue': '00:00-24:00', 'Wed': '00:00-24:00', 'Thu': '00:00-24:00', 'Fri': '00:00-24:00', 'Sat': '00:00-24:00', 'Sun': '00:00-24:00'}",,,35.80081189218702-139.72152203321457,関東,https://www.seiyu.co.jp/shop/%e8%a5%bf%e5%8f%8b%e5%b7%9d%e5%8f%a3%e6%9c%ac%e7%94%ba%e5%ba%97/
〒333-0825　埼玉県川口市赤山1426,Seiyu,茨城県,Japan,"{'brand': 'Seiyu', 'fascia': 'Seiyu', 'category': 'Food and Beverage', 'edit_date': '2025-04-21', 'lat_lon_source': 'Website'}",35.84317342925075,139.7442215681076,西友川口赤山店,"{'Mon': '00:00-24:00', 'Tue': '00:00-24:00', 'Wed': '00:00-24:00', 'Thu': '00:00-24:00', 'Fri': '00:00-24:00', 'Sat': '00:00-24:00', 'Sun': '00:00-24:00'}",048-286-3781,〒333-0825,35.84317342925075-139.7442215681076,関東,https://www.seiyu.co.jp/shop/%e8%a5%bf%e5%8f%8b%e5%b7%9d%e5%8f%a3%e8%b5%a4%e5%b1%b1%e5%ba%97/
〒333-0868　埼玉県川口市芝高木2-1-1,Seiyu,茨城県,Japan,"{'brand': 'Seiyu', 'fascia': 'Seiyu', 'category': 'Food and Beverage', 'edit_date': '2025-04-21', 'lat_lon_source': 'Website'}",35.84144269955584,139.69475626945496,西友川口芝店,"{'Mon': '00:00-24:00', 'Tue': '00:00-24:00', 'Wed': '00:00-24:00', 'Thu': '00:00-24:00', 'Fri': '00:00-24:00', 'Sat': '00:00-24:00', 'Sun': '00:00-24:00'}",048-262-6222,〒333-0868,35.84144269955584-139.69475626945496,関東,https://www.seiyu.co.jp/shop/%e8%a5%bf%e5%8f%8b%e5%b7%9d%e5%8f%a3%e8%8a%9d%e5%ba%97/
〒343-0831　埼玉県越谷市伊原1-4-1,Seiyu,茨城県,Japan,"{'brand': 'Seiyu', 'fascia': 'Seiyu', 'category': 'Food and Beverage', 'edit_date': '2025-04-21', 'lat_lon_source': 'Website'}",35.86475219578318,139.80763971805573,西友蒲生伊原店,"{'Mon': '00:00-24:00', 'Tue': '00:00-24:00', 'Wed': '00:00-24:00', 'Thu': '00:00-24:00', 'Fri': '00:00-24:00', 'Sat': '00:00-24:00', 'Sun': '00:00-24:00'}", 048-989-8577,〒343-0831,35.86475219578318-139.80763971805573,関東,https://www.seiyu.co.jp/shop/%e8%a5%bf%e5%8f%8b%e8%92%b2%e7%94%9f%e4%bc%8a%e5%8e%9f%e5%ba%97/
〒351-0005　埼玉県朝霞市根岸台5-3-20,Seiyu,茨城県,Japan,"{'brand': 'Seiyu', 'fascia': 'Seiyu', 'category': 'Food and Beverage', 'edit_date': '2025-04-21', 'lat_lon_source': 'Website'}",35.799273855037484,139.60297107696533,西友朝霞根岸店,"{'Mon': '00:00-24:00', 'Tue': '00:00-24:00', 'Wed': '00:00-24:00', 'Thu': '00:00-24:00', 'Fri': '00:00-24:00', 'Sat': '00:00-24:00', 'Sun': '00:00-24:00'}",048-466-3030,〒351-0005,35.799273855037484-139.60297107696533,関東,https://www.seiyu.co.jp/shop/%e8%a5%bf%e5%8f%8b%e6%9c%9d%e9%9c%9e%e6%a0%b9%e5%b2%b8%e5%ba%97/
,Seiyu,茨城県,Japan,"{'brand': 'Seiyu', 'fascia': 'Seiyu', 'category': 'Food and Beverage', 'edit_date': '2025-04-21', 'lat_lon_source': 'Website'}",35.719749228782305,139.92748081684113,西友本八幡店,"{'Mon': '00:00-24:00', 'Tue': '00:00-24:00', 'Wed': '00:00-24:00', 'Thu': '00:00-24:00', 'Fri': '00:00-24:00', 'Sat': '00:00-24:00', 'Sun': '00:00-24:00'}",,,35.719749228782305-139.92748081684113,関東,https://www.seiyu.co.jp/shop/%e8%a5%bf%e5%8f%8b%e6%9c%ac%e5%85%ab%e5%b9%a1%e5%ba%97/
〒260-0033　千葉県千葉市中央区春日2-20-9,Seiyu,茨城県,Japan,"{'brand': 'Seiyu', 'fascia': 'Seiyu', 'category': 'Food and Beverage', 'edit_date': '2025-04-21', 'lat_lon_source': 'Website'}",35.62194165120479,140.10249763727188,西友西千葉店,"{'Mon': '00:00-24:00', 'Tue': '00:00-24:00', 'Wed': '00:00-24:00', 'Thu': '00:00-24:00', 'Fri': '00:00-24:00', 'Sat': '00:00-24:00', 'Sun': '00:00-24:00'}",043-241-6361,〒260-0033,35.62194165120479-140.10249763727188,関東,https://www.seiyu.co.jp/shop/%e8%a5%bf%e5%8f%8b%e8%a5%bf%e5%8d%83%e8%91%89%e5%ba%97/
〒272-0133　千葉県市川市行徳駅前4-12-4,Seiyu,茨城県,Japan,"{'brand': 'Seiyu', 'fascia': 'Seiyu', 'category': 'Food and Beverage', 'edit_date': '2025-04-21', 'lat_lon_source': 'Website'}",35.678489731908506,139.9187421798706,西友新浜店,"{'Mon': '00:00-24:00', 'Tue': '00:00-24:00', 'Wed': '00:00-24:00', 'Thu': '00:00-24:00', 'Fri': '00:00-24:00', 'Sat': '00:00-24:00', 'Sun': '00:00-24:00'}",047-359-7111,〒272-0133,35.678489731908506-139.9187421798706,関東,https://www.seiyu.co.jp/shop/%e8%a5%bf%e5%8f%8b%e6%96%b0%e6%b5%9c%e5%ba%97/
〒270-2261　千葉県松戸市常盤平3-11-1,Seiyu,茨城県,Japan,"{'brand': 'Seiyu', 'fascia': 'Seiyu', 'category': 'Food and Beverage', 'edit_date': '2025-04-21', 'lat_lon_source': 'Website'}",35.80195180432629,139.95144367218018,西友常盤平店,"{'Mon': '00:00-24:00', 'Tue': '00:00-24:00', 'Wed': '00:00-24:00', 'Thu': '00:00-24:00', 'Fri': '00:00-24:00', 'Sat': '00:00-24:00', 'Sun': '00:00-24:00'}",047-386-1111,〒270-2261,35.80195180432629-139.95144367218018,関東,https://www.seiyu.co.jp/shop/%e8%a5%bf%e5%8f%8b%e5%b8%b8%e7%9b%a4%e5%b9%b3%e5%ba%97/
〒264-0026　千葉県千葉市若葉区西都賀2-2-2,Seiyu,茨城県,Japan,"{'brand': 'Seiyu', 'fascia': 'Seiyu', 'category': 'Food and Beverage', 'edit_date': '2025-04-21', 'lat_lon_source': 'Website'}",35.63723068991344,140.14641344547272,西友都賀店,"{'Mon': '00:00-24:00', 'Tue': '00:00-24:00', 'Wed': '00:00-24:00', 'Thu': '00:00-24:00', 'Fri': '00:00-24:00', 'Sat': '00:00-24:00', 'Sun': '00:00-24:00'}",043-253-8211,〒264-0026,35.63723068991344-140.14641344547272,関東,https://www.seiyu.co.jp/shop/%e8%a5%bf%e5%8f%8b%e9%83%bd%e8%b3%80%e5%ba%97/
〒262-0022　千葉県千葉市花見川区南花園2-6-1,Seiyu,茨城県,Japan,"{'brand': 'Seiyu', 'fascia': 'Seiyu', 'category': 'Food and Beverage', 'edit_date': '2025-04-21', 'lat_lon_source': 'Website'}",35.6514813,140.0718587,西友新検見川店,"{'Mon': '00:00-24:00', 'Tue': '00:00-24:00', 'Wed': '00:00-24:00', 'Thu': '00:00-24:00', 'Fri': '00:00-24:00', 'Sat': '00:00-24:00', 'Sun': '00:00-24:00'}",043-273-1311,〒262-0022,35.6514813-140.0718587,関東,https://www.seiyu.co.jp/shop/%e8%a5%bf%e5%8f%8b%e6%96%b0%e6%a4%9c%e8%a6%8b%e5%b7%9d%e5%ba%97/
〒274-0063　千葉県船橋市習志野台1-35-1,Seiyu,茨城県,Japan,"{'brand': 'Seiyu', 'fascia': 'Seiyu', 'category': 'Food and Beverage', 'edit_date': '2025-04-21', 'lat_lon_source': 'Website'}",35.72345983774335,140.0410670042038,西友新北習志野店,"{'Mon': '00:00-24:00', 'Tue': '00:00-24:00', 'Wed': '00:00-24:00', 'Thu': '00:00-24:00', 'Fri': '00:00-24:00', 'Sat': '00:00-24:00', 'Sun': '00:00-24:00'}",047-463-1221,〒274-0063,35.72345983774335-140.0410670042038,関東,https://www.seiyu.co.jp/shop/%e8%a5%bf%e5%8f%8b%e6%96%b0%e5%8c%97%e7%bf%92%e5%bf%97%e9%87%8e%e5%ba%97/
〒273-0035　千葉県船橋市本中山2-17-27,Seiyu,茨城県,Japan,"{'brand': 'Seiyu', 'fascia': 'Seiyu', 'category': 'Food and Beverage', 'edit_date': '2025-04-21', 'lat_lon_source': 'Website'}",35.7148515701209,139.94232416152954,西友下総中山店,"{'Mon': '00:00-24:00', 'Tue': '00:00-24:00', 'Wed': '00:00-24:00', 'Thu': '00:00-24:00', 'Fri': '00:00-24:00', 'Sat': '00:00-24:00', 'Sun': '00:00-24:00'}",047-332-2211,〒273-0035,35.7148515701209-139.94232416152954,関東,https://www.seiyu.co.jp/shop/%e8%a5%bf%e5%8f%8b%e4%b8%8b%e7%b7%8f%e4%b8%ad%e5%b1%b1%e5%ba%97/
〒272-0133　千葉県市川市行徳駅前1-19-1,Seiyu,茨城県,Japan,"{'brand': 'Seiyu', 'fascia': 'Seiyu', 'category': 'Food and Beverage', 'edit_date': '2025-04-21', 'lat_lon_source': 'Website'}",35.68403231810095,139.91530895233154,西友行徳店,"{'Mon': '00:00-24:00', 'Tue': '00:00-24:00', 'Wed': '00:00-24:00', 'Thu': '00:00-24:00', 'Fri': '00:00-24:00', 'Sat': '00:00-24:00', 'Sun': '00:00-24:00'}",047-356-0111,〒272-0133,35.68403231810095-139.91530895233154,関東,https://www.seiyu.co.jp/shop/%e8%a5%bf%e5%8f%8b%e8%a1%8c%e5%be%b3%e5%ba%97/
〒274-0063　千葉県船橋市習志野台2-49-1,Seiyu,茨城県,Japan,"{'brand': 'Seiyu', 'fascia': 'Seiyu', 'category': 'Food and Beverage', 'edit_date': '2025-04-21', 'lat_lon_source': 'Website'}",35.72272382693584,140.04461288452148,西友北習志野店,"{'Mon': '00:00-24:00', 'Tue': '00:00-24:00', 'Wed': '00:00-24:00', 'Thu': '00:00-24:00', 'Fri': '00:00-24:00', 'Sat': '00:00-24:00', 'Sun': '00:00-24:00'}",047-466-1131,〒274-0063,35.72272382693584-140.04461288452148,関東,https://www.seiyu.co.jp/shop/%e8%a5%bf%e5%8f%8b%e5%8c%97%e7%bf%92%e5%bf%97%e9%87%8e%e5%ba%97/
〒277-0005　千葉県柏市柏955-1,Seiyu,茨城県,Japan,"{'brand': 'Seiyu', 'fascia': 'Seiyu', 'category': 'Food and Beverage', 'edit_date': '2025-04-21', 'lat_lon_source': 'Website'}",35.862644,139.9853857,西友柏東店,"{'Mon': '00:00-24:00', 'Tue': '00:00-24:00', 'Wed': '00:00-24:00', 'Thu': '00:00-24:00', 'Fri': '00:00-24:00', 'Sat': '00:00-24:00', 'Sun': '00:00-24:00'}",04-7162-5615,〒277-0005,35.862644-139.9853857,関東,https://www.seiyu.co.jp/shop/%e8%a5%bf%e5%8f%8b%e6%9f%8f%e6%9d%b1%e5%ba%97/
〒389-0206　長野県北佐久郡御代田町字小田井2763-1,Seiyu,長野県,Japan,"{'brand': 'Seiyu', 'fascia': 'Seiyu', 'category': 'Food and Beverage', 'edit_date': '2025-04-21', 'lat_lon_source': 'Website'}",36.308726,138.50458,西友御代田店,"{'Mon': '00:00-24:00', 'Tue': '00:00-24:00', 'Wed': '00:00-24:00', 'Thu': '00:00-24:00', 'Fri': '00:00-24:00', 'Sat': '00:00-24:00', 'Sun': '00:00-24:00'}",0267-32-8838,〒389-0206,36.308726-138.50458,中部,https://www.seiyu.co.jp/shop/%e8%a5%bf%e5%8f%8b%e5%be%a1%e4%bb%a3%e7%94%b0%e5%ba%97/
〒279-0002　千葉県浦安市北栄1-14-1,Seiyu,茨城県,Japan,"{'brand': 'Seiyu', 'fascia': 'Seiyu', 'category': 'Food and Beverage', 'edit_date': '2025-04-21', 'lat_lon_source': 'Website'}",35.6657545,139.8944871,西友浦安店,"{'Mon': '00:00-24:00', 'Tue': '00:00-24:00', 'Wed': '00:00-24:00', 'Thu': '00:00-24:00', 'Fri': '00:00-24:00', 'Sat': '00:00-24:00', 'Sun': '00:00-24:00'}",047-354-2611,〒279-0002,35.6657545-139.8944871,関東,https://www.seiyu.co.jp/shop/%e8%a5%bf%e5%8f%8b%e6%b5%a6%e5%ae%89%e5%ba%97/
〒302-0024　茨城県取手市新町1-9-1,Seiyu,茨城県,Japan,"{'brand': 'Seiyu', 'fascia': 'Seiyu', 'category': 'Food and Beverage', 'edit_date': '2025-04-21', 'lat_lon_source': 'Website'}",35.896211968467945,140.06214380264282,西友取手駅前店,"{'Mon': '00:00-24:00', 'Tue': '00:00-24:00', 'Wed': '00:00-24:00', 'Thu': '00:00-24:00', 'Fri': '00:00-24:00', 'Sat': '00:00-24:00', 'Sun': '00:00-24:00'}",0297-71-3501,〒302-0024,35.896211968467945-140.06214380264282,関東,https://www.seiyu.co.jp/shop/%e8%a5%bf%e5%8f%8b%e5%8f%96%e6%89%8b%e9%a7%85%e5%89%8d%e5%ba%97/
〒399-4601　長野県上伊那郡箕輪町大字中箕輪字北島8008,Seiyu,長野県,Japan,"{'brand': 'Seiyu', 'fascia': 'Seiyu', 'category': 'Food and Beverage', 'edit_date': '2025-04-21', 'lat_lon_source': 'Website'}",35.92278525678768,137.9869669675827,西友箕輪店,"{'Mon': '00:00-24:00', 'Tue': '00:00-24:00', 'Wed': '00:00-24:00', 'Thu': '00:00-24:00', 'Fri': '00:00-24:00', 'Sat': '00:00-24:00', 'Sun': '00:00-24:00'}",0265-79-1022,〒399-4601,35.92278525678768-137.9869669675827,中部,https://www.seiyu.co.jp/shop/%e8%a5%bf%e5%8f%8b%e7%ae%95%e8%bc%aa%e5%ba%97/
〒381-2217　長野県長野市稲里町中央4-8-8,Seiyu,長野県,Japan,"{'brand': 'Seiyu', 'fascia': 'Seiyu', 'category': 'Food and Beverage', 'edit_date': '2025-04-21', 'lat_lon_source': 'Website'}",36.60403033748127,138.16835939884186,西友南長野店,"{'Mon': '00:00-24:00', 'Tue': '00:00-24:00', 'Wed': '00:00-24:00', 'Thu': '00:00-24:00', 'Fri': '00:00-24:00', 'Sat': '00:00-24:00', 'Sun': '00:00-24:00'}",026-285-6100,〒381-2217,36.60403033748127-138.16835939884186,中部,https://www.seiyu.co.jp/shop/%e8%a5%bf%e5%8f%8b%e5%8d%97%e9%95%b7%e9%87%8e%e5%ba%97/
,Seiyu,長野県,Japan,"{'brand': 'Seiyu', 'fascia': 'Seiyu', 'category': 'Food and Beverage', 'edit_date': '2025-04-21', 'lat_lon_source': 'Website'}",36.64549435086147,138.18641602993011,西友南石堂店 (旧：長野石堂店),"{'Mon': '00:00-24:00', 'Tue': '00:00-24:00', 'Wed': '00:00-24:00', 'Thu': '00:00-24:00', 'Fri': '00:00-24:00', 'Sat': '00:00-24:00', 'Sun': '00:00-24:00'}",,,36.64549435086147-138.18641602993011,中部,https://www.seiyu.co.jp/shop/%e8%a5%bf%e5%8f%8b%e5%8d%97%e7%9f%b3%e5%a0%82%e5%ba%97-%e6%97%a7%ef%bc%9a%e9%95%b7%e9%87%8e%e7%9f%b3%e5%a0%82%e5%ba%97/
〒399-8501　長野県北安曇郡松川村字東川原5723-11,Seiyu,長野県,Japan,"{'brand': 'Seiyu', 'fascia': 'Seiyu', 'category': 'Food and Beverage', 'edit_date': '2025-04-21', 'lat_lon_source': 'Website'}",36.422681010767285,137.8627324104309,西友松川店,"{'Mon': '00:00-24:00', 'Tue': '00:00-24:00', 'Wed': '00:00-24:00', 'Thu': '00:00-24:00', 'Fri': '00:00-24:00', 'Sat': '00:00-24:00', 'Sun': '00:00-24:00'}",0261-62-9692,〒399-8501,36.422681010767285-137.8627324104309,中部,https://www.seiyu.co.jp/shop/%e8%a5%bf%e5%8f%8b%e6%9d%be%e5%b7%9d%e5%ba%97/
〒399-8303　長野県安曇野市穂高5626-1,Seiyu,長野県,Japan,"{'brand': 'Seiyu', 'fascia': 'Seiyu', 'category': 'Food and Beverage', 'edit_date': '2025-04-21', 'lat_lon_source': 'Website'}",36.343320021343914,137.88335859775543,西友穂高店,"{'Mon': '00:00-24:00', 'Tue': '00:00-24:00', 'Wed': '00:00-24:00', 'Thu': '00:00-24:00', 'Fri': '00:00-24:00', 'Sat': '00:00-24:00', 'Sun': '00:00-24:00'}",0263-82-7268,〒399-8303,36.343320021343914-137.88335859775543,中部,https://www.seiyu.co.jp/shop/%e8%a5%bf%e5%8f%8b%e7%a9%82%e9%ab%98%e5%ba%97/
〒381-0082　長野県長野市上駒沢字寺浦1024-1,Seiyu,長野県,Japan,"{'brand': 'Seiyu', 'fascia': 'Seiyu', 'category': 'Food and Beverage', 'edit_date': '2025-04-21', 'lat_lon_source': 'Website'}",36.68036048623407,138.24567675590515,西友古里店,"{'Mon': '00:00-24:00', 'Tue': '00:00-24:00', 'Wed': '00:00-24:00', 'Thu': '00:00-24:00', 'Fri': '00:00-24:00', 'Sat': '00:00-24:00', 'Sun': '00:00-24:00'}",026-295-7722,〒381-0082,36.68036048623407-138.24567675590515,中部,https://www.seiyu.co.jp/shop/%e8%a5%bf%e5%8f%8b%e5%8f%a4%e9%87%8c%e5%ba%97/
〒399-0214　長野県諏訪郡富士見町落合10061-1,Seiyu,長野県,Japan,"{'brand': 'Seiyu', 'fascia': 'Seiyu', 'category': 'Food and Beverage', 'edit_date': '2025-04-21', 'lat_lon_source': 'Website'}",35.9153324,138.2409929,西友富士見店,"{'Mon': '00:00-24:00', 'Tue': '00:00-24:00', 'Wed': '00:00-24:00', 'Thu': '00:00-24:00', 'Fri': '00:00-24:00', 'Sat': '00:00-24:00', 'Sun': '00:00-24:00'}", 0266-62-2410,〒399-0214,35.9153324-138.2409929,中部,https://www.seiyu.co.jp/shop/%e8%a5%bf%e5%8f%8b%e5%af%8c%e5%a3%ab%e8%a6%8b%e5%ba%97/
〒380-0912　長野県長野市大字稲葉日詰1930-1,Seiyu,長野県,Japan,"{'brand': 'Seiyu', 'fascia': 'Seiyu', 'category': 'Food and Beverage', 'edit_date': '2025-04-21', 'lat_lon_source': 'Website'}",36.635719102353,138.21309328079224,西友日詰店,"{'Mon': '00:00-24:00', 'Tue': '00:00-24:00', 'Wed': '00:00-24:00', 'Thu': '00:00-24:00', 'Fri': '00:00-24:00', 'Sat': '00:00-24:00', 'Sun': '00:00-24:00'}",026-222-4011,〒380-0912,36.635719102353-138.21309328079224,中部,https://www.seiyu.co.jp/shop/%e8%a5%bf%e5%8f%8b%e6%97%a5%e8%a9%b0%e5%ba%97/
〒381-0031　長野県長野市大字西尾張部1060-12,Seiyu,長野県,Japan,"{'brand': 'Seiyu', 'fascia': 'Seiyu', 'category': 'Food and Beverage', 'edit_date': '2025-04-21', 'lat_lon_source': 'Website'}",36.650461130837996,138.22899878025055,西友西尾張部店,"{'Mon': '00:00-24:00', 'Tue': '00:00-24:00', 'Wed': '00:00-24:00', 'Thu': '00:00-24:00', 'Fri': '00:00-24:00', 'Sat': '00:00-24:00', 'Sun': '00:00-24:00'}",026-263-7600,〒381-0031,36.650461130837996-138.22899878025055,中部,https://www.seiyu.co.jp/shop/%e8%a5%bf%e5%8f%8b%e8%a5%bf%e5%b0%be%e5%bc%b5%e9%83%a8%e5%ba%97/
〒381-0052　長野県長野市檀田2-19-10,Seiyu,長野県,Japan,"{'brand': 'Seiyu', 'fascia': 'Seiyu', 'category': 'Food and Beverage', 'edit_date': '2025-04-21', 'lat_lon_source': 'Website'}",36.676129197108104,138.20916652679443,西友長野北店,"{'Mon': '00:00-24:00', 'Tue': '00:00-24:00', 'Wed': '00:00-24:00', 'Thu': '00:00-24:00', 'Fri': '00:00-24:00', 'Sat': '00:00-24:00', 'Sun': '00:00-24:00'}",026-263-8815,〒381-0052,36.676129197108104-138.20916652679443,中部,https://www.seiyu.co.jp/shop/%e8%a5%bf%e5%8f%8b%e9%95%b7%e9%87%8e%e5%8c%97%e5%ba%97/
〒383-0041　長野県中野市大字岩船字西条境420,Seiyu,長野県,Japan,"{'brand': 'Seiyu', 'fascia': 'Seiyu', 'category': 'Food and Beverage', 'edit_date': '2025-04-21', 'lat_lon_source': 'Website'}",36.742632658853154,138.36243867874146,西友中野駅前店,"{'Mon': '00:00-24:00', 'Tue': '00:00-24:00', 'Wed': '00:00-24:00', 'Thu': '00:00-24:00', 'Fri': '00:00-24:00', 'Sat': '00:00-24:00', 'Sun': '00:00-24:00'}",0269-23-3333,〒383-0041,36.742632658853154-138.36243867874146,中部,https://www.seiyu.co.jp/shop/%e8%a5%bf%e5%8f%8b%e4%b8%ad%e9%87%8e%e9%a7%85%e5%89%8d%e5%ba%97/
〒389-0804　長野県千曲市大字戸倉字鎮守1953-1,Seiyu,長野県,Japan,"{'brand': 'Seiyu', 'fascia': 'Seiyu', 'category': 'Food and Beverage', 'edit_date': '2025-04-21', 'lat_lon_source': 'Website'}",36.48992923746797,138.14744353294373,西友戸倉店,"{'Mon': '00:00-24:00', 'Tue': '00:00-24:00', 'Wed': '00:00-24:00', 'Thu': '00:00-24:00', 'Fri': '00:00-24:00', 'Sat': '00:00-24:00', 'Sun': '00:00-24:00'}",026-276-5661,〒389-0804,36.48992923746797-138.14744353294373,中部,https://www.seiyu.co.jp/shop/%e8%a5%bf%e5%8f%8b%e6%88%b8%e5%80%89%e5%ba%97/
〒399-8201　長野県安曇野市豊科南穂高776,Seiyu,長野県,Japan,"{'brand': 'Seiyu', 'fascia': 'Seiyu', 'category': 'Food and Beverage', 'edit_date': '2025-04-21', 'lat_lon_source': 'Website'}",36.30406309115408,137.91165590286255,西友豊科店,"{'Mon': '00:00-24:00', 'Tue': '00:00-24:00', 'Wed': '00:00-24:00', 'Thu': '00:00-24:00', 'Fri': '00:00-24:00', 'Sat': '00:00-24:00', 'Sun': '00:00-24:00'}",0263-73-9311,〒399-8201,36.30406309115408-137.91165590286255,中部,https://www.seiyu.co.jp/shop/%e8%a5%bf%e5%8f%8b%e8%b1%8a%e7%a7%91%e5%ba%97/
〒381-0034　長野県長野市大字高田字中村沖309-6,Seiyu,長野県,Japan,"{'brand': 'Seiyu', 'fascia': 'Seiyu', 'category': 'Food and Beverage', 'edit_date': '2025-04-21', 'lat_lon_source': 'Website'}",36.64768726244846,138.20616245269775,西友高田店,"{'Mon': '00:00-24:00', 'Tue': '00:00-24:00', 'Wed': '00:00-24:00', 'Thu': '00:00-24:00', 'Fri': '00:00-24:00', 'Sat': '00:00-24:00', 'Sun': '00:00-24:00'}",026-223-4611,〒381-0034,36.64768726244846-138.20616245269775,中部,https://www.seiyu.co.jp/shop/%e8%a5%bf%e5%8f%8b%e9%ab%98%e7%94%b0%e5%ba%97/
〒391-0001　長野県茅野市ちの2622-1,Seiyu,長野県,Japan,"{'brand': 'Seiyu', 'fascia': 'Seiyu', 'category': 'Food and Beverage', 'edit_date': '2025-04-21', 'lat_lon_source': 'Website'}",35.99705703639182,138.1425780057907,西友茅野横内店,"{'Mon': '00:00-24:00', 'Tue': '00:00-24:00', 'Wed': '00:00-24:00', 'Thu': '00:00-24:00', 'Fri': '00:00-24:00', 'Sat': '00:00-24:00', 'Sun': '00:00-24:00'}",0266-73-7733,〒391-0001,35.99705703639182-138.1425780057907,中部,https://www.seiyu.co.jp/shop/%e8%a5%bf%e5%8f%8b%e8%8c%85%e9%87%8e%e6%a8%aa%e5%86%85%e5%ba%97/
〒392-0021　長野県諏訪市上川2-2062,Seiyu,長野県,Japan,"{'brand': 'Seiyu', 'fascia': 'Seiyu', 'category': 'Food and Beverage', 'edit_date': '2025-04-21', 'lat_lon_source': 'Website'}",36.03284578675447,138.11199009418488,西友諏訪城南店,"{'Mon': '00:00-24:00', 'Tue': '00:00-24:00', 'Wed': '00:00-24:00', 'Thu': '00:00-24:00', 'Fri': '00:00-24:00', 'Sat': '00:00-24:00', 'Sun': '00:00-24:00'}",0266-52-9111,〒392-0021,36.03284578675447-138.11199009418488,中部,https://www.seiyu.co.jp/shop/%e8%a5%bf%e5%8f%8b%e8%ab%8f%e8%a8%aa%e5%9f%8e%e5%8d%97%e5%ba%97/
〒392-0131　長野県諏訪市大字湖南字中村沢通3585-1,Seiyu,長野県,Japan,"{'brand': 'Seiyu', 'fascia': 'Seiyu', 'category': 'Food and Beverage', 'edit_date': '2025-04-21', 'lat_lon_source': 'Website'}",36.01381659514427,138.09975922107697,西友諏訪湖南店,"{'Mon': '00:00-24:00', 'Tue': '00:00-24:00', 'Wed': '00:00-24:00', 'Thu': '00:00-24:00', 'Fri': '00:00-24:00', 'Sat': '00:00-24:00', 'Sun': '00:00-24:00'}",0266-57-7760,〒392-0131,36.01381659514427-138.09975922107697,中部,https://www.seiyu.co.jp/shop/%e8%a5%bf%e5%8f%8b%e8%ab%8f%e8%a8%aa%e6%b9%96%e5%8d%97%e5%ba%97/
〒382-0000　長野県須坂市大字須坂字金井原1539-1,Seiyu,長野県,Japan,"{'brand': 'Seiyu', 'fascia': 'Seiyu', 'category': 'Food and Beverage', 'edit_date': '2025-04-21', 'lat_lon_source': 'Website'}",36.651760876528144,138.30682575702667,西友須坂店,"{'Mon': '00:00-24:00', 'Tue': '00:00-24:00', 'Wed': '00:00-24:00', 'Thu': '00:00-24:00', 'Fri': '00:00-24:00', 'Sat': '00:00-24:00', 'Sun': '00:00-24:00'}",026-248-6660,〒382-0000,36.651760876528144-138.30682575702667,中部,https://www.seiyu.co.jp/shop/%e8%a5%bf%e5%8f%8b%e9%a0%88%e5%9d%82%e5%ba%97/
〒393-0076　長野県諏訪郡下諏訪町矢木西21,Seiyu,長野県,Japan,"{'brand': 'Seiyu', 'fascia': 'Seiyu', 'category': 'Food and Beverage', 'edit_date': '2025-04-21', 'lat_lon_source': 'Website'}",36.075560114618334,138.08058142662048,西友下諏訪店,"{'Mon': '00:00-24:00', 'Tue': '00:00-24:00', 'Wed': '00:00-24:00', 'Thu': '00:00-24:00', 'Fri': '00:00-24:00', 'Sat': '00:00-24:00', 'Sun': '00:00-24:00'}",0266-28-1300,〒393-0076,36.075560114618334-138.08058142662048,中部,https://www.seiyu.co.jp/shop/%e8%a5%bf%e5%8f%8b%e4%b8%8b%e8%ab%8f%e8%a8%aa%e5%ba%97/
〒390-0851　長野県松本市大字島内4164-1,Seiyu,長野県,Japan,"{'brand': 'Seiyu', 'fascia': 'Seiyu', 'category': 'Food and Beverage', 'edit_date': '2025-04-21', 'lat_lon_source': 'Website'}",36.24349226168561,137.94481068849564,西友島内店,"{'Mon': '00:00-24:00', 'Tue': '00:00-24:00', 'Wed': '00:00-24:00', 'Thu': '00:00-24:00', 'Fri': '00:00-24:00', 'Sat': '00:00-24:00', 'Sun': '00:00-24:00'}",0263-48-2185,〒390-0851,36.24349226168561-137.94481068849564,中部,https://www.seiyu.co.jp/shop/%e8%a5%bf%e5%8f%8b%e5%b3%b6%e5%86%85%e5%ba%97/
〒388-8006　長野県長野市篠ノ井御幣川1219-1,Seiyu,長野県,Japan,"{'brand': 'Seiyu', 'fascia': 'Seiyu', 'category': 'Food and Beverage', 'edit_date': '2025-04-21', 'lat_lon_source': 'Website'}",36.574833722672295,138.1403061747551,西友篠ノ井店,"{'Mon': '00:00-24:00', 'Tue': '00:00-24:00', 'Wed': '00:00-24:00', 'Thu': '00:00-24:00', 'Fri': '00:00-24:00', 'Sat': '00:00-24:00', 'Sun': '00:00-24:00'}",026-293-6977,〒388-8006,36.574833722672295-138.1403061747551,中部,https://www.seiyu.co.jp/shop/%e8%a5%bf%e5%8f%8b%e7%af%a0%e3%83%8e%e4%ba%95%e5%ba%97/
〒399-6461　長野県塩尻市大字宗賀73-12,Seiyu,長野県,Japan,"{'brand': 'Seiyu', 'fascia': 'Seiyu', 'category': 'Food and Beverage', 'edit_date': '2025-04-21', 'lat_lon_source': 'Website'}",36.11696422807818,137.942533493042,西友塩尻西店,"{'Mon': '00:00-24:00', 'Tue': '00:00-24:00', 'Wed': '00:00-24:00', 'Thu': '00:00-24:00', 'Fri': '00:00-24:00', 'Sat': '00:00-24:00', 'Sun': '00:00-24:00'}",0263-53-8886,〒399-6461,36.11696422807818-137.942533493042,中部,https://www.seiyu.co.jp/shop/%e8%a5%bf%e5%8f%8b%e5%a1%a9%e5%b0%bb%e8%a5%bf%e5%ba%97/
〒381-2245　長野県長野市三本柳東2-8,Seiyu,長野県,Japan,"{'brand': 'Seiyu', 'fascia': 'Seiyu', 'category': 'Food and Beverage', 'edit_date': '2025-04-21', 'lat_lon_source': 'Website'}",36.617187492284685,138.1656476855278,西友三本柳店,"{'Mon': '00:00-24:00', 'Tue': '00:00-24:00', 'Wed': '00:00-24:00', 'Thu': '00:00-24:00', 'Fri': '00:00-24:00', 'Sat': '00:00-24:00', 'Sun': '00:00-24:00'}",026-283-5880,〒381-2245,36.617187492284685-138.1656476855278,中部,https://www.seiyu.co.jp/shop/%e8%a5%bf%e5%8f%8b%e4%b8%89%e6%9c%ac%e6%9f%b3%e5%ba%97/
〒386-2202　長野県上田市真田町本原614-1,Seiyu,長野県,Japan,"{'brand': 'Seiyu', 'fascia': 'Seiyu', 'category': 'Food and Beverage', 'edit_date': '2025-04-21', 'lat_lon_source': 'Website'}",36.421583,138.299594,西友真田店,"{'Mon': '00:00-24:00', 'Tue': '00:00-24:00', 'Wed': '00:00-24:00', 'Thu': '00:00-24:00', 'Fri': '00:00-24:00', 'Sat': '00:00-24:00', 'Sun': '00:00-24:00'}",0268-72-4117,〒386-2202,36.421583-138.299594,中部,https://www.seiyu.co.jp/shop/%e8%a5%bf%e5%8f%8b%e7%9c%9f%e7%94%b0%e5%ba%97/
〒390-0847　長野県松本市笹部1-5-17,Seiyu,長野県,Japan,"{'brand': 'Seiyu', 'fascia': 'Seiyu', 'category': 'Food and Beverage', 'edit_date': '2025-04-21', 'lat_lon_source': 'Website'}",36.216661404599904,137.949378490448,西友笹部店,"{'Mon': '00:00-24:00', 'Tue': '00:00-24:00', 'Wed': '00:00-24:00', 'Thu': '00:00-24:00', 'Fri': '00:00-24:00', 'Sat': '00:00-24:00', 'Sun': '00:00-24:00'}",0263-27-7411,〒390-0847,36.216661404599904-137.949378490448,中部,https://www.seiyu.co.jp/shop/%e8%a5%bf%e5%8f%8b%e7%ac%b9%e9%83%a8%e5%ba%97/
〒385-0053　長野県佐久市野沢316-1,Seiyu,長野県,Japan,"{'brand': 'Seiyu', 'fascia': 'Seiyu', 'category': 'Food and Beverage', 'edit_date': '2025-04-21', 'lat_lon_source': 'Website'}",36.227225219558456,138.4647274017334,西友佐久野沢店,"{'Mon': '00:00-24:00', 'Tue': '00:00-24:00', 'Wed': '00:00-24:00', 'Thu': '00:00-24:00', 'Fri': '00:00-24:00', 'Sat': '00:00-24:00', 'Sun': '00:00-24:00'}",0267-64-8860,〒385-0053,36.227225219558456-138.4647274017334,中部,https://www.seiyu.co.jp/shop/%e8%a5%bf%e5%8f%8b%e4%bd%90%e4%b9%85%e9%87%8e%e6%b2%a2%e5%ba%97/
〒384-0801　長野県小諸市大字甲字東原田1649-6,Seiyu,長野県,Japan,"{'brand': 'Seiyu', 'fascia': 'Seiyu', 'category': 'Food and Beverage', 'edit_date': '2025-04-21', 'lat_lon_source': 'Website'}",36.31198046698232,138.42861413955688,西友小諸小原店,"{'Mon': '00:00-24:00', 'Tue': '00:00-24:00', 'Wed': '00:00-24:00', 'Thu': '00:00-24:00', 'Fri': '00:00-24:00', 'Sat': '00:00-24:00', 'Sun': '00:00-24:00'}",0267-24-5200,〒384-0801,36.31198046698232-138.42861413955688,中部,https://www.seiyu.co.jp/shop/%e8%a5%bf%e5%8f%8b%e5%b0%8f%e8%ab%b8%e5%b0%8f%e5%8e%9f%e5%ba%97/
〒399-4117　長野県駒ヶ根市赤穂北の原14641-12,Seiyu,長野県,Japan,"{'brand': 'Seiyu', 'fascia': 'Seiyu', 'category': 'Food and Beverage', 'edit_date': '2025-04-21', 'lat_lon_source': 'Website'}",35.7418622519539,137.9401570558548,西友駒ヶ根店,"{'Mon': '00:00-24:00', 'Tue': '00:00-24:00', 'Wed': '00:00-24:00', 'Thu': '00:00-24:00', 'Fri': '00:00-24:00', 'Sat': '00:00-24:00', 'Sun': '00:00-24:00'}",0265-81-8081,〒399-4117,35.7418622519539-137.9401570558548,中部,https://www.seiyu.co.jp/shop/%e8%a5%bf%e5%8f%8b%e9%a7%92%e3%83%b6%e6%a0%b9%e5%ba%97/
〒381-2226　長野県長野市川中島町今井字薬師堂1814-1,Seiyu,長野県,Japan,"{'brand': 'Seiyu', 'fascia': 'Seiyu', 'category': 'Food and Beverage', 'edit_date': '2025-04-21', 'lat_lon_source': 'Website'}",36.5943015132788,138.15682590007782,西友川中島店,"{'Mon': '00:00-24:00', 'Tue': '00:00-24:00', 'Wed': '00:00-24:00', 'Thu': '00:00-24:00', 'Fri': '00:00-24:00', 'Sat': '00:00-24:00', 'Sun': '00:00-24:00'}",026-284-8441,〒381-2226,36.5943015132788-138.15682590007782,中部,https://www.seiyu.co.jp/shop/%e8%a5%bf%e5%8f%8b%e5%b7%9d%e4%b8%ad%e5%b3%b6%e5%ba%97/
〒389-0822　長野県千曲市大字上山田字神戸879-1,Seiyu,長野県,Japan,"{'brand': 'Seiyu', 'fascia': 'Seiyu', 'category': 'Food and Beverage', 'edit_date': '2025-04-21', 'lat_lon_source': 'Website'}",36.469257,138.150382,西友上山田店,"{'Mon': '00:00-24:00', 'Tue': '00:00-24:00', 'Wed': '00:00-24:00', 'Thu': '00:00-24:00', 'Fri': '00:00-24:00', 'Sat': '00:00-24:00', 'Sun': '00:00-24:00'}",026-276-6464,〒389-0822,36.469257-138.150382,中部,https://www.seiyu.co.jp/shop/%e8%a5%bf%e5%8f%8b%e4%b8%8a%e5%b1%b1%e7%94%b0%e5%ba%97/
〒394-0035　長野県岡谷市天竜町1-1-25,Seiyu,長野県,Japan,"{'brand': 'Seiyu', 'fascia': 'Seiyu', 'category': 'Food and Beverage', 'edit_date': '2025-04-21', 'lat_lon_source': 'Website'}",36.05550040849735,138.043754696846,西友岡谷南店,"{'Mon': '00:00-24:00', 'Tue': '00:00-24:00', 'Wed': '00:00-24:00', 'Thu': '00:00-24:00', 'Fri': '00:00-24:00', 'Sat': '00:00-24:00', 'Sun': '00:00-24:00'}",0266-24-3800,〒394-0035,36.05550040849735-138.043754696846,中部,https://www.seiyu.co.jp/shop/%e8%a5%bf%e5%8f%8b%e5%b2%a1%e8%b0%b7%e5%8d%97%e5%ba%97/
〒398-0002　長野県大町市大字大町4622-1,Seiyu,長野県,Japan,"{'brand': 'Seiyu', 'fascia': 'Seiyu', 'category': 'Food and Beverage', 'edit_date': '2025-04-21', 'lat_lon_source': 'Website'}",36.513044471275656,137.8486293554306,西友大町店,"{'Mon': '00:00-24:00', 'Tue': '00:00-24:00', 'Wed': '00:00-24:00', 'Thu': '00:00-24:00', 'Fri': '00:00-24:00', 'Sat': '00:00-24:00', 'Sun': '00:00-24:00'}",0261-23-5789,〒398-0002,36.513044471275656-137.8486293554306,中部,https://www.seiyu.co.jp/shop/%e8%a5%bf%e5%8f%8b%e5%a4%a7%e7%94%ba%e5%ba%97/
〒394-0002　長野県岡谷市赤羽3-7658-1,Seiyu,長野県,Japan,"{'brand': 'Seiyu', 'fascia': 'Seiyu', 'category': 'Food and Beverage', 'edit_date': '2025-04-21', 'lat_lon_source': 'Website'}",36.076680896280436,138.0531558394432,西友岡谷北店,"{'Mon': '00:00-24:00', 'Tue': '00:00-24:00', 'Wed': '00:00-24:00', 'Thu': '00:00-24:00', 'Fri': '00:00-24:00', 'Sat': '00:00-24:00', 'Sun': '00:00-24:00'}",0266-24-3900,〒394-0002,36.076680896280436-138.0531558394432,中部,https://www.seiyu.co.jp/shop/%e8%a5%bf%e5%8f%8b%e5%b2%a1%e8%b0%b7%e5%8c%97%e5%ba%97/
〒386-0018　長野県上田市常田3-298-5,Seiyu,長野県,Japan,"{'brand': 'Seiyu', 'fascia': 'Seiyu', 'category': 'Food and Beverage', 'edit_date': '2025-04-21', 'lat_lon_source': 'Website'}",36.39525759531925,138.26026797294617,西友上田東店,"{'Mon': '00:00-24:00', 'Tue': '00:00-24:00', 'Wed': '00:00-24:00', 'Thu': '00:00-24:00', 'Fri': '00:00-24:00', 'Sat': '00:00-24:00', 'Sun': '00:00-24:00'}",0268-21-1360,〒386-0018,36.39525759531925-138.26026797294617,中部,https://www.seiyu.co.jp/shop/%e8%a5%bf%e5%8f%8b%e4%b8%8a%e7%94%b0%e6%9d%b1%e5%ba%97/
〒385-0022　長野県佐久市大字岩村田字観音堂2119-1,Seiyu,長野県,Japan,"{'brand': 'Seiyu', 'fascia': 'Seiyu', 'category': 'Food and Beverage', 'edit_date': '2025-04-21', 'lat_lon_source': 'Website'}",36.26795243605206,138.47706019878387,西友岩村田相生店,"{'Mon': '00:00-24:00', 'Tue': '00:00-24:00', 'Wed': '00:00-24:00', 'Thu': '00:00-24:00', 'Fri': '00:00-24:00', 'Sat': '00:00-24:00', 'Sun': '00:00-24:00'}",0267-65-7330,〒385-0022,36.26795243605206-138.47706019878387,中部,https://www.seiyu.co.jp/shop/%e8%a5%bf%e5%8f%8b%e5%b2%a9%e6%9d%91%e7%94%b0%e7%9b%b8%e7%94%9f%e5%ba%97/
〒396-0011　長野県伊那市上新田2717,Seiyu,長野県,Japan,"{'brand': 'Seiyu', 'fascia': 'Seiyu', 'category': 'Food and Beverage', 'edit_date': '2025-04-21', 'lat_lon_source': 'Website'}",35.827814,137.959777,西友伊那竜東店,"{'Mon': '00:00-24:00', 'Tue': '00:00-24:00', 'Wed': '00:00-24:00', 'Thu': '00:00-24:00', 'Fri': '00:00-24:00', 'Sat': '00:00-24:00', 'Sun': '00:00-24:00'}",0265-74-9970,〒396-0011,35.827814-137.959777,中部,https://www.seiyu.co.jp/shop/%e8%a5%bf%e5%8f%8b%e4%bc%8a%e9%82%a3%e7%ab%9c%e6%9d%b1%e5%ba%97/
〒380-0958　長野県長野市伊勢宮2-27-10,Seiyu,長野県,Japan,"{'brand': 'Seiyu', 'fascia': 'Seiyu', 'category': 'Food and Beverage', 'edit_date': '2025-04-21', 'lat_lon_source': 'Website'}",36.628561,138.167817,西友伊勢宮店,"{'Mon': '00:00-24:00', 'Tue': '00:00-24:00', 'Wed': '00:00-24:00', 'Thu': '00:00-24:00', 'Fri': '00:00-24:00', 'Sat': '00:00-24:00', 'Sun': '00:00-24:00'}",026-224-2911,〒380-0958,36.628561-138.167817,中部,https://www.seiyu.co.jp/shop/%e8%a5%bf%e5%8f%8b%e4%bc%8a%e5%8b%a2%e5%ae%ae%e5%ba%97/
〒395-0152　長野県飯田市育良町1-9-8,Seiyu,長野県,Japan,"{'brand': 'Seiyu', 'fascia': 'Seiyu', 'category': 'Food and Beverage', 'edit_date': '2025-04-21', 'lat_lon_source': 'Website'}",35.50251784657466,137.79951810836792,西友伊賀良店,"{'Mon': '00:00-24:00', 'Tue': '00:00-24:00', 'Wed': '00:00-24:00', 'Thu': '00:00-24:00', 'Fri': '00:00-24:00', 'Sat': '00:00-24:00', 'Sun': '00:00-24:00'}",0265-25-0130,〒395-0152,35.50251784657466-137.79951810836792,中部,https://www.seiyu.co.jp/shop/%e8%a5%bf%e5%8f%8b%e4%bc%8a%e8%b3%80%e8%89%af%e5%ba%97/
〒395-0803　長野県飯田市鼎下山550,Seiyu,長野県,Japan,"{'brand': 'Seiyu', 'fascia': 'Seiyu', 'category': 'Food and Beverage', 'edit_date': '2025-04-21', 'lat_lon_source': 'Website'}",35.50665995219594,137.83788710832596,西友飯田鼎店,"{'Mon': '00:00-24:00', 'Tue': '00:00-24:00', 'Wed': '00:00-24:00', 'Thu': '00:00-24:00', 'Fri': '00:00-24:00', 'Sat': '00:00-24:00', 'Sun': '00:00-24:00'}",0265-56-6011,〒395-0803,35.50665995219594-137.83788710832596,中部,https://www.seiyu.co.jp/shop/%e8%a5%bf%e5%8f%8b%e9%a3%af%e7%94%b0%e9%bc%8e%e5%ba%97/
〒387-0006　長野県千曲市大字粟佐1205-1,Seiyu,長野県,Japan,"{'brand': 'Seiyu', 'fascia': 'Seiyu', 'category': 'Food and Beverage', 'edit_date': '2025-04-21', 'lat_lon_source': 'Website'}",36.539700024772785,138.12179625034332,西友粟佐店,"{'Mon': '00:00-24:00', 'Tue': '00:00-24:00', 'Wed': '00:00-24:00', 'Thu': '00:00-24:00', 'Fri': '00:00-24:00', 'Sat': '00:00-24:00', 'Sun': '00:00-24:00'}",026-273-3533,〒387-0006,36.539700024772785-138.12179625034332,中部,https://www.seiyu.co.jp/shop/%e8%a5%bf%e5%8f%8b%e7%b2%9f%e4%bd%90%e5%ba%97/
