addr_full,brand,city,country,extras,lat,lon,name,phone,ref,postcode,website
17 avenue Philéas Fogg - Pôle Jules Verne,But,GLISY,FR,"{'brand': 'But', 'facia': 'But', 'category': 'Retail', 'edit_date': '2025-03-19', 'lat_lon_source': 'website'}",49.864799444030000000,2.379527931213400000,But Amiens,,003,80440,https://www.but.fr/magasins/003/But-Amiens.html
1 rue Pierre et Marie Curie,But,BEAUVAIS,FR,"{'brand': 'But', 'facia': 'But', 'category': 'Retail', 'edit_date': '2025-03-19', 'lat_lon_source': 'website'}",49.408195606114000000,2.115049668786600000,But Beauvais,,004,60000,https://www.but.fr/magasins/004/But-Beauvais.html
Zone Actipolis,But,FOUQUIERES LES BETHUNE,FR,"{'brand': 'But', 'facia': 'But', 'category': 'Retail', 'edit_date': '2025-03-19', 'lat_lon_source': 'website'}",50.514679768756000000,2.623335289983500000,But Bethune,,005,62232,https://www.but.fr/magasins/005/But-Bethune.html
RN1,But,ISQUES,FR,"{'brand': 'But', 'facia': 'But', 'category': 'Retail', 'edit_date': '2025-03-19', 'lat_lon_source': 'website'}",50.674073127931000000,1.655151221102000000,But Boulogne sur mer,,006,62360,https://www.but.fr/magasins/006/But-Boulogne-sur-mer.html
Zone d'activité des Cailloux - 383 rue Danton -,But,CALAIS,FR,"{'brand': 'But', 'facia': 'But', 'category': 'Retail', 'edit_date': '2025-03-19', 'lat_lon_source': 'website'}",50.939000000000000000,1.847000000000000000,But Calais,,007,62100,https://www.but.fr/magasins/007/But-Calais.html
Rue des canadiens Les Vertus,But,ST AUBIN SUR SCIE,FR,"{'brand': 'But', 'facia': 'But', 'category': 'Retail', 'edit_date': '2025-03-19', 'lat_lon_source': 'website'}",49.896000000000000000,1.077000000000000000,But Dieppe,,009,76550,https://www.but.fr/magasins/009/But-Dieppe.html
Centre Carrefour – RN13 Route de Paris Les Longs Buissons,But,GUICHAINVILLE,FR,"{'brand': 'But', 'facia': 'But', 'category': 'Retail', 'edit_date': '2025-03-19', 'lat_lon_source': 'website'}",49.017000000000000000,1.150000000000000000,But Evreux,,010,27930,https://www.but.fr/magasins/010/But-Evreux.html
ZA La Marlière,But,FOURMIES,FR,"{'brand': 'But', 'facia': 'But', 'category': 'Retail', 'edit_date': '2025-03-19', 'lat_lon_source': 'website'}",50.023086163212000000,4.034187754631000000,But Fourmies,,011,59610,https://www.but.fr/magasins/011/But-Fourmies.html
11 rue Louis Bleriot Zone commerciale Vendin 2,But,VENDIN LE VEIL,FR,"{'brand': 'But', 'facia': 'But', 'category': 'Retail', 'edit_date': '2025-03-19', 'lat_lon_source': 'website'}",50.463937355984000000,2.826879937852300000,But Lens,,012,62880,https://www.but.fr/magasins/012/But-Lens.html
484 boulevard de l'europe zac de la carbonniere 3,But,BARENTIN,FR,"{'brand': 'But', 'facia': 'But', 'category': 'Retail', 'edit_date': '2025-03-19', 'lat_lon_source': 'website'}",49.527000000000000000,0.967000000000000000,But Rouen - Barentin,,015,76360,https://www.but.fr/magasins/015/But-Rouen-Barentin.html
Parc d'activités Eco-clos aux antes - centre commercial CarrefourA13,But,TOURVILLE LA RIVIèRE,FR,"{'brand': 'But', 'facia': 'But', 'category': 'Retail', 'edit_date': '2025-03-19', 'lat_lon_source': 'website'}",49.328245502182000000,1.092790222168000000,But Rouen - Tourville,,016,76410,https://www.but.fr/magasins/016/But-Rouen-Tourville.html
Z.A.C. Les marlettes Forum de Picardie,But,FAYET,FR,"{'brand': 'But', 'facia': 'But', 'category': 'Retail', 'edit_date': '2025-03-19', 'lat_lon_source': 'website'}",49.860220272752000000,3.255673091796900000,But St Quentin,,017,02100,https://www.but.fr/magasins/017/But-St-Quentin.html
RN 30,But,LA SENTINELLE,FR,"{'brand': 'But', 'facia': 'But', 'category': 'Retail', 'edit_date': '2025-03-19', 'lat_lon_source': 'website'}",50.345213898646000000,3.481118499475100000,But Valenciennes,,018,59174,https://www.but.fr/magasins/018/But-Valenciennes.html
ZAC des Montagnes Ouest Cellule C,But,CHAMPNIERS,FR,"{'brand': 'But', 'facia': 'But', 'category': 'Retail', 'edit_date': '2025-03-19', 'lat_lon_source': 'website'}",45.624593575997000000,0.159716149676230000,But Angoulême,,020,16430,https://www.but.fr/magasins/020/But-Angouleme.html
Za le petit coudray route du mans,But,ARCONNAY,FR,"{'brand': 'But', 'facia': 'But', 'category': 'Retail', 'edit_date': '2025-03-19', 'lat_lon_source': 'website'}",48.403889000000000000,0.089972000000000000,But Alençon,,024,72610,https://www.but.fr/magasins/024/But-Alencon.html
Centre Commercial ATOLL - EcoParc du Buisson,But,BEAUCOUZE,FR,"{'brand': 'But', 'facia': 'But', 'category': 'Retail', 'edit_date': '2025-03-19', 'lat_lon_source': 'website'}",47.483046806564000000,-0.624847412109380000,But Angers,,025,49070,https://www.but.fr/magasins/025/But-Angers.html
Rue Graham Bell - ZI Kergaradec,But,BREST,FR,"{'brand': 'But', 'facia': 'But', 'category': 'Retail', 'edit_date': '2025-03-19', 'lat_lon_source': 'website'}",48.424787000000000000,-4.474893000000000000,But Brest,,026,29200,https://www.but.fr/magasins/026/But-Brest.html
Centre commercial régional Mondeville 2 Zone de l'étoile,But,MONDEVILLE,FR,"{'brand': 'But', 'facia': 'But', 'category': 'Retail', 'edit_date': '2025-03-19', 'lat_lon_source': 'website'}",49.166088227342000000,-0.295779271936000000,But Caen,,027,14120,https://www.but.fr/magasins/027/But-Caen.html
Route de Saint Côme,But,CARENTAN LES MARAIS,FR,"{'brand': 'But', 'facia': 'But', 'category': 'Retail', 'edit_date': '2025-03-19', 'lat_lon_source': 'website'}",49.311429723867000000,-1.256475556156600000,But Carentan,,028,50480,https://www.but.fr/magasins/028/But-Carentan.html
2 Rue de Docteur Menguy,But,CARHAIX-PLOUGUER,FR,"{'brand': 'But', 'facia': 'But', 'category': 'Retail', 'edit_date': '2025-03-19', 'lat_lon_source': 'website'}",48.274172767138000000,-3.580035605915200000,But Carhaix,,029,29270,https://www.but.fr/magasins/029/But-Carhaix.html
Route de St NazaireBP 92,But,CHATEAUBRIANT CEDEX,FR,"{'brand': 'But', 'facia': 'But', 'category': 'Retail', 'edit_date': '2025-03-19', 'lat_lon_source': 'website'}",47.703783094781000000,-1.393763178295900000,But Chateaubriant,,032,44110,https://www.but.fr/magasins/032/But-Chateaubriant.html
Avenue amiral LemonnierZ.I. de Batavia,But,CHERBOURG EN COTENTIN,FR,"{'brand': 'But', 'facia': 'But', 'category': 'Retail', 'edit_date': '2025-03-19', 'lat_lon_source': 'website'}",49.633692396617000000,-1.602629036462400000,But Cherbourg,,033,50470,https://www.but.fr/magasins/033/But-Cherbourg.html
39 rue d'Anjou,But,CHOLET,FR,"{'brand': 'But', 'facia': 'But', 'category': 'Retail', 'edit_date': '2025-03-19', 'lat_lon_source': 'website'}",47.077876900000000000,-0.839182705557280000,But Cholet,,034,49300,https://www.but.fr/magasins/034/But-Cholet.html
Z.A.C. les vignes,But,QUEVERT,FR,"{'brand': 'But', 'facia': 'But', 'category': 'Retail', 'edit_date': '2025-03-19', 'lat_lon_source': 'website'}",48.444926398634000000,-2.070548474278400000,But Dinan,,036,22100,https://www.but.fr/magasins/036/But-Dinan.html
Zone des 3 canonsAvenue Charles de Gaulle BP 262,But,FONTENAY LE COMTE,FR,"{'brand': 'But', 'facia': 'But', 'category': 'Retail', 'edit_date': '2025-03-19', 'lat_lon_source': 'website'}",46.465835504762000000,-0.824541616015270000,But Fontenay le comte,,037,85200,https://www.but.fr/magasins/037/But-Fontenay-le-comte.html
Z.A. le parc,But,LECOUSSE,FR,"{'brand': 'But', 'facia': 'But', 'category': 'Retail', 'edit_date': '2025-03-19', 'lat_lon_source': 'website'}",48.350243070650000000,-1.226286096301000000,But Fougères,,038,35133,https://www.but.fr/magasins/038/But-Fougeres.html
435 route de Villedieu,But,GRANVILLE,FR,"{'brand': 'But', 'facia': 'But', 'category': 'Retail', 'edit_date': '2025-03-19', 'lat_lon_source': 'website'}",48.837894452338000000,-1.555657502221700000,But Granville,,039,50400,https://www.but.fr/magasins/039/But-Granville.html
Kerholo,But,ST AGATHON,FR,"{'brand': 'But', 'facia': 'But', 'category': 'Retail', 'edit_date': '2025-03-19', 'lat_lon_source': 'website'}",48.558396911789000000,-3.123469290917900000,But Guingamp,,040,22200,https://www.but.fr/magasins/040/But-Guingamp.html
Les bazinières Route de Nantes,But,LA ROCHE SUR YON,FR,"{'brand': 'But', 'facia': 'But', 'category': 'Retail', 'edit_date': '2025-03-19', 'lat_lon_source': 'website'}",46.693920388532000000,-1.430110931396499900,But La roche sur Yon,,041,85000,https://www.but.fr/magasins/041/But-La-roche-sur-Yon.html
"Centre commercial ""La Mayenne"" - Rue Duguesclin",But,LAVAL,FR,"{'brand': 'But', 'facia': 'But', 'category': 'Retail', 'edit_date': '2025-03-19', 'lat_lon_source': 'website'}",48.078765508061000000,-0.798134905310010000,But Laval,,043,53000,https://www.but.fr/magasins/043/But-Laval.html
Parc de l'estuaire,But,GONFREVILLE L ORCHER,FR,"{'brand': 'But', 'facia': 'But', 'category': 'Retail', 'edit_date': '2025-03-19', 'lat_lon_source': 'website'}",49.509726112278000000,0.224459846496530000,But Le Havre,,044,76700,https://www.but.fr/magasins/044/But-Le-Havre.html
Zone commerciale des Hunaudières ( face à Leroy Merlin ) RN138 Route de Tours,But,MULSANNE,FR,"{'brand': 'But', 'facia': 'But', 'category': 'Retail', 'edit_date': '2025-03-19', 'lat_lon_source': 'website'}",47.939807324249000000,0.233271365545650000,But Le Mans,,045,72230,https://www.but.fr/magasins/045/But-Le-Mans.html
RN 13,But,LISIEUX,FR,"{'brand': 'But', 'facia': 'But', 'category': 'Retail', 'edit_date': '2025-03-19', 'lat_lon_source': 'website'}",49.145000000000000000,0.270000000000000000,But Lisieux,,046,14100,https://www.but.fr/magasins/046/But-Lisieux.html
Rue du 19 mars 1962,But,LANESTER,FR,"{'brand': 'But', 'facia': 'But', 'category': 'Retail', 'edit_date': '2025-03-19', 'lat_lon_source': 'website'}",47.775625072997000000,-3.339881982803400000,But Lorient,,047,56600,https://www.but.fr/magasins/047/But-Lorient.html
Centre commercial Atlantis. 1 rue Amerigo Vespucci,But,SAINT HERBLAIN,FR,"{'brand': 'But', 'facia': 'But', 'category': 'Retail', 'edit_date': '2025-03-19', 'lat_lon_source': 'website'}",47.223261330377000000,-1.623947128697200000,But Nantes,,050,44800,https://www.but.fr/magasins/050/But-Nantes.html
3 rue Schuman,But,PONTIVY,FR,"{'brand': 'But', 'facia': 'But', 'category': 'Retail', 'edit_date': '2025-03-19', 'lat_lon_source': 'website'}",48.043775025433000000,-2.959917659532600000,But Pontivy,,051,56300,https://www.but.fr/magasins/051/But-Pontivy.html
2 rue François Marie André Route de Benodet,But,QUIMPER,FR,"{'brand': 'But', 'facia': 'But', 'category': 'Retail', 'edit_date': '2025-03-19', 'lat_lon_source': 'website'}",47.964000000000000000,-4.084000000000000000,But Quimper,,052,29000,https://www.but.fr/magasins/052/But-Quimper.html
Route de Rennes Zone de Cotard,But,REDON,FR,"{'brand': 'But', 'facia': 'But', 'category': 'Retail', 'edit_date': '2025-03-19', 'lat_lon_source': 'website'}",47.672542886601000000,-2.065840582953600000,But Redon,,053,35600,https://www.but.fr/magasins/053/But-Redon.html
Parc rocade sud - Rue de Guerledan,But,CHANTEPIE,FR,"{'brand': 'But', 'facia': 'But', 'category': 'Retail', 'edit_date': '2025-03-19', 'lat_lon_source': 'website'}",48.085992832982000000,-1.630871253967300000,But Rennes - Chantepie,,054,35135,https://www.but.fr/magasins/054/But-Rennes-Chantepie.html
Route de St Malo - Parc ConforlandMelesse,But,MELESSE,FR,"{'brand': 'But', 'facia': 'But', 'category': 'Retail', 'edit_date': '2025-03-19', 'lat_lon_source': 'website'}",48.189842644463000000,-1.727080466270400000,But Rennes Melesse,,055,35520,https://www.but.fr/magasins/055/But-Rennes-Melesse.html
3 rue Laennec,But,LANGEUX,FR,"{'brand': 'But', 'facia': 'But', 'category': 'Retail', 'edit_date': '2025-03-19', 'lat_lon_source': 'website'}",48.494195189682000000,-2.725073831352200000,But St Brieuc,,057,22360,https://www.but.fr/magasins/057/But-St-Brieuc.html
1980 avenue de Paris,But,ST LO,FR,"{'brand': 'But', 'facia': 'But', 'category': 'Retail', 'edit_date': '2025-03-19', 'lat_lon_source': 'website'}",49.116337143419000000,-1.047417784625300000,But St Lo,,058,50000,https://www.but.fr/magasins/058/But-St-Lo.html
Boulevard des déportés,But,ST-MALO,FR,"{'brand': 'But', 'facia': 'But', 'category': 'Retail', 'edit_date': '2025-03-19', 'lat_lon_source': 'website'}",48.658319670622000000,-1.970324277387400000,But St-Malo,,059,35400,https://www.but.fr/magasins/059/But-St-Malo.html
route de la côte d’amour /Rond point Océanis,But,ST-NAZAIRE,FR,"{'brand': 'But', 'facia': 'But', 'category': 'Retail', 'edit_date': '2025-03-19', 'lat_lon_source': 'website'}",47.258383511903000000,-2.272231597900400000,But St-Nazaire,,060,44600,https://www.but.fr/magasins/060/But-St-Nazaire.html
Parc d'activité du Champ Blanchard  - Rue du Pavé Riou,But,DISTRE,FR,"{'brand': 'But', 'facia': 'But', 'category': 'Retail', 'edit_date': '2025-03-19', 'lat_lon_source': 'website'}",47.231000000000000000,-0.123000000000000000,But Saumur,,061,49400,https://www.but.fr/magasins/061/But-Saumur.html
Z.A.C. de Kerlann 26 rue Theophraste Renaudot,But,VANNES,FR,"{'brand': 'But', 'facia': 'But', 'category': 'Retail', 'edit_date': '2025-03-19', 'lat_lon_source': 'website'}",47.663120640264000000,-2.785265842367200000,But Vannes,,062,56000,https://www.but.fr/magasins/062/But-Vannes.html
Route de Caen,But,VIRE NORMANDIE,FR,"{'brand': 'But', 'facia': 'But', 'category': 'Retail', 'edit_date': '2025-03-19', 'lat_lon_source': 'website'}",48.857732171976000000,-0.876816490985110000,But Vire,,063,14500,https://www.but.fr/magasins/063/But-Vire.html
Zone de Bel Air Boulevard Youri Gagarine,But,BRESSUIRE,FR,"{'brand': 'But', 'facia': 'But', 'category': 'Retail', 'edit_date': '2025-03-19', 'lat_lon_source': 'website'}",46.846073469623000000,-0.504464281089780030,But Bressuire,,064,79300,https://www.but.fr/magasins/064/But-Bressuire.html
ZAC du Mazaud - Av Pierre Mendes France,But,BRIVE LA GAILLARDE,FR,"{'brand': 'But', 'facia': 'But', 'category': 'Retail', 'edit_date': '2025-03-19', 'lat_lon_source': 'website'}",45.142420000000000000,1.471039000000000000,But Brive,,065,19100,https://www.but.fr/magasins/065/But-Brive.html
Avenue Honoré de BalzacRN 10 SUD,But,CHATELLERAULT,FR,"{'brand': 'But', 'facia': 'But', 'category': 'Retail', 'edit_date': '2025-03-19', 'lat_lon_source': 'website'}",46.789133177670000000,0.526194515344290000,But Chatellerault,,066,86100,https://www.but.fr/magasins/066/But-Chatellerault.html
Rue du Torpilleur Sirocco BP 184,But,CLERMONT FERRAND,FR,"{'brand': 'But', 'facia': 'But', 'category': 'Retail', 'edit_date': '2025-03-19', 'lat_lon_source': 'website'}",45.814000000000000000,3.108000000000000000,But Clermont Ferrand Nord,,067,63100,https://www.but.fr/magasins/067/But-Clermont-Ferrand-Nord.html
Rue de Varennes,But,AUBIèRE,FR,"{'brand': 'But', 'facia': 'But', 'category': 'Retail', 'edit_date': '2025-03-19', 'lat_lon_source': 'website'}",45.754282525850000000,3.131702824575800000,But Clermont Ferrand Sud,,068,63170,https://www.but.fr/magasins/068/But-Clermont-Ferrand-Sud.html
ZI Le fief du roi Chateaubernard,But,COGNAC,FR,"{'brand': 'But', 'facia': 'But', 'category': 'Retail', 'edit_date': '2025-03-19', 'lat_lon_source': 'website'}",45.680000000000000000,-0.311000000000000000,But Cognac - Chateaubernard,,069,16100,https://www.but.fr/magasins/069/But-Cognac-Chateaubernard.html
102 avenue du Limousin route de Tulle,But,GUERET,FR,"{'brand': 'But', 'facia': 'But', 'category': 'Retail', 'edit_date': '2025-03-19', 'lat_lon_source': 'website'}",46.155833000000000000,1.868611000000000000,But Gueret,,070,23000,https://www.but.fr/magasins/070/But-Gueret.html
"Centre commercial de Beaulieu, 1 rue du 11 Novembre",But,PUILBOREAU,FR,"{'brand': 'But', 'facia': 'But', 'category': 'Retail', 'edit_date': '2025-03-19', 'lat_lon_source': 'website'}",46.174474044266000000,-1.120185791679400000,But La Rochelle,,071,17138,https://www.but.fr/magasins/071/But-La-Rochelle.html
Family Village - Rue Amédée Gordini,But,LIMOGES,FR,"{'brand': 'But', 'facia': 'But', 'category': 'Retail', 'edit_date': '2025-03-19', 'lat_lon_source': 'website'}",45.897154187425000000,1.282137792419800000,But Limoges,,072,87280,https://www.but.fr/magasins/072/But-Limoges.html
Boulevard Mendès France,But,NIORT,FR,"{'brand': 'But', 'facia': 'But', 'category': 'Retail', 'edit_date': '2025-03-19', 'lat_lon_source': 'website'}",46.333214903568000000,-0.413534223556550000,But Niort,,073,79000,https://www.but.fr/magasins/073/But-Niort.html
Z.C. Les portes du futur - 6 rue du commerce -RN10,But,CHASSENEUIL DU POITOU,FR,"{'brand': 'But', 'facia': 'But', 'category': 'Retail', 'edit_date': '2025-03-19', 'lat_lon_source': 'website'}",46.647913958098000000,0.363372538996830000,But Poitiers,,074,86360,https://www.but.fr/magasins/074/But-Poitiers.html
RD 117 Route de Toulouse,But,ST LIZIER,FR,"{'brand': 'But', 'facia': 'But', 'category': 'Retail', 'edit_date': '2025-03-19', 'lat_lon_source': 'website'}",43.006235373780000000,1.125230669975300000,But St Girons,,075,09190,https://www.but.fr/magasins/075/But-St-Girons.html
Parc Atlantique - Zone commerciale Leclerc ZA LES COTTEAUX RUE BELLEGARDE,But,SAINTES,FR,"{'brand': 'But', 'facia': 'But', 'category': 'Retail', 'edit_date': '2025-03-19', 'lat_lon_source': 'website'}",45.748891443998000000,-0.674999999999950000,But Saintes,,076,17100,https://www.but.fr/magasins/076/But-Saintes.html
Centre commercial E.Leclerc Place du foirail,But,TULLE,FR,"{'brand': 'But', 'facia': 'But', 'category': 'Retail', 'edit_date': '2025-03-19', 'lat_lon_source': 'website'}",45.253130286679000000,1.762230669975200000,But Tulle,,077,19000,https://www.but.fr/magasins/077/But-Tulle.html
Lieu dit Gresailles Route  de Layrac,But,BOE,FR,"{'brand': 'But', 'facia': 'But', 'category': 'Retail', 'edit_date': '2025-03-19', 'lat_lon_source': 'website'}",44.180780717846000000,0.634160932540910000,But Agen,,078,47550,https://www.but.fr/magasins/078/But-Agen.html
Z.A. Garban Route de Castres,But,PUYGOUZON,FR,"{'brand': 'But', 'facia': 'But', 'category': 'Retail', 'edit_date': '2025-03-19', 'lat_lon_source': 'website'}",43.891033223665000000,2.164943811571700000,But Albi,,079,81120,https://www.but.fr/magasins/079/But-Albi.html
Avenue Roger Maylie Zone commerciale BAB2,But,BAYONNE,FR,"{'brand': 'But', 'facia': 'But', 'category': 'Retail', 'edit_date': '2025-03-19', 'lat_lon_source': 'website'}",43.489880539738000000,-1.494872550926200000,But Bayonne,,080,64100,https://www.but.fr/magasins/080/But-Bayonne.html
Route de Bordeaux,But,BERGERAC,FR,"{'brand': 'But', 'facia': 'But', 'category': 'Retail', 'edit_date': '2025-03-19', 'lat_lon_source': 'website'}",44.837979969131000000,0.457462688668780000,But Bergerac,,081,24100,https://www.but.fr/magasins/081/But-Bergerac.html
Avenue de PeyrouRoute de Libourne,But,ARTIGUES,FR,"{'brand': 'But', 'facia': 'But', 'category': 'Retail', 'edit_date': '2025-03-19', 'lat_lon_source': 'website'}",44.868668881660000000,-0.493627176017870000,But Bordeaux - Artigues,,082,33370,https://www.but.fr/magasins/082/But-Bordeaux-Artigues.html
RN 113 - 3271 avenue de TOULOUSE Le Bouscault - Cadaujac,But,CADAUJAC,FR,"{'brand': 'But', 'facia': 'But', 'category': 'Retail', 'edit_date': '2025-03-19', 'lat_lon_source': 'website'}",44.733000000000000000,-0.534000000000000000,But Bordeaux - Cadaujac,,083,33140,https://www.but.fr/magasins/083/But-Bordeaux-Cadaujac.html
26 avenue Jean Perrin,But,MERIGNAC,FR,"{'brand': 'But', 'facia': 'But', 'category': 'Retail', 'edit_date': '2025-03-19', 'lat_lon_source': 'website'}",44.834973371124000000,-0.670688863754320000,But Bordeaux - Merignac,,084,33700,https://www.but.fr/magasins/084/But-Bordeaux-Merignac.html
Route de Toulouse,But,CAHORS,FR,"{'brand': 'But', 'facia': 'But', 'category': 'Retail', 'edit_date': '2025-03-19', 'lat_lon_source': 'website'}",44.427614778201000000,1.441790904850900000,But Cahors,,085,46000,https://www.but.fr/magasins/085/But-Cahors.html
Z.A.E. La Ferraudière 2,But,CARCASSONNE,FR,"{'brand': 'But', 'facia': 'But', 'category': 'Retail', 'edit_date': '2025-03-19', 'lat_lon_source': 'website'}",43.205720454625000000,2.308106848313200000,But Carcassonne,,086,11000,https://www.but.fr/magasins/086/But-Carcassonne.html
2477 avenue de la Résistance,But,ST PAUL LES DAX,FR,"{'brand': 'But', 'facia': 'But', 'category': 'Retail', 'edit_date': '2025-03-19', 'lat_lon_source': 'website'}",43.726845567413000000,-1.081732283467100000,But Dax,,088,40990,https://www.but.fr/magasins/088/But-Dax.html
Avenue de Cahors ( près usine Ratier),But,FIGEAC,FR,"{'brand': 'But', 'facia': 'But', 'category': 'Retail', 'edit_date': '2025-03-19', 'lat_lon_source': 'website'}",44.603170185956000000,2.012042915344200000,But Figeac,,089,46100,https://www.but.fr/magasins/089/But-Figeac.html
RN 20 Peysales,But,FOIX,FR,"{'brand': 'But', 'facia': 'But', 'category': 'Retail', 'edit_date': '2025-03-19', 'lat_lon_source': 'website'}",42.949784043323000000,1.625603033065800000,But Foix,,090,09000,https://www.but.fr/magasins/090/But-Foix.html
RN 113Z.I. Frimont,But,GIRONDE SUR DROPT,FR,"{'brand': 'But', 'facia': 'But', 'category': 'Retail', 'edit_date': '2025-03-19', 'lat_lon_source': 'website'}",44.584344672312000000,-0.069593924575770000,But La Reole,,091,33190,https://www.but.fr/magasins/091/But-La-Reole.html
"RN 89 LIEU DIT ""LES PELLES""",But,ARVEYRES,FR,"{'brand': 'But', 'facia': 'But', 'category': 'Retail', 'edit_date': '2025-03-19', 'lat_lon_source': 'website'}",44.897412000000000000,-0.270174000000000000,But Libourne,,093,33500,https://www.but.fr/magasins/093/But-Libourne.html
1195 Avenue du marechal Juin,But,MONT-DE-MARSAN,FR,"{'brand': 'But', 'facia': 'But', 'category': 'Retail', 'edit_date': '2025-03-19', 'lat_lon_source': 'website'}",43.905298000000000000,-0.476342000000000000,But Mont-de-Marsan,,094,40000,https://www.but.fr/magasins/094/But-Mont-de-Marsan.html
Centre commercial Pyre-Sud,But,PAMIERS,FR,"{'brand': 'But', 'facia': 'But', 'category': 'Retail', 'edit_date': '2025-03-19', 'lat_lon_source': 'website'}",43.100910956777000000,1.623430579376200000,But Pamiers,,095,09100,https://www.but.fr/magasins/095/But-Pamiers.html
Centre commercial de la feuilleraie  BP 101,But,TRELISSAC,FR,"{'brand': 'But', 'facia': 'But', 'category': 'Retail', 'edit_date': '2025-03-19', 'lat_lon_source': 'website'}",45.190207933541000000,0.767010728836110000,But Périgueux,,096,24750,https://www.but.fr/magasins/096/But-Perigueux.html
Route de Pau,But,IBOS,FR,"{'brand': 'But', 'facia': 'But', 'category': 'Retail', 'edit_date': '2025-03-19', 'lat_lon_source': 'website'}",43.240000000000000000,0.020000000000000000,But Tarbes,,097,65420,https://www.but.fr/magasins/097/But-Tarbes.html
"71, rue Max Planck",But,LABèGE,FR,"{'brand': 'But', 'facia': 'But', 'category': 'Retail', 'edit_date': '2025-03-19', 'lat_lon_source': 'website'}",43.551932000000000000,1.511078000000000000,But Toulouse - Labege,,098,31670,https://www.but.fr/magasins/098/But-Toulouse-Labege.html
33 route de ParisLieu dit Lacourtensour - RN 20,But,AUCAMVILLE,FR,"{'brand': 'But', 'facia': 'But', 'category': 'Retail', 'edit_date': '2025-03-19', 'lat_lon_source': 'website'}",43.669433374369000000,1.411174531390000000,But Toulouse nord,,099,31140,https://www.but.fr/magasins/099/But-Toulouse-nord.html
avenue du Quercy,But,VILLEFRANCHE DE ROUERGUE,FR,"{'brand': 'But', 'facia': 'But', 'category': 'Retail', 'edit_date': '2025-03-19', 'lat_lon_source': 'website'}",44.360281000000000000,2.015724000000000000,But Villefranche de Rouergue,,101,12200,https://www.but.fr/magasins/101/But-Villefranche-de-Rouergue.html
Route de Bordeaux BIAS,But,BIAS,FR,"{'brand': 'But', 'facia': 'But', 'category': 'Retail', 'edit_date': '2025-03-19', 'lat_lon_source': 'website'}",44.402000000000000000,0.650000000000000000,But Villeneuve sur Lot,,102,47300,https://www.but.fr/magasins/102/But-Villeneuve-sur-Lot.html
Z.A.C. des Perrières Rue Bernard Palissy,But,VINEUIL,FR,"{'brand': 'But', 'facia': 'But', 'category': 'Retail', 'edit_date': '2025-03-19', 'lat_lon_source': 'website'}",47.571000000000000000,1.369000000000000000,But Blois Vineuil,,103,41350,https://www.but.fr/magasins/103/But-Blois-Vineuil.html
Route de la charité,But,BOURGES,FR,"{'brand': 'But', 'facia': 'But', 'category': 'Retail', 'edit_date': '2025-03-19', 'lat_lon_source': 'website'}",47.095482095954000000,2.434249973910500000,But Bourges,,104,18000,https://www.but.fr/magasins/104/But-Bourges.html
1 Rue Raoul Ponchon,But,CHALON SUR SAONE,FR,"{'brand': 'But', 'facia': 'But', 'category': 'Retail', 'edit_date': '2025-03-19', 'lat_lon_source': 'website'}",46.793081828115000000,4.833984375000000000,But Chalon sur Saone,,105,71100,https://www.but.fr/magasins/105/But-Chalon-sur-Saone.html
Z.U.P. la madeleine - Avenue de Sully,But,CHARTRES,FR,"{'brand': 'But', 'facia': 'But', 'category': 'Retail', 'edit_date': '2025-03-19', 'lat_lon_source': 'website'}",48.451451674133000000,1.521473924636900000,But Chartres,,106,28000,https://www.but.fr/magasins/106/But-Chartres.html
"RN 10, Route de tours",But,CHATEAUDUN,FR,"{'brand': 'But', 'facia': 'But', 'category': 'Retail', 'edit_date': '2025-03-19', 'lat_lon_source': 'website'}",48.059336417129000000,1.328489452362100000,But Chateaudun,,107,28200,https://www.but.fr/magasins/107/But-Chateaudun.html
"111, avenue d'Occitanie Cap Sud",But,ST MAUR,FR,"{'brand': 'But', 'facia': 'But', 'category': 'Retail', 'edit_date': '2025-03-19', 'lat_lon_source': 'website'}",46.776211052565000000,1.649500897503000000,But Chateauroux,,108,36250,https://www.but.fr/magasins/108/But-Chateauroux.html
"ZAC des charmes, Avenue de l'Europe",But,DIGOIN,FR,"{'brand': 'But', 'facia': 'But', 'category': 'Retail', 'edit_date': '2025-03-19', 'lat_lon_source': 'website'}",46.465304000000000000,4.108511000000000000,But Digoin,,110,71160,https://www.but.fr/magasins/110/But-Digoin.html
26 rue des bas buissons - Zone commerciale CORA,But,DREUX,FR,"{'brand': 'But', 'facia': 'But', 'category': 'Retail', 'edit_date': '2025-03-19', 'lat_lon_source': 'website'}",48.749717771462000000,1.347536805340600000,But Dreux,,111,28100,https://www.but.fr/magasins/111/But-Dreux.html
RN 6 Z.A.C. des bouchardes BP 9,But,CRêCHES SUR SAONE CEDEX,FR,"{'brand': 'But', 'facia': 'But', 'category': 'Retail', 'edit_date': '2025-03-19', 'lat_lon_source': 'website'}",46.253509136327000000,4.790456541061400000,But Macon,,112,71680,https://www.but.fr/magasins/112/But-Macon.html
Avenue d'Antibes KM 110,But,AMILLY,FR,"{'brand': 'But', 'facia': 'But', 'category': 'Retail', 'edit_date': '2025-03-19', 'lat_lon_source': 'website'}",47.978309038196000000,2.732691615160200000,But Montargis,,113,45200,https://www.but.fr/magasins/113/But-Montargis.html
ZI du bois du verneRoute de Soisson,But,MONTCEAU LES MINES,FR,"{'brand': 'But', 'facia': 'But', 'category': 'Retail', 'edit_date': '2025-03-19', 'lat_lon_source': 'website'}",46.689353046409000000,4.359675177946200000,But Montceau les mines,,114,71300,https://www.but.fr/magasins/114/But-Montceau-les-mines.html
70 boulevard Camille Dagonneau,But,VARENNES - VAUZELLES,FR,"{'brand': 'But', 'facia': 'But', 'category': 'Retail', 'edit_date': '2025-03-19', 'lat_lon_source': 'website'}",47.018604161810000000,3.148347279229100000,But Nevers,,115,58640,https://www.but.fr/magasins/115/But-Nevers.html
31 avenue de Paris - Margon,But,NOGENT LE ROTROU,FR,"{'brand': 'But', 'facia': 'But', 'category': 'Retail', 'edit_date': '2025-03-19', 'lat_lon_source': 'website'}",48.328777869484000000,0.828872157147200000,But Nogent le Rotrou,,116,28400,https://www.but.fr/magasins/116/But-Nogent-le-Rotrou.html
280 Rue d'Artois,But,OLIVET,FR,"{'brand': 'But', 'facia': 'But', 'category': 'Retail', 'edit_date': '2025-03-19', 'lat_lon_source': 'website'}",47.844963997310000000,1.915388456344500000,But Orléans,,117,45160,https://www.but.fr/magasins/117/But-Orleans.html
Avenue du 8 mai route de Malesherbes,But,PITHIVIERS,FR,"{'brand': 'But', 'facia': 'But', 'category': 'Retail', 'edit_date': '2025-03-19', 'lat_lon_source': 'website'}",48.179812684864000000,2.257744209014800000,But Pithiviers,,118,45300,https://www.but.fr/magasins/118/But-Pithiviers.html
35 avenue de Paris,But,ROMORANTIN LANTHENAY,FR,"{'brand': 'But', 'facia': 'But', 'category': 'Retail', 'edit_date': '2025-03-19', 'lat_lon_source': 'website'}",47.372687569154000000,1.737871253967300000,But Romorantin,,119,41200,https://www.but.fr/magasins/119/But-Romorantin.html
Route de Paris,But,ST CLéMENT,FR,"{'brand': 'But', 'facia': 'But', 'category': 'Retail', 'edit_date': '2025-03-19', 'lat_lon_source': 'website'}",48.215696817627000000,3.276834557502800000,But Sens,,120,89100,https://www.but.fr/magasins/120/But-Sens.html
RN 10 89 avenue du grand sud,But,CHAMBRAY LES TOURS,FR,"{'brand': 'But', 'facia': 'But', 'category': 'Retail', 'edit_date': '2025-03-19', 'lat_lon_source': 'website'}",47.340000000000000000,0.704000000000000000,But Tours,,121,37170,https://www.but.fr/magasins/121/But-Tours.html
Zone commerciale RN 10,But,VILLERABLE,FR,"{'brand': 'But', 'facia': 'But', 'category': 'Retail', 'edit_date': '2025-03-19', 'lat_lon_source': 'website'}",47.761839273909000000,1.050700337634200000,But Vendome,,122,41100,https://www.but.fr/magasins/122/But-Vendome.html
Route de Neuvy,But,VIERZON,FR,"{'brand': 'But', 'facia': 'But', 'category': 'Retail', 'edit_date': '2025-03-19', 'lat_lon_source': 'website'}",47.239532285603000000,2.091089794351200000,But Vierzon,,123,18100,https://www.but.fr/magasins/123/But-Vierzon.html
10 route de Grignon,But,ALBERTVILLE,FR,"{'brand': 'But', 'facia': 'But', 'category': 'Retail', 'edit_date': '2025-03-19', 'lat_lon_source': 'website'}",45.661449902672000000,6.387482797622600000,But Albertville,,124,73200,https://www.but.fr/magasins/124/But-Albertville.html
ZI avenue de la libération,But,AMBERIEU EN BUGEY,FR,"{'brand': 'But', 'facia': 'But', 'category': 'Retail', 'edit_date': '2025-03-19', 'lat_lon_source': 'website'}",45.961000000000000000,5.340000000000000000,But Amberieu,,125,01500,https://www.but.fr/magasins/125/But-Amberieu.html
Centre commercial Le grand epagny,But,SILLINGY,FR,"{'brand': 'But', 'facia': 'But', 'category': 'Retail', 'edit_date': '2025-03-19', 'lat_lon_source': 'website'}",45.946000000000000000,6.035000000000000000,But Annecy-Sillingy,,126,74330,https://www.but.fr/magasins/126/But-Annecy-Sillingy.html
"5, rue de Montréal",But,VILLE LA GRAND,FR,"{'brand': 'But', 'facia': 'But', 'category': 'Retail', 'edit_date': '2025-03-19', 'lat_lon_source': 'website'}",46.203473200000000000,6.275548900000000000,But Annemasse,,127,74100,https://www.but.fr/magasins/127/But-Annemasse.html
ZAC de Jonchain Nord,But,SALAISE SUR SANNE,FR,"{'brand': 'But', 'facia': 'But', 'category': 'Retail', 'edit_date': '2025-03-19', 'lat_lon_source': 'website'}",45.344279006983000000,4.805495744705200000,But Salaise,,128,38150,https://www.but.fr/magasins/128/But-Salaise.html
1200 route d'Alès,But,LACHAPELLE SOUS AUBENAS,FR,"{'brand': 'But', 'facia': 'But', 'category': 'Retail', 'edit_date': '2025-03-19', 'lat_lon_source': 'website'}",44.617000000000000000,4.383000000000000000,But Aubenas,,129,07200,https://www.but.fr/magasins/129/But-Aubenas.html
126 avenue Charles de Gaulle ,But,AURILLAC,FR,"{'brand': 'But', 'facia': 'But', 'category': 'Retail', 'edit_date': '2025-03-19', 'lat_lon_source': 'website'}",44.909225398021000000,2.423241063102600000,But Aurillac,,130,15000,https://www.but.fr/magasins/130/But-Aurillac.html
Rue des prés de Brou,But,BOURG EN BRESSE,FR,"{'brand': 'But', 'facia': 'But', 'category': 'Retail', 'edit_date': '2025-03-19', 'lat_lon_source': 'website'}",46.200000000000000000,5.217000000000000000,But Bourg en Bresse,,131,01000,https://www.but.fr/magasins/131/But-Bourg-en-Bresse.html
170 rue Nouvelle,But,DOMARIN,FR,"{'brand': 'But', 'facia': 'But', 'category': 'Retail', 'edit_date': '2025-03-19', 'lat_lon_source': 'website'}",45.589109000000000000,5.245910000000000000,But Bourgoin,,132,38300,https://www.but.fr/magasins/132/But-Bourgoin.html
RN 102 route de CLERMONT,But,BRIOUDE,FR,"{'brand': 'But', 'facia': 'But', 'category': 'Retail', 'edit_date': '2025-03-19', 'lat_lon_source': 'website'}",45.315120713627000000,3.373032186508200000,But Brioude,,133,43100,https://www.but.fr/magasins/133/But-Brioude.html
1135 rue JUMEL,But,CLUSES,FR,"{'brand': 'But', 'facia': 'But', 'category': 'Retail', 'edit_date': '2025-03-19', 'lat_lon_source': 'website'}",46.050265851871000000,6.591379380226200000,But Cluses,,135,74300,https://www.but.fr/magasins/135/But-Cluses.html
"75, rue des javaux",But,EYBENS,FR,"{'brand': 'But', 'facia': 'But', 'category': 'Retail', 'edit_date': '2025-03-19', 'lat_lon_source': 'website'}",45.154332051249000000,5.745678142327800000,But Grenoble Eybens,,138,38320,https://www.but.fr/magasins/138/But-Grenoble-Eybens.html
"Zone commerciale ""Le Chirel""",But,LE PUY-EN-VELAY,FR,"{'brand': 'But', 'facia': 'But', 'category': 'Retail', 'edit_date': '2025-03-19', 'lat_lon_source': 'website'}",45.022677676755000000,3.882503955567700000,But Le Puy,,139,43000,https://www.but.fr/magasins/139/But-Le-Puy.html
192 route de Grenoble,But,ST PRIEST,FR,"{'brand': 'But', 'facia': 'But', 'category': 'Retail', 'edit_date': '2025-03-19', 'lat_lon_source': 'website'}",45.714592566708000000,4.966356754303000000,But Lyon,,140,69800,https://www.but.fr/magasins/140/But-Lyon.html
Z.I.sudBP 107 MONTELIMAR Cedex,But,MONTELIMAR,FR,"{'brand': 'But', 'facia': 'But', 'category': 'Retail', 'edit_date': '2025-03-19', 'lat_lon_source': 'website'}",44.532330038910000000,4.740752593948400000,But Montelimar,,141,26200,https://www.but.fr/magasins/141/But-Montelimar.html
Rue Albert Einstein,But,MONTLUCON,FR,"{'brand': 'But', 'facia': 'But', 'category': 'Retail', 'edit_date': '2025-03-19', 'lat_lon_source': 'website'}",46.333000000000000000,2.600000000000000000,But Montlucon,,142,03100,https://www.but.fr/magasins/142/But-Montlucon.html
RD 707 - Fromenteau,But,TOULON SUR ALLIER,FR,"{'brand': 'But', 'facia': 'But', 'category': 'Retail', 'edit_date': '2025-03-19', 'lat_lon_source': 'website'}",46.536848911636000000,3.346275921914400000,But Moulins,,143,03400,https://www.but.fr/magasins/143/But-Moulins.html
210 avenue de la libération,But,LE COTEAU,FR,"{'brand': 'But', 'facia': 'But', 'category': 'Retail', 'edit_date': '2025-03-19', 'lat_lon_source': 'website'}",46.013411400000000000,4.093599100000000000,But Roanne,,144,42120,https://www.but.fr/magasins/144/But-Roanne.html
"40 B, Route des Chasses",But,ST PAUL LES ROMANS,FR,"{'brand': 'But', 'facia': 'But', 'category': 'Retail', 'edit_date': '2025-03-19', 'lat_lon_source': 'website'}",45.057966923133000000,5.098672260964800000,But Romans,,145,26750,https://www.but.fr/magasins/145/But-Romans.html
RN 82,But,LA FOUILLOUSE,FR,"{'brand': 'But', 'facia': 'But', 'category': 'Retail', 'edit_date': '2025-03-19', 'lat_lon_source': 'website'}",45.482648824342000000,4.348097531318700000,But St Etienne,,146,42480,https://www.but.fr/magasins/146/But-St-Etienne.html
Centre commercial de la font long,But,ST FLOUR,FR,"{'brand': 'But', 'facia': 'But', 'category': 'Retail', 'edit_date': '2025-03-19', 'lat_lon_source': 'website'}",45.038000000000000000,3.090000000000000000,But St Flour,,147,15100,https://www.but.fr/magasins/147/But-St-Flour.html
Boulevard du Pré Biollat,But,ANTHY SUR LéMAN,FR,"{'brand': 'But', 'facia': 'But', 'category': 'Retail', 'edit_date': '2025-03-19', 'lat_lon_source': 'website'}",46.349357000000000000,6.437789000000000000,But Thonon-Les-Bains,,149,74200,https://www.but.fr/magasins/149/But-Thonon-Les-Bains.html
560 Avenue Salvador Allende,But,PORTE LES VALENCE,FR,"{'brand': 'But', 'facia': 'But', 'category': 'Retail', 'edit_date': '2025-03-19', 'lat_lon_source': 'website'}",44.888851800521000000,4.879525069836400000,But Valence,,150,26800,https://www.but.fr/magasins/150/But-Valence.html
Route de Bourg Z.I. blanchisserie,But,VOIRON,FR,"{'brand': 'But', 'facia': 'But', 'category': 'Retail', 'edit_date': '2025-03-19', 'lat_lon_source': 'website'}",45.381143180358000000,5.579820291996000000,But Voiron,,152,38500,https://www.but.fr/magasins/152/But-Voiron.html
"Centre commercial ""Croix Dampierre"" Avenue Mercuria",But,ST MEMMIE,FR,"{'brand': 'But', 'facia': 'But', 'category': 'Retail', 'edit_date': '2025-03-19', 'lat_lon_source': 'website'}",48.945321054679000000,4.385042128260000000,But Chalons en Champagne,,154,51470,https://www.but.fr/magasins/154/But-Chalons-en-Champagne.html
Centre commercial des Ayvelles,But,VILLERS SEMEUSE,FR,"{'brand': 'But', 'facia': 'But', 'category': 'Retail', 'edit_date': '2025-03-19', 'lat_lon_source': 'website'}",49.732157440299000000,4.753926753997800000,But Charleville Mezières,,155,08000,https://www.but.fr/magasins/155/But-Charleville-Mezieres.html
Faubourg du moulin neuf,But,CHAUMONT,FR,"{'brand': 'But', 'facia': 'But', 'category': 'Retail', 'edit_date': '2025-03-19', 'lat_lon_source': 'website'}",48.122555856713000000,5.149299126580400000,But Chaumont,,156,52000,https://www.but.fr/magasins/156/But-Chaumont.html
Zone commerciale,But,CHOISEY,FR,"{'brand': 'But', 'facia': 'But', 'category': 'Retail', 'edit_date': '2025-03-19', 'lat_lon_source': 'website'}",47.064193704803000000,5.454168312072700000,But Dole,,158,39100,https://www.but.fr/magasins/158/But-Dole.html
Route de Cumières,But,DIZY,FR,"{'brand': 'But', 'facia': 'But', 'category': 'Retail', 'edit_date': '2025-03-19', 'lat_lon_source': 'website'}",49.065621000000000000,3.961694000000000000,But Epernay,,159,51530,https://www.but.fr/magasins/159/But-Epernay.html
"26 rue de la  Bazaine, Parc économique Le saut le cerf",But,EPINAL,FR,"{'brand': 'But', 'facia': 'But', 'category': 'Retail', 'edit_date': '2025-03-19', 'lat_lon_source': 'website'}",48.198283010848000000,6.469147988022800000,But Epinal,,160,88000,https://www.but.fr/magasins/160/But-Epinal.html
Z.A.C. Gray sud,But,GRAY,FR,"{'brand': 'But', 'facia': 'But', 'category': 'Retail', 'edit_date': '2025-03-19', 'lat_lon_source': 'website'}",47.436611749611000000,5.599965131282800000,But Gray,,162,70100,https://www.but.fr/magasins/162/But-Gray.html
Z.I. de Sts Geosmes,But,LANGRES,FR,"{'brand': 'But', 'facia': 'But', 'category': 'Retail', 'edit_date': '2025-03-19', 'lat_lon_source': 'website'}",47.831341219483000000,5.336455356900000000,But Langres,,164,52200,https://www.but.fr/magasins/164/But-Langres.html
92 rue de Longwy,But,LEXY,FR,"{'brand': 'But', 'facia': 'But', 'category': 'Retail', 'edit_date': '2025-03-19', 'lat_lon_source': 'website'}",49.513714407051000000,5.735743214352900000,But Longwy,,165,54720,https://www.but.fr/magasins/165/But-Longwy.html
Espace commercial Chantrans Route de bourg en Bresse - RN 83,But,MONTMOROT,FR,"{'brand': 'But', 'facia': 'But', 'category': 'Retail', 'edit_date': '2025-03-19', 'lat_lon_source': 'website'}",46.671635587316000000,5.527246763229400000,But Lons le Saunier,,166,39570,https://www.but.fr/magasins/166/But-Lons-le-Saunier.html
Actisud zone St JEAN,But,JOUY AUX ARCHES,FR,"{'brand': 'But', 'facia': 'But', 'category': 'Retail', 'edit_date': '2025-03-19', 'lat_lon_source': 'website'}",49.077579795200000000,6.099806880950900000,But Metz,,168,57130,https://www.but.fr/magasins/168/But-Metz.html
1 Route de Delle - Carrefour des oeufs frais,But,SEVENANS,FR,"{'brand': 'But', 'facia': 'But', 'category': 'Retail', 'edit_date': '2025-03-19', 'lat_lon_source': 'website'}",47.483000000000000000,6.833000000000000000,But Belfort,,169,90400,https://www.but.fr/magasins/169/But-Belfort.html
95 rue de Guebwiller,But,KINGERSHEIM,FR,"{'brand': 'But', 'facia': 'But', 'category': 'Retail', 'edit_date': '2025-03-19', 'lat_lon_source': 'website'}",47.792681182840000000,7.314231875491100000,But Mulhouse,,170,68260,https://www.but.fr/magasins/170/But-Mulhouse.html
Rue Pierre Dechanet Zone commerciale LES GRANDS PLANCHANTS,But,PONTARLIER,FR,"{'brand': 'But', 'facia': 'But', 'category': 'Retail', 'edit_date': '2025-03-19', 'lat_lon_source': 'website'}",46.903887623513000000,6.332858887696800000,But Pontarlier,,172,25300,https://www.but.fr/magasins/172/But-Pontarlier.html
Avenue des Goisses - ZA des Blancs Monts,But,CORMONTREUIL,FR,"{'brand': 'But', 'facia': 'But', 'category': 'Retail', 'edit_date': '2025-03-19', 'lat_lon_source': 'website'}",49.214257000000000000,4.061198000000000000,But Reims Cormontreuil,,173,51350,https://www.but.fr/magasins/173/But-Reims-Cormontreuil.html
"520, rue du haut des rangs",But,DOMMARTIN LES REMIREMONT,FR,"{'brand': 'But', 'facia': 'But', 'category': 'Retail', 'edit_date': '2025-03-19', 'lat_lon_source': 'website'}",48.011636000000000000,6.604048000000000000,But Remiremont,,174,88200,https://www.but.fr/magasins/174/But-Remiremont.html
6 bvd Antoine de St Exupery,But,MAIZIèRES LA GRANDE PAROISSE,FR,"{'brand': 'But', 'facia': 'But', 'category': 'Retail', 'edit_date': '2025-03-19', 'lat_lon_source': 'website'}",48.510583771884000000,3.716449807304700000,But Romilly,,175,10510,https://www.but.fr/magasins/175/But-Romilly.html
ZAC du Chêne Saint Amand,But,ST DIZIER,FR,"{'brand': 'But', 'facia': 'But', 'category': 'Retail', 'edit_date': '2025-03-19', 'lat_lon_source': 'website'}",48.623621017039000000,4.967959665844500000,But St Dizier,,177,52100,https://www.but.fr/magasins/177/But-St-Dizier.html
Rte de Sarrebourg,But,IMLING,FR,"{'brand': 'But', 'facia': 'But', 'category': 'Retail', 'edit_date': '2025-03-19', 'lat_lon_source': 'website'}",48.724859000000000000,7.020043000000000000,But Sarrebourg,,178,57400,https://www.but.fr/magasins/178/But-Sarrebourg.html
Rue Lamy,But,SARREGUEMINES,FR,"{'brand': 'But', 'facia': 'But', 'category': 'Retail', 'edit_date': '2025-03-19', 'lat_lon_source': 'website'}",49.115446132606000000,7.093123938900800000,But Sarreguemines,,179,57200,https://www.but.fr/magasins/179/But-Sarreguemines.html
6 rue Westrich Z.I. nord,But,SELESTAT,FR,"{'brand': 'But', 'facia': 'But', 'category': 'Retail', 'edit_date': '2025-03-19', 'lat_lon_source': 'website'}",48.280259909792000000,7.464671259663400000,But Selestat,,180,67600,https://www.but.fr/magasins/180/But-Selestat.html
36 route de strasbourg,But,VENDENHEIM,FR,"{'brand': 'But', 'facia': 'But', 'category': 'Retail', 'edit_date': '2025-03-19', 'lat_lon_source': 'website'}",48.658889776106000000,7.720972595770300000,But Strasbourg nord,,181,67550,https://www.but.fr/magasins/181/But-Strasbourg-nord.html
2 rue de Brack,But,ST AVOLD,FR,"{'brand': 'But', 'facia': 'But', 'category': 'Retail', 'edit_date': '2025-03-19', 'lat_lon_source': 'website'}",49.115181520484000000,6.709013148496500000,But St Avold,,183,57500,https://www.but.fr/magasins/183/But-St-Avold.html
Rue du Linkling ZI du Linkling,But,TERVILLE,FR,"{'brand': 'But', 'facia': 'But', 'category': 'Retail', 'edit_date': '2025-03-19', 'lat_lon_source': 'website'}",49.352244046454000000,6.137000419012000000,But Thionville,,184,57180,https://www.but.fr/magasins/184/But-Thionville.html
Centre commercial L'aire des moissons RN 19,But,ST PARRES AUX TERTRES,FR,"{'brand': 'But', 'facia': 'But', 'category': 'Retail', 'edit_date': '2025-03-19', 'lat_lon_source': 'website'}",48.296052692787000000,4.129401678897700000,But Troyes,,185,10410,https://www.but.fr/magasins/185/But-Troyes.html
Z.I. avenue d'Etain,But,VERDUN,FR,"{'brand': 'But', 'facia': 'But', 'category': 'Retail', 'edit_date': '2025-03-19', 'lat_lon_source': 'website'}",49.163912637405000000,5.414246849737500000,But Verdun,,186,55100,https://www.but.fr/magasins/186/But-Verdun.html
Z.I. de la fosse Barbière,But,AULNAY SOUS BOIS,FR,"{'brand': 'But', 'facia': 'But', 'category': 'Retail', 'edit_date': '2025-03-19', 'lat_lon_source': 'website'}",48.954605472443000000,2.480107288360600000,But Aulnay sous bois,,188,93600,https://www.but.fr/magasins/188/But-Aulnay-sous-bois.html
4-7 allée des Platanes,But,FRESNES,FR,"{'brand': 'But', 'facia': 'But', 'category': 'Retail', 'edit_date': '2025-03-19', 'lat_lon_source': 'website'}",48.757816384412000000,2.330587909787000000,But Fresnes,,192,94260,https://www.but.fr/magasins/192/But-Fresnes.html
Route de noiseau RN 4 La Croix St Nicolas entre Pontault-Combault et Ormesson,But,LA QUEUE EN BRIE,FR,"{'brand': 'But', 'facia': 'But', 'category': 'Retail', 'edit_date': '2025-03-19', 'lat_lon_source': 'website'}",48.781448575429000000,2.569679062843300000,But La Queue en Brie,,194,94510,https://www.but.fr/magasins/194/But-La-Queue-en-Brie.html
171 avenue du Béarn,But,BUCHELAY,FR,"{'brand': 'But', 'facia': 'But', 'category': 'Retail', 'edit_date': '2025-03-19', 'lat_lon_source': 'website'}",48.989507000000000000,1.663849000000000000,But Mantes la jolie - Buchelay,,195,78200,https://www.but.fr/magasins/195/But-Mantes-la-jolie-Buchelay.html
Route de Sens,But,NEMOURS,FR,"{'brand': 'But', 'facia': 'But', 'category': 'Retail', 'edit_date': '2025-03-19', 'lat_lon_source': 'website'}",48.259826928291000000,2.717306360821600000,But Nemours,,199,77140,https://www.but.fr/magasins/199/But-Nemours.html
Parc d'activité de l'Oseraie,But,OSNY,FR,"{'brand': 'But', 'facia': 'But', 'category': 'Retail', 'edit_date': '2025-03-19', 'lat_lon_source': 'website'}",49.075792000000000000,2.080039000000000000,But Pontoise,,201,95520,https://www.but.fr/magasins/201/But-Pontoise.html
7 rue Marcel Vatelot,But,PROVINS,FR,"{'brand': 'But', 'facia': 'But', 'category': 'Retail', 'edit_date': '2025-03-19', 'lat_lon_source': 'website'}",48.551879629937000000,3.299831348548900000,But Provins,,202,77160,https://www.but.fr/magasins/202/But-Provins.html
38-40 avenue de Hurepoix Z.A.C. de la Croix blanche,But,STE GENEVIEVE DES BOIS,FR,"{'brand': 'But', 'facia': 'But', 'category': 'Retail', 'edit_date': '2025-03-19', 'lat_lon_source': 'website'}",48.622873899399000000,2.350835064235000000,But Ste Genevieve des bois,,203,91700,https://www.but.fr/magasins/203/But-Ste-Genevieve-des-bois.html
39 boulevard du Soleil,But,AGDE,FR,"{'brand': 'But', 'facia': 'But', 'category': 'Retail', 'edit_date': '2025-03-19', 'lat_lon_source': 'website'}",43.304230324970000000,3.485597668647800000,But Agde,,205,34300,https://www.but.fr/magasins/205/But-Agde.html
Z.I. Baleone RN 193 Sortie Ajaccio Mezzavia,But,AJACCIO,FR,"{'brand': 'But', 'facia': 'But', 'category': 'Retail', 'edit_date': '2025-03-19', 'lat_lon_source': 'website'}",41.954772606219000000,8.792348687172000000,But Ajaccio,,206,20000,https://www.but.fr/magasins/206/But-Ajaccio.html
Route de Nîmes B.P.20,But,ST HILAIRE DE BRETHMAS,FR,"{'brand': 'But', 'facia': 'But', 'category': 'Retail', 'edit_date': '2025-03-19', 'lat_lon_source': 'website'}",44.107000000000000000,4.101000000000000000,But Alès,,207,30560,https://www.but.fr/magasins/207/But-Ales.html
1966 route nationale 7,But,VILLENEUVE LOUBET,FR,"{'brand': 'But', 'facia': 'But', 'category': 'Retail', 'edit_date': '2025-03-19', 'lat_lon_source': 'website'}",43.631838000000000000,7.134423000000000000,But Villeneuve Loubet,,208,06270,https://www.but.fr/magasins/208/But-Villeneuve-Loubet.html
L'aurelienne - Quartier Fourchon,But,ARLES,FR,"{'brand': 'But', 'facia': 'But', 'category': 'Retail', 'edit_date': '2025-03-19', 'lat_lon_source': 'website'}",43.663193081909000000,4.636468656920300000,But Arles,,209,13200,https://www.but.fr/magasins/209/But-Arles.html
Le pontet (centre commercial St Anne) Avignon nord,But,SORGUES,FR,"{'brand': 'But', 'facia': 'But', 'category': 'Retail', 'edit_date': '2025-03-19', 'lat_lon_source': 'website'}",43.986480945760000000,4.883361474990800000,But Avignon,,210,84700,https://www.but.fr/magasins/210/But-Avignon.html
92 route de Nimes,But,BAGNOLS SUR CEZE,FR,"{'brand': 'But', 'facia': 'But', 'category': 'Retail', 'edit_date': '2025-03-19', 'lat_lon_source': 'website'}",44.147352497785000000,4.614858582650800000,But Bagnols sur Ceze,,211,30200,https://www.but.fr/magasins/211/But-Bagnols-sur-Ceze.html
RN 193,But,BASTIA,FR,"{'brand': 'But', 'facia': 'But', 'category': 'Retail', 'edit_date': '2025-03-19', 'lat_lon_source': 'website'}",42.700000000000000000,9.450000000000000000,But Bastia,,212,20600,https://www.but.fr/magasins/212/But-Bastia.html
6 Rue Rond point des Entreprises,But,BEZIERS,FR,"{'brand': 'But', 'facia': 'But', 'category': 'Retail', 'edit_date': '2025-03-19', 'lat_lon_source': 'website'}",43.344233000000000000,3.215795000000000000,But Béziers,,213,34500,https://www.but.fr/magasins/213/But-Beziers.html
Avenue des Arlucs,But,LA BOCCA,FR,"{'brand': 'But', 'facia': 'But', 'category': 'Retail', 'edit_date': '2025-03-19', 'lat_lon_source': 'website'}",43.548342568534000000,6.963381021161000000,But Cannes,,214,06150,https://www.but.fr/magasins/214/But-Cannes.html
Z.A. quartier St Christophe,But,DIGNE LES BAINS,FR,"{'brand': 'But', 'facia': 'But', 'category': 'Retail', 'edit_date': '2025-03-19', 'lat_lon_source': 'website'}",44.095000000000000000,6.240000000000000000,But Digne,,215,04000,https://www.but.fr/magasins/215/But-Digne.html
ZAC LES MEISSUGUES,But,PUGET SUR ARGENS,FR,"{'brand': 'But', 'facia': 'But', 'category': 'Retail', 'edit_date': '2025-03-19', 'lat_lon_source': 'website'}",43.446781578755000000,6.696884334349200000,But Fréjus,,216,83480,https://www.but.fr/magasins/216/But-Frejus.html
27 route de la luye,But,GAP,FR,"{'brand': 'But', 'facia': 'But', 'category': 'Retail', 'edit_date': '2025-03-19', 'lat_lon_source': 'website'}",44.539467595311000000,6.064021376481000000,But Gap,,217,05000,https://www.but.fr/magasins/217/But-Gap.html
Centre commercial Auchan,But,AUBAGNE,FR,"{'brand': 'But', 'facia': 'But', 'category': 'Retail', 'edit_date': '2025-03-19', 'lat_lon_source': 'website'}",43.291195636776000000,5.592760862635400000,But Marseille Aubagne,,218,13400,https://www.but.fr/magasins/218/But-Marseille-Aubagne.html
Centre commercial Barneoud,But,CABRIES,FR,"{'brand': 'But', 'facia': 'But', 'category': 'Retail', 'edit_date': '2025-03-19', 'lat_lon_source': 'website'}",43.417000000000000000,5.361000000000000000,But Marseille Cabries,,219,13480,https://www.but.fr/magasins/219/But-Marseille-Cabries.html
ZAC des Ramilles,But,MENDE,FR,"{'brand': 'But', 'facia': 'But', 'category': 'Retail', 'edit_date': '2025-03-19', 'lat_lon_source': 'website'}",44.517000000000000000,3.500000000000000000,But Mende,,220,48000,https://www.but.fr/magasins/220/But-Mende.html
Le Soriech - Route de Carnon,But,LATTES,FR,"{'brand': 'But', 'facia': 'But', 'category': 'Retail', 'edit_date': '2025-03-19', 'lat_lon_source': 'website'}",43.580969506631000000,3.923343941555800000,But Montpellier,,223,34970,https://www.but.fr/magasins/223/But-Montpellier.html
21 rue Alfred CHAUCHARD,But,NARBONNE,FR,"{'brand': 'But', 'facia': 'But', 'category': 'Retail', 'edit_date': '2025-03-19', 'lat_lon_source': 'website'}",43.177517000000000000,3.030075000000000000,But Narbonne,,224,11100,https://www.but.fr/magasins/224/But-Narbonne.html
193 avenue du languedoc,But,PERPIGNAN,FR,"{'brand': 'But', 'facia': 'But', 'category': 'Retail', 'edit_date': '2025-03-19', 'lat_lon_source': 'website'}",42.732244231570000000,2.888859638146000000,But Perpignan Nord,,226,66000,https://www.but.fr/magasins/226/But-Perpignan-Nord.html
RN9 Route de perthus,But,PERPIGNAN,FR,"{'brand': 'But', 'facia': 'But', 'category': 'Retail', 'edit_date': '2025-03-19', 'lat_lon_source': 'website'}",42.675714715302000000,2.889918505568900000,But Perpignan sud,,227,66000,https://www.but.fr/magasins/227/But-Perpignan-sud.html
Centre midi multiple Autoroute de Nice,But,SOLLIES-PONT,FR,"{'brand': 'But', 'facia': 'But', 'category': 'Retail', 'edit_date': '2025-03-19', 'lat_lon_source': 'website'}",43.204685406635000000,6.047239268807100000,But Toulon,,236,83210,https://www.but.fr/magasins/236/But-Toulon.html
"Zone Actisud 4, rue Louis Lumière",But,MARSANNAY-LA-CôTE,FR,"{'brand': 'But', 'facia': 'But', 'category': 'Retail', 'edit_date': '2025-03-19', 'lat_lon_source': 'website'}",47.280828159784000000,5.013284350262400000,But Dijon,,256,21160,https://www.but.fr/magasins/256/But-Dijon.html
rue du 8 mai 1945,But,ST JEAN DE MAURIENNE,FR,"{'brand': 'But', 'facia': 'But', 'category': 'Retail', 'edit_date': '2025-03-19', 'lat_lon_source': 'website'}",45.272398254675000000,6.362119301297000000,BUT St Jean de Maurienne,,257,73300,https://www.but.fr/magasins/257/BUT-St-Jean-de-Maurienne.html
Avenue Santos Dumont,But,LESCAR,FR,"{'brand': 'But', 'facia': 'But', 'category': 'Retail', 'edit_date': '2025-03-19', 'lat_lon_source': 'website'}",43.321955222133000000,-0.422462930556090000,But Pau,,258,64230,https://www.but.fr/magasins/258/But-Pau.html
Avenue de l'Europe,But,VILLEFRANCHE SUR SAôNE,FR,"{'brand': 'But', 'facia': 'But', 'category': 'Retail', 'edit_date': '2025-03-19', 'lat_lon_source': 'website'}",45.988282574127000000,4.743690503318800000,But Villefranche sur Saône,,259,69400,https://www.but.fr/magasins/259/But-Villefranche-sur-Saone.html
48 à 52 avenue du 11 novembre 1918,But,ROCHEFORT,FR,"{'brand': 'But', 'facia': 'But', 'category': 'Retail', 'edit_date': '2025-03-19', 'lat_lon_source': 'website'}",45.927000000000000000,-0.960000000000000000,But Rochefort,,260,17300,https://www.but.fr/magasins/260/But-Rochefort.html
RN 20 - Route de Paris,But,MONTAUBAN,FR,"{'brand': 'But', 'facia': 'But', 'category': 'Retail', 'edit_date': '2025-03-19', 'lat_lon_source': 'website'}",44.036687742113000000,1.379205140506000000,But Montauban,,261,82000,https://www.but.fr/magasins/261/But-Montauban.html
"311, rue de la Révolution Francaise",But,SAINT-MAXIMIN,FR,"{'brand': 'But', 'facia': 'But', 'category': 'Retail', 'edit_date': '2025-03-19', 'lat_lon_source': 'website'}",49.235000000000000000,2.465000000000000000,But Creil,,262,60740,https://www.but.fr/magasins/262/But-Creil.html
zone commerciale Auchan Louvroil,But,HAUMONT,FR,"{'brand': 'But', 'facia': 'But', 'category': 'Retail', 'edit_date': '2025-03-19', 'lat_lon_source': 'website'}",50.252982256012000000,3.935029283575400000,But Maubeuge - Hautmont,,263,59330,https://www.but.fr/magasins/263/But-Maubeuge-Hautmont.html
285 route d'Espagne,But,TOULOUSE,FR,"{'brand': 'But', 'facia': 'But', 'category': 'Retail', 'edit_date': '2025-03-19', 'lat_lon_source': 'website'}",43.547086120524000000,1.419765892065500000,But Toulouse Portet,,264,31100,https://www.but.fr/magasins/264/But-Toulouse-Portet.html
ZAC du Mas des Abeilles / rue Michel Debre,But,NîMES,FR,"{'brand': 'But', 'facia': 'But', 'category': 'Retail', 'edit_date': '2025-03-19', 'lat_lon_source': 'website'}",43.809983623339000000,4.370210521704200000,But Nîmes,,265,30900,https://www.but.fr/magasins/265/But-Nimes.html
158 route de toulouse,But,CASTRES,FR,"{'brand': 'But', 'facia': 'But', 'category': 'Retail', 'edit_date': '2025-03-19', 'lat_lon_source': 'website'}",43.591566118180000000,2.205457090633000000,But Castres,,267,81100,https://www.but.fr/magasins/267/But-Castres.html
ZAC Chemin des Eaux - 1 rue Jean de la Fontaine,But,LES CLAYES SOUS BOIS,FR,"{'brand': 'But', 'facia': 'But', 'category': 'Retail', 'edit_date': '2025-03-19', 'lat_lon_source': 'website'}",48.826473239355000000,1.969225305557300000,But Clayes ss Bois PLAISIR,,268,78340,https://www.but.fr/magasins/268/But-Clayes-ss-Bois-PLAISIR.html
RD817 - ZAC Europa,But,LANDORTHE,FR,"{'brand': 'But', 'facia': 'But', 'category': 'Retail', 'edit_date': '2025-03-19', 'lat_lon_source': 'website'}",43.113067684890000000,0.780134126752960000,But St Gaudens,,269,31800,https://www.but.fr/magasins/269/But-St-Gaudens.html
ZAC Descartes,But,CHAMBRY,FR,"{'brand': 'But', 'facia': 'But', 'category': 'Retail', 'edit_date': '2025-03-19', 'lat_lon_source': 'website'}",49.589692272790000000,3.647093545616100000,But Laon,,270,02000,https://www.but.fr/magasins/270/But-Laon.html
Rue de la Françon,But,VOGLANS,FR,"{'brand': 'But', 'facia': 'But', 'category': 'Retail', 'edit_date': '2025-03-19', 'lat_lon_source': 'website'}",45.616845255155000000,5.887852659948900000,But Voglans,,271,73420,https://www.but.fr/magasins/271/But-Voglans.html
3 Rue Gutenberg - ZA Nord,But,BIGANOS,France,"{'brand': 'But', 'facia': 'But', 'category': 'Retail', 'edit_date': '2025-03-19', 'lat_lon_source': 'website'}",44.638890946538000000,-0.956683030787870000,But Biganos,,272,33380,https://www.but.fr/magasins/272/But-Biganos.html
1 rue de l'Auge - ZAC Les Breandes,But,AUXERRE,FR,"{'brand': 'But', 'facia': 'But', 'category': 'Retail', 'edit_date': '2025-03-19', 'lat_lon_source': 'website'}",47.821000000000000000,3.555000000000000000,BUT Auxerre,,273,89000,https://www.but.fr/magasins/273/BUT-Auxerre.html
16 rue de Lisbonne - Centre Commercial DOMUS - Niveau 2,But,ROSNY SOUS BOIS,FRANCE,"{'brand': 'But', 'facia': 'But', 'category': 'Retail', 'edit_date': '2025-03-19', 'lat_lon_source': 'website'}",48.882479765635000000,2.468028112411500000,But Rosny-sous-Bois (DOMUS),,274,93110,https://www.but.fr/magasins/274/But-Rosny-sous-Bois-DOMUS.html
Centre Commercial le Comtal - lieudit l’Estreniol,But,ONET LE CHATEAU,FRANCE,"{'brand': 'But', 'facia': 'But', 'category': 'Retail', 'edit_date': '2025-03-19', 'lat_lon_source': 'website'}",44.394297000000000000,2.602043000000000000,BUT Rodez,,275,12850,https://www.but.fr/magasins/275/BUT-Rodez.html
Parc d'activités .,But,VAUCHELLES LES QUESNOY,FRANCE,"{'brand': 'But', 'facia': 'But', 'category': 'Retail', 'edit_date': '2025-03-19', 'lat_lon_source': 'website'}",50.097430000000000000,1.870080000000000000,But Abbeville,,277,80132,https://www.but.fr/magasins/277/But-Abbeville.html
Pôle Commercial Jeanne d’Arc,But,DOMMARTIN LES TOUL,FRANCE,"{'brand': 'But', 'facia': 'But', 'category': 'Retail', 'edit_date': '2025-03-19', 'lat_lon_source': 'website'}",48.670905000000000000,5.929186000000000000,But Toul,,278,54200,https://www.but.fr/magasins/278/But-Toul.html
Route de Nancy,But,NEUFCHATEAU,FRANCE,"{'brand': 'But', 'facia': 'But', 'category': 'Retail', 'edit_date': '2025-03-19', 'lat_lon_source': 'website'}",48.368336000000000000,5.701992000000000000,But Neufchateau,,279,88300,https://www.but.fr/magasins/279/But-Neufchateau.html
RN 4,But,MARMOUTIER,FRANCE,"{'brand': 'But', 'facia': 'But', 'category': 'Retail', 'edit_date': '2025-03-19', 'lat_lon_source': 'website'}",48.699567000000000000,7.374811000000000000,But Marmoutier,,280,67440,https://www.but.fr/magasins/280/But-Marmoutier.html
Espace de la Motte,But,VESOUL,FRANCE,"{'brand': 'But', 'facia': 'But', 'category': 'Retail', 'edit_date': '2025-03-19', 'lat_lon_source': 'website'}",47.637067000000000000,6.148108000000000000,But Vesoul,,281,70000,https://www.but.fr/magasins/281/But-Vesoul.html
221 rue de l'Hôtellerie,But,SECLIN,FRANCE,"{'brand': 'But', 'facia': 'But', 'category': 'Retail', 'edit_date': '2025-03-19', 'lat_lon_source': 'website'}",50.546367000000000000,3.054060000000000000,But Seclin,,282,59113,https://www.but.fr/magasins/282/But-Seclin.html
4 Avenue de l'Europe,But,PERONNE,FRANCE,"{'brand': 'But', 'facia': 'But', 'category': 'Retail', 'edit_date': '2025-03-19', 'lat_lon_source': 'website'}",49.939806000000000000,2.926860000000000000,But Peronne,,283,80200,https://www.but.fr/magasins/283/But-Peronne.html
Avenue Jean Moulin,But,BOLLENE,FRANCE,"{'brand': 'But', 'facia': 'But', 'category': 'Retail', 'edit_date': '2025-03-19', 'lat_lon_source': 'website'}",44.307433000000000000,4.747233000000000000,But Bollène,,284,84500,https://www.but.fr/magasins/284/But-Bollene.html
ZAC du Mont Renaud,But,NOYON,FRANCE,"{'brand': 'But', 'facia': 'But', 'category': 'Retail', 'edit_date': '2025-03-19', 'lat_lon_source': 'website'}",49.570271000000000000,2.979700000000000000,But Noyon,,285,60400,https://www.but.fr/magasins/285/But-Noyon.html
15 rue du pergasan - Lieu dit Labourdas,But,JUVIGNAC,FRANCE,"{'brand': 'But', 'facia': 'But', 'category': 'Retail', 'edit_date': '2025-03-19', 'lat_lon_source': 'website'}",43.617440000000000000,3.794912000000000000,But Juvignac,,286,34990,https://www.but.fr/magasins/286/But-Juvignac.html
Bd Winston Churchill,But,ST VIGOR LE GRAND,FRANCE,"{'brand': 'But', 'facia': 'But', 'category': 'Retail', 'edit_date': '2025-03-19', 'lat_lon_source': 'website'}",49.284637000000000000,-0.697298000000000000,But Bayeux,,287,14400,https://www.but.fr/magasins/287/But-Bayeux.html
6 rue François Mitterrand,But,MARMANDE,France,"{'brand': 'But', 'facia': 'But', 'category': 'Retail', 'edit_date': '2025-03-19', 'lat_lon_source': 'website'}",44.509912000000000000,0.141331000000000000,BUT Marmande,,288,47200,https://www.but.fr/magasins/288/BUT-Marmande.html
ZAC GRANDE TERRE - 5 voie des Romains,But,LONGEVILLE EN BARROIS,FRANCE,"{'brand': 'But', 'facia': 'But', 'category': 'Retail', 'edit_date': '2025-03-19', 'lat_lon_source': 'website'}",48.754340000000000000,5.200080000000000000,But Bar le Duc,,289,55000,https://www.but.fr/magasins/289/But-Bar-le-Duc.html
RUE DES ENTREPRENEURS,But,JOIGNY,FRANCE,"{'brand': 'But', 'facia': 'But', 'category': 'Retail', 'edit_date': '2025-03-19', 'lat_lon_source': 'website'}",47.976931000000000000,3.373828000000000000,But Joigny,,290,89300,https://www.but.fr/magasins/290/But-Joigny.html
ZI CHAMPAGNE,But,BOURGUIGNON,FRANCE,"{'brand': 'But', 'facia': 'But', 'category': 'Retail', 'edit_date': '2025-03-19', 'lat_lon_source': 'website'}",47.415554000000000000,6.777701000000000000,But Bourguignon,,291,25150,https://www.but.fr/magasins/291/But-Bourguignon.html
320 rue René CASSIN - ZAC MONT RIVEL,But,CHAMPAGNOLE,FRANCE,"{'brand': 'But', 'facia': 'But', 'category': 'Retail', 'edit_date': '2025-03-19', 'lat_lon_source': 'website'}",46.749556000000000000,5.916022000000000000,But Champagnole,,292,39300,https://www.but.fr/magasins/292/But-Champagnole.html
131 boulevard François Mitterand - ZA des Haras,But,MAYENNE,France,"{'brand': 'But', 'facia': 'But', 'category': 'Retail', 'edit_date': '2025-03-19', 'lat_lon_source': 'website'}",48.287080000000000000,-0.616503000000000000,But Mayenne,,293,53100,https://www.but.fr/magasins/293/But-Mayenne.html
1 rue de la Guérie - Route de St-Lo,But,COUTANCES,France,"{'brand': 'But', 'facia': 'But', 'category': 'Retail', 'edit_date': '2025-03-19', 'lat_lon_source': 'website'}",49.059287000000000000,-1.425616000000000000,But Coutances,,294,50200,https://www.but.fr/magasins/294/But-Coutances.html
ZAC de la Gravelle,But,ARGENTAN,France,"{'brand': 'But', 'facia': 'But', 'category': 'Retail', 'edit_date': '2025-03-19', 'lat_lon_source': 'website'}",48.732439000000000000,-0.038035000000000000,But Argentan,,295,61200,https://www.but.fr/magasins/295/But-Argentan.html
Le Fer des Champs,But,PERIERS EN AUGE,France,"{'brand': 'But', 'facia': 'But', 'category': 'Retail', 'edit_date': '2025-03-19', 'lat_lon_source': 'website'}",49.274737000000000000,-0.102681000000000000,But Dives sur Mer,,296,14160,https://www.but.fr/magasins/296/But-Dives-sur-Mer.html
1 rue Victor Lemarchand,But,ST SENIER SOUS AVRANCHES,France,"{'brand': 'But', 'facia': 'But', 'category': 'Retail', 'edit_date': '2025-03-19', 'lat_lon_source': 'website'}",48.680651000000000000,-1.336508000000000000,But Avranches,,297,50300,https://www.but.fr/magasins/297/But-Avranches.html
18 impasse Jean Baptiste Gambut - Zi les Vignoles,But,BEAUNE,France,"{'brand': 'But', 'facia': 'But', 'category': 'Retail', 'edit_date': '2025-03-19', 'lat_lon_source': 'website'}",47.022975000000000000,4.860704000000000000,But Beaune,,298,21200,https://www.but.fr/magasins/298/But-Beaune.html
Z.A. du Bois du Cours - Route de Broglie,But,BERNAY,France,"{'brand': 'But', 'facia': 'But', 'category': 'Retail', 'edit_date': '2025-03-19', 'lat_lon_source': 'website'}",49.075089000000000000,0.581196000000000000,But Bernay,,299,27300,https://www.but.fr/magasins/299/But-Bernay.html
"5, Boulevard André-Georges Voisin",But,SAINT CYR SUR LOIRE,FRANCE,"{'brand': 'But', 'facia': 'But', 'category': 'Retail', 'edit_date': '2025-03-19', 'lat_lon_source': 'website'}",47.427123000000000000,0.655714000000000000,But Saint Cyr sur Loire,,300,37540,https://www.but.fr/magasins/300/But-Saint-Cyr-sur-Loire.html
La Bascule - Route Nationale 15,But,SAINTE-MARIE DES CHAMPS,France,"{'brand': 'But', 'facia': 'But', 'category': 'Retail', 'edit_date': '2025-03-19', 'lat_lon_source': 'website'}",49.624497000000000000,0.788542000000000000,But Yvetot,,301,76190,https://www.but.fr/magasins/301/But-Yvetot.html
Espace Cial des Océanes - 57 Avenue de Talmont,But,CHATEAU D'OLONNE,France,"{'brand': 'But', 'facia': 'But', 'category': 'Retail', 'edit_date': '2025-03-19', 'lat_lon_source': 'website'}",46.487064000000000000,-1.740545000000000000,But Château d'Olonne,,302,85180,https://www.but.fr/magasins/302/But-Chateau-d-Olonne.html
Avenue Jean Monnet,But,PONT AUDEMER,France,"{'brand': 'But', 'facia': 'But', 'category': 'Retail', 'edit_date': '2025-03-19', 'lat_lon_source': 'website'}",49.347619000000000000,0.542253000000000000,But Pont Audemer,,303,27500,https://www.but.fr/magasins/303/But-Pont-Audemer.html
Kervidanou 3 - 12 rue Albert Schweitzer,But,MELLAC,France,"{'brand': 'But', 'facia': 'But', 'category': 'Retail', 'edit_date': '2025-03-19', 'lat_lon_source': 'website'}",47.869323100000000000,-3.589724700000000000,But Quimperle,,304,29300,https://www.but.fr/magasins/304/But-Quimperle.html
Route de Saumur,But,THOUARS,France,"{'brand': 'But', 'facia': 'But', 'category': 'Retail', 'edit_date': '2025-03-19', 'lat_lon_source': 'website'}",47.009344000000000000,-0.202084000000000000,But Thouars,,306,79100,https://www.but.fr/magasins/306/But-Thouars.html
8 Route de Sablé Zone Cap Mermoz,But,CHATEAU GONTIER SUR MAYENNE,FRANCE,"{'brand': 'But', 'facia': 'But', 'category': 'Retail', 'edit_date': '2025-03-19', 'lat_lon_source': 'website'}",47.831008931450000000,-0.690605387188940000,But Château Gontier,,308,53200,https://www.but.fr/magasins/308/But-Chateau-Gontier.html
Centre commercial les Templiers,But,GISORS,FRANCE,"{'brand': 'But', 'facia': 'But', 'category': 'Retail', 'edit_date': '2025-03-19', 'lat_lon_source': 'website'}",49.276765000000000000,1.759762000000000000,But Gisors,,309,27140,https://www.but.fr/magasins/309/But-Gisors.html
Parc d'activités de La Creule,But,HAZEBROUCK,FRANCE,"{'brand': 'But', 'facia': 'But', 'category': 'Retail', 'edit_date': '2025-03-19', 'lat_lon_source': 'website'}",50.736781000000000000,2.552505000000000000,But Hazebrouck,,310,59190,https://www.but.fr/magasins/310/But-Hazebrouck.html
Rue du pont - Zone Industrielle du pont,But,SABLE SUR SARTHE,FRANCE,"{'brand': 'But', 'facia': 'But', 'category': 'Retail', 'edit_date': '2025-03-19', 'lat_lon_source': 'website'}",47.823925000000000000,-0.303510000000000000,But Sable,,311,72300,https://www.but.fr/magasins/311/But-Sable.html
20 rue des Lauriers,But,ST GEREON,FRANCE,"{'brand': 'But', 'facia': 'But', 'category': 'Retail', 'edit_date': '2025-03-19', 'lat_lon_source': 'website'}",47.372779636500000000,-1.189055442800000000,But Ancenis,,312,44150,https://www.but.fr/magasins/312/But-Ancenis.html
594 Chemin de la Chaumière - Z.I de l'Artel,But,CASTELSARRASIN,FRANCE,"{'brand': 'But', 'facia': 'But', 'category': 'Retail', 'edit_date': '2025-03-19', 'lat_lon_source': 'website'}",44.062549744900000000,1.099147796600000000,But Castelsarrasin,,313,82100,https://www.but.fr/magasins/313/But-Castelsarrasin.html
Rue du Chardonnay - PAE de la Vallée de l'Hérault,But,CLERMONT L'HERAULT,FRANCE,"{'brand': 'But', 'facia': 'But', 'category': 'Retail', 'edit_date': '2025-03-19', 'lat_lon_source': 'website'}",43.619673500000000000,3.450973000000000000,But Clermont l'Hérault,,314,34800,https://www.but.fr/magasins/314/But-Clermont-l-Herault.html
Rue De Lattre de Tassigny ZI DE LA LIMOISE,But,ISSOUDUN,FRANCE,"{'brand': 'But', 'facia': 'But', 'category': 'Retail', 'edit_date': '2025-03-19', 'lat_lon_source': 'website'}",46.954851000000000000,2.005015000000000000,But Issoudun,,315,36100,https://www.but.fr/magasins/315/But-Issoudun.html
Rue des Malifestes - ZAC de Calin,But,CLISSON,FRANCE,"{'brand': 'But', 'facia': 'But', 'category': 'Retail', 'edit_date': '2025-03-19', 'lat_lon_source': 'website'}",47.098949000000000000,-1.279567000000000000,But Clisson,,316,44190,https://www.but.fr/magasins/316/But-Clisson.html
Rue Lavoisier - BP 101,But,EU,FRANCE,"{'brand': 'But', 'facia': 'But', 'category': 'Retail', 'edit_date': '2025-03-19', 'lat_lon_source': 'website'}",50.057607000000000000,1.412899000000000000,But Eu,,317,76260,https://www.but.fr/magasins/317/But-Eu.html
Lotissement Le Grand Tour,But,MARCONNE,FRANCE,"{'brand': 'But', 'facia': 'But', 'category': 'Retail', 'edit_date': '2025-03-19', 'lat_lon_source': 'website'}",50.367146000000000000,2.028884000000000100,But Hesdin Marconne,,318,62140,https://www.but.fr/magasins/318/But-Hesdin-Marconne.html
Zone Commerciale Les Martines,But,SAINT JUNIEN,FRANCE,"{'brand': 'But', 'facia': 'But', 'category': 'Retail', 'edit_date': '2025-03-19', 'lat_lon_source': 'website'}",45.896116000000000000,0.918924000000000000,But Saint Junien,,319,87200,https://www.but.fr/magasins/319/But-Saint-Junien.html
ZA de la bosserie,But,GIEN,FRANCE,"{'brand': 'But', 'facia': 'But', 'category': 'Retail', 'edit_date': '2025-03-19', 'lat_lon_source': 'website'}",47.706298000000000000,2.641914000000000000,But Gien,,322,45500,https://www.but.fr/magasins/322/But-Gien.html
RN 10 ZI Nord,But,RUFFEC,FRANCE,"{'brand': 'But', 'facia': 'But', 'category': 'Retail', 'edit_date': '2025-03-19', 'lat_lon_source': 'website'}",46.042855000000000000,0.197899000000000000,But Ruffec,,323,16700,https://www.but.fr/magasins/323/But-Ruffec.html
4 boulevard des Industries,But,POCE SUR CISSE,FRANCE,"{'brand': 'But', 'facia': 'But', 'category': 'Retail', 'edit_date': '2025-03-19', 'lat_lon_source': 'website'}",47.425300000000000000,0.983702000000000000,But Amboise,,324,37530,https://www.but.fr/magasins/324/But-Amboise.html
5 Rue Charente-Maritime - Lotissement de la Sacristinerie,But,SAINT JEAN D'ANGELY,FRANCE,"{'brand': 'But', 'facia': 'But', 'category': 'Retail', 'edit_date': '2025-03-19', 'lat_lon_source': 'website'}",45.946256000000000000,-0.507616000000000000,But Saint Jean d'Angely,,325,17400,https://www.but.fr/magasins/325/But-Saint-Jean-d-Angely.html
Zone Commerciale de la Monnerie,But,LA FLECHE,FRANCE,"{'brand': 'But', 'facia': 'But', 'category': 'Retail', 'edit_date': '2025-03-19', 'lat_lon_source': 'website'}",47.705314000000000000,-0.051083000000000000,But La Flèche,,326,72200,https://www.but.fr/magasins/326/But-La-Fleche.html
ZAC Nord kerd'Hervé 8 rue Jean le Cam,But,LOUDEAC,FRANCE,"{'brand': 'But', 'facia': 'But', 'category': 'Retail', 'edit_date': '2025-03-19', 'lat_lon_source': 'website'}",48.194300000000000000,-2.764620000000000000,But Loudeac,,327,22600,https://www.but.fr/magasins/327/But-Loudeac.html
96 route de Bourges,But,SAINT AMAND MONTROND,FRANCE,"{'brand': 'But', 'facia': 'But', 'category': 'Retail', 'edit_date': '2025-03-19', 'lat_lon_source': 'website'}",46.736758000000000000,2.488851000000000000,But Saint Amand,,328,18200,https://www.but.fr/magasins/328/But-Saint-Amand.html
Route de Longué,But,BEAUFORT EN ANJOU,FRANCE,"{'brand': 'But', 'facia': 'But', 'category': 'Retail', 'edit_date': '2025-03-19', 'lat_lon_source': 'website'}",47.432326000000000000,-0.199388000000000000,But Beaufort,,329,49250,https://www.but.fr/magasins/329/But-Beaufort.html
2 rue des margats - Lieu dit Les longs sillons,But,COULOMMIERS,FRANCE,"{'brand': 'But', 'facia': 'But', 'category': 'Retail', 'edit_date': '2025-03-19', 'lat_lon_source': 'website'}",48.808812000000000000,3.094258000000000000,But Coulommiers,,330,77120,https://www.but.fr/magasins/330/But-Coulommiers.html
Avenue de Bastia - Immeuble Luciani,But,PORTO VECCHIO,FRANCE,"{'brand': 'But', 'facia': 'But', 'category': 'Retail', 'edit_date': '2025-03-19', 'lat_lon_source': 'website'}",41.609628000000000000,9.276641000000000000,But Porto Vecchio,,331,20137,https://www.but.fr/magasins/331/But-Porto-Vecchio.html
Z.I. du Peuron,But,CHAUVIGNY,FRANCE,"{'brand': 'But', 'facia': 'But', 'category': 'Retail', 'edit_date': '2025-03-19', 'lat_lon_source': 'website'}",46.556670000000000000,0.624974000000000000,But Chauvigny,,332,86300,https://www.but.fr/magasins/332/But-Chauvigny.html
1 Avenue Faidherbe,But,JONZAC,FRANCE,"{'brand': 'But', 'facia': 'But', 'category': 'Retail', 'edit_date': '2025-03-19', 'lat_lon_source': 'website'}",45.448151000000000000,-0.438740000000000020,But Jonzac,,333,17500,https://www.but.fr/magasins/333/But-Jonzac.html
ZAC de Bellevue,But,AUTUN,FRANCE,"{'brand': 'But', 'facia': 'But', 'category': 'Retail', 'edit_date': '2025-03-19', 'lat_lon_source': 'website'}",46.970297000000000000,4.274178000000000000,But Autun,,334,71400,https://www.but.fr/magasins/334/But-Autun.html
Route de Dijon,But,SEMUR EN AUXOIS,FRANCE,"{'brand': 'But', 'facia': 'But', 'category': 'Retail', 'edit_date': '2025-03-19', 'lat_lon_source': 'website'}",47.488942000000000000,4.353879000000000000,But Semur,,335,21140,https://www.but.fr/magasins/335/But-Semur.html
Rue Louis Desprez,But,BAR SUR AUBE,FRANCE,"{'brand': 'But', 'facia': 'But', 'category': 'Retail', 'edit_date': '2025-03-19', 'lat_lon_source': 'website'}",48.225968000000000000,4.713181000000000000,But Bar sur Aube,,336,10200,https://www.but.fr/magasins/336/But-Bar-sur-Aube.html
Rue Paul Filliot ZAC de Val de L'Orne,But,CONFLANS EN JARNISY,FRANCE,"{'brand': 'But', 'facia': 'But', 'category': 'Retail', 'edit_date': '2025-03-19', 'lat_lon_source': 'website'}",49.162798405175000000,5.837723223739000000,But Conflans,,337,54800,https://www.but.fr/magasins/337/But-Conflans.html
ZI aux Cloyes,But,LURE,FRANCE,"{'brand': 'But', 'facia': 'But', 'category': 'Retail', 'edit_date': '2025-03-19', 'lat_lon_source': 'website'}",47.682159000000000000,6.516904000000000000,But Lure,,338,70200,https://www.but.fr/magasins/338/But-Lure.html
Route de Paris,But,TONNERRE,FRANCE,"{'brand': 'But', 'facia': 'But', 'category': 'Retail', 'edit_date': '2025-03-19', 'lat_lon_source': 'website'}",47.870731000000000000,3.968801000000000000,But Tonnerre,,339,89700,https://www.but.fr/magasins/339/But-Tonnerre.html
76-84 avenue Gilbert Roux,But,CUSSET,FRANCE,"{'brand': 'But', 'facia': 'But', 'category': 'Retail', 'edit_date': '2025-03-19', 'lat_lon_source': 'website'}",46.138661000000000000,3.439128000000000000,But Vichy,,340,03300,https://www.but.fr/magasins/340/But-Vichy.html
Z.A. Villejame 3,But,GUERANDE,FRANCE,"{'brand': 'But', 'facia': 'But', 'category': 'Retail', 'edit_date': '2025-03-19', 'lat_lon_source': 'website'}",47.324516000000000000,-2.408185000000000000,But Guerande,,341,44350,https://www.but.fr/magasins/341/But-Guerande.html
ZA les Plantes - Rue André Boulle,But,NOYERS SUR CHER,FRANCE,"{'brand': 'But', 'facia': 'But', 'category': 'Retail', 'edit_date': '2025-03-19', 'lat_lon_source': 'website'}",47.284126000000000000,1.373104000000000000,But Noyers,,342,41140,https://www.but.fr/magasins/342/But-Noyers.html
Zone Commerciale Rive Sud,But,SAINTE ANNE SUR BRIVET,FRANCE,"{'brand': 'But', 'facia': 'But', 'category': 'Retail', 'edit_date': '2025-03-19', 'lat_lon_source': 'website'}",47.435299809375000000,-2.076483660224900000,But Pontchâteau,,343,44160,https://www.but.fr/magasins/343/But-Pontchateau.html
Z.A.E. de l'Ebeaupinières,But,SAINTE GEMMES D'ANDIGNE,FRANCE,"{'brand': 'But', 'facia': 'But', 'category': 'Retail', 'edit_date': '2025-03-19', 'lat_lon_source': 'website'}",47.688563000000000000,-0.891468000000000000,But Segre,,344,49500,https://www.but.fr/magasins/344/But-Segre.html
Route de Poitiers,But,AZAY LE BRULE,FRANCE,"{'brand': 'But', 'facia': 'But', 'category': 'Retail', 'edit_date': '2025-03-19', 'lat_lon_source': 'website'}",46.403761000000000000,-0.230810000000000000,But Saint Maixent,,345,79400,https://www.but.fr/magasins/345/But-Saint-Maixent.html
Rue des Oustalots,But,OLORON SAINTE MARIE,FRANCE,"{'brand': 'But', 'facia': 'But', 'category': 'Retail', 'edit_date': '2025-03-19', 'lat_lon_source': 'website'}",43.180186000000000000,-0.613458000000000000,But Oloron,,346,64400,https://www.but.fr/magasins/346/But-Oloron.html
Avenue Montseigneur Batiot - ZI du pont Corné,But,CHANTONNAY,FRANCE,"{'brand': 'But', 'facia': 'But', 'category': 'Retail', 'edit_date': '2025-03-19', 'lat_lon_source': 'website'}",46.695626000000000000,-1.055954000000000000,But Chantonnay,,347,85110,https://www.but.fr/magasins/347/But-Chantonnay.html
La Cloutière - Perrusson,But,LOCHES,FRANCE,"{'brand': 'But', 'facia': 'But', 'category': 'Retail', 'edit_date': '2025-03-19', 'lat_lon_source': 'website'}",47.112326000000000000,1.004909000000000000,But Loches,,348,37600,https://www.but.fr/magasins/348/But-Loches.html
Z.A.C de la sucrerie - Route de Sens,But,MONTEREAU FAULT YONNE,FRANCE,"{'brand': 'But', 'facia': 'But', 'category': 'Retail', 'edit_date': '2025-03-19', 'lat_lon_source': 'website'}",48.375952000000000000,2.956232000000000000,But Montereau,,349,77130,https://www.but.fr/magasins/349/But-Montereau.html
95 av du Maréchal de Lattre de Tassigny,But,LUCON,FRANCE,"{'brand': 'But', 'facia': 'But', 'category': 'Retail', 'edit_date': '2025-03-19', 'lat_lon_source': 'website'}",46.452033500000000000,-1.161629900000000000,But Luçon,,350,85400,https://www.but.fr/magasins/350/But-Lucon.html
84 avenue de Bretagne,But,GENESTON,FRANCE,"{'brand': 'But', 'facia': 'But', 'category': 'Retail', 'edit_date': '2025-03-19', 'lat_lon_source': 'website'}",47.064390000000000000,-1.517091000000000000,But Geneston,,351,44140,https://www.but.fr/magasins/351/But-Geneston.html
5 RUE DES GRATTELIEVRES,But,TAVERS,FRANCE,"{'brand': 'But', 'facia': 'But', 'category': 'Retail', 'edit_date': '2025-03-19', 'lat_lon_source': 'website'}",47.763978000000000000,1.610696000000000000,But Tavers,,352,45190,https://www.but.fr/magasins/352/But-Tavers.html
30 Rue Antoine-Laurent de Lavoisier - ZC Concorde,But,ROYAN,FRANCE,"{'brand': 'But', 'facia': 'But', 'category': 'Retail', 'edit_date': '2025-03-19', 'lat_lon_source': 'website'}",45.632046000000000000,-0.985418000000000020,But Royan,,353,17200,https://www.but.fr/magasins/353/But-Royan.html
Parc commercial « les portes de Soissons »,But,VAUXBUIN,FRANCE,"{'brand': 'But', 'facia': 'But', 'category': 'Retail', 'edit_date': '2025-03-19', 'lat_lon_source': 'website'}",49.357851000000000000,3.296810000000000000,But Soissons,,354,02200,https://www.but.fr/magasins/354/But-Soissons.html
ZAC DU BLANC CARROI,But,CHINON,FRANCE,"{'brand': 'But', 'facia': 'But', 'category': 'Retail', 'edit_date': '2025-03-19', 'lat_lon_source': 'website'}",47.172801000000000000,0.251135000000000000,But Chinon,,355,37500,https://www.but.fr/magasins/355/But-Chinon.html
Boulevard de L'Europe - ZAC des Loges,But,PARTHENAY,FRANCE,"{'brand': 'But', 'facia': 'But', 'category': 'Retail', 'edit_date': '2025-03-19', 'lat_lon_source': 'website'}",46.648031500000000000,-0.220354800000000000,But Parthenay,,356,79200,https://www.but.fr/magasins/356/But-Parthenay.html
5 rue Emile Durkeim,But,SAINT DIE DES VOSGES,FRANCE,"{'brand': 'But', 'facia': 'But', 'category': 'Retail', 'edit_date': '2025-03-19', 'lat_lon_source': 'website'}",48.292854000000000000,6.938019000000000000,But Saint Die,,357,88100,https://www.but.fr/magasins/357/But-Saint-Die.html
2 rue des Métiers,But,COLMAR,FRANCE,"{'brand': 'But', 'facia': 'But', 'category': 'Retail', 'edit_date': '2025-03-19', 'lat_lon_source': 'website'}",48.110461500000000000,7.364457100000000000,But Colmar,,358,68000,https://www.but.fr/magasins/358/But-Colmar.html
6 avenue des Erables,But,HOUDEMONT,FRANCE,"{'brand': 'But', 'facia': 'But', 'category': 'Retail', 'edit_date': '2025-03-19', 'lat_lon_source': 'website'}",48.643013000000000000,6.184167000000000000,But Nancy,,359,54180,https://www.but.fr/magasins/359/But-Nancy.html
Rue Clément Ader,But,CLAYE SOUILLY,France,"{'brand': 'But', 'facia': 'But', 'category': 'Retail', 'edit_date': '2025-03-19', 'lat_lon_source': 'website'}",48.945466000000000000,2.668072000000000000,But Claye Souilly,,360,77410,https://www.but.fr/magasins/360/But-Claye-Souilly.html
106 av du Vieux chemin de Saint Denis,But,GENNEVILLIERS,FRANCE,"{'brand': 'But', 'facia': 'But', 'category': 'Retail', 'edit_date': '2025-03-19', 'lat_lon_source': 'website'}",48.932265200000000000,2.315651800000100000,But Gennevilliers,,362,92230,https://www.but.fr/magasins/362/But-Gennevilliers.html
Route de Domont,But,EZANVILLE,FRANCE,"{'brand': 'But', 'facia': 'But', 'category': 'Retail', 'edit_date': '2025-03-19', 'lat_lon_source': 'website'}",49.036282000000000000,2.345872000000000000,But Ezanville,,363,95460,https://www.but.fr/magasins/363/But-Ezanville.html
1 avenue Marechal Foch,But,CRETEIL,FRANCE,"{'brand': 'But', 'facia': 'But', 'category': 'Retail', 'edit_date': '2025-03-19', 'lat_lon_source': 'website'}",48.771995000000000000,2.438700000000000000,But Créteil,,364,94000,https://www.but.fr/magasins/364/But-Creteil.html
13 rue de la sablière,But,SCHWEIGHOUSE SUR MODER,FRANCE,"{'brand': 'But', 'facia': 'But', 'category': 'Retail', 'edit_date': '2025-03-19', 'lat_lon_source': 'website'}",48.828916000000000000,7.749638000000000000,BUT Haguenau,,365,67590,https://www.but.fr/magasins/365/BUT-Haguenau.html
63 Boulevard du Havre,But,HERBLAY,FRANCE,"{'brand': 'But', 'facia': 'But', 'category': 'Retail', 'edit_date': '2025-03-19', 'lat_lon_source': 'website'}",49.002297000000000000,2.178376000000000000,But Herblay,,366,95220,https://www.but.fr/magasins/366/But-Herblay.html
3 Avenue de l'Ile Brune,But,SAINT EGREVE,FRANCE,"{'brand': 'But', 'facia': 'But', 'category': 'Retail', 'edit_date': '2025-03-19', 'lat_lon_source': 'website'}",45.215587400000000000,5.683009300000000000,But Grenoble Saint Egreve,,367,38120,https://www.but.fr/magasins/367/But-Grenoble-Saint-Egreve.html
1170 Route des Quarante Sous RN13-Les Glaisières,But,ORGEVAL,FRANCE,"{'brand': 'But', 'facia': 'But', 'category': 'Retail', 'edit_date': '2025-03-19', 'lat_lon_source': 'website'}",48.927470000000000000,1.984740000000000000,But Orgeval,,368,78630,https://www.but.fr/magasins/368/But-Orgeval.html
ZAC du bas terrroir Route de Tournai,But,WAZIERS,FRANCE,"{'brand': 'But', 'facia': 'But', 'category': 'Retail', 'edit_date': '2025-03-19', 'lat_lon_source': 'website'}",50.393028000000000000,3.113789000000000000,But Douai,,369,59119,https://www.but.fr/magasins/369/But-Douai.html
rue de Dole Zone de Chateaufarine,But,BESANCON,FRANCE,"{'brand': 'But', 'facia': 'But', 'category': 'Retail', 'edit_date': '2025-03-19', 'lat_lon_source': 'website'}",47.213676000000000000,5.945957000000000000,But Besancon Sud,,370,25000,https://www.but.fr/magasins/370/But-Besancon-Sud.html
52 Avenue de Bordeaux,But,MIMIZAN,FRANCE,"{'brand': 'But', 'facia': 'But', 'category': 'Retail', 'edit_date': '2025-03-19', 'lat_lon_source': 'website'}",44.205874500000000000,-1.221093900000000000,But Mimizan,,371,40200,https://www.but.fr/magasins/371/But-Mimizan.html
"Centre commercial Promenade de Flandre, En face d’Auchan Roncq",But,NEUVILLE-EN-FERRAIN,France,"{'brand': 'But', 'facia': 'But', 'category': 'Retail', 'edit_date': '2025-03-19', 'lat_lon_source': 'website'}",50.746860000000000000,3.133820000000000000,But Roncq Neuville-en-ferrain,,372,59960,https://www.but.fr/magasins/372/But-Roncq-Neuville-en-ferrain.html
Avenue de la Dordogne,But,SARLAT LA CANEDA,France,"{'brand': 'But', 'facia': 'But', 'category': 'Retail', 'edit_date': '2025-03-19', 'lat_lon_source': 'website'}",44.876563000000000000,1.213202000000000000,But Sarlat,,373,24200,https://www.but.fr/magasins/373/But-Sarlat.html
5 Avenue Pierre et Marie Curie,But,ISSOIRE,France,"{'brand': 'But', 'facia': 'But', 'category': 'Retail', 'edit_date': '2025-03-19', 'lat_lon_source': 'website'}",45.550655000000000000,3.254300000000000000,But Issoire,,374,63500,https://www.but.fr/magasins/374/But-Issoire.html
AVENUE WILLY BRANDT Promenade d’Artois,But,DUISANS,France,"{'brand': 'But', 'facia': 'But', 'category': 'Retail', 'edit_date': '2025-03-19', 'lat_lon_source': 'website'}",50.306197200000000000,2.724291000000000000,But Arras,,375,62161,https://www.but.fr/magasins/375/But-Arras.html
37 rue DE PRES,But,ST MARCEL,France,"{'brand': 'But', 'facia': 'But', 'category': 'Retail', 'edit_date': '2025-03-19', 'lat_lon_source': 'website'}",49.104683000000000000,1.452745000000000000,But Vernon,,376,27950,https://www.but.fr/magasins/376/But-Vernon.html
Zone d'Activités de la Grande Haie,But,VITRé,France,"{'brand': 'But', 'facia': 'But', 'category': 'Retail', 'edit_date': '2025-03-19', 'lat_lon_source': 'website'}",48.119882000000000000,-1.169040700000000000,But Vitré,,377,35500,https://www.but.fr/magasins/377/But-Vitre.html
ZAC DE L'EUROPE RUE DU TRAITE DE LISBONNE,But,PORNIC,France,"{'brand': 'But', 'facia': 'But', 'category': 'Retail', 'edit_date': '2025-03-19', 'lat_lon_source': 'website'}",47.128612000000000000,-2.125329000000000000,But Pornic,,378,44210,https://www.but.fr/magasins/378/But-Pornic.html
Rue Laplace Parc commercial de Launay,But,PONT L EVEQUE,France,"{'brand': 'But', 'facia': 'But', 'category': 'Retail', 'edit_date': '2025-03-19', 'lat_lon_source': 'website'}",49.285284000000000000,0.202459000000000000,But Pont l'Eveque,,379,14130,https://www.but.fr/magasins/379/But-Pont-l-Eveque.html
"2380 Route Nationale 20, Route de PARIS",But,SARAN,France,"{'brand': 'But', 'facia': 'But', 'category': 'Retail', 'edit_date': '2025-03-19', 'lat_lon_source': 'website'}",47.959015000000000000,1.890749000000000000,But Saran,,380,45770,https://www.but.fr/magasins/380/But-Saran.html
10 Rue Ordronneau Zone Atout Sud,But,REZE,France,"{'brand': 'But', 'facia': 'But', 'category': 'Retail', 'edit_date': '2025-03-19', 'lat_lon_source': 'website'}",47.193969000000000000,-1.576323000000000000,But Nantes Reze,,381,44400,https://www.but.fr/magasins/381/But-Nantes-Reze.html
Route de limoges - Zone commerciale d'arfeuille,But,SAINT YRIEIX LA PERCHE,France,"{'brand': 'But', 'facia': 'But', 'category': 'Retail', 'edit_date': '2025-03-19', 'lat_lon_source': 'website'}",45.525860000000000000,1.210927000000000000,But St Yrieix,,382,87500,https://www.but.fr/magasins/382/But-St-Yrieix.html
11 Rue Gustave Eiffel,But,CHATEAU THIERRY,France,"{'brand': 'But', 'facia': 'But', 'category': 'Retail', 'edit_date': '2025-03-19', 'lat_lon_source': 'website'}",49.033848000000000000,3.387586000000000000,But Chateau Thierry,,383,02400,https://www.but.fr/magasins/383/But-Chateau-Thierry.html
30 Route Nationale 75 – ZI Pré noir,But,CHARANCIEU,France,"{'brand': 'But', 'facia': 'But', 'category': 'Retail', 'edit_date': '2025-03-19', 'lat_lon_source': 'website'}",45.531209057727000000,5.587649949074900000,BUT Charancieu,,384,38490,https://www.but.fr/magasins/384/BUT-Charancieu.html
Zac Cap du Crès – Boulevard Georges Brassens,But,MILLAU,France,"{'brand': 'But', 'facia': 'But', 'category': 'Retail', 'edit_date': '2025-03-19', 'lat_lon_source': 'website'}",44.115231000000000000,3.070426000000000000,But Millau,,385,12100,https://www.but.fr/magasins/385/But-Millau.html
4 C rue Pierre Clostermann,But,BLOTZHEIM,France,"{'brand': 'But', 'facia': 'But', 'category': 'Retail', 'edit_date': '2025-03-19', 'lat_lon_source': 'website'}",47.606384000000000000,7.506517000000000000,But Blotzheim,,386,68730,https://www.but.fr/magasins/386/But-Blotzheim.html
386 RUE DES VERDIERS,But,LYS-LEZ-LANNOY,France,"{'brand': 'But', 'facia': 'But', 'category': 'Retail', 'edit_date': '2025-03-19', 'lat_lon_source': 'website'}",50.676843812873000000,3.223339319229100000,But Leers,,387,59390,https://www.but.fr/magasins/387/But-Leers.html
"Route d'Avignon, Nationale 7",But,ORANGE,France,"{'brand': 'But', 'facia': 'But', 'category': 'Retail', 'edit_date': '2025-03-19', 'lat_lon_source': 'website'}",44.113202000000000000,4.843560000000000000,But Orange,,388,84100,https://www.but.fr/magasins/388/But-Orange.html
"Route N7 - lieudit ""le grand champ""",But,COSNE COURS SUR LOIRE,France,"{'brand': 'But', 'facia': 'But', 'category': 'Retail', 'edit_date': '2025-03-19', 'lat_lon_source': 'website'}",47.386788000000000000,2.921641000000000000,But Cosne sur Loire,,389,58200,https://www.but.fr/magasins/389/But-Cosne-sur-Loire.html
"Centre Commercial Intermarché, Route Départementale 817",But,CAPVERN,France,"{'brand': 'But', 'facia': 'But', 'category': 'Retail', 'edit_date': '2025-03-19', 'lat_lon_source': 'website'}",43.112219200000000000,0.356514500000000000,But Capvern,,390,65130,https://www.but.fr/magasins/390/But-Capvern.html
32t Avenue du Mont Saint Michel,But,L'AIGLE,FRANCE,"{'brand': 'But', 'facia': 'But', 'category': 'Retail', 'edit_date': '2025-03-19', 'lat_lon_source': 'website'}",48.762036000000000000,0.616049000000000000,But L'Aigle,,391,61300,https://www.but.fr/magasins/391/But-L-Aigle.html
Route de Lannilis,But,LE FOLGOËT,FRANCE,"{'brand': 'But', 'facia': 'But', 'category': 'Retail', 'edit_date': '2025-03-19', 'lat_lon_source': 'website'}",48.566181256821000000,-4.351526992988400000,But Lesneven,,392,29260,https://www.but.fr/magasins/392/But-Lesneven.html
105 route de Crest,But,AOUSTE SUR SYE,France,"{'brand': 'But', 'facia': 'But', 'category': 'Retail', 'edit_date': '2025-03-19', 'lat_lon_source': 'website'}",44.721233000000000000,5.037753000000000000,But Crest,,393,26400,https://www.but.fr/magasins/393/But-Crest.html
40 rue de Flandres,But,NEUFCHâTEL-EN-BRAY,France,"{'brand': 'But', 'facia': 'But', 'category': 'Retail', 'edit_date': '2025-03-19', 'lat_lon_source': 'website'}",49.736987282669000000,1.434778857080800000,But Neufchâtel-En-Bray,,394,76270,https://www.but.fr/magasins/394/But-Neufchatel-En-Bray.html
54-56 Avenue du Général Martial Valin,But,LIMOGES,France,"{'brand': 'But', 'facia': 'But', 'category': 'Retail', 'edit_date': '2025-03-19', 'lat_lon_source': 'website'}",45.806880411409000000,1.274739937186700000,But Limoges Sud,,395,87000,https://www.but.fr/magasins/395/But-Limoges-Sud.html
"1 allée des Cèdres, Parc Commercial Val Durance",But,SISTERON,France,"{'brand': 'But', 'facia': 'But', 'category': 'Retail', 'edit_date': '2025-03-19', 'lat_lon_source': 'website'}",44.236659600000000000,5.909602800000000000,But Sisteron,,396,04200,https://www.but.fr/magasins/396/But-Sisteron.html
Rue du Commandant Victor Sahuc,But,RIOM,France,"{'brand': 'But', 'facia': 'But', 'category': 'Retail', 'edit_date': '2025-03-19', 'lat_lon_source': 'website'}",45.879685000000000000,3.114561000000000000,But Riom,,397,63200,https://www.but.fr/magasins/397/But-Riom.html
50 Rue du 11 Novembre,But,ALBERT,France,"{'brand': 'But', 'facia': 'But', 'category': 'Retail', 'edit_date': '2025-03-19', 'lat_lon_source': 'website'}",49.997140798089000000,2.658141405756700000,But Albert,,398,80300,https://www.but.fr/magasins/398/But-Albert.html
ZAC du Bois de Ladre – Impasse derrière les Près,But,AVALLON,France,"{'brand': 'But', 'facia': 'But', 'category': 'Retail', 'edit_date': '2025-03-19', 'lat_lon_source': 'website'}",47.498419100000000000,3.915700600000000000,But Avallon,,399,89200,https://www.but.fr/magasins/399/But-Avallon.html
12 Rue du Bief,But,MORTEAU,France,"{'brand': 'But', 'facia': 'But', 'category': 'Retail', 'edit_date': '2025-03-19', 'lat_lon_source': 'website'}",47.058450000000000000,6.614700000000000000,But Morteau,,401,25500,https://www.but.fr/magasins/401/But-Morteau.html
14 Rue François Truffaut,But,THIERS,France,"{'brand': 'But', 'facia': 'But', 'category': 'Retail', 'edit_date': '2025-03-19', 'lat_lon_source': 'website'}",45.839299008585000000,3.510320118516400000,But Thiers,,402,63300,https://www.but.fr/magasins/402/But-Thiers.html
Allée de Szentendre,But,SALON DE PROVENCE,France,"{'brand': 'But', 'facia': 'But', 'category': 'Retail', 'edit_date': '2025-03-19', 'lat_lon_source': 'website'}",43.633446918177000000,5.075397704598800000,But Salon de Provence,,403,13300,https://www.but.fr/magasins/403/But-Salon-de-Provence.html
ZAC des Milliaires Genestet,But,BEAUCAIRE,France,"{'brand': 'But', 'facia': 'But', 'category': 'Retail', 'edit_date': '2025-03-19', 'lat_lon_source': 'website'}",43.815242833876000000,4.612675332663000000,But Beaucaire,,404,30300,https://www.but.fr/magasins/404/But-Beaucaire.html
Avenue du Maréchal Foch,But,SAINT-MAXIMIN-LA-SAINTE-BAUME,France,"{'brand': 'But', 'facia': 'But', 'category': 'Retail', 'edit_date': '2025-03-19', 'lat_lon_source': 'website'}",43.458074000000000000,5.862741000000000000,But Saint-Maximin-la-Sainte-Baume,,405,83470,https://www.but.fr/magasins/405/But-Saint-Maximin-la-Sainte-Baume.html
Avenue du Mas Saint Laurent,But,VAUVERT,France,"{'brand': 'But', 'facia': 'But', 'category': 'Retail', 'edit_date': '2025-03-19', 'lat_lon_source': 'website'}",43.708504049261000000,4.268016620241500000,But Vauvert,,406,30600,https://www.but.fr/magasins/406/But-Vauvert.html
Rue du Parc Manceau - ZAC de l’Ardoise,But,LE MANS,France,"{'brand': 'But', 'facia': 'But', 'category': 'Retail', 'edit_date': '2025-03-19', 'lat_lon_source': 'website'}",48.031013000000000000,0.182888000000000000,But Le Mans Nord,,407,72000,https://www.but.fr/magasins/407/But-Le-Mans-Nord.html
724 AVENUE DU 19 MARS 1962,But,ARBENT,France,"{'brand': 'But', 'facia': 'But', 'category': 'Retail', 'edit_date': '2025-03-19', 'lat_lon_source': 'website'}",46.284297301545000000,5.665142528659200000,But Oyonnax,,408,01100,https://www.but.fr/magasins/408/But-Oyonnax.html
Rue du Dr Robert Creusat,But,REIMS,France,"{'brand': 'But', 'facia': 'But', 'category': 'Retail', 'edit_date': '2025-03-19', 'lat_lon_source': 'website'}",49.290121458538000000,4.022138533423000000,But Reims La Neuvillette,,409,51100,https://www.but.fr/magasins/409/But-Reims-La-Neuvillette.html
Avenue de la Boutillerie,But,SEQUEDIN,France,"{'brand': 'But', 'facia': 'But', 'category': 'Retail', 'edit_date': '2025-03-19', 'lat_lon_source': 'website'}",50.627440287733000000,2.974211820062000000,But Englos,,410,59320,https://www.but.fr/magasins/410/But-Englos.html
679E Av. Michel Omerin,But,AMBERT,France,"{'brand': 'But', 'facia': 'But', 'category': 'Retail', 'edit_date': '2025-03-19', 'lat_lon_source': 'website'}",45.543404898088000000,3.729003164889900000,But Ambert,,411,63600,https://www.but.fr/magasins/411/But-Ambert.html
350 rue Blaise Pascal,But,PROVILLE,FR,"{'brand': 'But', 'facia': 'But', 'category': 'Retail', 'edit_date': '2025-03-19', 'lat_lon_source': 'website'}",50.149610000000000000,3.216830000000000000,But Cambrai,,412,59267,https://www.but.fr/magasins/412/But-Cambrai.html
17 rue des estuaires,But,BAIN-DE-BRETAGNE,FR,"{'brand': 'But', 'facia': 'But', 'category': 'Retail', 'edit_date': '2025-03-19', 'lat_lon_source': 'website'}",47.857685983169000000,-1.689782927978000000,But Bain-de-Bretagne,,413,35470,https://www.but.fr/magasins/413/But-Bain-de-Bretagne.html
