addr_full,brand,city,country,extras,lat,lon,name,opening_hours,phone,postcode,ref,state,website
Π. Τσαλδάρη 3,My Market, Μαρούσι ,Greece,"{'brand': 'My Market', 'fascia': 'My Market', 'category': 'Retail', 'edit_date': '2025-05-16', 'lat_lon_source': 'Third Party'}",38.05663616825868,23.803384077842143,My market Aμαρουσίου (Local),"{'opening_hours': {'Mon': '7:00 - 23:00', 'Tue': '7:00 - 23:00', 'Wed': '7:00 - 23:00', 'Thu': '7:00 - 23:00', 'Fri': '7:00 - 23:00', 'Sat': '7:00 - 23:00'}}",2111100880, 15122,260,,https://www.mymarket.gr/stores
Αχαρνών 80,My Market, Κηφισιά ,Greece,"{'brand': 'My Market', 'fascia': 'My Market', 'category': 'Retail', 'edit_date': '2025-05-16', 'lat_lon_source': 'Third Party'}",38.0748564837729,23.7954694032669,Eshop My Market Delivery Center,{'opening_hours': {}},2108013966, 14561,54,,https://www.mymarket.gr/stores
Κωνσταντίνου Καραμανλή 169 & Μαυρομιχάλη,My Market, Θεσσαλονίκη ,Greece,"{'brand': 'My Market', 'fascia': 'My Market', 'category': 'Retail', 'edit_date': '2025-05-16', 'lat_lon_source': 'Third Party'}",40.60046628113798,22.964649151751214,My market Local Θεσσαλονίκης Καραμανλή,"{'opening_hours': {'Mon': '07:00 - 23:00', 'Tue': '07:00 - 23:00', 'Wed': '07:00 - 23:00', 'Thu': '07:00 - 23:00', 'Fri': '07:00 - 23:00', 'Sat': '07:00 - 23:00', 'Sun': '08:00 - 22:00'}}",2316022012, 54249,258,,https://www.mymarket.gr/stores
"Ιωαννίνων 33 και Ευθυμένους 2, Αθήνα",My Market, Αθήνα ,Greece,"{'brand': 'My Market', 'fascia': 'My Market', 'category': 'Retail', 'edit_date': '2025-05-16', 'lat_lon_source': 'Third Party'}",37.990954964222944,23.717418992882642,My market Local Κολωνού,"{'opening_hours': {'Mon': '07:00 - 23:00', 'Tue': '07:00 - 23:00', 'Wed': '07:00 - 23:00', 'Thu': '07:00 - 23:00', 'Fri': '07:00 - 23:00', 'Sat': '07:00 - 23:00', 'Sun': '08:00 - 22:00'}}",2168083930, 10444,259,,https://www.mymarket.gr/stores
Λ. Πεντέλης 83,My Market, Χαλάνδρι ,Greece,"{'brand': 'My Market', 'fascia': 'My Market', 'category': 'Retail', 'edit_date': '2025-05-16', 'lat_lon_source': 'Third Party'}",38.027158424393356,23.811802618523714,My market Local Χαλανδρίου Λ. Πεντέλης (local),"{'opening_hours': {'Mon': '07:00 - 23:00', 'Tue': '07:00 - 23:00', 'Wed': '07:00 - 23:00', 'Thu': '07:00 - 23:00', 'Fri': '07:00 - 23:00', 'Sat': '07:00 - 23:00', 'Sun': '08:00 - 22:00'}}",2162025860, 15234,268,,https://www.mymarket.gr/stores
Αρτέμιδος 26,My Market, Μοσχάτο ,Greece,"{'brand': 'My Market', 'fascia': 'My Market', 'category': 'Retail', 'edit_date': '2025-05-16', 'lat_lon_source': 'Third Party'}",37.956254,23.68945,My market Mοσχάτο (Local),"{'opening_hours': {'Mon': '07:00 - 23:00', 'Tue': '07:00 - 23:00', 'Wed': '07:00 - 23:00', 'Thu': '07:00 - 23:00', 'Fri': '07:00 - 23:00', 'Sat': '07:00 - 23:00', 'Sun': '08:00 - 22:00'}}",2100108324, 18345,262,,https://www.mymarket.gr/stores
Σ. Βενιζέλου 62 & Λαρίσης,My Market, Αγιοι Ανάργυροι ,Greece,"{'brand': 'My Market', 'fascia': 'My Market', 'category': 'Retail', 'edit_date': '2025-05-16', 'lat_lon_source': 'Third Party'}",38.02566,23.72169,My market Αγ. Ανάργυροι Βενιζέλου,"{'opening_hours': {'Mon': '8:00  -  21:00', 'Tue': '8:00  -  21:00', 'Wed': '8:00  -  21:00', 'Thu': '8:00  -  21:00', 'Fri': '8:00  -  21:00', 'Sat': '8:00  -  20:30'}}",2102628341, 13561,56,,https://www.mymarket.gr/stores
Ν. Πλαστήρα 76,My Market, Άγ. Ανάργυροι ,Greece,"{'brand': 'My Market', 'fascia': 'My Market', 'category': 'Retail', 'edit_date': '2025-05-16', 'lat_lon_source': 'Third Party'}",38.0230907563347,23.7214726209641,My market Άγ. Ανάργυροι Πλαστήρα,"{'opening_hours': {'Mon': '8:00  -  21:00', 'Tue': '8:00  -  21:00', 'Wed': '8:00  -  21:00', 'Thu': '8:00  -  21:00', 'Fri': '8:00  -  21:00', 'Sat': '8:00  -  20:00'}}",2108541934, 13561,57,,https://www.mymarket.gr/stores
Ελ.Βενιζέλου 42,My Market, Αγία Βαρβάρα ,Greece,"{'brand': 'My Market', 'fascia': 'My Market', 'category': 'Retail', 'edit_date': '2025-05-16', 'lat_lon_source': 'Third Party'}",37.9955418,23.6620847,My market Αγ. Βαρβάρα Βενιζέλου,"{'opening_hours': {'Mon': '8:00  -  21:00', 'Tue': '8:00  -  21:00', 'Wed': '8:00  -  21:00', 'Thu': '8:00  -  21:00', 'Fri': '8:00  -  21:00', 'Sat': '8:00  -  20:00'}}",2105446601, 12351,3,,https://www.mymarket.gr/stores
Λεωφόρος Μεγάλου Αλεξάνδρου 139,My Market, Αγ. Βαρβάρα ,Greece,"{'brand': 'My Market', 'fascia': 'My Market', 'category': 'Retail', 'edit_date': '2025-05-16', 'lat_lon_source': 'Third Party'}",37.988424999064,23.66103172,My market Αγ. Βαρβάρα Μ.Αλεξάνδρου easy,"{'opening_hours': {'Mon': '8:00  -  21:00', 'Tue': '8:00  -  21:00', 'Wed': '8:00  -  21:00', 'Thu': '8:00  -  21:00', 'Fri': '8:00  -  21:00', 'Sat': '8:00  -  20:00'}}",2105695204, 12351,58,,https://www.mymarket.gr/stores
Πλουτάρχου 67,My Market, Άγιος Δημήτριος ,Greece,"{'brand': 'My Market', 'fascia': 'My Market', 'category': 'Retail', 'edit_date': '2025-05-16', 'lat_lon_source': 'Third Party'}",37.92419265453059,23.731533202964474,My market Αγ. Δημήτριος,"{'opening_hours': {'Mon': '8:00  -  21:00', 'Tue': '8:00  -  21:00', 'Wed': '8:00  -  21:00', 'Thu': '8:00  -  21:00', 'Fri': '8:00  -  21:00', 'Sat': '8:00  -  20:00'}}",2109960473, 17342,18,,https://www.mymarket.gr/stores
"Ασυρμάτου 25, Αγ. Δημήτριος",My Market, Άγιος Δημήτριος ,Greece,"{'brand': 'My Market', 'fascia': 'My Market', 'category': 'Retail', 'edit_date': '2025-05-16', 'lat_lon_source': 'Third Party'}",37.9350708310134,23.7226085364819,My market Αγ. Δημήτριος Ασύρματος,"{'opening_hours': {'Mon': '8:00  -  21:00', 'Tue': '8:00  -  21:00', 'Wed': '8:00  -  21:00', 'Thu': '8:00  -  21:00', 'Fri': '8:00  -  21:00', 'Sat': '8:00  -  20:00'}}",2109370054, 17341,59,,https://www.mymarket.gr/stores
Βικέλα 2 & Παγανέλλη,My Market, Άγιος Ελευθέριος ,Greece,"{'brand': 'My Market', 'fascia': 'My Market', 'category': 'Retail', 'edit_date': '2025-05-16', 'lat_lon_source': 'Third Party'}",38.016897,23.72749,My market Αγ. Ελευθέριος,"{'opening_hours': {'Mon': '8:00  -  21:00', 'Tue': '8:00  -  21:00', 'Wed': '8:00  -  21:00', 'Thu': '8:00  -  21:00', 'Fri': '8:00  -  21:00', 'Sat': '8:00  -  20:00'}}",2108325131, 11145,60,,https://www.mymarket.gr/stores
"Παλαιά Ε.Ο. Αθηνών-Κορίνθου, Θέση Τσόπα",My Market, Άγ. Θεόδωροι Κορινθίας ,Greece,"{'brand': 'My Market', 'fascia': 'My Market', 'category': 'Retail', 'edit_date': '2025-05-16', 'lat_lon_source': 'Third Party'}",37.9243011936868,23.1331944465637,My market Άγ. Θεόδωροι,"{'opening_hours': {'Mon': '8:00  -  21:00', 'Tue': '8:00  -  21:00', 'Wed': '8:00  -  21:00', 'Thu': '8:00  -  21:00', 'Fri': '8:00  -  21:00', 'Sat': '8:00  -  20:00'}}",2741060095, 20003,61,,https://www.mymarket.gr/stores
Καμπάνη 10 & Αγ. Μελετίου,My Market, Αθήνα ,Greece,"{'brand': 'My Market', 'fascia': 'My Market', 'category': 'Retail', 'edit_date': '2025-05-16', 'lat_lon_source': 'Third Party'}",38.001408745482,23.7287575006484,My market Αγ. Μελέτιος,"{'opening_hours': {'Mon': '8:00  -  21:00', 'Tue': '8:00  -  21:00', 'Wed': '8:00  -  21:00', 'Thu': '8:00  -  21:00', 'Fri': '8:00  -  21:00', 'Sat': '8:00  -  20:00'}}",2108641203, 11252,62,,https://www.mymarket.gr/stores
Χαλανδρίου 17,My Market, Αγία Παρασκευή ,Greece,"{'brand': 'My Market', 'fascia': 'My Market', 'category': 'Retail', 'edit_date': '2025-05-16', 'lat_lon_source': 'Third Party'}",38.014023,23.817473,My market Αγ. Παρασκευή,"{'opening_hours': {'Mon': '8:00  -  21:00', 'Tue': '8:00  -  21:00', 'Wed': '8:00  -  21:00', 'Thu': '8:00  -  21:00', 'Fri': '8:00  -  21:00', 'Sat': '8:00  -  20:00'}}",2106083426, 15343,21,,https://www.mymarket.gr/stores
Παλαμηδίου 13,My Market, Αγία Σοφία Πειραιά ,Greece,"{'brand': 'My Market', 'fascia': 'My Market', 'category': 'Retail', 'edit_date': '2025-05-16', 'lat_lon_source': 'Third Party'}",37.954293,23.6442052,My market Αγ. Σοφία,"{'opening_hours': {'Mon': '8:00  -  21:00', 'Tue': '8:00  -  21:00', 'Wed': '8:00  -  21:00', 'Thu': '8:00  -  21:00', 'Fri': '8:00  -  21:00', 'Sat': '8:00  -  20:00'}}",2104210332, 18545,1,,https://www.mymarket.gr/stores
Διονύσου & Αλαμάνας 48,My Market, Άγιος Φανούριος ,Greece,"{'brand': 'My Market', 'fascia': 'My Market', 'category': 'Retail', 'edit_date': '2025-05-16', 'lat_lon_source': 'Third Party'}",38.02293,23.706238,My market Αγ. Φανούριος Αλαμάνας,"{'opening_hours': {'Mon': '8:00  -  21:00', 'Tue': '8:00  -  21:00', 'Wed': '8:00  -  21:00', 'Thu': '8:00  -  21:00', 'Fri': '8:00  -  21:00', 'Sat': '8:00  -  20:00'}}",2102614986, 13122,64,,https://www.mymarket.gr/stores
Φωλοπούλου 20 και Μυρμιδόνος,My Market, Άγ. Φανούριος ,Greece,"{'brand': 'My Market', 'fascia': 'My Market', 'category': 'Retail', 'edit_date': '2025-05-16', 'lat_lon_source': 'Third Party'}",38.016516,23.708549,My market Άγ. Φανούριος Φωλοπούλου,"{'opening_hours': {'Mon': '8:00  -  21:00', 'Tue': '8:00  -  21:00', 'Wed': '8:00  -  21:00', 'Thu': '8:00  -  21:00', 'Fri': '8:00  -  21:00', 'Sat': '8:00  -  20:00'}}",2105786630, 12133,65,,https://www.mymarket.gr/stores
Αγίου Δημητρίου 171,My Market, Άγιος Δήμητριος ,Greece,"{'brand': 'My Market', 'fascia': 'My Market', 'category': 'Retail', 'edit_date': '2025-05-16', 'lat_lon_source': 'Third Party'}",37.935253536350544,23.729414906500743,My market Αγίου Δημητρίου (Local),"{'opening_hours': {'Mon': '07:00 - 23:00', 'Tue': '07:00 - 23:00', 'Wed': '07:00 - 23:00', 'Thu': '07:00 - 23:00', 'Fri': '07:00 - 23:00', 'Sat': '07:00 - 23:00', 'Sun': '08:00 - 22:00'}}",2130889350, 17343,249,,https://www.mymarket.gr/stores
Χ. Νικολάου και Σβώλη,My Market, Αγρίνιο ,Greece,"{'brand': 'My Market', 'fascia': 'My Market', 'category': 'Retail', 'edit_date': '2025-05-16', 'lat_lon_source': 'Third Party'}",38.6295672374649,21.4186111092567,My market Αγρίνιο Αγ. Χριστόφορος,"{'opening_hours': {'Mon': '8:00  -  21:00', 'Tue': '8:00  -  21:00', 'Wed': '8:00  -  21:00', 'Thu': '8:00  -  21:00', 'Fri': '8:00  -  21:00', 'Sat': '8:00  -  20:00'}}",2641059836, 30100,66,,https://www.mymarket.gr/stores
Μ. Κατράκη & Ε. Λαμπέτη & Γ. Σεφέρη,My Market, Αγρίνιο ,Greece,"{'brand': 'My Market', 'fascia': 'My Market', 'category': 'Retail', 'edit_date': '2025-05-16', 'lat_lon_source': 'Third Party'}",38.6145819137973,21.4158296585083,My market Αγρίνιο Κατράκη,"{'opening_hours': {'Mon': '8:00  -  21:00', 'Tue': '8:00  -  21:00', 'Wed': '8:00  -  21:00', 'Thu': '8:00  -  21:00', 'Fri': '8:00  -  21:00', 'Sat': '8:00  -  20:00'}}",2641034165, 30131,67,,https://www.mymarket.gr/stores
Τερτσέτη-Κυριαζή-Παπαφλέσσα,My Market, Αγρίνιο ,Greece,"{'brand': 'My Market', 'fascia': 'My Market', 'category': 'Retail', 'edit_date': '2025-05-16', 'lat_lon_source': 'Third Party'}",38.621641,21.404411,My market Αγρίνιο Τερτσέτη,"{'opening_hours': {'Mon': '8:00  -  21:00', 'Tue': '8:00  -  21:00', 'Wed': '8:00  -  21:00', 'Thu': '8:00  -  21:00', 'Fri': '8:00  -  21:00', 'Sat': '8:00  -  20:00'}}",2641058104, 30131,68,,https://www.mymarket.gr/stores
"Θηβών 509 & Πετμεζά, Αγ. Σπυρίδων",My Market, Αιγάλεω ,Greece,"{'brand': 'My Market', 'fascia': 'My Market', 'category': 'Retail', 'edit_date': '2025-05-16', 'lat_lon_source': 'Third Party'}",37.9998003018758,23.6838868260384,My market Αιγάλεω Θηβών,"{'opening_hours': {'Mon': '8:00  -  21:00', 'Tue': '8:00  -  21:00', 'Wed': '8:00  -  21:00', 'Thu': '8:00  -  21:00', 'Fri': '8:00  -  21:00', 'Sat': '8:00  -  20:00'}}",2105909066, 12243,69,,https://www.mymarket.gr/stores
Κυπαρισσίας 7 & Αβέρωφ,My Market, Αιγάλεω ,Greece,"{'brand': 'My Market', 'fascia': 'My Market', 'category': 'Retail', 'edit_date': '2025-05-16', 'lat_lon_source': 'Third Party'}",37.99332,23.67302,My market Αιγάλεω Κυπαρισσίας,"{'opening_hours': {'Mon': '8:00  -  21:00', 'Tue': '8:00  -  21:00', 'Wed': '8:00  -  21:00', 'Thu': '8:00  -  21:00', 'Fri': '8:00  -  21:00', 'Sat': '8:00  -  20:00'}}",2105904255, 12244,70,,https://www.mymarket.gr/stores
"Ε.Ο. Χαλκίδος-Λεπούρων, Θέση Γήπεδο Αλιβερίου",My Market, Aλιβέρι ,Greece,"{'brand': 'My Market', 'fascia': 'My Market', 'category': 'Retail', 'edit_date': '2025-05-16', 'lat_lon_source': 'Third Party'}",38.4082400137259,24.03144,My market Αλιβέρι,"{'opening_hours': {'Mon': '8:00  -  21:00', 'Tue': '8:00  -  21:00', 'Wed': '8:00  -  21:00', 'Thu': '8:00  -  21:00', 'Fri': '8:00  -  21:00', 'Sat': '8:00  -  20:00'}}",2223025442, 34500,71,,https://www.mymarket.gr/stores
Αριστοτέλους 57 και Κανάρη 6,My Market, 'Αλιμος ,Greece,"{'brand': 'My Market', 'fascia': 'My Market', 'category': 'Retail', 'edit_date': '2025-05-16', 'lat_lon_source': 'Third Party'}",37.9108160314355,23.7133736908436,My market Άλιμος,"{'opening_hours': {'Mon': '8:00  -  21:00', 'Tue': '8:00  -  21:00', 'Wed': '8:00  -  21:00', 'Thu': '8:00  -  21:00', 'Fri': '8:00  -  21:00', 'Sat': '8:00  -  20:00'}}",2109839828, 17455,25,,https://www.mymarket.gr/stores
Ελ. Βενιζέλου 19,My Market, 'Αλιμος ,Greece,"{'brand': 'My Market', 'fascia': 'My Market', 'category': 'Retail', 'edit_date': '2025-05-16', 'lat_lon_source': 'Third Party'}",37.922717356711814,23.740603537190577,My market Αλίμου (Local),"{'opening_hours': {'Mon': '07:00 - 23:00', 'Tue': '07:00 - 23:00', 'Wed': '07:00 - 23:00', 'Thu': '07:00 - 23:00', 'Fri': '07:00 - 23:00', 'Sat': '07:00 - 23:00', 'Sun': '08:00 - 22:00'}}",2160046986, 17456,277,,https://www.mymarket.gr/stores
Καποδιστρίου & Ρούμελης,My Market, Αλσούπολη ,Greece,"{'brand': 'My Market', 'fascia': 'My Market', 'category': 'Retail', 'edit_date': '2025-05-16', 'lat_lon_source': 'Third Party'}",38.031284294509,23.7773939967155,My market Αλσούπολη,"{'opening_hours': {'Mon': '8:00  -  21:00', 'Tue': '8:00  -  21:00', 'Wed': '8:00  -  21:00', 'Thu': '8:00  -  21:00', 'Fri': '8:00  -  21:00', 'Sat': '8:00  -  20:00'}}",2102776041, 14232,20,,https://www.mymarket.gr/stores
Λαμπείας 3,My Market, Αμαλιάδα ,Greece,"{'brand': 'My Market', 'fascia': 'My Market', 'category': 'Retail', 'edit_date': '2025-05-16', 'lat_lon_source': 'Third Party'}",37.79373,21.35037,My market Αμαλιάδα Λαμπείας easy,"{'opening_hours': {'Mon': '8:00  -  21:00', 'Tue': '8:00  -  21:00', 'Wed': '8:00  -  21:00', 'Thu': '8:00  -  21:00', 'Fri': '8:00  -  21:00', 'Sat': '8:00  -  20:00'}}",2622029512, 27200,72,,https://www.mymarket.gr/stores
Ρήγα Φεραίου 11 & Κουρογιαννοπούλου,My Market, Αμαλιάδα ,Greece,"{'brand': 'My Market', 'fascia': 'My Market', 'category': 'Retail', 'edit_date': '2025-05-16', 'lat_lon_source': 'Third Party'}",37.79759,21.3495254516602,My market Αμαλιάδα Ρήγα Φεραίου,"{'opening_hours': {'Mon': '8:00  -  21:00', 'Tue': '8:00  -  21:00', 'Wed': '8:00  -  21:00', 'Thu': '8:00  -  21:00', 'Fri': '8:00  -  21:00', 'Sat': '8:00  -  20:00'}}",2622025077, 27200,73,,https://www.mymarket.gr/stores
Ηροδότου 33,My Market, Μαρούσι ,Greece,"{'brand': 'My Market', 'fascia': 'My Market', 'category': 'Retail', 'edit_date': '2025-05-16', 'lat_lon_source': 'Third Party'}",38.06562,23.803771,My market Αμαρουσίου (Local),"{'opening_hours': {'Mon': '7:00 - 23:00', 'Tue': '7:00 - 23:00', 'Wed': '7:00 - 23:00', 'Thu': '7:00 - 23:00', 'Fri': '7:00 - 23:00', 'Sat': '7:00 - 23:00'}}",2120210789, 15122,245,,https://www.mymarket.gr/stores
Καρύστου 17,My Market, Αμπελόκηποι ,Greece,"{'brand': 'My Market', 'fascia': 'My Market', 'category': 'Retail', 'edit_date': '2025-05-16', 'lat_lon_source': 'Third Party'}",37.993398,23.761473,My market Αμπελόκηποι (Local),"{'opening_hours': {'Mon': '07:00 - 23:00', 'Tue': '07:00 - 23:00', 'Wed': '07:00 - 23:00', 'Thu': '07:00 - 23:00', 'Fri': '07:00 - 23:00', 'Sat': '07:00 - 23:00', 'Sun': '08:00 - 22:00'}}",2162020835, 11524,75,,https://www.mymarket.gr/stores
Μεγ. Αλεξάνδρου 21,My Market, Θεσσαλονίκη ,Greece,"{'brand': 'My Market', 'fascia': 'My Market', 'category': 'Retail', 'edit_date': '2025-05-16', 'lat_lon_source': 'Third Party'}",40.655408813661715,22.923682502409147,My market Αμπελόκηποι Θεσσαλονίκης (Local),"{'opening_hours': {'Mon': '07:00 - 23:00', 'Tue': '07:00 - 23:00', 'Wed': '07:00 - 23:00', 'Thu': '07:00 - 23:00', 'Fri': '07:00 - 23:00', 'Sat': '07:00 - 23:00', 'Sun': '08:00 - 22:00'}}",2316020194, 56121,263,,https://www.mymarket.gr/stores
Λεωφ. Κων. Καραμανλή – Θέση Παλαιοί Άμπελοι,My Market, Ανάβυσσος ,Greece,"{'brand': 'My Market', 'fascia': 'My Market', 'category': 'Retail', 'edit_date': '2025-05-16', 'lat_lon_source': 'Third Party'}",37.73359,23.948943,My market Ανάβυσσος,"{'opening_hours': {'Mon': '8:00  -  21:00', 'Tue': '8:00  -  21:00', 'Wed': '8:00  -  21:00', 'Thu': '8:00  -  21:00', 'Fri': '8:00  -  21:00'}}",2291037330, 190 13,76,,https://www.mymarket.gr/stores
Αγίας Μαρίνας 50,My Market, Περιστέρι ,Greece,"{'brand': 'My Market', 'fascia': 'My Market', 'category': 'Retail', 'edit_date': '2025-05-16', 'lat_lon_source': 'Third Party'}",38.02189,23.69057,My market Ανθούπολη,"{'opening_hours': {'Mon': '8:00  -  21:00', 'Tue': '8:00  -  21:00', 'Wed': '8:00  -  21:00', 'Thu': '8:00  -  21:00', 'Fri': '8:00  -  21:00', 'Sat': '8:00  -  20:00'}}",2105771018, 12135,77,,https://www.mymarket.gr/stores
Μαραθώνος & Ροδοδάφνης,My Market, Άνοιξη ,Greece,"{'brand': 'My Market', 'fascia': 'My Market', 'category': 'Retail', 'edit_date': '2025-05-16', 'lat_lon_source': 'Third Party'}",38.1330987420761,23.859241604805,My market Άνοιξη,"{'opening_hours': {'Mon': '8:00  -  21:00', 'Tue': '8:00  -  21:00', 'Wed': '8:00  -  21:00', 'Thu': '8:00  -  21:00', 'Fri': '8:00  -  21:00', 'Sat': '8:00  -  20:00'}}",2106216023, 14569,17,,https://www.mymarket.gr/stores
Δημαρχείου 15,My Market, Άνω Λιόσια ,Greece,"{'brand': 'My Market', 'fascia': 'My Market', 'category': 'Retail', 'edit_date': '2025-05-16', 'lat_lon_source': 'Third Party'}",38.0797752,23.7018714,My market Άνω Λιόσια Δημαρχείο easy,"{'opening_hours': {'Mon': '8:00  -  21:00', 'Tue': '8:00  -  21:00', 'Wed': '8:00  -  21:00', 'Thu': '8:00  -  21:00', 'Fri': '8:00  -  21:00', 'Sat': '8:00  -  20:00'}}",2102470077, 13341,78,,https://www.mymarket.gr/stores
Καραϊσκάκη και Ολυμπίου,My Market, Άνω Λιόσια ,Greece,"{'brand': 'My Market', 'fascia': 'My Market', 'category': 'Retail', 'edit_date': '2025-05-16', 'lat_lon_source': 'Third Party'}",38.08497335,23.69948761,My market Άνω Λιόσια Καραϊσκάκη,"{'opening_hours': {'Mon': '8:00  -  21:00', 'Tue': '8:00  -  21:00', 'Wed': '8:00  -  21:00', 'Thu': '8:00  -  21:00', 'Fri': '8:00  -  21:00', 'Sat': '8:00  -  20:00'}}",2102483300, 13341,79,,https://www.mymarket.gr/stores
Λ. Φυλής & Σκαλκώτα,My Market, Άνω Λιόσια ,Greece,"{'brand': 'My Market', 'fascia': 'My Market', 'category': 'Retail', 'edit_date': '2025-05-16', 'lat_lon_source': 'Third Party'}",38.074459530041,23.70628,My market Άνω Λιόσια Λ. Φυλής,"{'opening_hours': {'Mon': '8:00  -  21:00', 'Tue': '8:00  -  21:00', 'Wed': '8:00  -  21:00', 'Thu': '8:00  -  21:00', 'Fri': '8:00  -  21:00', 'Sat': '8:00  -  20:00'}}",2102471844, 13341,80,,https://www.mymarket.gr/stores
Τρωών 38,My Market, Άνω Πετράλωνα ,Greece,"{'brand': 'My Market', 'fascia': 'My Market', 'category': 'Retail', 'edit_date': '2025-05-16', 'lat_lon_source': 'Third Party'}",37.96953,23.71294,My market Άνω Πετράλωνα,"{'opening_hours': {'Mon': '8:00  -  21:00', 'Tue': '8:00  -  21:00', 'Wed': '8:00  -  21:00', 'Thu': '8:00  -  21:00', 'Fri': '8:00  -  21:00', 'Sat': '8:00  -  20:00'}}",2103475997, 11851,81,,https://www.mymarket.gr/stores
Ναυπλίου 53 και 25ης Μαρτίου,My Market, Άργος ,Greece,"{'brand': 'My Market', 'fascia': 'My Market', 'category': 'Retail', 'edit_date': '2025-05-16', 'lat_lon_source': 'Third Party'}",37.629671,22.736616,My market Άργος,"{'opening_hours': {'Mon': '8:00  -  21:00', 'Tue': '8:00  -  21:00', 'Wed': '8:00  -  21:00', 'Thu': '8:00  -  21:00', 'Fri': '8:00  -  21:00', 'Sat': '8:00  -  20:00'}}",2751306950, 21200,270,,https://www.mymarket.gr/stores
Αντώνη Τρίτση 1,My Market, Αργοστόλι ,Greece,"{'brand': 'My Market', 'fascia': 'My Market', 'category': 'Retail', 'edit_date': '2025-05-16', 'lat_lon_source': 'Third Party'}",38.17672,20.496711730957,My market Αργοστόλι,"{'opening_hours': {'Mon': '8:00  -  21:00', 'Tue': '8:00  -  21:00', 'Wed': '8:00  -  21:00', 'Thu': '8:00  -  21:00', 'Fri': '8:00  -  21:00', 'Sat': '8:00  -  20:00'}}",2671027346, 28100,82,,https://www.mymarket.gr/stores
Αλεξιουπόλεως 48,My Market, Αργυρούπολη ,Greece,"{'brand': 'My Market', 'fascia': 'My Market', 'category': 'Retail', 'edit_date': '2025-05-16', 'lat_lon_source': 'Third Party'}",37.905893875107,23.7514838313758,My market Αργυρούπολη (Local),"{'opening_hours': {'Mon': '07:00 - 23:00', 'Tue': '07:00 - 23:00', 'Wed': '07:00 - 23:00', 'Thu': '07:00 - 23:00', 'Fri': '07:00 - 23:00', 'Sat': '07:00 - 23:00', 'Sun': '08:00 - 22:00'}}",2160039087, 16452,83,,https://www.mymarket.gr/stores
Θήρας 93,My Market, Αργυρούπολη ,Greece,"{'brand': 'My Market', 'fascia': 'My Market', 'category': 'Retail', 'edit_date': '2025-05-16', 'lat_lon_source': 'Third Party'}",37.91688085120153,23.75229527999581,My market Αργυρούπολης (local),"{'opening_hours': {'Mon': '07:00 - 23:00', 'Tue': '07:00 - 23:00', 'Wed': '07:00 - 23:00', 'Thu': '07:00 - 23:00', 'Fri': '07:00 - 23:00', 'Sat': '07:00 - 23:00', 'Sun': '08:00 - 22:00'}}",2169395246, 16451,273,,https://www.mymarket.gr/stores
Ζάρρα 57,My Market, Άρτα ,Greece,"{'brand': 'My Market', 'fascia': 'My Market', 'category': 'Retail', 'edit_date': '2025-05-16', 'lat_lon_source': 'Third Party'}",39.154596,20.980486,My market Άρτα,"{'opening_hours': {'Mon': '8:00  -  21:00', 'Tue': '8:00  -  21:00', 'Wed': '8:00  -  21:00', 'Thu': '8:00  -  21:00', 'Fri': '8:00  -  21:00', 'Sat': '8:00  -  20:00'}}",2681023817, 47100,84,,https://www.mymarket.gr/stores
Νέα Επαρχ. Οδός Αταλάντης-Σκάλας,My Market, Αταλάντη ,Greece,"{'brand': 'My Market', 'fascia': 'My Market', 'category': 'Retail', 'edit_date': '2025-05-16', 'lat_lon_source': 'Third Party'}",38.657758,23.005663,My market Αταλάντη,"{'opening_hours': {'Mon': '8:00  -  21:00', 'Tue': '8:00  -  21:00', 'Wed': '8:00  -  21:00', 'Thu': '8:00  -  21:00', 'Fri': '8:00  -  21:00', 'Sat': '8:00  -  20:00'}}",2233080278, 35200,85,,https://www.mymarket.gr/stores
"Λ. Δηλεσίου, Παραλία Αυλίδας",My Market, Αυλίδα ,Greece,"{'brand': 'My Market', 'fascia': 'My Market', 'category': 'Retail', 'edit_date': '2025-05-16', 'lat_lon_source': 'Third Party'}",38.36430448,23.64105872,My market Αυλίδα,"{'opening_hours': {'Mon': '8:00  -  21:00', 'Tue': '8:00  -  21:00', 'Wed': '8:00  -  21:00', 'Thu': '8:00  -  21:00', 'Fri': '8:00  -  21:00', 'Sat': '8:00  -  20:00'}}",2221038985, 34100,86,,https://www.mymarket.gr/stores
Λ. Αθηνών 24 και Φ. Δέδε,My Market, Αχαρνές ,Greece,"{'brand': 'My Market', 'fascia': 'My Market', 'category': 'Retail', 'edit_date': '2025-05-16', 'lat_lon_source': 'Third Party'}",38.07847934,23.73420608,My market Αχαρνές,"{'opening_hours': {'Mon': '8:00  -  21:00', 'Tue': '8:00  -  21:00', 'Wed': '8:00  -  21:00', 'Thu': '8:00  -  21:00', 'Fri': '8:00  -  21:00', 'Sat': '8:00  -  20:00'}}",2102465338, 13671,87,,https://www.mymarket.gr/stores
Ψαρρών 39 & Κ. Παλαιολόγου,My Market, Πλατεία Βάθης ,Greece,"{'brand': 'My Market', 'fascia': 'My Market', 'category': 'Retail', 'edit_date': '2025-05-16', 'lat_lon_source': 'Third Party'}",37.98855,23.72273,My market Βάθης easy,"{'opening_hours': {'Mon': '8:00  -  21:00', 'Tue': '8:00  -  21:00', 'Wed': '8:00  -  21:00', 'Thu': '8:00  -  21:00', 'Fri': '8:00  -  21:00', 'Sat': '8:00  -  20:00'}}",2105243448, 10438,88,,https://www.mymarket.gr/stores
Λ.Αναρυρούντος 14 (πρώην Λ.Βάρης Κορωπίου),My Market, Βάρη ,Greece,"{'brand': 'My Market', 'fascia': 'My Market', 'category': 'Retail', 'edit_date': '2025-05-16', 'lat_lon_source': 'Third Party'}",37.8337648658998,23.7992365658283,My market Βάρη,"{'opening_hours': {'Mon': '8:00  -  21:00', 'Tue': '8:00  -  21:00', 'Wed': '8:00  -  21:00', 'Thu': '8:00  -  21:00', 'Fri': '8:00  -  21:00', 'Sat': '8:00  -  20:00'}}",2108975210, 16672,2,,https://www.mymarket.gr/stores
Μητροπόλεως 42,My Market, Βέροια ,Greece,"{'brand': 'My Market', 'fascia': 'My Market', 'category': 'Retail', 'edit_date': '2025-05-16', 'lat_lon_source': 'Third Party'}",40.522551,22.203711,My market Βέροια,"{'opening_hours': {'Mon': '8:00  -  21:00', 'Tue': '8:00  -  21:00', 'Wed': '8:00  -  21:00', 'Thu': '8:00  -  21:00', 'Fri': '8:00  -  21:00', 'Sat': '8:00  -  20:00'}}",2331020017, 59132,89,,https://www.mymarket.gr/stores
Φυλής 118,My Market, Αθήνα ,Greece,"{'brand': 'My Market', 'fascia': 'My Market', 'category': 'Retail', 'edit_date': '2025-05-16', 'lat_lon_source': 'Third Party'}",37.99594,23.72888,My market Βικτώρια,"{'opening_hours': {'Mon': '8:00  -  21:00', 'Tue': '8:00  -  21:00', 'Wed': '8:00  -  21:00', 'Thu': '8:00  -  21:00', 'Fri': '8:00  -  21:00', 'Sat': '8:00  -  20:00'}}",2108218738, 10434,90,,https://www.mymarket.gr/stores
Αβέρωφ 7 Ν. Ιωνία,My Market, Ν. Ιωνία Βόλου ,Greece,"{'brand': 'My Market', 'fascia': 'My Market', 'category': 'Retail', 'edit_date': '2025-05-16', 'lat_lon_source': 'Third Party'}",39.37098,22.9363739490509,My market Βόλος Αβέρωφ,"{'opening_hours': {'Mon': '8:00  -  21:00', 'Tue': '8:00  -  21:00', 'Wed': '8:00  -  21:00', 'Thu': '8:00  -  21:00', 'Fri': '8:00  -  21:00', 'Sat': '8:00  -  20:00'}}",2421091363, 38446,91,,https://www.mymarket.gr/stores
Λ. Δημοκρατίας 105,My Market, Αγριά ,Greece,"{'brand': 'My Market', 'fascia': 'My Market', 'category': 'Retail', 'edit_date': '2025-05-16', 'lat_lon_source': 'Third Party'}",39.340078,23.004358,My market Βόλος Αγριά,"{'opening_hours': {'Mon': '8:00  -  21:00', 'Tue': '8:00  -  21:00', 'Wed': '8:00  -  21:00', 'Thu': '8:00  -  21:00', 'Fri': '8:00  -  21:00', 'Sat': '8:00  -  20:00'}}",2428091276, 37300,92,,https://www.mymarket.gr/stores
Αναλήψεως και Παγασών,My Market, Βόλος ,Greece,"{'brand': 'My Market', 'fascia': 'My Market', 'category': 'Retail', 'edit_date': '2025-05-16', 'lat_lon_source': 'Third Party'}",39.37055,22.9439,My market Βόλος Αναλήψεως,"{'opening_hours': {'Mon': '8:00  -  21:00', 'Tue': '8:00  -  21:00', 'Wed': '8:00  -  21:00', 'Thu': '8:00  -  21:00', 'Fri': '8:00  -  21:00', 'Sat': '8:00  -  20:00'}}",2421040437, Οξυγόνο,93,,https://www.mymarket.gr/stores
Γεωργιάδου 227 & Δεληγιώργη,My Market, Βόλος ,Greece,"{'brand': 'My Market', 'fascia': 'My Market', 'category': 'Retail', 'edit_date': '2025-05-16', 'lat_lon_source': 'Third Party'}",39.36219,22.957,My market Βόλος Γεωργιάδου easy,"{'opening_hours': {'Mon': '8:00  -  21:00', 'Tue': '8:00  -  21:00', 'Wed': '8:00  -  21:00', 'Thu': '8:00  -  21:00', 'Fri': '8:00  -  21:00', 'Sat': '8:00  -  20:00'}}",2421049676, Καραγατς,94,,https://www.mymarket.gr/stores
Ηφαίστου 13,My Market, Βόλος ,Greece,"{'brand': 'My Market', 'fascia': 'My Market', 'category': 'Retail', 'edit_date': '2025-05-16', 'lat_lon_source': 'Third Party'}",39.35944,22.96417,My market Βόλος Ηφαίστου,"{'opening_hours': {'Mon': '8:00  -  21:00', 'Tue': '8:00  -  21:00', 'Wed': '8:00  -  21:00', 'Thu': '8:00  -  21:00', 'Fri': '8:00  -  21:00', 'Sat': '8:00  -  20:00'}}",2421071756, 38222,95,,https://www.mymarket.gr/stores
Κωνσταντά - Σπυρίδη,My Market, Βόλος ,Greece,"{'brand': 'My Market', 'fascia': 'My Market', 'category': 'Retail', 'edit_date': '2025-05-16', 'lat_lon_source': 'Third Party'}",39.36359,22.95061,My market Βόλος Κωνσταντά,"{'opening_hours': {'Mon': '8:00  -  21:00', 'Tue': '8:00  -  21:00', 'Wed': '8:00  -  21:00', 'Thu': '8:00  -  21:00', 'Fri': '8:00  -  21:00', 'Sat': '8:00  -  20:00'}}",2421048975, 38221,96,,https://www.mymarket.gr/stores
Λαρίσης 99 & Νεαπόλεως,My Market, Βόλος ,Greece,"{'brand': 'My Market', 'fascia': 'My Market', 'category': 'Retail', 'edit_date': '2025-05-16', 'lat_lon_source': 'Third Party'}",39.3633148337171,22.9301659762859,My market Βόλος Λαρίσης,"{'opening_hours': {'Mon': '8:00  -  21:00', 'Tue': '8:00  -  21:00', 'Wed': '8:00  -  21:00', 'Thu': '8:00  -  21:00', 'Fri': '8:00  -  21:00', 'Sat': '8:00  -  20:00'}}",2421081531, 38222,50,,https://www.mymarket.gr/stores
Λεωφ.Πεντέλης 120-126,My Market, Βριλήσσια ,Greece,"{'brand': 'My Market', 'fascia': 'My Market', 'category': 'Retail', 'edit_date': '2025-05-16', 'lat_lon_source': 'Third Party'}",38.044185,23.836549,My market Βριλήσσια,"{'opening_hours': {'Mon': '8:00  -  21:00', 'Tue': '8:00  -  21:00', 'Wed': '8:00  -  21:00', 'Thu': '8:00  -  21:00', 'Fri': '8:00  -  21:00', 'Sat': '8:00  -  20:00'}}",2106133112, 15235,28,,https://www.mymarket.gr/stores
Καισαρείας 63,My Market, Βύρωνας ,Greece,"{'brand': 'My Market', 'fascia': 'My Market', 'category': 'Retail', 'edit_date': '2025-05-16', 'lat_lon_source': 'Third Party'}",37.956974849760165,23.758383139652466,My market Βύρωνα (Local),"{'opening_hours': {'Mon': '07:00 - 23:00', 'Tue': '07:00 - 23:00', 'Wed': '07:00 - 23:00', 'Thu': '07:00 - 23:00', 'Fri': '07:00 - 23:00', 'Sat': '07:00 - 23:00', 'Sun': '08:00 - 22:00'}}",2160005423, 16231,264,,https://www.mymarket.gr/stores
Αγ. Σοφίας 47,My Market, Βύρωνας ,Greece,"{'brand': 'My Market', 'fascia': 'My Market', 'category': 'Retail', 'edit_date': '2025-05-16', 'lat_lon_source': 'Third Party'}",37.9586070599232,23.75357,My market Βύρωνας Αγ. Σοφίας 47 easy,"{'opening_hours': {'Mon': '8:00  -  21:00', 'Tue': '8:00  -  21:00', 'Wed': '8:00  -  21:00', 'Thu': '8:00  -  21:00', 'Fri': '8:00  -  21:00', 'Sat': '8:00  -  20:00'}}",2107660174, 16232,98,,https://www.mymarket.gr/stores
Αγ. Σοφίας 102,My Market, Βύρωνας ,Greece,"{'brand': 'My Market', 'fascia': 'My Market', 'category': 'Retail', 'edit_date': '2025-05-16', 'lat_lon_source': 'Third Party'}",37.95548,23.75287,My market Βύρωνας Αγ. Σοφίας 102,"{'opening_hours': {'Mon': '8:00  -  21:00', 'Tue': '8:00  -  21:00', 'Wed': '8:00  -  21:00', 'Thu': '8:00  -  21:00', 'Fri': '8:00  -  21:00', 'Sat': '8:00  -  20:00'}}",2107621120, 16232,97,,https://www.mymarket.gr/stores
Μεσολογγίου 50,My Market, Βύρωνας ,Greece,"{'brand': 'My Market', 'fascia': 'My Market', 'category': 'Retail', 'edit_date': '2025-05-16', 'lat_lon_source': 'Third Party'}",37.9618246606649,23.75418,My market Βύρωνας Μεσολογγίου easy,"{'opening_hours': {'Mon': '8:00  -  21:00', 'Tue': '8:00  -  21:00', 'Wed': '8:00  -  21:00', 'Thu': '8:00  -  21:00', 'Fri': '8:00  -  21:00', 'Sat': '8:00  -  20:00'}}",2107649646, 16231,99,,https://www.mymarket.gr/stores
Αγ. Ειρήνης 12 (πρ. Πανουριά),My Market, Γαλάτσι ,Greece,"{'brand': 'My Market', 'fascia': 'My Market', 'category': 'Retail', 'edit_date': '2025-05-16', 'lat_lon_source': 'Third Party'}",38.02406859,23.75753332,My market Γαλάτσι Αγ. Ειρήνης,"{'opening_hours': {'Mon': '8:00  -  21:00', 'Tue': '8:00  -  21:00', 'Wed': '8:00  -  21:00', 'Thu': '8:00  -  21:00', 'Fri': '8:00  -  21:00', 'Sat': '8:00  -  20:00'}}",2102934094, 11146,100,,https://www.mymarket.gr/stores
Κύκνων 18,My Market, Γαλάτσι ,Greece,"{'brand': 'My Market', 'fascia': 'My Market', 'category': 'Retail', 'edit_date': '2025-05-16', 'lat_lon_source': 'Third Party'}",38.017045,23.746294,My market Γαλάτσι Κύκνων (Local),"{'opening_hours': {'Mon': '08:00 - 23:00', 'Tue': '08:00 - 23:00', 'Wed': '08:00 - 23:00', 'Thu': '08:00 - 23:00', 'Fri': '08:00 - 23:00', 'Sat': '08:00 - 23:00', 'Sun': '08:00 - 22:00'}}",2130889617, 11146,246,,https://www.mymarket.gr/stores
Τράλλεων 152,My Market, Γαλάτσι ,Greece,"{'brand': 'My Market', 'fascia': 'My Market', 'category': 'Retail', 'edit_date': '2025-05-16', 'lat_lon_source': 'Third Party'}",38.01906,23.75533,My market Γαλάτσι Τραλλεων,"{'opening_hours': {'Mon': '8:00  -  21:00', 'Tue': '8:00  -  21:00', 'Wed': '8:00  -  21:00', 'Thu': '8:00  -  21:00', 'Fri': '8:00  -  21:00', 'Sat': '8:00  -  20:00'}}",2102921205, 11146,101,,https://www.mymarket.gr/stores
Αρχαίας Ήλιδος,My Market, Γαστούνη ,Greece,"{'brand': 'My Market', 'fascia': 'My Market', 'category': 'Retail', 'edit_date': '2025-05-16', 'lat_lon_source': 'Third Party'}",37.857166,21.262767,My market Γαστούνη,"{'opening_hours': {'Mon': '8:00  -  21:00', 'Tue': '8:00  -  21:00', 'Wed': '8:00  -  21:00', 'Thu': '8:00  -  21:00', 'Fri': '8:00  -  21:00', 'Sat': '8:00  -  20:00'}}",2623020091, 27300,102,,https://www.mymarket.gr/stores
Ταγματάρχου Ηλιόπουλου 16,My Market, Γιαννιτσά ,Greece,"{'brand': 'My Market', 'fascia': 'My Market', 'category': 'Retail', 'edit_date': '2025-05-16', 'lat_lon_source': 'Third Party'}",40.79031,22.40441,My market Γιαννιτσά,"{'opening_hours': {'Mon': '8:00  -  21:00', 'Tue': '8:00  -  21:00', 'Wed': '8:00  -  21:00', 'Thu': '8:00  -  21:00', 'Fri': '8:00  -  21:00', 'Sat': '8:00  -  20:00'}}",2382081328, 58100,103,,https://www.mymarket.gr/stores
"ΚΑΛΒΟΥ 46 & ΙΩΑΝΝΗ ΒΑΡΒΑΚΗ 36, ΑΘΗΝΑ",My Market, Γκύζη ,Greece,"{'brand': 'My Market', 'fascia': 'My Market', 'category': 'Retail', 'edit_date': '2025-05-16', 'lat_lon_source': 'Third Party'}",37.99207647549923,23.74649655272408,My market Γκύζη (Local),"{'opening_hours': {'Mon': '07:00 - 23:00', 'Tue': '07:00 - 23:00', 'Wed': '07:00 - 23:00', 'Thu': '07:00 - 23:00', 'Fri': '07:00 - 23:00', 'Sat': '07:00 - 23:00', 'Sun': '08:00 - 22:00'}}",2111100762, 11474,254,,https://www.mymarket.gr/stores
Κ. Αθανάτου 5 & Σπερχειάδος,My Market, Γλυφάδα ,Greece,"{'brand': 'My Market', 'fascia': 'My Market', 'category': 'Retail', 'edit_date': '2025-05-16', 'lat_lon_source': 'Third Party'}",37.891472,23.761836,My market Γλυφάδα Αθανάτου,"{'opening_hours': {'Mon': '8:00  -  21:00', 'Tue': '8:00  -  21:00', 'Wed': '8:00  -  21:00', 'Thu': '8:00  -  21:00', 'Fri': '8:00  -  21:00', 'Sat': '8:00  -  20:00'}}",2109605556, 16562,8,,https://www.mymarket.gr/stores
Γεωρ. Γεννηματά & Μυστρά,My Market, Γλυφάδα ,Greece,"{'brand': 'My Market', 'fascia': 'My Market', 'category': 'Retail', 'edit_date': '2025-05-16', 'lat_lon_source': 'Third Party'}",37.8874,23.7705,My market Γλυφάδα Γεννηματά easy,"{'opening_hours': {'Mon': '8:00  -  21:00', 'Tue': '8:00  -  21:00', 'Wed': '8:00  -  21:00', 'Thu': '8:00  -  21:00', 'Fri': '8:00  -  21:00', 'Sat': '8:00  -  20:00'}}",2109603919, 16561,104,,https://www.mymarket.gr/stores
Ανδρέα Παπανδρέου 111 (πρώην Λ. Αθηνών),My Market, Γλυφάδα ,Greece,"{'brand': 'My Market', 'fascia': 'My Market', 'category': 'Retail', 'edit_date': '2025-05-16', 'lat_lon_source': 'Third Party'}",37.87948,23.75817,My market Γλυφάδα Παπανδρέου,"{'opening_hours': {'Mon': '8:00  -  21:00', 'Tue': '8:00  -  21:00', 'Wed': '8:00  -  21:00', 'Thu': '8:00  -  21:00', 'Fri': '8:00  -  21:00', 'Sat': '8:00  -  20:00'}}",2109647937, 16674,105,,https://www.mymarket.gr/stores
Δημητρίου Γούναρη 85,My Market, Γλυφάδα ,Greece,"{'brand': 'My Market', 'fascia': 'My Market', 'category': 'Retail', 'edit_date': '2025-05-16', 'lat_lon_source': 'Third Party'}",37.88574945966236,23.76210755340859,My market Γλυφάδας (Local),"{'opening_hours': {'Mon': '07:00 - 23:00', 'Tue': '07:00 - 23:00', 'Wed': '07:00 - 23:00', 'Thu': '07:00 - 23:00', 'Fri': '07:00 - 23:00', 'Sat': '07:00 - 23:00', 'Sun': '08:00 - 22:00'}}",2100108650, 16561,267,,https://www.mymarket.gr/stores
Παπαδιαμαντοπούλου 148,My Market, Ζωγράφου ,Greece,"{'brand': 'My Market', 'fascia': 'My Market', 'category': 'Retail', 'edit_date': '2025-05-16', 'lat_lon_source': 'Third Party'}",37.98328,23.768,My market Γουδή,"{'opening_hours': {'Mon': '8:00  -  21:00', 'Tue': '8:00  -  21:00', 'Wed': '8:00  -  21:00', 'Thu': '8:00  -  21:00', 'Fri': '8:00  -  21:00', 'Sat': '8:00  -  20:00'}}",2107758686, 15773,106,,https://www.mymarket.gr/stores
Εθνική Οδός Σπάρτης Γυθείου,My Market, Γυθείο ,Greece,"{'brand': 'My Market', 'fascia': 'My Market', 'category': 'Retail', 'edit_date': '2025-05-16', 'lat_lon_source': 'Third Party'}",36.76078,22.55818,My market Γύθειο,"{'opening_hours': {'Mon': '8:00  -  21:00', 'Tue': '8:00  -  21:00', 'Wed': '8:00  -  21:00', 'Thu': '8:00  -  21:00', 'Fri': '8:00  -  21:00', 'Sat': '8:00  -  20:00'}}",2733025021, 23200,107,,https://www.mymarket.gr/stores
34ο χλμ Π.Ε.Ο. Λαμίας-Καρδίτσας,My Market, Δομοκός ,Greece,"{'brand': 'My Market', 'fascia': 'My Market', 'category': 'Retail', 'edit_date': '2025-05-16', 'lat_lon_source': 'Third Party'}",39.1217455503768,22.3114138841629,My market Δομοκός,"{'opening_hours': {'Mon': '8:00  -  21:00', 'Tue': '8:00  -  21:00', 'Wed': '8:00  -  21:00', 'Thu': '8:00  -  21:00', 'Fri': '8:00  -  21:00', 'Sat': '8:00  -  20:00'}}",2232022897, 35010,108,,https://www.mymarket.gr/stores
Aγ. Δημητρίου 82-84 & Μήλου 80,My Market, Πειραιάς ,Greece,"{'brand': 'My Market', 'fascia': 'My Market', 'category': 'Retail', 'edit_date': '2025-05-16', 'lat_lon_source': 'Third Party'}",37.9541616116144,23.6353522539139,My market Δραπετσώνα,"{'opening_hours': {'Mon': '8:00  -  21:00', 'Tue': '8:00  -  21:00', 'Wed': '8:00  -  21:00', 'Thu': '8:00  -  21:00', 'Fri': '8:00  -  21:00', 'Sat': '8:00  -  20:00'}}",2104630763, 18545,39,,https://www.mymarket.gr/stores
Παρακαμπτήρια οδός της Ε.Ο. Αθηνών - Κορίνθου,My Market, Ελευσίνα Εθνική Οδό ,Greece,"{'brand': 'My Market', 'fascia': 'My Market', 'category': 'Retail', 'edit_date': '2025-05-16', 'lat_lon_source': 'Third Party'}",38.0545922004241,23.5208970308304,My market Ελευσίνα Εθν. Οδός,"{'opening_hours': {'Mon': '8:00  -  21:00', 'Tue': '8:00  -  21:00', 'Wed': '8:00  -  21:00', 'Thu': '8:00  -  21:00', 'Fri': '8:00  -  21:00', 'Sat': '8:00  -  20:00'}}",2105549315, 19600,13,,https://www.mymarket.gr/stores
"Επισμ. Νέζη, Γράμμου & Σπετσών",My Market, Ελευσίνα ,Greece,"{'brand': 'My Market', 'fascia': 'My Market', 'category': 'Retail', 'edit_date': '2025-05-16', 'lat_lon_source': 'Third Party'}",38.0406789026046,23.547488451004,My market Ελευσίνα Νέζη,"{'opening_hours': {'Mon': '8:00  -  21:00', 'Tue': '8:00  -  21:00', 'Wed': '8:00  -  21:00', 'Thu': '8:00  -  21:00', 'Fri': '8:00  -  21:00', 'Sat': '8:00  -  20:00'}}",2105547773, 19200,12,,https://www.mymarket.gr/stores
Σολωμού 20,My Market, Eξάρχεια ,Greece,"{'brand': 'My Market', 'fascia': 'My Market', 'category': 'Retail', 'edit_date': '2025-05-16', 'lat_lon_source': 'Third Party'}",37.986668,23.733148,My market Εξάρχεια Σολωμού (Local),"{'opening_hours': {'Mon': '07:00  -  23:00', 'Tue': '07:00  -  23:00', 'Wed': '07:00  -  23:00', 'Thu': '07:00  -  23:00', 'Fri': '07:00  -  00:00', 'Sat': '07:00  -  00:00', 'Sun': '09:00  -  23:00'}}",2169396325, 10682,248,,https://www.mymarket.gr/stores
Βρατσάνου & Αριστογείτονος Φιλοξένου,My Market, Ερέτρια ,Greece,"{'brand': 'My Market', 'fascia': 'My Market', 'category': 'Retail', 'edit_date': '2025-05-16', 'lat_lon_source': 'Third Party'}",38.390897,23.78897,My market Ερέτρια,"{'opening_hours': {'Mon': '8:00  -  21:00', 'Tue': '8:00  -  21:00', 'Wed': '8:00  -  21:00', 'Thu': '8:00  -  21:00', 'Fri': '8:00  -  21:00', 'Sat': '8:00  -  20:00', 'Sun': '11:00  -  17:00'}}",2229061559, 34008,109,,https://www.mymarket.gr/stores
Κολυβά & Μαντζάρου 8,My Market, Ζάκυνθος ,Greece,"{'brand': 'My Market', 'fascia': 'My Market', 'category': 'Retail', 'edit_date': '2025-05-16', 'lat_lon_source': 'Third Party'}",37.78836,20.89779,My market Ζάκυνθος Κολυβά,"{'opening_hours': {'Mon': '8:00  -  21:00', 'Tue': '8:00  -  21:00', 'Wed': '8:00  -  21:00', 'Thu': '8:00  -  21:00', 'Fri': '8:00  -  21:00', 'Sat': '8:00  -  20:00'}}",2695044853, 29100,110,,https://www.mymarket.gr/stores
"Αναπαύσεως και Βολιμών, Θέση Λούμπα",My Market, Ζάκυνθος ,Greece,"{'brand': 'My Market', 'fascia': 'My Market', 'category': 'Retail', 'edit_date': '2025-05-16', 'lat_lon_source': 'Third Party'}",37.777611,20.889326,My market Ζάκυνθος Λούμπα,"{'opening_hours': {'Mon': '8:00  -  21:00', 'Tue': '8:00  -  21:00', 'Wed': '8:00  -  21:00', 'Thu': '8:00  -  21:00', 'Fri': '8:00  -  21:00', 'Sat': '8:00  -  20:00'}}",2695025701, 29100,111,,https://www.mymarket.gr/stores
Λομβάρδου 42,My Market, Ζάκυνθος ,Greece,"{'brand': 'My Market', 'fascia': 'My Market', 'category': 'Retail', 'edit_date': '2025-05-16', 'lat_lon_source': 'Third Party'}",37.7831126336696,20.897975,My market Ζάκυνθος Παραλιακή,"{'opening_hours': {'Mon': '8:00  -  21:00', 'Tue': '8:00  -  21:00', 'Wed': '8:00  -  21:00', 'Thu': '8:00  -  21:00', 'Fri': '8:00  -  21:00', 'Sat': '8:00  -  20:00'}}",2695029480, 29100,112,,https://www.mymarket.gr/stores
Στραβοπόδη 15,My Market, Ζάκυνθος ,Greece,"{'brand': 'My Market', 'fascia': 'My Market', 'category': 'Retail', 'edit_date': '2025-05-16', 'lat_lon_source': 'Third Party'}",37.77549,20.8939,My market Ζάκυνθος Στραβοπόδη,"{'opening_hours': {'Mon': '8:00  -  21:00', 'Tue': '8:00  -  21:00', 'Wed': '8:00  -  21:00', 'Thu': '8:00  -  21:00', 'Fri': '8:00  -  21:00', 'Sat': '8:00  -  20:00'}}",2695041667, 29100,113,,https://www.mymarket.gr/stores
15772,My Market, Ζωγράφου ,Greece,"{'brand': 'My Market', 'fascia': 'My Market', 'category': 'Retail', 'edit_date': '2025-05-16', 'lat_lon_source': 'Third Party'}",37.97335099901191,23.767018046666255,My market Ζωγράφου (Local),"{'opening_hours': {'Mon': '07:00 - 23:00', 'Tue': '07:00 - 23:00', 'Wed': '07:00 - 23:00', 'Thu': '07:00 - 23:00', 'Fri': '07:00 - 23:00', 'Sat': '07:00 - 23:00', 'Sun': '08:00 - 22:00'}}",2168085711, 15772,256,,https://www.mymarket.gr/stores
Γ. Παπανδρέου 7-9,My Market, Ζωγράφου ,Greece,"{'brand': 'My Market', 'fascia': 'My Market', 'category': 'Retail', 'edit_date': '2025-05-16', 'lat_lon_source': 'Third Party'}",37.9796843806858,23.76151968,My market Ζωγράφου ΙΚΑ,"{'opening_hours': {'Mon': '8:00  -  21:00', 'Tue': '8:00  -  21:00', 'Wed': '8:00  -  21:00', 'Thu': '8:00  -  21:00', 'Fri': '8:00  -  21:00', 'Sat': '8:00  -  20:00'}}",2107472452, 15773,114,,https://www.mymarket.gr/stores
Γ. Παπανδρέου & Θεαγούς,My Market, Ζωγράφου ,Greece,"{'brand': 'My Market', 'fascia': 'My Market', 'category': 'Retail', 'edit_date': '2025-05-16', 'lat_lon_source': 'Third Party'}",37.9801283602791,23.76323,My market Ζωγράφου Παπανδρέου,"{'opening_hours': {'Mon': '8:00  -  21:00', 'Tue': '8:00  -  21:00', 'Wed': '8:00  -  21:00', 'Thu': '8:00  -  21:00', 'Fri': '8:00  -  21:00', 'Sat': '8:00  -  20:00'}}",2107757740, 15773,115,,https://www.mymarket.gr/stores
Λεωφ. Στρατάρχου Αλεξάνδρου Παπάγου 122,My Market, Ζωγράφου ,Greece,"{'brand': 'My Market', 'fascia': 'My Market', 'category': 'Retail', 'edit_date': '2025-05-16', 'lat_lon_source': 'Third Party'}",37.9766581,23.7744101,My market Ζωγράφου Πάρκο Ειρήνης,"{'opening_hours': {'Mon': '8:00  -  21:00', 'Tue': '8:00  -  21:00', 'Wed': '8:00  -  21:00', 'Thu': '8:00  -  21:00', 'Fri': '8:00  -  21:00', 'Sat': '8:00  -  20:00'}}",2107795933, 15772,116,,https://www.mymarket.gr/stores
Αγίου Ιωάννου 7Γ,My Market, Ηλιούπολη ,Greece,"{'brand': 'My Market', 'fascia': 'My Market', 'category': 'Retail', 'edit_date': '2025-05-16', 'lat_lon_source': 'Third Party'}",37.92554826446461,23.74617254848283,"My market Ηλιούπολη, Αγίου Ιωάννου (Local)","{'opening_hours': {'Mon': '07:00 - 23:00', 'Tue': '07:00 - 23:00', 'Wed': '07:00 - 23:00', 'Thu': '07:00 - 23:00', 'Fri': '07:00 - 23:00', 'Sat': '07:00 - 23:00', 'Sun': '08:00 - 22:00'}}",2130994653, 16341,244,,https://www.mymarket.gr/stores
Λεωφόρος Αλ. Παναγούλη 3,My Market, Ηλιούπολη ,Greece,"{'brand': 'My Market', 'fascia': 'My Market', 'category': 'Retail', 'edit_date': '2025-05-16', 'lat_lon_source': 'Third Party'}",37.94402,23.7587580084801,My market Ηλιούπολη Αγ. Μαρίνα,"{'opening_hours': {'Mon': '8:00  -  21:00', 'Tue': '8:00  -  21:00', 'Wed': '8:00  -  21:00', 'Thu': '8:00  -  21:00', 'Fri': '8:00  -  21:00', 'Sat': '8:00  -  20:00'}}",2109767868, 16345,117,,https://www.mymarket.gr/stores
Σοφοκλή Βενιζέλου 111,My Market, Ηλιούπολη ,Greece,"{'brand': 'My Market', 'fascia': 'My Market', 'category': 'Retail', 'edit_date': '2025-05-16', 'lat_lon_source': 'Third Party'}",37.93286681,23.75855478,My market Ηλιούπολη Δημαρχείο easy,"{'opening_hours': {'Mon': '8:00  -  21:00', 'Tue': '8:00  -  21:00', 'Wed': '8:00  -  21:00', 'Thu': '8:00  -  21:00', 'Fri': '8:00  -  21:00', 'Sat': '8:00  -  20:00'}}","210 9940433, 210 9957310", 16342,118,,https://www.mymarket.gr/stores
Γρ. Ξενοπούλου 44 - 46,My Market, Ηλιούπολη ,Greece,"{'brand': 'My Market', 'fascia': 'My Market', 'category': 'Retail', 'edit_date': '2025-05-16', 'lat_lon_source': 'Third Party'}",37.93343,23.74801,My market Ηλιούπολη Πλ. Βεάκη easy,"{'opening_hours': {'Mon': '8:00  -  21:00', 'Tue': '8:00  -  21:00', 'Wed': '8:00  -  21:00', 'Thu': '8:00  -  21:00', 'Fri': '8:00  -  21:00', 'Sat': '8:00  -  20:00'}}",2109954490, 16346,119,,https://www.mymarket.gr/stores
"25ης Μαρτίου 25, Εύοσμος",My Market, Εύοσμος Θεσσαλονίκης ,Greece,"{'brand': 'My Market', 'fascia': 'My Market', 'category': 'Retail', 'edit_date': '2025-05-16', 'lat_lon_source': 'Third Party'}",40.67374,22.906608,My market Θεσσαλονίκη Εύοσμος,"{'opening_hours': {'Mon': '8:00  -  21:00', 'Tue': '8:00  -  21:00', 'Wed': '8:00  -  21:00', 'Thu': '8:00  -  21:00', 'Fri': '8:00  -  21:00', 'Sat': '8:00  -  20:00'}}",2310574218, 56224,120,,https://www.mymarket.gr/stores
Γρ. Λαμπράκη 19 & Γληνού,My Market, Ηλιούπολη Θεσσαλονίκης ,Greece,"{'brand': 'My Market', 'fascia': 'My Market', 'category': 'Retail', 'edit_date': '2025-05-16', 'lat_lon_source': 'Third Party'}",40.67447,22.92121,My market Θεσσαλονίκη Ηλιούπολη,"{'opening_hours': {'Mon': '8:00  -  21:00', 'Tue': '8:00  -  21:00', 'Wed': '8:00  -  21:00', 'Thu': '8:00  -  21:00', 'Fri': '8:00  -  21:00', 'Sat': '8:00  -  20:00'}}",2310662735, 56224,121,,https://www.mymarket.gr/stores
"Βρυούλων 27Α & Πόντου, Νέα Κρήνη",My Market, Καλαμαριά Θεσσαλονίκης ,Greece,"{'brand': 'My Market', 'fascia': 'My Market', 'category': 'Retail', 'edit_date': '2025-05-16', 'lat_lon_source': 'Third Party'}",40.5728757741303,22.96061,My market Θεσσαλονίκη Καλαμαριά,"{'opening_hours': {'Mon': '8:00  -  21:00', 'Tue': '8:00  -  21:00', 'Wed': '8:00  -  21:00', 'Thu': '8:00  -  21:00', 'Fri': '8:00  -  21:00', 'Sat': '8:00  -  20:00'}}",2310450078, 55132,122,,https://www.mymarket.gr/stores
"Παπαδιαμάντη 4 & Κατσαντώνη, Κορδελιό",My Market, Ελευθέριο Κορδελιό Θεσσαλονίκης ,Greece,"{'brand': 'My Market', 'fascia': 'My Market', 'category': 'Retail', 'edit_date': '2025-05-16', 'lat_lon_source': 'Third Party'}",40.67076,22.8990831971169,My market Θεσσαλονίκη Κορδελιό,"{'opening_hours': {'Mon': '8:00  -  21:00', 'Tue': '8:00  -  21:00', 'Wed': '8:00  -  21:00', 'Thu': '8:00  -  21:00', 'Fri': '8:00  -  21:00', 'Sat': '8:00  -  20:00'}}",2310778036, 56334,123,,https://www.mymarket.gr/stores
Λαγκαδά 163,My Market, Αμπελόκηποι Θεσσαλονίκης ,Greece,"{'brand': 'My Market', 'fascia': 'My Market', 'category': 'Retail', 'edit_date': '2025-05-16', 'lat_lon_source': 'Third Party'}",40.65634,22.934393,My market Θεσσαλονίκη Λαγκαδά,"{'opening_hours': {'Mon': '8:00  -  21:00', 'Tue': '8:00  -  21:00', 'Wed': '8:00  -  21:00', 'Thu': '8:00  -  21:00', 'Fri': '8:00  -  21:00', 'Sat': '8:00  -  20:00'}}",2310577423, 56123,16,,https://www.mymarket.gr/stores
Μάρκου Μπότσαρη 24 & Πατρών 1,My Market, Θεσσαλονίκη ,Greece,"{'brand': 'My Market', 'fascia': 'My Market', 'category': 'Retail', 'edit_date': '2025-05-16', 'lat_lon_source': 'Third Party'}",40.606871,22.955237,My market Θεσσαλονίκη Μπότσαρη,"{'opening_hours': {'Mon': '8:00  -  21:00', 'Tue': '8:00  -  21:00', 'Wed': '8:00  -  21:00', 'Thu': '8:00  -  21:00', 'Fri': '8:00  -  21:00', 'Sat': '8:00  -  20:00'}}",2310886255, 54643,124,,https://www.mymarket.gr/stores
"Αλ. Παπαναστασίου και Πριάμου, Θεσσαλονίκη",My Market, Θεσσαλονίκη ,Greece,"{'brand': 'My Market', 'fascia': 'My Market', 'category': 'Retail', 'edit_date': '2025-05-16', 'lat_lon_source': 'Third Party'}",40.610445,22.965072,My market Θεσσαλονίκη Παπαναστασίου,"{'opening_hours': {'Mon': '8:00  -  21:00', 'Tue': '8:00  -  21:00', 'Wed': '8:00  -  21:00', 'Thu': '8:00  -  21:00', 'Fri': '8:00  -  21:00', 'Sat': '8:00  -  20:00'}}",2310917384, 54453,125,,https://www.mymarket.gr/stores
Δημητρίου Φωκά 9 & Θεμιστοκλή Σοφούλη,My Market, Πυλαία ,Greece,"{'brand': 'My Market', 'fascia': 'My Market', 'category': 'Retail', 'edit_date': '2025-05-16', 'lat_lon_source': 'Third Party'}",40.600487,22.996297,My market Θεσσαλονίκη Πυλαία,"{'opening_hours': {'Mon': '8:00  -  21:00', 'Tue': '8:00  -  21:00', 'Wed': '8:00  -  21:00', 'Thu': '8:00  -  21:00', 'Fri': '8:00  -  21:00', 'Sat': '8:00  -  20:00'}}",2310303300, 55535,53,,https://www.mymarket.gr/stores
"Προέκταση οδού Μακρυγιάννη & Ακαδήμου και 2 ανωνύμων οδών, Εύοσμος",My Market, Σταυρούπολη Θεσσαλονίκης ,Greece,"{'brand': 'My Market', 'fascia': 'My Market', 'category': 'Retail', 'edit_date': '2025-05-16', 'lat_lon_source': 'Third Party'}",40.67833,22.924839,My market Θεσσαλονίκη Σταυρούπολη Μακρυγιάννη,"{'opening_hours': {'Mon': '8:00  -  21:00', 'Tue': '8:00  -  21:00', 'Wed': '8:00  -  21:00', 'Thu': '8:00  -  21:00', 'Fri': '8:00  -  21:00', 'Sat': '8:00  -  20:00'}}",2310688712, 56224,126,,https://www.mymarket.gr/stores
Λ. Δημοκρατίας 56,My Market, Ωραιόκαστρο Θεσσαλονίκης ,Greece,"{'brand': 'My Market', 'fascia': 'My Market', 'category': 'Retail', 'edit_date': '2025-05-16', 'lat_lon_source': 'Third Party'}",40.730818,22.9216378927231,My market Θεσσαλονίκη Ωραιόκαστρο Κέντρο,"{'opening_hours': {'Mon': '8:00  -  21:00', 'Tue': '8:00  -  21:00', 'Wed': '8:00  -  21:00', 'Thu': '8:00  -  21:00', 'Fri': '8:00  -  21:00', 'Sat': '8:00  -  20:00'}}",2310020951, 57013,127,,https://www.mymarket.gr/stores
Σόλωνος 81-83,My Market, Θεσσαλονίκη ,Greece,"{'brand': 'My Market', 'fascia': 'My Market', 'category': 'Retail', 'edit_date': '2025-05-16', 'lat_lon_source': 'Third Party'}",40.6012576203247,22.95883156817044,My market Θεσσαλονίκης (Local),"{'opening_hours': {'Mon': '07:00 - 23:00', 'Tue': '07:00 - 23:00', 'Wed': '07:00 - 23:00', 'Thu': '07:00 - 23:00', 'Fri': '07:00 - 23:00', 'Sat': '07:00 - 23:00', 'Sun': '08:00 - 22:00'}}",2315208696, 54248,278,,https://www.mymarket.gr/stores
Βασιλίσσης  Όλγας 77,My Market, Θεσσαλονίκη ,Greece,"{'brand': 'My Market', 'fascia': 'My Market', 'category': 'Retail', 'edit_date': '2025-05-16', 'lat_lon_source': 'Third Party'}",40.610209772033066,22.953689429784784,My market Θεσσαλονίκης Βασ. Όλγας (Local),"{'opening_hours': {'Mon': '07:00 - 23:00', 'Tue': '07:00 - 23:00', 'Wed': '07:00 - 23:00', 'Thu': '07:00 - 23:00', 'Fri': '07:00 - 23:00', 'Sat': '07:00 - 23:00', 'Sun': '08:00 - 22:00'}}",2316019711, 54642,265,,https://www.mymarket.gr/stores
Σ. Καραμαγκιώλη & Αυλίδος,My Market, Θήβα ,Greece,"{'brand': 'My Market', 'fascia': 'My Market', 'category': 'Retail', 'edit_date': '2025-05-16', 'lat_lon_source': 'Third Party'}",38.3246476830077,23.323889,My market Θήβα,"{'opening_hours': {'Mon': '8:00  -  21:00', 'Tue': '8:00  -  21:00', 'Wed': '8:00  -  21:00', 'Thu': '8:00  -  21:00', 'Fri': '8:00  -  21:00', 'Sat': '8:00  -  20:00'}}",2262022313, 32200,128,,https://www.mymarket.gr/stores
Λεωφ. Θρακομακεδόνων 224,My Market, Θρακομακεδόνες ,Greece,"{'brand': 'My Market', 'fascia': 'My Market', 'category': 'Retail', 'edit_date': '2025-05-16', 'lat_lon_source': 'Third Party'}",38.1194535985778,23.74813,My market Θρακομακεδόνες,"{'opening_hours': {'Mon': '8:00  -  21:00', 'Tue': '8:00  -  21:00', 'Wed': '8:00  -  21:00', 'Thu': '8:00  -  21:00', 'Fri': '8:00  -  21:00', 'Sat': '8:00  -  20:00'}}",2102433294, 13676,129,,https://www.mymarket.gr/stores
Ικονίου 1,My Market, Θεσσαλονίκη ,Greece,"{'brand': 'My Market', 'fascia': 'My Market', 'category': 'Retail', 'edit_date': '2025-05-16', 'lat_lon_source': 'Third Party'}",40.58711318337404,22.965530291474426,My market Ικονίου Καλαμαριάς (Local),"{'opening_hours': {'Mon': '07:00 - 23:00', 'Tue': '07:00 - 23:00', 'Wed': '07:00 - 23:00', 'Thu': '07:00 - 23:00', 'Fri': '07:00 - 23:00', 'Sat': '07:00 - 23:00', 'Sun': '08:00 - 22:00'}}",2316027680, Καλαμαριά,272,,https://www.mymarket.gr/stores
Αγ. Νικολάου 98,My Market, Ίλιον ,Greece,"{'brand': 'My Market', 'fascia': 'My Market', 'category': 'Retail', 'edit_date': '2025-05-16', 'lat_lon_source': 'Third Party'}",38.04612,23.6989246308804,My market Ίλιον Άγ. Νικόλαος,"{'opening_hours': {'Mon': '8:00  -  21:00', 'Tue': '8:00  -  21:00', 'Wed': '8:00  -  21:00', 'Thu': '8:00  -  21:00', 'Fri': '8:00  -  21:00', 'Sat': '8:00  -  20:00'}}",2105054744, 13123,130,,https://www.mymarket.gr/stores
Έκτορος 141,My Market, Ίλιον ,Greece,"{'brand': 'My Market', 'fascia': 'My Market', 'category': 'Retail', 'edit_date': '2025-05-16', 'lat_lon_source': 'Third Party'}",38.033201214108715,23.70200034086356,My market Ίλιον Έκτορος( local),"{'opening_hours': {'Mon': '08:00 - 23:00', 'Tue': '08:00 - 23:00', 'Wed': '08:00 - 23:00', 'Thu': '08:00 - 23:00', 'Fri': '08:00 - 23:00', 'Sat': '08:00 - 23:00', 'Sun': '08:00 - 22:00'}}",2100107340, 13122,247,,https://www.mymarket.gr/stores
Λεωφ. Ελαιών 46,My Market, Νέα Λιόσια ,Greece,"{'brand': 'My Market', 'fascia': 'My Market', 'category': 'Retail', 'edit_date': '2025-05-16', 'lat_lon_source': 'Third Party'}",38.037301,23.700943,My market Ίλιον Ελαιών,"{'opening_hours': {'Mon': '8:00  -  21:00', 'Tue': '8:00  -  21:00', 'Wed': '8:00  -  21:00', 'Thu': '8:00  -  21:00', 'Fri': '8:00  -  21:00', 'Sat': '8:00  -  20:00'}}",2102623193, 13123,29,,https://www.mymarket.gr/stores
Μενελάου και Θέτιδος,My Market, Ίλιον ,Greece,"{'brand': 'My Market', 'fascia': 'My Market', 'category': 'Retail', 'edit_date': '2025-05-16', 'lat_lon_source': 'Third Party'}",38.0288366818863,23.70752069,My market Ίλιον Μενελάου,"{'opening_hours': {'Mon': '8:00  -  21:00', 'Tue': '8:00  -  21:00', 'Wed': '8:00  -  21:00', 'Thu': '8:00  -  21:00', 'Fri': '8:00  -  21:00', 'Sat': '8:00  -  20:00'}}",2102691551, 13451,131,,https://www.mymarket.gr/stores
Μιχαλακοπούλου 120,My Market, Γουδή ,Greece,"{'brand': 'My Market', 'fascia': 'My Market', 'category': 'Retail', 'edit_date': '2025-05-16', 'lat_lon_source': 'Third Party'}",37.98154,23.7603257596493,My market Ιλίσια,"{'opening_hours': {'Mon': '8:00  -  21:00', 'Tue': '8:00  -  21:00', 'Wed': '8:00  -  21:00', 'Thu': '8:00  -  21:00', 'Fri': '8:00  -  21:00', 'Sat': '8:00  -  20:00'}}",2107715813, 11527,132,,https://www.mymarket.gr/stores
"Περιφερειακή Οδός Γ. Σκαρίμπα, θέση Αμμούδες",My Market, Ιστιαία ,Greece,"{'brand': 'My Market', 'fascia': 'My Market', 'category': 'Retail', 'edit_date': '2025-05-16', 'lat_lon_source': 'Third Party'}",38.9586642067717,23.151535,My market Ιστιαία,"{'opening_hours': {'Mon': '8:00  -  21:00', 'Tue': '8:00  -  21:00', 'Wed': '8:00  -  21:00', 'Thu': '8:00  -  21:00', 'Fri': '8:00  -  21:00', 'Sat': '8:00  -  20:00'}}",2226055174, 34200,133,,https://www.mymarket.gr/stores
Ηρώων 5,My Market, Ιτέα ,Greece,"{'brand': 'My Market', 'fascia': 'My Market', 'category': 'Retail', 'edit_date': '2025-05-16', 'lat_lon_source': 'Third Party'}",38.432,22.42381,My market Ιτέα,"{'opening_hours': {'Mon': '8:00  -  21:00', 'Tue': '8:00  -  21:00', 'Wed': '8:00  -  21:00', 'Thu': '8:00  -  21:00', 'Fri': '8:00  -  21:00', 'Sat': '8:00  -  20:00'}}",2265032151, 33200,134,,https://www.mymarket.gr/stores
"Ιωαννίνων 4, Ανατολή",My Market, Ιωάννινα ,Greece,"{'brand': 'My Market', 'fascia': 'My Market', 'category': 'Retail', 'edit_date': '2025-05-16', 'lat_lon_source': 'Third Party'}",39.6398917,20.8632639,My market Ιωάννινα Ανατολή,"{'opening_hours': {'Mon': '8:00  -  21:00', 'Tue': '8:00  -  21:00', 'Wed': '8:00  -  21:00', 'Thu': '8:00  -  21:00', 'Fri': '8:00  -  21:00', 'Sat': '8:00  -  20:00'}}",2651044801, 45221,47,,https://www.mymarket.gr/stores
2ο χλμ Ιωαννίνων Άρτας,My Market, Βελισσάριο Ιωάννινα ,Greece,"{'brand': 'My Market', 'fascia': 'My Market', 'category': 'Retail', 'edit_date': '2025-05-16', 'lat_lon_source': 'Third Party'}",39.6435114669477,20.8502805233002,My market Ιωάννινα Βελισσάριο,"{'opening_hours': {'Mon': '8:00  -  21:00', 'Tue': '8:00  -  21:00', 'Wed': '8:00  -  21:00', 'Thu': '8:00  -  21:00', 'Fri': '8:00  -  21:00', 'Sat': '8:00  -  20:00'}}",2651002393, 45221,48,,https://www.mymarket.gr/stores
Εθν. Όδος Ηγουμενίτσας-Ιωαννίνων,My Market, Ιωάννινα ,Greece,"{'brand': 'My Market', 'fascia': 'My Market', 'category': 'Retail', 'edit_date': '2025-05-16', 'lat_lon_source': 'Third Party'}",39.6837415932664,20.8197999000549,My market Ιωάννινα Νέα Ζωή,"{'opening_hours': {'Mon': '8:00  -  21:00', 'Tue': '8:00  -  21:00', 'Wed': '8:00  -  21:00', 'Thu': '8:00  -  21:00', 'Fri': '8:00  -  21:00', 'Sat': '8:00  -  20:00'}}",2651028473, 45500,14,,https://www.mymarket.gr/stores
ΑΡΧΙΕΠΙΣΚ. ΜΑΚΑΡΙΟΥ & ΙΚΚΟΥ,My Market, Ιωάννινα ,Greece,"{'brand': 'My Market', 'fascia': 'My Market', 'category': 'Retail', 'edit_date': '2025-05-16', 'lat_lon_source': 'Third Party'}",39.6579882551471,20.8589708805084,My market Ιωάννινα Παραλίμνιο,"{'opening_hours': {'Mon': '8:00  -  21:00', 'Tue': '8:00  -  21:00', 'Wed': '8:00  -  21:00', 'Thu': '8:00  -  21:00', 'Fri': '8:00  -  21:00', 'Sat': '8:00  -  20:00'}}",2651024756, 45221,9,,https://www.mymarket.gr/stores
Λεωφόρος Εθνικής Αντιστάσεως 4,My Market, Aθήνα ,Greece,"{'brand': 'My Market', 'fascia': 'My Market', 'category': 'Retail', 'edit_date': '2025-05-16', 'lat_lon_source': 'Third Party'}",37.969213898192656,23.75379145234262,My market Καισαριανής (local),"{'opening_hours': {'Mon': '07:00 - 23:00', 'Tue': '07:00 - 23:00', 'Wed': '07:00 - 23:00', 'Thu': '07:00 - 23:00', 'Fri': '07:00 - 23:00', 'Sat': '07:00 - 23:00', 'Sun': '08:00 - 22:00'}}",2120212287, 16121,269,,https://www.mymarket.gr/stores
Κερασούντος 3 Καλαμαριά,My Market, Θεσσαλονίκη ,Greece,"{'brand': 'My Market', 'fascia': 'My Market', 'category': 'Retail', 'edit_date': '2025-05-16', 'lat_lon_source': 'Third Party'}",40.587451466805014,22.943513614554927,My market Καλαμαριά (Local),"{'opening_hours': {'Mon': '07:00 - 23:00', 'Tue': '07:00 - 23:00', 'Wed': '07:00 - 23:00', 'Thu': '07:00 - 23:00', 'Fri': '07:00 - 23:00', 'Sat': '07:00 - 23:00', 'Sun': '08:00 - 22:00'}}",2316011294, 55131,252,,https://www.mymarket.gr/stores
Ι.Πασαλίδη 28,My Market, Θεσσαλονίκη ,Greece,"{'brand': 'My Market', 'fascia': 'My Market', 'category': 'Retail', 'edit_date': '2025-05-16', 'lat_lon_source': 'Third Party'}",40.610146524255114,22.95368480918072,My market Καλαμαριάς Ι.Πασαλίδη (local),"{'opening_hours': {'Mon': '07:00 - 23:00', 'Tue': '07:00 - 23:00', 'Wed': '07:00 - 23:00', 'Thu': '07:00 - 23:00', 'Fri': '07:00 - 23:00', 'Sat': '07:00 - 23:00', 'Sun': '08:00 - 22:00'}}",2315208940, 55132,266,,https://www.mymarket.gr/stores
Φαρών 179,My Market, Καλαμάτα ,Greece,"{'brand': 'My Market', 'fascia': 'My Market', 'category': 'Retail', 'edit_date': '2025-05-16', 'lat_lon_source': 'Third Party'}",37.02994455763784,22.113449632947827,My market Καλαμάτα,"{'opening_hours': {'Mon': '8:00  -  21:00', 'Tue': '8:00  -  21:00', 'Wed': '8:00  -  21:00', 'Thu': '8:00  -  21:00', 'Fri': '8:00  -  21:00', 'Sat': '8:00  -  20:00'}}",2721090170, 24132,51,,https://www.mymarket.gr/stores
Σοφοκλέους & Δημητρακοπούλου 56,My Market, Καλλιθέα ,Greece,"{'brand': 'My Market', 'fascia': 'My Market', 'category': 'Retail', 'edit_date': '2025-05-16', 'lat_lon_source': 'Third Party'}",37.955944,23.707403,My market Καλλιθέα (Local),"{'opening_hours': {'Mon': '07:00 - 23:00', 'Tue': '07:00 - 23:00', 'Wed': '07:00 - 23:00', 'Thu': '07:00 - 23:00', 'Fri': '07:00 - 23:00', 'Sat': '07:00 - 23:00', 'Sun': '08:00 - 22:00'}}",2168003027, 17672,135,,https://www.mymarket.gr/stores
Λεωφόρος Ελ. Βενιζέλου 222,My Market, Καλλιθέα ,Greece,"{'brand': 'My Market', 'fascia': 'My Market', 'category': 'Retail', 'edit_date': '2025-05-16', 'lat_lon_source': 'Third Party'}",37.95125,23.69332,My market Καλλιθέα Αγ. Ελεούσα,"{'opening_hours': {'Mon': '8:00  -  21:00', 'Tue': '8:00  -  21:00', 'Wed': '8:00  -  21:00', 'Thu': '8:00  -  21:00', 'Fri': '8:00  -  21:00', 'Sat': '8:00  -  20:00'}}",2109402739, 17675,136,,https://www.mymarket.gr/stores
"Π.Ε.Ο. Αθηνών - Καπανδριτίου, κόμβος Πολυδενδρίου Αττικής",My Market, Καπανδρίτι ,Greece,"{'brand': 'My Market', 'fascia': 'My Market', 'category': 'Retail', 'edit_date': '2025-05-16', 'lat_lon_source': 'Third Party'}",38.205901,23.8648259639739,My market Καπανδρίτι,"{'opening_hours': {'Mon': '8:00  -  21:00', 'Tue': '8:00  -  21:00', 'Wed': '8:00  -  21:00', 'Thu': '8:00  -  21:00', 'Fri': '8:00  -  21:00', 'Sat': '8:00  -  20:00'}}",2295053760, 19014,137,,https://www.mymarket.gr/stores
Δημ. Λάππα & Ηρώων Πολυτεχνείου,My Market, Καρδίτσα ,Greece,"{'brand': 'My Market', 'fascia': 'My Market', 'category': 'Retail', 'edit_date': '2025-05-16', 'lat_lon_source': 'Third Party'}",39.361183,21.9231,My market Καρδίτσα Πολυτεχνείου,"{'opening_hours': {'Mon': '8:00  -  21:00', 'Tue': '8:00  -  21:00', 'Wed': '8:00  -  21:00', 'Thu': '8:00  -  21:00', 'Fri': '8:00  -  21:00', 'Sat': '8:00  -  20:00'}}",2441077175, 43100,138,,https://www.mymarket.gr/stores
Λ. Καρέα 72,My Market, Καρέας ,Greece,"{'brand': 'My Market', 'fascia': 'My Market', 'category': 'Retail', 'edit_date': '2025-05-16', 'lat_lon_source': 'Third Party'}",37.94776,23.77062,My market Καρέας,"{'opening_hours': {'Mon': '8:00  -  21:00', 'Tue': '8:00  -  21:00', 'Wed': '8:00  -  21:00', 'Thu': '8:00  -  21:00', 'Fri': '8:00  -  21:00', 'Sat': '8:00  -  20:00'}}",2107600997, 16233,140,,https://www.mymarket.gr/stores
1ο χλμ Ε.Ο. Καρπενησίου - Λαμίας (& Αιόλου),My Market, Καρπενήσι ,Greece,"{'brand': 'My Market', 'fascia': 'My Market', 'category': 'Retail', 'edit_date': '2025-05-16', 'lat_lon_source': 'Third Party'}",38.91264,21.80328,My market Καρπενήσι Εθν. Οδός,"{'opening_hours': {'Mon': '8:00  -  21:00', 'Tue': '8:00  -  21:00', 'Wed': '8:00  -  21:00', 'Thu': '8:00  -  21:00', 'Fri': '8:00  -  21:00', 'Sat': '8:00  -  20:00'}}",2237022030, 36100,141,,https://www.mymarket.gr/stores
Φλέμινγκ και Ν. Κανατσούλια,My Market, Κάτω Αχαΐα ,Greece,"{'brand': 'My Market', 'fascia': 'My Market', 'category': 'Retail', 'edit_date': '2025-05-16', 'lat_lon_source': 'Third Party'}",38.1393940176155,21.552354,My market Κάτω Αχαΐα,"{'opening_hours': {'Mon': '8:00  -  21:00', 'Tue': '8:00  -  21:00', 'Wed': '8:00  -  21:00', 'Thu': '8:00  -  21:00', 'Fri': '8:00  -  21:00', 'Sat': '8:00  -  20:00'}}",2693024454, 25200,142,,https://www.mymarket.gr/stores
Κειριαδών 130Β,My Market, Πετράλωνα ,Greece,"{'brand': 'My Market', 'fascia': 'My Market', 'category': 'Retail', 'edit_date': '2025-05-16', 'lat_lon_source': 'Third Party'}",37.966396073354254,23.706391238556144,My market Κάτω Πετράλωνα (Local),"{'opening_hours': {'Mon': '07:00 - 23:00', 'Tue': '07:00 - 23:00', 'Wed': '07:00 - 23:00', 'Thu': '07:00 - 23:00', 'Fri': '07:00 - 23:00', 'Sat': '07:00 - 23:00', 'Sun': '08:00 - 22:00'}}",2160049373, 11853,257,,https://www.mymarket.gr/stores
Λ. Αθηνών & Σουνίου,My Market, Κερατέα ,Greece,"{'brand': 'My Market', 'fascia': 'My Market', 'category': 'Retail', 'edit_date': '2025-05-16', 'lat_lon_source': 'Third Party'}",37.8245143285063,23.9573192596436,My market Κερατέα,"{'opening_hours': {'Mon': '8:00  -  21:00', 'Tue': '8:00  -  21:00', 'Wed': '8:00  -  21:00', 'Thu': '8:00  -  21:00', 'Fri': '8:00  -  21:00', 'Sat': '8:00  -  20:00'}}",2299042011, 19001,7,,https://www.mymarket.gr/stores
Λ. Δημοκρατίας 84,My Market, Κερατσίνι ,Greece,"{'brand': 'My Market', 'fascia': 'My Market', 'category': 'Retail', 'edit_date': '2025-05-16', 'lat_lon_source': 'Third Party'}",37.95907548707,23.62094495,My market Κερατσίνι Λ. Δημοκρατίας,"{'opening_hours': {'Mon': '8:00  -  21:00', 'Tue': '8:00  -  21:00', 'Wed': '8:00  -  21:00', 'Thu': '8:00  -  21:00', 'Fri': '8:00  -  21:00', 'Sat': '8:00  -  20:00'}}",2104314226, 18756,143,,https://www.mymarket.gr/stores
Παπαναστασίου & Ζαΐμη,My Market, Κερατσίνι ,Greece,"{'brand': 'My Market', 'fascia': 'My Market', 'category': 'Retail', 'edit_date': '2025-05-16', 'lat_lon_source': 'Third Party'}",37.95778,23.62739,My market Κερατσίνι Παπαναστασίου easy,"{'opening_hours': {'Mon': '8:00  -  21:00', 'Tue': '8:00  -  21:00', 'Wed': '8:00  -  21:00', 'Thu': '8:00  -  21:00', 'Fri': '8:00  -  21:00', 'Sat': '8:00  -  20:00'}}",2104634015, 18756,144,,https://www.mymarket.gr/stores
Αχαρνών 80,My Market, Κηφισιά ,Greece,"{'brand': 'My Market', 'fascia': 'My Market', 'category': 'Retail', 'edit_date': '2025-05-16', 'lat_lon_source': 'Third Party'}",38.0748564837729,23.7954694032669,My market Κηφισιά,"{'opening_hours': {'Mon': '8:00  -  21:00', 'Tue': '8:00  -  21:00', 'Wed': '8:00  -  21:00', 'Thu': '8:00  -  21:00', 'Fri': '8:00  -  21:00', 'Sat': '8:00  -  20:00'}}",2108013966, 14561,30,,https://www.mymarket.gr/stores
Επαρχ. οδός Κιάτου-Στυμφαλίας,My Market, Κιάτο ,Greece,"{'brand': 'My Market', 'fascia': 'My Market', 'category': 'Retail', 'edit_date': '2025-05-16', 'lat_lon_source': 'Third Party'}",38.010278,22.739722,My market Κιάτο,"{'opening_hours': {'Mon': '8:00  -  21:00', 'Tue': '8:00  -  21:00', 'Wed': '8:00  -  21:00', 'Thu': '8:00  -  21:00', 'Fri': '8:00  -  21:00', 'Sat': '8:00  -  20:00'}}",2742020480, 20200,145,,https://www.mymarket.gr/stores
11ης Οκτωβρίου 38,My Market, Κοζάνη ,Greece,"{'brand': 'My Market', 'fascia': 'My Market', 'category': 'Retail', 'edit_date': '2025-05-16', 'lat_lon_source': 'Third Party'}",40.30104,21.80046,My market Κοζάνη Κόμβος,"{'opening_hours': {'Mon': '8:00  -  21:00', 'Tue': '8:00  -  21:00', 'Wed': '8:00  -  21:00', 'Thu': '8:00  -  21:00', 'Fri': '8:00  -  21:00', 'Sat': '8:00  -  20:00'}}",2461029026, 50132,146,,https://www.mymarket.gr/stores
"Αλέξη Μινωτή, οικοδ.τετραγ. 916",My Market, Αγία Παρασκευή ,Greece,"{'brand': 'My Market', 'fascia': 'My Market', 'category': 'Retail', 'edit_date': '2025-05-16', 'lat_lon_source': 'Third Party'}",40.3108915811898,21.7842938,My market Κοζάνη Νιάμερο,"{'opening_hours': {'Mon': '8:00  -  21:00', 'Tue': '8:00  -  21:00', 'Wed': '8:00  -  21:00', 'Thu': '8:00  -  21:00', 'Fri': '8:00  -  21:00', 'Sat': '8:00  -  20:00'}}",2461050760, 50131,147,,https://www.mymarket.gr/stores
Αιλιανού 10-12,My Market, Πατήσια ,Greece,"{'brand': 'My Market', 'fascia': 'My Market', 'category': 'Retail', 'edit_date': '2025-05-16', 'lat_lon_source': 'Third Party'}",38.010432,23.732416,My market Κολιάτσου,"{'opening_hours': {'Mon': '8:00  -  21:00', 'Tue': '8:00  -  21:00', 'Wed': '8:00  -  21:00', 'Thu': '8:00  -  21:00', 'Fri': '8:00  -  21:00', 'Sat': '8:00  -  20:00'}}",2102113020, 11254,22,,https://www.mymarket.gr/stores
Γρ. Λαμπράκη 137 & Ρόδου,My Market, Κορυδαλλός ,Greece,"{'brand': 'My Market', 'fascia': 'My Market', 'category': 'Retail', 'edit_date': '2025-05-16', 'lat_lon_source': 'Third Party'}",37.98040563,23.65583184,My market Κορυδαλλός,"{'opening_hours': {'Mon': '8:00  -  21:00', 'Tue': '8:00  -  21:00', 'Wed': '8:00  -  21:00', 'Thu': '8:00  -  21:00', 'Fri': '8:00  -  21:00', 'Sat': '8:00  -  20:00'}}",2104965204, 18120,148,,https://www.mymarket.gr/stores
Λ. Βάρης & Μαρκοπούλου,My Market, Κορωπί ,Greece,"{'brand': 'My Market', 'fascia': 'My Market', 'category': 'Retail', 'edit_date': '2025-05-16', 'lat_lon_source': 'Third Party'}",37.8926696893975,23.8817185163498,My market Κορωπί,"{'opening_hours': {'Mon': '8:00  -  21:00', 'Tue': '8:00  -  21:00', 'Wed': '8:00  -  21:00', 'Thu': '8:00  -  21:00', 'Fri': '8:00  -  21:00', 'Sat': '8:00  -  20:00'}}",2106021003, 19400,5,,https://www.mymarket.gr/stores
Παρθενώνος 4-6,My Market, Κουκάκι ,Greece,"{'brand': 'My Market', 'fascia': 'My Market', 'category': 'Retail', 'edit_date': '2025-05-16', 'lat_lon_source': 'Third Party'}",37.96648,23.7262,My market Κουκάκι,"{'opening_hours': {'Mon': '8:00  -  21:00', 'Tue': '8:00  -  21:00', 'Wed': '8:00  -  21:00', 'Thu': '8:00  -  21:00', 'Fri': '8:00  -  21:00', 'Sat': '8:00  -  20:00'}}",2109247164, 11742,149,,https://www.mymarket.gr/stores
2ο χλμ. Ε.Ο. Κρανιδίου - Πορτοχελίου,My Market, Κρανίδι ,Greece,"{'brand': 'My Market', 'fascia': 'My Market', 'category': 'Retail', 'edit_date': '2025-05-16', 'lat_lon_source': 'Third Party'}",37.361656,23.161926,My market Κρανίδι,"{'opening_hours': {'Mon': '8:00  -  21:00', 'Tue': '8:00  -  21:00', 'Wed': '8:00  -  21:00', 'Thu': '8:00  -  21:00', 'Fri': '8:00  -  21:00', 'Sat': '8:00  -  20:00'}}",2754029190, 21300,150,,https://www.mymarket.gr/stores
Λέλας Καραγιάννη 68-70,My Market, Κυψέλη ,Greece,"{'brand': 'My Market', 'fascia': 'My Market', 'category': 'Retail', 'edit_date': '2025-05-16', 'lat_lon_source': 'Third Party'}",38.0025,23.73873,My market Κυψέλη,"{'opening_hours': {'Mon': '8:00  -  21:00', 'Tue': '8:00  -  21:00', 'Wed': '8:00  -  21:00', 'Thu': '8:00  -  21:00', 'Fri': '8:00  -  21:00', 'Sat': '8:00  -  20:00'}}",2108671346, 11361,151,,https://www.mymarket.gr/stores
Κρέσνας 4 και Ευελπίδων 97,My Market, Κυψέλη ,Greece,"{'brand': 'My Market', 'fascia': 'My Market', 'category': 'Retail', 'edit_date': '2025-05-16', 'lat_lon_source': 'Third Party'}",37.9965456,23.7446563,My market Κυψέλη Ευελπίδων (Local),"{'opening_hours': {'Mon': '07:00 - 23:00', 'Tue': '07:00 - 23:00', 'Wed': '07:00 - 23:00', 'Thu': '07:00 - 23:00', 'Fri': '07:00 - 23:00', 'Sat': '07:00 - 23:00', 'Sun': '09:00 - 22:00'}}",2108227717, 11362,152,,https://www.mymarket.gr/stores
Έναντι Εκθέσεως Λαμίας (Βασιλικών & Μηδείας),My Market, Λαμία ,Greece,"{'brand': 'My Market', 'fascia': 'My Market', 'category': 'Retail', 'edit_date': '2025-05-16', 'lat_lon_source': 'Third Party'}",38.8932415516318,22.4456463754177,My market Λαμία Έκθεση,"{'opening_hours': {'Mon': '8:00  -  21:00', 'Tue': '8:00  -  21:00', 'Wed': '8:00  -  21:00', 'Thu': '8:00  -  21:00', 'Fri': '8:00  -  21:00', 'Sat': '8:00  -  20:00'}}",2231052069, 35100,153,,https://www.mymarket.gr/stores
Ναυπάκτου και Φραντζή,My Market, Λαμία ,Greece,"{'brand': 'My Market', 'fascia': 'My Market', 'category': 'Retail', 'edit_date': '2025-05-16', 'lat_lon_source': 'Third Party'}",38.888868,22.422629,My market Λαμία Παγκράτι,"{'opening_hours': {'Mon': '8:00  -  21:00', 'Tue': '8:00  -  21:00', 'Wed': '8:00  -  21:00', 'Thu': '8:00  -  21:00', 'Fri': '8:00  -  21:00', 'Sat': '8:00  -  20:00'}}",2231039295, 35100,154,,https://www.mymarket.gr/stores
Καραγιαννοπούλου 3,My Market, Λαμία ,Greece,"{'brand': 'My Market', 'fascia': 'My Market', 'category': 'Retail', 'edit_date': '2025-05-16', 'lat_lon_source': 'Third Party'}",38.89962,22.43282,My market Λαμία Πλ. Πάρκου,"{'opening_hours': {'Mon': '8:00  -  21:00', 'Tue': '8:00  -  21:00', 'Wed': '8:00  -  21:00', 'Thu': '8:00  -  21:00', 'Fri': '8:00  -  21:00', 'Sat': '8:00  -  20:00'}}",2231052871, 35100,155,,https://www.mymarket.gr/stores
"Φαρσάλων,Ατλαντίδος & Ιφιγένειας",My Market, Λάρισα ,Greece,"{'brand': 'My Market', 'fascia': 'My Market', 'category': 'Retail', 'edit_date': '2025-05-16', 'lat_lon_source': 'Third Party'}",39.6241499638318,22.4236992001534,My market Λάρισα,"{'opening_hours': {'Mon': '8:00  -  21:00', 'Tue': '8:00  -  21:00', 'Wed': '8:00  -  21:00', 'Thu': '8:00  -  21:00', 'Fri': '8:00  -  21:00', 'Sat': '8:00  -  20:00'}}",2410626735, 41335,49,,https://www.mymarket.gr/stores
"Χωριό Γιάννουλη, Λάρισα",My Market, Λαρίσης ,Greece,"{'brand': 'My Market', 'fascia': 'My Market', 'category': 'Retail', 'edit_date': '2025-05-16', 'lat_lon_source': 'Third Party'}",39.66613,22.3966759443283,My market Λάρισα Γιάννουλη,"{'opening_hours': {'Mon': '8:00  -  21:00', 'Tue': '8:00  -  21:00', 'Wed': '8:00  -  21:00', 'Thu': '8:00  -  21:00', 'Fri': '8:00  -  21:00', 'Sat': '8:00  -  20:00'}}",2410591181, Γιαννούλη,156,,https://www.mymarket.gr/stores
Σινοπούλου Δρόση 56 & Πεντζίκη,My Market, Λάρισα ,Greece,"{'brand': 'My Market', 'fascia': 'My Market', 'category': 'Retail', 'edit_date': '2025-05-16', 'lat_lon_source': 'Third Party'}",39.616191440849,22.41251,My market Λάρισα Ν. Πολιτεία,"{'opening_hours': {'Mon': '8:00  -  21:00', 'Tue': '8:00  -  21:00', 'Wed': '8:00  -  21:00', 'Thu': '8:00  -  21:00', 'Fri': '8:00  -  21:00', 'Sat': '8:00  -  20:00'}}",2410626246, 41335,157,,https://www.mymarket.gr/stores
Φαρσάλων 10-12 και Προφήτη Ηλία και Νικ. Φωκά,My Market, Λάρισα ,Greece,"{'brand': 'My Market', 'fascia': 'My Market', 'category': 'Retail', 'edit_date': '2025-05-16', 'lat_lon_source': 'Third Party'}",39.630009,22.419662,My market Λάρισα Νεράϊδα,"{'opening_hours': {'Mon': '8:00  -  21:00', 'Tue': '8:00  -  21:00', 'Wed': '8:00  -  21:00', 'Thu': '8:00  -  21:00', 'Fri': '8:00  -  21:00', 'Sat': '8:00  -  20:00'}}",2410 - 610910, 41335,158,,https://www.mymarket.gr/stores
Κουντουριώτη Λιμένας Λαυρίου,My Market, Λαύριο ,Greece,"{'brand': 'My Market', 'fascia': 'My Market', 'category': 'Retail', 'edit_date': '2025-05-16', 'lat_lon_source': 'Third Party'}",37.7114780639774,24.0530097484589,My market Λαύριο Λιμένας,"{'opening_hours': {'Mon': '8:00  -  21:00', 'Tue': '8:00  -  21:00', 'Wed': '8:00  -  21:00', 'Thu': '8:00  -  21:00', 'Fri': '8:00  -  21:00', 'Sat': '8:00  -  20:00'}}",2292022576, 19500,31,,https://www.mymarket.gr/stores
Λ. Φωκίωνος Νέγρη 3,My Market, Λαύριο ,Greece,"{'brand': 'My Market', 'fascia': 'My Market', 'category': 'Retail', 'edit_date': '2025-05-16', 'lat_lon_source': 'Third Party'}",37.7170011593004,24.0553889,My market Λαύριο Πλατεία,"{'opening_hours': {'Mon': '8:00  -  21:00', 'Tue': '8:00  -  21:00', 'Wed': '8:00  -  21:00', 'Thu': '8:00  -  21:00', 'Fri': '8:00  -  21:00', 'Sat': '8:00  -  20:00'}}",2292060889, 19500,159,,https://www.mymarket.gr/stores
Επ. Ο. Λευκάδος-Βασιλικής,My Market, Λευκάδα ,Greece,"{'brand': 'My Market', 'fascia': 'My Market', 'category': 'Retail', 'edit_date': '2025-05-16', 'lat_lon_source': 'Third Party'}",38.8280239485389,20.7029709219933,My market Λευκάδα,"{'opening_hours': {'Mon': '8:00  -  21:00', 'Tue': '8:00  -  21:00', 'Wed': '8:00  -  21:00', 'Thu': '8:00  -  21:00', 'Fri': '8:00  -  21:00', 'Sat': '8:00  -  20:00'}}",2645021027, 31100,160,,https://www.mymarket.gr/stores
Παλαιά Εθνική Οδός Κορίνθου - Πατρών,My Market, Λέχαιο ,Greece,"{'brand': 'My Market', 'fascia': 'My Market', 'category': 'Retail', 'edit_date': '2025-05-16', 'lat_lon_source': 'Third Party'}",37.9328844504089,22.851304,My market Λέχαιο,"{'opening_hours': {'Mon': '8:00  -  21:00', 'Tue': '8:00  -  21:00', 'Wed': '8:00  -  21:00', 'Thu': '8:00  -  21:00', 'Fri': '8:00  -  21:00', 'Sat': '8:00  -  20:00'}}",27410 88781, 20011,161,,https://www.mymarket.gr/stores
Φίλωνος 18,My Market, Λιβαδειά ,Greece,"{'brand': 'My Market', 'fascia': 'My Market', 'category': 'Retail', 'edit_date': '2025-05-16', 'lat_lon_source': 'Third Party'}",38.43888,22.8777623176575,My market Λιβαδειά,"{'opening_hours': {'Mon': '8:00  -  21:00', 'Tue': '8:00  -  21:00', 'Wed': '8:00  -  21:00', 'Thu': '8:00  -  21:00', 'Fri': '8:00  -  21:00', 'Sat': '8:00  -  20:00'}}",2261020029, 32100,162,,https://www.mymarket.gr/stores
Εδέσσης 34,My Market, Αιγάλεω ,Greece,"{'brand': 'My Market', 'fascia': 'My Market', 'category': 'Retail', 'edit_date': '2025-05-16', 'lat_lon_source': 'Third Party'}",38.0038086637462,23.67172969,My market Λιούμη,"{'opening_hours': {'Mon': '8:00  -  21:00', 'Tue': '8:00  -  21:00', 'Wed': '8:00  -  21:00', 'Thu': '8:00  -  21:00', 'Fri': '8:00  -  21:00', 'Sat': '8:00  -  20:00'}}","210 5312227, 210 5909844", Λιούμη,163,,https://www.mymarket.gr/stores
Συμβολή Αρτέμιδος-Μιαούλη-Γρηγορίου Ε',My Market, Λούτσα ,Greece,"{'brand': 'My Market', 'fascia': 'My Market', 'category': 'Retail', 'edit_date': '2025-05-16', 'lat_lon_source': 'Third Party'}",37.9655612569938,24.0058739483357,My market Λούτσα,"{'opening_hours': {'Mon': '8:00  -  21:00', 'Tue': '8:00  -  21:00', 'Wed': '8:00  -  21:00', 'Thu': '8:00  -  21:00', 'Fri': '8:00  -  21:00', 'Sat': '8:00  -  20:00'}}",2294082317, 19016,26,,https://www.mymarket.gr/stores
Βοσπόρου 42,My Market, Λόφος Σκουζέ ,Greece,"{'brand': 'My Market', 'fascia': 'My Market', 'category': 'Retail', 'edit_date': '2025-05-16', 'lat_lon_source': 'Third Party'}",37.9992948,23.716146,My market Λόφος Σκουζέ,"{'opening_hours': {'Mon': '8:00  -  21:00', 'Tue': '8:00  -  21:00', 'Wed': '8:00  -  21:00', 'Thu': '8:00  -  21:00', 'Fri': '8:00  -  21:00', 'Sat': '8:00  -  20:00'}}",2105127568, 10444,164,,https://www.mymarket.gr/stores
Π.Ε.Ο Αθηνών - Θηβών,My Market, Μάνδρα ,Greece,"{'brand': 'My Market', 'fascia': 'My Market', 'category': 'Retail', 'edit_date': '2025-05-16', 'lat_lon_source': 'Third Party'}",38.0815167504252,23.4919787943363,My market Μάνδρα,"{'opening_hours': {'Mon': '8:00  -  21:00', 'Tue': '8:00  -  21:00', 'Wed': '8:00  -  21:00', 'Thu': '8:00  -  21:00', 'Fri': '8:00  -  21:00', 'Sat': '8:00  -  20:00'}}",2105551395, 19600,10,,https://www.mymarket.gr/stores
Πρ. Ηλία 32,My Market, Μαραθώνας ,Greece,"{'brand': 'My Market', 'fascia': 'My Market', 'category': 'Retail', 'edit_date': '2025-05-16', 'lat_lon_source': 'Third Party'}",38.1600565935356,23.9613492786884,My market Μαραθώνας,"{'opening_hours': {'Mon': '8:00  -  21:00', 'Tue': '8:00  -  21:00', 'Wed': '8:00  -  21:00', 'Thu': '8:00  -  21:00', 'Fri': '8:00  -  21:00', 'Sat': '8:00  -  20:00'}}",22940 67390, 19007,165,,https://www.mymarket.gr/stores
Αγίου Κωσταντίνου & Διονύσου,My Market, Μαρούσι ,Greece,"{'brand': 'My Market', 'fascia': 'My Market', 'category': 'Retail', 'edit_date': '2025-05-16', 'lat_lon_source': 'Third Party'}",38.0475841322395,23.8039398193359,My market Μαρούσι Αίθριο,"{'opening_hours': {'Mon': '8:00  -  21:00', 'Tue': '8:00  -  21:00', 'Wed': '8:00  -  21:00', 'Thu': '8:00  -  21:00', 'Fri': '8:00  -  21:00', 'Sat': '8:00  -  20:00'}}",2106196240, 15124,32,,https://www.mymarket.gr/stores
Μαραθωνοδρόμου & Βορείου Ηπείρου,My Market, Μαρούσι ,Greece,"{'brand': 'My Market', 'fascia': 'My Market', 'category': 'Retail', 'edit_date': '2025-05-16', 'lat_lon_source': 'Third Party'}",38.04992,23.81008,My market Μαρούσι Β. Ηπείρου,"{'opening_hours': {'Mon': '8:00  -  21:00', 'Tue': '8:00  -  21:00', 'Wed': '8:00  -  21:00', 'Thu': '8:00  -  21:00', 'Fri': '8:00  -  21:00', 'Sat': '8:00  -  20:00'}}",2108052923, 15125,166,,https://www.mymarket.gr/stores
Μητροπόλεως 45,My Market, Μαρούσι ,Greece,"{'brand': 'My Market', 'fascia': 'My Market', 'category': 'Retail', 'edit_date': '2025-05-16', 'lat_lon_source': 'Third Party'}",38.05413,23.81074,My market Μαρούσι Μητροπόλεως,"{'opening_hours': {'Mon': '8:00  -  21:00', 'Tue': '8:00  -  21:00', 'Wed': '8:00  -  21:00', 'Thu': '8:00  -  21:00', 'Fri': '8:00  -  21:00', 'Sat': '8:00  -  20:00'}}",2108029482, 15124,167,,https://www.mymarket.gr/stores
Λ. Αλεποχωρίου και Αγ. Βαρβάρας 13,My Market, Μέγαρα ,Greece,"{'brand': 'My Market', 'fascia': 'My Market', 'category': 'Retail', 'edit_date': '2025-05-16', 'lat_lon_source': 'Third Party'}",38.0046889311175,23.33944896,My market Μέγαρα Αλεποχώρι,"{'opening_hours': {'Mon': '8:00  -  21:00', 'Tue': '8:00  -  21:00', 'Wed': '8:00  -  21:00', 'Thu': '8:00  -  21:00', 'Fri': '8:00  -  21:00', 'Sat': '8:00  -  20:00'}}",2296021481, 19100,168,,https://www.mymarket.gr/stores
Παλαιά Ε.Ο. Αθηνών - Κορίνθου,My Market, Μέγαρα ,Greece,"{'brand': 'My Market', 'fascia': 'My Market', 'category': 'Retail', 'edit_date': '2025-05-16', 'lat_lon_source': 'Third Party'}",37.98889,23.34687,My market Μέγαρα Π. Εθνική,"{'opening_hours': {'Mon': '8:00  -  21:00', 'Tue': '8:00  -  21:00', 'Wed': '8:00  -  21:00', 'Thu': '8:00  -  21:00', 'Fri': '8:00  -  21:00', 'Sat': '8:00  -  20:00'}}",2296027340, 19100,169,,https://www.mymarket.gr/stores
"ΛΕΩΦΟΡΟΣ ΠΗΓΗΣ 22, ΜΕΛΙΣΣΙΑ",My Market, Αθήνα ,Greece,"{'brand': 'My Market', 'fascia': 'My Market', 'category': 'Retail', 'edit_date': '2025-05-16', 'lat_lon_source': 'Third Party'}",38.05727070932315,23.83859567453669,My market Μελίσσια (Local),"{'opening_hours': {'Mon': '07:00 - 23:00', 'Tue': '07:00 - 23:00', 'Wed': '07:00 - 23:00', 'Thu': '07:00 - 23:00', 'Fri': '07:00 - 23:00', 'Sat': '07:00 - 23:00', 'Sun': '08:00 - 22:00'}}",2130995903, 15127,255,,https://www.mymarket.gr/stores
Εθνικής Αντιστάσεως 99-101,My Market, Αχαρναί ,Greece,"{'brand': 'My Market', 'fascia': 'My Market', 'category': 'Retail', 'edit_date': '2025-05-16', 'lat_lon_source': 'Third Party'}",38.085153,23.724702,My market Μενίδι Άγ. Διονύσιος,"{'opening_hours': {'Mon': '8:00  -  21:00', 'Tue': '8:00  -  21:00', 'Wed': '8:00  -  21:00', 'Thu': '8:00  -  21:00', 'Fri': '8:00  -  21:00', 'Sat': '8:00  -  20:00'}}",2102469096, 13672,170,,https://www.mymarket.gr/stores
Αριστοτέλους 323,My Market, Αχαρναί ,Greece,"{'brand': 'My Market', 'fascia': 'My Market', 'category': 'Retail', 'edit_date': '2025-05-16', 'lat_lon_source': 'Third Party'}",38.083289,23.745371,My market Μενίδι Αριστοτέλους,"{'opening_hours': {'Mon': '8:00  -  21:00', 'Tue': '8:00  -  21:00', 'Wed': '8:00  -  21:00', 'Thu': '8:00  -  21:00', 'Fri': '8:00  -  21:00', 'Sat': '8:00  -  20:00'}}",2102409489, 13673,171,,https://www.mymarket.gr/stores
Θ. Λέκκα 10-12,My Market, Μενίδι ,Greece,"{'brand': 'My Market', 'fascia': 'My Market', 'category': 'Retail', 'edit_date': '2025-05-16', 'lat_lon_source': 'Third Party'}",38.08235056,23.73824523,My market Μενίδι Κέντρο,"{'opening_hours': {'Mon': '8:00  -  21:00', 'Tue': '8:00  -  21:00', 'Wed': '8:00  -  21:00', 'Thu': '8:00  -  21:00', 'Fri': '8:00  -  21:00', 'Sat': '8:00  -  20:00'}}",2102443976, 13671,172,,https://www.mymarket.gr/stores
Δημάρχου Δ. Κούτσικα & Μουτσόπουλου,My Market, Μεσσήνη ,Greece,"{'brand': 'My Market', 'fascia': 'My Market', 'category': 'Retail', 'edit_date': '2025-05-16', 'lat_lon_source': 'Third Party'}",37.04593,22.0090001821518,My market Μεσσήνη,"{'opening_hours': {'Mon': '8:00  -  21:00', 'Tue': '8:00  -  21:00', 'Wed': '8:00  -  21:00', 'Thu': '8:00  -  21:00', 'Fri': '8:00  -  21:00', 'Sat': '8:00  -  20:00'}}",2722022950, 24200,173,,https://www.mymarket.gr/stores
Ηρακλείου 18-20,My Market, Μεταμόρφωση ,Greece,"{'brand': 'My Market', 'fascia': 'My Market', 'category': 'Retail', 'edit_date': '2025-05-16', 'lat_lon_source': 'Third Party'}",38.05879388342953,23.761528800944355,My market Μεταμόρφωση  (Local),"{'opening_hours': {'Mon': '07:00 - 23:00', 'Tue': '07:00 - 23:00', 'Wed': '07:00 - 23:00', 'Thu': '07:00 - 23:00', 'Fri': '07:00 - 23:00', 'Sat': '07:00 - 23:00', 'Sun': '08:00 - 22:00'}}",2168081524, 14451,250,,https://www.mymarket.gr/stores
Δ. Σολωμού 56,My Market, Μεταμόρφωση ,Greece,"{'brand': 'My Market', 'fascia': 'My Market', 'category': 'Retail', 'edit_date': '2025-05-16', 'lat_lon_source': 'Third Party'}",38.05336,23.75923,My market Μεταμόρφωση Σολωμού,"{'opening_hours': {'Mon': '8:00  -  21:00', 'Tue': '8:00  -  21:00', 'Wed': '8:00  -  21:00', 'Thu': '8:00  -  21:00', 'Fri': '8:00  -  21:00', 'Sat': '8:00  -  20:00'}}",2102855542, 14451,174,,https://www.mymarket.gr/stores
Δροσίνη 6 και Τατοΐου,My Market, Μεταμόρφωση ,Greece,"{'brand': 'My Market', 'fascia': 'My Market', 'category': 'Retail', 'edit_date': '2025-05-16', 'lat_lon_source': 'Third Party'}",38.061337,23.756216,My market Μεταμόρφωση Τατοΐου,"{'opening_hours': {'Mon': '8:00  -  21:00', 'Tue': '8:00  -  21:00', 'Wed': '8:00  -  21:00', 'Thu': '8:00  -  21:00', 'Fri': '8:00  -  21:00', 'Sat': '8:00  -  20:00'}}",2102813201, 14452,175,,https://www.mymarket.gr/stores
Πλαταιών 51 & Παραμυθιάς,My Market, Μεταξουργείο ,Greece,"{'brand': 'My Market', 'fascia': 'My Market', 'category': 'Retail', 'edit_date': '2025-05-16', 'lat_lon_source': 'Third Party'}",37.9825955693676,23.7150393426418,My market Μεταξουργείο,"{'opening_hours': {'Mon': '8:00  -  21:00', 'Tue': '8:00  -  21:00', 'Wed': '8:00  -  21:00', 'Thu': '8:00  -  21:00', 'Fri': '8:00  -  21:00', 'Sat': '8:00  -  20:00'}}",2103423265, 10435,23,,https://www.mymarket.gr/stores
Κοραή 51,My Market, Μοσχάτο ,Greece,"{'brand': 'My Market', 'fascia': 'My Market', 'category': 'Retail', 'edit_date': '2025-05-16', 'lat_lon_source': 'Third Party'}",37.953013,23.683434,My market Μοσχάτο,"{'opening_hours': {'Mon': '8:00  -  21:00', 'Tue': '8:00  -  21:00', 'Wed': '8:00  -  21:00', 'Thu': '8:00  -  21:00', 'Fri': '8:00  -  21:00', 'Sat': '8:00  -  20:00'}}",2109426659, 18345,33,,https://www.mymarket.gr/stores
Ελ. Βενιζέλου 27,My Market, Μυτιλήνη ,Greece,"{'brand': 'My Market', 'fascia': 'My Market', 'category': 'Retail', 'edit_date': '2025-05-16', 'lat_lon_source': 'Third Party'}",39.10028,26.55531,My market Μυτιλήνη Βενιζέλου,"{'opening_hours': {'Mon': '8:00  -  21:00', 'Tue': '8:00  -  21:00', 'Wed': '8:00  -  21:00', 'Thu': '8:00  -  21:00', 'Fri': '8:00  -  21:00', 'Sat': '8:00  -  20:00'}}",2251045066, 81132,176,,https://www.mymarket.gr/stores
Ισαύρων και Αγίας Σοφίας,My Market, Μυτιλήνη ,Greece,"{'brand': 'My Market', 'fascia': 'My Market', 'category': 'Retail', 'edit_date': '2025-05-16', 'lat_lon_source': 'Third Party'}",39.1089386725339,26.5571348369122,My market Μυτιλήνη Ισαύρων easy,"{'opening_hours': {'Mon': '8:00  -  21:00', 'Tue': '8:00  -  21:00', 'Wed': '8:00  -  21:00', 'Thu': '8:00  -  21:00', 'Fri': '8:00  -  21:00', 'Sat': '8:00  -  20:00'}}",2251047111, 81131,177,,https://www.mymarket.gr/stores
"Καλλονή Αγίου Νεκταρίου Θέση Ραμνίδια, Αγροκηπίων",My Market, Μυτιλήνη ,Greece,"{'brand': 'My Market', 'fascia': 'My Market', 'category': 'Retail', 'edit_date': '2025-05-16', 'lat_lon_source': 'Third Party'}",39.232,26.21137,My market Μυτιλήνη Καλλονή,"{'opening_hours': {'Mon': '8:00  -  21:00', 'Tue': '8:00  -  21:00', 'Wed': '8:00  -  21:00', 'Thu': '8:00  -  21:00', 'Fri': '8:00  -  21:00', 'Sat': '8:00  -  20:00'}}",2253029755, 81107,178,,https://www.mymarket.gr/stores
Καραολή και Δημητρίου 58,My Market, Βύρωνας ,Greece,"{'brand': 'My Market', 'fascia': 'My Market', 'category': 'Retail', 'edit_date': '2025-05-16', 'lat_lon_source': 'Third Party'}",37.95696,23.76499,My market Ν. Ελβετία,"{'opening_hours': {'Mon': '8:00  -  21:00', 'Tue': '8:00  -  21:00', 'Wed': '8:00  -  21:00', 'Thu': '8:00  -  21:00', 'Fri': '8:00  -  21:00', 'Sat': '8:00  -  20:00'}}",2107665814, 16232,179,,https://www.mymarket.gr/stores
Αγ. Γεωργίου - Τενέδου & Κρέσνας,My Market, Νέα Ιωνία ,Greece,"{'brand': 'My Market', 'fascia': 'My Market', 'category': 'Retail', 'edit_date': '2025-05-16', 'lat_lon_source': 'Third Party'}",38.0379812713799,23.75522,My market Ν. Ιωνία,"{'opening_hours': {'Mon': '8:00  -  21:00', 'Tue': '8:00  -  21:00', 'Wed': '8:00  -  21:00', 'Thu': '8:00  -  21:00', 'Fri': '8:00  -  21:00', 'Sat': '8:00  -  20:00'}}",2102713454, 14233,180,,https://www.mymarket.gr/stores
Λεωφ. Ελ. Βενιζέλου 105,My Market, Αττική ,Greece,"{'brand': 'My Market', 'fascia': 'My Market', 'category': 'Retail', 'edit_date': '2025-05-16', 'lat_lon_source': 'Third Party'}",37.9411058026769,23.7135108257753,My market Ν. Σμύρνη (Local),"{'opening_hours': {'Mon': '07:00 - 23:00', 'Tue': '07:00 - 23:00', 'Wed': '07:00 - 23:00', 'Thu': '07:00 - 23:00', 'Fri': '07:00 - 23:00', 'Sat': '07:00 - 23:00', 'Sun': '08:00 - 22:00'}}",2160703462, 17123,238,,https://www.mymarket.gr/stores
Εφέσσου 9 & Ν. Πλαστήρα,My Market, Νέα Σμύρνη ,Greece,"{'brand': 'My Market', 'fascia': 'My Market', 'category': 'Retail', 'edit_date': '2025-05-16', 'lat_lon_source': 'Third Party'}",37.95312,23.71415,My market Ν. Σμύρνη Εφέσσου,"{'opening_hours': {'Mon': '8:00  -  21:00', 'Tue': '8:00  -  21:00', 'Wed': '8:00  -  21:00', 'Thu': '8:00  -  21:00', 'Fri': '8:00  -  21:00', 'Sat': '8:00  -  20:00'}}",2109313875, 17121,181,,https://www.mymarket.gr/stores
Ομήρου 60,My Market, Νέα Σμύρνη ,Greece,"{'brand': 'My Market', 'fascia': 'My Market', 'category': 'Retail', 'edit_date': '2025-05-16', 'lat_lon_source': 'Third Party'}",37.946,23.71307,My market Ν. Σμύρνη Ομήρου easy,"{'opening_hours': {'Mon': '8:00  -  21:00', 'Tue': '8:00  -  21:00', 'Wed': '8:00  -  21:00', 'Thu': '8:00  -  21:00', 'Fri': '8:00  -  21:00', 'Sat': '8:00  -  20:00'}}",2109333701, 17121,182,,https://www.mymarket.gr/stores
Αθανασιάδη Νόβα & Σμύρνης,My Market, Ναύπακτος ,Greece,"{'brand': 'My Market', 'fascia': 'My Market', 'category': 'Retail', 'edit_date': '2025-05-16', 'lat_lon_source': 'Third Party'}",38.3896367782628,21.818903,My market Ναύπακτος,"{'opening_hours': {'Mon': '8:00  -  21:00', 'Tue': '8:00  -  21:00', 'Wed': '8:00  -  21:00', 'Thu': '8:00  -  21:00', 'Fri': '8:00  -  21:00', 'Sat': '8:00  -  20:00'}}",2634021750, 30300,183,,https://www.mymarket.gr/stores
Ασκληπιού 74,My Market, Ναύπλιο ,Greece,"{'brand': 'My Market', 'fascia': 'My Market', 'category': 'Retail', 'edit_date': '2025-05-16', 'lat_lon_source': 'Third Party'}",37.570888,22.816256,My market Ναύπλιο Ασκληπιού,"{'opening_hours': {'Mon': '8:00  -  21:00', 'Tue': '8:00  -  21:00', 'Wed': '8:00  -  21:00', 'Thu': '8:00  -  21:00', 'Fri': '8:00  -  21:00', 'Sat': '8:00  -  20:00'}}",2752028140, 21100,184,,https://www.mymarket.gr/stores
Ε.Ο. Χαλκίδας-Ιστιαίας,My Market, Νέα Αρτάκη ,Greece,"{'brand': 'My Market', 'fascia': 'My Market', 'category': 'Retail', 'edit_date': '2025-05-16', 'lat_lon_source': 'Third Party'}",38.52101,23.637189,My market Νέα Αρτάκη,"{'opening_hours': {'Mon': '8:00  -  21:00', 'Tue': '8:00  -  21:00', 'Wed': '8:00  -  21:00', 'Thu': '8:00  -  21:00', 'Fri': '8:00  -  21:00', 'Sat': '8:00  -  20:00'}}",2221041032, 34600,185,,https://www.mymarket.gr/stores
Λ. Μαραθώνος 160,My Market, Νέα Μάκρη ,Greece,"{'brand': 'My Market', 'fascia': 'My Market', 'category': 'Retail', 'edit_date': '2025-05-16', 'lat_lon_source': 'Third Party'}",38.09041023,23.9757245779038,My market Νέα Μάκρη,"{'opening_hours': {'Mon': '8:00  -  21:00', 'Tue': '8:00  -  21:00', 'Wed': '8:00  -  21:00', 'Thu': '8:00  -  21:00', 'Fri': '8:00  -  21:00', 'Sat': '8:00  -  20:00'}}",2294069033, 19005,186,,https://www.mymarket.gr/stores
Πλ. Ηρώων Πολυτεχνείου 22-24,My Market, Νέα Πεντέλη ,Greece,"{'brand': 'My Market', 'fascia': 'My Market', 'category': 'Retail', 'edit_date': '2025-05-16', 'lat_lon_source': 'Third Party'}",38.0586112930075,23.8585495948792,My market Νέα Πεντέλη,"{'opening_hours': {'Mon': '8:00  -  21:00', 'Tue': '8:00  -  21:00', 'Wed': '8:00  -  21:00', 'Thu': '8:00  -  21:00', 'Fri': '8:00  -  21:00', 'Sat': '8:00  -  20:00'}}",2106138620, 15236,187,,https://www.mymarket.gr/stores
28ης Οκτωβρίου 288 και Θ. Γεωργιάδη,My Market, Νέα Πέραμος ,Greece,"{'brand': 'My Market', 'fascia': 'My Market', 'category': 'Retail', 'edit_date': '2025-05-16', 'lat_lon_source': 'Third Party'}",38.0075293856897,23.4281408786774,My market Νέα Πέραμος,"{'opening_hours': {'Mon': '8:00  -  21:00', 'Tue': '8:00  -  21:00', 'Wed': '8:00  -  21:00', 'Thu': '8:00  -  21:00', 'Fri': '8:00  -  21:00', 'Sat': '8:00  -  20:00'}}",2296034551, 19006,188,,https://www.mymarket.gr/stores
Ελ. Βενιζέλου 158,My Market, Νέα Σμύρνη ,Greece,"{'brand': 'My Market', 'fascia': 'My Market', 'category': 'Retail', 'edit_date': '2025-05-16', 'lat_lon_source': 'Third Party'}",37.9333646769758,23.7105023860931,My market Νέα Σμύρνη Βενιζέλου,"{'opening_hours': {'Mon': '8:00  -  21:00', 'Tue': '8:00  -  21:00', 'Wed': '8:00  -  21:00', 'Thu': '8:00  -  21:00', 'Fri': '8:00  -  21:00', 'Sat': '8:00  -  20:00'}}",2109330867, 17122,34,,https://www.mymarket.gr/stores
Πίνδου 61,My Market, Νέα Φιλαδέλφεια ,Greece,"{'brand': 'My Market', 'fascia': 'My Market', 'category': 'Retail', 'edit_date': '2025-05-16', 'lat_lon_source': 'Third Party'}",38.0428958712559,23.737580627203,My market Νέα Φιλαδέλφεια,"{'opening_hours': {'Mon': '8:00  -  21:00', 'Tue': '8:00  -  21:00', 'Wed': '8:00  -  21:00', 'Thu': '8:00  -  21:00', 'Fri': '8:00  -  21:00', 'Sat': '8:00  -  20:00'}}",2102588822, 14342,35,,https://www.mymarket.gr/stores
Κουντουριώτου & Μουσών,My Market, Νέο Ηράκλειο ,Greece,"{'brand': 'My Market', 'fascia': 'My Market', 'category': 'Retail', 'edit_date': '2025-05-16', 'lat_lon_source': 'Third Party'}",38.049941,23.766158,My market Νέο Ηράκλειο Τρία Αστέρια,"{'opening_hours': {'Mon': '8:00  -  21:00', 'Tue': '8:00  -  21:00', 'Wed': '8:00  -  21:00', 'Thu': '8:00  -  21:00', 'Fri': '8:00  -  21:00', 'Sat': '8:00  -  20:00'}}",2102820561, 14122,36,,https://www.mymarket.gr/stores
Μπακνανά 36 ΑΘΗΝΑ,My Market, Αθήνα ,Greece,"{'brand': 'My Market', 'fascia': 'My Market', 'category': 'Retail', 'edit_date': '2025-05-16', 'lat_lon_source': 'Third Party'}",37.95340156090542,23.724411538392598,My market Νέος Κόσμος (Local),"{'opening_hours': {'Mon': '07:00 - 23:00', 'Tue': '07:00 - 23:00', 'Wed': '07:00 - 23:00', 'Thu': '07:00 - 23:00', 'Fri': '07:00 - 23:00', 'Sat': '07:00 - 23:00', 'Sun': '08:00 - 22:00'}}",2168082982, 11744,251,,https://www.mymarket.gr/stores
18454,My Market, ΝΙΚΑΙΑ ,Greece,"{'brand': 'My Market', 'fascia': 'My Market', 'category': 'Retail', 'edit_date': '2025-05-16', 'lat_lon_source': 'Third Party'}",37.97602177721107,23.66084470373567,My market Νίκαια ( Local),"{'opening_hours': {'Mon': '07:00 - 23:00', 'Tue': '07:00 - 23:00', 'Wed': '07:00 - 23:00', 'Thu': '07:00 - 23:00', 'Fri': '07:00 - 23:00', 'Sat': '07:00 - 23:00', 'Sun': '08:00 - 22:00'}}",2111100710, ΧΡ. ΣΜΥΡΝΗΣ 33,253,,https://www.mymarket.gr/stores
7ης Μαρτίου 53 (πρώην Γ. Κονδύλη),My Market, Νίκαια ,Greece,"{'brand': 'My Market', 'fascia': 'My Market', 'category': 'Retail', 'edit_date': '2025-05-16', 'lat_lon_source': 'Third Party'}",37.96655562,23.65037224,My market My market Νίκαια 7ης Μαρτίου,"{'opening_hours': {'Mon': '8:00  -  21:00', 'Tue': '8:00  -  21:00', 'Wed': '8:00  -  21:00', 'Thu': '8:00  -  21:00', 'Fri': '8:00  -  21:00', 'Sat': '8:00  -  20:00'}}",2104926000, 18450,189,,https://www.mymarket.gr/stores
Αιτωλικού 198,My Market, Νίκαια ,Greece,"{'brand': 'My Market', 'fascia': 'My Market', 'category': 'Retail', 'edit_date': '2025-05-16', 'lat_lon_source': 'Third Party'}",37.96366,23.63994,My market Νίκαια Ευαγγελίστρια,"{'opening_hours': {'Mon': '8:00  -  21:00', 'Tue': '8:00  -  21:00', 'Wed': '8:00  -  21:00', 'Thu': '8:00  -  21:00', 'Fri': '8:00  -  21:00', 'Sat': '8:00  -  20:00'}}",2104920959, 18450,190,,https://www.mymarket.gr/stores
Αγησιλάου και Σμύρνης 1,My Market, Νίκαια ,Greece,"{'brand': 'My Market', 'fascia': 'My Market', 'category': 'Retail', 'edit_date': '2025-05-16', 'lat_lon_source': 'Third Party'}",37.97132,23.65999,My market Νίκαια Νοσοκομείο,"{'opening_hours': {'Mon': '8:00  -  21:00', 'Tue': '8:00  -  21:00', 'Wed': '8:00  -  21:00', 'Thu': '8:00  -  21:00', 'Fri': '8:00  -  21:00', 'Sat': '8:00  -  20:00'}}",2104922676, 18454,191,,https://www.mymarket.gr/stores
"37ο χλμ Π.Ε.Ο. Κορίνθου-Πατρών, θέση Παναγία Φανερωμένη",My Market, Ξυλόκαστρο ,Greece,"{'brand': 'My Market', 'fascia': 'My Market', 'category': 'Retail', 'edit_date': '2025-05-16', 'lat_lon_source': 'Third Party'}",38.07952,22.61692,My market Ξυλόκαστρο,"{'opening_hours': {'Mon': '8:00  -  21:00', 'Tue': '8:00  -  21:00', 'Wed': '8:00  -  21:00', 'Thu': '8:00  -  21:00', 'Fri': '8:00  -  21:00', 'Sat': '8:00  -  20:00'}}",2743026657, 20400,192,,https://www.mymarket.gr/stores
Π.Ο. Οινοφύτων (θέση Αγ. Παρασκευή ή Βάρυκο),My Market, Οινόφυτα ,Greece,"{'brand': 'My Market', 'fascia': 'My Market', 'category': 'Retail', 'edit_date': '2025-05-16', 'lat_lon_source': 'Third Party'}",38.3106427533556,23.634081,My market Οινόφυτα,"{'opening_hours': {'Mon': '8:00  -  21:00', 'Tue': '8:00  -  21:00', 'Wed': '8:00  -  21:00', 'Thu': '8:00  -  21:00', 'Fri': '8:00  -  21:00', 'Sat': '8:00  -  20:00'}}",2262056045, 32011,193,,https://www.mymarket.gr/stores
Ν.Λεωφόρος Κύμης έναντι της εισόδου Α' Ολυμπιακού Χωριού,My Market, Ολυμπιακό Χωριό ,Greece,"{'brand': 'My Market', 'fascia': 'My Market', 'category': 'Retail', 'edit_date': '2025-05-16', 'lat_lon_source': 'Third Party'}",38.104475,23.7622944,My market Ολυμπιακό Χωριό,"{'opening_hours': {'Mon': '8:00  -  21:00', 'Tue': '8:00  -  21:00', 'Wed': '8:00  -  21:00', 'Thu': '8:00  -  21:00', 'Fri': '8:00  -  21:00', 'Sat': '8:00  -  20:00'}}",2102445352, 13672,27,,https://www.mymarket.gr/stores
28ης ΟΚΤΩΒΡΙΟΥ 7,My Market, Ομόνοια ,Greece,"{'brand': 'My Market', 'fascia': 'My Market', 'category': 'Retail', 'edit_date': '2025-05-16', 'lat_lon_source': 'Third Party'}",37.98451,23.72941,My market Ομόνοια,"{'opening_hours': {'Mon': '8:00  -  21:00', 'Tue': '8:00  -  21:00', 'Wed': '8:00  -  21:00', 'Thu': '8:00  -  21:00', 'Fri': '8:00  -  21:00', 'Sat': '8:00  -  20:00'}}",2105235578, 10431,194,,https://www.mymarket.gr/stores
28ης Οκτωβρίου 48,My Market, Ορχομενός ,Greece,"{'brand': 'My Market', 'fascia': 'My Market', 'category': 'Retail', 'edit_date': '2025-05-16', 'lat_lon_source': 'Third Party'}",38.49301,22.98217,My market Ορχομενός,"{'opening_hours': {'Mon': '8:00  -  21:00', 'Tue': '8:00  -  21:00', 'Wed': '8:00  -  21:00', 'Thu': '8:00  -  21:00', 'Fri': '8:00  -  21:00', 'Sat': '8:00  -  20:00'}}",2261032915, 32300,195,,https://www.mymarket.gr/stores
Ρήγα Φεραίου 15,My Market, Αττική ,Greece,"{'brand': 'My Market', 'fascia': 'My Market', 'category': 'Retail', 'edit_date': '2025-05-16', 'lat_lon_source': 'Third Party'}",37.92944404716668,23.7041504924441,My market Π. Φάληρο (Local),"{'opening_hours': {'Mon': '7:00  -  23:00', 'Tue': '7:00  -  23:00', 'Wed': '7:00  -  23:00', 'Thu': '7:00  -  23:00', 'Fri': '7:00  -  23:00', 'Sat': '8:00  -  22:00'}}",2160045748, Παλαιό Φάληρο,242,,https://www.mymarket.gr/stores
Τερψιχόρης 64 και Αρτέμιδος 89-91,My Market, Π. Φάληρο ,Greece,"{'brand': 'My Market', 'fascia': 'My Market', 'category': 'Retail', 'edit_date': '2025-05-16', 'lat_lon_source': 'Third Party'}",37.928357,23.69944096,My market Π. Φάληρο Δημαρχείο easy,"{'opening_hours': {'Mon': '8:00  -  21:00', 'Tue': '8:00  -  21:00', 'Wed': '8:00  -  21:00', 'Thu': '8:00  -  21:00', 'Fri': '8:00  -  21:00', 'Sat': '8:00  -  20:00'}}",2109802174, 17562,196,,https://www.mymarket.gr/stores
Ελ. Βενιζέλου 259,My Market, Αττική ,Greece,"{'brand': 'My Market', 'fascia': 'My Market', 'category': 'Retail', 'edit_date': '2025-05-16', 'lat_lon_source': 'Third Party'}",37.92813646148542,23.709718708020986,My market Π. Φάληρο Ελ. Βενιζέλου (Local),"{'opening_hours': {'Mon': '7:00  -  23:00', 'Tue': '7:00  -  23:00', 'Wed': '7:00  -  23:00', 'Thu': '7:00  -  23:00', 'Fri': '7:00  -  23:00', 'Sat': '8:00  -  22:00'}}",2160704580, Παλαιό Φάληρο,271,,https://www.mymarket.gr/stores
Φορμίωνος 23,My Market, Καισαριανή ,Greece,"{'brand': 'My Market', 'fascia': 'My Market', 'category': 'Retail', 'edit_date': '2025-05-16', 'lat_lon_source': 'Third Party'}",37.9706160384273,23.75177,My market Παγκράτι,"{'opening_hours': {'Mon': '8:00  -  21:00', 'Tue': '8:00  -  21:00', 'Wed': '8:00  -  21:00', 'Thu': '8:00  -  21:00', 'Fri': '8:00  -  21:00', 'Sat': '8:00  -  20:00'}}",2107295434, 16121,197,,https://www.mymarket.gr/stores
Ε.Ο. Αθηνών - Λαυρίου 97,My Market, Παιανία ,Greece,"{'brand': 'My Market', 'fascia': 'My Market', 'category': 'Retail', 'edit_date': '2025-05-16', 'lat_lon_source': 'Third Party'}",37.95675,23.85799,My market Παιανία,"{'opening_hours': {'Mon': '8:00  -  21:00', 'Tue': '8:00  -  21:00', 'Wed': '8:00  -  21:00', 'Thu': '8:00  -  21:00', 'Fri': '8:00  -  21:00', 'Sat': '8:00  -  20:00'}}",2106026773, 19002,4,,https://www.mymarket.gr/stores
Ηρακλείου 475,My Market, Παλαιό Ηράκλειο ,Greece,"{'brand': 'My Market', 'fascia': 'My Market', 'category': 'Retail', 'edit_date': '2025-05-16', 'lat_lon_source': 'Third Party'}",38.0601994390083,23.7728476524353,My market Παλαιό Ηράκλειο,"{'opening_hours': {'Mon': '8:00  -  21:00', 'Tue': '8:00  -  21:00', 'Wed': '8:00  -  21:00', 'Thu': '8:00  -  21:00', 'Fri': '8:00  -  21:00', 'Sat': '8:00  -  20:00'}}",2102832756, 14122,37,,https://www.mymarket.gr/stores
Αγ. Τριάδος 3,My Market, Παλαιό Φάληρο ,Greece,"{'brand': 'My Market', 'fascia': 'My Market', 'category': 'Retail', 'edit_date': '2025-05-16', 'lat_lon_source': 'Third Party'}",37.9325861583187,23.6998137831688,My market Παλαιό Φάληρο Αγ. Τριάδος,"{'opening_hours': {'Mon': '8:00  -  21:00', 'Tue': '8:00  -  21:00', 'Wed': '8:00  -  21:00', 'Thu': '8:00  -  21:00', 'Fri': '8:00  -  21:00', 'Sat': '8:00  -  20:00'}}",2109831224, 17564,38,,https://www.mymarket.gr/stores
Γουλιανού 15,My Market, Παλαμάς ,Greece,"{'brand': 'My Market', 'fascia': 'My Market', 'category': 'Retail', 'edit_date': '2025-05-16', 'lat_lon_source': 'Third Party'}",39.4711251897177,22.0851132273674,My market Παλαμάς,"{'opening_hours': {'Mon': '8:00  -  21:00', 'Tue': '8:00  -  21:00', 'Wed': '8:00  -  21:00', 'Thu': '8:00  -  21:00', 'Fri': '8:00  -  21:00', 'Sat': '8:00  -  20:00'}}",2444023740, 43200,199,,https://www.mymarket.gr/stores
Καλοσγούρου 14,My Market, Πατήσια ,Greece,"{'brand': 'My Market', 'fascia': 'My Market', 'category': 'Retail', 'edit_date': '2025-05-16', 'lat_lon_source': 'Third Party'}",38.02031,23.74094,My market Παπαδιαμάντη,"{'opening_hours': {'Mon': '8:00  -  21:00', 'Tue': '8:00  -  21:00', 'Wed': '8:00  -  21:00', 'Thu': '8:00  -  21:00', 'Fri': '8:00  -  21:00', 'Sat': '8:00  -  20:00'}}",2102021949, 11141,200,,https://www.mymarket.gr/stores
Ακτή Δημαίων 12-14,My Market, Πάτρα ,Greece,"{'brand': 'My Market', 'fascia': 'My Market', 'category': 'Retail', 'edit_date': '2025-05-16', 'lat_lon_source': 'Third Party'}",38.23937890788526,21.72628793672418,My market Πάτρα,"{'opening_hours': {'Mon': '8:00  -  21:00', 'Tue': '8:00  -  21:00', 'Wed': '8:00  -  21:00', 'Thu': '8:00  -  21:00', 'Fri': '8:00  -  21:00', 'Sat': '8:00  -  20:00'}}",2610346363, 26222,19,,https://www.mymarket.gr/stores
Καλαβρύτων 52 - 56,My Market, Πάτρα - Άγιος Αντρέας ,Greece,"{'brand': 'My Market', 'fascia': 'My Market', 'category': 'Retail', 'edit_date': '2025-05-16', 'lat_lon_source': 'Third Party'}",38.232652,21.746921,My market Πάτρα Αγ. Ανδρέας,"{'opening_hours': {'Mon': '8:00  -  21:00', 'Tue': '8:00  -  21:00', 'Wed': '8:00  -  21:00', 'Thu': '8:00  -  21:00', 'Fri': '8:00  -  21:00', 'Sat': '8:00  -  20:00'}}",2610331322, 26226,43,,https://www.mymarket.gr/stores
Λεωφόρος Αγ. Σοφίας & Αθηνών,My Market, Πάτρα - Αγία Σοφία ,Greece,"{'brand': 'My Market', 'fascia': 'My Market', 'category': 'Retail', 'edit_date': '2025-05-16', 'lat_lon_source': 'Third Party'}",38.257336,21.73952,My market Πάτρα Αγ. Σοφία,"{'opening_hours': {'Mon': '8:00  -  21:00', 'Tue': '8:00  -  21:00', 'Wed': '8:00  -  21:00', 'Thu': '8:00  -  21:00', 'Fri': '8:00  -  21:00', 'Sat': '8:00  -  20:00'}}",2610436846, 26441,45,,https://www.mymarket.gr/stores
Γούναρη 154 - 156 & Μπουκαούρη,My Market, Πάτρα ,Greece,"{'brand': 'My Market', 'fascia': 'My Market', 'category': 'Retail', 'edit_date': '2025-05-16', 'lat_lon_source': 'Third Party'}",38.24047,21.74016,My market Πάτρα Ομόνοια easy,"{'opening_hours': {'Mon': '8:00  -  21:00', 'Tue': '8:00  -  21:00', 'Wed': '8:00  -  21:00', 'Thu': '8:00  -  21:00', 'Fri': '8:00  -  21:00', 'Sat': '8:00  -  20:00'}}",2610325240, 26224,201,,https://www.mymarket.gr/stores
Ακρωτηρίου 189 και Φιλίπου Ολυμπιάδος,My Market, 26332 ,Greece,"{'brand': 'My Market', 'fascia': 'My Market', 'category': 'Retail', 'edit_date': '2025-05-16', 'lat_lon_source': 'Third Party'}",38.21801181881183,21.741117229956032,My market Πάτρα Ταραμπούρα,"{'opening_hours': {'Mon': '8:00  -  21:00', 'Tue': '8:00  -  21:00', 'Wed': '8:00  -  21:00', 'Thu': '8:00  -  21:00', 'Fri': '8:00  -  21:00', 'Sat': '8:00  -  20:00'}}",2610339844, 26332,44,,https://www.mymarket.gr/stores
Καρπάθου 100,My Market, ΠΕΙΡΑΙΑΣ ,Greece,"{'brand': 'My Market', 'fascia': 'My Market', 'category': 'Retail', 'edit_date': '2025-05-16', 'lat_lon_source': 'Third Party'}",37.92900115803589,23.63358113115168,My market Πειραιά Καρπάθου (Local),"{'opening_hours': {'Mon': '07:00 - 23:00', 'Tue': '07:00 - 23:00', 'Wed': '07:00 - 23:00', 'Thu': '07:00 - 23:00', 'Fri': '07:00 - 23:00', 'Sat': '07:00 - 23:00', 'Sun': '08:00 - 22:00'}}",2162027400, 18539,243,,https://www.mymarket.gr/stores
Οδυσσέα Ανδρούτσου 160,My Market, Πειραιά ,Greece,"{'brand': 'My Market', 'fascia': 'My Market', 'category': 'Retail', 'edit_date': '2025-05-16', 'lat_lon_source': 'Third Party'}",37.94105,23.649299,My market Πειραιά Οδυσσέα Ανδρούτσου (Local),"{'opening_hours': {'Mon': '07:00 - 23:00', 'Tue': '07:00 - 23:00', 'Wed': '07:00 - 23:00', 'Thu': '07:00 - 23:00', 'Fri': '07:00 - 23:00', 'Sat': '07:00 - 23:00', 'Sun': '08:00 - 22:00'}}",2160047540, 18535,240,,https://www.mymarket.gr/stores
Λ. Ειρήνης 215,My Market, Πέραμα ,Greece,"{'brand': 'My Market', 'fascia': 'My Market', 'category': 'Retail', 'edit_date': '2025-05-16', 'lat_lon_source': 'Third Party'}",37.963161470242625,23.5770381654474,My market Πέραμα (local),"{'opening_hours': {'Mon': '07:00 - 23:00', 'Tue': '07:00 - 23:00', 'Wed': '07:00 - 23:00', 'Thu': '07:00 - 23:00', 'Fri': '07:00 - 23:00', 'Sat': '07:00 - 23:00', 'Sun': '08:00 - 22:00'}}",2130884948, 18863,276,,https://www.mymarket.gr/stores
Αγγ. Σικελιανού 9-11,My Market, Νέα Ιωνία ,Greece,"{'brand': 'My Market', 'fascia': 'My Market', 'category': 'Retail', 'edit_date': '2025-05-16', 'lat_lon_source': 'Third Party'}",38.03458,23.75913,My market Περισσός easy,"{'opening_hours': {'Mon': '8:00  -  21:00', 'Tue': '8:00  -  21:00', 'Wed': '8:00  -  21:00', 'Thu': '8:00  -  21:00', 'Fri': '8:00  -  21:00', 'Sat': '8:00  -  20:00'}}",2102724104, 14233,202,,https://www.mymarket.gr/stores
Πελασγίας 18 και Δωδεκανήσσου,My Market, Περιστέρι ,Greece,"{'brand': 'My Market', 'fascia': 'My Market', 'category': 'Retail', 'edit_date': '2025-05-16', 'lat_lon_source': 'Third Party'}",38.0125041428959,23.6856838,My market Περιστέρι Πελαγίας,"{'opening_hours': {'Mon': '8:00  -  21:00', 'Tue': '8:00  -  21:00', 'Wed': '8:00  -  21:00', 'Thu': '8:00  -  21:00', 'Fri': '8:00  -  21:00', 'Sat': '8:00  -  20:00'}}",2105715350, 12136,203,,https://www.mymarket.gr/stores
Ραβινέ 8,My Market, Περιστέρι ,Greece,"{'brand': 'My Market', 'fascia': 'My Market', 'category': 'Retail', 'edit_date': '2025-05-16', 'lat_lon_source': 'Third Party'}",38.01629,23.69431,My market Περιστέρι Ραβινέ,"{'opening_hours': {'Mon': '8:00  -  21:00', 'Tue': '8:00  -  21:00', 'Wed': '8:00  -  21:00', 'Thu': '8:00  -  21:00', 'Fri': '8:00  -  21:00', 'Sat': '8:00  -  20:00'}}",2105740780, 12134,204,,https://www.mymarket.gr/stores
"Σ. Βενιζέλου 29, Φιλικών και Αναγνωσταρά",My Market, Περιστέρι ,Greece,"{'brand': 'My Market', 'fascia': 'My Market', 'category': 'Retail', 'edit_date': '2025-05-16', 'lat_lon_source': 'Third Party'}",38.0045238,23.7002299,My market Περιστέρι Σ. Βενιζέλου,"{'opening_hours': {'Mon': '8:00  -  21:00', 'Tue': '8:00  -  21:00', 'Wed': '8:00  -  21:00', 'Thu': '8:00  -  21:00', 'Fri': '8:00  -  21:00', 'Sat': '8:00  -  20:00'}}",210 5748135, 12131,205,,https://www.mymarket.gr/stores
Τριών Ιεραρχών 83,My Market, Αττική ,Greece,"{'brand': 'My Market', 'fascia': 'My Market', 'category': 'Retail', 'edit_date': '2025-05-16', 'lat_lon_source': 'Third Party'}",37.97163,23.712221,My market Πετράλωνα (Local),"{'opening_hours': {'Mon': '07:00 - 23:00', 'Tue': '07:00 - 23:00', 'Wed': '07:00 - 23:00', 'Thu': '07:00 - 23:00', 'Fri': '07:00 - 23:00', 'Sat': '07:00 - 23:00', 'Sun': '08:00 - 22:00'}}",2130889652, 11851,241,,https://www.mymarket.gr/stores
Επτανήσου 66 και Τσακάλωφ,My Market, Πετρούπολη ,Greece,"{'brand': 'My Market', 'fascia': 'My Market', 'category': 'Retail', 'edit_date': '2025-05-16', 'lat_lon_source': 'Third Party'}",38.034836,23.6820065975189,My market Πετρούπολη,"{'opening_hours': {'Mon': '8:00  -  21:00', 'Tue': '8:00  -  21:00', 'Wed': '8:00  -  21:00', 'Thu': '8:00  -  21:00', 'Fri': '8:00  -  21:00', 'Sat': '8:00  -  20:00'}}",2105023194, 13231,206,,https://www.mymarket.gr/stores
Λ. Ειρήνης 12,My Market, Πεύκη ,Greece,"{'brand': 'My Market', 'fascia': 'My Market', 'category': 'Retail', 'edit_date': '2025-05-16', 'lat_lon_source': 'Third Party'}",38.0600431602127,23.79610471,My market Πεύκη Λ. Ειρήνης,"{'opening_hours': {'Mon': '8:00  -  21:00', 'Tue': '8:00  -  21:00', 'Wed': '8:00  -  21:00', 'Thu': '8:00  -  21:00', 'Fri': '8:00  -  21:00', 'Sat': '8:00  -  20:00'}}",2106126251, 15121,207,,https://www.mymarket.gr/stores
"Λευκωσίας 46 & Κνωσσού, Πλ. Αγ. Ανδρέα",My Market, Αθήνα ,Greece,"{'brand': 'My Market', 'fascia': 'My Market', 'category': 'Retail', 'edit_date': '2025-05-16', 'lat_lon_source': 'Third Party'}",38.006516,23.7324294447899,My market Πλατεία Αμερικής,"{'opening_hours': {'Mon': '8:00  -  21:00', 'Tue': '8:00  -  21:00', 'Wed': '8:00  -  21:00', 'Thu': '8:00  -  21:00', 'Fri': '8:00  -  21:00', 'Sat': '8:00  -  20:00'}}",2108620448, 11253,208,,https://www.mymarket.gr/stores
Μητροπέτροβα 51-53,My Market, Πολύγωνο ,Greece,"{'brand': 'My Market', 'fascia': 'My Market', 'category': 'Retail', 'edit_date': '2025-05-16', 'lat_lon_source': 'Third Party'}",37.999005,23.75856,My market Πολύγωνο ( Local ),"{'opening_hours': {'Mon': '07:00 - 23:00', 'Tue': '07:00 - 23:00', 'Wed': '07:00 - 23:00', 'Thu': '07:00 - 23:00', 'Fri': '07:00 - 23:00', 'Sat': '07:00 - 23:00', 'Sun': '08:00 - 22:00'}}",2160012310, 11476,239,,https://www.mymarket.gr/stores
Λεωφ. Ιωαννίνων 165,My Market, Πρέβεζα ,Greece,"{'brand': 'My Market', 'fascia': 'My Market', 'category': 'Retail', 'edit_date': '2025-05-16', 'lat_lon_source': 'Third Party'}",38.96869,20.748465,My market Πρέβεζα,"{'opening_hours': {'Mon': '8:00  -  21:00', 'Tue': '8:00  -  21:00', 'Wed': '8:00  -  21:00', 'Thu': '8:00  -  21:00', 'Fri': '8:00  -  21:00', 'Sat': '8:00  -  20:00'}}",2682061074, 48100,209,,https://www.mymarket.gr/stores
Αλφειού 4,My Market, Πύργος ,Greece,"{'brand': 'My Market', 'fascia': 'My Market', 'category': 'Retail', 'edit_date': '2025-05-16', 'lat_lon_source': 'Third Party'}",37.6703081744345,21.4463692903519,My market Πύργος Αλφειού,"{'opening_hours': {'Mon': '8:00  -  21:00', 'Tue': '8:00  -  21:00', 'Wed': '8:00  -  21:00', 'Thu': '8:00  -  21:00', 'Fri': '8:00  -  21:00', 'Sat': '8:00  -  20:00'}}",2621034975, 27100,210,,https://www.mymarket.gr/stores
Παπαφλέσσα 98 & Βενιζέλου,My Market, Πύργος ,Greece,"{'brand': 'My Market', 'fascia': 'My Market', 'category': 'Retail', 'edit_date': '2025-05-16', 'lat_lon_source': 'Third Party'}",37.6759850641528,21.4389583468437,My market Πύργος Παπαφλέσσα,"{'opening_hours': {'Mon': '8:00  -  21:00', 'Tue': '8:00  -  21:00', 'Wed': '8:00  -  21:00', 'Thu': '8:00  -  21:00', 'Fri': '8:00  -  21:00', 'Sat': '8:00  -  20:00'}}",2621034976, 27100,211,,https://www.mymarket.gr/stores
Αγ. Κυριακής και Λετρίνων,My Market, Πύργος ,Greece,"{'brand': 'My Market', 'fascia': 'My Market', 'category': 'Retail', 'edit_date': '2025-05-16', 'lat_lon_source': 'Third Party'}",37.67203,21.4366,My market Πύργος Πλ. Δικαστηρίων easy,"{'opening_hours': {'Mon': '8:00  -  21:00', 'Tue': '8:00  -  21:00', 'Wed': '8:00  -  21:00', 'Thu': '8:00  -  21:00', 'Fri': '8:00  -  21:00', 'Sat': '8:00  -  20:00'}}",2621027450, 27100,212,,https://www.mymarket.gr/stores
Φλέμινγκ 42,My Market, Ραφήνα ,Greece,"{'brand': 'My Market', 'fascia': 'My Market', 'category': 'Retail', 'edit_date': '2025-05-16', 'lat_lon_source': 'Third Party'}",38.01992,24.0008823573589,My market Ραφήνα,"{'opening_hours': {'Mon': '8:00  -  21:00', 'Tue': '8:00  -  21:00', 'Wed': '8:00  -  21:00', 'Thu': '8:00  -  21:00', 'Fri': '8:00  -  21:00', 'Sat': '8:00  -  20:00'}}",2294028209, 19009,213,,https://www.mymarket.gr/stores
Περικλέους 4 & Ν. Φαλήρου,My Market, Πειραιάς ,Greece,"{'brand': 'My Market', 'fascia': 'My Market', 'category': 'Retail', 'edit_date': '2025-05-16', 'lat_lon_source': 'Third Party'}",37.9593366629855,23.6735683679581,My market Ρέντη Περικλέους,"{'opening_hours': {'Mon': '8:00  -  21:00', 'Tue': '8:00  -  21:00', 'Wed': '8:00  -  21:00', 'Thu': '8:00  -  21:00', 'Fri': '8:00  -  21:00', 'Sat': '8:00  -  20:00'}}",2104819618, 18233,11,,https://www.mymarket.gr/stores
Φλέμινγκ 48 & Μπαλτατζή,My Market, Άγιος Ιωάννης Ρέντης ,Greece,"{'brand': 'My Market', 'fascia': 'My Market', 'category': 'Retail', 'edit_date': '2025-05-16', 'lat_lon_source': 'Third Party'}",37.955,23.67032,My market Ρέντης Φλέμινγκ,"{'opening_hours': {'Mon': '8:00  -  21:00', 'Tue': '8:00  -  21:00', 'Wed': '8:00  -  21:00', 'Thu': '8:00  -  21:00', 'Fri': '8:00  -  21:00', 'Sat': '8:00  -  20:00'}}",2104838883, 18233,214,,https://www.mymarket.gr/stores
"Λ. Ηρακλείου 122 - Λέκκα, Φαρκαδώνος",My Market, Ριζούπολη ,Greece,"{'brand': 'My Market', 'fascia': 'My Market', 'category': 'Retail', 'edit_date': '2025-05-16', 'lat_lon_source': 'Third Party'}",38.026945,23.742465,My market Ριζούπολη,"{'opening_hours': {'Mon': '8:00  -  21:00', 'Tue': '8:00  -  21:00', 'Wed': '8:00  -  21:00', 'Thu': '8:00  -  21:00', 'Fri': '8:00  -  21:00', 'Sat': '8:00  -  20:00'}}",2102133048, 11142,24,,https://www.mymarket.gr/stores
"Τριαντών 1, περιοχή Ιαλυσός",My Market, Ρόδος ,Greece,"{'brand': 'My Market', 'fascia': 'My Market', 'category': 'Retail', 'edit_date': '2025-05-16', 'lat_lon_source': 'Third Party'}",36.4118500910287,28.15628,My market Ρόδος Ιαλυσός,"{'opening_hours': {'Mon': '8:00  -  21:00', 'Tue': '8:00  -  21:00', 'Wed': '8:00  -  21:00', 'Thu': '8:00  -  21:00', 'Fri': '8:00  -  21:00', 'Sat': '8:00  -  20:00'}}",2241091884, 85101,215,,https://www.mymarket.gr/stores
3ο χλμ Επαρχ. Οδού Ρόδου-Καλλιθέας,My Market, Ρόδος ,Greece,"{'brand': 'My Market', 'fascia': 'My Market', 'category': 'Retail', 'edit_date': '2025-05-16', 'lat_lon_source': 'Third Party'}",36.41643,28.2275421917439,My market Ρόδος Καλλιθέα,"{'opening_hours': {'Mon': '8:00  -  21:00', 'Tue': '8:00  -  21:00', 'Wed': '8:00  -  21:00', 'Thu': '8:00  -  21:00', 'Fri': '8:00  -  21:00', 'Sat': '8:00  -  20:00'}}",2241062477, 85100,216,,https://www.mymarket.gr/stores
Παναγιώτη Ροδίου & Εθνικής Αντιστάσεως 38,My Market, Ρόδος ,Greece,"{'brand': 'My Market', 'fascia': 'My Market', 'category': 'Retail', 'edit_date': '2025-05-16', 'lat_lon_source': 'Third Party'}",36.43414,28.22234005,My market Ρόδος Κέντρο easy,"{'opening_hours': {'Mon': '8:00  -  21:00', 'Tue': '8:00  -  21:00', 'Wed': '8:00  -  21:00', 'Thu': '8:00  -  21:00', 'Fri': '8:00  -  21:00', 'Sat': '8:00  -  20:00'}}",2241078105, 85100,217,,https://www.mymarket.gr/stores
"Λεωφόρος Ελευθερίας 2B, Κρεμαστή",My Market, Κρεμαστή ,Greece,"{'brand': 'My Market', 'fascia': 'My Market', 'category': 'Retail', 'edit_date': '2025-05-16', 'lat_lon_source': 'Third Party'}",36.41535,28.13233,My market Ρόδος Κρεμαστή,"{'opening_hours': {'Mon': '8:00  -  21:00', 'Tue': '8:00  -  21:00', 'Wed': '8:00  -  21:00', 'Thu': '8:00  -  21:00', 'Fri': '8:00  -  21:00', 'Sat': '8:00  -  20:00'}}",2241092750, 85104,218,,https://www.mymarket.gr/stores
"Γεωργίου Σεφέρη 18, Άγιοι Απόστολοι",My Market, Ρόδος ,Greece,"{'brand': 'My Market', 'fascia': 'My Market', 'category': 'Retail', 'edit_date': '2025-05-16', 'lat_lon_source': 'Third Party'}",36.4191111,28.2010333,My market Ρόδος Νοσοκομείο,"{'opening_hours': {'Mon': '8:00  -  21:00', 'Tue': '8:00  -  21:00', 'Wed': '8:00  -  21:00', 'Thu': '8:00  -  21:00', 'Fri': '8:00  -  21:00', 'Sat': '8:00  -  20:30'}}",2241062596, 85100,219,,https://www.mymarket.gr/stores
Λ. Σαλαμίνας & Παλουκίων 104,My Market, Πειραιάς ,Greece,"{'brand': 'My Market', 'fascia': 'My Market', 'category': 'Retail', 'edit_date': '2025-05-16', 'lat_lon_source': 'Third Party'}",37.9653381661723,23.5150296986103,My market Σαλαμίνα Παλούκια,"{'opening_hours': {'Mon': '8:00  -  21:00', 'Tue': '8:00  -  21:00', 'Wed': '8:00  -  21:00', 'Thu': '8:00  -  21:00', 'Fri': '8:00  -  21:00', 'Sat': '8:00  -  20:00'}}",2104676700, 18901,6,,https://www.mymarket.gr/stores
Ακτή Καραϊσκάκη 7,My Market, Σαλαμίνα ,Greece,"{'brand': 'My Market', 'fascia': 'My Market', 'category': 'Retail', 'edit_date': '2025-05-16', 'lat_lon_source': 'Third Party'}",37.964,23.49594,My market Σαλαμίνα Παραλιακή,"{'opening_hours': {'Mon': '8:00  -  21:00', 'Tue': '8:00  -  21:00', 'Wed': '8:00  -  21:00', 'Thu': '8:00  -  21:00', 'Fri': '8:00  -  21:00', 'Sat': '8:00  -  20:00'}}",2104658585, 18900,220,,https://www.mymarket.gr/stores
Λ. Αθηνών και Αναβύσσου 2,My Market, Σαρωνίδα ,Greece,"{'brand': 'My Market', 'fascia': 'My Market', 'category': 'Retail', 'edit_date': '2025-05-16', 'lat_lon_source': 'Third Party'}",37.74852352,23.905599,My market Σαρωνίδα,"{'opening_hours': {'Mon': '8:00  -  21:00', 'Tue': '8:00  -  21:00', 'Wed': '8:00  -  21:00', 'Thu': '8:00  -  21:00', 'Fri': '8:00  -  21:00', 'Sat': '8:00  -  20:00'}}",2291055111, 19013,221,,https://www.mymarket.gr/stores
Αντιγόνης 197,My Market, Σεπόλια ,Greece,"{'brand': 'My Market', 'fascia': 'My Market', 'category': 'Retail', 'edit_date': '2025-05-16', 'lat_lon_source': 'Third Party'}",38.002985450964,23.7132328748703,My market Σεπόλια,"{'opening_hours': {'Mon': '8:00  -  21:00', 'Tue': '8:00  -  21:00', 'Wed': '8:00  -  21:00', 'Thu': '8:00  -  21:00', 'Fri': '8:00  -  21:00', 'Sat': '8:00  -  20:00'}}",2105157243, 10443,222,,https://www.mymarket.gr/stores
Αυλώνος 102,My Market, Σεπόλια ,Greece,"{'brand': 'My Market', 'fascia': 'My Market', 'category': 'Retail', 'edit_date': '2025-05-16', 'lat_lon_source': 'Third Party'}",38.0076285527734,23.719456827515295,My market Σεπόλια (Local),"{'opening_hours': {'Mon': '07:00 - 23:00', 'Tue': '07:00 - 23:00', 'Wed': '07:00 - 23:00', 'Thu': '07:00 - 23:00', 'Fri': '07:00 - 23:00', 'Sat': '07:00 - 23:00', 'Sun': '08:00 - 23:00'}}",2160044941, 10443,261,,https://www.mymarket.gr/stores
"Σούτσου 40 & Αθανασιάδου, Αμπελόκηποι",My Market, Αμπελόκηποι ,Greece,"{'brand': 'My Market', 'fascia': 'My Market', 'category': 'Retail', 'edit_date': '2025-05-16', 'lat_lon_source': 'Third Party'}",37.98642,23.7574,My market Σούτσου easy,"{'opening_hours': {'Mon': '8:00  -  21:00', 'Tue': '8:00  -  21:00', 'Wed': '8:00  -  21:00', 'Thu': '8:00  -  21:00', 'Fri': '8:00  -  21:00', 'Sat': '8:00  -  20:00'}}",2106459117, 11521,223,,https://www.mymarket.gr/stores
Κωνσταντίνου Παλαιολόγου & Όθωνος Αμαλίας,My Market, Σπάρτη ,Greece,"{'brand': 'My Market', 'fascia': 'My Market', 'category': 'Retail', 'edit_date': '2025-05-16', 'lat_lon_source': 'Third Party'}",37.071936,22.431296,My market Σπάρτη,"{'opening_hours': {'Mon': '8:00  -  21:00', 'Tue': '8:00  -  21:00', 'Wed': '8:00  -  21:00', 'Thu': '8:00  -  21:00', 'Fri': '8:00  -  21:00', 'Sat': '8:00  -  20:00'}}",2731306835, 23100,224,,https://www.mymarket.gr/stores
Λ. Αθηνών & Διαδ. Κων/νου,My Market, Σπάτα ,Greece,"{'brand': 'My Market', 'fascia': 'My Market', 'category': 'Retail', 'edit_date': '2025-05-16', 'lat_lon_source': 'Third Party'}",37.967867,23.906186,My market Σπάτα,"{'opening_hours': {'Mon': '8:00  -  21:00', 'Tue': '8:00  -  21:00', 'Wed': '8:00  -  21:00', 'Thu': '8:00  -  21:00', 'Fri': '8:00  -  21:00', 'Sat': '8:00  -  20:00'}}",2106635504, 19004,40,,https://www.mymarket.gr/stores
62ο χλμ Αθηνών - Λαμίας (Αριστερός Παράδρομος),My Market, Σχηματάρι ,Greece,"{'brand': 'My Market', 'fascia': 'My Market', 'category': 'Retail', 'edit_date': '2025-05-16', 'lat_lon_source': 'Third Party'}",38.3495489392974,23.58533,My market Σχηματάρι,"{'opening_hours': {'Mon': '8:00  -  21:00', 'Tue': '8:00  -  21:00', 'Wed': '8:00  -  21:00', 'Thu': '8:00  -  21:00', 'Fri': '8:00  -  21:00', 'Sat': '8:00  -  20:00'}}",22620 59316, 32009,225,,https://www.mymarket.gr/stores
Αγίας Σοφίας 15,My Market, Αθηνά ,Greece,"{'brand': 'My Market', 'fascia': 'My Market', 'category': 'Retail', 'edit_date': '2025-05-16', 'lat_lon_source': 'Third Party'}",37.96589805164709,23.70253206332226,My market Ταύρου (Local),"{'opening_hours': {'Mon': '07:00 - 23:00', 'Tue': '07:00 - 23:00', 'Wed': '07:00 - 23:00', 'Thu': '07:00 - 23:00', 'Fri': '07:00 - 23:00', 'Sat': '07:00 - 23:00', 'Sun': '08:00 - 22:00'}}",2100108734, 17778,279,,https://www.mymarket.gr/stores
Καλαμπάκας 69,My Market, Τρίκαλα ,Greece,"{'brand': 'My Market', 'fascia': 'My Market', 'category': 'Retail', 'edit_date': '2025-05-16', 'lat_lon_source': 'Third Party'}",39.5619222537543,21.7535868287087,My market Τρίκαλα Καλαμπάκας,"{'opening_hours': {'Mon': '8:00  -  21:00', 'Tue': '8:00  -  21:00', 'Wed': '8:00  -  21:00', 'Thu': '8:00  -  21:00', 'Fri': '8:00  -  21:00', 'Sat': '8:00  -  20:00'}}",2431063977, 42100,226,,https://www.mymarket.gr/stores
Κολοκοτρώνη και Θεοδοσοπούλου,My Market, Τρίκαλα ,Greece,"{'brand': 'My Market', 'fascia': 'My Market', 'category': 'Retail', 'edit_date': '2025-05-16', 'lat_lon_source': 'Third Party'}",39.559863,21.772799,My market Τρίκαλα Κολοκοτρώνη,"{'opening_hours': {'Mon': '8:00  -  21:00', 'Tue': '8:00  -  21:00', 'Wed': '8:00  -  21:00', 'Thu': '8:00  -  21:00', 'Fri': '8:00  -  21:00', 'Sat': '8:00  -  20:00'}}",2431028760, 42100,52,,https://www.mymarket.gr/stores
Καρδίτσης και Θήρας,My Market, Τρίκαλα ,Greece,"{'brand': 'My Market', 'fascia': 'My Market', 'category': 'Retail', 'edit_date': '2025-05-16', 'lat_lon_source': 'Third Party'}",39.5465339478474,21.7738750576973,My market Τρίκαλα Νοσοκομείο,"{'opening_hours': {'Mon': '8:00  -  21:00', 'Tue': '8:00  -  21:00', 'Wed': '8:00  -  21:00', 'Thu': '8:00  -  21:00', 'Fri': '8:00  -  21:00', 'Sat': '8:00  -  20:00'}}",2431071587, 42100,227,,https://www.mymarket.gr/stores
Λάκμωνος και Ψαρρών,My Market, Τρίκαλα ,Greece,"{'brand': 'My Market', 'fascia': 'My Market', 'category': 'Retail', 'edit_date': '2025-05-16', 'lat_lon_source': 'Third Party'}",39.55574,21.76194,My market Τρίκαλα Πλ. Βουβής,"{'opening_hours': {'Mon': '8:00  -  21:00', 'Tue': '8:00  -  21:00', 'Wed': '8:00  -  21:00', 'Thu': '8:00  -  21:00', 'Fri': '8:00  -  21:00', 'Sat': '8:00  -  20:00'}}",2431028661, 42100,228,,https://www.mymarket.gr/stores
Λεωφ. Ο.Η.Ε. (Σούτσου) 20,My Market, Τρίπολη ,Greece,"{'brand': 'My Market', 'fascia': 'My Market', 'category': 'Retail', 'edit_date': '2025-05-16', 'lat_lon_source': 'Third Party'}",37.506793,22.379217,My market Τρίπολη Ο.Η.Ε.,"{'opening_hours': {'Mon': '8:00  -  21:00', 'Tue': '8:00  -  21:00', 'Wed': '8:00  -  21:00', 'Thu': '8:00  -  21:00', 'Fri': '8:00  -  21:00', 'Sat': '8:00  -  20:00'}}",2710235391, 22132,229,,https://www.mymarket.gr/stores
1ο χλμ Ε.Ο. Φαρσάλων-Λάρισας,My Market, Φάρσαλα ,Greece,"{'brand': 'My Market', 'fascia': 'My Market', 'category': 'Retail', 'edit_date': '2025-05-16', 'lat_lon_source': 'Third Party'}",39.3043381722658,22.3846542835236,My market Φάρσαλα,"{'opening_hours': {'Mon': '8:00  -  21:00', 'Tue': '8:00  -  21:00', 'Wed': '8:00  -  21:00', 'Thu': '8:00  -  21:00', 'Fri': '8:00  -  21:00', 'Sat': '8:00  -  20:00'}}",24910 22730, 40300,230,,https://www.mymarket.gr/stores
Αγωνιστών Στρατοπέδου Χαϊδαρίου 79-81,My Market, Χαϊδάρι Αττιική ,Greece,"{'brand': 'My Market', 'fascia': 'My Market', 'category': 'Retail', 'edit_date': '2025-05-16', 'lat_lon_source': 'Third Party'}",38.0099165049087,23.661481944797,My market Χαϊδάρι (local),"{'opening_hours': {'Mon': '07:00 - 23:00', 'Tue': '07:00 - 23:00', 'Wed': '07:00 - 23:00', 'Thu': '07:00 - 23:00', 'Fri': '07:00 - 23:00', 'Sat': '07:00 - 23:00', 'Sun': '08:00 - 22:00'}}",2160042940, 12461,237,,https://www.mymarket.gr/stores
Λ.Καβάλας 364 & Αγ. Παρασκευής,My Market, Χαιδάρι ,Greece,"{'brand': 'My Market', 'fascia': 'My Market', 'category': 'Retail', 'edit_date': '2025-05-16', 'lat_lon_source': 'Third Party'}",38.0112467488898,23.6471459269524,My market Χαϊδάρι Δάσος,"{'opening_hours': {'Mon': '8:00  -  21:00', 'Tue': '8:00  -  21:00', 'Wed': '8:00  -  21:00', 'Thu': '8:00  -  21:00', 'Fri': '8:00  -  21:00', 'Sat': '8:00  -  20:00'}}",2105821376, 12462,41,,https://www.mymarket.gr/stores
Λ. Αθηνών-Κορίνθου 302,My Market, Χαϊδάρι ,Greece,"{'brand': 'My Market', 'fascia': 'My Market', 'category': 'Retail', 'edit_date': '2025-05-16', 'lat_lon_source': 'Third Party'}",38.0124238393856,23.65488513,My market Χαϊδάρι Λ. Αθηνών,"{'opening_hours': {'Mon': '8:00  -  21:00', 'Tue': '8:00  -  21:00', 'Wed': '8:00  -  21:00', 'Thu': '8:00  -  21:00', 'Fri': '8:00  -  21:00', 'Sat': '8:00  -  20:00'}}",2105812220, 14262,231,,https://www.mymarket.gr/stores
Βασ. Γεωργίου & Σολωμού,My Market, Χαλάνδρι ,Greece,"{'brand': 'My Market', 'fascia': 'My Market', 'category': 'Retail', 'edit_date': '2025-05-16', 'lat_lon_source': 'Third Party'}",38.0227294420417,23.7943924963474,My market Χαλάνδρι Β. Γεωργίου,"{'opening_hours': {'Mon': '8:00  -  21:00', 'Tue': '8:00  -  21:00', 'Wed': '8:00  -  21:00', 'Thu': '8:00  -  21:00', 'Fri': '8:00  -  21:00', 'Sat': '8:00  -  20:00'}}",2106855275, 15232,42,,https://www.mymarket.gr/stores
Λ. Πεντέλης & Παράδρομος Αττικής Οδού & Λ. Ορέων 2,My Market, Χαλάνδρι ,Greece,"{'brand': 'My Market', 'fascia': 'My Market', 'category': 'Retail', 'edit_date': '2025-05-16', 'lat_lon_source': 'Third Party'}",38.0328392307852,23.8216960430145,My market Χαλάνδρι Λ. Πεντέλης,"{'opening_hours': {'Mon': '8:00  -  21:00', 'Tue': '8:00  -  21:00', 'Wed': '8:00  -  21:00', 'Thu': '8:00  -  21:00', 'Fri': '8:00  -  21:00', 'Sat': '8:00  -  20:00'}}",2106896104, 15234,15,,https://www.mymarket.gr/stores
Θήρας 93,My Market, Χαλάνδρι ,Greece,"{'brand': 'My Market', 'fascia': 'My Market', 'category': 'Retail', 'edit_date': '2025-05-16', 'lat_lon_source': 'Third Party'}",37.91688085120153,23.75229527999581,My market Χαλανδρίου Ολύμπου (local),"{'opening_hours': {'Mon': '07:00 - 23:00', 'Tue': '07:00 - 23:00', 'Wed': '07:00 - 23:00', 'Thu': '07:00 - 23:00', 'Fri': '07:00 - 23:00', 'Sat': '07:00 - 23:00', 'Sun': '08:00 - 22:00'}}",2169395246, 15234,274,,https://www.mymarket.gr/stores
Συμβολή οδών Χίου-Φραγκοβουνίου,My Market, Χίος ,Greece,"{'brand': 'My Market', 'fascia': 'My Market', 'category': 'Retail', 'edit_date': '2025-05-16', 'lat_lon_source': 'Third Party'}",38.337,26.14048,My market Χίος Αεροδρόμιο,"{'opening_hours': {'Mon': '8:00  -  21:00', 'Tue': '8:00  -  21:00', 'Wed': '8:00  -  21:00', 'Thu': '8:00  -  21:00', 'Fri': '8:00  -  21:00', 'Sat': '8:00  -  20:00'}}",2271024011, 82100,232,,https://www.mymarket.gr/stores
Ι. Καλαμπόκα & Π. Κουντουριώτη,My Market, Χίος ,Greece,"{'brand': 'My Market', 'fascia': 'My Market', 'category': 'Retail', 'edit_date': '2025-05-16', 'lat_lon_source': 'Third Party'}",38.36525,26.13574,My market Χίος Καλαμπόκα,"{'opening_hours': {'Mon': '8:00  -  21:00', 'Tue': '8:00  -  21:00', 'Wed': '8:00  -  21:00', 'Thu': '8:00  -  21:00', 'Fri': '8:00  -  21:00', 'Sat': '8:00  -  20:00'}}",2271081657, 82132,233,,https://www.mymarket.gr/stores
Καλουτά και Αγίας Μυρώπης,My Market, Χίος ,Greece,"{'brand': 'My Market', 'fascia': 'My Market', 'category': 'Retail', 'edit_date': '2025-05-16', 'lat_lon_source': 'Third Party'}",38.38263,26.13766,My market Χίος Νοσοκομείο,"{'opening_hours': {'Mon': '8:00  -  21:00', 'Tue': '8:00  -  21:00', 'Wed': '8:00  -  21:00', 'Thu': '8:00  -  21:00', 'Fri': '8:00  -  21:00', 'Sat': '8:00  -  20:00'}}",2271041376, 82131,234,,https://www.mymarket.gr/stores
Μεσογείων 208,My Market, Χολαργός ,Greece,"{'brand': 'My Market', 'fascia': 'My Market', 'category': 'Retail', 'edit_date': '2025-05-16', 'lat_lon_source': 'Third Party'}",38.00221,23.7910920381546,My market Χολαργός,"{'opening_hours': {'Mon': '8:00  -  21:00', 'Tue': '8:00  -  21:00', 'Wed': '8:00  -  21:00', 'Thu': '8:00  -  21:00', 'Fri': '8:00  -  21:00', 'Sat': '8:00  -  20:00'}}",2106523170, 15561,235,,https://www.mymarket.gr/stores
Θεσσαλονίκης 118,My Market, Ωραιόκαστρο Θεσσαλονίκη ,Greece,"{'brand': 'My Market', 'fascia': 'My Market', 'category': 'Retail', 'edit_date': '2025-05-16', 'lat_lon_source': 'Third Party'}",40.7060264643893,22.9347538948059,My market Ωραιόκαστρο Γαλήνη,"{'opening_hours': {'Mon': '8:00  -  21:00', 'Tue': '8:00  -  21:00', 'Wed': '8:00  -  21:00', 'Thu': '8:00  -  21:00', 'Fri': '8:00  -  21:00', 'Sat': '8:00  -  20:00'}}",2310696610, 57013,46,,https://www.mymarket.gr/stores
2ο χλμ Λ. Σκάλας Ωρωπού-Χαλκουτσίου,My Market, Ωρωπός ,Greece,"{'brand': 'My Market', 'fascia': 'My Market', 'category': 'Retail', 'edit_date': '2025-05-16', 'lat_lon_source': 'Third Party'}",38.32547267,23.7574859,My market Ωρωπός,"{'opening_hours': {'Mon': '8:00  -  21:00', 'Tue': '8:00  -  21:00', 'Wed': '8:00  -  21:00', 'Thu': '8:00  -  21:00', 'Fri': '8:00  -  21:00', 'Sat': '8:00  -  20:00'}}",2295030774, 19015,236,,https://www.mymarket.gr/stores
