addr_full,brand,city,country,extras,lat,lon,name,opening_hours,phone,postcode,ref,state,website
서울특별시 마포구 홍익로 25(서교동),Shinesegaefood,Seoul,Korea,"{'brand': 'Shinesegaefood', 'fascia': 'Shinesegaefood', 'category': 'Rstaurant', 'edit_date': '20250607', 'lat_lon_source': 'Third Party'}",37.5543861,126.9221238,Shinesegaefood 홍대점,"{'opening_hours': {'Mon': '08:00-02:00', 'Tue': '08:00-02:00', 'Wed': '08:00-02:00', 'Thu': '08:00-02:00', 'Fri': '08:00-02:00', 'Sat': '08:00-02:00', 'Sun': '08:00-02:00'}}",02-322-2731,04039,463,,https://www.shinsegaefood.com/nobrandburger/store/store.sf
 서울특별시 중랑구 동일로 799(중화동),Shinesegaefood,Seoul,Korea,"{'brand': 'Shinesegaefood', 'fascia': 'Shinesegaefood', 'category': 'Rstaurant', 'edit_date': '20250607', 'lat_lon_source': 'Third Party'}",37.6018278,127.0791211,Shinesegaefood 중화점,"{'opening_hours': {'Mon': '10:00-02:00', 'Tue': '10:00-02:00', 'Wed': '10:00-02:00', 'Thu': '10:00-02:00', 'Fri': '10:00-02:00', 'Sat': '10:00-02:00', 'Sun': '10:00-02:00'}}", 02-432-9906,02017,465,,https://www.shinsegaefood.com/nobrandburger/store/store.sf
 서울시 강남구 영동대로 513 코엑스 동문 1층,Shinesegaefood,Seoul,Korea,"{'brand': 'Shinesegaefood', 'fascia': 'Shinesegaefood', 'category': 'Rstaurant', 'edit_date': '20250607', 'lat_lon_source': 'Third Party'}",37.5116621,127.0594275,Shinesegaefood 코엑스점,"{'opening_hours': {'Mon': '10:00-21:00', 'Tue': '10:00-21:00', 'Wed': '10:00-21:00', 'Thu': '10:00-21:00', 'Fri': '10:00-21:00', 'Sat': '10:00-21:00', 'Sun': '10:00-21:00'}}", 02-501-1582,06164,467,,https://www.shinsegaefood.com/nobrandburger/store/store.sf
 서울시 서초구 신반포로 194 고속터미널 경부선(탑승 게이트 쪽),Shinesegaefood,Seoul,Korea,"{'brand': 'Shinesegaefood', 'fascia': 'Shinesegaefood', 'category': 'Rstaurant', 'edit_date': '20250607', 'lat_lon_source': 'Third Party'}",37.5056800,127.0058468,Shinesegaefood 고속터미널점,"{'opening_hours': {'Mon': '08:00-24:00', 'Tue': '08:00-24:00', 'Wed': '08:00-24:00', 'Thu': '08:00-24:00', 'Fri': '08:00-24:00', 'Sat': '08:00-24:00', 'Sun': '08:00-24:00'}}", 02-532-4260,06545,473,,https://www.shinsegaefood.com/nobrandburger/store/store.sf
 서울특별시 동대문구 회기로 144(회기동),Shinesegaefood,Seoul,Korea,"{'brand': 'Shinesegaefood', 'fascia': 'Shinesegaefood', 'category': 'Rstaurant', 'edit_date': '20250607', 'lat_lon_source': 'Third Party'}",37.5914454,127.0524479,Shinesegaefood 경희대점,"{'opening_hours': {'Mon': '10:00-22:00', 'Tue': '10:00-22:00', 'Wed': '10:00-22:00', 'Thu': '10:00-22:00', 'Fri': '10:00-22:00', 'Sat': '10:00-22:00', 'Sun': '10:00-22:00'}}", 02-957-4910,02459,475,,https://www.shinsegaefood.com/nobrandburger/store/store.sf
 인천광역시 연수구 청능대로 210 (동춘동) 스퀘어원 3층,Shinesegaefood,Incheon,Korea,"{'brand': 'Shinesegaefood', 'fascia': 'Shinesegaefood', 'category': 'Rstaurant', 'edit_date': '20250607', 'lat_lon_source': 'Third Party'}",37.4059982,126.6836221,Shinesegaefood 인천스퀘어원점,"{'opening_hours': {'Mon': '', 'Tue': '', 'Wed': '', 'Thu': '', 'Fri': '', 'Sat': '', 'Sun': ''}}", 032-456-4347,21931,476,,https://www.shinsegaefood.com/nobrandburger/store/store.sf
 서울특별시 서대문구 신촌로 73(창천동) 케이스퀘어 101호,Shinesegaefood,Seoul,Korea,"{'brand': 'Shinesegaefood', 'fascia': 'Shinesegaefood', 'category': 'Rstaurant', 'edit_date': '20250607', 'lat_lon_source': 'Third Party'}",37.5563200,126.9345356,Shinesegaefood 신촌점,"{'opening_hours': {'Mon': '10:00-02:00', 'Tue': '10:00-02:00', 'Wed': '10:00-02:00', 'Thu': '10:00-02:00', 'Fri': '10:00-02:00', 'Sat': '10:00-02:00', 'Sun': '10:00-02:00'}}", 02-322-2352,03789,482,,https://www.shinsegaefood.com/nobrandburger/store/store.sf
 서울특별시 노원구 동일로204가길 34(중계동),Shinesegaefood,Seoul,Korea,"{'brand': 'Shinesegaefood', 'fascia': 'Shinesegaefood', 'category': 'Rstaurant', 'edit_date': '20250607', 'lat_lon_source': 'Third Party'}",37.6407574,127.0682381,Shinesegaefood 중계공원점,"{'opening_hours': {'Mon': '09:00-02:00', 'Tue': '09:00-02:00', 'Wed': '09:00-02:00', 'Thu': '09:00-02:00', 'Fri': '09:00-02:00', 'Sat': '09:00-02:00', 'Sun': '09:00-02:00'}}", 02-948-3946,01783,485,,https://www.shinsegaefood.com/nobrandburger/store/store.sf
 서울특별시 강북구 도봉로 32(미아동),Shinesegaefood,Seoul,Korea,"{'brand': 'Shinesegaefood', 'fascia': 'Shinesegaefood', 'category': 'Rstaurant', 'edit_date': '20250607', 'lat_lon_source': 'Third Party'}",37.6118504,127.0307281,Shinesegaefood 미아사거리역점,"{'opening_hours': {'Mon': '', 'Tue': '', 'Wed': '', 'Thu': '', 'Fri': '', 'Sat': '', 'Sun': ''}}", 02-945-5280,01220,489,,https://www.shinsegaefood.com/nobrandburger/store/store.sf
 서울특별시 송파구 양산로 40(거여동),Shinesegaefood,Seoul,Korea,"{'brand': 'Shinesegaefood', 'fascia': 'Shinesegaefood', 'category': 'Rstaurant', 'edit_date': '20250607', 'lat_lon_source': 'Third Party'}",37.4924095,127.1443948,Shinesegaefood 거여역점,"{'opening_hours': {'Mon': '09:30-02:00', 'Tue': '09:30-02:00', 'Wed': '09:30-02:00', 'Thu': '09:30-02:00', 'Fri': '09:30-02:00', 'Sat': '09:30-02:00', 'Sun': '09:30-02:00'}}", 02-400-4331,05773,490,,https://www.shinsegaefood.com/nobrandburger/store/store.sf
 경기도 고양시 일산서구 한류월드로 300(대화동),Shinesegaefood,"Ilsanseo-gu, Goyang-si",Korea,"{'brand': 'Shinesegaefood', 'fascia': 'Shinesegaefood', 'category': 'Rstaurant', 'edit_date': '20250607', 'lat_lon_source': 'Third Party'}",37.6645742,126.7545357,Shinesegaefood 원마운트점,"{'opening_hours': {'Mon': '10:00-22:00', 'Tue': '10:00-22:00', 'Wed': '10:00-22:00', 'Thu': '10:00-22:00', 'Fri': '10:00-22:00', 'Sat': '10:00-22:00', 'Sun': '10:00-22:00'}}", 031-911-2918,10392,491,Gyeonggi-do,https://www.shinsegaefood.com/nobrandburger/store/store.sf
 서울특별시 강서구 마곡중앙6로 21(마곡동),Shinesegaefood,Seoul,Korea,"{'brand': 'Shinesegaefood', 'fascia': 'Shinesegaefood', 'category': 'Rstaurant', 'edit_date': '20250607', 'lat_lon_source': 'Third Party'}",37.5608725,126.8296228,Shinesegaefood 마곡점,"{'opening_hours': {'Mon': '10:00-02:00', 'Tue': '10:00-02:00', 'Wed': '10:00-02:00', 'Thu': '10:00-02:00', 'Fri': '10:00-02:00', 'Sat': '10:00-02:00', 'Sun': '10:00-02:00'}}", 02-2063-3909,07801,493,,https://www.shinsegaefood.com/nobrandburger/store/store.sf
" 서울시 중구 을지로 170, 1층 102호(을지로4가)",Shinesegaefood,Seoul,Korea,"{'brand': 'Shinesegaefood', 'fascia': 'Shinesegaefood', 'category': 'Rstaurant', 'edit_date': '20250607', 'lat_lon_source': 'Third Party'}",37.5660745,126.9972676,Shinesegaefood 을지로4가역점,"{'opening_hours': {'Mon': '10:00-22:00', 'Tue': '10:00-22:00', 'Wed': '10:00-22:00', 'Thu': '10:00-22:00', 'Fri': '10:00-22:00', 'Sat': '10:00-22:00', 'Sun': '10:00-22:00'}}", 02-3706-7201,04547,496,,https://www.shinsegaefood.com/nobrandburger/store/store.sf
 서울시 중구 무교로17 (무교동 33-1),Shinesegaefood,Seoul,Korea,"{'brand': 'Shinesegaefood', 'fascia': 'Shinesegaefood', 'category': 'Rstaurant', 'edit_date': '20250607', 'lat_lon_source': 'Third Party'}",37.5674081,126.9790555,Shinesegaefood 서울시청점,"{'opening_hours': {'Mon': '10:00-22:00', 'Tue': '10:00-22:00', 'Wed': '10:00-22:00', 'Thu': '10:00-22:00', 'Fri': '10:00-22:00', 'Sat': '10:00-22:00', 'Sun': '10:00-22:00'}}", 02-310-9214,04520,606,,https://www.shinsegaefood.com/nobrandburger/store/store.sf
 경기도 용인시 수지구 성복2로 58(성복동),Shinesegaefood,"Suji-gu, Yongin-si",Korea,"{'brand': 'Shinesegaefood', 'fascia': 'Shinesegaefood', 'category': 'Rstaurant', 'edit_date': '20250607', 'lat_lon_source': 'Third Party'}",37.3143791,127.0793978,Shinesegaefood 용인성복점,"{'opening_hours': {'Mon': '10:00-02:00', 'Tue': '10:00-02:00', 'Wed': '10:00-02:00', 'Thu': '10:00-02:00', 'Fri': '10:00-02:00', 'Sat': '10:00-02:00', 'Sun': '10:00-02:00'}}", 031-261-4047,16848,608,Gyeonggi-do,https://www.shinsegaefood.com/nobrandburger/store/store.sf
 서울특별시 송파구 삼전로 102(삼전동),Shinesegaefood,Seoul,Korea,"{'brand': 'Shinesegaefood', 'fascia': 'Shinesegaefood', 'category': 'Rstaurant', 'edit_date': '20250607', 'lat_lon_source': 'Third Party'}",37.5072377,127.0909170,Shinesegaefood 잠실학원사거리점,"{'opening_hours': {'Mon': '10:00-02:00', 'Tue': '10:00-02:00', 'Wed': '10:00-02:00', 'Thu': '10:00-02:00', 'Fri': '10:00-02:00', 'Sat': '10:00-02:00', 'Sun': '10:00-02:00'}}", 02-412-1497,05599,611,,https://www.shinsegaefood.com/nobrandburger/store/store.sf
" 서울특별시 강북구 도봉로 352(번동, 효성네오인텔리안)",Shinesegaefood,Seoul,Korea,"{'brand': 'Shinesegaefood', 'fascia': 'Shinesegaefood', 'category': 'Rstaurant', 'edit_date': '20250607', 'lat_lon_source': 'Third Party'}",37.6386719,127.0270551,Shinesegaefood 수유역점,"{'opening_hours': {'Mon': '', 'Tue': '', 'Wed': '', 'Thu': '', 'Fri': '', 'Sat': '', 'Sun': ''}}", 02-900-6942,01063,613,,https://www.shinsegaefood.com/nobrandburger/store/store.sf
 서울시 강남구 테헤란로 201(아주빌딩) 1층,Shinesegaefood,Seoul,Korea,"{'brand': 'Shinesegaefood', 'fascia': 'Shinesegaefood', 'category': 'Rstaurant', 'edit_date': '20250607', 'lat_lon_source': 'Third Party'}",37.5013152,127.0372017,Shinesegaefood 역삼역점,"{'opening_hours': {'Mon': '', 'Tue': '', 'Wed': '', 'Thu': '', 'Fri': '', 'Sat': '', 'Sun': ''}}", 02-501-4506,06141,614,,https://www.shinsegaefood.com/nobrandburger/store/store.sf
"경기도안산시단원구고잔로95,상가2동109호,110호(고잔동,힐스테이트중앙)",Shinesegaefood,"Danwon-gu, Ansan-si",Korea,"{'brand': 'Shinesegaefood', 'fascia': 'Shinesegaefood', 'category': 'Rstaurant', 'edit_date': '20250607', 'lat_lon_source': 'Third Party'}",37.3192991,126.8362613,Shinesegaefood 안산중앙점,"{'opening_hours': {'Mon': '10:00-02:00', 'Tue': '10:00-02:00', 'Wed': '10:00-02:00', 'Thu': '10:00-02:00', 'Fri': '10:00-02:00', 'Sat': '10:00-02:00', 'Sun': '10:00-02:00'}}",031-405-5779,15351,620,Gyeonggi-do,https://www.shinsegaefood.com/nobrandburger/store/store.sf
 경기도시흥시정왕대로230(정왕동)제일프라자101-1호,Shinesegaefood,Siheung-si,Korea,"{'brand': 'Shinesegaefood', 'fascia': 'Shinesegaefood', 'category': 'Rstaurant', 'edit_date': '20250607', 'lat_lon_source': 'Third Party'}",37.3449671,126.7385084,Shinesegaefood 시흥정왕점,"{'opening_hours': {'Mon': '09:00-24:00', 'Tue': '09:00-24:00', 'Wed': '09:00-24:00', 'Thu': '09:00-24:00', 'Fri': '09:00-24:00', 'Sat': '09:00-24:00', 'Sun': '09:00-24:00'}}", 031-497-5285,15066,621,Gyeonggi-do,https://www.shinsegaefood.com/nobrandburger/store/store.sf
" 경기도평택시평택2로18,1층(평택동)",Shinesegaefood,Pyeongtaek-si,Korea,"{'brand': 'Shinesegaefood', 'fascia': 'Shinesegaefood', 'category': 'Rstaurant', 'edit_date': '20250607', 'lat_lon_source': 'Third Party'}",36.9928119,127.0884872,Shinesegaefood 평택역점,"{'opening_hours': {'Mon': '10:00-22:00', 'Tue': '10:00-22:00', 'Wed': '10:00-22:00', 'Thu': '10:00-22:00', 'Fri': '10:00-22:00', 'Sat': '10:00-22:00', 'Sun': '10:00-22:00'}}", 031-651-0045,17909,622,Gyeonggi-do,https://www.shinsegaefood.com/nobrandburger/store/store.sf
 경기도김포시풍무로73(풍무동),Shinesegaefood,Gimpo-si,Korea,"{'brand': 'Shinesegaefood', 'fascia': 'Shinesegaefood', 'category': 'Rstaurant', 'edit_date': '20250607', 'lat_lon_source': 'Third Party'}",37.6021001,126.7211585,Shinesegaefood 김포풍무점,"{'opening_hours': {'Mon': '10:00-02:00', 'Tue': '10:00-02:00', 'Wed': '10:00-02:00', 'Thu': '10:00-02:00', 'Fri': '10:00-02:00', 'Sat': '10:00-02:00', 'Sun': '10:00-02:00'}}", 031-981-6219,10116,624,Gyeonggi-do,https://www.shinsegaefood.com/nobrandburger/store/store.sf
" 부산광역시금정구부산대학로26,고성빌딩1,2",Shinesegaefood,Busan,Korea,"{'brand': 'Shinesegaefood', 'fascia': 'Shinesegaefood', 'category': 'Rstaurant', 'edit_date': '20250607', 'lat_lon_source': 'Third Party'}",35.2312706,129.0883824,Shinesegaefood 부산대점,"{'opening_hours': {'Mon': '11:00-21:00', 'Tue': '11:00-21:00', 'Wed': '11:00-21:00', 'Thu': '11:00-21:00', 'Fri': '11:00-21:00', 'Sat': '11:00-21:00', 'Sun': '11:00-21:00'}}", 051-651-0045,46290,625,,https://www.shinsegaefood.com/nobrandburger/store/store.sf
" 서울특별시송파구가락로116,1층",Shinesegaefood,Seoul,Korea,"{'brand': 'Shinesegaefood', 'fascia': 'Shinesegaefood', 'category': 'Rstaurant', 'edit_date': '20250607', 'lat_lon_source': 'Third Party'}",37.5014186,127.1089581,Shinesegaefood 송파사거리점,"{'opening_hours': {'Mon': '10:00-22:00', 'Tue': '10:00-22:00', 'Wed': '10:00-22:00', 'Thu': '10:00-22:00', 'Fri': '10:00-22:00', 'Sat': '10:00-22:00', 'Sun': '10:00-22:00'}}", 02-423-4355,05697,626,,https://www.shinsegaefood.com/nobrandburger/store/store.sf
 서울특별시 강동구 양재대로 1488(길동),Shinesegaefood,Seoul,Korea,"{'brand': 'Shinesegaefood', 'fascia': 'Shinesegaefood', 'category': 'Rstaurant', 'edit_date': '20250607', 'lat_lon_source': 'Third Party'}",37.5385811,127.1405938,Shinesegaefood 길동역점,"{'opening_hours': {'Mon': '10:30-22:00', 'Tue': '10:30-22:00', 'Wed': '10:30-22:00', 'Thu': '10:30-22:00', 'Fri': '10:30-22:00', 'Sat': '10:30-22:00', 'Sun': '10:30-22:00'}}", 02-489-6540,05351,627,,https://www.shinsegaefood.com/nobrandburger/store/store.sf
 경기도 성남시 수정구 제일로 165(태평동),Shinesegaefood,"Sujeong-gu, Seongnam-si",Korea,"{'brand': 'Shinesegaefood', 'fascia': 'Shinesegaefood', 'category': 'Rstaurant', 'edit_date': '20250607', 'lat_lon_source': 'Third Party'}",37.4410362,127.1314847,Shinesegaefood 성남태평점,"{'opening_hours': {'Mon': '', 'Tue': '', 'Wed': '', 'Thu': '', 'Fri': '', 'Sat': '', 'Sun': ''}}","
    (무교동 33-1)1층",13310,628,Gyeonggi-do,https://www.shinsegaefood.com/nobrandburger/store/store.sf
" 경기도용인시처인구명지로21,1층(역북동)",Shinesegaefood,"Cheoin-gu, Yongin-si",Korea,"{'brand': 'Shinesegaefood', 'fascia': 'Shinesegaefood', 'category': 'Rstaurant', 'edit_date': '20250607', 'lat_lon_source': 'Third Party'}",37.2340576,127.1889953,Shinesegaefood 용인역북점,"{'opening_hours': {'Mon': '10:00-22:00', 'Tue': '10:00-22:00', 'Wed': '10:00-22:00', 'Thu': '10:00-22:00', 'Fri': '10:00-22:00', 'Sat': '10:00-22:00', 'Sun': '10:00-22:00'}}", 031-333-6472,17057,629,Gyeonggi-do,https://www.shinsegaefood.com/nobrandburger/store/store.sf
" 인천광역시남동구서창남로45,로데오프라자1층노브랜드버거",Shinesegaefood,Incheon,Korea,"{'brand': 'Shinesegaefood', 'fascia': 'Shinesegaefood', 'category': 'Rstaurant', 'edit_date': '20250607', 'lat_lon_source': 'Third Party'}",37.4235762,126.7500987,Shinesegaefood 인천서창점,"{'opening_hours': {'Mon': '10:00-22:00', 'Tue': '10:00-22:00', 'Wed': '10:00-22:00', 'Thu': '10:00-22:00', 'Fri': '10:00-22:00', 'Sat': '10:00-22:00', 'Sun': '10:00-22:00'}}", 032-469-0779,21617,632,,https://www.shinsegaefood.com/nobrandburger/store/store.sf
 서울마포구월드컵로240상암메가박스1층,Shinesegaefood,Seoul,Korea,"{'brand': 'Shinesegaefood', 'fascia': 'Shinesegaefood', 'category': 'Rstaurant', 'edit_date': '20250607', 'lat_lon_source': 'Third Party'}",37.5682553,126.8972733,Shinesegaefood 메가박스상암점,"{'opening_hours': {'Mon': '10:00-21:00', 'Tue': '10:00-21:00', 'Wed': '10:00-21:00', 'Thu': '10:00-21:00', 'Fri': '10:00-21:00', 'Sat': '10:00-21:00', 'Sun': '10:00-21:00'}}", 070-4102-0070,03901,633,,https://www.shinsegaefood.com/nobrandburger/store/store.sf
 서울특별시양천구중앙로2911층(신월동),Shinesegaefood,Seoul,Korea,"{'brand': 'Shinesegaefood', 'fascia': 'Shinesegaefood', 'category': 'Rstaurant', 'edit_date': '20250607', 'lat_lon_source': 'Third Party'}",37.5221488,126.8516520,Shinesegaefood 신정네거리점,"{'opening_hours': {'Mon': '10:00-22:00', 'Tue': '10:00-22:00', 'Wed': '10:00-22:00', 'Thu': '10:00-22:00', 'Fri': '10:00-22:00', 'Sat': '10:00-22:00', 'Sun': '10:00-22:00'}}", 02-2065-8742,08028,634,,https://www.shinsegaefood.com/nobrandburger/store/store.sf
"인천광역시부평구경원대로1402,프라자빌딩1층",Shinesegaefood,Incheon,Korea,"{'brand': 'Shinesegaefood', 'fascia': 'Shinesegaefood', 'category': 'Rstaurant', 'edit_date': '20250607', 'lat_lon_source': 'Third Party'}",37.4910728,126.7247511,Shinesegaefood 부평역점,"{'opening_hours': {'Mon': '10:00-24:00', 'Tue': '10:00-24:00', 'Wed': '10:00-24:00', 'Thu': '10:00-24:00', 'Fri': '10:00-24:00', 'Sat': '10:00-24:00', 'Sun': '10:00-24:00'}}",032-502-4365,21395,636,,https://www.shinsegaefood.com/nobrandburger/store/store.sf
부산광역시중구광복로88,Shinesegaefood,Busan,Korea,"{'brand': 'Shinesegaefood', 'fascia': 'Shinesegaefood', 'category': 'Rstaurant', 'edit_date': '20250607', 'lat_lon_source': 'Third Party'}",35.0984002,129.0345420,Shinesegaefood 부산광복점,"{'opening_hours': {'Mon': '10:00-22:00', 'Tue': '10:00-22:00', 'Wed': '10:00-22:00', 'Thu': '10:00-22:00', 'Fri': '10:00-22:00', 'Sat': '10:00-22:00', 'Sun': '10:00-22:00'}}",051-254-2005,48954,637,,https://www.shinsegaefood.com/nobrandburger/store/store.sf
 경기도 파주시 후곡로 2 1층,Shinesegaefood,Paju-si,Korea,"{'brand': 'Shinesegaefood', 'fascia': 'Shinesegaefood', 'category': 'Rstaurant', 'edit_date': '20250607', 'lat_lon_source': 'Third Party'}",37.7574032,126.7731773,Shinesegaefood 금촌로터리점,"{'opening_hours': {'Mon': '09:30-23:00', 'Tue': '09:30-23:00', 'Wed': '09:30-23:00', 'Thu': '09:30-23:00', 'Fri': '09:30-23:00', 'Sat': '09:30-23:00', 'Sun': '09:30-23:00'}}", 031-947-1050,10925,638,Gyeonggi-do,https://www.shinsegaefood.com/nobrandburger/store/store.sf
" 대구광역시달서구월배로51,1층110호,111호(유천동,진천역AK그랑폴리스)",Shinesegaefood,Daegu,Korea,"{'brand': 'Shinesegaefood', 'fascia': 'Shinesegaefood', 'category': 'Rstaurant', 'edit_date': '20250607', 'lat_lon_source': 'Third Party'}",35.8139027,128.5199767,Shinesegaefood 대구진천점,"{'opening_hours': {'Mon': '10:00-22:00', 'Tue': '10:00-22:00', 'Wed': '10:00-22:00', 'Thu': '10:00-22:00', 'Fri': '10:00-22:00', 'Sat': '10:00-22:00', 'Sun': '10:00-22:00'}}", 053-637-7485,42760,639,,https://www.shinsegaefood.com/nobrandburger/store/store.sf
 경기 성남시 수정구 복정로 69,Shinesegaefood,"Sujeong-gu, Seongnam-si",Korea,"{'brand': 'Shinesegaefood', 'fascia': 'Shinesegaefood', 'category': 'Rstaurant', 'edit_date': '20250607', 'lat_lon_source': 'Third Party'}",37.4592421,127.1264601,Shinesegaefood 성남복정점,"{'opening_hours': {'Mon': '10:00-22:00', 'Tue': '10:00-22:00', 'Wed': '10:00-22:00', 'Thu': '10:00-22:00', 'Fri': '10:00-22:00', 'Sat': '10:00-22:00', 'Sun': '10:00-22:00'}}",031-759-0352,13118,641,Gyeonggi-do,https://www.shinsegaefood.com/nobrandburger/store/store.sf
서울특별시강서구공항대로543,Shinesegaefood,Seoul,Korea,"{'brand': 'Shinesegaefood', 'fascia': 'Shinesegaefood', 'category': 'Rstaurant', 'edit_date': '20250607', 'lat_lon_source': 'Third Party'}",37.5507388,126.8664122,Shinesegaefood 등촌역점,"{'opening_hours': {'Mon': '08:00-21:00', 'Tue': '08:00-21:00', 'Wed': '08:00-21:00', 'Thu': '08:00-21:00', 'Fri': '08:00-21:00', 'Sat': '08:00-21:00', 'Sun': '08:00-21:00'}}",02-3664-5333,07562,643,,https://www.shinsegaefood.com/nobrandburger/store/store.sf
"서울특별시동대문구장한로137,1층(장안동)",Shinesegaefood,Seoul,Korea,"{'brand': 'Shinesegaefood', 'fascia': 'Shinesegaefood', 'category': 'Rstaurant', 'edit_date': '20250607', 'lat_lon_source': 'Third Party'}",37.5727566,127.0712122,Shinesegaefood 장안사거리점,"{'opening_hours': {'Mon': '10:00-23:00', 'Tue': '10:00-23:00', 'Wed': '10:00-23:00', 'Thu': '10:00-23:00', 'Fri': '10:00-23:00', 'Sat': '10:00-23:00', 'Sun': '10:00-23:00'}}",02-2215-1555,02530,644,,https://www.shinsegaefood.com/nobrandburger/store/store.sf
인천 미추홀구 인하로 81-1,Shinesegaefood,Incheon,Korea,"{'brand': 'Shinesegaefood', 'fascia': 'Shinesegaefood', 'category': 'Rstaurant', 'edit_date': '20250607', 'lat_lon_source': 'Third Party'}",37.4511942,126.6574884,Shinesegaefood 인천용현점,"{'opening_hours': {'Mon': '', 'Tue': '', 'Wed': '', 'Thu': '', 'Fri': '', 'Sat': '', 'Sun': ''}}",032-873-0508,22207,645,,https://www.shinsegaefood.com/nobrandburger/store/store.sf
"경기도화성시수노을중앙로150,더드림프라자1층",Shinesegaefood,"Sangnok-gu, Ansan-si",Korea,"{'brand': 'Shinesegaefood', 'fascia': 'Shinesegaefood', 'category': 'Rstaurant', 'edit_date': '20250607', 'lat_lon_source': 'Third Party'}",37.2837435,126.8189680,Shinesegaefood 화성새솔점,"{'opening_hours': {'Mon': '10:00-22:00', 'Tue': '10:00-22:00', 'Wed': '10:00-22:00', 'Thu': '10:00-22:00', 'Fri': '10:00-22:00', 'Sat': '10:00-22:00', 'Sun': '10:00-22:00'}}",031-357-1044,18244,646,Gyeonggi-do,https://www.shinsegaefood.com/nobrandburger/store/store.sf
"서울강남구사평대로3711층(반포동,현철빌딩)",Shinesegaefood,Seoul,Korea,"{'brand': 'Shinesegaefood', 'fascia': 'Shinesegaefood', 'category': 'Rstaurant', 'edit_date': '20250607', 'lat_lon_source': 'Third Party'}",37.5045761,127.0236069,Shinesegaefood 신논현역점,"{'opening_hours': {'Mon': '10:00-22:00', 'Tue': '10:00-22:00', 'Wed': '10:00-22:00', 'Thu': '10:00-22:00', 'Fri': '10:00-22:00', 'Sat': '10:00-22:00', 'Sun': '10:00-22:00'}}", 02-3448-0301,06541,647,,https://www.shinsegaefood.com/nobrandburger/store/store.sf
대구광역시달성군유가읍테크노상업로112,Shinesegaefood,Daegu,Korea,"{'brand': 'Shinesegaefood', 'fascia': 'Shinesegaefood', 'category': 'Rstaurant', 'edit_date': '20250607', 'lat_lon_source': 'Third Party'}",35.6932691,128.4618973,Shinesegaefood 대구현풍점,"{'opening_hours': {'Mon': '10:00-22:00', 'Tue': '10:00-22:00', 'Wed': '10:00-22:00', 'Thu': '10:00-22:00', 'Fri': '10:00-22:00', 'Sat': '10:00-22:00', 'Sun': '10:00-22:00'}}",053-614-1300,43015,649,,https://www.shinsegaefood.com/nobrandburger/store/store.sf
"서울시금천구시흥대로 224리메인시티1층105,106호",Shinesegaefood,Seoul,Korea,"{'brand': 'Shinesegaefood', 'fascia': 'Shinesegaefood', 'category': 'Rstaurant', 'edit_date': '20250607', 'lat_lon_source': 'Third Party'}",37.4539296,126.9013002,Shinesegaefood 시흥사거리점,"{'opening_hours': {'Mon': '10:00-22:00', 'Tue': '10:00-22:00', 'Wed': '10:00-22:00', 'Thu': '10:00-22:00', 'Fri': '10:00-22:00', 'Sat': '10:00-22:00', 'Sun': '10:00-22:00'}}",02-808-6427,08628,650,,https://www.shinsegaefood.com/nobrandburger/store/store.sf
부산광역시부산진구동평로106엘리움메디컬센터104호,Shinesegaefood,Busan,Korea,"{'brand': 'Shinesegaefood', 'fascia': 'Shinesegaefood', 'category': 'Rstaurant', 'edit_date': '20250607', 'lat_lon_source': 'Third Party'}",35.1655911,129.0411348,Shinesegaefood 부산당감,"{'opening_hours': {'Mon': '10:00-22:00', 'Tue': '10:00-22:00', 'Wed': '10:00-22:00', 'Thu': '10:00-22:00', 'Fri': '10:00-22:00', 'Sat': '10:00-22:00', 'Sun': '10:00-22:00'}}",051-891-7333,47181,651,,https://www.shinsegaefood.com/nobrandburger/store/store.sf
"경기도이천시중리천로53-5,1층(창전동)",Shinesegaefood,Icheon-si,Korea,"{'brand': 'Shinesegaefood', 'fascia': 'Shinesegaefood', 'category': 'Rstaurant', 'edit_date': '20250607', 'lat_lon_source': 'Third Party'}",37.2805415,127.4438259,Shinesegaefood 이천중앙점,"{'opening_hours': {'Mon': '10:00-22:00', 'Tue': '10:00-22:00', 'Wed': '10:00-22:00', 'Thu': '10:00-22:00', 'Fri': '10:00-22:00', 'Sat': '10:00-22:00', 'Sun': '10:00-22:00'}}",031-635-0001,17369,655,Gyeonggi-do,https://www.shinsegaefood.com/nobrandburger/store/store.sf
대구광역시동구율하동1435,Shinesegaefood,Daegu,Korea,"{'brand': 'Shinesegaefood', 'fascia': 'Shinesegaefood', 'category': 'Rstaurant', 'edit_date': '20250607', 'lat_lon_source': 'Third Party'}",35.8631481,128.6972255,Shinesegaefood 대구율하점,"{'opening_hours': {'Mon': '10:00-22:00', 'Tue': '10:00-22:00', 'Wed': '10:00-22:00', 'Thu': '10:00-22:00', 'Fri': '10:00-22:00', 'Sat': '10:00-22:00', 'Sun': '10:00-22:00'}}",053-964-1609,41105,658,,https://www.shinsegaefood.com/nobrandburger/store/store.sf
"경기도안양시동안구엘에스로122,125~127호",Shinesegaefood,"Dongan-gu, Anyang-si",Korea,"{'brand': 'Shinesegaefood', 'fascia': 'Shinesegaefood', 'category': 'Rstaurant', 'edit_date': '20250607', 'lat_lon_source': 'Third Party'}",37.3728650,126.9488677,Shinesegaefood 안양호계점,"{'opening_hours': {'Mon': '08:00-21:00', 'Tue': '08:00-21:00', 'Wed': '08:00-21:00', 'Thu': '08:00-21:00', 'Fri': '08:00-21:00', 'Sat': '08:00-21:00', 'Sun': '08:00-21:00'}}",031-8033-0103,14118,660,Gyeonggi-do,https://www.shinsegaefood.com/nobrandburger/store/store.sf
인천시부평구마장로320한화프라자103호,Shinesegaefood,Incheon,Korea,"{'brand': 'Shinesegaefood', 'fascia': 'Shinesegaefood', 'category': 'Rstaurant', 'edit_date': '20250607', 'lat_lon_source': 'Third Party'}",37.5066003,126.7037115,Shinesegaefood 인천산곡점,"{'opening_hours': {'Mon': '10:00-23:00', 'Tue': '10:00-23:00', 'Wed': '10:00-23:00', 'Thu': '10:00-23:00', 'Fri': '10:00-23:00', 'Sat': '10:00-23:00', 'Sun': '10:00-23:00'}}",032-512-7776,21362,661,,https://www.shinsegaefood.com/nobrandburger/store/store.sf
경기도 안성시 공도읍 진시리 5-6 스타필드 안성 1층 1336호,Shinesegaefood,Anseong-si,Korea,"{'brand': 'Shinesegaefood', 'fascia': 'Shinesegaefood', 'category': 'Rstaurant', 'edit_date': '20250607', 'lat_lon_source': 'Third Party'}",36.9946334,127.1472496,Shinesegaefood 스타필드안성점,"{'opening_hours': {'Mon': '10:00-22:00', 'Tue': '10:00-22:00', 'Wed': '10:00-22:00', 'Thu': '10:00-22:00', 'Fri': '10:00-22:00', 'Sat': '10:00-22:00', 'Sun': '10:00-22:00'}}",031-8092-1506,17563,663,Gyeonggi-do,https://www.shinsegaefood.com/nobrandburger/store/store.sf
"인천광역시계양구계양대로86,1층",Shinesegaefood,Incheon,Korea,"{'brand': 'Shinesegaefood', 'fascia': 'Shinesegaefood', 'category': 'Rstaurant', 'edit_date': '20250607', 'lat_lon_source': 'Third Party'}",37.5314179,126.7228719,Shinesegaefood 인천작전역점,"{'opening_hours': {'Mon': '10:00-22:00', 'Tue': '10:00-22:00', 'Wed': '10:00-22:00', 'Thu': '10:00-22:00', 'Fri': '10:00-22:00', 'Sat': '10:00-22:00', 'Sun': '10:00-22:00'}}",032-545-7718,21091,665,,https://www.shinsegaefood.com/nobrandburger/store/store.sf
경기도김포시솔터로22애비뉴스완101호,Shinesegaefood,Gimpo-si,Korea,"{'brand': 'Shinesegaefood', 'fascia': 'Shinesegaefood', 'category': 'Rstaurant', 'edit_date': '20250607', 'lat_lon_source': 'Third Party'}",37.6454292,126.6308576,Shinesegaefood 김포구래점,"{'opening_hours': {'Mon': '07:00-03:00', 'Tue': '07:00-03:00', 'Wed': '07:00-03:00', 'Thu': '07:00-03:00', 'Fri': '07:00-03:00', 'Sat': '07:00-03:00', 'Sun': '07:00-03:00'}}",031-982-0806,10066,666,Gyeonggi-do,https://www.shinsegaefood.com/nobrandburger/store/store.sf
인천광역시미추홀구매소홀로618인천SSG랜더스필드1루매표소2층,Shinesegaefood,Incheon,Korea,"{'brand': 'Shinesegaefood', 'fascia': 'Shinesegaefood', 'category': 'Rstaurant', 'edit_date': '20250607', 'lat_lon_source': 'Third Party'}",37.4365777,126.6905530,Shinesegaefood SSG랜더스필드점,"{'opening_hours': {'Mon': '', 'Tue': '', 'Wed': '', 'Thu': '', 'Fri': '', 'Sat': '', 'Sun': ''}}",032-446-0670,22234,668,,https://www.shinsegaefood.com/nobrandburger/store/store.sf
경기도 평택시 고덕면 여염리 4507-3 헤리움비즈타워 2차 104~106호 노브랜드버거,Shinesegaefood,Pyeongtaek-si,Korea,"{'brand': 'Shinesegaefood', 'fascia': 'Shinesegaefood', 'category': 'Rstaurant', 'edit_date': '20250607', 'lat_lon_source': 'Third Party'}",37.0389429,127.0491774,Shinesegaefood 평택고덕삼성점,"{'opening_hours': {'Mon': '10:00-21:30', 'Tue': '10:00-21:30', 'Wed': '10:00-21:30', 'Thu': '10:00-21:30', 'Fri': '10:00-21:30', 'Sat': '10:00-21:30', 'Sun': '10:00-21:30'}}",031-668-2847,,672,Gyeonggi-do,https://www.shinsegaefood.com/nobrandburger/store/store.sf
경기도고양시일산동구위씨티1로6-5라비체오피스텔1층,Shinesegaefood,"Ilsandong-gu, Goyang-si",Korea,"{'brand': 'Shinesegaefood', 'fascia': 'Shinesegaefood', 'category': 'Rstaurant', 'edit_date': '20250607', 'lat_lon_source': 'Third Party'}",37.6751022,126.8093478,Shinesegaefood 일산식사점,"{'opening_hours': {'Mon': '10:00-22:00', 'Tue': '10:00-22:00', 'Wed': '10:00-22:00', 'Thu': '10:00-22:00', 'Fri': '10:00-22:00', 'Sat': '10:00-22:00', 'Sun': '10:00-22:00'}}",031-969-0520,10324,674,Gyeonggi-do,https://www.shinsegaefood.com/nobrandburger/store/store.sf
"경기도구리시경춘북로252,841동1층C172-1호(갈매역아이파크)",Shinesegaefood,Guri-si,Korea,"{'brand': 'Shinesegaefood', 'fascia': 'Shinesegaefood', 'category': 'Rstaurant', 'edit_date': '20250607', 'lat_lon_source': 'Third Party'}",37.6346003,127.1170208,Shinesegaefood 구리갈매점,"{'opening_hours': {'Mon': '10:00-22:00', 'Tue': '10:00-22:00', 'Wed': '10:00-22:00', 'Thu': '10:00-22:00', 'Fri': '10:00-22:00', 'Sat': '10:00-22:00', 'Sun': '10:00-22:00'}}",031-527-7576,11903,675,Gyeonggi-do,https://www.shinsegaefood.com/nobrandburger/store/store.sf
"대구시동구안심로368남일빌딩1,2층",Shinesegaefood,Daegu,Korea,"{'brand': 'Shinesegaefood', 'fascia': 'Shinesegaefood', 'category': 'Rstaurant', 'edit_date': '20250607', 'lat_lon_source': 'Third Party'}",35.8678287,128.7246224,Shinesegaefood 대구각산역점,"{'opening_hours': {'Mon': '10:00-22:00', 'Tue': '10:00-22:00', 'Wed': '10:00-22:00', 'Thu': '10:00-22:00', 'Fri': '10:00-22:00', 'Sat': '10:00-22:00', 'Sun': '10:00-22:00'}}",053-965-0416,41087,676,,https://www.shinsegaefood.com/nobrandburger/store/store.sf
"대구광역시동구동부로30길9,1층",Shinesegaefood,Daegu,Korea,"{'brand': 'Shinesegaefood', 'fascia': 'Shinesegaefood', 'category': 'Rstaurant', 'edit_date': '20250607', 'lat_lon_source': 'Third Party'}",35.8762545,128.6290992,Shinesegaefood 동대구점,"{'opening_hours': {'Mon': '10:00-22:00', 'Tue': '10:00-22:00', 'Wed': '10:00-22:00', 'Thu': '10:00-22:00', 'Fri': '10:00-22:00', 'Sat': '10:00-22:00', 'Sun': '10:00-22:00'}}",053-552-0001,41244,678,,https://www.shinsegaefood.com/nobrandburger/store/store.sf
경기도화성시동탄순환대로689(영천동)101호/102호,Shinesegaefood,Hwaseong-si,Korea,"{'brand': 'Shinesegaefood', 'fascia': 'Shinesegaefood', 'category': 'Rstaurant', 'edit_date': '20250607', 'lat_lon_source': 'Third Party'}",37.2062511,127.1107149,Shinesegaefood 동탄영천점,"{'opening_hours': {'Mon': '08:00-04:00', 'Tue': '08:00-04:00', 'Wed': '08:00-04:00', 'Thu': '08:00-04:00', 'Fri': '08:00-04:00', 'Sat': '08:00-04:00', 'Sun': '08:00-04:00'}}",031-374-5580,18472,680,Gyeonggi-do,https://www.shinsegaefood.com/nobrandburger/store/store.sf
서울시동작구여의대방로1361층노브랜드버거,Shinesegaefood,Seoul,Korea,"{'brand': 'Shinesegaefood', 'fascia': 'Shinesegaefood', 'category': 'Rstaurant', 'edit_date': '20250607', 'lat_lon_source': 'Third Party'}",37.4992113,126.9206961,Shinesegaefood 보라매역점,"{'opening_hours': {'Mon': '10:00-23:00', 'Tue': '10:00-23:00', 'Wed': '10:00-23:00', 'Thu': '10:00-23:00', 'Fri': '10:00-23:00', 'Sat': '10:00-23:00', 'Sun': '10:00-23:00'}}",02-3280-1077,07055,681,,https://www.shinsegaefood.com/nobrandburger/store/store.sf
"인천광역시서구중봉대로594,1층노브랜드버거(청라동,청라비전프라자)",Shinesegaefood,Incheon,Korea,"{'brand': 'Shinesegaefood', 'fascia': 'Shinesegaefood', 'category': 'Rstaurant', 'edit_date': '20250607', 'lat_lon_source': 'Third Party'}",37.5325653,126.6502893,Shinesegaefood 청라수변공원점,"{'opening_hours': {'Mon': '10:00-22:00', 'Tue': '10:00-22:00', 'Wed': '10:00-22:00', 'Thu': '10:00-22:00', 'Fri': '10:00-22:00', 'Sat': '10:00-22:00', 'Sun': '10:00-22:00'}}",032-568-8820,22736,682,,https://www.shinsegaefood.com/nobrandburger/store/store.sf
"경기도파주시미래로375(동패동,삼성메디컬프라자)106호,107호",Shinesegaefood,Paju-si,Korea,"{'brand': 'Shinesegaefood', 'fascia': 'Shinesegaefood', 'category': 'Rstaurant', 'edit_date': '20250607', 'lat_lon_source': 'Third Party'}",37.7113745,126.7458612,Shinesegaefood 파주운정한빛점,"{'opening_hours': {'Mon': '10:00-22:00', 'Tue': '10:00-22:00', 'Wed': '10:00-22:00', 'Thu': '10:00-22:00', 'Fri': '10:00-22:00', 'Sat': '10:00-22:00', 'Sun': '10:00-22:00'}}",031-946-4806,10905,684,Gyeonggi-do,https://www.shinsegaefood.com/nobrandburger/store/store.sf
" 경상북도구미시옥계북로27,108동1층114,115호(옥계동,삼구트리니엔)",Shinesegaefood,Gumi-si,Korea,"{'brand': 'Shinesegaefood', 'fascia': 'Shinesegaefood', 'category': 'Rstaurant', 'edit_date': '20250607', 'lat_lon_source': 'Third Party'}",36.1385662,128.4207713,Shinesegaefood 구미옥계점,"{'opening_hours': {'Mon': '10:00-22:00', 'Tue': '10:00-22:00', 'Wed': '10:00-22:00', 'Thu': '10:00-22:00', 'Fri': '10:00-22:00', 'Sat': '10:00-22:00', 'Sun': '10:00-22:00'}}", 054-474-1991,39181,993,Gyeongsangbuk-do,https://www.shinsegaefood.com/nobrandburger/store/store.sf
 서울성북구동소문로12청암빌딩1층,Shinesegaefood,Seoul,Korea,"{'brand': 'Shinesegaefood', 'fascia': 'Shinesegaefood', 'category': 'Rstaurant', 'edit_date': '20250607', 'lat_lon_source': 'Third Party'}",37.5888397,127.0076013,Shinesegaefood 한성대입구역점,"{'opening_hours': {'Mon': '10:00-03:00', 'Tue': '10:00-03:00', 'Wed': '10:00-03:00', 'Thu': '10:00-03:00', 'Fri': '10:00-03:00', 'Sat': '10:00-03:00', 'Sun': '10:00-03:00'}}", 02-765-8101,02860,995,,https://www.shinsegaefood.com/nobrandburger/store/store.sf
" 인천광역시서구원당대로660,(당하영프라자101호)",Shinesegaefood,Incheon,Korea,"{'brand': 'Shinesegaefood', 'fascia': 'Shinesegaefood', 'category': 'Rstaurant', 'edit_date': '20250607', 'lat_lon_source': 'Third Party'}",37.5932846,126.6742967,Shinesegaefood 인천완정역점,"{'opening_hours': {'Mon': '10:00-22:00', 'Tue': '10:00-22:00', 'Wed': '10:00-22:00', 'Thu': '10:00-22:00', 'Fri': '10:00-22:00', 'Sat': '10:00-22:00', 'Sun': '10:00-22:00'}}", 032-567-8565,22675,996,,https://www.shinsegaefood.com/nobrandburger/store/store.sf
" 경기도화성시동탄반송1길13, 1층",Shinesegaefood,Hwaseong-si,Korea,"{'brand': 'Shinesegaefood', 'fascia': 'Shinesegaefood', 'category': 'Rstaurant', 'edit_date': '20250607', 'lat_lon_source': 'Third Party'}",37.2092439,127.0621373,Shinesegaefood 동탄반송점,"{'opening_hours': {'Mon': '03:00-07:00', 'Tue': '03:00-07:00', 'Wed': '03:00-07:00', 'Thu': '03:00-07:00', 'Fri': '03:00-07:00', 'Sat': '03:00-07:00', 'Sun': '03:00-07:00'}}", 031-8003-3393,18434,997,Gyeonggi-do,https://www.shinsegaefood.com/nobrandburger/store/store.sf
" 대구시동구팔공로51길15-5107,108호",Shinesegaefood,Daegu,Korea,"{'brand': 'Shinesegaefood', 'fascia': 'Shinesegaefood', 'category': 'Rstaurant', 'edit_date': '20250607', 'lat_lon_source': 'Third Party'}",35.9225066,128.6397048,Shinesegaefood 대구이시아폴리스점,"{'opening_hours': {'Mon': '10:00-22:00', 'Tue': '10:00-22:00', 'Wed': '10:00-22:00', 'Thu': '10:00-22:00', 'Fri': '10:00-22:00', 'Sat': '10:00-22:00', 'Sun': '10:00-22:00'}}", 053-984-4242,41026,998,,https://www.shinsegaefood.com/nobrandburger/store/store.sf
" 경기도용인시수지구광교중앙로308,1층(상현동,광교에스타워)",Shinesegaefood,"Suji-gu, Yongin-si",Korea,"{'brand': 'Shinesegaefood', 'fascia': 'Shinesegaefood', 'category': 'Rstaurant', 'edit_date': '20250607', 'lat_lon_source': 'Third Party'}",37.2973522,127.0696673,Shinesegaefood 용인상현역점,"{'opening_hours': {'Mon': '10:00-22:00', 'Tue': '10:00-22:00', 'Wed': '10:00-22:00', 'Thu': '10:00-22:00', 'Fri': '10:00-22:00', 'Sat': '10:00-22:00', 'Sun': '10:00-22:00'}}", 031-211-6828,16943,999,Gyeonggi-do,https://www.shinsegaefood.com/nobrandburger/store/store.sf
 경기도하남시신장로1521층,Shinesegaefood,Hanam-si,Korea,"{'brand': 'Shinesegaefood', 'fascia': 'Shinesegaefood', 'category': 'Rstaurant', 'edit_date': '20250607', 'lat_lon_source': 'Third Party'}",37.5395234,127.2021992,Shinesegaefood 하남덕풍점,"{'opening_hours': {'Mon': '', 'Tue': '', 'Wed': '', 'Thu': '', 'Fri': '', 'Sat': '', 'Sun': ''}}", 031-8028-4645,12969,1000,Gyeonggi-do,https://www.shinsegaefood.com/nobrandburger/store/store.sf
" 경기도양주시회천남로76한덕프라자1층110-1호,111호",Shinesegaefood,Yangju-si,Korea,"{'brand': 'Shinesegaefood', 'fascia': 'Shinesegaefood', 'category': 'Rstaurant', 'edit_date': '20250607', 'lat_lon_source': 'Third Party'}", 37.8185530,127.0940531,Shinesegaefood 양주옥정점,"{'opening_hours': {'Mon': '09:30-02:00', 'Tue': '09:30-02:00', 'Wed': '09:30-02:00', 'Thu': '09:30-02:00', 'Fri': '09:30-02:00', 'Sat': '09:30-02:00', 'Sun': '09:30-02:00'}}", 031-865-7890,11473,1003,Gyeonggi-do,https://www.shinsegaefood.com/nobrandburger/store/store.sf
 서울시 광진구 능동로 120 건국대학교 레이크홀 B1층,Shinesegaefood,Seoul,Korea,"{'brand': 'Shinesegaefood', 'fascia': 'Shinesegaefood', 'category': 'Rstaurant', 'edit_date': '20250607', 'lat_lon_source': 'Third Party'}",37.5438883,127.0759547,Shinesegaefood 건대레이크홀점,"{'opening_hours': {'Mon': '10:00-20:00', 'Tue': '10:00-20:00', 'Wed': '10:00-20:00', 'Thu': '10:00-20:00', 'Fri': '10:00-20:00', 'Sat': '10:00-20:00', 'Sun': '10:00-20:00'}}", 070-4352-0885,05022,1004,,https://www.shinsegaefood.com/nobrandburger/store/store.sf
 경북구미시인동36길6,Shinesegaefood,Gumi-si,Korea,"{'brand': 'Shinesegaefood', 'fascia': 'Shinesegaefood', 'category': 'Rstaurant', 'edit_date': '20250607', 'lat_lon_source': 'Third Party'}",36.0941027,128.4324595,Shinesegaefood 구미진평점,"{'opening_hours': {'Mon': '10:00-22:00', 'Tue': '10:00-22:00', 'Wed': '10:00-22:00', 'Thu': '10:00-22:00', 'Fri': '10:00-22:00', 'Sat': '10:00-22:00', 'Sun': '10:00-22:00'}}", 054-471-1250,39411,1005,Gyeongsangbuk-do,https://www.shinsegaefood.com/nobrandburger/store/store.sf
 서울시 강동구 천호대로 997 신라빌딩 1층,Shinesegaefood,Seoul,Korea,"{'brand': 'Shinesegaefood', 'fascia': 'Shinesegaefood', 'category': 'Rstaurant', 'edit_date': '20250607', 'lat_lon_source': 'Third Party'}",37.5393463,127.1233121,Shinesegaefood 천호역점,"{'opening_hours': {'Mon': '10:00-22:00', 'Tue': '10:00-22:00', 'Wed': '10:00-22:00', 'Thu': '10:00-22:00', 'Fri': '10:00-22:00', 'Sat': '10:00-22:00', 'Sun': '10:00-22:00'}}", 02-477-0338,05248,1009,,https://www.shinsegaefood.com/nobrandburger/store/store.sf
 경기 의정부시 시민로 123-1 1층,Shinesegaefood,Uijeongbu-si,Korea,"{'brand': 'Shinesegaefood', 'fascia': 'Shinesegaefood', 'category': 'Rstaurant', 'edit_date': '20250607', 'lat_lon_source': 'Third Party'}",37.7384882,127.0490045,Shinesegaefood 의정부역점,"{'opening_hours': {'Mon': '10:00-22:00', 'Tue': '10:00-22:00', 'Wed': '10:00-22:00', 'Thu': '10:00-22:00', 'Fri': '10:00-22:00', 'Sat': '10:00-22:00', 'Sun': '10:00-22:00'}}", 070-4232-8282,11695,1011,Gyeonggi-do,https://www.shinsegaefood.com/nobrandburger/store/store.sf
" 경상북도경산시하양읍하양로34,가동104,105호",Shinesegaefood,Gyeongsan-si,Korea,"{'brand': 'Shinesegaefood', 'fascia': 'Shinesegaefood', 'category': 'Rstaurant', 'edit_date': '20250607', 'lat_lon_source': 'Third Party'}",35.9087845,128.8135526,Shinesegaefood 경산하양점,"{'opening_hours': {'Mon': '10:00-22:00', 'Tue': '10:00-22:00', 'Wed': '10:00-22:00', 'Thu': '10:00-22:00', 'Fri': '10:00-22:00', 'Sat': '10:00-22:00', 'Sun': '10:00-22:00'}}", 053-851-3469,38436,1013,Gyeongsangbuk-do,https://www.shinsegaefood.com/nobrandburger/store/store.sf
" 울산광역시중구시계탑거리27,1층",Shinesegaefood,Ulsan,Korea,"{'brand': 'Shinesegaefood', 'fascia': 'Shinesegaefood', 'category': 'Rstaurant', 'edit_date': '20250607', 'lat_lon_source': 'Third Party'}",35.5540556,129.3219242,Shinesegaefood 울산성남점,"{'opening_hours': {'Mon': '10:00-22:00', 'Tue': '10:00-22:00', 'Wed': '10:00-22:00', 'Thu': '10:00-22:00', 'Fri': '10:00-22:00', 'Sat': '10:00-22:00', 'Sun': '10:00-22:00'}}", 052-244-8030,,1015,,https://www.shinsegaefood.com/nobrandburger/store/store.sf
" 경상남도창원시성산구마디미로21번길3,광동힐타운1층",Shinesegaefood,"Seongsan-gu, Changwon-si",Korea,"{'brand': 'Shinesegaefood', 'fascia': 'Shinesegaefood', 'category': 'Rstaurant', 'edit_date': '20250607', 'lat_lon_source': 'Third Party'}",35.2224242,128.6848753,Shinesegaefood 창원상남점,"{'opening_hours': {'Mon': '10:00-00:00', 'Tue': '10:00-00:00', 'Wed': '10:00-00:00', 'Thu': '10:00-00:00', 'Fri': '10:00-00:00', 'Sat': '10:00-00:00', 'Sun': '10:00-00:00'}}", 010-9374-6677,51495,1016,Gyeongsangnam-do,https://www.shinsegaefood.com/nobrandburger/store/store.sf
" 경남김해율하3로38,경보오션117호1층노브랜드버거",Shinesegaefood,Gimhae-si,Korea,"{'brand': 'Shinesegaefood', 'fascia': 'Shinesegaefood', 'category': 'Rstaurant', 'edit_date': '20250607', 'lat_lon_source': 'Third Party'}",35.1712567,128.8143922,Shinesegaefood 김해율하점,"{'opening_hours': {'Mon': '10:00-22:00', 'Tue': '10:00-22:00', 'Wed': '10:00-22:00', 'Thu': '10:00-22:00', 'Fri': '10:00-22:00', 'Sat': '10:00-22:00', 'Sun': '10:00-22:00'}}", 055-313-3018,51019,1032,Gyeongsangnam-do,https://www.shinsegaefood.com/nobrandburger/store/store.sf
" 부산광역시동래구사직북로4,101,121호(사직동,자이언츠파크)",Shinesegaefood,Busan,Korea,"{'brand': 'Shinesegaefood', 'fascia': 'Shinesegaefood', 'category': 'Rstaurant', 'edit_date': '20250607', 'lat_lon_source': 'Third Party'}",35.1962582,129.0613598,Shinesegaefood 부산사직점,"{'opening_hours': {'Mon': '11:00-23:00', 'Tue': '11:00-23:00', 'Wed': '11:00-23:00', 'Thu': '11:00-23:00', 'Fri': '11:00-23:00', 'Sat': '11:00-23:00', 'Sun': '11:00-23:00'}}", 051-504-4349,47866,1033,,https://www.shinsegaefood.com/nobrandburger/store/store.sf
 경상남도 양산시 양산역1길 7(양산시외버스터미널) 1층,Shinesegaefood,Yangsan-si,Korea,"{'brand': 'Shinesegaefood', 'fascia': 'Shinesegaefood', 'category': 'Rstaurant', 'edit_date': '20250607', 'lat_lon_source': 'Third Party'}",35.3353404,129.0268500,Shinesegaefood 양산시외버스터미널점,"{'opening_hours': {'Mon': '10:00-22:00', 'Tue': '10:00-22:00', 'Wed': '10:00-22:00', 'Thu': '10:00-22:00', 'Fri': '10:00-22:00', 'Sat': '10:00-22:00', 'Sun': '10:00-22:00'}}", 055-385-0979,50629,1035,Gyeongsangnam-do,https://www.shinsegaefood.com/nobrandburger/store/store.sf
" 경기도 시흥시 배곧3로 80, 센터프라자 1층 108,109호 노브랜드버거",Shinesegaefood,Siheung-si,Korea,"{'brand': 'Shinesegaefood', 'fascia': 'Shinesegaefood', 'category': 'Rstaurant', 'edit_date': '20250607', 'lat_lon_source': 'Third Party'}",37.3705496,126.7290674,Shinesegaefood 시흥배곧점,"{'opening_hours': {'Mon': '10:00-22:00', 'Tue': '10:00-22:00', 'Wed': '10:00-22:00', 'Thu': '10:00-22:00', 'Fri': '10:00-22:00', 'Sat': '10:00-22:00', 'Sun': '10:00-22:00'}}", 031-499-8796,15010,1038,Gyeonggi-do,https://www.shinsegaefood.com/nobrandburger/store/store.sf
" 경상남도김해시내외중앙로81(내동,동화선프라자)1층노브랜드버거",Shinesegaefood,Gimhae-si,Korea,"{'brand': 'Shinesegaefood', 'fascia': 'Shinesegaefood', 'category': 'Rstaurant', 'edit_date': '20250607', 'lat_lon_source': 'Third Party'}",35.2372565,128.8668336,Shinesegaefood 김해내외점,"{'opening_hours': {'Mon': '10:00-22:00', 'Tue': '10:00-22:00', 'Wed': '10:00-22:00', 'Thu': '10:00-22:00', 'Fri': '10:00-22:00', 'Sat': '10:00-22:00', 'Sun': '10:00-22:00'}}", 055-326-7775,50948,1042,Gyeongsangnam-do,https://www.shinsegaefood.com/nobrandburger/store/store.sf
" 경기도남양주시다산중앙로145번길11, 1층 (다산동,메트로타워2)",Shinesegaefood,Namyangju-si,Korea,"{'brand': 'Shinesegaefood', 'fascia': 'Shinesegaefood', 'category': 'Rstaurant', 'edit_date': '20250607', 'lat_lon_source': 'Third Party'}",37.6254897,127.1511311,Shinesegaefood 남양주다산점,"{'opening_hours': {'Mon': '10:00-21:00', 'Tue': '10:00-21:00', 'Wed': '10:00-21:00', 'Thu': '10:00-21:00', 'Fri': '10:00-21:00', 'Sat': '10:00-21:00', 'Sun': '10:00-21:00'}}", 031-568-5501,12248,1043,Gyeonggi-do,https://www.shinsegaefood.com/nobrandburger/store/store.sf
" 대구광역시 북구 대학로85,2층",Shinesegaefood,Daegu,Korea,"{'brand': 'Shinesegaefood', 'fascia': 'Shinesegaefood', 'category': 'Rstaurant', 'edit_date': '20250607', 'lat_lon_source': 'Third Party'}",35.8928480,128.6093415,Shinesegaefood 대구경대북문점,"{'opening_hours': {'Mon': '10:00-22:00', 'Tue': '10:00-22:00', 'Wed': '10:00-22:00', 'Thu': '10:00-22:00', 'Fri': '10:00-22:00', 'Sat': '10:00-22:00', 'Sun': '10:00-22:00'}}", 053-941-4456,41544,1051,,https://www.shinsegaefood.com/nobrandburger/store/store.sf
" 경기도안성시중앙로328,가동103,104호(석정동)",Shinesegaefood,Anseong-si,Korea,"{'brand': 'Shinesegaefood', 'fascia': 'Shinesegaefood', 'category': 'Rstaurant', 'edit_date': '20250607', 'lat_lon_source': 'Third Party'}",37.0093405,127.2637117,Shinesegaefood 안성석정점,"{'opening_hours': {'Mon': '10:00-22:00', 'Tue': '10:00-22:00', 'Wed': '10:00-22:00', 'Thu': '10:00-22:00', 'Fri': '10:00-22:00', 'Sat': '10:00-22:00', 'Sun': '10:00-22:00'}}", 031-673-3353,17579,1052,Gyeonggi-do,https://www.shinsegaefood.com/nobrandburger/store/store.sf
 경기도고양시덕양구향기로115,Shinesegaefood,"Deogyang-gu, Goyang-si",Korea,"{'brand': 'Shinesegaefood', 'fascia': 'Shinesegaefood', 'category': 'Rstaurant', 'edit_date': '20250607', 'lat_lon_source': 'Third Party'}",37.6001008,126.8936577,Shinesegaefood 고양향동점,"{'opening_hours': {'Mon': '', 'Tue': '', 'Wed': '', 'Thu': '', 'Fri': '', 'Sat': '', 'Sun': ''}}","
(향동,봄프라자)108,109,206호노브랜드버거",,1053,Gyeonggi-do,https://www.shinsegaefood.com/nobrandburger/store/store.sf
" 부산광역시사하구낙동남로1413,",Shinesegaefood,Busan,Korea,"{'brand': 'Shinesegaefood', 'fascia': 'Shinesegaefood', 'category': 'Rstaurant', 'edit_date': '20250607', 'lat_lon_source': 'Third Party'}",35.1067550,128.9664750,Shinesegaefood 부산하단아트몰링점,"{'opening_hours': {'Mon': '', 'Tue': '', 'Wed': '', 'Thu': '', 'Fri': '', 'Sat': '', 'Sun': ''}}","
아트몰링1층노브랜드버거",49311,1055,,https://www.shinsegaefood.com/nobrandburger/store/store.sf
 경북 구미시 구미중앙로 77 1층,Shinesegaefood,Gumi-si,Korea,"{'brand': 'Shinesegaefood', 'fascia': 'Shinesegaefood', 'category': 'Rstaurant', 'edit_date': '20250607', 'lat_lon_source': 'Third Party'}",36.1290237,128.3314250,Shinesegaefood 구미역점,"{'opening_hours': {'Mon': '10:00-22:00', 'Tue': '10:00-22:00', 'Wed': '10:00-22:00', 'Thu': '10:00-22:00', 'Fri': '10:00-22:00', 'Sat': '10:00-22:00', 'Sun': '10:00-22:00'}}", 054-444-4540,39220,1068,Gyeongsangbuk-do,https://www.shinsegaefood.com/nobrandburger/store/store.sf
 울산광역시남구대학로104-1(1층),Shinesegaefood,Ulsan,Korea,"{'brand': 'Shinesegaefood', 'fascia': 'Shinesegaefood', 'category': 'Rstaurant', 'edit_date': '20250607', 'lat_lon_source': 'Third Party'}",35.5441086,129.2605795,Shinesegaefood 울산대점,"{'opening_hours': {'Mon': '10:00-21:00', 'Tue': '10:00-21:00', 'Wed': '10:00-21:00', 'Thu': '10:00-21:00', 'Fri': '10:00-21:00', 'Sat': '10:00-21:00', 'Sun': '10:00-21:00'}}", 052-249-0419,44611,1070,,https://www.shinsegaefood.com/nobrandburger/store/store.sf
" 경남창원시마산합포구월영동2길21층103호,104호",Shinesegaefood,"Masanhappo-gu, Changwon-si",Korea,"{'brand': 'Shinesegaefood', 'fascia': 'Shinesegaefood', 'category': 'Rstaurant', 'edit_date': '20250607', 'lat_lon_source': 'Third Party'}",35.1793205,128.5585731,Shinesegaefood 마산경남대점,"{'opening_hours': {'Mon': '09:00-23:30', 'Tue': '09:00-23:30', 'Wed': '09:00-23:30', 'Thu': '09:00-23:30', 'Fri': '09:00-23:30', 'Sat': '09:00-23:30', 'Sun': '09:00-23:30'}}", 055-609-0051,51751,1071,Gyeongsangnam-do,https://www.shinsegaefood.com/nobrandburger/store/store.sf
 경기도용인시수지구풍덕천동1082-6정석빌딩1층,Shinesegaefood,"Suji-gu, Yongin-si",Korea,"{'brand': 'Shinesegaefood', 'fascia': 'Shinesegaefood', 'category': 'Rstaurant', 'edit_date': '20250607', 'lat_lon_source': 'Third Party'}",37.3216607,127.0953055,Shinesegaefood 용인수지구청점,"{'opening_hours': {'Mon': '11:00-21:00', 'Tue': '11:00-21:00', 'Wed': '11:00-21:00', 'Thu': '11:00-21:00', 'Fri': '11:00-21:00', 'Sat': '11:00-21:00', 'Sun': '11:00-21:00'}}", 031-263-6363,16841,1073,Gyeonggi-do,https://www.shinsegaefood.com/nobrandburger/store/store.sf
경북경산시대학로361층,Shinesegaefood,Gyeongsan-si,Korea,"{'brand': 'Shinesegaefood', 'fascia': 'Shinesegaefood', 'category': 'Rstaurant', 'edit_date': '20250607', 'lat_lon_source': 'Third Party'}",35.8341058,128.7266384,Shinesegaefood 경산정평역점,"{'opening_hours': {'Mon': '10:00-22:00', 'Tue': '10:00-22:00', 'Wed': '10:00-22:00', 'Thu': '10:00-22:00', 'Fri': '10:00-22:00', 'Sat': '10:00-22:00', 'Sun': '10:00-22:00'}}",053-812-5310,38657,1076,Gyeongsangbuk-do,https://www.shinsegaefood.com/nobrandburger/store/store.sf
"대구광역시남구대명로295,1층(대명동)",Shinesegaefood,Daegu,Korea,"{'brand': 'Shinesegaefood', 'fascia': 'Shinesegaefood', 'category': 'Rstaurant', 'edit_date': '20250607', 'lat_lon_source': 'Third Party'}",35.8445455,128.5880819,Shinesegaefood 대구영대병원역,"{'opening_hours': {'Mon': '10:00-22:00', 'Tue': '10:00-22:00', 'Wed': '10:00-22:00', 'Thu': '10:00-22:00', 'Fri': '10:00-22:00', 'Sat': '10:00-22:00', 'Sun': '10:00-22:00'}}",053-213-9998,42418,1077,,https://www.shinsegaefood.com/nobrandburger/store/store.sf
"경상북도포항시남구오천읍원동로69,1층",Shinesegaefood,"Nam-gu, Pohang-si",Korea,"{'brand': 'Shinesegaefood', 'fascia': 'Shinesegaefood', 'category': 'Rstaurant', 'edit_date': '20250607', 'lat_lon_source': 'Third Party'}",35.9693199,129.4023426,Shinesegaefood 포항문덕점,"{'opening_hours': {'Mon': '10:00-22:00', 'Tue': '10:00-22:00', 'Wed': '10:00-22:00', 'Thu': '10:00-22:00', 'Fri': '10:00-22:00', 'Sat': '10:00-22:00', 'Sun': '10:00-22:00'}}",054-293-3009,37883,1078,Gyeongsangbuk-do,https://www.shinsegaefood.com/nobrandburger/store/store.sf
" 경기도 구리시 이문안로 77, 1층(수택동)",Shinesegaefood,Guri-si,Korea,"{'brand': 'Shinesegaefood', 'fascia': 'Shinesegaefood', 'category': 'Rstaurant', 'edit_date': '20250607', 'lat_lon_source': 'Third Party'}",37.5923652,127.1399174,Shinesegaefood 구리수택점,"{'opening_hours': {'Mon': '', 'Tue': '', 'Wed': '', 'Thu': '', 'Fri': '', 'Sat': '', 'Sun': ''}}", 031-558-7432,11941,1079,Gyeonggi-do,https://www.shinsegaefood.com/nobrandburger/store/store.sf
" 서울특별시양천구목동서로35,1층102호(목동)",Shinesegaefood,Seoul,Korea,"{'brand': 'Shinesegaefood', 'fascia': 'Shinesegaefood', 'category': 'Rstaurant', 'edit_date': '20250607', 'lat_lon_source': 'Third Party'}",37.5376392,126.8821166,Shinesegaefood 목동파리공원점,"{'opening_hours': {'Mon': '08:00-22:00', 'Tue': '08:00-22:00', 'Wed': '08:00-22:00', 'Thu': '08:00-22:00', 'Fri': '08:00-22:00', 'Sat': '08:00-22:00', 'Sun': '08:00-22:00'}}",02-2648-4101,07984,1080,,https://www.shinsegaefood.com/nobrandburger/store/store.sf
 경북포항시남구포스코대로126(1층),Shinesegaefood,"Nam-gu, Pohang-si",Korea,"{'brand': 'Shinesegaefood', 'fascia': 'Shinesegaefood', 'category': 'Rstaurant', 'edit_date': '20250607', 'lat_lon_source': 'Third Party'}",36.0253365,129.3396445,Shinesegaefood 포항대이점,"{'opening_hours': {'Mon': '10:00-22:00', 'Tue': '10:00-22:00', 'Wed': '10:00-22:00', 'Thu': '10:00-22:00', 'Fri': '10:00-22:00', 'Sat': '10:00-22:00', 'Sun': '10:00-22:00'}}",054-273-8772,37678,1083,Gyeongsangbuk-do,https://www.shinsegaefood.com/nobrandburger/store/store.sf
" 부산광역시 부산진구 중앙대로 683, 1~3층 (부전동)",Shinesegaefood,Busan,Korea,"{'brand': 'Shinesegaefood', 'fascia': 'Shinesegaefood', 'category': 'Rstaurant', 'edit_date': '20250607', 'lat_lon_source': 'Third Party'}",35.1536877,129.0588885,Shinesegaefood 부산서면점,"{'opening_hours': {'Mon': '09:00-23:00', 'Tue': '09:00-23:00', 'Wed': '09:00-23:00', 'Thu': '09:00-23:00', 'Fri': '09:00-23:00', 'Sat': '09:00-23:00', 'Sun': '09:00-23:00'}}", 051-816-2840,47289,1084,,https://www.shinsegaefood.com/nobrandburger/store/store.sf
" 경기도 수원시 권선구 금곡로102번길 20 103,104호",Shinesegaefood,"Gwonseon-gu, Suwon-si",Korea,"{'brand': 'Shinesegaefood', 'fascia': 'Shinesegaefood', 'category': 'Rstaurant', 'edit_date': '20250607', 'lat_lon_source': 'Third Party'}",37.2733968,126.9412152,Shinesegaefood 수원호매실점,"{'opening_hours': {'Mon': '10:00-02:00', 'Tue': '10:00-02:00', 'Wed': '10:00-02:00', 'Thu': '10:00-02:00', 'Fri': '10:00-02:00', 'Sat': '10:00-02:00', 'Sun': '10:00-02:00'}}", 031-293-3288,16385,1085,Gyeonggi-do,https://www.shinsegaefood.com/nobrandburger/store/store.sf
 경기도 수원시 영통구 효원로 381 새롬프라자 1층,Shinesegaefood,"Yeongtong-gu, Suwon-si",Korea,"{'brand': 'Shinesegaefood', 'fascia': 'Shinesegaefood', 'category': 'Rstaurant', 'edit_date': '20250607', 'lat_lon_source': 'Third Party'}",37.2593356,127.0433161,Shinesegaefood 수원영통구청점,"{'opening_hours': {'Mon': '10:00-22:30', 'Tue': '10:00-22:30', 'Wed': '10:00-22:30', 'Thu': '10:00-22:30', 'Fri': '10:00-22:30', 'Sat': '10:00-22:30', 'Sun': '10:00-22:30'}}", 070-8811-0157,16545,1086,Gyeonggi-do,https://www.shinsegaefood.com/nobrandburger/store/store.sf
부산광역시해운대구좌동1459-6번지,Shinesegaefood,Busan,Korea,"{'brand': 'Shinesegaefood', 'fascia': 'Shinesegaefood', 'category': 'Rstaurant', 'edit_date': '20250607', 'lat_lon_source': 'Third Party'}",35.1696015,129.1752429,Shinesegaefood 부산장산역점,"{'opening_hours': {'Mon': '', 'Tue': '', 'Wed': '', 'Thu': '', 'Fri': '', 'Sat': '', 'Sun': ''}}","
자생한방병원1층106호",48106,1087,,https://www.shinsegaefood.com/nobrandburger/store/store.sf
 대구광역시 북구 학정로 429 1층 104호,Shinesegaefood,Daegu,Korea,"{'brand': 'Shinesegaefood', 'fascia': 'Shinesegaefood', 'category': 'Rstaurant', 'edit_date': '20250607', 'lat_lon_source': 'Third Party'}",35.9430706,128.5632386,Shinesegaefood 대구칠곡3지구점,"{'opening_hours': {'Mon': '10:00-22:00', 'Tue': '10:00-22:00', 'Wed': '10:00-22:00', 'Thu': '10:00-22:00', 'Fri': '10:00-22:00', 'Sat': '10:00-22:00', 'Sun': '10:00-22:00'}}", 053-322-2004,41423,1088,,https://www.shinsegaefood.com/nobrandburger/store/store.sf
" 경기도 부천시 길주로 227, 1층 (중동)",Shinesegaefood,"Wonmi-gu, Bucheon-si",Korea,"{'brand': 'Shinesegaefood', 'fascia': 'Shinesegaefood', 'category': 'Rstaurant', 'edit_date': '20250607', 'lat_lon_source': 'Third Party'}",37.5045971,126.7677780,Shinesegaefood 부천시청역점,"{'opening_hours': {'Mon': '10:00-22:00', 'Tue': '10:00-22:00', 'Wed': '10:00-22:00', 'Thu': '10:00-22:00', 'Fri': '10:00-22:00', 'Sat': '10:00-22:00', 'Sun': '10:00-22:00'}}", 032-322-1977,14538,1090,Gyeonggi-do,https://www.shinsegaefood.com/nobrandburger/store/store.sf
 경상북도 포항시 남구 효성로24,Shinesegaefood,"Nam-gu, Pohang-si",Korea,"{'brand': 'Shinesegaefood', 'fascia': 'Shinesegaefood', 'category': 'Rstaurant', 'edit_date': '20250607', 'lat_lon_source': 'Third Party'}",36.0062303,129.3362807,Shinesegaefood 포항효자점,"{'opening_hours': {'Mon': '10:00-22:00', 'Tue': '10:00-22:00', 'Wed': '10:00-22:00', 'Thu': '10:00-22:00', 'Fri': '10:00-22:00', 'Sat': '10:00-22:00', 'Sun': '10:00-22:00'}}", 054-277-7696,37836,1092,Gyeongsangbuk-do,https://www.shinsegaefood.com/nobrandburger/store/store.sf
"경기도안산시단원구선부광장1로38,1층115호",Shinesegaefood,"Danwon-gu, Ansan-si",Korea,"{'brand': 'Shinesegaefood', 'fascia': 'Shinesegaefood', 'category': 'Rstaurant', 'edit_date': '20250607', 'lat_lon_source': 'Third Party'}",37.3366486,126.8093880,Shinesegaefood 안산선부점,"{'opening_hours': {'Mon': '', 'Tue': '', 'Wed': '', 'Thu': '', 'Fri': '', 'Sat': '', 'Sun': ''}}","
    (선부동,상록타운)노브랜드버거",15240,1093,Gyeonggi-do,https://www.shinsegaefood.com/nobrandburger/store/store.sf
 대구광역시 달서구 월곡로 257 1층 노브랜드버거,Shinesegaefood,Daegu,Korea,"{'brand': 'Shinesegaefood', 'fascia': 'Shinesegaefood', 'category': 'Rstaurant', 'edit_date': '20250607', 'lat_lon_source': 'Third Party'}",35.8173617,128.5388164,Shinesegaefood 대구상인점,"{'opening_hours': {'Mon': '10:00-22:00', 'Tue': '10:00-22:00', 'Wed': '10:00-22:00', 'Thu': '10:00-22:00', 'Fri': '10:00-22:00', 'Sat': '10:00-22:00', 'Sun': '10:00-22:00'}}", 053-636-1113,42785,1116,,https://www.shinsegaefood.com/nobrandburger/store/store.sf
 경기도 평택시 평남로 705 1층 노브랜드버거,Shinesegaefood,Pyeongtaek-si,Korea,"{'brand': 'Shinesegaefood', 'fascia': 'Shinesegaefood', 'category': 'Rstaurant', 'edit_date': '20250607', 'lat_lon_source': 'Third Party'}",36.9944344,127.1125364,Shinesegaefood 평택시청점,"{'opening_hours': {'Mon': '10:00-21:30', 'Tue': '10:00-21:30', 'Wed': '10:00-21:30', 'Thu': '10:00-21:30', 'Fri': '10:00-21:30', 'Sat': '10:00-21:30', 'Sun': '10:00-21:30'}}", 031-654-7595,17885,1119,Gyeonggi-do,https://www.shinsegaefood.com/nobrandburger/store/store.sf
 경상북도 경주시 용황로 69 1층,Shinesegaefood,Gyeongju-si,Korea,"{'brand': 'Shinesegaefood', 'fascia': 'Shinesegaefood', 'category': 'Rstaurant', 'edit_date': '20250607', 'lat_lon_source': 'Third Party'}",35.8832880,129.2255938,Shinesegaefood 경주용황점,"{'opening_hours': {'Mon': '10:00-22:00', 'Tue': '10:00-22:00', 'Wed': '10:00-22:00', 'Thu': '10:00-22:00', 'Fri': '10:00-22:00', 'Sat': '10:00-22:00', 'Sun': '10:00-22:00'}}", 054-775-7770,38069,1121,Gyeongsangbuk-do,https://www.shinsegaefood.com/nobrandburger/store/store.sf
 경기도화성시향남읍상신하길로298번길7-21105호,Shinesegaefood,Hwaseong-si,Korea,"{'brand': 'Shinesegaefood', 'fascia': 'Shinesegaefood', 'category': 'Rstaurant', 'edit_date': '20250607', 'lat_lon_source': 'Third Party'}",37.1151722,126.9124754,Shinesegaefood 화성향남지구점,"{'opening_hours': {'Mon': '10:00-22:00', 'Tue': '10:00-22:00', 'Wed': '10:00-22:00', 'Thu': '10:00-22:00', 'Fri': '10:00-22:00', 'Sat': '10:00-22:00', 'Sun': '10:00-22:00'}}", 031-366-1920,18611,1127,Gyeonggi-do,https://www.shinsegaefood.com/nobrandburger/store/store.sf
"경북김천시혁신3로15율곡스퀘어105,106호(1층)",Shinesegaefood,Gimcheon-si,Korea,"{'brand': 'Shinesegaefood', 'fascia': 'Shinesegaefood', 'category': 'Rstaurant', 'edit_date': '20250607', 'lat_lon_source': 'Third Party'}",36.1173178,128.1829268,Shinesegaefood 김천혁신도시점,"{'opening_hours': {'Mon': '10:00-22:00', 'Tue': '10:00-22:00', 'Wed': '10:00-22:00', 'Thu': '10:00-22:00', 'Fri': '10:00-22:00', 'Sat': '10:00-22:00', 'Sun': '10:00-22:00'}}",054-436-4588,39660,1131,Gyeongsangbuk-do,https://www.shinsegaefood.com/nobrandburger/store/store.sf
 경기도 하남시 미사강변동로85,Shinesegaefood,Hanam-si,Korea,"{'brand': 'Shinesegaefood', 'fascia': 'Shinesegaefood', 'category': 'Rstaurant', 'edit_date': '20250607', 'lat_lon_source': 'Third Party'}",37.5625320,127.1918814,Shinesegaefood 하남미사역점,"{'opening_hours': {'Mon': '', 'Tue': '', 'Wed': '', 'Thu': '', 'Fri': '', 'Sat': '', 'Sun': ''}}","
힐스테이트 에코미사 108, 109호 노브랜드버거",12913,1132,Gyeonggi-do,https://www.shinsegaefood.com/nobrandburger/store/store.sf
"인천광역시중구하늘중앙로193,1층112호(중산동,조양타워)",Shinesegaefood,Incheon,Korea,"{'brand': 'Shinesegaefood', 'fascia': 'Shinesegaefood', 'category': 'Rstaurant', 'edit_date': '20250607', 'lat_lon_source': 'Third Party'}",37.4903958,126.5606428,Shinesegaefood 영종하늘도시점,"{'opening_hours': {'Mon': '09:00-23:00', 'Tue': '09:00-23:00', 'Wed': '09:00-23:00', 'Thu': '09:00-23:00', 'Fri': '09:00-23:00', 'Sat': '09:00-23:00', 'Sun': '09:00-23:00'}}",032-747-0537,22397,1134,,https://www.shinsegaefood.com/nobrandburger/store/store.sf
" 부산광역시 북구 만덕1로 15, 1층",Shinesegaefood,Busan,Korea,"{'brand': 'Shinesegaefood', 'fascia': 'Shinesegaefood', 'category': 'Rstaurant', 'edit_date': '20250607', 'lat_lon_source': 'Third Party'}",35.2140103,129.0357780,Shinesegaefood 부산만덕점,"{'opening_hours': {'Mon': '10:00-22:00', 'Tue': '10:00-22:00', 'Wed': '10:00-22:00', 'Thu': '10:00-22:00', 'Fri': '10:00-22:00', 'Sat': '10:00-22:00', 'Sun': '10:00-22:00'}}", 051-337-5807,46561,1135,,https://www.shinsegaefood.com/nobrandburger/store/store.sf
"경기도안산시단원구영동고속도로15,안산휴게소주건축물제1동1층일부(선부동)",Shinesegaefood,"Danwon-gu, Ansan-si",Korea,"{'brand': 'Shinesegaefood', 'fascia': 'Shinesegaefood', 'category': 'Rstaurant', 'edit_date': '20250607', 'lat_lon_source': 'Third Party'}",37.3510562,126.8186215,Shinesegaefood 안산복합휴게소점,"{'opening_hours': {'Mon': '', 'Tue': '', 'Wed': '', 'Thu': '', 'Fri': '', 'Sat': '', 'Sun': ''}}", 031-482-7775,,1136,Gyeonggi-do,https://www.shinsegaefood.com/nobrandburger/store/store.sf
대전광역시서구문예로611층,Shinesegaefood,Daejeon,Korea,"{'brand': 'Shinesegaefood', 'fascia': 'Shinesegaefood', 'category': 'Rstaurant', 'edit_date': '20250607', 'lat_lon_source': 'Third Party'}",36.3521317,127.3898486,Shinesegaefood 대전시청점,"{'opening_hours': {'Mon': '', 'Tue': '', 'Wed': '', 'Thu': '', 'Fri': '', 'Sat': '', 'Sun': ''}}",042-478-6972,35240,1137,,https://www.shinsegaefood.com/nobrandburger/store/store.sf
세종시새롬중앙로62-15해피라움W107호,Shinesegaefood,Sejong-si,Korea,"{'brand': 'Shinesegaefood', 'fascia': 'Shinesegaefood', 'category': 'Rstaurant', 'edit_date': '20250607', 'lat_lon_source': 'Third Party'}",36.4869260,127.2512490,Shinesegaefood 세종새롬점,"{'opening_hours': {'Mon': '09:00-23:00', 'Tue': '09:00-23:00', 'Wed': '09:00-23:00', 'Thu': '09:00-23:00', 'Fri': '09:00-23:00', 'Sat': '09:00-23:00', 'Sun': '09:00-23:00'}}",044-868-9187,30127,1138,,https://www.shinsegaefood.com/nobrandburger/store/store.sf
" 대전광역시 중구 태평로 20, 수성빌딩 1층",Shinesegaefood,Daejeon,Korea,"{'brand': 'Shinesegaefood', 'fascia': 'Shinesegaefood', 'category': 'Rstaurant', 'edit_date': '20250607', 'lat_lon_source': 'Third Party'}",36.3185473,127.3923063,Shinesegaefood 대전태평점,"{'opening_hours': {'Mon': '10:00-22:00', 'Tue': '10:00-22:00', 'Wed': '10:00-22:00', 'Thu': '10:00-22:00', 'Fri': '10:00-22:00', 'Sat': '10:00-22:00', 'Sun': '10:00-22:00'}}", 042-535-0319,34890,1139,,https://www.shinsegaefood.com/nobrandburger/store/store.sf
 경북 포항시 북구 천마로 90 1층,Shinesegaefood,"Buk-gu, Pohang-si",Korea,"{'brand': 'Shinesegaefood', 'fascia': 'Shinesegaefood', 'category': 'Rstaurant', 'edit_date': '20250607', 'lat_lon_source': 'Third Party'}",36.0847787,129.3970584,Shinesegaefood 포항양덕점,"{'opening_hours': {'Mon': '10:00-22:00', 'Tue': '10:00-22:00', 'Wed': '10:00-22:00', 'Thu': '10:00-22:00', 'Fri': '10:00-22:00', 'Sat': '10:00-22:00', 'Sun': '10:00-22:00'}}", 054-243-7676,37589,1146,Gyeongsangbuk-do,https://www.shinsegaefood.com/nobrandburger/store/store.sf
" 대전광역시 서구 관저로 172 101, 101-1호",Shinesegaefood,Daejeon,Korea,"{'brand': 'Shinesegaefood', 'fascia': 'Shinesegaefood', 'category': 'Rstaurant', 'edit_date': '20250607', 'lat_lon_source': 'Third Party'}",36.2987609,127.3410305,Shinesegaefood 대전관저점,"{'opening_hours': {'Mon': '', 'Tue': '', 'Wed': '', 'Thu': '', 'Fri': '', 'Sat': '', 'Sun': ''}}", 042-543-1102,35379,1148,,https://www.shinsegaefood.com/nobrandburger/store/store.sf
" 경기도 광명시 광명로 825, 1층 (광명동)",Shinesegaefood,Gwangmyeong-si,Korea,"{'brand': 'Shinesegaefood', 'fascia': 'Shinesegaefood', 'category': 'Rstaurant', 'edit_date': '20250607', 'lat_lon_source': 'Third Party'}",37.4731429,126.8511412,Shinesegaefood 광명사거리점,"{'opening_hours': {'Mon': '10:00-22:00', 'Tue': '10:00-22:00', 'Wed': '10:00-22:00', 'Thu': '10:00-22:00', 'Fri': '10:00-22:00', 'Sat': '10:00-22:00', 'Sun': '10:00-22:00'}}", 02-2681-0860,14294,1151,Gyeonggi-do,https://www.shinsegaefood.com/nobrandburger/store/store.sf
" 인천광역시 서구 탁옥로 58, 1층(심곡동,영일빌딩)",Shinesegaefood,Incheon,Korea,"{'brand': 'Shinesegaefood', 'fascia': 'Shinesegaefood', 'category': 'Rstaurant', 'edit_date': '20250607', 'lat_lon_source': 'Third Party'}",37.5436377,126.6760750,Shinesegaefood 인천서구청점,"{'opening_hours': {'Mon': '09:00-22:00', 'Tue': '09:00-22:00', 'Wed': '09:00-22:00', 'Thu': '09:00-22:00', 'Fri': '09:00-22:00', 'Sat': '09:00-22:00', 'Sun': '09:00-22:00'}}", 032-563-2888,22726,1152,,https://www.shinsegaefood.com/nobrandburger/store/store.sf
" 충청남도 서산시 호수공원8로 7, 1층",Shinesegaefood,Seosan-si,Korea,"{'brand': 'Shinesegaefood', 'fascia': 'Shinesegaefood', 'category': 'Rstaurant', 'edit_date': '20250607', 'lat_lon_source': 'Third Party'}",36.7734743,126.4508402,Shinesegaefood 서산호수공원점,"{'opening_hours': {'Mon': '9:30-21:50', 'Tue': '9:30-21:50', 'Wed': '9:30-21:50', 'Thu': '9:30-21:50', 'Fri': '9:30-21:50', 'Sat': '9:30-21:50', 'Sun': '9:30-21:50'}}", 041-666-6615,31989,1153,Chungcheongnam-do,https://www.shinsegaefood.com/nobrandburger/store/store.sf
" 충청남도 아산시 탕정면 한들물빛5로 36,",Shinesegaefood,Asan-si,Korea,"{'brand': 'Shinesegaefood', 'fascia': 'Shinesegaefood', 'category': 'Rstaurant', 'edit_date': '20250607', 'lat_lon_source': 'Third Party'}",36.7858616,127.0868579,Shinesegaefood 아산탕정역점,"{'opening_hours': {'Mon': '', 'Tue': '', 'Wed': '', 'Thu': '', 'Fri': '', 'Sat': '', 'Sun': ''}}","
     H동 1층 102,103호",31465,1161,Chungcheongnam-do,https://www.shinsegaefood.com/nobrandburger/store/store.sf
 충청남도 천안시 서북구 번영로 100,Shinesegaefood,"Seobuk-gu, Cheonan-si",Korea,"{'brand': 'Shinesegaefood', 'fascia': 'Shinesegaefood', 'category': 'Rstaurant', 'edit_date': '20250607', 'lat_lon_source': 'Third Party'}",36.8102103,127.1085249,Shinesegaefood 천안불당점,"{'opening_hours': {'Mon': '10:00-22:00', 'Tue': '10:00-22:00', 'Wed': '10:00-22:00', 'Thu': '10:00-22:00', 'Fri': '10:00-22:00', 'Sat': '10:00-22:00', 'Sun': '10:00-22:00'}}", 041-561-7009,31163,1162,Chungcheongnam-do,https://www.shinsegaefood.com/nobrandburger/store/store.sf
" 충청남도 공주시 흑수골길 25, 1층 (신관동)",Shinesegaefood,Gongju-si,Korea,"{'brand': 'Shinesegaefood', 'fascia': 'Shinesegaefood', 'category': 'Rstaurant', 'edit_date': '20250607', 'lat_lon_source': 'Third Party'}",36.4735684,127.1402659,Shinesegaefood 공주신관점,"{'opening_hours': {'Mon': '09:00-22:00', 'Tue': '09:00-22:00', 'Wed': '09:00-22:00', 'Thu': '09:00-22:00', 'Fri': '09:00-22:00', 'Sat': '09:00-22:00', 'Sun': '09:00-22:00'}}", 041-852-7812,32582,1163,Chungcheongnam-do,https://www.shinsegaefood.com/nobrandburger/store/store.sf
"충북 청주시 흥덕구 대농로 56, 1층 101호",Shinesegaefood,"Heungdeok-gu, Cheongju-si",Korea,"{'brand': 'Shinesegaefood', 'fascia': 'Shinesegaefood', 'category': 'Rstaurant', 'edit_date': '20250607', 'lat_lon_source': 'Third Party'}",36.6415742,127.4284295,Shinesegaefood 청주지웰시티점,"{'opening_hours': {'Mon': '', 'Tue': '', 'Wed': '', 'Thu': '', 'Fri': '', 'Sat': '', 'Sun': ''}}", 043-231-9855,28427,1165,Chungcheongbuk-do,https://www.shinsegaefood.com/nobrandburger/store/store.sf
 충북 청주시 상당구 중고개로 141번길 13-2,Shinesegaefood,"Sangdang-gu, Cheongju-si",Korea,"{'brand': 'Shinesegaefood', 'fascia': 'Shinesegaefood', 'category': 'Rstaurant', 'edit_date': '20250607', 'lat_lon_source': 'Third Party'}",36.6167541, 127.5165158,Shinesegaefood 청주동남지구점,"{'opening_hours': {'Mon': '10:00-24:00', 'Tue': '10:00-24:00', 'Wed': '10:00-24:00', 'Thu': '10:00-24:00', 'Fri': '10:00-24:00', 'Sat': '10:00-24:00', 'Sun': '10:00-24:00'}}", 043-292-3023,28760,1166,Chungcheongbuk-do,https://www.shinsegaefood.com/nobrandburger/store/store.sf
 경북 안동시 삼산동 97-8 ,Shinesegaefood,Andong-si,Korea,"{'brand': 'Shinesegaefood', 'fascia': 'Shinesegaefood', 'category': 'Rstaurant', 'edit_date': '20250607', 'lat_lon_source': 'Third Party'}",36.5652632,128.7314200,Shinesegaefood 안동중앙점,"{'opening_hours': {'Mon': '10:00-22:00', 'Tue': '10:00-22:00', 'Wed': '10:00-22:00', 'Thu': '10:00-22:00', 'Fri': '10:00-22:00', 'Sat': '10:00-22:00', 'Sun': '10:00-22:00'}}", 054-856-0007,36701,1168,Gyeongsangbuk-do,https://www.shinsegaefood.com/nobrandburger/store/store.sf
" 서울시 도봉구 덕릉로 251, 1층(창동)",Shinesegaefood,Seoul,Korea,"{'brand': 'Shinesegaefood', 'fascia': 'Shinesegaefood', 'category': 'Rstaurant', 'edit_date': '20250607', 'lat_lon_source': 'Third Party'}",37.6401675,127.0391683,Shinesegaefood 신창점,"{'opening_hours': {'Mon': '', 'Tue': '', 'Wed': '', 'Thu': '', 'Fri': '', 'Sat': '', 'Sun': ''}}", 02-998-2555,01470,1169,,https://www.shinsegaefood.com/nobrandburger/store/store.sf
" 인천광역시 서구 이음5로 20,",Shinesegaefood,Incheon,Korea,"{'brand': 'Shinesegaefood', 'fascia': 'Shinesegaefood', 'category': 'Rstaurant', 'edit_date': '20250607', 'lat_lon_source': 'Third Party'}",37.5937415,126.7099313,Shinesegaefood 인천검단신도시점 ,"{'opening_hours': {'Mon': '', 'Tue': '', 'Wed': '', 'Thu': '', 'Fri': '', 'Sat': '', 'Sun': ''}}","
     연세8차 프라자 104호, 105호(원당동,연세프라자 8차)",22626,1171,,https://www.shinsegaefood.com/nobrandburger/store/store.sf
" 대전광역시 대덕구 송촌북로 36번길 18, 101호",Shinesegaefood,Daejeon,Korea,"{'brand': 'Shinesegaefood', 'fascia': 'Shinesegaefood', 'category': 'Rstaurant', 'edit_date': '20250607', 'lat_lon_source': 'Third Party'}",36.3656717,127.4373303,Shinesegaefood 대전송촌점,"{'opening_hours': {'Mon': '10:00-22:00', 'Tue': '10:00-22:00', 'Wed': '10:00-22:00', 'Thu': '10:00-22:00', 'Fri': '10:00-22:00', 'Sat': '10:00-22:00', 'Sun': '10:00-22:00'}}", 042-636-2452,34408,1177,,https://www.shinsegaefood.com/nobrandburger/store/store.sf
" 경기도 안양시 동안구 평촌대로 122 1층 101호 , 103호",Shinesegaefood,"Dongan-gu, Anyang-si",Korea,"{'brand': 'Shinesegaefood', 'fascia': 'Shinesegaefood', 'category': 'Rstaurant', 'edit_date': '20250607', 'lat_lon_source': 'Third Party'}",37.3833764,126.9607486,Shinesegaefood 안양평촌학원가점,"{'opening_hours': {'Mon': '09:00-22:30', 'Tue': '09:00-22:30', 'Wed': '09:00-22:30', 'Thu': '09:00-22:30', 'Fri': '09:00-22:30', 'Sat': '09:00-22:30', 'Sun': '09:00-22:30'}}", 031-381-6629,14103,1178,Gyeonggi-do,https://www.shinsegaefood.com/nobrandburger/store/store.sf
" 경기도 안산시 상록구 샘골로 168,",Shinesegaefood,"Sangnok-gu, Ansan-si",Korea,"{'brand': 'Shinesegaefood', 'fascia': 'Shinesegaefood', 'category': 'Rstaurant', 'edit_date': '20250607', 'lat_lon_source': 'Third Party'}",37.2987936,126.8634569,Shinesegaefood 안산본오점,"{'opening_hours': {'Mon': '', 'Tue': '', 'Wed': '', 'Thu': '', 'Fri': '', 'Sat': '', 'Sun': ''}}","
    대송프라자 1층 103호일부,104호,105호(본오동)",15538,1179,Gyeonggi-do,https://www.shinsegaefood.com/nobrandburger/store/store.sf
 경기도 성남시 야탑동 361-6 대덕프라자 2층,Shinesegaefood,"Bundang-gu, Seongnam-si",Korea,"{'brand': 'Shinesegaefood', 'fascia': 'Shinesegaefood', 'category': 'Rstaurant', 'edit_date': '20250607', 'lat_lon_source': 'Third Party'}",37.4120796,127.1298674,Shinesegaefood 분당야탑점,"{'opening_hours': {'Mon': '11:00-23:00', 'Tue': '11:00-23:00', 'Wed': '11:00-23:00', 'Thu': '11:00-23:00', 'Fri': '11:00-23:00', 'Sat': '11:00-23:00', 'Sun': '11:00-23:00'}}", 031-707-7750,13506,1180,Gyeonggi-do,https://www.shinsegaefood.com/nobrandburger/store/store.sf
" 세종특별시 보듬3로 101 105,106호",Shinesegaefood,Sejong-si,Korea,"{'brand': 'Shinesegaefood', 'fascia': 'Shinesegaefood', 'category': 'Rstaurant', 'edit_date': '20250607', 'lat_lon_source': 'Third Party'}",36.5114037,127.2484095,Shinesegaefood 세종아름점,"{'opening_hours': {'Mon': '10:00-22:00', 'Tue': '10:00-22:00', 'Wed': '10:00-22:00', 'Thu': '10:00-22:00', 'Fri': '10:00-22:00', 'Sat': '10:00-22:00', 'Sun': '10:00-22:00'}}", 044-863-7904,30100,1181,,https://www.shinsegaefood.com/nobrandburger/store/store.sf
" 전라북도 전주시 완산구 홍산중앙로 19, 103호",Shinesegaefood,"Wansan-gu, Jeonju-si",Korea,"{'brand': 'Shinesegaefood', 'fascia': 'Shinesegaefood', 'category': 'Rstaurant', 'edit_date': '20250607', 'lat_lon_source': 'Third Party'}",35.8153788,127.1087749,Shinesegaefood 전북도청점,"{'opening_hours': {'Mon': '10:00-22:00', 'Tue': '10:00-22:00', 'Wed': '10:00-22:00', 'Thu': '10:00-22:00', 'Fri': '10:00-22:00', 'Sat': '10:00-22:00', 'Sun': '10:00-22:00'}}", 063-223-2272,54969,1182,Jeollabuk-do,https://www.shinsegaefood.com/nobrandburger/store/store.sf
" 부산광역시남구분포로61,",Shinesegaefood,Busan,Korea,"{'brand': 'Shinesegaefood', 'fascia': 'Shinesegaefood', 'category': 'Rstaurant', 'edit_date': '20250607', 'lat_lon_source': 'Third Party'}",35.1312916,129.1119057,Shinesegaefood 부산용호점,"{'opening_hours': {'Mon': '', 'Tue': '', 'Wed': '', 'Thu': '', 'Fri': '', 'Sat': '', 'Sun': ''}}","
    B동1층139,140,141호(용호동,빌리브센트로)",48516,1183,,https://www.shinsegaefood.com/nobrandburger/store/store.sf
 충북 청주시 흥덕구 2순환로 1240 MK빌딩 101호,Shinesegaefood,"Heungdeok-gu, Cheongju-si",Korea,"{'brand': 'Shinesegaefood', 'fascia': 'Shinesegaefood', 'category': 'Rstaurant', 'edit_date': '20250607', 'lat_lon_source': 'Third Party'}",36.6254731,127.4300781,Shinesegaefood 청주터미널점,"{'opening_hours': {'Mon': '10:00-24:30', 'Tue': '10:00-24:30', 'Wed': '10:00-24:30', 'Thu': '10:00-24:30', 'Fri': '10:00-24:30', 'Sat': '10:00-24:30', 'Sun': '10:00-24:30'}}", 043-233-0471,28377,1185,Chungcheongbuk-do,https://www.shinsegaefood.com/nobrandburger/store/store.sf
" 전라북도 군산시 수송로 207 1층, 102호",Shinesegaefood,Gunsan-si,Korea,"{'brand': 'Shinesegaefood', 'fascia': 'Shinesegaefood', 'category': 'Rstaurant', 'edit_date': '20250607', 'lat_lon_source': 'Third Party'}",35.9642571,126.7181689,Shinesegaefood 군산수송점,"{'opening_hours': {'Mon': '10:00-22:40', 'Tue': '10:00-22:40', 'Wed': '10:00-22:40', 'Thu': '10:00-22:40', 'Fri': '10:00-22:40', 'Sat': '10:00-22:40', 'Sun': '10:00-22:40'}}", 063-462-8980,54100,1187,Jeollabuk-do,https://www.shinsegaefood.com/nobrandburger/store/store.sf
 전남여수시 여서1로 58 1층,Shinesegaefood,Yeosu-si,Korea,"{'brand': 'Shinesegaefood', 'fascia': 'Shinesegaefood', 'category': 'Rstaurant', 'edit_date': '20250607', 'lat_lon_source': 'Third Party'}",34.7524826,127.7035546,Shinesegaefood 여수여서점,"{'opening_hours': {'Mon': '10:00-23:00', 'Tue': '10:00-23:00', 'Wed': '10:00-23:00', 'Thu': '10:00-23:00', 'Fri': '10:00-23:00', 'Sat': '10:00-23:00', 'Sun': '10:00-23:00'}}", 061-652-9730,59708,1188,Jeollanam-do,https://www.shinsegaefood.com/nobrandburger/store/store.sf
" 광주 광산구 첨단중앙로 102, 104호",Shinesegaefood,Gwangju,Korea,"{'brand': 'Shinesegaefood', 'fascia': 'Shinesegaefood', 'category': 'Rstaurant', 'edit_date': '20250607', 'lat_lon_source': 'Third Party'}",35.2142953,126.8433287,Shinesegaefood 광주첨단점,"{'opening_hours': {'Mon': '10:00-22:00', 'Tue': '10:00-22:00', 'Wed': '10:00-22:00', 'Thu': '10:00-22:00', 'Fri': '10:00-22:00', 'Sat': '10:00-22:00', 'Sun': '10:00-22:00'}}", 062-973-4131,62276,1189,,https://www.shinsegaefood.com/nobrandburger/store/store.sf
 서울시 관악구 호암로 600 하니빌딩 1층,Shinesegaefood,Seoul,Korea,"{'brand': 'Shinesegaefood', 'fascia': 'Shinesegaefood', 'category': 'Rstaurant', 'edit_date': '20250607', 'lat_lon_source': 'Third Party'}",37.4706635,126.9337697,Shinesegaefood 신림남부점,"{'opening_hours': {'Mon': '10:00-22:00', 'Tue': '10:00-22:00', 'Wed': '10:00-22:00', 'Thu': '10:00-22:00', 'Fri': '10:00-22:00', 'Sat': '10:00-22:00', 'Sun': '10:00-22:00'}}", 02-882-7180,08812,1190,,https://www.shinsegaefood.com/nobrandburger/store/store.sf
" 전라북도 완주군 이서면 출판로 50, 106호",Shinesegaefood,Wanju-gun,Korea,"{'brand': 'Shinesegaefood', 'fascia': 'Shinesegaefood', 'category': 'Rstaurant', 'edit_date': '20250607', 'lat_lon_source': 'Third Party'}",35.8393768,127.0581651,Shinesegaefood 전주혁신점,"{'opening_hours': {'Mon': '10:00-22:00', 'Tue': '10:00-22:00', 'Wed': '10:00-22:00', 'Thu': '10:00-22:00', 'Fri': '10:00-22:00', 'Sat': '10:00-22:00', 'Sun': '10:00-22:00'}}", 063-236-2819,55365,1192,Jeollabuk-do,https://www.shinsegaefood.com/nobrandburger/store/store.sf
 충북 충주시 호암수청1로 60 제일풍경채 상가 101호,Shinesegaefood,Chungju-si,Korea,"{'brand': 'Shinesegaefood', 'fascia': 'Shinesegaefood', 'category': 'Rstaurant', 'edit_date': '20250607', 'lat_lon_source': 'Third Party'}",36.9572149,127.9269594,Shinesegaefood 충주호암점,"{'opening_hours': {'Mon': '10:00-22:00', 'Tue': '10:00-22:00', 'Wed': '10:00-22:00', 'Thu': '10:00-22:00', 'Fri': '10:00-22:00', 'Sat': '10:00-22:00', 'Sun': '10:00-22:00'}}", 043-854-7767,,1193,Chungcheongbuk-do,https://www.shinsegaefood.com/nobrandburger/store/store.sf
 충남 홍성군 홍북읍 청사로150번길 19-11 103~4호,Shinesegaefood,Hongseong-gun,Korea,"{'brand': 'Shinesegaefood', 'fascia': 'Shinesegaefood', 'category': 'Rstaurant', 'edit_date': '20250607', 'lat_lon_source': 'Third Party'}",36.6582572,126.6805540,Shinesegaefood 충남도청점,"{'opening_hours': {'Mon': '9:30-21:30', 'Tue': '9:30-21:30', 'Wed': '9:30-21:30', 'Thu': '9:30-21:30', 'Fri': '9:30-21:30', 'Sat': '9:30-21:30', 'Sun': '9:30-21:30'}}", 041-634-2409,32256,1195,Chungcheongnam-do,https://www.shinsegaefood.com/nobrandburger/store/store.sf
" 서울시 송파구 위례광장로 136,",Shinesegaefood,Seoul,Korea,"{'brand': 'Shinesegaefood', 'fascia': 'Shinesegaefood', 'category': 'Rstaurant', 'edit_date': '20250607', 'lat_lon_source': 'Third Party'}",37.4764950,127.1422214,Shinesegaefood 위례점,"{'opening_hours': {'Mon': '', 'Tue': '', 'Wed': '', 'Thu': '', 'Fri': '', 'Sat': '', 'Sun': ''}}","
     아이파크D동 상가 1층 102호",05853,1196,,https://www.shinsegaefood.com/nobrandburger/store/store.sf
" 광주광역시 남구 봉선중앙로 21, 1층",Shinesegaefood,Gwangju,Korea,"{'brand': 'Shinesegaefood', 'fascia': 'Shinesegaefood', 'category': 'Rstaurant', 'edit_date': '20250607', 'lat_lon_source': 'Third Party'}",35.1232546,126.9125963,Shinesegaefood 광주봉선점,"{'opening_hours': {'Mon': '', 'Tue': '', 'Wed': '', 'Thu': '', 'Fri': '', 'Sat': '', 'Sun': ''}}", 062-682-1777,61684,1197,,https://www.shinsegaefood.com/nobrandburger/store/store.sf
" 부산광역시 강서구 명지국제2로 23번길 3,",Shinesegaefood,Busan,Korea,"{'brand': 'Shinesegaefood', 'fascia': 'Shinesegaefood', 'category': 'Rstaurant', 'edit_date': '20250607', 'lat_lon_source': 'Third Party'}",35.0941549,128.9061493,Shinesegaefood 부산명지점,"{'opening_hours': {'Mon': '', 'Tue': '', 'Wed': '', 'Thu': '', 'Fri': '', 'Sat': '', 'Sun': ''}}","
    동건프라자 105호",46726,1199,,https://www.shinsegaefood.com/nobrandburger/store/store.sf
 충청남도 부여군 부여읍 석탑로 65 1층,Shinesegaefood,Buyeo-gun,Korea,"{'brand': 'Shinesegaefood', 'fascia': 'Shinesegaefood', 'category': 'Rstaurant', 'edit_date': '20250607', 'lat_lon_source': 'Third Party'}",36.2819543,126.9124260,Shinesegaefood 충남부여점,"{'opening_hours': {'Mon': '09:30-21:00', 'Tue': '09:30-21:00', 'Wed': '09:30-21:00', 'Thu': '09:30-21:00', 'Fri': '09:30-21:00', 'Sat': '09:30-21:00', 'Sun': '09:30-21:00'}}", 041-836-2452,33146,1200,Chungcheongnam-do,https://www.shinsegaefood.com/nobrandburger/store/store.sf
"경기도양주시덕계로132-14101호,102호(덕계동,정민타운)",Shinesegaefood,Yangju-si,Korea,"{'brand': 'Shinesegaefood', 'fascia': 'Shinesegaefood', 'category': 'Rstaurant', 'edit_date': '20250607', 'lat_lon_source': 'Third Party'}",37.8188939,127.0553498,Shinesegaefood 양주덕계점,"{'opening_hours': {'Mon': '10:00-22:00', 'Tue': '10:00-22:00', 'Wed': '10:00-22:00', 'Thu': '10:00-22:00', 'Fri': '10:00-22:00', 'Sat': '10:00-22:00', 'Sun': '10:00-22:00'}}",031-868-0622,,1201,Gyeonggi-do,https://www.shinsegaefood.com/nobrandburger/store/store.sf
"전남여수시화양면소장길22,주1동2층",Shinesegaefood,Yeosu-si,Korea,"{'brand': 'Shinesegaefood', 'fascia': 'Shinesegaefood', 'category': 'Rstaurant', 'edit_date': '20250607', 'lat_lon_source': 'Third Party'}",34.6930271,127.6139027,Shinesegaefood 여수챌린지파크점(임시휴무),"{'opening_hours': {'Mon': '10:00-18:00', 'Tue': '10:00-18:00', 'Wed': '10:00-18:00', 'Thu': '10:00-18:00', 'Fri': '10:00-18:00', 'Sat': '10:00-18:00', 'Sun': '10:00-18:00'}}",1533-1919,59779,1202,Jeollanam-do,https://www.shinsegaefood.com/nobrandburger/store/store.sf
" 충청남도 천안시 서북구 삼성대로 20, 이마트천안서북점 1층",Shinesegaefood,"Seobuk-gu, Cheonan-si",Korea,"{'brand': 'Shinesegaefood', 'fascia': 'Shinesegaefood', 'category': 'Rstaurant', 'edit_date': '20250607', 'lat_lon_source': 'Third Party'}",36.8385820,127.1224038,Shinesegaefood 이마트천안서북점,"{'opening_hours': {'Mon': '10:00-20:50', 'Tue': '10:00-20:50', 'Wed': '10:00-20:50', 'Thu': '10:00-20:50', 'Fri': '10:00-20:50', 'Sat': '10:00-20:50', 'Sun': '10:00-20:50'}}", 041-558-9123,31087,1203,Chungcheongnam-do,https://www.shinsegaefood.com/nobrandburger/store/store.sf
 전남 목포시 북항로 188(산정동),Shinesegaefood,Mokpo-si,Korea,"{'brand': 'Shinesegaefood', 'fascia': 'Shinesegaefood', 'category': 'Rstaurant', 'edit_date': '20250607', 'lat_lon_source': 'Third Party'}",34.8050192,126.3660074,Shinesegaefood 목포북항점,"{'opening_hours': {'Mon': '10:00-22:00', 'Tue': '10:00-22:00', 'Wed': '10:00-22:00', 'Thu': '10:00-22:00', 'Fri': '10:00-22:00', 'Sat': '10:00-22:00', 'Sun': '10:00-22:00'}}", 061-279-9989,58624,1204,Jeollanam-do,https://www.shinsegaefood.com/nobrandburger/store/store.sf
 서울특별시 은평구 통일로 827-1(대조동),Shinesegaefood,Seoul,Korea,"{'brand': 'Shinesegaefood', 'fascia': 'Shinesegaefood', 'category': 'Rstaurant', 'edit_date': '20250607', 'lat_lon_source': 'Third Party'}",37.6173396,126.9223280,Shinesegaefood 연신내역점,"{'opening_hours': {'Mon': '10:00-22:30', 'Tue': '10:00-22:30', 'Wed': '10:00-22:30', 'Thu': '10:00-22:30', 'Fri': '10:00-22:30', 'Sat': '10:00-22:30', 'Sun': '10:00-22:30'}}", 02-351-4548,03385,1205,,https://www.shinsegaefood.com/nobrandburger/store/store.sf
 광주광역시 서구 치평로 76 대한빌딩 1층,Shinesegaefood,Gwangju,Korea,"{'brand': 'Shinesegaefood', 'fascia': 'Shinesegaefood', 'category': 'Rstaurant', 'edit_date': '20250607', 'lat_lon_source': 'Third Party'}",35.1541202,126.8477619,Shinesegaefood 광주상무점,"{'opening_hours': {'Mon': '08:00-23:30', 'Tue': '08:00-23:30', 'Wed': '08:00-23:30', 'Thu': '08:00-23:30', 'Fri': '08:00-23:30', 'Sat': '08:00-23:30', 'Sun': '08:00-23:30'}}", 062-372-2101,61950,1207,,https://www.shinsegaefood.com/nobrandburger/store/store.sf
 광주광역시 동구 지산로11,Shinesegaefood,Gwangju,Korea,"{'brand': 'Shinesegaefood', 'fascia': 'Shinesegaefood', 'category': 'Rstaurant', 'edit_date': '20250607', 'lat_lon_source': 'Third Party'}",35.1451710,126.9305594,Shinesegaefood 광주조선대점,"{'opening_hours': {'Mon': '10:00-24:00', 'Tue': '10:00-24:00', 'Wed': '10:00-24:00', 'Thu': '10:00-24:00', 'Fri': '10:00-24:00', 'Sat': '10:00-24:00', 'Sun': '10:00-24:00'}}", 062-222-1225,61449,1208,,https://www.shinsegaefood.com/nobrandburger/store/store.sf
" 광주광역시 광산구 임방울대로 360, 101호, 102호(수완동)",Shinesegaefood,Gwangju,Korea,"{'brand': 'Shinesegaefood', 'fascia': 'Shinesegaefood', 'category': 'Rstaurant', 'edit_date': '20250607', 'lat_lon_source': 'Third Party'}",35.1920059,126.8243764,Shinesegaefood 광주수완점,"{'opening_hours': {'Mon': '10:30-23:45', 'Tue': '10:30-23:45', 'Wed': '10:30-23:45', 'Thu': '10:30-23:45', 'Fri': '10:30-23:45', 'Sat': '10:30-23:45', 'Sun': '10:30-23:45'}}", 062-972-0077,62247,1209,,https://www.shinsegaefood.com/nobrandburger/store/store.sf
" 충북 진천 덕산읍 대하로 133 G플레이스 1층 105,106호",Shinesegaefood,Jincheon-gun,Korea,"{'brand': 'Shinesegaefood', 'fascia': 'Shinesegaefood', 'category': 'Rstaurant', 'edit_date': '20250607', 'lat_lon_source': 'Third Party'}",36.9029328,127.5341831,Shinesegaefood 충북혁신도시점,"{'opening_hours': {'Mon': '10:00-23:00', 'Tue': '10:00-23:00', 'Wed': '10:00-23:00', 'Thu': '10:00-23:00', 'Fri': '10:00-23:00', 'Sat': '10:00-23:00', 'Sun': '10:00-23:00'}}", 043-533-5331,27871,1210,Chungcheongbuk-do,https://www.shinsegaefood.com/nobrandburger/store/store.sf
 광주광역시 북구 우치로 90,Shinesegaefood,Gwangju,Korea,"{'brand': 'Shinesegaefood', 'fascia': 'Shinesegaefood', 'category': 'Rstaurant', 'edit_date': '20250607', 'lat_lon_source': 'Third Party'}",35.1754010,126.9127421,Shinesegaefood 광주전남대점,"{'opening_hours': {'Mon': '09:30-24:00', 'Tue': '09:30-24:00', 'Wed': '09:30-24:00', 'Thu': '09:30-24:00', 'Fri': '09:30-24:00', 'Sat': '09:30-24:00', 'Sun': '09:30-24:00'}}", 062-262-1189,61189,1211,,https://www.shinsegaefood.com/nobrandburger/store/store.sf
 경북 안동시 옥동 790-7,Shinesegaefood,Andong-si,Korea,"{'brand': 'Shinesegaefood', 'fascia': 'Shinesegaefood', 'category': 'Rstaurant', 'edit_date': '20250607', 'lat_lon_source': 'Third Party'}",36.5619646,128.7013193,Shinesegaefood 안동옥동점,"{'opening_hours': {'Mon': '10:00-22:00', 'Tue': '10:00-22:00', 'Wed': '10:00-22:00', 'Thu': '10:00-22:00', 'Fri': '10:00-22:00', 'Sat': '10:00-22:00', 'Sun': '10:00-22:00'}}", 054) 853-6019,36664,1212,Gyeongsangbuk-do,https://www.shinsegaefood.com/nobrandburger/store/store.sf
"전라북도전주시덕진구세병로12,102,103호(송천동2가,더퍼스트빌딩)",Shinesegaefood,"Deokjin-gu, Jeonju-si",Korea,"{'brand': 'Shinesegaefood', 'fascia': 'Shinesegaefood', 'category': 'Rstaurant', 'edit_date': '20250607', 'lat_lon_source': 'Third Party'}",35.8751900,127.1271369,Shinesegaefood 전주에코시티점,"{'opening_hours': {'Mon': '10:00-22:00', 'Tue': '10:00-22:00', 'Wed': '10:00-22:00', 'Thu': '10:00-22:00', 'Fri': '10:00-22:00', 'Sat': '10:00-22:00', 'Sun': '10:00-22:00'}}",063-901-3456,55149,1213,Jeollabuk-do,https://www.shinsegaefood.com/nobrandburger/store/store.sf
" 광주광역시북구서하로373,1층",Shinesegaefood,Gwangju,Korea,"{'brand': 'Shinesegaefood', 'fascia': 'Shinesegaefood', 'category': 'Rstaurant', 'edit_date': '20250607', 'lat_lon_source': 'Third Party'}",35.1860904,126.9212801,Shinesegaefood 광주문흥점,"{'opening_hours': {'Mon': '10:00-22:00', 'Tue': '10:00-22:00', 'Wed': '10:00-22:00', 'Thu': '10:00-22:00', 'Fri': '10:00-22:00', 'Sat': '10:00-22:00', 'Sun': '10:00-22:00'}}", 062-265-0507,61129,1214,,https://www.shinsegaefood.com/nobrandburger/store/store.sf
" 충남 아산시 배방읍 월천6길 47, 1층 JS타워 103호",Shinesegaefood,Asan-si,Korea,"{'brand': 'Shinesegaefood', 'fascia': 'Shinesegaefood', 'category': 'Rstaurant', 'edit_date': '20250607', 'lat_lon_source': 'Third Party'}",36.7709733,127.0781925,Shinesegaefood 아산배방점,"{'opening_hours': {'Mon': '10:00-22:00', 'Tue': '10:00-22:00', 'Wed': '10:00-22:00', 'Thu': '10:00-22:00', 'Fri': '10:00-22:00', 'Sat': '10:00-22:00', 'Sun': '10:00-22:00'}}", 041-533-8690,,1215,Chungcheongnam-do,https://www.shinsegaefood.com/nobrandburger/store/store.sf
" 광주광역시광산구용아로399번길51,1층",Shinesegaefood,Gwangju,Korea,"{'brand': 'Shinesegaefood', 'fascia': 'Shinesegaefood', 'category': 'Rstaurant', 'edit_date': '20250607', 'lat_lon_source': 'Third Party'}",35.1771380,126.8031269,Shinesegaefood 광주하남2지구점,"{'opening_hours': {'Mon': '10:00-22:00', 'Tue': '10:00-22:00', 'Wed': '10:00-22:00', 'Thu': '10:00-22:00', 'Fri': '10:00-22:00', 'Sat': '10:00-22:00', 'Sun': '10:00-22:00'}}", 062-962-6900,62336,1216,,https://www.shinsegaefood.com/nobrandburger/store/store.sf
" 서울특별시중구필동로1길30,1층(동국대학교상록원)",Shinesegaefood,Seoul,Korea,"{'brand': 'Shinesegaefood', 'fascia': 'Shinesegaefood', 'category': 'Rstaurant', 'edit_date': '20250607', 'lat_lon_source': 'Third Party'}",37.5582582,127.0001869,Shinesegaefood 동국대점,"{'opening_hours': {'Mon': '', 'Tue': '', 'Wed': '', 'Thu': '', 'Fri': '', 'Sat': '', 'Sun': ''}}", 02-2260-8966,04605,1217,,https://www.shinsegaefood.com/nobrandburger/store/store.sf
" 강원도춘천시후석로120,엔타1층111호",Shinesegaefood,Chuncheon-si,Korea,"{'brand': 'Shinesegaefood', 'fascia': 'Shinesegaefood', 'category': 'Rstaurant', 'edit_date': '20250607', 'lat_lon_source': 'Third Party'}",37.8633018,127.7482199,Shinesegaefood 춘천엔타점,"{'opening_hours': {'Mon': '10:00-21:00', 'Tue': '10:00-21:00', 'Wed': '10:00-21:00', 'Thu': '10:00-21:00', 'Fri': '10:00-21:00', 'Sat': '10:00-21:00', 'Sun': '10:00-21:00'}}", 033-262-2204,24326,1218,Gangwon-do,https://www.shinsegaefood.com/nobrandburger/store/store.sf
 경북영천시호국로73,Shinesegaefood,Yeongcheon-si,Korea,"{'brand': 'Shinesegaefood', 'fascia': 'Shinesegaefood', 'category': 'Rstaurant', 'edit_date': '20250607', 'lat_lon_source': 'Third Party'}",35.9741778,128.9455656,Shinesegaefood 경북영천점,"{'opening_hours': {'Mon': '10:00-22:00', 'Tue': '10:00-22:00', 'Wed': '10:00-22:00', 'Thu': '10:00-22:00', 'Fri': '10:00-22:00', 'Sat': '10:00-22:00', 'Sun': '10:00-22:00'}}", 054-338-1082,38859,1219,Gyeongsangbuk-do,https://www.shinsegaefood.com/nobrandburger/store/store.sf
" 강원도원주시서원대로171,1층",Shinesegaefood,Wonju-si,Korea,"{'brand': 'Shinesegaefood', 'fascia': 'Shinesegaefood', 'category': 'Rstaurant', 'edit_date': '20250607', 'lat_lon_source': 'Third Party'}",37.3448152,127.9308917,Shinesegaefood 원주터미널점,"{'opening_hours': {'Mon': '08:00-22:00', 'Tue': '08:00-22:00', 'Wed': '08:00-22:00', 'Thu': '08:00-22:00', 'Fri': '08:00-22:00', 'Sat': '08:00-22:00', 'Sun': '08:00-22:00'}}", 033-738-9335,26436,1220,Gangwon-do,https://www.shinsegaefood.com/nobrandburger/store/store.sf
"경기도평택시포승읍여술2길14-1,1층",Shinesegaefood,,Korea,"{'brand': 'Shinesegaefood', 'fascia': 'Shinesegaefood', 'category': 'Rstaurant', 'edit_date': '20250607', 'lat_lon_source': 'Third Party'}",-,-,Shinesegaefood 평택포승점,"{'opening_hours': {'Mon': '10:00-23:00', 'Tue': '10:00-23:00', 'Wed': '10:00-23:00', 'Thu': '10:00-23:00', 'Fri': '10:00-23:00', 'Sat': '10:00-23:00', 'Sun': '10:00-23:00'}}",010-4881-6426,,1222,,https://www.shinsegaefood.com/nobrandburger/store/store.sf
 서울특별시성북구서경로124(정릉동)청운관1층,Shinesegaefood,,Korea,"{'brand': 'Shinesegaefood', 'fascia': 'Shinesegaefood', 'category': 'Rstaurant', 'edit_date': '20250607', 'lat_lon_source': 'Third Party'}",-,-,Shinesegaefood 서경대점,"{'opening_hours': {'Mon': '', 'Tue': '', 'Wed': '', 'Thu': '', 'Fri': '', 'Sat': '', 'Sun': ''}}", 02-909-2003,,1223,,https://www.shinsegaefood.com/nobrandburger/store/store.sf
" 전라남도무안군삼향읍대죽동로23,1층",Shinesegaefood,,Korea,"{'brand': 'Shinesegaefood', 'fascia': 'Shinesegaefood', 'category': 'Rstaurant', 'edit_date': '20250607', 'lat_lon_source': 'Third Party'}",-,-,Shinesegaefood 무안남악점,"{'opening_hours': {'Mon': '10:00-22:00', 'Tue': '10:00-22:00', 'Wed': '10:00-22:00', 'Thu': '10:00-22:00', 'Fri': '10:00-22:00', 'Sat': '10:00-22:00', 'Sun': '10:00-22:00'}}", 061-285-2979,,1224,,https://www.shinsegaefood.com/nobrandburger/store/store.sf
" 서울특별시은평구가좌로325,1층(신사동)",Shinesegaefood,,Korea,"{'brand': 'Shinesegaefood', 'fascia': 'Shinesegaefood', 'category': 'Rstaurant', 'edit_date': '20250607', 'lat_lon_source': 'Third Party'}",-,-,Shinesegaefood 은평신사점,"{'opening_hours': {'Mon': '10:00-22:00', 'Tue': '10:00-22:00', 'Wed': '10:00-22:00', 'Thu': '10:00-22:00', 'Fri': '10:00-22:00', 'Sat': '10:00-22:00', 'Sun': '10:00-22:00'}}", 02-304-2256,,1225,,https://www.shinsegaefood.com/nobrandburger/store/store.sf
 경기도화성시동탄순환대로12길71층,Shinesegaefood,Hwaseong-si,Korea,"{'brand': 'Shinesegaefood', 'fascia': 'Shinesegaefood', 'category': 'Rstaurant', 'edit_date': '20250607', 'lat_lon_source': 'Third Party'}",37.1692411,127.1195016,Shinesegaefood 동탄산척점,"{'opening_hours': {'Mon': '10:00-22:00', 'Tue': '10:00-22:00', 'Wed': '10:00-22:00', 'Thu': '10:00-22:00', 'Fri': '10:00-22:00', 'Sat': '10:00-22:00', 'Sun': '10:00-22:00'}}", 031-377-8311,,1226,Gyeonggi-do,https://www.shinsegaefood.com/nobrandburger/store/store.sf
"경상남도창원시성산구원이대로608,이마트창원점1층",Shinesegaefood,"Seongsan-gu, Changwon-si",Korea,"{'brand': 'Shinesegaefood', 'fascia': 'Shinesegaefood', 'category': 'Rstaurant', 'edit_date': '20250607', 'lat_lon_source': 'Third Party'}",35.2265683,128.6801664,Shinesegaefood 이마트창원점,"{'opening_hours': {'Mon': '10:00-22:00', 'Tue': '10:00-22:00', 'Wed': '10:00-22:00', 'Thu': '10:00-22:00', 'Fri': '10:00-22:00', 'Sat': '10:00-22:00', 'Sun': '10:00-22:00'}}", 010-4802-6677,51514,1227,Gyeongsangnam-do,https://www.shinsegaefood.com/nobrandburger/store/store.sf
" 경기도군포시산본로347,이마트산본점3층",Shinesegaefood,Gunpo-si,Korea,"{'brand': 'Shinesegaefood', 'fascia': 'Shinesegaefood', 'category': 'Rstaurant', 'edit_date': '20250607', 'lat_lon_source': 'Third Party'}",37.3611050,126.9314704,Shinesegaefood 이마트산본점,"{'opening_hours': {'Mon': '10:00-21:30', 'Tue': '10:00-21:30', 'Wed': '10:00-21:30', 'Thu': '10:00-21:30', 'Fri': '10:00-21:30', 'Sat': '10:00-21:30', 'Sun': '10:00-21:30'}}", 031-393-5572,15865,1228,Gyeonggi-do,https://www.shinsegaefood.com/nobrandburger/store/store.sf
 충청남도아산시번영로225(아산시외버스터미널복합시설)1충노브랜드버거,Shinesegaefood,Asan-si,Korea,"{'brand': 'Shinesegaefood', 'fascia': 'Shinesegaefood', 'category': 'Rstaurant', 'edit_date': '20250607', 'lat_lon_source': 'Third Party'}",36.7846407,127.0159009,Shinesegaefood 아산터미널점,"{'opening_hours': {'Mon': '09:00-22:00', 'Tue': '09:00-22:00', 'Wed': '09:00-22:00', 'Thu': '09:00-22:00', 'Fri': '09:00-22:00', 'Sat': '09:00-22:00', 'Sun': '09:00-22:00'}}", 041-546-6199,31522,1229,Chungcheongnam-do,https://www.shinsegaefood.com/nobrandburger/store/store.sf
 경상남도밀양시삼문동525-7번지1층,Shinesegaefood,Miryang-si,Korea,"{'brand': 'Shinesegaefood', 'fascia': 'Shinesegaefood', 'category': 'Rstaurant', 'edit_date': '20250607', 'lat_lon_source': 'Third Party'}",35.4853491,128.7503597,Shinesegaefood 밀양삼문점,"{'opening_hours': {'Mon': '10:00-22:00', 'Tue': '10:00-22:00', 'Wed': '10:00-22:00', 'Thu': '10:00-22:00', 'Fri': '10:00-22:00', 'Sat': '10:00-22:00', 'Sun': '10:00-22:00'}}", 055-355-8800,50438,1230,Gyeongsangnam-do,https://www.shinsegaefood.com/nobrandburger/store/store.sf
" 광주광역시남구효천2로가길20,162동102,103호",Shinesegaefood,Gwangju,Korea,"{'brand': 'Shinesegaefood', 'fascia': 'Shinesegaefood', 'category': 'Rstaurant', 'edit_date': '20250607', 'lat_lon_source': 'Third Party'}",35.1010645,126.8748583,Shinesegaefood 광주효천점,"{'opening_hours': {'Mon': '10:00-22:00', 'Tue': '10:00-22:00', 'Wed': '10:00-22:00', 'Thu': '10:00-22:00', 'Fri': '10:00-22:00', 'Sat': '10:00-22:00', 'Sun': '10:00-22:00'}}", 062-674-5587,,1231,,https://www.shinsegaefood.com/nobrandburger/store/store.sf
" 경기도 김포시 통진읍 마송1로 84번길 85, 1층 101호 (연세메디컬빌딩)",Shinesegaefood,Gimpo-si,Korea,"{'brand': 'Shinesegaefood', 'fascia': 'Shinesegaefood', 'category': 'Rstaurant', 'edit_date': '20250607', 'lat_lon_source': 'Third Party'}",37.6884568,126.5978324,Shinesegaefood 김포통진점,"{'opening_hours': {'Mon': '10:00-24:00', 'Tue': '10:00-24:00', 'Wed': '10:00-24:00', 'Thu': '10:00-24:00', 'Fri': '10:00-24:00', 'Sat': '10:00-24:00', 'Sun': '10:00-24:00'}}", 031-982-0457,10031,1232,Gyeonggi-do,https://www.shinsegaefood.com/nobrandburger/store/store.sf
" 충청남도아산시탕정면탕정면로54-3,1층103,104호",Shinesegaefood,Asan-si,Korea,"{'brand': 'Shinesegaefood', 'fascia': 'Shinesegaefood', 'category': 'Rstaurant', 'edit_date': '20250607', 'lat_lon_source': 'Third Party'}",36.7984032,127.0634819,Shinesegaefood 아산지중해마을점,"{'opening_hours': {'Mon': '10:00-22:00', 'Tue': '10:00-22:00', 'Wed': '10:00-22:00', 'Thu': '10:00-22:00', 'Fri': '10:00-22:00', 'Sat': '10:00-22:00', 'Sun': '10:00-22:00'}}", 041-545-2525,31457,1233,Chungcheongnam-do,https://www.shinsegaefood.com/nobrandburger/store/store.sf
" 전북특별자치도군산시구암3.1로137,이마트1층(경암동)",Shinesegaefood,Gunsan-si,Korea,"{'brand': 'Shinesegaefood', 'fascia': 'Shinesegaefood', 'category': 'Rstaurant', 'edit_date': '20250607', 'lat_lon_source': 'Third Party'}",35.9831825,126.7340074,Shinesegaefood 이마트군산점,"{'opening_hours': {'Mon': '10:00-21:30', 'Tue': '10:00-21:30', 'Wed': '10:00-21:30', 'Thu': '10:00-21:30', 'Fri': '10:00-21:30', 'Sat': '10:00-21:30', 'Sun': '10:00-21:30'}}", 063-446-7003,54032,1234,Jeollabuk-do,https://www.shinsegaefood.com/nobrandburger/store/store.sf
" 강원특별자치도홍천군홍천읍번영로31,1층",Shinesegaefood,Hongcheon-gun,Korea,"{'brand': 'Shinesegaefood', 'fascia': 'Shinesegaefood', 'category': 'Rstaurant', 'edit_date': '20250607', 'lat_lon_source': 'Third Party'}",37.6900195,127.8837256,Shinesegaefood 강원홍천점,"{'opening_hours': {'Mon': '10:00-22:00', 'Tue': '10:00-22:00', 'Wed': '10:00-22:00', 'Thu': '10:00-22:00', 'Fri': '10:00-22:00', 'Sat': '10:00-22:00', 'Sun': '10:00-22:00'}}", 033-434-3969,25136,1235,Gangwon-do,https://www.shinsegaefood.com/nobrandburger/store/store.sf
" 경기도화성시봉담읍효행로278,지하1층(이마트)",Shinesegaefood,Hwaseong-si,Korea,"{'brand': 'Shinesegaefood', 'fascia': 'Shinesegaefood', 'category': 'Rstaurant', 'edit_date': '20250607', 'lat_lon_source': 'Third Party'}",37.2225940,126.9726970,Shinesegaefood 이마트화성봉담점,"{'opening_hours': {'Mon': '10:00-21:30', 'Tue': '10:00-21:30', 'Wed': '10:00-21:30', 'Thu': '10:00-21:30', 'Fri': '10:00-21:30', 'Sat': '10:00-21:30', 'Sun': '10:00-21:30'}}", 031-546-0069,18298,1236,Gyeonggi-do,https://www.shinsegaefood.com/nobrandburger/store/store.sf
" 강원특별자치도강릉시경강로2518,1층",Shinesegaefood,Gangneung-si,Korea,"{'brand': 'Shinesegaefood', 'fascia': 'Shinesegaefood', 'category': 'Rstaurant', 'edit_date': '20250607', 'lat_lon_source': 'Third Party'}",37.7735449,128.9341694,Shinesegaefood 강릉송정DI점,"{'opening_hours': {'Mon': '09:30-22:00', 'Tue': '09:30-22:00', 'Wed': '09:30-22:00', 'Thu': '09:30-22:00', 'Fri': '09:30-22:00', 'Sat': '09:30-22:00', 'Sun': '09:30-22:00'}}", 033-643-8010,25561,1238,Gangwon-do,https://www.shinsegaefood.com/nobrandburger/store/store.sf
 대전광역시서구도안동2330,Shinesegaefood,Daejeon,Korea,"{'brand': 'Shinesegaefood', 'fascia': 'Shinesegaefood', 'category': 'Rstaurant', 'edit_date': '20250607', 'lat_lon_source': 'Third Party'}",36.3261622,127.3486395,Shinesegaefood 도안레이크타워점,"{'opening_hours': {'Mon': '10:00-24:00', 'Tue': '10:00-24:00', 'Wed': '10:00-24:00', 'Thu': '10:00-24:00', 'Fri': '10:00-24:00', 'Sat': '10:00-24:00', 'Sun': '10:00-24:00'}}", 042-542-0120,35353,1239,,https://www.shinsegaefood.com/nobrandburger/store/store.sf
" 충북청주시서원구1순환로661-1,1층우)28647",Shinesegaefood,,Korea,"{'brand': 'Shinesegaefood', 'fascia': 'Shinesegaefood', 'category': 'Rstaurant', 'edit_date': '20250607', 'lat_lon_source': 'Third Party'}",-,-,Shinesegaefood 충북대점,"{'opening_hours': {'Mon': '10:00-22:00', 'Tue': '10:00-22:00', 'Wed': '10:00-22:00', 'Thu': '10:00-22:00', 'Fri': '10:00-22:00', 'Sat': '10:00-22:00', 'Sun': '10:00-22:00'}}", 043-273-3678,,1240,,https://www.shinsegaefood.com/nobrandburger/store/store.sf
" 서울특별시은평구은평로111,8층(응암동,은평이마트)",Shinesegaefood,,Korea,"{'brand': 'Shinesegaefood', 'fascia': 'Shinesegaefood', 'category': 'Rstaurant', 'edit_date': '20250607', 'lat_lon_source': 'Third Party'}",-,-,Shinesegaefood 이마트은평점,"{'opening_hours': {'Mon': '10:00-21:00', 'Tue': '10:00-21:00', 'Wed': '10:00-21:00', 'Thu': '10:00-21:00', 'Fri': '10:00-21:00', 'Sat': '10:00-21:00', 'Sun': '10:00-21:00'}}", 02)388-1223,,1241,,https://www.shinsegaefood.com/nobrandburger/store/store.sf
" 서울특별시서대문구모래내로366신영오피스텔1,2층",Shinesegaefood,Seoul,Korea,"{'brand': 'Shinesegaefood', 'fascia': 'Shinesegaefood', 'category': 'Rstaurant', 'edit_date': '20250607', 'lat_lon_source': 'Third Party'}",37.5820355,126.9367034,Shinesegaefood 서대문구청점,"{'opening_hours': {'Mon': '10:00-22:00', 'Tue': '10:00-22:00', 'Wed': '10:00-22:00', 'Thu': '10:00-22:00', 'Fri': '10:00-22:00', 'Sat': '10:00-22:00', 'Sun': '10:00-22:00'}}", 02-396-3333,03653,1242,,https://www.shinsegaefood.com/nobrandburger/store/store.sf
" 강원특별자치도강릉시사천면진리해변길37,상가C동110~111호",Shinesegaefood,Gangneung-si,Korea,"{'brand': 'Shinesegaefood', 'fascia': 'Shinesegaefood', 'category': 'Rstaurant', 'edit_date': '20250607', 'lat_lon_source': 'Third Party'}",37.8387549,128.8725639,Shinesegaefood 강릉사천점,"{'opening_hours': {'Mon': '10:00-21:30', 'Tue': '10:00-21:30', 'Wed': '10:00-21:30', 'Thu': '10:00-21:30', 'Fri': '10:00-21:30', 'Sat': '10:00-21:30', 'Sun': '10:00-21:30'}}", 033-647-6476,25435,1243,Gangwon-do,https://www.shinsegaefood.com/nobrandburger/store/store.sf
" 대구수성구달구벌대로2280,1층102호",Shinesegaefood,Daegu,Korea,"{'brand': 'Shinesegaefood', 'fascia': 'Shinesegaefood', 'category': 'Rstaurant', 'edit_date': '20250607', 'lat_lon_source': 'Third Party'}",35.8596794,128.6116218,Shinesegaefood 대구수성점,"{'opening_hours': {'Mon': '10:00-22:00', 'Tue': '10:00-22:00', 'Wed': '10:00-22:00', 'Thu': '10:00-22:00', 'Fri': '10:00-22:00', 'Sat': '10:00-22:00', 'Sun': '10:00-22:00'}}", 053-752-0613,42121,1244,,https://www.shinsegaefood.com/nobrandburger/store/store.sf
 충북청주시흥덕구오송읍봉산리999테라스퀘어91층104-1호,Shinesegaefood,"Heungdeok-gu, Cheongju-si",Korea,"{'brand': 'Shinesegaefood', 'fascia': 'Shinesegaefood', 'category': 'Rstaurant', 'edit_date': '20250607', 'lat_lon_source': 'Third Party'}",36.6182897,127.3171226,Shinesegaefood 청주오송점,"{'opening_hours': {'Mon': '10:00-22:00', 'Tue': '10:00-22:00', 'Wed': '10:00-22:00', 'Thu': '10:00-22:00', 'Fri': '10:00-22:00', 'Sat': '10:00-22:00', 'Sun': '10:00-22:00'}}", 043-238-0926,28164,1245,Chungcheongbuk-do,https://www.shinsegaefood.com/nobrandburger/store/store.sf
" 경기의왕시광진말로54,1층S186호",Shinesegaefood,Uiwang-si,Korea,"{'brand': 'Shinesegaefood', 'fascia': 'Shinesegaefood', 'category': 'Rstaurant', 'edit_date': '20250607', 'lat_lon_source': 'Third Party'}",37.3210324,126.9405957,Shinesegaefood 의왕점,"{'opening_hours': {'Mon': '10:00-22:00', 'Tue': '10:00-22:00', 'Wed': '10:00-22:00', 'Thu': '10:00-22:00', 'Fri': '10:00-22:00', 'Sat': '10:00-22:00', 'Sun': '10:00-22:00'}}", 031-8058-8114,16108,1246,Gyeonggi-do,https://www.shinsegaefood.com/nobrandburger/store/store.sf
" 서울특별시서대문구연세로50,B2층230호(신촌동,연세대학교SK글로벌하우스)",Shinesegaefood,Seoul,Korea,"{'brand': 'Shinesegaefood', 'fascia': 'Shinesegaefood', 'category': 'Rstaurant', 'edit_date': '20250607', 'lat_lon_source': 'Third Party'}",37.5671131,126.9390292,Shinesegaefood 연세대SK국제학사점,"{'opening_hours': {'Mon': '08:00-20:00', 'Tue': '08:00-20:00', 'Wed': '08:00-20:00', 'Thu': '08:00-20:00', 'Fri': '08:00-20:00', 'Sat': '08:00-20:00', 'Sun': '08:00-20:00'}}", 02-6357-0011,03722,1247,,https://www.shinsegaefood.com/nobrandburger/store/store.sf
" 강원특별자치도강릉시솔올로25,1층",Shinesegaefood,Gangneung-si,Korea,"{'brand': 'Shinesegaefood', 'fascia': 'Shinesegaefood', 'category': 'Rstaurant', 'edit_date': '20250607', 'lat_lon_source': 'Third Party'}",37.7642131,128.8776272,Shinesegaefood 강릉교동점,"{'opening_hours': {'Mon': '10:00-22:00', 'Tue': '10:00-22:00', 'Wed': '10:00-22:00', 'Thu': '10:00-22:00', 'Fri': '10:00-22:00', 'Sat': '10:00-22:00', 'Sun': '10:00-22:00'}}", 033-645-1898,25515,1248,Gangwon-do,https://www.shinsegaefood.com/nobrandburger/store/store.sf
" 경상남도진주시진양호로241,1층일부(평거동)",Shinesegaefood,Jinju-si,Korea,"{'brand': 'Shinesegaefood', 'fascia': 'Shinesegaefood', 'category': 'Rstaurant', 'edit_date': '20250607', 'lat_lon_source': 'Third Party'}",35.1756058,128.0618433,Shinesegaefood 진주평거점,"{'opening_hours': {'Mon': '10:00-22:00', 'Tue': '10:00-22:00', 'Wed': '10:00-22:00', 'Thu': '10:00-22:00', 'Fri': '10:00-22:00', 'Sat': '10:00-22:00', 'Sun': '10:00-22:00'}}", 055-795-2221,52677,1249,Gyeongsangnam-do,https://www.shinsegaefood.com/nobrandburger/store/store.sf
" 전북익산시무왕로1031,1층(영등동)우)54545",Shinesegaefood,Iksan-si,Korea,"{'brand': 'Shinesegaefood', 'fascia': 'Shinesegaefood', 'category': 'Rstaurant', 'edit_date': '20250607', 'lat_lon_source': 'Third Party'}",35.9587226,126.9714422,Shinesegaefood 익산영등점,"{'opening_hours': {'Mon': '10:00-22:00', 'Tue': '10:00-22:00', 'Wed': '10:00-22:00', 'Thu': '10:00-22:00', 'Fri': '10:00-22:00', 'Sat': '10:00-22:00', 'Sun': '10:00-22:00'}}", 063-832-1020,54545,1250,Jeollabuk-do,https://www.shinsegaefood.com/nobrandburger/store/store.sf
 충남예산군응봉면예당로1187우)32447,Shinesegaefood,Yesan-gun,Korea,"{'brand': 'Shinesegaefood', 'fascia': 'Shinesegaefood', 'category': 'Rstaurant', 'edit_date': '20250607', 'lat_lon_source': 'Third Party'}",36.6277191,126.7826747,Shinesegaefood 예산예당호휴게소점,"{'opening_hours': {'Mon': '08:00-20:00', 'Tue': '08:00-20:00', 'Wed': '08:00-20:00', 'Thu': '08:00-20:00', 'Fri': '08:00-20:00', 'Sat': '08:00-20:00', 'Sun': '08:00-20:00'}}", 041-332-2015,,1251,Chungcheongnam-do,https://www.shinsegaefood.com/nobrandburger/store/store.sf
" 14px;"">경기도평택시현덕면평택호3길63</span>",Shinesegaefood,Pyeongtaek-si,Korea,"{'brand': 'Shinesegaefood', 'fascia': 'Shinesegaefood', 'category': 'Rstaurant', 'edit_date': '20250607', 'lat_lon_source': 'Third Party'}",36.9245551,126.9178160,Shinesegaefood 평택호휴게소점,"{'opening_hours': {'Mon': '08:00-20:00', 'Tue': '08:00-20:00', 'Wed': '08:00-20:00', 'Thu': '08:00-20:00', 'Fri': '08:00-20:00', 'Sat': '08:00-20:00', 'Sun': '08:00-20:00'}}"," 14px;"">031-681-2012</span>",17972,1252,Gyeonggi-do,https://www.shinsegaefood.com/nobrandburger/store/store.sf
 경북 문경시 당교로 230-1,Shinesegaefood,Mungyeong-si,Korea,"{'brand': 'Shinesegaefood', 'fascia': 'Shinesegaefood', 'category': 'Rstaurant', 'edit_date': '20250607', 'lat_lon_source': 'Third Party'}",36.5855188,128.1882953,Shinesegaefood 문경시청점,"{'opening_hours': {'Mon': '10:00-22:00', 'Tue': '10:00-22:00', 'Wed': '10:00-22:00', 'Thu': '10:00-22:00', 'Fri': '10:00-22:00', 'Sat': '10:00-22:00', 'Sun': '10:00-22:00'}}", 054-555-4525,36986,1253,Gyeongsangbuk-do,https://www.shinsegaefood.com/nobrandburger/store/store.sf
 대전광역시 동구 동구청로89-2,Shinesegaefood,Daejeon,Korea,"{'brand': 'Shinesegaefood', 'fascia': 'Shinesegaefood', 'category': 'Rstaurant', 'edit_date': '20250607', 'lat_lon_source': 'Third Party'}",36.3062707,127.4569709,Shinesegaefood 대전가오점,"{'opening_hours': {'Mon': '10:00-20:00', 'Tue': '10:00-20:00', 'Wed': '10:00-20:00', 'Thu': '10:00-20:00', 'Fri': '10:00-20:00', 'Sat': '10:00-20:00', 'Sun': '10:00-20:00'}}", 042-282-2858,34695,1254,,https://www.shinsegaefood.com/nobrandburger/store/store.sf
" 경기도 광주시 광주대로 30(경안동), 1층 117-118호",Shinesegaefood,Gwangju-si,Korea,"{'brand': 'Shinesegaefood', 'fascia': 'Shinesegaefood', 'category': 'Rstaurant', 'edit_date': '20250607', 'lat_lon_source': 'Third Party'}",37.4096153,127.2612629,Shinesegaefood 경기광주터미널점,"{'opening_hours': {'Mon': '09:30-21:30', 'Tue': '09:30-21:30', 'Wed': '09:30-21:30', 'Thu': '09:30-21:30', 'Fri': '09:30-21:30', 'Sat': '09:30-21:30', 'Sun': '09:30-21:30'}}", 031-766-7110,12757,1255,Gyeonggi-do,https://www.shinsegaefood.com/nobrandburger/store/store.sf
" 서울특별시 구로구 디지털로26길 5 , 지하1층 B103-2,B103-3호",Shinesegaefood,Seoul,Korea,"{'brand': 'Shinesegaefood', 'fascia': 'Shinesegaefood', 'category': 'Rstaurant', 'edit_date': '20250607', 'lat_lon_source': 'Third Party'}",37.4816106,126.8934794,Shinesegaefood 구로하이엔드점,"{'opening_hours': {'Mon': '10:00-20:30', 'Tue': '10:00-20:30', 'Wed': '10:00-20:30', 'Thu': '10:00-20:30', 'Fri': '10:00-20:30', 'Sat': '10:00-20:30', 'Sun': '10:00-20:30'}}", 02-6956-4804,08389,1256,,https://www.shinsegaefood.com/nobrandburger/store/store.sf
" 경기도 수원시 장안구 대평로 74, 1층 (정자동, 금강프라자)",Shinesegaefood,"Jangan-gu, Suwon-si",Korea,"{'brand': 'Shinesegaefood', 'fascia': 'Shinesegaefood', 'category': 'Rstaurant', 'edit_date': '20250607', 'lat_lon_source': 'Third Party'}",37.2950105,126.9938507,Shinesegaefood 수원정자점,"{'opening_hours': {'Mon': '10:00-22:30', 'Tue': '10:00-22:30', 'Wed': '10:00-22:30', 'Thu': '10:00-22:30', 'Fri': '10:00-22:30', 'Sat': '10:00-22:30', 'Sun': '10:00-22:30'}}", 070-4651-0085,16334,1257,Gyeonggi-do,https://www.shinsegaefood.com/nobrandburger/store/store.sf
