addr_full,brand,city,country,extras,lat,lon,name,opening_hours,phone,postcode,ref,state,website
36 rue Bonnabaud,Mr Bricolage,Clermont-Ferrand,FR,"{'brand': 'Mr Bricolage', 'fascia': 'Mr Bricolage', 'category': 'Retail', 'edit_date': '2025-03-14', 'lat_lon_source': 'website'}",45.774017,3.0796547,Mr.Bricolage Clermont Ferrand,"{'opening_hours': {'Mon': '09:30 - 12:30  &  14:00 - 19:00', 'Tue': '09:30 - 12:30  &  14:00 - 19:00', 'Wed': '09:30 - 12:30  &  14:00 - 19:00', 'Thu': '09:30 - 12:30  &  14:00 - 19:00', 'Fri': '09:30 - 12:30  &  14:00 - 19:00', 'Sat': '09:30 - 19:00'}}",+33 9 86 31 13 80,63000,432,,https://magasin.mr-bricolage.fr/432-mr-bricolage-clermont-ferrand
Zac De Merlemont,Mr Bricolage,ALLONNE,FR,"{'brand': 'Mr Bricolage', 'fascia': 'Mr Bricolage', 'category': 'Retail', 'edit_date': '2025-03-14', 'lat_lon_source': 'website'}",49.407368,2.12078,Mr.Bricolage Allonne - Beauvais,"{'opening_hours': {'Mon': '08:30 - 19:00', 'Tue': '08:30 - 19:00', 'Wed': '08:30 - 19:00', 'Thu': '08:30 - 19:00', 'Fri': '08:30 - 19:00', 'Sat': '08:30 - 19:00', 'Sun': '09:00 - 12:30'}}",+33 3 44 14 36 36,60000,8,,https://magasin.mr-bricolage.fr/8-mr-bricolage-allonne-beauvais
Ec Côte De Granit Rose,Mr Bricolage,Trégastel,FR,"{'brand': 'Mr Bricolage', 'fascia': 'Mr Bricolage', 'category': 'Retail', 'edit_date': '2025-03-14', 'lat_lon_source': 'website'}",48.823347,-3.495871,Mr.Bricolage Tregastel,"{'opening_hours': {'Mon': '09:00 - 12:30  &  14:00 - 19:00', 'Tue': '09:00 - 12:30  &  14:00 - 19:00', 'Wed': '09:00 - 12:30  &  14:00 - 19:00', 'Thu': '09:00 - 12:30  &  14:00 - 19:00', 'Fri': '09:00 - 12:30  &  14:00 - 19:00', 'Sat': '09:00 - 12:30  &  14:00 - 19:00', 'Sun': '10:00 - 12:00'}}",+33 2 96 23 86 46,22730,240,,https://magasin.mr-bricolage.fr/240-mr-bricolage-tregastel
1 Rue Du 22 Novembre,Mr Bricolage,Strasbourg,FR,"{'brand': 'Mr Bricolage', 'fascia': 'Mr Bricolage', 'category': 'Retail', 'edit_date': '2025-03-14', 'lat_lon_source': 'website'}",48.5831104,7.7406566,Mr.Bricolage Strasbourg,"{'opening_hours': {'Mon': '09:00 - 19:00', 'Tue': '09:00 - 19:00', 'Wed': '09:00 - 19:00', 'Thu': '09:00 - 19:00', 'Fri': '09:00 - 19:00', 'Sat': '09:00 - 19:00'}}",+33 3 88 10 40 97,67000,229,,https://magasin.mr-bricolage.fr/229-mr-bricolage-strasbourg
8 rue de Mourvèdre,Mr Bricolage,CLERMONT HERAULT,FR,"{'brand': 'Mr Bricolage', 'fascia': 'Mr Bricolage', 'category': 'Retail', 'edit_date': '2025-03-14', 'lat_lon_source': 'website'}",43.615287885709,3.4540068891464,Mr.Bricolage Clermont l'Hérault,"{'opening_hours': {'Mon': '08:30 - 19:00', 'Tue': '08:30 - 19:00', 'Wed': '08:30 - 19:00', 'Thu': '08:30 - 19:00', 'Fri': '08:30 - 19:00', 'Sat': '08:30 - 19:00', 'Sun': '09:00 - 12:30'}}",+33 4 67 88 46 90,34800,283,,https://magasin.mr-bricolage.fr/283-mr-bricolage-clermont-l-herault
Avenue du Général de Gaulle,Mr Bricolage,LODEVE,FR,"{'brand': 'Mr Bricolage', 'fascia': 'Mr Bricolage', 'category': 'Retail', 'edit_date': '2025-03-14', 'lat_lon_source': 'website'}",43.7277931,3.3241274,Mr.Bricolage Lodève,"{'opening_hours': {'Mon': '08:30 - 12:30  &  14:00 - 19:00', 'Tue': '08:30 - 12:30  &  14:00 - 19:00', 'Wed': '08:30 - 12:30  &  14:00 - 19:00', 'Thu': '08:30 - 12:30  &  14:00 - 19:00', 'Fri': '08:30 - 12:30  &  14:00 - 19:00', 'Sat': '08:30 - 19:00'}}",+33 4 67 44 37 54,34700,282,,https://magasin.mr-bricolage.fr/282-mr-bricolage-lodeve
Za Du Keramperu,Mr Bricolage,CONCARNEAU,FR,"{'brand': 'Mr Bricolage', 'fascia': 'Mr Bricolage', 'category': 'Retail', 'edit_date': '2025-03-14', 'lat_lon_source': 'website'}",47.89365,-3.9158,Mr.Bricolage Concarneau,"{'opening_hours': {'Mon': '09:00 - 19:00', 'Tue': '09:00 - 19:00', 'Wed': '09:00 - 19:00', 'Thu': '09:00 - 19:00', 'Fri': '09:00 - 19:00', 'Sat': '09:00 - 19:00'}}",+33 2 98 50 14 14,29900,68,,https://magasin.mr-bricolage.fr/68-mr-bricolage-concarneau
"114, rue d’Alésia",Mr Bricolage,Paris,FR,"{'brand': 'Mr Bricolage', 'fascia': 'Mr Bricolage', 'category': 'Retail', 'edit_date': '2025-03-14', 'lat_lon_source': 'website'}",48.8297206,2.3221606,Mr.Bricolage Paris 14 - Alesia,"{'opening_hours': {'Mon': '09:15 - 19:15', 'Tue': '09:15 - 19:15', 'Wed': '09:15 - 19:15', 'Thu': '09:15 - 19:15', 'Fri': '09:15 - 19:15', 'Sat': '09:15 - 19:15'}}",+33 1 40 52 09 33,75014,421,,https://magasin.mr-bricolage.fr/421-mr-bricolage-paris-14-alesia
Zac De La Sauvagère 1313 Route De Frans,Mr Bricolage,VILLEFRANCHE SUR SAONE 2,FR,"{'brand': 'Mr Bricolage', 'fascia': 'Mr Bricolage', 'category': 'Retail', 'edit_date': '2025-03-14', 'lat_lon_source': 'website'}",45.985192,4.737941,Mr.Bricolage Villefranche Sur Saone,"{'opening_hours': {'Mon': '09:00 - 19:00', 'Tue': '09:00 - 19:00', 'Wed': '09:00 - 19:00', 'Thu': '09:00 - 19:00', 'Fri': '09:00 - 19:00', 'Sat': '09:00 - 19:00', 'Sun': '09:00 - 12:30'}}",+33 4 37 55 54 53,69400,246,,https://magasin.mr-bricolage.fr/246-mr-bricolage-villefranche-sur-saone
2323 Route du Fayet,Mr Bricolage,DOMANCY,FR,"{'brand': 'Mr Bricolage', 'fascia': 'Mr Bricolage', 'category': 'Retail', 'edit_date': '2025-03-14', 'lat_lon_source': 'website'}",45.9043453,6.6865255,Mr.Bricolage Domancy,"{'opening_hours': {'Mon': '08:30 - 19:00', 'Tue': '08:30 - 19:00', 'Wed': '08:30 - 19:00', 'Thu': '08:30 - 19:00', 'Fri': '08:30 - 19:00', 'Sat': '08:30 - 19:00', 'Sun': '09:00 - 12:30'}}",+33 4 50 90 87 71,74700,362,,https://magasin.mr-bricolage.fr/362-mr-bricolage-domancy
68 Rue Edouard Girerd,Mr Bricolage,VIENNE,FR,"{'brand': 'Mr Bricolage', 'fascia': 'Mr Bricolage', 'category': 'Retail', 'edit_date': '2025-03-14', 'lat_lon_source': 'website'}",45.504651,4.85043,Mr.Bricolage Vienne,"{'opening_hours': {'Mon': '09:00 - 12:30  &  13:30 - 19:00', 'Tue': '09:00 - 12:30  &  13:30 - 19:00', 'Wed': '09:00 - 12:30  &  13:30 - 19:00', 'Thu': '09:00 - 12:30  &  13:30 - 19:00', 'Fri': '09:00 - 19:00', 'Sat': '09:00 - 19:00', 'Sun': '09:00 - 12:30'}}",+33 4 74 31 55 49,38200,244,,https://magasin.mr-bricolage.fr/244-mr-bricolage-vienne
Les Cabriéres,Mr Bricolage,VILLEFRANCHE DE ROUERGUE,FR,"{'brand': 'Mr Bricolage', 'fascia': 'Mr Bricolage', 'category': 'Retail', 'edit_date': '2025-03-14', 'lat_lon_source': 'website'}",44.3614525,2.0003938,Mr.Bricolage Villefranche de Rouergue,"{'opening_hours': {'Mon': '09:00 - 12:00  &  14:00 - 19:00', 'Tue': '09:00 - 12:00  &  14:00 - 19:00', 'Wed': '09:00 - 12:00  &  14:00 - 19:00', 'Thu': '09:00 - 12:30  &  14:00 - 19:00', 'Fri': '09:00 - 12:30  &  14:00 - 19:00', 'Sat': '09:00 - 12:30  &  14:00 - 19:00'}}",+33 5 65 45 15 43,12200,356,,https://magasin.mr-bricolage.fr/356-mr-bricolage-villefranche-de-rouergue
95 Chemin d'Agde au Mont Saint Loup,Mr Bricolage,AGDE,FR,"{'brand': 'Mr Bricolage', 'fascia': 'Mr Bricolage', 'category': 'Retail', 'edit_date': '2025-03-14', 'lat_lon_source': 'website'}",43.3047925,3.4885242,Mr.Bricolage Agde,"{'opening_hours': {'Mon': '08:30 - 19:00', 'Tue': '08:30 - 19:00', 'Wed': '08:30 - 19:00', 'Thu': '08:30 - 19:00', 'Fri': '08:30 - 19:00', 'Sat': '08:30 - 19:00', 'Sun': '09:00 - 12:30'}}",+33 4 67 01 01 40,34300,299,,https://magasin.mr-bricolage.fr/299-mr-bricolage-agde
Za La Demi Lune Route De Mantes,Mr Bricolage,MAGNY EN VEXIN,FR,"{'brand': 'Mr Bricolage', 'fascia': 'Mr Bricolage', 'category': 'Retail', 'edit_date': '2025-03-14', 'lat_lon_source': 'website'}",49.144069,1.7875617,Mr.Bricolage Magny En Vexin,"{'opening_hours': {'Mon': '09:00 - 12:30  &  14:00 - 19:00', 'Tue': '09:00 - 12:30  &  14:00 - 19:00', 'Wed': '09:00 - 12:30  &  14:00 - 19:00', 'Thu': '09:00 - 12:30  &  14:00 - 19:00', 'Fri': '09:00 - 12:30  &  14:00 - 19:00', 'Sat': '09:00 - 19:00', 'Sun': '09:30 - 12:30'}}",+33 1 34 67 34 68,95420,132,,https://magasin.mr-bricolage.fr/132-mr-bricolage-magny-en-vexin
8 Rue Des Artisans,Mr Bricolage,ANGERVILLE,FR,"{'brand': 'Mr Bricolage', 'fascia': 'Mr Bricolage', 'category': 'Retail', 'edit_date': '2025-03-14', 'lat_lon_source': 'website'}",48.3172,2.00084,Mr.Bricolage Angerville,"{'opening_hours': {'Mon': '09:00 - 12:30  &  14:00 - 19:00', 'Tue': '09:00 - 12:30  &  14:00 - 19:00', 'Wed': '09:00 - 12:30  &  14:00 - 19:00', 'Thu': '09:00 - 12:30  &  14:00 - 19:00', 'Fri': '09:00 - 12:30  &  14:00 - 19:00', 'Sat': '09:00 - 19:00'}}",+33 1 64 95 27 26,91670,13,,https://magasin.mr-bricolage.fr/13-mr-bricolage-angerville
8 rue du Général Leclerc,Mr Bricolage,Avignon,FR,"{'brand': 'Mr Bricolage', 'fascia': 'Mr Bricolage', 'category': 'Retail', 'edit_date': '2025-03-14', 'lat_lon_source': 'website'}",43.9488229,4.8103377,Mr.Bricolage Avignon City,"{'opening_hours': {'Mon': '09:30 - 12:30  &  14:00 - 19:00', 'Tue': '09:30 - 12:30  &  14:00 - 19:00', 'Wed': '09:30 - 12:30  &  14:00 - 19:00', 'Thu': '09:30 - 12:30  &  14:00 - 19:00', 'Fri': '09:30 - 12:30  &  14:00 - 19:00', 'Sat': '09:30 - 12:30  &  14:00 - 19:00'}}",+33 4 90 01 40 00,84000,352,,https://magasin.mr-bricolage.fr/352-mr-bricolage-avignon-city
Parc Des Crozes,Mr Bricolage,LORIOL,FR,"{'brand': 'Mr Bricolage', 'fascia': 'Mr Bricolage', 'category': 'Retail', 'edit_date': '2025-03-14', 'lat_lon_source': 'website'}",44.760141,4.83805,Mr.Bricolage Loriol,"{'opening_hours': {'Mon': '08:30 - 12:00  &  13:30 - 19:00', 'Tue': '08:30 - 12:00  &  13:30 - 19:00', 'Wed': '08:30 - 12:00  &  13:30 - 19:00', 'Thu': '08:30 - 12:00  &  13:30 - 19:00', 'Fri': '08:30 - 12:00  &  13:30 - 19:00', 'Sat': '08:30 - 12:00  &  13:30 - 19:00'}}",+33 4 75 61 58 90,26270,125,,https://magasin.mr-bricolage.fr/125-mr-bricolage-loriol
538 Avenue de Lattre de Tassigny,Mr Bricolage,Toulon,FR,"{'brand': 'Mr Bricolage', 'fascia': 'Mr Bricolage', 'category': 'Retail', 'edit_date': '2025-03-14', 'lat_lon_source': 'website'}",43.1142234,5.9387703,Mr.Bricolage Toulon Mourillon,"{'opening_hours': {'Mon': '09:00 - 19:00', 'Tue': '09:00 - 19:00', 'Wed': '09:00 - 19:00', 'Thu': '09:00 - 19:00', 'Fri': '09:00 - 19:00', 'Sat': '09:00 - 19:00'}}",+33 4 94 46 42 30,83000,330,,https://magasin.mr-bricolage.fr/330-mr-bricolage-toulon-mourillon
47 - 51 Rue Charles Frerot,Mr Bricolage,Gentilly,FR,"{'brand': 'Mr Bricolage', 'fascia': 'Mr Bricolage', 'category': 'Retail', 'edit_date': '2025-03-14', 'lat_lon_source': 'website'}",48.8154394,2.3502093,Mr.Bricolage Gentilly,"{'opening_hours': {'Mon': '09:00 - 12:30  &  14:00 - 19:00', 'Tue': '09:00 - 12:30  &  14:00 - 19:00', 'Wed': '09:00 - 12:30  &  14:00 - 19:00', 'Thu': '09:00 - 12:30  &  14:00 - 19:00', 'Fri': '09:00 - 19:00', 'Sat': '09:00 - 19:00'}}",+33 1 47 40 82 20,94250,266,,https://magasin.mr-bricolage.fr/266-mr-bricolage-gentilly
133 Rue De L'Abbe Groult,Mr Bricolage,Paris,FR,"{'brand': 'Mr Bricolage', 'fascia': 'Mr Bricolage', 'category': 'Retail', 'edit_date': '2025-03-14', 'lat_lon_source': 'website'}",48.8362102,2.3022316,Mr.Bricolage Paris 15 - Convention,"{'opening_hours': {'Mon': '09:00 - 19:30', 'Tue': '09:00 - 19:30', 'Wed': '09:00 - 19:30', 'Thu': '09:00 - 19:30', 'Fri': '09:00 - 19:30', 'Sat': '09:00 - 19:30'}}",+33 1 45 31 45 00,75015,167,,https://magasin.mr-bricolage.fr/167-mr-bricolage-paris-15-convention
98 avenue de boutigny,Mr Bricolage,PEYMEINADE,FR,"{'brand': 'Mr Bricolage', 'fascia': 'Mr Bricolage', 'category': 'Retail', 'edit_date': '2025-03-14', 'lat_lon_source': 'website'}",43.6454921,6.8882744,Mr.Bricolage Peymeinade,"{'opening_hours': {'Mon': '08:30 - 12:30  &  14:00 - 19:00', 'Tue': '08:30 - 12:30  &  14:00 - 19:00', 'Wed': '08:30 - 12:30  &  14:00 - 19:00', 'Thu': '08:30 - 12:30  &  14:00 - 19:00', 'Fri': '08:30 - 12:30  &  14:00 - 19:00', 'Sat': '08:30 - 12:30  &  14:00 - 19:00', 'Sun': '09:00 - 12:30'}}",+33 4 93 40 56 40,06530,349,,https://magasin.mr-bricolage.fr/349-mr-bricolage-peymeinade
332 Rue Lecourbe,Mr Bricolage,Paris,FR,"{'brand': 'Mr Bricolage', 'fascia': 'Mr Bricolage', 'category': 'Retail', 'edit_date': '2025-03-14', 'lat_lon_source': 'website'}",48.8374951,2.2841935,Mr.Bricolage Paris 15 - Lecourbe,"{'opening_hours': {'Mon': '09:00 - 19:30', 'Tue': '09:00 - 19:30', 'Wed': '09:00 - 19:30', 'Thu': '09:00 - 19:30', 'Fri': '09:00 - 19:30', 'Sat': '09:00 - 19:30'}}",+33 1 40 60 45 45,75015,168,,https://magasin.mr-bricolage.fr/168-mr-bricolage-paris-15-lecourbe
Centre Commercial Carrefour,Mr Bricolage,TRANS EN PROVENCE,FR,"{'brand': 'Mr Bricolage', 'fascia': 'Mr Bricolage', 'category': 'Retail', 'edit_date': '2025-03-14', 'lat_lon_source': 'website'}",43.508148,6.478588,Mr.Bricolage Trans En Provence,"{'opening_hours': {'Mon': '08:30 - 19:00', 'Tue': '08:30 - 19:00', 'Wed': '08:30 - 19:00', 'Thu': '08:30 - 19:00', 'Fri': '08:30 - 19:00', 'Sat': '08:30 - 19:00', 'Sun': '09:00 - 12:30'}}",+33 4 94 67 74 26,83720,239,,https://magasin.mr-bricolage.fr/239-mr-bricolage-trans-en-provence
25 route de Savenay,Mr Bricolage,SAINT ETIENNE DE MONTLUC,FR,"{'brand': 'Mr Bricolage', 'fascia': 'Mr Bricolage', 'category': 'Retail', 'edit_date': '2025-03-14', 'lat_lon_source': 'website'}",47.2779087,-1.7904901,Mr.Bricolage Saint Etienne De Montluc,"{'opening_hours': {'Mon': '09:00 - 12:00  &  14:00 - 19:00', 'Tue': '09:00 - 12:00  &  14:00 - 19:00', 'Wed': '09:00 - 12:00  &  14:00 - 19:00', 'Thu': '09:00 - 12:00  &  14:00 - 19:00', 'Fri': '09:00 - 12:00  &  14:00 - 19:00', 'Sat': '09:00 - 12:30  &  14:00 - 19:00'}}",+33 2 40 86 86 92,44360,323,,https://magasin.mr-bricolage.fr/323-mr-bricolage-saint-etienne-de-montluc
Parc commercial la Colleraye,Mr Bricolage,SAVENAY,FR,"{'brand': 'Mr Bricolage', 'fascia': 'Mr Bricolage', 'category': 'Retail', 'edit_date': '2025-03-14', 'lat_lon_source': 'website'}",47.3721467,-1.9364324,Mr.Bricolage Savenay,"{'opening_hours': {'Mon': '09:00 - 12:00  &  14:00 - 19:00', 'Tue': '09:00 - 12:00  &  14:00 - 19:00', 'Wed': '09:00 - 12:00  &  14:00 - 19:00', 'Thu': '09:00 - 12:00  &  14:00 - 19:00', 'Fri': '09:00 - 12:00  &  14:00 - 19:00', 'Sat': '09:00 - 19:00'}}",+33 2 40 56 90 68,44260,290,,https://magasin.mr-bricolage.fr/290-mr-bricolage-savenay
La Roulliere - Route De Chemille,Mr Bricolage,CHALONNES,FR,"{'brand': 'Mr Bricolage', 'fascia': 'Mr Bricolage', 'category': 'Retail', 'edit_date': '2025-03-14', 'lat_lon_source': 'website'}",47.3448,-0.76139,Mr.Bricolage Chalonnes Sur Loire,"{'opening_hours': {'Mon': '09:00 - 12:00  &  14:00 - 19:00', 'Tue': '09:00 - 12:00  &  14:00 - 19:00', 'Wed': '09:00 - 12:00  &  14:00 - 19:00', 'Thu': '09:00 - 12:00  &  14:00 - 19:00', 'Fri': '09:00 - 12:00  &  14:00 - 19:00', 'Sat': '09:00 - 12:30  &  14:00 - 18:30'}}",+33 2 41 66 35 56,49290,55,,https://magasin.mr-bricolage.fr/55-mr-bricolage-chalonnes-sur-loire
5 Route De Champigné,Mr Bricolage,LES HAUTS D'ANJOU / CHATEAUNEUF SUR SARTHE,FR,"{'brand': 'Mr Bricolage', 'fascia': 'Mr Bricolage', 'category': 'Retail', 'edit_date': '2025-03-14', 'lat_lon_source': 'website'}",47.6805,-0.499751,Mr.Bricolage Chateauneuf Sur Sarthe,"{'opening_hours': {'Mon': '09:00 - 12:00  &  14:00 - 19:00', 'Tue': '09:00 - 12:00  &  14:00 - 19:00', 'Wed': '09:00 - 12:00  &  14:00 - 19:00', 'Thu': '09:00 - 12:00  &  14:00 - 19:00', 'Fri': '09:00 - 12:00  &  14:00 - 19:00', 'Sat': '09:00 - 12:30  &  14:00 - 18:30'}}",+33 2 41 69 81 98,49330,63,,https://magasin.mr-bricolage.fr/63-mr-bricolage-chateauneuf-sur-sarthe
13/15 rue Grand Rabbin Haguenauer,Mr Bricolage,Nancy,FR,"{'brand': 'Mr Bricolage', 'fascia': 'Mr Bricolage', 'category': 'Retail', 'edit_date': '2025-03-14', 'lat_lon_source': 'website'}",48.6872479,6.1800559,Mr.Bricolage Nancy,"{'opening_hours': {'Mon': '09:00 - 19:30', 'Tue': '09:00 - 19:30', 'Wed': '09:00 - 19:30', 'Thu': '09:00 - 19:30', 'Fri': '09:00 - 19:30', 'Sat': '09:00 - 19:30'}}",+33 3 72 61 18 00,54000,395,,https://magasin.mr-bricolage.fr/395-mr-bricolage-nancy
Centre Commercial Les Portes De La Mer,Mr Bricolage,LUNEL,FR,"{'brand': 'Mr Bricolage', 'fascia': 'Mr Bricolage', 'category': 'Retail', 'edit_date': '2025-03-14', 'lat_lon_source': 'website'}",43.681526,4.1513,Mr.Bricolage Lunel,"{'opening_hours': {'Mon': '08:30 - 19:00', 'Tue': '08:30 - 19:00', 'Wed': '08:30 - 19:00', 'Thu': '08:30 - 19:00', 'Fri': '08:30 - 19:00', 'Sat': '08:30 - 19:00'}}",+33 4 67 83 50 00,34400,130,,https://magasin.mr-bricolage.fr/130-mr-bricolage-lunel
780 avenue Saint Roman,Mr Bricolage,MENTON,FR,"{'brand': 'Mr Bricolage', 'fascia': 'Mr Bricolage', 'category': 'Retail', 'edit_date': '2025-03-14', 'lat_lon_source': 'website'}",43.8054629,7.4875936,Mr.Bricolage Menton,"{'opening_hours': {'Mon': '08:30 - 19:00', 'Tue': '08:30 - 19:00', 'Wed': '08:30 - 19:00', 'Thu': '08:30 - 19:00', 'Fri': '08:30 - 19:00', 'Sat': '08:30 - 19:00', 'Sun': '09:00 - 12:30'}}",+33 4 97 14 80 58,06500,378,,https://magasin.mr-bricolage.fr/378-mr-bricolage-menton
31 Avenue Du General De Gaulle,Mr Bricolage,Quiberon,FR,"{'brand': 'Mr Bricolage', 'fascia': 'Mr Bricolage', 'category': 'Retail', 'edit_date': '2025-03-14', 'lat_lon_source': 'website'}",47.4912105,-3.1222424,Mr.Bricolage Quiberon,"{'opening_hours': {'Mon': '09:00 - 19:00', 'Tue': '09:00 - 19:00', 'Wed': '09:00 - 19:00', 'Thu': '09:00 - 19:00', 'Fri': '09:00 - 19:00', 'Sat': '09:00 - 19:00'}}",+33 2 97 30 45 20,56170,191,,https://magasin.mr-bricolage.fr/191-mr-bricolage-quiberon
1 avenue du Maréchal Foch,Mr Bricolage,VIDAUBAN,FR,"{'brand': 'Mr Bricolage', 'fascia': 'Mr Bricolage', 'category': 'Retail', 'edit_date': '2025-03-14', 'lat_lon_source': 'website'}",43.4307078,6.4346118,Mr.Bricolage Vidauban,"{'opening_hours': {'Mon': '08:30 - 12:30  &  14:00 - 19:00', 'Tue': '08:30 - 12:30  &  14:00 - 19:00', 'Wed': '08:30 - 12:30  &  14:00 - 19:00', 'Thu': '08:30 - 12:30  &  14:00 - 19:00', 'Fri': '08:30 - 12:30  &  14:00 - 19:00', 'Sat': '09:00 - 19:00', 'Sun': '09:00 - 12:30'}}",+33 4 94 47 40 35,83550,351,,https://magasin.mr-bricolage.fr/351-mr-bricolage-vidauban
Zac De Recouvrance,Mr Bricolage,SAINTES,FR,"{'brand': 'Mr Bricolage', 'fascia': 'Mr Bricolage', 'category': 'Retail', 'edit_date': '2025-03-14', 'lat_lon_source': 'website'}",45.753244,-0.656916,Mr.Bricolage Saintes,"{'opening_hours': {'Mon': '09:00 - 12:00  &  14:00 - 19:00', 'Tue': '09:00 - 12:00  &  14:00 - 19:00', 'Wed': '09:00 - 12:00  &  14:00 - 19:00', 'Thu': '09:00 - 12:00  &  14:00 - 19:00', 'Fri': '09:00 - 12:00  &  14:00 - 19:00', 'Sat': '09:00 - 19:00'}}",+33 5 46 93 17 14,17100,223,,https://magasin.mr-bricolage.fr/223-mr-bricolage-saintes
1 Za Le Bouillon Rue Du Père Albert,Mr Bricolage,PORTBAIL,FR,"{'brand': 'Mr Bricolage', 'fascia': 'Mr Bricolage', 'category': 'Retail', 'edit_date': '2025-03-14', 'lat_lon_source': 'website'}",49.3349,-1.68507,Mr.Bricolage Portbail,"{'opening_hours': {'Mon': '09:00 - 12:00  &  14:00 - 19:00', 'Tue': '09:00 - 12:00  &  14:00 - 19:00', 'Wed': '09:00 - 12:00  &  14:00 - 19:00', 'Thu': '09:00 - 12:00  &  14:00 - 19:00', 'Fri': '09:00 - 12:00  &  14:00 - 19:00', 'Sat': '09:00 - 12:00  &  14:00 - 19:00'}}",+33 2 33 87 63 00,50580,187,,https://magasin.mr-bricolage.fr/187-mr-bricolage-portbail
757 rue Pierre Corneille,Mr Bricolage,Franqueville Saint Pierre,FR,"{'brand': 'Mr Bricolage', 'fascia': 'Mr Bricolage', 'category': 'Retail', 'edit_date': '2025-03-14', 'lat_lon_source': 'website'}",49.4095554,1.1593246,Mr.Bricolage Franqueville Saint Pierre,"{'opening_hours': {'Mon': '09:00 - 12:30  &  14:00 - 19:00', 'Tue': '09:00 - 12:30  &  14:00 - 19:00', 'Wed': '09:00 - 12:30  &  14:00 - 19:00', 'Thu': '09:00 - 12:30  &  14:00 - 19:00', 'Fri': '09:00 - 12:30  &  14:00 - 19:00', 'Sat': '09:00 - 19:00'}}",+33 2 35 23 57 19,76520,363,,https://magasin.mr-bricolage.fr/363-mr-bricolage-franqueville-saint-pierre
395 Rue des Portes,Mr Bricolage,BOURG ACHARD,FR,"{'brand': 'Mr Bricolage', 'fascia': 'Mr Bricolage', 'category': 'Retail', 'edit_date': '2025-03-14', 'lat_lon_source': 'website'}",49.3555439,0.8157425,Mr.Bricolage Bourg Achard,"{'opening_hours': {'Mon': '09:00 - 12:00  &  14:00 - 19:00', 'Tue': '09:00 - 12:00  &  14:00 - 19:00', 'Wed': '09:00 - 12:00  &  14:00 - 19:00', 'Thu': '09:00 - 12:00  &  14:00 - 19:00', 'Fri': '09:00 - 12:00  &  14:00 - 19:00', 'Sat': '09:00 - 12:30  &  14:00 - 19:00', 'Sun': '09:00 - 12:30'}}",+33 2 32 42 02 23,27310,305,,https://magasin.mr-bricolage.fr/305-mr-bricolage-bourg-achard
Rue De Verdun - Zi,Mr Bricolage,LILLERS,FR,"{'brand': 'Mr Bricolage', 'fascia': 'Mr Bricolage', 'category': 'Retail', 'edit_date': '2025-03-14', 'lat_lon_source': 'website'}",50.5547,2.49573,Mr.Bricolage Lillers,"{'opening_hours': {'Mon': '09:00 - 12:00  &  14:00 - 19:00', 'Tue': '09:00 - 12:00  &  14:00 - 19:00', 'Wed': '09:00 - 12:00  &  14:00 - 19:00', 'Thu': '09:00 - 12:00  &  14:00 - 19:00', 'Fri': '09:00 - 12:00  &  14:00 - 19:00', 'Sat': '09:00 - 12:00  &  14:00 - 19:00'}}",+33 3 21 64 73 03,62190,121,,https://magasin.mr-bricolage.fr/121-mr-bricolage-lillers
1 rue Patrick Baudry,Mr Bricolage,CHATEAUBERNARD,FR,"{'brand': 'Mr Bricolage', 'fascia': 'Mr Bricolage', 'category': 'Retail', 'edit_date': '2025-03-14', 'lat_lon_source': 'website'}",45.680984,-0.300288,Mr.Bricolage Chateaubernard Cognac,"{'opening_hours': {'Mon': '08:30 - 12:00  &  14:00 - 19:00', 'Tue': '08:30 - 12:00  &  14:00 - 19:00', 'Wed': '08:30 - 12:00  &  14:00 - 19:00', 'Thu': '08:30 - 12:00  &  14:00 - 19:00', 'Fri': '08:30 - 12:30  &  14:00 - 19:00', 'Sat': '08:30 - 19:00'}}",+33 5 45 35 06 66,16100,61,,https://magasin.mr-bricolage.fr/61-mr-bricolage-chateaubernard-cognac
1 Route De Castelginest Centre Commercial Super U,Mr Bricolage,BRUGUIERES,FR,"{'brand': 'Mr Bricolage', 'fascia': 'Mr Bricolage', 'category': 'Retail', 'edit_date': '2025-03-14', 'lat_lon_source': 'website'}",43.7199,1.41527,Mr.Bricolage Bruguieres,"{'opening_hours': {'Mon': '09:00 - 12:15  &  14:00 - 19:00', 'Tue': '09:00 - 12:15  &  14:00 - 19:00', 'Wed': '09:00 - 12:15  &  14:00 - 19:00', 'Thu': '09:00 - 12:15  &  14:00 - 19:00', 'Fri': '09:00 - 12:15  &  14:00 - 19:00', 'Sat': '09:00 - 12:15  &  14:00 - 19:00'}}",+33 5 61 82 21 12,31150,47,,https://magasin.mr-bricolage.fr/47-mr-bricolage-bruguieres
366 Route De Saint Bel,Mr Bricolage,L ARBRESLE,FR,"{'brand': 'Mr Bricolage', 'fascia': 'Mr Bricolage', 'category': 'Retail', 'edit_date': '2025-03-14', 'lat_lon_source': 'website'}",45.8255,4.60616,Mr.Bricolage L'Arbresle,"{'opening_hours': {'Mon': '09:00 - 12:30  &  14:00 - 19:00', 'Tue': '09:00 - 12:30  &  14:00 - 19:00', 'Wed': '09:00 - 12:30  &  14:00 - 19:00', 'Thu': '09:00 - 12:30  &  14:00 - 19:00', 'Fri': '09:00 - 12:30  &  14:00 - 19:00', 'Sat': '09:00 - 19:00'}}",+33 4 74 01 13 28,69210,104,,https://magasin.mr-bricolage.fr/104-mr-bricolage-l-arbresle
2 Et 4 Rue Jean Delay,Mr Bricolage,ROYAN,FR,"{'brand': 'Mr Bricolage', 'fascia': 'Mr Bricolage', 'category': 'Retail', 'edit_date': '2025-03-14', 'lat_lon_source': 'website'}",45.6292,-1.00299,Mr.Bricolage Royan,"{'opening_hours': {'Mon': '09:00 - 12:30  &  14:00 - 19:00', 'Tue': '09:00 - 12:30  &  14:00 - 19:00', 'Wed': '09:00 - 12:30  &  14:00 - 19:00', 'Thu': '09:00 - 12:30  &  14:00 - 19:00', 'Fri': '09:00 - 12:30  &  14:00 - 19:00', 'Sat': '09:00 - 12:30  &  14:00 - 19:00'}}",+33 5 46 05 06 28,17200,195,,https://magasin.mr-bricolage.fr/195-mr-bricolage-royan
Zac Porte Sud,Mr Bricolage,PONT SAINT ESPRIT,FR,"{'brand': 'Mr Bricolage', 'fascia': 'Mr Bricolage', 'category': 'Retail', 'edit_date': '2025-03-14', 'lat_lon_source': 'website'}",44.2395,4.6377,Mr.Bricolage Pont Saint Esprit,"{'opening_hours': {'Mon': '09:00 - 12:00  &  14:00 - 19:00', 'Tue': '09:00 - 12:00  &  14:00 - 19:00', 'Wed': '09:00 - 12:00  &  14:00 - 19:00', 'Thu': '09:00 - 12:00  &  14:00 - 19:00', 'Fri': '09:00 - 12:00  &  14:00 - 19:00', 'Sat': '09:00 - 12:00  &  14:00 - 19:00'}}",+33 4 66 90 70 73,30130,183,,https://magasin.mr-bricolage.fr/183-mr-bricolage-pont-saint-esprit
Centre Ccial De La Dombes,Mr Bricolage,CHATILLON CHALARONNE,FR,"{'brand': 'Mr Bricolage', 'fascia': 'Mr Bricolage', 'category': 'Retail', 'edit_date': '2025-03-14', 'lat_lon_source': 'website'}",46.1164,4.96376,Mr.Bricolage Chatillon Sur Chalaronne,"{'opening_hours': {'Mon': '09:00 - 12:30  &  14:00 - 19:00', 'Tue': '09:00 - 12:30  &  14:00 - 19:00', 'Wed': '09:00 - 12:30  &  14:00 - 19:00', 'Thu': '09:00 - 12:30  &  14:00 - 19:00', 'Fri': '09:00 - 12:30  &  14:00 - 19:00', 'Sat': '09:00 - 19:00'}}",+33 4 74 55 05 07,01400,64,,https://magasin.mr-bricolage.fr/64-mr-bricolage-chatillon-sur-chalaronne
26 Avenue Edouard Millaud,Mr Bricolage,CRAPONNE,FR,"{'brand': 'Mr Bricolage', 'fascia': 'Mr Bricolage', 'category': 'Retail', 'edit_date': '2025-03-14', 'lat_lon_source': 'website'}",45.7474653,4.7414877,Mr.Bricolage Craponne - Lyon,"{'opening_hours': {'Mon': '09:00 - 19:00', 'Tue': '09:00 - 19:00', 'Wed': '09:00 - 19:00', 'Thu': '09:00 - 19:00', 'Fri': '09:00 - 19:00', 'Sat': '09:00 - 19:00'}}",+33 4 78 57 33 11,69290,74,,https://magasin.mr-bricolage.fr/74-mr-bricolage-craponne-lyon
Zac De La Sauvagine Route D'Amiens,Mr Bricolage,ABBEVILLE,FR,"{'brand': 'Mr Bricolage', 'fascia': 'Mr Bricolage', 'category': 'Retail', 'edit_date': '2025-03-14', 'lat_lon_source': 'website'}",50.1023793,1.8526017,Mr.Bricolage Abbeville,"{'opening_hours': {'Mon': '09:00 - 12:00  &  14:00 - 19:00', 'Tue': '09:00 - 12:00  &  14:00 - 19:00', 'Wed': '09:00 - 12:00  &  14:00 - 19:00', 'Thu': '09:00 - 12:00  &  14:00 - 19:00', 'Fri': '09:00 - 12:00  &  14:00 - 19:00', 'Sat': '09:00 - 19:00'}}",+33 3 22 24 41 85,80100,1,,https://magasin.mr-bricolage.fr/1-mr-bricolage-abbeville
584 Avenue De Croupillac,Mr Bricolage,ALES CROUPILLAC,FR,"{'brand': 'Mr Bricolage', 'fascia': 'Mr Bricolage', 'category': 'Retail', 'edit_date': '2025-03-14', 'lat_lon_source': 'website'}",44.133661,4.104976,Mr.Bricolage Ales Croupillac,"{'opening_hours': {'Mon': '08:30 - 12:00  &  14:00 - 19:00', 'Tue': '08:30 - 12:00  &  14:00 - 19:00', 'Wed': '08:30 - 12:00  &  14:00 - 19:00', 'Thu': '08:30 - 12:00  &  14:00 - 19:00', 'Fri': '08:30 - 12:00  &  14:00 - 19:00', 'Sat': '08:30 - 12:30  &  14:00 - 19:00'}}",+33 4 66 54 24 90,30100,7,,https://magasin.mr-bricolage.fr/7-mr-bricolage-ales-croupillac
rue Muredi,Mr Bricolage,Ghisonaccia,FR,"{'brand': 'Mr Bricolage', 'fascia': 'Mr Bricolage', 'category': 'Retail', 'edit_date': '2025-03-14', 'lat_lon_source': 'website'}",42.0188986,9.406094,Mr.Bricolage Ghisonaccia,"{'opening_hours': {'Mon': '07:30 - 12:00  &  13:30 - 18:30', 'Tue': '07:30 - 12:00  &  13:30 - 18:30', 'Wed': '07:30 - 12:00  &  13:30 - 18:30', 'Thu': '07:30 - 12:00  &  13:30 - 18:30', 'Fri': '07:30 - 12:00  &  13:30 - 18:30', 'Sat': '07:30 - 12:00  &  14:30 - 18:30'}}",+33 4 95 56 25 20,20240,278,,https://magasin.mr-bricolage.fr/278-mr-bricolage-ghisonaccia
3 Avenue Du Maréchal De Lattre De Tassigny,Mr Bricolage,Saint Rémy De Provence,FR,"{'brand': 'Mr Bricolage', 'fascia': 'Mr Bricolage', 'category': 'Retail', 'edit_date': '2025-03-14', 'lat_lon_source': 'website'}",43.7927534,4.8355741,Mr.Bricolage Saint Remy De Provence,"{'opening_hours': {'Mon': '08:30 - 12:00  &  14:00 - 19:00', 'Tue': '08:30 - 12:00  &  14:00 - 19:00', 'Wed': '08:30 - 12:00  &  14:00 - 19:00', 'Thu': '08:30 - 12:00  &  14:00 - 19:00', 'Fri': '08:30 - 12:00  &  14:00 - 19:00', 'Sat': '09:00 - 12:00  &  14:00 - 19:00'}}",+33 4 90 94 90 89,13210,218,,https://magasin.mr-bricolage.fr/218-mr-bricolage-saint-remy-de-provence
361 avenue Emile Bodin,Mr Bricolage,La Ciotat,FR,"{'brand': 'Mr Bricolage', 'fascia': 'Mr Bricolage', 'category': 'Retail', 'edit_date': '2025-03-14', 'lat_lon_source': 'website'}",43.1881037,5.6046085,Mr.Bricolage La Ciotat,"{'opening_hours': {'Mon': '08:30 - 19:00', 'Tue': '08:30 - 19:00', 'Wed': '08:30 - 19:00', 'Thu': '08:30 - 19:00', 'Fri': '08:30 - 19:00', 'Sat': '08:30 - 19:00', 'Sun': '09:00 - 12:30'}}",+33 4 42 70 51 05,13600,353,,https://magasin.mr-bricolage.fr/353-mr-bricolage-la-ciotat
29-31 Avenue Louis Georgeon,Mr Bricolage,Cachan,FR,"{'brand': 'Mr Bricolage', 'fascia': 'Mr Bricolage', 'category': 'Retail', 'edit_date': '2025-03-14', 'lat_lon_source': 'website'}",48.793185,2.334913,Mr.Bricolage Cachan,"{'opening_hours': {'Mon': '09:00 - 19:30', 'Tue': '09:00 - 19:30', 'Wed': '09:00 - 19:30', 'Thu': '09:00 - 19:30', 'Fri': '09:00 - 19:30', 'Sat': '09:00 - 19:30', 'Sun': '09:00 - 12:30'}}",+33 1 46 65 09 50,94230,48,,https://magasin.mr-bricolage.fr/48-mr-bricolage-cachan
10/12 avenue de Toulon,Mr Bricolage,Marseille,FR,"{'brand': 'Mr Bricolage', 'fascia': 'Mr Bricolage', 'category': 'Retail', 'edit_date': '2025-03-14', 'lat_lon_source': 'website'}",43.2858003,5.3852948,Mr.Bricolage Marseille Castellane,"{'opening_hours': {'Mon': '09:00 - 12:30  &  14:00 - 19:00', 'Tue': '09:00 - 12:30  &  14:00 - 19:00', 'Wed': '09:00 - 12:30  &  14:00 - 19:00', 'Thu': '09:00 - 12:30  &  14:00 - 19:00', 'Fri': '09:00 - 12:30  &  14:00 - 19:00', 'Sat': '09:00 - 12:30  &  14:00 - 19:00'}}",+33 4 91 32 18 50,13006,275,,https://magasin.mr-bricolage.fr/275-mr-bricolage-marseille-castellane
15 Rue De Lattre De Tassigny,Mr Bricolage,AMIENS,FR,"{'brand': 'Mr Bricolage', 'fascia': 'Mr Bricolage', 'category': 'Retail', 'edit_date': '2025-03-14', 'lat_lon_source': 'website'}",49.8916951,2.2920911,Mr.Bricolage Amiens,"{'opening_hours': {'Mon': '09:30 - 13:00  &  14:00 - 19:00', 'Tue': '09:30 - 13:00  &  14:00 - 19:00', 'Wed': '09:30 - 13:00  &  14:00 - 19:00', 'Thu': '09:30 - 13:00  &  14:00 - 19:00', 'Fri': '09:30 - 13:00  &  14:00 - 19:00', 'Sat': '09:30 - 13:00  &  14:00 - 19:00'}}",+33 3 22 71 71 22,80000,11,,https://magasin.mr-bricolage.fr/11-mr-bricolage-amiens
15 Rue Des Pres,Mr Bricolage,QUERQUEVILLE,FR,"{'brand': 'Mr Bricolage', 'fascia': 'Mr Bricolage', 'category': 'Retail', 'edit_date': '2025-03-14', 'lat_lon_source': 'website'}",49.6625813,-1.687311,Mr.Bricolage Querqueville,"{'opening_hours': {'Mon': '08:30 - 19:00', 'Tue': '08:30 - 19:00', 'Wed': '08:30 - 19:00', 'Thu': '08:30 - 19:00', 'Fri': '08:30 - 19:00', 'Sat': '08:30 - 19:00'}}",+33 2 33 01 88 00,50460,189,,https://magasin.mr-bricolage.fr/189-mr-bricolage-querqueville
Forum De Grammont 12 Avenue De Grammont,Mr Bricolage,Tours,FR,"{'brand': 'Mr Bricolage', 'fascia': 'Mr Bricolage', 'category': 'Retail', 'edit_date': '2025-03-14', 'lat_lon_source': 'website'}",47.3881,0.689881,Mr.Bricolage Tours,"{'opening_hours': {'Mon': '09:00 - 19:15', 'Tue': '09:00 - 19:15', 'Wed': '09:00 - 19:15', 'Thu': '09:00 - 19:15', 'Fri': '09:00 - 19:15', 'Sat': '09:00 - 19:15'}}",+33 2 47 05 95 47,37000,238,,https://magasin.mr-bricolage.fr/238-mr-bricolage-tours
8 rue Laplace,Mr Bricolage,PONT L'EVEQUE,FR,"{'brand': 'Mr Bricolage', 'fascia': 'Mr Bricolage', 'category': 'Retail', 'edit_date': '2025-03-14', 'lat_lon_source': 'website'}",49.284242,0.2032549,Mr.Bricolage Pont L'Evêque,"{'opening_hours': {'Mon': '08:30 - 19:00', 'Tue': '08:30 - 19:00', 'Wed': '08:30 - 19:00', 'Thu': '08:30 - 19:00', 'Fri': '08:30 - 19:00', 'Sat': '08:30 - 19:00'}}",+33 2 31 65 87 20,14130,336,,https://magasin.mr-bricolage.fr/336-mr-bricolage-pont-l-eveque
Avenue De La Division Leclerc,Mr Bricolage,AVRANCHES,FR,"{'brand': 'Mr Bricolage', 'fascia': 'Mr Bricolage', 'category': 'Retail', 'edit_date': '2025-03-14', 'lat_lon_source': 'website'}",48.679521,-1.341829,Mr.Bricolage Avranches,"{'opening_hours': {'Mon': '08:30 - 19:00', 'Tue': '08:30 - 19:00', 'Wed': '08:30 - 19:00', 'Thu': '08:30 - 19:00', 'Fri': '08:30 - 19:00', 'Sat': '08:30 - 19:00'}}",+33 2 33 79 43 90,50300,25,,https://magasin.mr-bricolage.fr/25-mr-bricolage-avranches
" 77 Route de ROUEN, Centre Commercial",Mr Bricolage,Troarn,FR,"{'brand': 'Mr Bricolage', 'fascia': 'Mr Bricolage', 'category': 'Retail', 'edit_date': '2025-03-14', 'lat_lon_source': 'website'}",49.17941,-0.191782,Mr.Bricolage Troarn,"{'opening_hours': {'Mon': '09:00 - 19:00', 'Tue': '09:00 - 19:00', 'Wed': '09:00 - 19:00', 'Thu': '09:00 - 19:00', 'Fri': '09:00 - 19:00', 'Sat': '09:00 - 19:00'}}",+33 2 61 53 99 94,14670,410,,https://magasin.mr-bricolage.fr/410-mr-bricolage-troarn
Boulevard Pasteur Zac Du Chapitre Centre Commercial Du Val Fleuri,Mr Bricolage,LA CHAPELLE BASSE MER,FR,"{'brand': 'Mr Bricolage', 'fascia': 'Mr Bricolage', 'category': 'Retail', 'edit_date': '2025-03-14', 'lat_lon_source': 'website'}",47.2678,-1.3333,Mr.Bricolage La Chapelle Basse Mer,"{'opening_hours': {'Mon': '09:00 - 12:30  &  14:00 - 19:00', 'Tue': '09:00 - 12:30  &  14:00 - 19:00', 'Wed': '09:00 - 12:30  &  14:00 - 19:00', 'Thu': '09:00 - 12:30  &  14:00 - 19:00', 'Fri': '09:00 - 12:30  &  14:00 - 19:00', 'Sat': '09:00 - 12:30  &  14:00 - 19:00'}}",+33 2 40 33 33 94,44450,105,,https://magasin.mr-bricolage.fr/105-mr-bricolage-la-chapelle-basse-mer
68-80 Avenue du Maine,Mr Bricolage,Paris,FR,"{'brand': 'Mr Bricolage', 'fascia': 'Mr Bricolage', 'category': 'Retail', 'edit_date': '2025-03-14', 'lat_lon_source': 'website'}",48.8386004,2.3214352,Mr.Bricolage Paris 14 Ateliers Gaîté,"{'opening_hours': {'Mon': '09:00 - 20:00', 'Tue': '09:00 - 20:00', 'Wed': '09:00 - 20:00', 'Thu': '09:00 - 20:00', 'Fri': '09:00 - 20:00', 'Sat': '09:00 - 20:00', 'Sun': '10:00 - 19:00'}}",+33 1 82 82 13 02,75014,389,,https://magasin.mr-bricolage.fr/389-mr-bricolage-paris-14-ateliers-gaite
Route Nationale 7,Mr Bricolage,BRIGNOLES,FR,"{'brand': 'Mr Bricolage', 'fascia': 'Mr Bricolage', 'category': 'Retail', 'edit_date': '2025-03-14', 'lat_lon_source': 'website'}",43.4081,6.05161,Mr.Bricolage Brignoles,"{'opening_hours': {'Mon': '08:30 - 19:00', 'Tue': '08:30 - 19:00', 'Wed': '08:30 - 19:00', 'Thu': '08:30 - 19:00', 'Fri': '08:30 - 19:00', 'Sat': '08:30 - 19:00', 'Sun': '09:00 - 12:30'}}",+33 4 94 69 63 10,83170,42,,https://magasin.mr-bricolage.fr/42-mr-bricolage-brignoles
19 Boulevard Jean Jaurès,Mr Bricolage,AIX EN PROVENCE,FR,"{'brand': 'Mr Bricolage', 'fascia': 'Mr Bricolage', 'category': 'Retail', 'edit_date': '2025-03-14', 'lat_lon_source': 'website'}",43.5325676,5.4457181,Mr.Bricolage Aix En Provence,"{'opening_hours': {'Mon': '09:00 - 19:00', 'Tue': '09:00 - 19:00', 'Wed': '09:00 - 19:00', 'Thu': '09:00 - 19:00', 'Fri': '09:00 - 19:00', 'Sat': '09:00 - 19:00'}}",+33 4 12 05 27 65,13100,398,,https://magasin.mr-bricolage.fr/398-mr-bricolage-aix-en-provence
93 Avenue de la Mongie,Mr Bricolage,Pouzac,FR,"{'brand': 'Mr Bricolage', 'fascia': 'Mr Bricolage', 'category': 'Retail', 'edit_date': '2025-03-14', 'lat_lon_source': 'website'}",43.078744,0.142918,Mr.Bricolage Pouzac Bagnères-de-bigorre,"{'opening_hours': {'Mon': '09:00 - 12:00  &  13:30 - 18:30', 'Tue': '09:00 - 12:00  &  13:30 - 18:30', 'Wed': '09:00 - 12:00  &  13:30 - 18:30', 'Thu': '09:00 - 12:00  &  13:30 - 18:30', 'Fri': '09:00 - 12:00  &  13:30 - 18:30', 'Sat': '09:00 - 19:00'}}",+33 5 62 95 54 44,65200,437,,https://magasin.mr-bricolage.fr/437-mr-bricolage-pouzac-bagneres-de-bigorre
4 Rue du Bac,Mr Bricolage,YAINVILLE,FR,"{'brand': 'Mr Bricolage', 'fascia': 'Mr Bricolage', 'category': 'Retail', 'edit_date': '2025-03-14', 'lat_lon_source': 'website'}",49.4571808,0.8215775,Mr.Bricolage Yainville,"{'opening_hours': {'Mon': '09:00 - 12:00  &  14:00 - 19:00', 'Tue': '09:00 - 12:00  &  14:00 - 19:00', 'Wed': '09:00 - 12:00  &  14:00 - 19:00', 'Thu': '09:00 - 12:00  &  14:00 - 19:00', 'Fri': '09:00 - 12:00  &  14:00 - 19:00', 'Sat': '09:00 - 19:00'}}",,76480,435,,https://magasin.mr-bricolage.fr/435-mr-bricolage-yainville
Le Vigné,Mr Bricolage,LAROQUE,FR,"{'brand': 'Mr Bricolage', 'fascia': 'Mr Bricolage', 'category': 'Retail', 'edit_date': '2025-03-14', 'lat_lon_source': 'website'}",43.928102,3.716915,Mr.Bricolage Laroque,"{'opening_hours': {'Mon': '09:00 - 12:00  &  14:00 - 19:00', 'Tue': '09:00 - 12:00  &  14:00 - 19:00', 'Wed': '09:00 - 12:00  &  14:00 - 19:00', 'Thu': '09:00 - 12:00  &  14:00 - 19:00', 'Fri': '09:00 - 12:30  &  14:00 - 19:00', 'Sat': '09:00 - 12:30  &  14:00 - 19:00'}}",+33 4 67 73 81 99,34190,375,,https://magasin.mr-bricolage.fr/375-mr-bricolage-laroque
67 rue Capitale du Bas Poitou,Mr Bricolage,FONTENAY-LE-COMTE,FR,"{'brand': 'Mr Bricolage', 'fascia': 'Mr Bricolage', 'category': 'Retail', 'edit_date': '2025-03-14', 'lat_lon_source': 'website'}",46.4566972,-0.7816435,Mr.Bricolage Fontenay le Comte,"{'opening_hours': {'Mon': '08:30 - 12:30  &  14:00 - 19:00', 'Tue': '08:30 - 12:30  &  14:00 - 19:00', 'Wed': '08:30 - 12:30  &  14:00 - 19:00', 'Thu': '08:30 - 12:30  &  14:00 - 19:00', 'Fri': '08:30 - 12:30  &  14:00 - 19:00', 'Sat': '08:30 - 19:00', 'Sun': '15:00 - 19:00'}}",+33 2 51 50 43 13,85200,415,,https://magasin.mr-bricolage.fr/415-mr-bricolage-fontenay-le-comte
14 Rue Jean-Jacques Rousseau,Mr Bricolage,ARGENTON SUR CREUSE,FR,"{'brand': 'Mr Bricolage', 'fascia': 'Mr Bricolage', 'category': 'Retail', 'edit_date': '2025-03-14', 'lat_lon_source': 'website'}",46.592565,1.516665,Mr.Bricolage Argenton Sur Creuse,"{'opening_hours': {'Mon': '09:00 - 12:00  &  14:00 - 19:00', 'Tue': '09:00 - 12:00  &  14:00 - 19:00', 'Wed': '09:00 - 12:00  &  14:00 - 19:00', 'Thu': '09:00 - 12:00  &  14:00 - 19:00', 'Fri': '09:00 - 12:00  &  14:00 - 19:00', 'Sat': '09:00 - 12:00  &  14:00 - 19:00'}}",+33 2 54 24 41 21,36200,18,,https://magasin.mr-bricolage.fr/18-mr-bricolage-argenton-sur-creuse
Rue Roger Guillamet,Mr Bricolage,LE GUILVINEC,FR,"{'brand': 'Mr Bricolage', 'fascia': 'Mr Bricolage', 'category': 'Retail', 'edit_date': '2025-03-14', 'lat_lon_source': 'website'}",47.7948945,-4.2838962,Mr.Bricolage Le Guilvinec,"{'opening_hours': {'Mon': '09:00 - 12:00  &  14:00 - 19:00', 'Tue': '09:00 - 12:00  &  14:00 - 19:00', 'Wed': '09:00 - 12:00  &  14:00 - 19:00', 'Thu': '09:00 - 12:00  &  14:00 - 19:00', 'Fri': '09:00 - 12:00  &  14:00 - 19:00', 'Sat': '09:00 - 12:00  &  14:00 - 19:00', 'Sun': '09:30 - 12:00'}}",+33 2 98 58 12 25,29730,277,,https://magasin.mr-bricolage.fr/277-mr-bricolage-le-guilvinec
RN7 Route d'Aix,Mr Bricolage,SAINT MAXIMIN,FR,"{'brand': 'Mr Bricolage', 'fascia': 'Mr Bricolage', 'category': 'Retail', 'edit_date': '2025-03-14', 'lat_lon_source': 'website'}",43.45577,5.850765,Mr.Bricolage Saint Maximin La Sainte Baume,"{'opening_hours': {'Mon': '08:30 - 19:00', 'Tue': '08:30 - 19:00', 'Wed': '08:30 - 19:00', 'Thu': '08:30 - 19:00', 'Fri': '08:30 - 19:00', 'Sat': '08:30 - 19:00', 'Sun': '09:00 - 12:30'}}",+33 4 98 05 11 50,83470,211,,https://magasin.mr-bricolage.fr/211-mr-bricolage-saint-maximin-la-sainte-baume
Place Du Dauphine 22 Rue De Bochet,Mr Bricolage,TIGNIEU,FR,"{'brand': 'Mr Bricolage', 'fascia': 'Mr Bricolage', 'category': 'Retail', 'edit_date': '2025-03-14', 'lat_lon_source': 'website'}",45.748329,5.1863293,Mr.Bricolage Tignieu,"{'opening_hours': {'Mon': '09:00 - 19:30', 'Tue': '09:00 - 19:30', 'Wed': '09:00 - 19:30', 'Thu': '09:00 - 19:30', 'Fri': '09:00 - 19:30', 'Sat': '09:00 - 19:30', 'Sun': '09:00 - 12:30'}}",+33 4 78 32 12 96,38230,235,,https://magasin.mr-bricolage.fr/235-mr-bricolage-tignieu
Za Du Pinier,Mr Bricolage,MELLE,FR,"{'brand': 'Mr Bricolage', 'fascia': 'Mr Bricolage', 'category': 'Retail', 'edit_date': '2025-03-14', 'lat_lon_source': 'website'}",46.22889,-0.133163,Mr.Bricolage Melle,"{'opening_hours': {'Mon': '08:30 - 12:30  &  14:00 - 19:00', 'Tue': '08:30 - 12:30  &  14:00 - 19:00', 'Wed': '08:30 - 12:30  &  14:00 - 19:00', 'Thu': '08:30 - 12:30  &  14:00 - 19:00', 'Fri': '08:30 - 12:30  &  14:00 - 19:00', 'Sat': '08:30 - 19:00'}}",+33 5 49 27 08 47,79500,139,,https://magasin.mr-bricolage.fr/139-mr-bricolage-melle
Zone Commerciale La Blanchine,Mr Bricolage,SURGERES 2,FR,"{'brand': 'Mr Bricolage', 'fascia': 'Mr Bricolage', 'category': 'Retail', 'edit_date': '2025-03-14', 'lat_lon_source': 'website'}",46.104913,-0.751411,Mr.Bricolage Surgeres,"{'opening_hours': {'Mon': '08:30 - 12:30  &  14:00 - 19:00', 'Tue': '08:30 - 12:30  &  14:00 - 19:00', 'Wed': '08:30 - 12:30  &  14:00 - 19:00', 'Thu': '08:30 - 12:30  &  14:00 - 19:00', 'Fri': '08:30 - 12:30  &  14:00 - 19:00', 'Sat': '08:30 - 19:00'}}",+33 5 46 31 10 00,17700,230,,https://magasin.mr-bricolage.fr/230-mr-bricolage-surgeres
Za Des Champs De Lonchamp,Mr Bricolage,RUFFEC,FR,"{'brand': 'Mr Bricolage', 'fascia': 'Mr Bricolage', 'category': 'Retail', 'edit_date': '2025-03-14', 'lat_lon_source': 'website'}",46.0292413,0.1736324,Mr.Bricolage Ruffec,"{'opening_hours': {'Mon': '08:30 - 12:30  &  14:00 - 19:00', 'Tue': '08:30 - 12:30  &  14:00 - 19:00', 'Wed': '08:30 - 12:30  &  14:00 - 19:00', 'Thu': '08:30 - 12:30  &  14:00 - 19:00', 'Fri': '08:30 - 12:30  &  14:00 - 19:00', 'Sat': '08:30 - 19:00'}}",+33 5 45 31 14 29,16700,197,,https://magasin.mr-bricolage.fr/197-mr-bricolage-ruffec
1 Ter Passage Saint Pierre,Mr Bricolage,Versailles,FR,"{'brand': 'Mr Bricolage', 'fascia': 'Mr Bricolage', 'category': 'Retail', 'edit_date': '2025-03-14', 'lat_lon_source': 'website'}",48.8041708,2.13218,Mr.Bricolage Versailles,"{'opening_hours': {'Mon': '09:30 - 19:00', 'Tue': '09:30 - 19:00', 'Wed': '09:30 - 19:00', 'Thu': '09:30 - 19:00', 'Fri': '09:30 - 19:00', 'Sat': '09:00 - 19:30', 'Sun': '09:30 - 13:00'}}",+33 1 61 12 26 92,78000,397,,https://magasin.mr-bricolage.fr/397-mr-bricolage-versailles
Avenue Des Arches,Mr Bricolage,ARLES,FR,"{'brand': 'Mr Bricolage', 'fascia': 'Mr Bricolage', 'category': 'Retail', 'edit_date': '2025-03-14', 'lat_lon_source': 'website'}",43.6636,4.639702,Mr.Bricolage Arles,"{'opening_hours': {'Mon': '08:30 - 19:00', 'Tue': '08:30 - 19:00', 'Wed': '08:30 - 19:00', 'Thu': '08:30 - 19:00', 'Fri': '08:30 - 19:00', 'Sat': '08:30 - 19:00', 'Sun': '09:00 - 12:30'}}",+33 4 90 18 41 84,13200,19,,https://magasin.mr-bricolage.fr/19-mr-bricolage-arles
268 Route d’Avignon,Mr Bricolage,MONTEUX,FR,"{'brand': 'Mr Bricolage', 'fascia': 'Mr Bricolage', 'category': 'Retail', 'edit_date': '2025-03-14', 'lat_lon_source': 'website'}",44.0319604,4.9801978,Mr.Bricolage Monteux,"{'opening_hours': {'Mon': '08:30 - 19:00', 'Tue': '08:30 - 19:00', 'Wed': '08:30 - 19:00', 'Thu': '08:30 - 19:00', 'Fri': '08:30 - 19:00', 'Sat': '08:30 - 19:00', 'Sun': '09:00 - 12:30'}}",+33 4 90 30 32 89,84170,417,,https://magasin.mr-bricolage.fr/417-mr-bricolage-monteux
Zone Des Fauvins,Mr Bricolage,GAP,FR,"{'brand': 'Mr Bricolage', 'fascia': 'Mr Bricolage', 'category': 'Retail', 'edit_date': '2025-03-14', 'lat_lon_source': 'website'}",44.563436,6.09456,Mr.Bricolage Gap,"{'opening_hours': {'Mon': '08:30 - 19:00', 'Tue': '08:30 - 19:00', 'Wed': '08:30 - 19:00', 'Thu': '08:30 - 19:00', 'Fri': '08:30 - 19:00', 'Sat': '08:30 - 19:00', 'Sun': '09:00 - 12:30'}}",+33 4 92 51 01 10,05000,91,,https://magasin.mr-bricolage.fr/91-mr-bricolage-gap
Zac De Tesan Sud,Mr Bricolage,SAINT LAURENT DES ARBRES,FR,"{'brand': 'Mr Bricolage', 'fascia': 'Mr Bricolage', 'category': 'Retail', 'edit_date': '2025-03-14', 'lat_lon_source': 'website'}",44.05891402139,4.7124886223678,Mr.Bricolage Saint Laurent Des Arbres,"{'opening_hours': {'Mon': '09:00 - 12:00  &  14:00 - 19:00', 'Tue': '09:00 - 12:00  &  14:00 - 19:00', 'Wed': '09:00 - 12:00  &  14:00 - 19:00', 'Thu': '09:00 - 12:00  &  14:00 - 19:00', 'Fri': '09:00 - 12:00  &  14:00 - 19:00', 'Sat': '09:00 - 12:30  &  14:00 - 19:00'}}",+33 4 66 50 67 41,30126,263,,https://magasin.mr-bricolage.fr/263-mr-bricolage-saint-laurent-des-arbres
7 rue de l'Ancre,Mr Bricolage,PORT,FR,"{'brand': 'Mr Bricolage', 'fascia': 'Mr Bricolage', 'category': 'Retail', 'edit_date': '2025-03-14', 'lat_lon_source': 'website'}",46.1657688,5.5710988,Mr.Bricolage Port,"{'opening_hours': {'Mon': '09:00 - 12:00  &  14:00 - 19:00', 'Tue': '09:00 - 12:00  &  14:00 - 19:00', 'Wed': '09:00 - 12:00  &  14:00 - 19:00', 'Thu': '09:00 - 12:00  &  14:00 - 19:00', 'Fri': '09:00 - 12:00  &  14:00 - 19:00', 'Sat': '09:00 - 12:00  &  14:00 - 19:00'}}",+33 4 74 76 26 76,01460,372,,https://magasin.mr-bricolage.fr/372-mr-bricolage-port
Rue Lavoisier,Mr Bricolage,ANNOEULLIN,FR,"{'brand': 'Mr Bricolage', 'fascia': 'Mr Bricolage', 'category': 'Retail', 'edit_date': '2025-03-14', 'lat_lon_source': 'website'}",50.5284,2.9433,Mr.Bricolage Annoeullin,"{'opening_hours': {'Mon': '09:00 - 12:30  &  13:30 - 19:00', 'Tue': '09:00 - 12:30  &  13:30 - 19:00', 'Wed': '09:00 - 12:30  &  13:30 - 19:00', 'Thu': '09:00 - 12:30  &  13:30 - 19:00', 'Fri': '09:00 - 12:30  &  13:30 - 19:00', 'Sat': '09:00 - 19:00'}}",+33 3 20 85 43 30,59112,14,,https://magasin.mr-bricolage.fr/14-mr-bricolage-annoeullin
Centre Commercial Des Albères,Mr Bricolage,LAROQUE DES ALBERES,FR,"{'brand': 'Mr Bricolage', 'fascia': 'Mr Bricolage', 'category': 'Retail', 'edit_date': '2025-03-14', 'lat_lon_source': 'website'}",42.547338,2.9401829999999,Mr.Bricolage Laroque Des Alberes,"{'opening_hours': {'Mon': '09:00 - 12:00  &  14:00 - 19:00', 'Tue': '09:00 - 12:00  &  14:00 - 19:00', 'Wed': '09:00 - 12:00  &  14:00 - 19:00', 'Thu': '09:00 - 12:00  &  14:00 - 19:00', 'Fri': '09:00 - 12:00  &  14:00 - 19:00', 'Sat': '09:00 - 12:00  &  14:00 - 19:00'}}",+33 4 68 89 83 71,66740,262,,https://magasin.mr-bricolage.fr/262-mr-bricolage-laroque-des-alberes
Route de Cambo,Mr Bricolage,HASPARREN,FR,"{'brand': 'Mr Bricolage', 'fascia': 'Mr Bricolage', 'category': 'Retail', 'edit_date': '2025-03-14', 'lat_lon_source': 'website'}",43.3829226,-1.3243506,Mr.Bricolage Hasparren,"{'opening_hours': {'Mon': '09:00 - 12:15  &  14:00 - 19:00', 'Tue': '09:00 - 12:15  &  14:00 - 19:00', 'Wed': '09:00 - 12:15  &  14:00 - 19:00', 'Thu': '09:00 - 12:15  &  14:00 - 19:00', 'Fri': '09:00 - 12:15  &  14:00 - 19:00', 'Sat': '09:00 - 12:15  &  14:00 - 19:00'}}",+33 5 24 33 02 59,64240,334,,https://magasin.mr-bricolage.fr/334-mr-bricolage-hasparren
169-171 Rue Saint Maur,Mr Bricolage,Paris,FR,"{'brand': 'Mr Bricolage', 'fascia': 'Mr Bricolage', 'category': 'Retail', 'edit_date': '2025-03-14', 'lat_lon_source': 'website'}",48.8699041,2.3732374,Mr.Bricolage Paris 11 - Saint-Maur,"{'opening_hours': {'Mon': '09:30 - 19:30', 'Tue': '09:30 - 19:30', 'Wed': '09:30 - 19:30', 'Thu': '09:30 - 19:30', 'Fri': '09:30 - 19:30', 'Sat': '09:30 - 19:30'}}",+33 1 49 23 73 00,75011,165,,https://magasin.mr-bricolage.fr/165-mr-bricolage-paris-11-saint-maur
1 avenue de l'aérodrome,Mr Bricolage,SAINT ESTEVE,FR,"{'brand': 'Mr Bricolage', 'fascia': 'Mr Bricolage', 'category': 'Retail', 'edit_date': '2025-03-14', 'lat_lon_source': 'website'}",42.715576,2.850382,Mr.Bricolage Saint Estève,"{'opening_hours': {'Mon': '09:00 - 12:00  &  14:00 - 19:00', 'Tue': '09:00 - 12:00  &  14:00 - 19:00', 'Wed': '09:00 - 12:00  &  14:00 - 19:00', 'Thu': '09:00 - 12:00  &  14:00 - 19:00', 'Fri': '09:00 - 12:00  &  14:00 - 19:00', 'Sat': '09:00 - 12:00  &  14:00 - 19:00'}}",+33 4 68 08 11 68,66240,171,,https://magasin.mr-bricolage.fr/171-mr-bricolage-saint-esteve
Avenue Du Maréchal De Lattre De Tassigny,Mr Bricolage,SAINT ROMAIN DE COLBOSC,FR,"{'brand': 'Mr Bricolage', 'fascia': 'Mr Bricolage', 'category': 'Retail', 'edit_date': '2025-03-14', 'lat_lon_source': 'website'}",49.528346,0.344585,Mr.Bricolage Saint Romain De Colbosc,"{'opening_hours': {'Mon': '09:00 - 19:00', 'Tue': '09:00 - 19:00', 'Wed': '09:00 - 19:00', 'Thu': '09:00 - 19:00', 'Fri': '09:00 - 19:00', 'Sat': '09:00 - 19:00'}}",+33 2 32 79 09 41,76430,220,,https://magasin.mr-bricolage.fr/220-mr-bricolage-saint-romain-de-colbosc
Centre Commercial Champion,Mr Bricolage,Vauvert,FR,"{'brand': 'Mr Bricolage', 'fascia': 'Mr Bricolage', 'category': 'Retail', 'edit_date': '2025-03-14', 'lat_lon_source': 'website'}",43.6893371,4.2734009,Mr.Bricolage Vauvert,"{'opening_hours': {'Mon': '08:30 - 12:00  &  14:00 - 19:00', 'Tue': '08:30 - 12:00  &  14:00 - 19:00', 'Wed': '08:30 - 12:00  &  14:00 - 19:00', 'Thu': '08:30 - 12:00  &  14:00 - 19:00', 'Fri': '08:30 - 12:00  &  14:00 - 19:00', 'Sat': '08:30 - 12:00  &  14:00 - 19:00'}}",+33 4 66 88 21 53,30600,332,,https://magasin.mr-bricolage.fr/332-mr-bricolage-vauvert
3 Avenue Jules Ferry,Mr Bricolage,ST LAURENT DU PONT,FR,"{'brand': 'Mr Bricolage', 'fascia': 'Mr Bricolage', 'category': 'Retail', 'edit_date': '2025-03-14', 'lat_lon_source': 'website'}",45.3892633,5.7330736,Mr.Bricolage Saint Laurent Du Pont,"{'opening_hours': {'Mon': '09:00 - 12:00  &  14:00 - 19:00', 'Tue': '09:00 - 12:00  &  14:00 - 19:00', 'Wed': '09:00 - 12:00  &  14:00 - 19:00', 'Thu': '09:00 - 12:00  &  14:00 - 19:00', 'Fri': '09:00 - 12:00  &  14:00 - 19:00', 'Sat': '09:00 - 12:30  &  14:00 - 19:00'}}",+33 4 76 55 18 36,38380,207,,https://magasin.mr-bricolage.fr/207-mr-bricolage-saint-laurent-du-pont
"335, avenue de Borgo",Mr Bricolage,BORGO,FR,"{'brand': 'Mr Bricolage', 'fascia': 'Mr Bricolage', 'category': 'Retail', 'edit_date': '2025-03-14', 'lat_lon_source': 'website'}",42.55265850604,9.4408192092621,Mr.Bricolage Borgo,"{'opening_hours': {'Mon': '08:00 - 19:00', 'Tue': '08:00 - 19:00', 'Wed': '08:00 - 19:00', 'Thu': '08:00 - 19:00', 'Fri': '08:00 - 19:00', 'Sat': '08:00 - 19:00'}}",+33 4 95 36 16 16,20290,303,,https://magasin.mr-bricolage.fr/303-mr-bricolage-borgo
Centre Commercial Flassian 1 Rue Louis Blériot,Mr Bricolage,LIMOUX,FR,"{'brand': 'Mr Bricolage', 'fascia': 'Mr Bricolage', 'category': 'Retail', 'edit_date': '2025-03-14', 'lat_lon_source': 'website'}",43.056043,2.213238,Mr.Bricolage Limoux,"{'opening_hours': {'Mon': '09:00 - 12:30  &  14:00 - 19:00', 'Tue': '09:00 - 12:30  &  14:00 - 19:00', 'Wed': '09:00 - 12:30  &  14:00 - 19:00', 'Thu': '09:00 - 12:30  &  14:00 - 19:00', 'Fri': '09:00 - 12:30  &  14:00 - 19:00', 'Sat': '09:00 - 12:30  &  14:00 - 19:00'}}",+33 4 68 74 71 71,11300,122,,https://magasin.mr-bricolage.fr/122-mr-bricolage-limoux
7 avenue Georges Pompidou,Mr Bricolage,FIGEAC,FR,"{'brand': 'Mr Bricolage', 'fascia': 'Mr Bricolage', 'category': 'Retail', 'edit_date': '2025-03-14', 'lat_lon_source': 'website'}",44.6064635,2.0252527,Mr.Bricolage Figeac,"{'opening_hours': {'Mon': '08:30 - 12:00  &  14:00 - 19:00', 'Tue': '08:30 - 12:00  &  14:00 - 19:00', 'Wed': '08:30 - 12:00  &  14:00 - 19:00', 'Thu': '08:30 - 12:00  &  14:00 - 19:00', 'Fri': '08:30 - 12:00  &  14:00 - 19:00', 'Sat': '09:00 - 12:30  &  14:00 - 19:00'}}",+33 5 65 34 26 42,46100,357,,https://magasin.mr-bricolage.fr/357-mr-bricolage-figeac
220 Allée de la Picholine,Mr Bricolage,Marguerittes,FR,"{'brand': 'Mr Bricolage', 'fascia': 'Mr Bricolage', 'category': 'Retail', 'edit_date': '2025-03-14', 'lat_lon_source': 'website'}",43.8600398,4.4323464,Mr.Bricolage Marguerittes,"{'opening_hours': {'Mon': '09:00 - 12:00  &  14:00 - 19:00', 'Tue': '09:00 - 12:00  &  14:00 - 19:00', 'Wed': '09:00 - 12:00  &  14:00 - 19:00', 'Thu': '09:00 - 12:00  &  14:00 - 19:00', 'Fri': '09:00 - 12:00  &  14:00 - 19:00', 'Sat': '09:00 - 19:00', 'Sun': '09:00 - 12:00'}}",+33 4 11 25 02 77,30320,414,,https://magasin.mr-bricolage.fr/414-mr-bricolage-marguerittes
3 Chemin De La Creule,Mr Bricolage,HAZEBROUCK,FR,"{'brand': 'Mr Bricolage', 'fascia': 'Mr Bricolage', 'category': 'Retail', 'edit_date': '2025-03-14', 'lat_lon_source': 'website'}",50.742572,2.549824,Mr.Bricolage Hazebrouck,"{'opening_hours': {'Mon': '09:00 - 12:30  &  13:30 - 19:00', 'Tue': '09:00 - 12:30  &  13:30 - 19:00', 'Wed': '09:00 - 12:30  &  13:30 - 19:00', 'Thu': '09:00 - 12:30  &  13:30 - 19:00', 'Fri': '09:00 - 12:30  &  13:30 - 19:00', 'Sat': '09:00 - 19:00'}}",+33 3 28 40 13 75,59190,99,,https://magasin.mr-bricolage.fr/99-mr-bricolage-hazebrouck
9 Cours Jean Ballard,Mr Bricolage,Marseille,FR,"{'brand': 'Mr Bricolage', 'fascia': 'Mr Bricolage', 'category': 'Retail', 'edit_date': '2025-03-14', 'lat_lon_source': 'website'}",43.293187,5.3747182,Mr.Bricolage Marseille Ballard,"{'opening_hours': {'Mon': '09:00 - 12:30  &  14:00 - 19:00', 'Tue': '09:00 - 12:30  &  14:00 - 19:00', 'Wed': '09:00 - 12:30  &  14:00 - 19:00', 'Thu': '09:00 - 12:30  &  14:00 - 19:00', 'Fri': '09:00 - 12:30  &  14:00 - 19:00', 'Sat': '09:00 - 12:30  &  14:00 - 19:00'}}",+33 4 91 33 04 60,13001,371,,https://magasin.mr-bricolage.fr/371-mr-bricolage-marseille-ballard
2-3 rue Georges Brassens,Mr Bricolage,MIGENNES,FR,"{'brand': 'Mr Bricolage', 'fascia': 'Mr Bricolage', 'category': 'Retail', 'edit_date': '2025-03-14', 'lat_lon_source': 'website'}",47.973231,3.508583,Mr.Bricolage Migennes,"{'opening_hours': {'Mon': '09:00 - 12:00  &  14:00 - 19:00', 'Tue': '09:00 - 12:00  &  14:00 - 19:00', 'Wed': '09:00 - 12:00  &  14:00 - 19:00', 'Thu': '09:00 - 12:00  &  14:00 - 19:00', 'Fri': '09:00 - 12:00  &  14:00 - 19:00', 'Sat': '09:00 - 19:00', 'Sun': '09:30 - 12:00'}}",+33 3 72 60 05 20,89400,361,,https://magasin.mr-bricolage.fr/361-mr-bricolage-migennes
12 Avenue Marcel Paul,Mr Bricolage,Boulazac,FR,"{'brand': 'Mr Bricolage', 'fascia': 'Mr Bricolage', 'category': 'Retail', 'edit_date': '2025-03-14', 'lat_lon_source': 'website'}",45.1829013,0.7689695,Mr.Bricolage Boulazac,"{'opening_hours': {'Mon': '09:00 - 19:00', 'Tue': '09:00 - 19:00', 'Wed': '09:00 - 19:00', 'Thu': '09:00 - 19:00', 'Fri': '09:00 - 19:00', 'Sat': '09:00 - 19:00', 'Sun': '09:30 - 12:30'}}",+33 5 53 50 45 54,24750,428,,https://magasin.mr-bricolage.fr/428-mr-bricolage-boulazac
1 Rue Rémi Comet Route de Juzet,Mr Bricolage,Juzet De Luchon,FR,"{'brand': 'Mr Bricolage', 'fascia': 'Mr Bricolage', 'category': 'Retail', 'edit_date': '2025-03-14', 'lat_lon_source': 'website'}",42.8051331,0.6007326,Mr.Bricolage Luchon,"{'opening_hours': {'Mon': '08:00 - 12:00  &  14:00 - 18:00', 'Tue': '08:00 - 12:00  &  14:00 - 18:00', 'Wed': '08:00 - 12:00  &  14:00 - 18:00', 'Thu': '08:00 - 12:00  &  14:00 - 18:00', 'Fri': '08:00 - 12:00  &  14:00 - 18:00', 'Sat': '08:00 - 12:00  &  14:00 - 18:00'}}",+33 5 61 79 12 92,31110,373,,https://magasin.mr-bricolage.fr/373-mr-bricolage-luchon
ZA Les Nettes,Mr Bricolage,COSNE D'ALLIER,FR,"{'brand': 'Mr Bricolage', 'fascia': 'Mr Bricolage', 'category': 'Retail', 'edit_date': '2025-03-14', 'lat_lon_source': 'website'}",46.4722073,2.823167,Mr.Bricolage Cosne d'Allier,"{'opening_hours': {'Mon': '09:00 - 12:30  &  14:00 - 19:00', 'Tue': '09:00 - 12:30  &  14:00 - 19:00', 'Wed': '09:00 - 12:30  &  14:00 - 19:00', 'Thu': '09:00 - 12:30  &  14:00 - 19:00', 'Fri': '09:00 - 12:30  &  14:00 - 19:00', 'Sat': '09:00 - 12:30  &  14:00 - 19:00'}}",+33 4 70 02 02 02,03430,355,,https://magasin.mr-bricolage.fr/355-mr-bricolage-cosne-d-allier
2 route de Nice,Mr Bricolage,LE ROURET,FR,"{'brand': 'Mr Bricolage', 'fascia': 'Mr Bricolage', 'category': 'Retail', 'edit_date': '2025-03-14', 'lat_lon_source': 'website'}",43.6723842,6.9934676,Mr.Bricolage Le Rouret,"{'opening_hours': {'Mon': '08:30 - 12:30  &  14:00 - 19:00', 'Tue': '08:30 - 12:30  &  14:00 - 19:00', 'Wed': '08:30 - 12:30  &  14:00 - 19:00', 'Thu': '08:30 - 12:30  &  14:00 - 19:00', 'Fri': '08:30 - 12:30  &  14:00 - 19:00', 'Sat': '08:30 - 12:30  &  14:00 - 19:00', 'Sun': '08:30 - 12:30'}}",+33 4 93 77 76 60,06650,346,,https://magasin.mr-bricolage.fr/346-mr-bricolage-le-rouret
Zone D'Activité Bois Redon,Mr Bricolage,ST MARTIN LACAUSSADE,FR,"{'brand': 'Mr Bricolage', 'fascia': 'Mr Bricolage', 'category': 'Retail', 'edit_date': '2025-03-14', 'lat_lon_source': 'website'}",45.128229,-0.643291,Mr.Bricolage Saint Martin Lacaussade - Blaye,"{'opening_hours': {'Mon': '09:00 - 12:00  &  14:00 - 19:00', 'Tue': '09:00 - 12:00  &  14:00 - 19:00', 'Wed': '09:00 - 12:30  &  14:00 - 19:00', 'Thu': '09:00 - 12:00  &  14:00 - 19:00', 'Fri': '09:00 - 12:00  &  14:00 - 19:00', 'Sat': '09:00 - 12:30  &  14:00 - 19:00'}}",+33 5 57 42 01 01,33390,210,,https://magasin.mr-bricolage.fr/210-mr-bricolage-saint-martin-lacaussade-blaye
126 avenue de Jalday,Mr Bricolage,SAINT JEAN DE LUZ,FR,"{'brand': 'Mr Bricolage', 'fascia': 'Mr Bricolage', 'category': 'Retail', 'edit_date': '2025-03-14', 'lat_lon_source': 'website'}",43.406418831247,-1.6234614773155,Mr.Bricolage Saint Jean De Luz,"{'opening_hours': {'Mon': '09:00 - 12:30  &  14:00 - 19:00', 'Tue': '09:00 - 12:30  &  14:00 - 19:00', 'Wed': '09:00 - 12:30  &  14:00 - 19:00', 'Thu': '09:00 - 12:30  &  14:00 - 19:00', 'Fri': '09:00 - 12:30  &  14:00 - 19:00', 'Sat': '09:00 - 12:30  &  14:00 - 19:00'}}",+33 5 59 85 11 19,64500,324,,https://magasin.mr-bricolage.fr/324-mr-bricolage-saint-jean-de-luz
Rue de la Voie Lactée – Zone Cosmo,Mr Bricolage,GIGNAC,FR,"{'brand': 'Mr Bricolage', 'fascia': 'Mr Bricolage', 'category': 'Retail', 'edit_date': '2025-03-14', 'lat_lon_source': 'website'}",43.652070807976,3.5410452293305,Mr.Bricolage Gignac,"{'opening_hours': {'Mon': '08:30 - 12:30  &  14:00 - 19:00', 'Tue': '08:30 - 12:30  &  14:00 - 19:00', 'Wed': '08:30 - 12:30  &  14:00 - 19:00', 'Thu': '08:30 - 12:30  &  14:00 - 19:00', 'Fri': '08:30 - 12:30  &  14:00 - 19:00', 'Sat': '08:30 - 19:00'}}",+33 4 67 57 62 36,34150,281,,https://magasin.mr-bricolage.fr/281-mr-bricolage-gignac
Avenue Raymond Poincaré,Mr Bricolage,OBJAT,FR,"{'brand': 'Mr Bricolage', 'fascia': 'Mr Bricolage', 'category': 'Retail', 'edit_date': '2025-03-14', 'lat_lon_source': 'website'}",45.2570488,1.4137059,Mr.Bricolage Objat,"{'opening_hours': {'Mon': '08:30 - 12:30  &  14:00 - 19:00', 'Tue': '08:30 - 12:30  &  14:00 - 19:00', 'Wed': '08:30 - 12:30  &  14:00 - 19:00', 'Thu': '08:30 - 12:30  &  14:00 - 19:00', 'Fri': '08:30 - 12:30  &  14:00 - 19:00', 'Sat': '08:30 - 12:30  &  14:00 - 19:00', 'Sun': '09:00 - 12:30'}}",+33 5 55 25 06 32,19130,440,,https://magasin.mr-bricolage.fr/440-mr-bricolage-objat
9 rue des lits militaires,Mr Bricolage,ANTIBES,FR,"{'brand': 'Mr Bricolage', 'fascia': 'Mr Bricolage', 'category': 'Retail', 'edit_date': '2025-03-14', 'lat_lon_source': 'website'}",43.5784345,7.1182176,Mr.Bricolage Antibes,"{'opening_hours': {'Mon': '08:30 - 12:30  &  14:00 - 19:00', 'Tue': '08:30 - 12:30  &  14:00 - 19:00', 'Wed': '08:30 - 12:30  &  14:00 - 19:00', 'Thu': '08:30 - 12:30  &  14:00 - 19:00', 'Fri': '08:30 - 12:30  &  14:00 - 19:00', 'Sat': '08:30 - 12:30  &  14:00 - 19:00', 'Sun': '09:00 - 12:30'}}",+33 4 93 67 50 32,06600,340,,https://magasin.mr-bricolage.fr/340-mr-bricolage-antibes
Rue Illurie Za De Kerollaire,Mr Bricolage,SARZEAU,FR,"{'brand': 'Mr Bricolage', 'fascia': 'Mr Bricolage', 'category': 'Retail', 'edit_date': '2025-03-14', 'lat_lon_source': 'website'}",47.522204,-2.78452,Mr.Bricolage Sarzeau,"{'opening_hours': {'Mon': '09:00 - 12:15  &  14:00 - 19:00', 'Tue': '09:00 - 12:15  &  14:00 - 19:00', 'Wed': '09:00 - 12:15  &  14:00 - 19:00', 'Thu': '09:00 - 12:15  &  14:00 - 19:00', 'Fri': '09:00 - 12:15  &  14:00 - 19:00', 'Sat': '09:00 - 12:30  &  14:00 - 19:00'}}",+33 2 97 48 20 20,56370,224,,https://magasin.mr-bricolage.fr/224-mr-bricolage-sarzeau
25 Avenue De L'Europe,Mr Bricolage,MONTMORILLON,FR,"{'brand': 'Mr Bricolage', 'fascia': 'Mr Bricolage', 'category': 'Retail', 'edit_date': '2025-03-14', 'lat_lon_source': 'website'}",46.4241519,0.858881,Mr.Bricolage Montmorillon,"{'opening_hours': {'Mon': '09:00 - 12:00  &  14:00 - 19:00', 'Tue': '09:00 - 12:00  &  14:00 - 19:00', 'Wed': '09:00 - 12:00  &  14:00 - 19:00', 'Thu': '09:00 - 12:00  &  14:00 - 19:00', 'Fri': '09:00 - 12:00  &  14:00 - 19:00', 'Sat': '09:00 - 12:00  &  14:00 - 19:00'}}",+33 5 49 84 00 04,86500,148,,https://magasin.mr-bricolage.fr/148-mr-bricolage-montmorillon
16 Route De Saint Pourçain,Mr Bricolage,CHARMEIL,FR,"{'brand': 'Mr Bricolage', 'fascia': 'Mr Bricolage', 'category': 'Retail', 'edit_date': '2025-03-14', 'lat_lon_source': 'website'}",46.157772,3.391121,Mr.Bricolage Charmeil - Vichy,"{'opening_hours': {'Mon': '08:30 - 19:00', 'Tue': '08:30 - 19:00', 'Wed': '08:30 - 19:00', 'Thu': '08:30 - 19:00', 'Fri': '08:30 - 19:00', 'Sat': '08:30 - 19:00', 'Sun': '09:00 - 12:30'}}",+33 4 70 58 84 70,03110,59,,https://magasin.mr-bricolage.fr/59-mr-bricolage-charmeil-vichy
Za De La Chesnais,Mr Bricolage,SAINT MALO,FR,"{'brand': 'Mr Bricolage', 'fascia': 'Mr Bricolage', 'category': 'Retail', 'edit_date': '2025-03-14', 'lat_lon_source': 'website'}",48.6028,-1.9736,Mr.Bricolage Saint-Malo à Saint Jouan des Guerets,"{'opening_hours': {'Mon': '09:00 - 19:00', 'Tue': '09:00 - 19:00', 'Wed': '09:00 - 19:00', 'Thu': '09:00 - 19:00', 'Fri': '09:00 - 19:00', 'Sat': '09:00 - 19:00'}}",+33 2 99 19 10 40,35430,205,,https://magasin.mr-bricolage.fr/205-mr-bricolage-saint-malo-a-saint-jouan-des-guerets
Zi Plan D'Acier,Mr Bricolage,SAINT CLAUDE,FR,"{'brand': 'Mr Bricolage', 'fascia': 'Mr Bricolage', 'category': 'Retail', 'edit_date': '2025-03-14', 'lat_lon_source': 'website'}",46.3843,5.83464,Mr.Bricolage Saint Claude,"{'opening_hours': {'Mon': '09:00 - 12:00  &  14:00 - 19:00', 'Tue': '09:00 - 12:00  &  14:00 - 19:00', 'Wed': '09:00 - 12:00  &  14:00 - 19:00', 'Thu': '09:00 - 12:00  &  14:00 - 19:00', 'Fri': '09:00 - 12:00  &  14:00 - 19:00', 'Sat': '09:00 - 12:00  &  14:00 - 19:00'}}",+33 3 84 45 10 85,39200,199,,https://magasin.mr-bricolage.fr/199-mr-bricolage-saint-claude
Zone Commerciale Du Gouzet,Mr Bricolage,BEDEE,FR,"{'brand': 'Mr Bricolage', 'fascia': 'Mr Bricolage', 'category': 'Retail', 'edit_date': '2025-03-14', 'lat_lon_source': 'website'}",48.140273,-1.939248,Mr.Bricolage Pays de Montfort - Bédée,"{'opening_hours': {'Mon': '09:00 - 12:30  &  13:45 - 19:00', 'Tue': '09:00 - 12:30  &  13:45 - 19:00', 'Wed': '09:00 - 12:30  &  13:45 - 19:00', 'Thu': '09:00 - 12:30  &  13:45 - 19:00', 'Fri': '09:00 - 12:30  &  13:45 - 19:00', 'Sat': '09:00 - 19:00'}}",+33 2 23 43 53 60,35137,33,,https://magasin.mr-bricolage.fr/33-mr-bricolage-pays-de-montfort-bedee
11 Rue De Brack,Mr Bricolage,SAINT AVOLD,FR,"{'brand': 'Mr Bricolage', 'fascia': 'Mr Bricolage', 'category': 'Retail', 'edit_date': '2025-03-14', 'lat_lon_source': 'website'}",49.1161,6.70927,Mr.Bricolage Saint-Avold,"{'opening_hours': {'Mon': '09:00 - 12:00  &  14:00 - 19:00', 'Tue': '09:00 - 12:00  &  14:00 - 19:00', 'Wed': '09:00 - 12:00  &  14:00 - 19:00', 'Thu': '09:00 - 12:00  &  14:00 - 19:00', 'Fri': '09:00 - 12:00  &  14:00 - 19:00', 'Sat': '09:00 - 12:30  &  14:00 - 19:00'}}",+33 3 87 29 81 81,57500,222,,https://magasin.mr-bricolage.fr/222-mr-bricolage-saint-avold
"84, avenue Ledru Rollin",Mr Bricolage,Paris,FR,"{'brand': 'Mr Bricolage', 'fascia': 'Mr Bricolage', 'category': 'Retail', 'edit_date': '2025-03-14', 'lat_lon_source': 'website'}",48.8500796,2.3751067,Mr.Bricolage Paris 12 - Ledru Rollin,"{'opening_hours': {'Mon': '09:15 - 19:15', 'Tue': '09:15 - 19:15', 'Wed': '09:15 - 19:15', 'Thu': '09:15 - 19:15', 'Fri': '09:15 - 19:15', 'Sat': '09:15 - 19:15'}}",+33 1 44 74 06 06,75012,419,,https://magasin.mr-bricolage.fr/419-mr-bricolage-paris-12-ledru-rollin
1 Et 3 Boulevard De La Marne,Mr Bricolage,COULOMMIERS,FR,"{'brand': 'Mr Bricolage', 'fascia': 'Mr Bricolage', 'category': 'Retail', 'edit_date': '2025-03-14', 'lat_lon_source': 'website'}",48.804459,3.088143,Mr.Bricolage Coulommiers,"{'opening_hours': {'Mon': '08:30 - 19:00', 'Tue': '08:30 - 19:00', 'Wed': '08:30 - 19:00', 'Thu': '08:30 - 19:00', 'Fri': '08:30 - 19:00', 'Sat': '08:30 - 19:00', 'Sun': '09:30 - 12:30'}}",+33 1 64 75 84 90,77120,72,,https://magasin.mr-bricolage.fr/72-mr-bricolage-coulommiers
Rue des Statices,Mr Bricolage,MUZILLAC,FR,"{'brand': 'Mr Bricolage', 'fascia': 'Mr Bricolage', 'category': 'Retail', 'edit_date': '2025-03-14', 'lat_lon_source': 'website'}",47.5457949,-2.7253402,Mr.Bricolage Muzillac,"{'opening_hours': {'Mon': '09:00 - 12:15  &  14:00 - 19:00', 'Tue': '09:00 - 12:15  &  14:00 - 19:00', 'Wed': '09:00 - 12:15  &  14:00 - 19:00', 'Thu': '09:00 - 12:15  &  14:00 - 19:00', 'Fri': '09:00 - 12:15  &  14:00 - 19:00', 'Sat': '09:00 - 12:30  &  14:00 - 19:00'}}",+33 2 97 41 59 12,56190,153,,https://magasin.mr-bricolage.fr/153-mr-bricolage-muzillac
ZA Champs de Berre,Mr Bricolage,Saint Just Malmont,FR,"{'brand': 'Mr Bricolage', 'fascia': 'Mr Bricolage', 'category': 'Retail', 'edit_date': '2025-03-14', 'lat_lon_source': 'website'}",45.3303515,4.3209978,Mr.Bricolage Saint Just Malmont,"{'opening_hours': {'Mon': '08:30 - 12:00  &  14:00 - 19:00', 'Tue': '08:30 - 12:00  &  14:00 - 19:00', 'Wed': '08:30 - 12:00  &  14:00 - 19:00', 'Thu': '08:30 - 12:00  &  14:00 - 19:00', 'Fri': '08:30 - 12:00  &  14:00 - 19:00', 'Sat': '08:30 - 12:00  &  14:00 - 19:00'}}",+33 4 77 35 35 77,43240,325,,https://magasin.mr-bricolage.fr/325-mr-bricolage-saint-just-malmont
Avenue Porette,Mr Bricolage,CORTE,FR,"{'brand': 'Mr Bricolage', 'fascia': 'Mr Bricolage', 'category': 'Retail', 'edit_date': '2025-03-14', 'lat_lon_source': 'website'}",42.300708,9.155612,Mr.Bricolage Corte,"{'opening_hours': {'Mon': '08:30 - 12:00  &  14:00 - 18:30', 'Tue': '08:30 - 12:00  &  14:00 - 18:30', 'Wed': '08:30 - 12:00  &  14:00 - 18:30', 'Thu': '08:30 - 12:00  &  14:00 - 18:30', 'Fri': '08:30 - 12:00  &  14:00 - 18:30', 'Sat': '08:30 - 12:00  &  14:00 - 18:30'}}",+33 4 95 46 25 80,20250,71,,https://magasin.mr-bricolage.fr/71-mr-bricolage-corte
Avenue Pasteur,Mr Bricolage,Cazeres,FR,"{'brand': 'Mr Bricolage', 'fascia': 'Mr Bricolage', 'category': 'Retail', 'edit_date': '2025-03-14', 'lat_lon_source': 'website'}",43.2102174,1.0856197,Mr.Bricolage Cazeres,"{'opening_hours': {'Tue': '09:00 - 12:00  &  14:00 - 19:00', 'Wed': '09:00 - 12:00  &  14:00 - 19:00', 'Thu': '09:00 - 12:00  &  14:00 - 19:00', 'Fri': '09:00 - 12:00  &  14:00 - 19:00', 'Sat': '09:00 - 12:00  &  14:00 - 19:00'}}",+33 5 61 87 26 33,31220,273,,https://magasin.mr-bricolage.fr/273-mr-bricolage-cazeres
"33, avenue de Laumière",Mr Bricolage,Paris,FR,"{'brand': 'Mr Bricolage', 'fascia': 'Mr Bricolage', 'category': 'Retail', 'edit_date': '2025-03-14', 'lat_lon_source': 'website'}",48.8841528,2.3800792,Mr.Bricolage Paris 19 - Laumière,"{'opening_hours': {'Mon': '09:15 - 19:15', 'Tue': '09:15 - 19:15', 'Wed': '09:15 - 19:15', 'Thu': '09:15 - 19:15', 'Fri': '09:15 - 19:15', 'Sat': '09:15 - 19:15'}}",+33 1 42 06 97 62,75019,423,,https://magasin.mr-bricolage.fr/423-mr-bricolage-paris-19-laumiere
18 Rue de la Roche Garde,Mr Bricolage,Binic-Étables-sur-Mer,FR,"{'brand': 'Mr Bricolage', 'fascia': 'Mr Bricolage', 'category': 'Retail', 'edit_date': '2025-03-14', 'lat_lon_source': 'website'}",48.6421231,-2.8383221,Mr.Bricolage Etables sur Mer,"{'opening_hours': {'Mon': '09:00 - 12:00  &  14:00 - 19:00', 'Tue': '09:00 - 12:00  &  14:00 - 19:00', 'Wed': '09:00 - 12:00  &  14:00 - 19:00', 'Thu': '09:00 - 12:00  &  14:00 - 19:00', 'Fri': '09:00 - 12:00  &  14:00 - 19:00', 'Sat': '09:00 - 12:00  &  14:00 - 19:00'}}",+33 2 96 65 26 26,22680,368,,https://magasin.mr-bricolage.fr/368-mr-bricolage-etables-sur-mer
23 rue de la prée aux Ducs,Mr Bricolage,NOIRMOUTIER EN L'ILE,FR,"{'brand': 'Mr Bricolage', 'fascia': 'Mr Bricolage', 'category': 'Retail', 'edit_date': '2025-03-14', 'lat_lon_source': 'website'}",47.002092708098,-2.2535740932541,Mr.Bricolage Noirmoutier,"{'opening_hours': {'Mon': '09:00 - 12:15  &  14:15 - 19:00', 'Tue': '09:00 - 12:15  &  14:15 - 19:00', 'Wed': '09:00 - 12:15  &  14:15 - 19:00', 'Thu': '09:00 - 12:15  &  14:15 - 19:00', 'Fri': '09:00 - 12:15  &  14:15 - 19:00', 'Sat': '09:00 - 12:15  &  14:15 - 19:00'}}",+33 2 51 35 85 85,85330,284,,https://magasin.mr-bricolage.fr/284-mr-bricolage-noirmoutier
3 et 5 avenue des Ursulines,Mr Bricolage,POISSY,FR,"{'brand': 'Mr Bricolage', 'fascia': 'Mr Bricolage', 'category': 'Retail', 'edit_date': '2025-03-14', 'lat_lon_source': 'website'}",48.9288347,2.0425104,Mr.Bricolage Poissy,"{'opening_hours': {'Mon': '09:00 - 19:00', 'Tue': '09:00 - 19:00', 'Wed': '09:00 - 19:00', 'Thu': '09:00 - 19:00', 'Fri': '09:00 - 19:00', 'Sat': '09:00 - 19:00', 'Sun': '09:00 - 13:00'}}",+33 1 39 70 70 90,78300,377,,https://magasin.mr-bricolage.fr/377-mr-bricolage-poissy
Zi Les Giranaux,Mr Bricolage,ARC LES GRAY,FR,"{'brand': 'Mr Bricolage', 'fascia': 'Mr Bricolage', 'category': 'Retail', 'edit_date': '2025-03-14', 'lat_lon_source': 'website'}",47.4542,5.5949,Mr.Bricolage Arc Les Gray,"{'opening_hours': {'Mon': '09:00 - 12:00  &  14:00 - 19:00', 'Tue': '09:00 - 12:00  &  14:00 - 19:00', 'Wed': '09:00 - 12:00  &  14:00 - 19:00', 'Thu': '09:00 - 12:00  &  14:00 - 19:00', 'Fri': '09:00 - 12:00  &  14:00 - 19:00', 'Sat': '09:00 - 12:00  &  14:00 - 19:00'}}",+33 3 84 65 38 24,70100,16,,https://magasin.mr-bricolage.fr/16-mr-bricolage-arc-les-gray
Espace Commercial Du Vern,Mr Bricolage,LANDIVISIAU,FR,"{'brand': 'Mr Bricolage', 'fascia': 'Mr Bricolage', 'category': 'Retail', 'edit_date': '2025-03-14', 'lat_lon_source': 'website'}",48.522921,-4.058639,Mr.Bricolage Landivisiau,"{'opening_hours': {'Mon': '09:00 - 12:30  &  14:00 - 19:00', 'Tue': '09:00 - 12:30  &  14:00 - 19:00', 'Wed': '09:00 - 12:30  &  14:00 - 19:00', 'Thu': '09:00 - 12:30  &  14:00 - 19:00', 'Fri': '09:00 - 12:30  &  14:00 - 19:00', 'Sat': '09:00 - 19:00'}}",+33 2 98 68 47 10,29400,110,,https://magasin.mr-bricolage.fr/110-mr-bricolage-landivisiau
2 chemin croise de bellevue,Mr Bricolage,ALBERT,FR,"{'brand': 'Mr Bricolage', 'fascia': 'Mr Bricolage', 'category': 'Retail', 'edit_date': '2025-03-14', 'lat_lon_source': 'website'}",49.9934453,2.6582445,Mr.Bricolage Albert,"{'opening_hours': {'Mon': '09:00 - 12:00  &  14:00 - 19:00', 'Tue': '09:00 - 12:00  &  14:00 - 19:00', 'Wed': '09:00 - 12:00  &  14:00 - 19:00', 'Thu': '09:00 - 12:00  &  14:00 - 19:00', 'Fri': '09:00 - 12:00  &  14:00 - 19:00', 'Sat': '09:00 - 12:00  &  14:00 - 19:00'}}",+33 3 22 74 45 45,80300,279,,https://magasin.mr-bricolage.fr/279-mr-bricolage-albert
20 Rue Du Pré Aux Castors,Mr Bricolage,WISSEMBOURG 2,FR,"{'brand': 'Mr Bricolage', 'fascia': 'Mr Bricolage', 'category': 'Retail', 'edit_date': '2025-03-14', 'lat_lon_source': 'website'}",49.027119,7.961613,Mr.Bricolage Wissembourg,"{'opening_hours': {'Mon': '09:00 - 12:30  &  13:30 - 19:00', 'Tue': '09:00 - 12:30  &  13:30 - 19:00', 'Wed': '09:00 - 12:30  &  13:30 - 19:00', 'Thu': '09:00 - 12:30  &  13:30 - 19:00', 'Fri': '09:00 - 12:30  &  13:30 - 19:00', 'Sat': '09:00 - 18:00'}}",+33 3 88 94 67 50,67160,250,,https://magasin.mr-bricolage.fr/250-mr-bricolage-wissembourg
Route De Brest,Mr Bricolage,ST RENAN,FR,"{'brand': 'Mr Bricolage', 'fascia': 'Mr Bricolage', 'category': 'Retail', 'edit_date': '2025-03-14', 'lat_lon_source': 'website'}",48.4266,-4.609252,Mr.Bricolage Saint Renan,"{'opening_hours': {'Mon': '09:00 - 19:00', 'Tue': '09:00 - 19:00', 'Wed': '09:00 - 19:00', 'Thu': '09:00 - 19:00', 'Fri': '09:00 - 19:00', 'Sat': '09:00 - 19:00', 'Sun': '09:30 - 12:30  &  14:00 - 18:00'}}",+33 2 98 84 37 47,29290,219,,https://magasin.mr-bricolage.fr/219-mr-bricolage-saint-renan
ZA MUSELLA,Mr Bricolage,Bonifacio,FR,"{'brand': 'Mr Bricolage', 'fascia': 'Mr Bricolage', 'category': 'Retail', 'edit_date': '2025-03-14', 'lat_lon_source': 'website'}",41.4039658,9.1989967,Mr.Bricolage Bonifacio,"{'opening_hours': {'Mon': '08:00 - 19:00', 'Tue': '08:00 - 19:00', 'Wed': '08:00 - 19:00', 'Thu': '08:00 - 19:00', 'Fri': '08:00 - 19:00', 'Sat': '08:00 - 19:00', 'Sun': '08:00 - 19:00'}}",+33 4 95 21 86 35,20169,416,,https://magasin.mr-bricolage.fr/416-mr-bricolage-bonifacio
Za Plage Sud Route De Limoux,Mr Bricolage,Quillan,FR,"{'brand': 'Mr Bricolage', 'fascia': 'Mr Bricolage', 'category': 'Retail', 'edit_date': '2025-03-14', 'lat_lon_source': 'website'}",42.8922841,2.1938586,Mr.Bricolage Quillan,"{'opening_hours': {'Mon': '09:00 - 12:00  &  14:00 - 19:00', 'Tue': '09:00 - 12:00  &  14:00 - 19:00', 'Wed': '09:00 - 12:00  &  14:00 - 19:00', 'Thu': '09:00 - 12:00  &  14:00 - 19:00', 'Fri': '09:00 - 12:00  &  14:00 - 19:00', 'Sat': '09:00 - 12:00  &  14:00 - 19:00'}}",+33 4 68 31 04 69,11500,192,,https://magasin.mr-bricolage.fr/192-mr-bricolage-quillan
46 Avenue Des Jourdies,Mr Bricolage,SAINT PIERRE EN FAUCIGNY,FR,"{'brand': 'Mr Bricolage', 'fascia': 'Mr Bricolage', 'category': 'Retail', 'edit_date': '2025-03-14', 'lat_lon_source': 'website'}",46.0725743,6.3778204,Mr.Bricolage Saint Pierre En Faucigny,"{'opening_hours': {'Mon': '09:00 - 19:00', 'Tue': '09:00 - 19:00', 'Wed': '09:00 - 19:00', 'Thu': '09:00 - 19:00', 'Fri': '09:00 - 19:00', 'Sat': '09:00 - 19:00'}}",+33 4 50 25 00 72,74800,216,,https://magasin.mr-bricolage.fr/216-mr-bricolage-saint-pierre-en-faucigny
150 Avenue Frederic MISTRAL,Mr Bricolage,Manosque,FR,"{'brand': 'Mr Bricolage', 'fascia': 'Mr Bricolage', 'category': 'Retail', 'edit_date': '2025-03-14', 'lat_lon_source': 'website'}",43.82408,5.786891,Mr.Bricolage Manosque,"{'opening_hours': {'Mon': '09:00 - 12:00  &  14:00 - 19:00', 'Tue': '09:00 - 12:00  &  14:00 - 19:00', 'Wed': '09:00 - 12:00  &  14:00 - 19:00', 'Thu': '09:00 - 12:00  &  14:00 - 19:00', 'Fri': '09:00 - 12:00  &  14:00 - 19:00', 'Sat': '09:00 - 19:00'}}",+33 9 63 28 08 11,04100,418,,https://magasin.mr-bricolage.fr/418-mr-bricolage-manosque
Allée Du Commerce,Mr Bricolage,ALBI,FR,"{'brand': 'Mr Bricolage', 'fascia': 'Mr Bricolage', 'category': 'Retail', 'edit_date': '2025-03-14', 'lat_lon_source': 'website'}",43.9176,2.11317,Mr.Bricolage Albi - Le Sequestre,"{'opening_hours': {'Mon': '09:00 - 19:00', 'Tue': '09:00 - 19:00', 'Wed': '09:00 - 19:00', 'Thu': '09:00 - 19:00', 'Fri': '09:00 - 19:00', 'Sat': '09:00 - 19:00'}}",+33 5 63 54 10 00,81990,6,,https://magasin.mr-bricolage.fr/6-mr-bricolage-albi-le-sequestre
Rue Des Fileuses,Mr Bricolage,Saint Jean De Monts,FR,"{'brand': 'Mr Bricolage', 'fascia': 'Mr Bricolage', 'category': 'Retail', 'edit_date': '2025-03-14', 'lat_lon_source': 'website'}",46.7961,-2.05076,Mr.Bricolage Saint Jean De Monts,"{'opening_hours': {'Mon': '09:00 - 12:30  &  14:00 - 19:00', 'Tue': '09:00 - 12:30  &  14:00 - 19:00', 'Wed': '09:00 - 12:30  &  14:00 - 19:00', 'Thu': '09:00 - 12:30  &  14:00 - 19:00', 'Fri': '09:00 - 12:30  &  14:00 - 19:00', 'Sat': '09:00 - 12:30  &  14:00 - 19:00'}}",+33 2 51 58 01 92,85160,204,,https://magasin.mr-bricolage.fr/204-mr-bricolage-saint-jean-de-monts
Boulevard François Mitterrand,Mr Bricolage,Denain,FR,"{'brand': 'Mr Bricolage', 'fascia': 'Mr Bricolage', 'category': 'Retail', 'edit_date': '2025-03-14', 'lat_lon_source': 'website'}",50.32218,3.38847,Mr.Bricolage Denain,"{'opening_hours': {'Mon': '09:00 - 19:00', 'Tue': '09:00 - 19:00', 'Wed': '09:00 - 19:00', 'Thu': '09:00 - 19:00', 'Fri': '09:00 - 19:00', 'Sat': '09:00 - 19:00'}}",+33 3 27 32 13 65,59220,426,,https://magasin.mr-bricolage.fr/426-mr-bricolage-denain
Rue Alexandre Guillon,Mr Bricolage,GUERET,FR,"{'brand': 'Mr Bricolage', 'fascia': 'Mr Bricolage', 'category': 'Retail', 'edit_date': '2025-03-14', 'lat_lon_source': 'website'}",46.1691,1.88638,Mr.Bricolage Gueret,"{'opening_hours': {'Mon': '08:30 - 19:00', 'Tue': '08:30 - 19:00', 'Wed': '08:30 - 19:00', 'Thu': '08:30 - 19:00', 'Fri': '08:30 - 19:00', 'Sat': '08:30 - 19:00', 'Sun': '09:00 - 12:30'}}",+33 5 55 52 10 01,23000,96,,https://magasin.mr-bricolage.fr/96-mr-bricolage-gueret
Zac De La Grande Prairie,Mr Bricolage,BOURGUEIL,FR,"{'brand': 'Mr Bricolage', 'fascia': 'Mr Bricolage', 'category': 'Retail', 'edit_date': '2025-03-14', 'lat_lon_source': 'website'}",47.2732,0.168826,Mr.Bricolage Bourgueil,"{'opening_hours': {'Mon': '09:00 - 12:00  &  14:00 - 19:00', 'Tue': '09:00 - 12:00  &  14:00 - 19:00', 'Wed': '09:00 - 12:00  &  14:00 - 19:00', 'Thu': '09:00 - 12:00  &  14:00 - 19:00', 'Fri': '09:00 - 12:00  &  14:00 - 19:00', 'Sat': '09:00 - 12:30  &  14:00 - 18:30'}}",+33 2 47 97 84 84,37140,39,,https://magasin.mr-bricolage.fr/39-mr-bricolage-bourgueil
Zc Rusquet Sud,Mr Bricolage,LANNION,FR,"{'brand': 'Mr Bricolage', 'fascia': 'Mr Bricolage', 'category': 'Retail', 'edit_date': '2025-03-14', 'lat_lon_source': 'website'}",48.7501,-3.45342,Mr.Bricolage Lannion,"{'opening_hours': {'Mon': '09:00 - 19:00', 'Tue': '09:00 - 19:00', 'Wed': '09:00 - 19:00', 'Thu': '09:00 - 19:00', 'Fri': '09:00 - 19:00', 'Sat': '09:00 - 19:00'}}",+33 2 96 48 10 20,22300,113,,https://magasin.mr-bricolage.fr/113-mr-bricolage-lannion
8 rue Louis Braille,Mr Bricolage,CANNES,FR,"{'brand': 'Mr Bricolage', 'fascia': 'Mr Bricolage', 'category': 'Retail', 'edit_date': '2025-03-14', 'lat_lon_source': 'website'}",43.5547644,7.022501,Mr.Bricolage Cannes,"{'opening_hours': {'Mon': '08:30 - 12:30  &  14:00 - 19:00', 'Tue': '08:30 - 12:30  &  14:00 - 19:00', 'Wed': '08:30 - 12:30  &  14:00 - 19:00', 'Thu': '08:30 - 12:30  &  14:00 - 19:00', 'Fri': '08:30 - 12:30  &  14:00 - 19:00', 'Sat': '08:30 - 12:30  &  14:00 - 19:00', 'Sun': '09:30 - 12:30'}}",+33 4 97 06 16 00,06400,343,,https://magasin.mr-bricolage.fr/343-mr-bricolage-cannes
39 Rue Larrey,Mr Bricolage,Tarbes,FR,"{'brand': 'Mr Bricolage', 'fascia': 'Mr Bricolage', 'category': 'Retail', 'edit_date': '2025-03-14', 'lat_lon_source': 'website'}",43.2304,0.079799,Mr.Bricolage Tarbes - Centre Ville,"{'opening_hours': {'Mon': '09:30 - 12:00  &  14:00 - 18:30', 'Tue': '09:30 - 12:00  &  14:00 - 18:30', 'Wed': '09:30 - 12:00  &  14:00 - 18:30', 'Thu': '09:30 - 12:00  &  14:00 - 18:30', 'Fri': '09:30 - 12:00  &  14:00 - 18:30', 'Sat': '09:30 - 12:00  &  14:00 - 18:30'}}",+33 5 62 34 79 11,65000,231,,https://magasin.mr-bricolage.fr/231-mr-bricolage-tarbes-centre-ville
Avenue Haussman,Mr Bricolage,AUXERRE,FR,"{'brand': 'Mr Bricolage', 'fascia': 'Mr Bricolage', 'category': 'Retail', 'edit_date': '2025-03-14', 'lat_lon_source': 'website'}",47.8105419,3.5714485,Mr.Bricolage Auxerre,"{'opening_hours': {'Mon': '09:00 - 12:00  &  14:00 - 19:00', 'Tue': '09:00 - 12:00  &  14:00 - 19:00', 'Wed': '09:00 - 12:00  &  14:00 - 19:00', 'Thu': '09:00 - 12:00  &  14:00 - 19:00', 'Fri': '09:00 - 12:00  &  14:00 - 19:00', 'Sat': '09:00 - 19:00'}}",+33 3 86 94 20 00,89000,24,,https://magasin.mr-bricolage.fr/24-mr-bricolage-auxerre
Faubourg du Moulin Neuf,Mr Bricolage,CHAUMONT,FR,"{'brand': 'Mr Bricolage', 'fascia': 'Mr Bricolage', 'category': 'Retail', 'edit_date': '2025-03-14', 'lat_lon_source': 'website'}",48.1245,5.14798,Mr.Bricolage Chaumont,"{'opening_hours': {'Mon': '09:00 - 19:00', 'Tue': '09:00 - 19:00', 'Wed': '09:00 - 19:00', 'Thu': '09:00 - 19:00', 'Fri': '09:00 - 19:00', 'Sat': '09:00 - 19:00'}}",+33 3 25 32 12 92,52000,65,,https://magasin.mr-bricolage.fr/65-mr-bricolage-chaumont
905 Avenue De La Gare,Mr Bricolage,PONTCHARRA,FR,"{'brand': 'Mr Bricolage', 'fascia': 'Mr Bricolage', 'category': 'Retail', 'edit_date': '2025-03-14', 'lat_lon_source': 'website'}",45.434725,6.0105987,Mr.Bricolage Pontcharra,"{'opening_hours': {'Mon': '09:00 - 12:00  &  14:00 - 19:00', 'Tue': '09:00 - 12:00  &  14:00 - 19:00', 'Wed': '09:00 - 12:00  &  14:00 - 19:00', 'Thu': '09:00 - 12:00  &  14:00 - 19:00', 'Fri': '09:00 - 12:00  &  14:00 - 19:00', 'Sat': '09:00 - 12:30  &  14:00 - 19:00'}}",+33 4 76 97 60 56,38530,185,,https://magasin.mr-bricolage.fr/185-mr-bricolage-pontcharra
Zac Jardins De La Bretonnière,Mr Bricolage,CHATEAUBOURG,FR,"{'brand': 'Mr Bricolage', 'fascia': 'Mr Bricolage', 'category': 'Retail', 'edit_date': '2025-03-14', 'lat_lon_source': 'website'}",48.10862,-1.38946,Mr.Bricolage Chateaubourg,"{'opening_hours': {'Mon': '09:00 - 19:00', 'Tue': '09:00 - 19:00', 'Wed': '09:00 - 19:00', 'Thu': '09:00 - 19:00', 'Fri': '09:00 - 19:00', 'Sat': '09:00 - 19:00'}}",+33 2 99 04 64 74,35220,62,,https://magasin.mr-bricolage.fr/62-mr-bricolage-chateaubourg
15 Rue du Val de Saire,Mr Bricolage,QUETTEHOU,FR,"{'brand': 'Mr Bricolage', 'fascia': 'Mr Bricolage', 'category': 'Retail', 'edit_date': '2025-03-14', 'lat_lon_source': 'website'}",49.5981846,-1.2986817,Mr.Bricolage Quettehou,"{'opening_hours': {'Mon': '09:00 - 18:30', 'Tue': '09:00 - 18:30', 'Wed': '09:00 - 18:30', 'Thu': '09:00 - 18:30', 'Fri': '09:00 - 18:30', 'Sat': '09:00 - 18:00'}}",+33 2 33 54 11 03,50630,190,,https://magasin.mr-bricolage.fr/190-mr-bricolage-quettehou
3 rue de Lanserva,Mr Bricolage,PLECHATEL,FR,"{'brand': 'Mr Bricolage', 'fascia': 'Mr Bricolage', 'category': 'Retail', 'edit_date': '2025-03-14', 'lat_lon_source': 'website'}",47.861805,-1.680946,Mr.Bricolage Bain De Bretagne,"{'opening_hours': {'Mon': '08:00 - 19:00', 'Tue': '08:00 - 19:00', 'Wed': '08:00 - 19:00', 'Thu': '08:00 - 19:00', 'Fri': '08:00 - 19:00', 'Sat': '08:00 - 19:00'}}",+33 2 99 43 86 81,35470,26,,https://magasin.mr-bricolage.fr/26-mr-bricolage-bain-de-bretagne
Za St Pons,Mr Bricolage,Barcelonnette,FR,"{'brand': 'Mr Bricolage', 'fascia': 'Mr Bricolage', 'category': 'Retail', 'edit_date': '2025-03-14', 'lat_lon_source': 'website'}",44.385972,6.607226,Mr.Bricolage Barcelonnette,"{'opening_hours': {'Mon': '08:30 - 12:00  &  14:00 - 18:30', 'Tue': '08:30 - 12:00  &  14:00 - 18:30', 'Wed': '08:30 - 12:00  &  14:00 - 18:30', 'Thu': '08:30 - 12:00  &  14:00 - 18:30', 'Fri': '08:30 - 12:00  &  14:00 - 18:00', 'Sat': '08:30 - 12:00  &  14:00 - 18:30'}}",+33 4 92 81 16 14,04400,28,,https://magasin.mr-bricolage.fr/28-mr-bricolage-barcelonnette
Zone de Launay,Mr Bricolage,ST MARTIN DES CHAMPS,FR,"{'brand': 'Mr Bricolage', 'fascia': 'Mr Bricolage', 'category': 'Retail', 'edit_date': '2025-03-14', 'lat_lon_source': 'website'}",48.5730567,-3.8587587,Mr.Bricolage Saint Martin des Champs,"{'opening_hours': {'Mon': '09:00 - 19:00', 'Tue': '09:00 - 19:00', 'Wed': '09:00 - 19:00', 'Thu': '09:00 - 19:00', 'Fri': '09:00 - 19:00', 'Sat': '09:00 - 19:00'}}",+33 2 98 62 18 18,29600,268,,https://magasin.mr-bricolage.fr/268-mr-bricolage-saint-martin-des-champs
Rue De Vilpré,Mr Bricolage,ROZAY EN BRIE,FR,"{'brand': 'Mr Bricolage', 'fascia': 'Mr Bricolage', 'category': 'Retail', 'edit_date': '2025-03-14', 'lat_lon_source': 'website'}",48.6773,2.96741,Mr.Bricolage Rozay En Brie,"{'opening_hours': {'Tue': '09:00 - 12:00  &  14:00 - 19:00', 'Wed': '09:00 - 12:00  &  14:00 - 19:00', 'Thu': '09:00 - 12:00  &  14:00 - 19:00', 'Fri': '09:00 - 12:00  &  14:00 - 19:00', 'Sat': '09:00 - 12:00  &  14:00 - 19:00', 'Sun': '09:00 - 12:30'}}",+33 1 64 25 61 64,77540,196,,https://magasin.mr-bricolage.fr/196-mr-bricolage-rozay-en-brie
Zac La Pancarte 2,Mr Bricolage,NORT SUR ERDRE,FR,"{'brand': 'Mr Bricolage', 'fascia': 'Mr Bricolage', 'category': 'Retail', 'edit_date': '2025-03-14', 'lat_lon_source': 'website'}",47.4417,-1.47808,Mr.Bricolage Nort Sur Erdre,"{'opening_hours': {'Mon': '09:00 - 12:30  &  14:00 - 19:00', 'Tue': '09:00 - 12:30  &  14:00 - 19:00', 'Wed': '09:00 - 12:30  &  14:00 - 19:00', 'Thu': '09:00 - 12:30  &  14:00 - 19:00', 'Fri': '09:00 - 12:30  &  14:00 - 19:00', 'Sat': '09:00 - 19:00'}}",+33 2 40 72 21 87,44390,158,,https://magasin.mr-bricolage.fr/158-mr-bricolage-nort-sur-erdre
80 Avenue De Bel Air,Mr Bricolage,ST PIERRE D'OLERON,FR,"{'brand': 'Mr Bricolage', 'fascia': 'Mr Bricolage', 'category': 'Retail', 'edit_date': '2025-03-14', 'lat_lon_source': 'website'}",45.9398,-1.31243,Mr.Bricolage Saint Pierre D'Oleron,"{'opening_hours': {'Mon': '09:00 - 12:30  &  14:30 - 19:00', 'Tue': '09:00 - 12:30  &  14:30 - 19:00', 'Wed': '09:00 - 12:30  &  14:30 - 19:00', 'Thu': '09:00 - 12:30  &  14:30 - 19:00', 'Fri': '09:00 - 12:30  &  14:30 - 19:00', 'Sat': '09:00 - 12:30  &  14:30 - 19:00'}}",+33 5 46 75 52 52,17310,215,,https://magasin.mr-bricolage.fr/215-mr-bricolage-saint-pierre-d-oleron
24 Boulevard Marcel Roux,Mr Bricolage,SAINT YRIEIX LA PERCHE,FR,"{'brand': 'Mr Bricolage', 'fascia': 'Mr Bricolage', 'category': 'Retail', 'edit_date': '2025-03-14', 'lat_lon_source': 'website'}",45.5081563,1.2072648,Mr.Bricolage Saint Yrieix La Perche,"{'opening_hours': {'Mon': '09:00 - 12:00  &  14:00 - 19:00', 'Tue': '09:00 - 12:00  &  14:00 - 19:00', 'Wed': '09:00 - 12:00  &  14:00 - 19:00', 'Thu': '09:00 - 12:00  &  14:00 - 19:00', 'Fri': '09:00 - 12:00  &  14:00 - 19:00', 'Sat': '09:00 - 12:00  &  14:00 - 19:00'}}",+33 5 55 75 04 17,87500,221,,https://magasin.mr-bricolage.fr/221-mr-bricolage-saint-yrieix-la-perche
75 Boulevard De La Sainte Barbe,Mr Bricolage,PERTUIS,FR,"{'brand': 'Mr Bricolage', 'fascia': 'Mr Bricolage', 'category': 'Retail', 'edit_date': '2025-03-14', 'lat_lon_source': 'website'}",43.693091,5.489934,Mr.Bricolage Pertuis,"{'opening_hours': {'Mon': '09:00 - 12:00  &  14:00 - 19:00', 'Tue': '09:00 - 12:00  &  14:00 - 19:00', 'Wed': '09:00 - 12:00  &  14:00 - 19:00', 'Thu': '09:00 - 12:00  &  14:00 - 19:00', 'Fri': '09:00 - 12:00  &  14:00 - 19:00', 'Sat': '09:00 - 19:00'}}",+33 4 90 09 40 40,84120,172,,https://magasin.mr-bricolage.fr/172-mr-bricolage-pertuis
27 Rue du Perré,Mr Bricolage,VIMOUTIERS,FR,"{'brand': 'Mr Bricolage', 'fascia': 'Mr Bricolage', 'category': 'Retail', 'edit_date': '2025-03-14', 'lat_lon_source': 'website'}",48.9292005,0.2001478,Mr.Bricolage Vimoutiers,"{'opening_hours': {'Mon': '08:30 - 12:30  &  14:00 - 19:00', 'Tue': '08:30 - 12:30  &  14:00 - 19:00', 'Wed': '08:30 - 12:30  &  14:00 - 19:00', 'Thu': '08:30 - 12:30  &  14:00 - 19:00', 'Fri': '08:30 - 12:30  &  14:00 - 19:00', 'Sat': '08:30 - 12:30  &  14:00 - 19:00', 'Sun': '09:30 - 12:30'}}",+33 2 33 39 02 15,61120,441,,https://magasin.mr-bricolage.fr/441-mr-bricolage-vimoutiers
 30 Avenue du 8 mai 1945,Mr Bricolage,Sees,FR,"{'brand': 'Mr Bricolage', 'fascia': 'Mr Bricolage', 'category': 'Retail', 'edit_date': '2025-03-14', 'lat_lon_source': 'website'}",48.6063768,0.1721174,Mr.Bricolage Sees,"{'opening_hours': {'Mon': '09:00 - 12:30  &  14:00 - 19:00', 'Tue': '09:00 - 12:30  &  14:00 - 19:00', 'Wed': '09:00 - 12:30  &  14:00 - 19:00', 'Thu': '09:00 - 12:30  &  14:00 - 19:00', 'Fri': '09:00 - 12:30  &  14:00 - 19:00', 'Sat': '09:00 - 12:30  &  14:00 - 19:00'}}",+33 2 33 27 67 48,61500,442,,https://magasin.mr-bricolage.fr/442-mr-bricolage-sees
Centre Commercial Carrefour,Mr Bricolage,ALENCON A CONDE SUR SARTHE,FR,"{'brand': 'Mr Bricolage', 'fascia': 'Mr Bricolage', 'category': 'Retail', 'edit_date': '2025-03-14', 'lat_lon_source': 'website'}",48.4328,0.061798,Mr.Bricolage Alençon à Condé Sur Sarthe,"{'opening_hours': {'Mon': '09:00 - 19:00', 'Tue': '09:00 - 19:00', 'Wed': '09:00 - 19:00', 'Thu': '09:00 - 19:00', 'Fri': '09:00 - 19:00', 'Sat': '09:00 - 19:00'}}",+33 2 33 82 35 60,61250,69,,https://magasin.mr-bricolage.fr/69-mr-bricolage-alencon-a-conde-sur-sarthe
Avenue Mendes France,Mr Bricolage,LESPARRE,FR,"{'brand': 'Mr Bricolage', 'fascia': 'Mr Bricolage', 'category': 'Retail', 'edit_date': '2025-03-14', 'lat_lon_source': 'website'}",45.3125127,-0.940524,Mr.Bricolage Lesparre,"{'opening_hours': {'Mon': '09:00 - 12:30  &  14:00 - 19:00', 'Tue': '09:00 - 12:30  &  14:00 - 19:00', 'Wed': '09:00 - 12:30  &  14:00 - 19:00', 'Thu': '09:00 - 12:30  &  14:00 - 19:00', 'Fri': '09:00 - 12:30  &  14:00 - 19:00', 'Sat': '09:00 - 12:30  &  14:00 - 19:00'}}",+33 5 56 41 04 25,33340,118,,https://magasin.mr-bricolage.fr/118-mr-bricolage-lesparre
3 rue Copernic,Mr Bricolage,MENDE,FR,"{'brand': 'Mr Bricolage', 'fascia': 'Mr Bricolage', 'category': 'Retail', 'edit_date': '2025-03-14', 'lat_lon_source': 'website'}",44.52694,3.47618,Mr.Bricolage Mende,"{'opening_hours': {'Mon': '09:00 - 19:00', 'Tue': '09:00 - 19:00', 'Wed': '09:00 - 19:00', 'Thu': '09:00 - 19:00', 'Fri': '09:00 - 19:00', 'Sat': '09:00 - 19:00', 'Sun': '09:00 - 12:30'}}",+33 4 66 65 30 33,48000,140,,https://magasin.mr-bricolage.fr/140-mr-bricolage-mende
64 ZA des Séchoirs,Mr Bricolage,MONTIGNAC LASCAUX,FR,"{'brand': 'Mr Bricolage', 'fascia': 'Mr Bricolage', 'category': 'Retail', 'edit_date': '2025-03-14', 'lat_lon_source': 'website'}",45.0791061,1.1799223,Mr.Bricolage Montignac,"{'opening_hours': {'Mon': '08:00 - 12:00  &  14:00 - 18:30', 'Tue': '08:00 - 12:00  &  14:00 - 18:30', 'Wed': '08:00 - 12:00  &  14:00 - 18:30', 'Thu': '08:00 - 12:00  &  14:00 - 18:30', 'Fri': '08:00 - 12:00  &  14:00 - 18:30', 'Sat': '08:00 - 12:00  &  14:00 - 18:00'}}",+33 5 53 51 75 50,24290,433,,https://magasin.mr-bricolage.fr/433-mr-bricolage-montignac
rue marceau,Mr Bricolage,COGOLIN,FR,"{'brand': 'Mr Bricolage', 'fascia': 'Mr Bricolage', 'category': 'Retail', 'edit_date': '2025-03-14', 'lat_lon_source': 'website'}",43.2482799,6.5332027,Mr.Bricolage Cogolin,"{'opening_hours': {'Mon': '08:30 - 19:00', 'Tue': '08:30 - 19:00', 'Wed': '08:30 - 19:00', 'Thu': '08:30 - 19:00', 'Fri': '08:30 - 19:00', 'Sat': '08:30 - 19:00', 'Sun': '09:00 - 12:30'}}",+33 4 94 55 47 48,83310,344,,https://magasin.mr-bricolage.fr/344-mr-bricolage-cogolin
Za Du Ruisseau,Mr Bricolage,Parigné L'Évêque,FR,"{'brand': 'Mr Bricolage', 'fascia': 'Mr Bricolage', 'category': 'Retail', 'edit_date': '2025-03-14', 'lat_lon_source': 'website'}",47.9386,0.35512,Mr.Bricolage Parigné L'Evêque,"{'opening_hours': {'Mon': '09:00 - 12:30  &  14:00 - 19:00', 'Tue': '09:00 - 12:30  &  14:00 - 19:00', 'Wed': '09:00 - 12:30  &  14:00 - 19:00', 'Thu': '09:00 - 12:30  &  14:00 - 19:00', 'Fri': '09:00 - 12:30  &  14:00 - 19:00', 'Sat': '09:00 - 12:30  &  14:00 - 19:00'}}",+33 2 43 75 48 52,72250,164,,https://magasin.mr-bricolage.fr/164-mr-bricolage-parigne-l-eveque
39 rue Jean Monnet,Mr Bricolage,PITHIVIERS,FR,"{'brand': 'Mr Bricolage', 'fascia': 'Mr Bricolage', 'category': 'Retail', 'edit_date': '2025-03-14', 'lat_lon_source': 'website'}",48.1892945,2.2493306,Mr.Bricolage Pithiviers,"{'opening_hours': {'Mon': '09:00 - 12:00  &  14:00 - 19:00', 'Tue': '09:00 - 12:00  &  14:00 - 19:00', 'Wed': '09:00 - 12:00  &  14:00 - 19:00', 'Thu': '09:00 - 12:00  &  14:00 - 19:00', 'Fri': '09:00 - 12:00  &  14:00 - 19:00', 'Sat': '09:00 - 12:30  &  14:00 - 19:00', 'Sun': '09:30 - 12:30'}}",+33 2 38 30 20 60,45300,293,,https://magasin.mr-bricolage.fr/293-mr-bricolage-pithiviers
6 rue du Départ,Mr Bricolage,Enghien-Les-Bains,FR,"{'brand': 'Mr Bricolage', 'fascia': 'Mr Bricolage', 'category': 'Retail', 'edit_date': '2025-03-14', 'lat_lon_source': 'website'}",48.9724687,2.308269,Mr.Bricolage Enghien les bains,"{'opening_hours': {'Mon': '09:15 - 19:15', 'Tue': '09:15 - 19:15', 'Wed': '09:15 - 19:15', 'Thu': '09:15 - 19:15', 'Fri': '09:15 - 19:15', 'Sat': '09:15 - 19:15'}}",+33 2 43 00 00 00,95880,436,,https://magasin.mr-bricolage.fr/436-mr-bricolage-enghien-les-bains
2 Route de Saurs,Mr Bricolage,GAILLAC,FR,"{'brand': 'Mr Bricolage', 'fascia': 'Mr Bricolage', 'category': 'Retail', 'edit_date': '2025-03-14', 'lat_lon_source': 'website'}",43.894275,1.879974,Mr.Bricolage Gaillac,"{'opening_hours': {'Mon': '09:00 - 12:00  &  14:00 - 19:00', 'Tue': '09:00 - 12:00  &  14:00 - 19:00', 'Wed': '09:00 - 12:00  &  14:00 - 19:00', 'Thu': '09:00 - 12:00  &  14:00 - 19:00', 'Fri': '09:00 - 12:00  &  14:00 - 19:00', 'Sat': '09:00 - 12:30  &  14:00 - 19:00'}}",+33 5 63 57 40 85,81600,90,,https://magasin.mr-bricolage.fr/90-mr-bricolage-gaillac
24 ZAC MONTPLAIN / ALLAUZIER,Mr Bricolage,SAINT FLOUR,FR,"{'brand': 'Mr Bricolage', 'fascia': 'Mr Bricolage', 'category': 'Retail', 'edit_date': '2025-03-14', 'lat_lon_source': 'website'}",45.0385949,3.0603213,Mr.Bricolage St Flour,"{'opening_hours': {'Mon': '08:30 - 12:30  &  14:00 - 19:00', 'Tue': '08:30 - 12:30  &  14:00 - 19:00', 'Wed': '08:30 - 12:30  &  14:00 - 19:00', 'Thu': '08:30 - 12:30  &  14:00 - 19:00', 'Fri': '08:30 - 12:30  &  14:00 - 19:00', 'Sat': '08:30 - 12:30  &  14:00 - 19:00', 'Sun': '09:30 - 12:30'}}",+33 4 71 60 11 15,15100,298,,https://magasin.mr-bricolage.fr/298-mr-bricolage-st-flour
1 Route De Montigny,Mr Bricolage,BRAY SUR SEINE,FR,"{'brand': 'Mr Bricolage', 'fascia': 'Mr Bricolage', 'category': 'Retail', 'edit_date': '2025-03-14', 'lat_lon_source': 'website'}",48.415097,3.239486,Mr.Bricolage Bray Sur Seine,"{'opening_hours': {'Mon': '09:00 - 12:00  &  14:00 - 18:45', 'Tue': '09:00 - 12:00  &  14:00 - 18:45', 'Wed': '09:00 - 12:00  &  14:00 - 18:45', 'Thu': '09:00 - 12:00  &  14:00 - 18:45', 'Fri': '09:00 - 12:00  &  14:00 - 18:45', 'Sat': '09:00 - 12:00  &  14:00 - 18:45', 'Sun': '09:30 - 12:15'}}",+33 1 60 67 28 95,77480,40,,https://magasin.mr-bricolage.fr/40-mr-bricolage-bray-sur-seine
800 avenue rhin et danube,Mr Bricolage,VENCE,FR,"{'brand': 'Mr Bricolage', 'fascia': 'Mr Bricolage', 'category': 'Retail', 'edit_date': '2025-03-14', 'lat_lon_source': 'website'}",43.7252293,7.0977956,Mr.Bricolage Vence,"{'opening_hours': {'Mon': '08:30 - 12:30  &  14:00 - 19:00', 'Tue': '08:30 - 12:30  &  14:00 - 19:00', 'Wed': '08:30 - 12:30  &  14:00 - 19:00', 'Thu': '08:30 - 12:30  &  14:00 - 19:00', 'Fri': '08:30 - 12:30  &  14:00 - 19:00', 'Sat': '08:30 - 19:00', 'Sun': '08:30 - 12:30'}}",+33 4 93 58 03 83,06140,350,,https://magasin.mr-bricolage.fr/350-mr-bricolage-vence
Boulevard du 11 Novembre 1918,Mr Bricolage,Argentat,FR,"{'brand': 'Mr Bricolage', 'fascia': 'Mr Bricolage', 'category': 'Retail', 'edit_date': '2025-03-14', 'lat_lon_source': 'website'}",45.0950829,1.9348509,Mr.Bricolage Argentat,"{'opening_hours': {'Mon': '09:00 - 12:00  &  14:00 - 18:30', 'Tue': '09:00 - 12:00  &  14:00 - 18:30', 'Wed': '09:00 - 12:00  &  14:00 - 18:30', 'Thu': '09:00 - 12:00  &  14:00 - 18:30', 'Fri': '09:00 - 12:00  &  14:00 - 18:30', 'Sat': '09:00 - 12:00  &  14:00 - 18:30'}}",+33 5 55 91 45 96,19400,300,,https://magasin.mr-bricolage.fr/300-mr-bricolage-argentat
"183, boulevard Voltaire",Mr Bricolage,Paris,FR,"{'brand': 'Mr Bricolage', 'fascia': 'Mr Bricolage', 'category': 'Retail', 'edit_date': '2025-03-14', 'lat_lon_source': 'website'}",48.8538408,2.3871386,Mr.Bricolage Paris 11 - Voltaire,"{'opening_hours': {'Mon': '09:15 - 19:15', 'Tue': '09:15 - 19:15', 'Wed': '09:15 - 19:15', 'Thu': '09:15 - 19:15', 'Fri': '09:15 - 19:15', 'Sat': '09:15 - 19:15'}}",+33 1 43 56 62 02,75011,420,,https://magasin.mr-bricolage.fr/420-mr-bricolage-paris-11-voltaire
Route de Toulouse,Mr Bricolage,GRENADE,FR,"{'brand': 'Mr Bricolage', 'fascia': 'Mr Bricolage', 'category': 'Retail', 'edit_date': '2025-03-14', 'lat_lon_source': 'website'}",43.756125,1.301668,Mr.Bricolage Grenade,"{'opening_hours': {'Mon': '09:00 - 12:30  &  14:00 - 19:00', 'Tue': '09:00 - 12:30  &  14:00 - 19:00', 'Wed': '09:00 - 12:30  &  14:00 - 19:00', 'Thu': '09:00 - 12:30  &  14:00 - 19:00', 'Fri': '09:00 - 12:30  &  14:00 - 19:00', 'Sat': '09:00 - 12:30  &  14:00 - 19:00'}}",+33 5 61 82 11 11,31330,94,,https://magasin.mr-bricolage.fr/94-mr-bricolage-grenade
Zone Artisanale Du Hainault. Sept Sorts,Mr Bricolage,LA FERTE SOUS JOUARRE,FR,"{'brand': 'Mr Bricolage', 'fascia': 'Mr Bricolage', 'category': 'Retail', 'edit_date': '2025-03-14', 'lat_lon_source': 'website'}",48.9459,3.11071,Mr.Bricolage La Ferte Sous Jouarre,"{'opening_hours': {'Mon': '09:00 - 19:00', 'Tue': '09:00 - 19:00', 'Wed': '09:00 - 19:00', 'Thu': '09:00 - 19:00', 'Fri': '09:00 - 19:00', 'Sat': '09:00 - 19:00', 'Sun': '09:00 - 12:30'}}",+33 1 60 22 36 00,77260,106,,https://magasin.mr-bricolage.fr/106-mr-bricolage-la-ferte-sous-jouarre
10-12 rue de Montyon,Mr Bricolage,Paris,FR,"{'brand': 'Mr Bricolage', 'fascia': 'Mr Bricolage', 'category': 'Retail', 'edit_date': '2025-03-14', 'lat_lon_source': 'website'}",48.8731422,2.3442341,Mr.Bricolage Paris Montyon,"{'opening_hours': {'Mon': '09:30 - 19:30', 'Tue': '09:30 - 19:30', 'Wed': '09:30 - 19:30', 'Thu': '09:30 - 19:30', 'Fri': '09:30 - 19:30', 'Sat': '09:30 - 19:30'}}",+33 1 47 70 84 32,75009,404,,https://magasin.mr-bricolage.fr/404-mr-bricolage-paris-montyon
2 Centre Commercial Val d'Yerres,Mr Bricolage,QUINCY SOUS SENART,FR,"{'brand': 'Mr Bricolage', 'fascia': 'Mr Bricolage', 'category': 'Retail', 'edit_date': '2025-03-14', 'lat_lon_source': 'website'}",48.6832355,2.5374027,Mr.Bricolage Quincy,"{'opening_hours': {'Mon': '08:30 - 19:00', 'Tue': '08:30 - 19:00', 'Wed': '08:30 - 19:00', 'Thu': '08:30 - 19:00', 'Fri': '08:30 - 19:00', 'Sat': '08:30 - 19:00', 'Sun': '09:00 - 13:00  &  14:30 - 18:30'}}",+33 1 60 48 83 30,91480,366,,https://magasin.mr-bricolage.fr/366-mr-bricolage-quincy
115 rue des peupliers,Mr Bricolage,CHÂTEAU-RENARD (45),FR,"{'brand': 'Mr Bricolage', 'fascia': 'Mr Bricolage', 'category': 'Retail', 'edit_date': '2025-03-14', 'lat_lon_source': 'website'}",47.9295239,2.9263754,Mr.Bricolage Chateau-Renard,"{'opening_hours': {'Mon': '08:30 - 12:00  &  14:00 - 18:30', 'Tue': '08:30 - 12:00  &  14:00 - 18:30', 'Wed': '08:30 - 12:00  &  14:00 - 18:30', 'Thu': '08:30 - 12:00  &  14:00 - 18:30', 'Fri': '08:30 - 12:00  &  14:00 - 18:30', 'Sat': '08:30 - 12:00  &  14:00 - 18:30', 'Sun': '09:00 - 12:00'}}",+33 2 38 95 21 22,45220,385,,https://magasin.mr-bricolage.fr/385-mr-bricolage-chateau-renard
12 RUE RENE LANNOY,Mr Bricolage,Avion,FR,"{'brand': 'Mr Bricolage', 'fascia': 'Mr Bricolage', 'category': 'Retail', 'edit_date': '2025-03-14', 'lat_lon_source': 'website'}",50.414207,2.8359311,Mr.Bricolage Avion,"{'opening_hours': {'Mon': '09:00 - 12:00  &  14:00 - 19:00', 'Tue': '09:00 - 12:00  &  14:00 - 19:00', 'Wed': '09:00 - 12:00  &  14:00 - 19:00', 'Thu': '09:00 - 12:00  &  14:00 - 19:00', 'Fri': '09:00 - 12:00  &  14:00 - 19:00', 'Sat': '09:00 - 12:30  &  14:00 - 19:00'}}",+33 3 21 67 07 96,62210,439,,https://magasin.mr-bricolage.fr/439-mr-bricolage-avion
Zi Du Haut Coin Rue De La Filée,Mr Bricolage,Aigrefeuille Sur Maine,FR,"{'brand': 'Mr Bricolage', 'fascia': 'Mr Bricolage', 'category': 'Retail', 'edit_date': '2025-03-14', 'lat_lon_source': 'website'}",47.082223,-1.411358,Mr.Bricolage Aigrefeuille Sur Maine,"{'opening_hours': {'Mon': '09:00 - 12:30  &  14:30 - 19:00', 'Tue': '09:00 - 12:30  &  14:30 - 19:00', 'Wed': '09:00 - 12:30  &  14:30 - 19:00', 'Thu': '09:00 - 12:30  &  14:30 - 19:00', 'Fri': '09:00 - 12:30  &  14:00 - 19:00', 'Sat': '09:00 - 13:00  &  14:00 - 19:00'}}",+33 2 40 13 16 16,44140,2,,https://magasin.mr-bricolage.fr/2-mr-bricolage-aigrefeuille-sur-maine
Rue du Général Raymond Chomel,Mr Bricolage,FOURMIES,FR,"{'brand': 'Mr Bricolage', 'fascia': 'Mr Bricolage', 'category': 'Retail', 'edit_date': '2025-03-14', 'lat_lon_source': 'website'}",50.022261,4.033955,Mr.Bricolage Fourmies,"{'opening_hours': {'Mon': '09:00 - 19:00', 'Tue': '09:00 - 19:00', 'Wed': '09:00 - 19:00', 'Thu': '09:00 - 19:00', 'Fri': '09:00 - 19:00', 'Sat': '09:00 - 19:00'}}",+33 3 59 61 54 80,59610,380,,https://magasin.mr-bricolage.fr/380-mr-bricolage-fourmies
Rue Des Mérovingiens Zac Du Chêne Saint-Amand,Mr Bricolage,SAINT DIZIER,FR,"{'brand': 'Mr Bricolage', 'fascia': 'Mr Bricolage', 'category': 'Retail', 'edit_date': '2025-03-14', 'lat_lon_source': 'website'}",48.624098,4.96633,Mr.Bricolage Saint Dizier,"{'opening_hours': {'Mon': '08:30 - 12:30  &  14:00 - 19:00', 'Tue': '08:30 - 12:30  &  14:00 - 19:00', 'Wed': '08:30 - 12:30  &  14:00 - 19:00', 'Thu': '08:30 - 12:30  &  14:00 - 19:00', 'Fri': '08:30 - 12:30  &  14:00 - 19:00', 'Sat': '08:30 - 19:00'}}",+33 3 25 94 90 40,52100,202,,https://magasin.mr-bricolage.fr/202-mr-bricolage-saint-dizier
17 rue Barberis,Mr Bricolage,NICE,FR,"{'brand': 'Mr Bricolage', 'fascia': 'Mr Bricolage', 'category': 'Retail', 'edit_date': '2025-03-14', 'lat_lon_source': 'website'}",43.704984,7.2842963,Mr.Bricolage Nice,"{'opening_hours': {'Mon': '08:30 - 12:30  &  14:00 - 19:00', 'Tue': '08:30 - 12:30  &  14:00 - 19:00', 'Wed': '08:30 - 12:30  &  14:00 - 19:00', 'Thu': '08:30 - 12:30  &  14:00 - 19:00', 'Fri': '08:30 - 12:30  &  14:00 - 19:00', 'Sat': '08:30 - 19:00', 'Sun': '09:00 - 12:30'}}",+33 4 93 07 56 16,06300,348,,https://magasin.mr-bricolage.fr/348-mr-bricolage-nice
19 boulevard du Jeu de Paume,Mr Bricolage,MONTPELLIER,FR,"{'brand': 'Mr Bricolage', 'fascia': 'Mr Bricolage', 'category': 'Retail', 'edit_date': '2025-03-14', 'lat_lon_source': 'website'}",43.6077045,3.8741606,Mr.Bricolage Montpellier,"{'opening_hours': {'Mon': '09:30 - 12:30  &  14:00 - 19:00', 'Tue': '09:30 - 12:30  &  14:00 - 19:00', 'Wed': '09:30 - 12:30  &  14:00 - 19:00', 'Thu': '09:30 - 12:30  &  14:00 - 19:00', 'Fri': '09:30 - 12:30  &  14:00 - 19:00', 'Sat': '09:30 - 19:00'}}",+33 4 67 34 34 45,34000,379,,https://magasin.mr-bricolage.fr/379-mr-bricolage-montpellier
Avenue de la Gare,Mr Bricolage,SAINTE MENEHOULD,FR,"{'brand': 'Mr Bricolage', 'fascia': 'Mr Bricolage', 'category': 'Retail', 'edit_date': '2025-03-14', 'lat_lon_source': 'website'}",49.089975,4.901699,Mr.Bricolage Sainte Menehould,"{'opening_hours': {'Mon': '09:00 - 12:00  &  14:00 - 19:00', 'Tue': '09:00 - 12:00  &  14:00 - 19:00', 'Wed': '09:00 - 12:00  &  14:00 - 19:00', 'Thu': '09:00 - 12:00  &  14:00 - 19:00', 'Fri': '09:00 - 12:00  &  14:00 - 19:00', 'Sat': '09:00 - 12:00  &  14:00 - 19:00'}}",+33 3 26 60 51 10,51800,326,,https://magasin.mr-bricolage.fr/326-mr-bricolage-sainte-menehould
Rue lieutenant Legris,Mr Bricolage,ST BREVIN LES PINS,FR,"{'brand': 'Mr Bricolage', 'fascia': 'Mr Bricolage', 'category': 'Retail', 'edit_date': '2025-03-14', 'lat_lon_source': 'website'}",47.240637,-2.157566,Mr.Bricolage Saint Brevin,"{'opening_hours': {'Mon': '09:00 - 12:30  &  14:00 - 19:00', 'Tue': '09:00 - 12:30  &  14:00 - 19:00', 'Wed': '09:00 - 12:30  &  14:00 - 19:00', 'Thu': '09:00 - 12:30  &  14:00 - 19:00', 'Fri': '09:00 - 12:30  &  14:00 - 19:00', 'Sat': '09:00 - 19:00'}}",+33 2 40 39 04 04,44250,287,,https://magasin.mr-bricolage.fr/287-mr-bricolage-saint-brevin
11 Rue De La Champagne,Mr Bricolage,PONTARLIER,FR,"{'brand': 'Mr Bricolage', 'fascia': 'Mr Bricolage', 'category': 'Retail', 'edit_date': '2025-03-14', 'lat_lon_source': 'website'}",46.9133693,6.3220841,Mr.Bricolage Pontarlier,"{'opening_hours': {'Mon': '08:30 - 12:30  &  13:30 - 19:00', 'Tue': '08:30 - 12:30  &  13:30 - 19:00', 'Wed': '08:30 - 12:30  &  13:30 - 19:00', 'Thu': '08:30 - 12:30  &  13:30 - 19:00', 'Fri': '08:30 - 12:30  &  13:30 - 19:00', 'Sat': '08:30 - 19:00'}}",+33 3 81 38 87 38,25300,184,,https://magasin.mr-bricolage.fr/184-mr-bricolage-pontarlier
5 Rue Antoine De St Exupéry,Mr Bricolage,SAINT DIE,FR,"{'brand': 'Mr Bricolage', 'fascia': 'Mr Bricolage', 'category': 'Retail', 'edit_date': '2025-03-14', 'lat_lon_source': 'website'}",48.2912,6.93799,Mr.Bricolage Saint Die Des Vosges,"{'opening_hours': {'Mon': '09:00 - 12:00  &  14:00 - 19:00', 'Tue': '09:00 - 12:00  &  14:00 - 19:00', 'Wed': '09:00 - 12:00  &  14:00 - 19:00', 'Thu': '09:00 - 12:00  &  14:00 - 19:00', 'Fri': '09:00 - 12:00  &  14:00 - 19:00', 'Sat': '09:00 - 19:00'}}",+33 3 29 51 60 60,88100,201,,https://magasin.mr-bricolage.fr/201-mr-bricolage-saint-die-des-vosges
Z.A. De Kerganet Pont L'Abbé,Mr Bricolage,PONT L'ABBE,FR,"{'brand': 'Mr Bricolage', 'fascia': 'Mr Bricolage', 'category': 'Retail', 'edit_date': '2025-03-14', 'lat_lon_source': 'website'}",47.870107,-4.242277,Mr.Bricolage Pont L’Abbe,"{'opening_hours': {'Mon': '09:00 - 19:00', 'Tue': '09:00 - 19:00', 'Wed': '09:00 - 19:00', 'Thu': '09:00 - 19:00', 'Fri': '09:00 - 19:00', 'Sat': '09:00 - 19:00'}}",+33 9 74 36 09 70,29720,182,,https://magasin.mr-bricolage.fr/182-mr-bricolage-pont-l-abbe
rue du Traité d'amsterdam,Mr Bricolage,PORNIC,FR,"{'brand': 'Mr Bricolage', 'fascia': 'Mr Bricolage', 'category': 'Retail', 'edit_date': '2025-03-14', 'lat_lon_source': 'website'}",47.1249927,-2.1277232,Mr.Bricolage Pornic,"{'opening_hours': {'Mon': '09:00 - 12:30  &  14:00 - 19:00', 'Tue': '09:00 - 12:30  &  14:00 - 19:00', 'Wed': '09:00 - 12:30  &  14:00 - 19:00', 'Thu': '09:00 - 12:30  &  14:00 - 19:00', 'Fri': '09:00 - 12:30  &  14:00 - 19:00', 'Sat': '09:00 - 19:00'}}",+33 2 40 82 02 27,44210,286,,https://magasin.mr-bricolage.fr/286-mr-bricolage-pornic
Route De Mirepoix,Mr Bricolage,PAMIERS,FR,"{'brand': 'Mr Bricolage', 'fascia': 'Mr Bricolage', 'category': 'Retail', 'edit_date': '2025-03-14', 'lat_lon_source': 'website'}",43.0978784,1.6536375,Mr.Bricolage Pamiers,"{'opening_hours': {'Mon': '09:00 - 19:00', 'Tue': '09:00 - 19:00', 'Wed': '09:00 - 19:00', 'Thu': '09:00 - 19:00', 'Fri': '09:00 - 19:00', 'Sat': '09:00 - 19:00'}}",+33 5 61 60 15 10,09104,260,,https://magasin.mr-bricolage.fr/260-mr-bricolage-pamiers
67 Boulevard De L'Europe,Mr Bricolage,OBERNAI,FR,"{'brand': 'Mr Bricolage', 'fascia': 'Mr Bricolage', 'category': 'Retail', 'edit_date': '2025-03-14', 'lat_lon_source': 'website'}",48.4676,7.49385,Mr.Bricolage Obernai,"{'opening_hours': {'Mon': '09:00 - 19:00', 'Tue': '09:00 - 19:00', 'Wed': '09:00 - 19:00', 'Thu': '09:00 - 19:00', 'Fri': '09:00 - 19:00', 'Sat': '09:00 - 18:30'}}",+33 3 88 48 00 69,67210,159,,https://magasin.mr-bricolage.fr/159-mr-bricolage-obernai
10 Avenue Charles De Gaulle,Mr Bricolage,MORTEAU,FR,"{'brand': 'Mr Bricolage', 'fascia': 'Mr Bricolage', 'category': 'Retail', 'edit_date': '2025-03-14', 'lat_lon_source': 'website'}",47.0580107,6.6118631,Mr.Bricolage Morteau,"{'opening_hours': {'Mon': '08:30 - 12:00  &  14:00 - 19:00', 'Tue': '08:30 - 12:00  &  14:00 - 19:00', 'Wed': '08:30 - 12:00  &  14:00 - 19:00', 'Thu': '08:30 - 12:00  &  14:00 - 19:00', 'Fri': '08:30 - 12:00  &  14:00 - 19:00', 'Sat': '08:30 - 12:00  &  14:00 - 18:00'}}",+33 3 81 67 05 66,25500,151,,https://magasin.mr-bricolage.fr/151-mr-bricolage-morteau
Route de Roquelaure,Mr Bricolage,AUCH,FR,"{'brand': 'Mr Bricolage', 'fascia': 'Mr Bricolage', 'category': 'Retail', 'edit_date': '2025-03-14', 'lat_lon_source': 'website'}",43.6828071,0.5940573,Mr.Bricolage Auch,"{'opening_hours': {'Mon': '09:00 - 19:00', 'Tue': '09:00 - 19:00', 'Wed': '09:00 - 19:00', 'Thu': '09:00 - 19:00', 'Fri': '09:00 - 19:00', 'Sat': '09:00 - 19:00'}}",+33 5 62 60 24 24,32000,21,,https://magasin.mr-bricolage.fr/21-mr-bricolage-auch
Route D'Angers,Mr Bricolage,BAUGE,FR,"{'brand': 'Mr Bricolage', 'fascia': 'Mr Bricolage', 'category': 'Retail', 'edit_date': '2025-03-14', 'lat_lon_source': 'website'}",47.546502,-0.110892,Mr.Bricolage Bauge,"{'opening_hours': {'Mon': '09:00 - 12:30  &  14:00 - 19:00', 'Tue': '09:00 - 12:30  &  14:00 - 19:00', 'Wed': '09:00 - 12:30  &  14:00 - 19:00', 'Thu': '09:00 - 12:30  &  14:00 - 19:00', 'Fri': '09:00 - 12:30  &  14:00 - 19:00', 'Sat': '09:00 - 19:00'}}",+33 2 41 84 11 45,49150,30,,https://magasin.mr-bricolage.fr/30-mr-bricolage-bauge
Zone Albasud,Mr Bricolage,MONTAUBAN,FR,"{'brand': 'Mr Bricolage', 'fascia': 'Mr Bricolage', 'category': 'Retail', 'edit_date': '2025-03-14', 'lat_lon_source': 'website'}",43.9868,1.333405,Mr.Bricolage Montauban,"{'opening_hours': {'Mon': '09:00 - 19:00', 'Tue': '09:00 - 19:00', 'Wed': '09:00 - 19:00', 'Thu': '09:00 - 19:00', 'Fri': '09:00 - 19:00', 'Sat': '09:00 - 19:00'}}",+33 5 63 21 46 80,82000,261,,https://magasin.mr-bricolage.fr/261-mr-bricolage-montauban
Zac Du Champ Bossu,Mr Bricolage,PARAY LE MONIAL,FR,"{'brand': 'Mr Bricolage', 'fascia': 'Mr Bricolage', 'category': 'Retail', 'edit_date': '2025-03-14', 'lat_lon_source': 'website'}",46.467237,4.114155,Mr.Bricolage Paray Le Monial,"{'opening_hours': {'Mon': '09:00 - 12:00  &  14:00 - 19:00', 'Tue': '09:00 - 12:00  &  14:00 - 19:00', 'Wed': '09:00 - 12:00  &  14:00 - 19:00', 'Thu': '09:00 - 12:00  &  14:00 - 19:00', 'Fri': '09:00 - 12:00  &  14:00 - 19:00', 'Sat': '09:00 - 12:00  &  14:00 - 19:00'}}",+33 3 85 81 09 39,71600,163,,https://magasin.mr-bricolage.fr/163-mr-bricolage-paray-le-monial
16 Zone Activité Les Galliennes,Mr Bricolage,MONTOIRE SUR LE LOIR,FR,"{'brand': 'Mr Bricolage', 'fascia': 'Mr Bricolage', 'category': 'Retail', 'edit_date': '2025-03-14', 'lat_lon_source': 'website'}",47.758743,0.885777,Mr.Bricolage Montoire Sur Le Loir,"{'opening_hours': {'Mon': '09:00 - 12:00  &  14:00 - 18:30', 'Tue': '09:00 - 12:00  &  14:00 - 18:30', 'Wed': '09:00 - 12:00  &  14:00 - 18:30', 'Thu': '09:00 - 12:00  &  14:00 - 18:30', 'Fri': '09:00 - 12:00  &  14:00 - 18:30', 'Sat': '09:00 - 12:00  &  14:00 - 18:30', 'Sun': '09:30 - 12:00'}}",+33 2 54 85 14 32,41800,318,,https://magasin.mr-bricolage.fr/318-mr-bricolage-montoire-sur-le-loir
LIEU DIT RAMOUNOT,Mr Bricolage,BIAS,FR,"{'brand': 'Mr Bricolage', 'fascia': 'Mr Bricolage', 'category': 'Retail', 'edit_date': '2025-03-14', 'lat_lon_source': 'website'}",44.403496,0.666645,Mr.Bricolage Bias,"{'opening_hours': {'Mon': '09:00 - 19:00', 'Tue': '09:00 - 19:00', 'Wed': '09:00 - 19:00', 'Thu': '09:00 - 19:00', 'Fri': '09:00 - 19:00', 'Sat': '09:00 - 19:00'}}",+33 5 53 75 37 50,47300,270,,https://magasin.mr-bricolage.fr/270-mr-bricolage-bias
"79, Boulevard De La Jamagne",Mr Bricolage,GERARDMER,FR,"{'brand': 'Mr Bricolage', 'fascia': 'Mr Bricolage', 'category': 'Retail', 'edit_date': '2025-03-14', 'lat_lon_source': 'website'}",48.0788876,6.8871293,Mr.Bricolage Gerardmer,"{'opening_hours': {'Mon': '09:00 - 19:00', 'Tue': '09:00 - 19:00', 'Wed': '09:00 - 19:00', 'Thu': '09:00 - 19:00', 'Fri': '09:00 - 19:00', 'Sat': '09:00 - 19:00'}}",+33 3 29 63 27 14,88400,253,,https://magasin.mr-bricolage.fr/253-mr-bricolage-gerardmer
48 Boulevard Gambetta,Mr Bricolage,GRENOBLE,FR,"{'brand': 'Mr Bricolage', 'fascia': 'Mr Bricolage', 'category': 'Retail', 'edit_date': '2025-03-14', 'lat_lon_source': 'website'}",45.1843578,5.7250287,Mr.Bricolage Grenoble,"{'opening_hours': {'Mon': '09:00 - 19:30', 'Tue': '09:00 - 19:30', 'Wed': '09:00 - 19:30', 'Thu': '09:00 - 19:30', 'Fri': '09:00 - 19:30', 'Sat': '09:00 - 19:30'}}",+33 4 76 43 82 18,38000,360,,https://magasin.mr-bricolage.fr/360-mr-bricolage-grenoble
Rue Du Maupas,Mr Bricolage,LA TRANCHE SUR MER,FR,"{'brand': 'Mr Bricolage', 'fascia': 'Mr Bricolage', 'category': 'Retail', 'edit_date': '2025-03-14', 'lat_lon_source': 'website'}",46.352862,-1.423582,Mr.Bricolage La Tranche Sur Mer,"{'opening_hours': {'Mon': '09:00 - 12:00  &  14:00 - 19:00', 'Tue': '09:00 - 12:00  &  14:00 - 19:00', 'Wed': '09:00 - 12:00  &  14:00 - 19:00', 'Thu': '09:00 - 12:00  &  14:00 - 19:00', 'Fri': '09:00 - 12:00  &  14:00 - 19:00', 'Sat': '09:00 - 12:00  &  14:00 - 19:00'}}",+33 2 51 30 32 12,85360,108,,https://magasin.mr-bricolage.fr/108-mr-bricolage-la-tranche-sur-mer
6 Rue Clément Ader,Mr Bricolage,MONCEL LES LUNEVILLE,FR,"{'brand': 'Mr Bricolage', 'fascia': 'Mr Bricolage', 'category': 'Retail', 'edit_date': '2025-03-14', 'lat_lon_source': 'website'}",48.5799069,6.5196112,Mr.Bricolage Moncel Les Luneville,"{'opening_hours': {'Mon': '09:00 - 12:30  &  14:00 - 19:00', 'Tue': '09:00 - 12:30  &  14:00 - 19:00', 'Wed': '09:00 - 12:30  &  14:00 - 19:00', 'Thu': '09:00 - 12:30  &  14:00 - 19:00', 'Fri': '09:00 - 12:30  &  14:00 - 19:00', 'Sat': '09:00 - 19:00'}}",+33 3 83 73 15 48,54300,143,,https://magasin.mr-bricolage.fr/143-mr-bricolage-moncel-les-luneville
320 Rue Youri Gagarine,Mr Bricolage,LANESTER,FR,"{'brand': 'Mr Bricolage', 'fascia': 'Mr Bricolage', 'category': 'Retail', 'edit_date': '2025-03-14', 'lat_lon_source': 'website'}",47.7747,-3.34306,Mr.Bricolage Lanester - Lorient,"{'opening_hours': {'Mon': '09:00 - 19:00', 'Tue': '09:00 - 19:00', 'Wed': '09:00 - 19:00', 'Thu': '09:00 - 19:00', 'Fri': '09:00 - 19:00', 'Sat': '09:00 - 19:00'}}",+33 2 97 76 24 24,56600,111,,https://magasin.mr-bricolage.fr/111-mr-bricolage-lanester-lorient
21-25 Rue De Ménilmontant,Mr Bricolage,Paris,FR,"{'brand': 'Mr Bricolage', 'fascia': 'Mr Bricolage', 'category': 'Retail', 'edit_date': '2025-03-14', 'lat_lon_source': 'website'}",48.8676166,2.3848354,Mr.Bricolage Paris 20 - Menilmontant,"{'opening_hours': {'Mon': '09:30 - 19:00', 'Tue': '09:30 - 19:00', 'Wed': '09:30 - 19:00', 'Thu': '09:30 - 19:00', 'Fri': '09:30 - 19:00', 'Sat': '09:30 - 19:00'}}",+33 1 46 36 75 75,75020,169,,https://magasin.mr-bricolage.fr/169-mr-bricolage-paris-20-menilmontant
Centre Commercial HYPER U,Mr Bricolage,PLANCOET,FR,"{'brand': 'Mr Bricolage', 'fascia': 'Mr Bricolage', 'category': 'Retail', 'edit_date': '2025-03-14', 'lat_lon_source': 'website'}",48.5262,-2.2424,Mr.Bricolage Plancoet,"{'opening_hours': {'Mon': '09:00 - 12:30  &  14:00 - 19:00', 'Tue': '09:00 - 12:30  &  14:00 - 19:00', 'Wed': '09:00 - 12:30  &  14:00 - 19:00', 'Thu': '09:00 - 12:30  &  14:00 - 19:00', 'Fri': '09:00 - 12:30  &  14:00 - 19:00', 'Sat': '09:00 - 12:30  &  14:00 - 19:00'}}",+33 2 96 84 32 00,22130,176,,https://magasin.mr-bricolage.fr/176-mr-bricolage-plancoet
Boulevard du 19 Mars 1962,Mr Bricolage,Caudry,FR,"{'brand': 'Mr Bricolage', 'fascia': 'Mr Bricolage', 'category': 'Retail', 'edit_date': '2025-03-14', 'lat_lon_source': 'website'}",50.1137133,3.4168702,Mr.Bricolage Caudry,"{'opening_hours': {'Mon': '14:00 - 19:00', 'Tue': '09:00 - 12:00  &  14:00 - 19:00', 'Wed': '09:00 - 12:00  &  14:00 - 19:00', 'Thu': '09:00 - 12:00  &  14:00 - 19:00', 'Fri': '09:00 - 12:00  &  14:00 - 19:00', 'Sat': '09:00 - 12:00  &  14:00 - 19:00'}}",+33 3 27 85 06 17,59540,296,,https://magasin.mr-bricolage.fr/296-mr-bricolage-caudry
Route D'Eecke,Mr Bricolage,STEENVOORDE,FR,"{'brand': 'Mr Bricolage', 'fascia': 'Mr Bricolage', 'category': 'Retail', 'edit_date': '2025-03-14', 'lat_lon_source': 'website'}",50.80521,2.584851,Mr.Bricolage Steenvoorde,"{'opening_hours': {'Mon': '09:00 - 12:00  &  14:00 - 19:00', 'Tue': '09:00 - 12:00  &  14:00 - 19:00', 'Wed': '09:00 - 12:00  &  14:00 - 19:00', 'Thu': '09:00 - 12:00  &  14:00 - 19:00', 'Fri': '09:00 - 12:00  &  14:00 - 19:00', 'Sat': '09:00 - 12:00  &  14:00 - 19:00'}}",+33 3 28 48 18 62,59114,228,,https://magasin.mr-bricolage.fr/228-mr-bricolage-steenvoorde
Espace Commercial La Gaillarde,Mr Bricolage,SENS,FR,"{'brand': 'Mr Bricolage', 'fascia': 'Mr Bricolage', 'category': 'Retail', 'edit_date': '2025-03-14', 'lat_lon_source': 'website'}",48.20065,3.28268,Mr.Bricolage Saint Clement - Sens,{'opening_hours': {}},+33 3 86 95 81 00,89100,200,,https://magasin.mr-bricolage.fr/200-mr-bricolage-saint-clement-sens
37 avenue du Général Patton,Mr Bricolage,MALESHERBES,FR,"{'brand': 'Mr Bricolage', 'fascia': 'Mr Bricolage', 'category': 'Retail', 'edit_date': '2025-03-14', 'lat_lon_source': 'website'}",48.2890031,2.3892961,Mr.Bricolage Malesherbes,"{'opening_hours': {'Mon': '14:00 - 19:00', 'Tue': '09:00 - 12:30  &  14:00 - 19:00', 'Wed': '09:00 - 12:30  &  14:00 - 19:00', 'Thu': '09:00 - 12:30  &  14:00 - 19:00', 'Fri': '09:00 - 12:30  &  14:00 - 19:00', 'Sat': '09:00 - 12:30  &  14:00 - 19:00', 'Sun': '09:30 - 12:30'}}",+33 2 38 34 95 95,45330,294,,https://magasin.mr-bricolage.fr/294-mr-bricolage-malesherbes
102 Avenue de Grasse,Mr Bricolage,CAGNES SUR MER,FR,"{'brand': 'Mr Bricolage', 'fascia': 'Mr Bricolage', 'category': 'Retail', 'edit_date': '2025-03-14', 'lat_lon_source': 'website'}",43.6605536,7.1309567,Mr.Bricolage Cagnes,"{'opening_hours': {'Mon': '08:30 - 19:00', 'Tue': '08:30 - 19:00', 'Wed': '08:30 - 19:00', 'Thu': '08:30 - 19:00', 'Fri': '08:30 - 19:00', 'Sat': '08:30 - 19:00', 'Sun': '09:00 - 12:30'}}",+33 4 93 73 25 43,06800,342,,https://magasin.mr-bricolage.fr/342-mr-bricolage-cagnes
69 Avenue d'Espagne,Mr Bricolage,CAMBO LES BAINS,FR,"{'brand': 'Mr Bricolage', 'fascia': 'Mr Bricolage', 'category': 'Retail', 'edit_date': '2025-03-14', 'lat_lon_source': 'website'}",43.3552279,-1.4135017,Mr.Bricolage Cambo Les Bains,"{'opening_hours': {'Mon': '09:00 - 12:30  &  14:00 - 19:00', 'Tue': '09:00 - 12:30  &  14:00 - 19:00', 'Wed': '09:00 - 12:30  &  14:00 - 19:00', 'Thu': '09:00 - 12:30  &  14:00 - 19:00', 'Fri': '09:00 - 12:30  &  14:00 - 19:00', 'Sat': '09:00 - 12:30  &  14:00 - 19:00', 'Sun': '10:00 - 12:30  &  15:00 - 18:00'}}",+33 5 59 29 24 29,64250,307,,https://magasin.mr-bricolage.fr/307-mr-bricolage-cambo-les-bains
Route de Ferrières,Mr Bricolage,LE MAYET DE MONTAGNE,FR,"{'brand': 'Mr Bricolage', 'fascia': 'Mr Bricolage', 'category': 'Retail', 'edit_date': '2025-03-14', 'lat_lon_source': 'website'}",46.0686,3.66268,Mr.Bricolage Mayet de Montagne,"{'opening_hours': {'Mon': '08:30 - 12:30  &  14:30 - 19:00', 'Tue': '08:30 - 12:30  &  14:30 - 19:00', 'Wed': '08:30 - 12:30  &  14:30 - 19:00', 'Thu': '08:30 - 12:30  &  14:30 - 19:00', 'Fri': '08:30 - 12:30  &  14:30 - 19:00', 'Sat': '08:30 - 12:30  &  14:30 - 19:00'}}",+33 4 70 59 73 47,03250,138,,https://magasin.mr-bricolage.fr/138-mr-bricolage-mayet-de-montagne
Zone Du Suroit,Mr Bricolage,BELZ,FR,"{'brand': 'Mr Bricolage', 'fascia': 'Mr Bricolage', 'category': 'Retail', 'edit_date': '2025-03-14', 'lat_lon_source': 'website'}",47.672186,-3.18184,Mr.Bricolage Belz,"{'opening_hours': {'Mon': '09:00 - 12:30  &  14:00 - 19:00', 'Tue': '09:00 - 12:30  &  14:00 - 19:00', 'Wed': '09:00 - 12:30  &  14:00 - 19:00', 'Thu': '09:00 - 12:30  &  14:00 - 19:00', 'Fri': '09:00 - 12:30  &  14:00 - 19:00', 'Sat': '09:00 - 12:30  &  14:00 - 19:00'}}",+33 2 97 55 38 77,56550,34,,https://magasin.mr-bricolage.fr/34-mr-bricolage-belz
Rue Wolfgang Amadeus Mozart,Mr Bricolage,ACHERES,FR,"{'brand': 'Mr Bricolage', 'fascia': 'Mr Bricolage', 'category': 'Retail', 'edit_date': '2025-03-14', 'lat_lon_source': 'website'}",48.9626463,2.0568146,Mr.Bricolage Achères,"{'opening_hours': {'Mon': '09:00 - 19:00', 'Tue': '09:00 - 19:00', 'Wed': '09:00 - 19:00', 'Thu': '09:00 - 19:00', 'Fri': '09:00 - 19:00', 'Sat': '09:00 - 19:00', 'Sun': '09:30 - 12:30'}}",+33 1 39 11 87 30,78260,291,,https://magasin.mr-bricolage.fr/291-mr-bricolage-acheres
150 rue Lech Walessa,Mr Bricolage,DRAGUIGNAN,FR,"{'brand': 'Mr Bricolage', 'fascia': 'Mr Bricolage', 'category': 'Retail', 'edit_date': '2025-03-14', 'lat_lon_source': 'website'}",43.5314,6.46929,Mr.Bricolage Draguignan,"{'opening_hours': {'Mon': '08:30 - 12:30  &  14:00 - 19:00', 'Tue': '08:30 - 12:30  &  14:00 - 19:00', 'Wed': '08:30 - 12:30  &  14:00 - 19:00', 'Thu': '08:30 - 12:30  &  14:00 - 19:00', 'Fri': '08:30 - 12:30  &  14:00 - 19:00', 'Sat': '09:00 - 12:30  &  14:00 - 19:00', 'Sun': '09:00 - 12:30'}}",+33 4 94 68 72 63,83300,83,,https://magasin.mr-bricolage.fr/83-mr-bricolage-draguignan
Centre Commercial Carrefour,Mr Bricolage,BALARUC,FR,"{'brand': 'Mr Bricolage', 'fascia': 'Mr Bricolage', 'category': 'Retail', 'edit_date': '2025-03-14', 'lat_lon_source': 'website'}",43.460392,3.693421,Mr.Bricolage Balaruc Le Vieux,"{'opening_hours': {'Mon': '08:30 - 19:00', 'Tue': '08:30 - 19:00', 'Wed': '08:30 - 19:00', 'Thu': '08:30 - 19:00', 'Fri': '08:30 - 19:00', 'Sat': '08:30 - 19:00', 'Sun': '09:00 - 12:30'}}",+33 4 67 51 66 00,34540,27,,https://magasin.mr-bricolage.fr/27-mr-bricolage-balaruc-le-vieux
Zac Des Roches,Mr Bricolage,NANGIS,FR,"{'brand': 'Mr Bricolage', 'fascia': 'Mr Bricolage', 'category': 'Retail', 'edit_date': '2025-03-14', 'lat_lon_source': 'website'}",48.5556,3.0035,Mr.Bricolage Nangis,"{'opening_hours': {'Mon': '09:00 - 12:30  &  14:00 - 19:00', 'Tue': '09:00 - 12:30  &  14:00 - 19:00', 'Wed': '09:00 - 12:30  &  14:00 - 19:00', 'Thu': '09:00 - 12:30  &  14:00 - 19:00', 'Fri': '09:00 - 12:30  &  14:00 - 19:00', 'Sat': '09:00 - 12:30  &  14:00 - 19:00', 'Sun': '09:30 - 12:30'}}",+33 1 60 58 51 60,77370,154,,https://magasin.mr-bricolage.fr/154-mr-bricolage-nangis
Rue Beauséjour,Mr Bricolage,LANMEUR,FR,"{'brand': 'Mr Bricolage', 'fascia': 'Mr Bricolage', 'category': 'Retail', 'edit_date': '2025-03-14', 'lat_lon_source': 'website'}",48.6413643,-3.7213774,Mr.Bricolage Lanmeur,"{'opening_hours': {'Mon': '09:00 - 12:00  &  14:00 - 19:00', 'Tue': '09:00 - 12:00  &  14:00 - 19:00', 'Wed': '09:00 - 12:00  &  14:00 - 19:00', 'Thu': '09:00 - 12:00  &  14:00 - 19:00', 'Fri': '09:00 - 12:00  &  14:00 - 19:00', 'Sat': '09:00 - 12:30  &  14:00 - 19:00'}}",+33 2 98 67 61 61,29620,112,,https://magasin.mr-bricolage.fr/112-mr-bricolage-lanmeur
Lieu dit Palagaccio,Mr Bricolage,BASTIA,FR,"{'brand': 'Mr Bricolage', 'fascia': 'Mr Bricolage', 'category': 'Retail', 'edit_date': '2025-03-14', 'lat_lon_source': 'website'}",42.7163058,9.4552254,Mr.Bricolage Bastia,"{'opening_hours': {'Mon': '08:00 - 12:30  &  13:30 - 19:00', 'Tue': '08:00 - 12:30  &  13:30 - 19:00', 'Wed': '08:00 - 12:30  &  13:30 - 19:00', 'Thu': '08:00 - 12:30  &  13:30 - 19:00', 'Fri': '08:00 - 12:30  &  13:30 - 19:00', 'Sat': '08:00 - 12:30  &  13:30 - 19:00'}}",+33 4 95 32 20 66,20200,302,,https://magasin.mr-bricolage.fr/302-mr-bricolage-bastia
19 Rue De Bel Air,Mr Bricolage,PLOUGUERNEAU,FR,"{'brand': 'Mr Bricolage', 'fascia': 'Mr Bricolage', 'category': 'Retail', 'edit_date': '2025-03-14', 'lat_lon_source': 'website'}",48.6056,-4.50407,Mr.Bricolage Plouguerneau,"{'opening_hours': {'Mon': '09:00 - 12:00  &  14:00 - 19:00', 'Tue': '09:00 - 12:00  &  14:00 - 19:00', 'Wed': '09:00 - 12:00  &  14:00 - 19:00', 'Thu': '09:00 - 12:00  &  14:00 - 19:00', 'Fri': '09:00 - 12:00  &  14:00 - 19:00', 'Sat': '09:00 - 12:30  &  14:00 - 19:00'}}",+33 2 98 02 19 35,29880,178,,https://magasin.mr-bricolage.fr/178-mr-bricolage-plouguerneau
Place du commerce,Mr Bricolage,PLOUZANE,FR,"{'brand': 'Mr Bricolage', 'fascia': 'Mr Bricolage', 'category': 'Retail', 'edit_date': '2025-03-14', 'lat_lon_source': 'website'}",48.3719273,-4.5900993,Mr.Bricolage Plouzane,"{'opening_hours': {'Mon': '09:00 - 12:30  &  14:00 - 19:00', 'Tue': '09:00 - 12:30  &  14:00 - 19:00', 'Wed': '09:00 - 12:30  &  14:00 - 19:00', 'Thu': '09:00 - 12:30  &  14:00 - 19:00', 'Fri': '09:00 - 12:30  &  14:00 - 19:00', 'Sat': '09:00 - 19:00'}}",+33 2 98 05 11 05,29280,179,,https://magasin.mr-bricolage.fr/179-mr-bricolage-plouzane
51 Rue Hapetenia,Mr Bricolage,HENDAYE,FR,"{'brand': 'Mr Bricolage', 'fascia': 'Mr Bricolage', 'category': 'Retail', 'edit_date': '2025-03-14', 'lat_lon_source': 'website'}",43.3498526,-1.7685631,Mr.Bricolage Hendaye,"{'opening_hours': {'Mon': '09:00 - 12:30  &  14:00 - 19:00', 'Tue': '09:00 - 12:30  &  14:00 - 19:00', 'Wed': '09:00 - 12:30  &  14:00 - 19:00', 'Thu': '09:00 - 12:30  &  14:00 - 19:00', 'Fri': '09:00 - 12:30  &  14:00 - 19:00', 'Sat': '09:00 - 12:30  &  14:00 - 19:00'}}",+33 5 59 48 01 01,64700,313,,https://magasin.mr-bricolage.fr/313-mr-bricolage-hendaye
2 rue Gallo-Romaine,Mr Bricolage,Carnac,FR,"{'brand': 'Mr Bricolage', 'fascia': 'Mr Bricolage', 'category': 'Retail', 'edit_date': '2025-03-14', 'lat_lon_source': 'website'}",47.588639,-3.058029,Mr.Bricolage Carnac,"{'opening_hours': {'Mon': '09:00 - 12:30  &  14:00 - 19:00', 'Tue': '09:00 - 12:30  &  14:00 - 19:00', 'Wed': '09:00 - 12:30  &  14:00 - 19:00', 'Thu': '09:00 - 12:30  &  14:00 - 19:00', 'Fri': '09:00 - 12:30  &  14:00 - 19:00', 'Sat': '09:00 - 12:30  &  14:00 - 19:00'}}",+33 2 97 31 98 98,56340,51,,https://magasin.mr-bricolage.fr/51-mr-bricolage-carnac
Avenue De L'Europe,Mr Bricolage,BARBEZIEUX ST HILAIRE,FR,"{'brand': 'Mr Bricolage', 'fascia': 'Mr Bricolage', 'category': 'Retail', 'edit_date': '2025-03-14', 'lat_lon_source': 'website'}",45.4663661,-0.1645019,Mr.Bricolage Barbezieux - Saint-Hilaire,"{'opening_hours': {'Mon': '09:00 - 12:00  &  14:00 - 19:00', 'Tue': '09:00 - 12:00  &  14:00 - 19:00', 'Wed': '09:00 - 12:00  &  14:00 - 19:00', 'Thu': '09:00 - 12:00  &  14:00 - 19:00', 'Fri': '09:00 - 12:00  &  14:00 - 19:00', 'Sat': '09:00 - 12:00  &  14:00 - 19:00'}}",+33 5 45 78 01 17,16300,257,,https://magasin.mr-bricolage.fr/257-mr-bricolage-barbezieux-saint-hilaire
Parc Commercial Océanis Rd 38 Bis,Mr Bricolage,SAINT GILLES CROIX DE VIE,FR,"{'brand': 'Mr Bricolage', 'fascia': 'Mr Bricolage', 'category': 'Retail', 'edit_date': '2025-03-14', 'lat_lon_source': 'website'}",46.6969,-1.91527,Mr.Bricolage Saint Gilles Croix De Vie,"{'opening_hours': {'Mon': '09:00 - 12:30  &  14:00 - 19:00', 'Tue': '09:00 - 12:30  &  14:00 - 19:00', 'Wed': '09:00 - 12:30  &  14:00 - 19:00', 'Thu': '09:00 - 12:30  &  14:00 - 19:00', 'Fri': '09:00 - 12:30  &  14:00 - 19:00', 'Sat': '09:00 - 12:30  &  14:00 - 19:00'}}",+33 2 51 54 80 29,85800,203,,https://magasin.mr-bricolage.fr/203-mr-bricolage-saint-gilles-croix-de-vie
Rue de l'Abbaye,Mr Bricolage,HARNES,FR,"{'brand': 'Mr Bricolage', 'fascia': 'Mr Bricolage', 'category': 'Retail', 'edit_date': '2025-03-14', 'lat_lon_source': 'website'}",50.443364,2.867568,Mr.Bricolage Harnes - Lens,"{'opening_hours': {'Mon': '09:00 - 12:00  &  14:00 - 19:00', 'Tue': '09:00 - 12:00  &  14:00 - 19:00', 'Wed': '09:00 - 12:00  &  14:00 - 19:00', 'Thu': '09:00 - 12:00  &  14:00 - 19:00', 'Fri': '09:00 - 12:00  &  14:00 - 19:00', 'Sat': '09:00 - 12:30  &  14:00 - 19:00'}}",+33 3 21 28 29 25,62440,98,,https://magasin.mr-bricolage.fr/98-mr-bricolage-harnes-lens
Rue Saint Pierre,Mr Bricolage,Seyne les Alpes,FR,"{'brand': 'Mr Bricolage', 'fascia': 'Mr Bricolage', 'category': 'Retail', 'edit_date': '2025-03-14', 'lat_lon_source': 'website'}",44.351656520088,6.3566435683701,Mr.Bricolage Seyne les Alpes,"{'opening_hours': {'Mon': '08:30 - 12:00  &  13:30 - 18:00', 'Tue': '08:30 - 12:00  &  13:30 - 18:00', 'Wed': '08:30 - 12:00  &  13:30 - 18:00', 'Thu': '08:30 - 12:00  &  13:30 - 18:00', 'Fri': '08:30 - 12:00  &  13:30 - 18:00', 'Sat': '08:30 - 12:00  &  13:30 - 18:00'}}",+33 4 12 05 13 55,04140,400,,https://magasin.mr-bricolage.fr/400-mr-bricolage-seyne-les-alpes
Route Départementale N°13,Mr Bricolage,MATIGNON,FR,"{'brand': 'Mr Bricolage', 'fascia': 'Mr Bricolage', 'category': 'Retail', 'edit_date': '2025-03-14', 'lat_lon_source': 'website'}",48.595815,-2.2936899,Mr.Bricolage Matignon,"{'opening_hours': {'Mon': '09:00 - 12:30  &  14:00 - 19:00', 'Tue': '09:00 - 12:30  &  14:00 - 19:00', 'Wed': '09:00 - 12:30  &  14:00 - 19:00', 'Thu': '09:00 - 12:30  &  14:00 - 19:00', 'Fri': '09:00 - 12:30  &  14:00 - 19:00', 'Sat': '09:00 - 12:30  &  14:00 - 19:00'}}",+33 2 96 41 16 94,22550,137,,https://magasin.mr-bricolage.fr/137-mr-bricolage-matignon
2 Cours De Verdun,Mr Bricolage,OYONNAX,FR,"{'brand': 'Mr Bricolage', 'fascia': 'Mr Bricolage', 'category': 'Retail', 'edit_date': '2025-03-14', 'lat_lon_source': 'website'}",46.2704,5.65892,Mr.Bricolage Oyonnax,"{'opening_hours': {'Mon': '09:00 - 19:00', 'Tue': '09:00 - 19:00', 'Wed': '09:00 - 19:00', 'Thu': '09:00 - 19:00', 'Fri': '09:00 - 19:00', 'Sat': '09:00 - 19:00'}}",+33 4 74 77 41 77,01100,161,,https://magasin.mr-bricolage.fr/161-mr-bricolage-oyonnax
6 ROUTE D'ALBERT,Mr Bricolage,BAPAUME,FR,"{'brand': 'Mr Bricolage', 'fascia': 'Mr Bricolage', 'category': 'Retail', 'edit_date': '2025-03-14', 'lat_lon_source': 'website'}",50.1031593,2.8409439,Mr.Bricolage Bapaume,"{'opening_hours': {'Mon': '09:00 - 12:00  &  14:00 - 19:00', 'Tue': '09:00 - 12:00  &  14:00 - 19:00', 'Wed': '09:00 - 12:00  &  14:00 - 19:00', 'Thu': '09:00 - 12:00  &  14:00 - 19:00', 'Fri': '09:00 - 12:00  &  14:00 - 19:00', 'Sat': '09:00 - 12:00  &  14:00 - 19:00'}}",+33 3 21 50 56 51,62450,280,,https://magasin.mr-bricolage.fr/280-mr-bricolage-bapaume
Route De Orthez,Mr Bricolage,HAGETMAU,FR,"{'brand': 'Mr Bricolage', 'fascia': 'Mr Bricolage', 'category': 'Retail', 'edit_date': '2025-03-14', 'lat_lon_source': 'website'}",43.636411,-0.614436,Mr.Bricolage Hagetmau,"{'opening_hours': {'Mon': '09:00 - 12:30  &  14:00 - 19:00', 'Tue': '09:00 - 12:30  &  14:00 - 19:00', 'Wed': '09:00 - 12:30  &  14:00 - 19:00', 'Thu': '09:00 - 12:30  &  14:00 - 19:00', 'Fri': '09:00 - 12:30  &  14:00 - 19:00', 'Sat': '09:00 - 19:00', 'Sun': '09:30 - 12:30'}}",+33 5 58 79 39 13,40700,97,,https://magasin.mr-bricolage.fr/97-mr-bricolage-hagetmau
43 Boulevard Ornano,Mr Bricolage,Paris,FR,"{'brand': 'Mr Bricolage', 'fascia': 'Mr Bricolage', 'category': 'Retail', 'edit_date': '2025-03-14', 'lat_lon_source': 'website'}",48.8952844,2.3461783,Mr.Bricolage Paris Ornano,"{'opening_hours': {'Mon': '09:30 - 19:30', 'Tue': '09:30 - 19:30', 'Wed': '09:30 - 19:30', 'Thu': '09:30 - 19:30', 'Fri': '09:30 - 19:30', 'Sat': '09:30 - 19:30'}}",+33 1 42 64 39 65,75018,394,,https://magasin.mr-bricolage.fr/394-mr-bricolage-paris-ornano
1 rue Georges Clemenceau,Mr Bricolage,BEAULIEU SUR MER,FR,"{'brand': 'Mr Bricolage', 'fascia': 'Mr Bricolage', 'category': 'Retail', 'edit_date': '2025-03-14', 'lat_lon_source': 'website'}",43.7066148,7.3309389,Mr.Bricolage Beaulieu,"{'opening_hours': {'Mon': '08:30 - 12:30  &  14:00 - 19:00', 'Tue': '08:30 - 12:30  &  14:00 - 19:00', 'Wed': '08:30 - 12:30  &  14:00 - 19:00', 'Thu': '08:30 - 12:30  &  14:00 - 19:00', 'Fri': '08:30 - 12:30  &  14:00 - 19:00', 'Sat': '08:30 - 19:00', 'Sun': '09:00 - 12:30'}}",+33 4 93 16 06 39,06310,341,,https://magasin.mr-bricolage.fr/341-mr-bricolage-beaulieu
Rue De Blanc Mont,Mr Bricolage,VOUZIERS,FR,"{'brand': 'Mr Bricolage', 'fascia': 'Mr Bricolage', 'category': 'Retail', 'edit_date': '2025-03-14', 'lat_lon_source': 'website'}",49.3927915,4.6882788,Mr.Bricolage Vouziers,"{'opening_hours': {'Mon': '09:00 - 12:00  &  14:00 - 19:00', 'Tue': '09:00 - 12:00  &  14:00 - 19:00', 'Wed': '09:00 - 12:00  &  14:00 - 19:00', 'Thu': '09:00 - 12:00  &  14:00 - 19:00', 'Fri': '09:00 - 12:00  &  14:00 - 19:00', 'Sat': '09:00 - 12:00  &  14:00 - 19:00'}}",+33 9 51 96 78 89,08400,254,,https://magasin.mr-bricolage.fr/254-mr-bricolage-vouziers
12 Avenue Dutac,Mr Bricolage,Epinal,FR,"{'brand': 'Mr Bricolage', 'fascia': 'Mr Bricolage', 'category': 'Retail', 'edit_date': '2025-03-14', 'lat_lon_source': 'website'}",48.1798356,6.4418134,Mr.Bricolage Epinal,"{'opening_hours': {'Mon': '09:00 - 12:00  &  14:00 - 19:00', 'Tue': '09:00 - 12:00  &  14:00 - 19:00', 'Wed': '09:00 - 12:00  &  14:00 - 19:00', 'Thu': '09:00 - 12:00  &  14:00 - 19:00', 'Fri': '09:00 - 12:00  &  14:00 - 19:00', 'Sat': '09:00 - 12:00  &  14:00 - 19:00'}}",+33 3 29 35 11 88,88000,376,,https://magasin.mr-bricolage.fr/376-mr-bricolage-epinal
Centre Commercial Val De Lys,Mr Bricolage,AIRE SUR LA LYS,FR,"{'brand': 'Mr Bricolage', 'fascia': 'Mr Bricolage', 'category': 'Retail', 'edit_date': '2025-03-14', 'lat_lon_source': 'website'}",50.635642,2.413097,Mr.Bricolage Aire Sur La Lys,"{'opening_hours': {'Mon': '09:00 - 12:00  &  14:00 - 19:00', 'Tue': '09:00 - 12:00  &  14:00 - 19:00', 'Wed': '09:00 - 12:00  &  14:00 - 19:00', 'Thu': '09:00 - 12:00  &  14:00 - 19:00', 'Fri': '09:00 - 12:00  &  14:00 - 19:00', 'Sat': '09:00 - 12:00  &  14:00 - 19:00'}}",+33 3 21 95 94 94,62120,3,,https://magasin.mr-bricolage.fr/3-mr-bricolage-aire-sur-la-lys
3 Rillac,Mr Bricolage,CAVIGNAC,FR,"{'brand': 'Mr Bricolage', 'fascia': 'Mr Bricolage', 'category': 'Retail', 'edit_date': '2025-03-14', 'lat_lon_source': 'website'}",45.094,-0.386478,Mr.Bricolage Cavignac,"{'opening_hours': {'Mon': '09:00 - 12:00  &  14:00 - 19:00', 'Tue': '09:00 - 12:00  &  14:00 - 19:00', 'Wed': '09:00 - 12:00  &  14:00 - 19:00', 'Thu': '09:00 - 12:00  &  14:00 - 19:00', 'Fri': '09:00 - 12:00  &  14:00 - 19:00', 'Sat': '09:00 - 13:00  &  14:00 - 19:00'}}",+33 5 57 68 63 23,33620,264,,https://magasin.mr-bricolage.fr/264-mr-bricolage-cavignac
81 Avenue Pasteur,Mr Bricolage,L'horme,FR,"{'brand': 'Mr Bricolage', 'fascia': 'Mr Bricolage', 'category': 'Retail', 'edit_date': '2025-03-14', 'lat_lon_source': 'website'}",45.483218627928,4.5346173131058,Mr.Bricolage L'Horme,"{'opening_hours': {'Mon': '09:00 - 19:00', 'Tue': '09:00 - 19:00', 'Wed': '09:00 - 19:00', 'Thu': '09:00 - 19:00', 'Fri': '09:00 - 19:00', 'Sat': '09:00 - 19:00', 'Sun': '09:00 - 12:30'}}",+33 4 86 86 03 10,42152,401,,https://magasin.mr-bricolage.fr/401-mr-bricolage-l-horme
281 Avenue des Thézières,Mr Bricolage,Taninges,FR,"{'brand': 'Mr Bricolage', 'fascia': 'Mr Bricolage', 'category': 'Retail', 'edit_date': '2025-03-14', 'lat_lon_source': 'website'}",46.1050905,6.5909023,Mr.Bricolage Taninges,"{'opening_hours': {'Mon': '09:00 - 12:00  &  14:00 - 19:00', 'Tue': '09:00 - 12:00  &  14:00 - 19:00', 'Wed': '09:00 - 12:00  &  14:00 - 19:00', 'Thu': '09:00 - 12:00  &  14:00 - 19:00', 'Fri': '09:00 - 12:00  &  14:00 - 19:00', 'Sat': '09:00 - 12:00  &  14:00 - 19:00'}}",+33 4 50 34 25 26,74440,329,,https://magasin.mr-bricolage.fr/329-mr-bricolage-taninges
78 rue Gabriel Peri,Mr Bricolage,Dombasle sur Meurthe,FR,"{'brand': 'Mr Bricolage', 'fascia': 'Mr Bricolage', 'category': 'Retail', 'edit_date': '2025-03-14', 'lat_lon_source': 'website'}",48.6231515,6.3487086,Mr.Bricolage Dombasle,"{'opening_hours': {'Mon': '14:00 - 19:00', 'Tue': '09:00 - 12:00  &  14:00 - 19:00', 'Wed': '09:00 - 12:00  &  14:00 - 19:00', 'Thu': '09:00 - 12:00  &  14:00 - 19:00', 'Fri': '09:00 - 12:00  &  14:00 - 19:00', 'Sat': '09:00 - 12:00  &  14:00 - 19:00'}}",+33 3 83 48 23 20,54110,297,,https://magasin.mr-bricolage.fr/297-mr-bricolage-dombasle
Boulevard des prises,Mr Bricolage,MACHECOUL,FR,"{'brand': 'Mr Bricolage', 'fascia': 'Mr Bricolage', 'category': 'Retail', 'edit_date': '2025-03-14', 'lat_lon_source': 'website'}",46.9969677,-1.8152603,Mr.Bricolage Machecoul,"{'opening_hours': {'Mon': '09:00 - 12:15  &  14:15 - 19:00', 'Tue': '09:00 - 12:15  &  14:15 - 19:00', 'Wed': '09:00 - 12:15  &  14:15 - 19:00', 'Thu': '09:00 - 12:15  &  14:15 - 19:00', 'Fri': '09:00 - 12:15  &  14:15 - 19:00', 'Sat': '09:00 - 12:30  &  14:00 - 19:00'}}",+33 2 40 78 52 41,44270,285,,https://magasin.mr-bricolage.fr/285-mr-bricolage-machecoul
Vanga di L'Oru,Mr Bricolage,Cervione,FR,"{'brand': 'Mr Bricolage', 'fascia': 'Mr Bricolage', 'category': 'Retail', 'edit_date': '2025-03-14', 'lat_lon_source': 'website'}",42.352388,9.535097,Mr.Bricolage Santa Maria - Cervione,"{'opening_hours': {'Mon': '07:30 - 12:00  &  14:00 - 18:00', 'Tue': '07:30 - 12:00  &  14:00 - 18:00', 'Wed': '07:30 - 12:00  &  14:00 - 18:00', 'Thu': '07:30 - 12:00  &  14:00 - 18:00', 'Fri': '07:30 - 12:00  &  14:00 - 18:00', 'Sat': '09:00 - 12:00  &  14:00 - 18:00'}}",+33 4 95 58 60 20,20221,327,,https://magasin.mr-bricolage.fr/327-mr-bricolage-santa-maria-cervione
5 Rue D'Erquinghem,Mr Bricolage,ARMENTIERES,FR,"{'brand': 'Mr Bricolage', 'fascia': 'Mr Bricolage', 'category': 'Retail', 'edit_date': '2025-03-14', 'lat_lon_source': 'website'}",50.6819928,2.8703875,Mr.Bricolage Armentieres,"{'opening_hours': {'Mon': '08:30 - 12:30  &  13:30 - 19:00', 'Tue': '08:30 - 12:30  &  13:30 - 19:00', 'Wed': '08:30 - 12:30  &  13:30 - 19:00', 'Thu': '08:30 - 12:30  &  13:30 - 19:00', 'Fri': '08:30 - 12:30  &  13:30 - 19:00', 'Sat': '08:30 - 19:00'}}",+33 3 20 35 55 65,59280,20,,https://magasin.mr-bricolage.fr/20-mr-bricolage-armentieres
Centre Commercial Rond Point Des Alliés,Mr Bricolage,DOUVRES LA DELIVRANDE,FR,"{'brand': 'Mr Bricolage', 'fascia': 'Mr Bricolage', 'category': 'Retail', 'edit_date': '2025-03-14', 'lat_lon_source': 'website'}",49.3002,-0.381346,Mr.Bricolage Douvres La Delivrande,"{'opening_hours': {'Mon': '09:00 - 12:15  &  14:00 - 19:00', 'Tue': '09:00 - 12:15  &  14:00 - 19:00', 'Wed': '09:00 - 12:15  &  14:00 - 19:00', 'Thu': '09:00 - 12:15  &  14:00 - 19:00', 'Fri': '09:00 - 12:15  &  14:00 - 19:00', 'Sat': '09:00 - 12:30  &  14:00 - 19:00'}}",+33 2 31 37 25 20,14440,82,,https://magasin.mr-bricolage.fr/82-mr-bricolage-douvres-la-delivrande
"3 Rue des Marais, ZC de la Raque",Mr Bricolage,L'Aiguillon-sur-Mer,FR,"{'brand': 'Mr Bricolage', 'fascia': 'Mr Bricolage', 'category': 'Retail', 'edit_date': '2025-03-14', 'lat_lon_source': 'website'}",46.330917246155,-1.2905111127586,Mr.Bricolage L'Aiguillon-sur-Mer,"{'opening_hours': {'Mon': '09:00 - 12:00  &  14:00 - 18:00', 'Tue': '09:00 - 12:00  &  14:00 - 18:00', 'Wed': '09:00 - 12:00  &  14:00 - 18:00', 'Thu': '09:00 - 12:00  &  14:00 - 18:00', 'Fri': '09:00 - 12:00  &  14:00 - 18:00', 'Sat': '09:00 - 12:00  &  14:00 - 18:00'}}",+33 2 51 97 00 83,85460,387,,https://magasin.mr-bricolage.fr/387-mr-bricolage-l-aiguillon-sur-mer
49-51 Avenue De Villiers,Mr Bricolage,CRECY LA CHAPELLE,FR,"{'brand': 'Mr Bricolage', 'fascia': 'Mr Bricolage', 'category': 'Retail', 'edit_date': '2025-03-14', 'lat_lon_source': 'website'}",48.8588985,2.9021134,Mr.Bricolage Crecy La Chapelle,"{'opening_hours': {'Mon': '09:00 - 12:30  &  14:00 - 19:00', 'Tue': '09:00 - 12:30  &  14:00 - 19:00', 'Wed': '09:00 - 12:30  &  14:00 - 19:00', 'Thu': '09:00 - 12:30  &  14:00 - 19:00', 'Fri': '09:00 - 12:30  &  14:00 - 19:00', 'Sat': '09:00 - 12:30  &  14:00 - 19:00', 'Sun': '09:00 - 12:30'}}",+33 1 64 63 80 26,77580,75,,https://magasin.mr-bricolage.fr/75-mr-bricolage-crecy-la-chapelle
1 Place de la Victoire,Mr Bricolage,Perpignan,FR,"{'brand': 'Mr Bricolage', 'fascia': 'Mr Bricolage', 'category': 'Retail', 'edit_date': '2025-03-14', 'lat_lon_source': 'website'}",42.7012067,2.8942773,Mr.Bricolage Perpignan Castillet,"{'opening_hours': {'Mon': '09:00 - 12:30  &  13:30 - 19:00', 'Tue': '09:00 - 12:30  &  13:30 - 19:00', 'Wed': '09:00 - 12:30  &  13:30 - 19:00', 'Thu': '09:00 - 12:30  &  13:30 - 19:00', 'Fri': '09:00 - 12:30  &  13:30 - 19:00', 'Sat': '09:00 - 12:30  &  13:30 - 19:00'}}",+33 4 68 22 13 33,66000,364,,https://magasin.mr-bricolage.fr/364-mr-bricolage-perpignan-castillet
Rue Marengo/Madame Mere,Mr Bricolage,AJACCIO FORCONE,FR,"{'brand': 'Mr Bricolage', 'fascia': 'Mr Bricolage', 'category': 'Retail', 'edit_date': '2025-03-14', 'lat_lon_source': 'website'}",41.913548,8.7253028,Mr.Bricolage Ajaccio Forcone,"{'opening_hours': {'Mon': '09:00 - 12:00  &  14:00 - 19:00', 'Tue': '09:00 - 12:00  &  14:00 - 19:00', 'Wed': '09:00 - 12:00  &  14:00 - 19:00', 'Thu': '09:00 - 12:00  &  14:00 - 19:00', 'Fri': '09:00 - 12:00  &  14:00 - 19:00', 'Sat': '09:00 - 12:00  &  14:00 - 19:00'}}",+33 4 95 11 09 09,20000,4,,https://magasin.mr-bricolage.fr/4-mr-bricolage-ajaccio-forcone
570 route de la roquette,Mr Bricolage,MOUANS SARTOUX,FR,"{'brand': 'Mr Bricolage', 'fascia': 'Mr Bricolage', 'category': 'Retail', 'edit_date': '2025-03-14', 'lat_lon_source': 'website'}",43.6132007,6.9686036,Mr.Bricolage Mouans Sartoux,"{'opening_hours': {'Mon': '08:30 - 19:00', 'Tue': '08:30 - 19:00', 'Wed': '08:30 - 19:00', 'Thu': '08:30 - 19:00', 'Fri': '08:30 - 19:00', 'Sat': '08:30 - 19:00', 'Sun': '09:00 - 12:30'}}",+33 4 92 28 56 72,06370,347,,https://magasin.mr-bricolage.fr/347-mr-bricolage-mouans-sartoux
Parc d'activité le Bois du Maupas,Mr Bricolage,SAINT MEEN LE GRAND,FR,"{'brand': 'Mr Bricolage', 'fascia': 'Mr Bricolage', 'category': 'Retail', 'edit_date': '2025-03-14', 'lat_lon_source': 'website'}",48.1869867,-2.1781178,Mr.Bricolage Saint Meen Le Grand,"{'opening_hours': {'Mon': '09:00 - 12:00  &  14:00 - 19:00', 'Tue': '09:00 - 12:00  &  14:00 - 19:00', 'Wed': '09:00 - 12:00  &  14:00 - 19:00', 'Thu': '09:00 - 12:00  &  14:00 - 19:00', 'Fri': '09:00 - 12:00  &  14:00 - 19:00', 'Sat': '09:00 - 12:30  &  14:00 - 19:00'}}",+33 2 99 09 57 48,35290,212,,https://magasin.mr-bricolage.fr/212-mr-bricolage-saint-meen-le-grand
1 avenue Maison Blanche,Mr Bricolage,VILLEBOIS LAVALETTE,FR,"{'brand': 'Mr Bricolage', 'fascia': 'Mr Bricolage', 'category': 'Retail', 'edit_date': '2025-03-14', 'lat_lon_source': 'website'}",45.4861939,0.2776102,Mr.Bricolage Villebois Lavalette,"{'opening_hours': {'Mon': '08:50 - 12:00  &  14:00 - 18:30', 'Tue': '08:50 - 12:00  &  14:00 - 18:30', 'Wed': '08:50 - 12:00  &  14:00 - 18:30', 'Thu': '08:50 - 12:00  &  14:00 - 18:30', 'Fri': '08:50 - 12:00  &  14:00 - 18:30', 'Sat': '09:00 - 12:30  &  14:00 - 18:15'}}",+33 5 45 25 38 10,16320,365,,https://magasin.mr-bricolage.fr/365-mr-bricolage-villebois-lavalette
ZA de Corbara,Mr Bricolage,Algajola,FR,"{'brand': 'Mr Bricolage', 'fascia': 'Mr Bricolage', 'category': 'Retail', 'edit_date': '2025-03-14', 'lat_lon_source': 'website'}",42.6230649,8.887336,Mr.Bricolage Algajola,"{'opening_hours': {'Mon': '08:30 - 12:00  &  14:00 - 18:30', 'Tue': '08:30 - 12:00  &  14:00 - 18:30', 'Wed': '08:30 - 12:00  &  14:00 - 18:30', 'Thu': '08:30 - 12:00  &  14:00 - 18:30', 'Fri': '08:30 - 12:00  &  14:00 - 18:30', 'Sat': '08:30 - 12:00  &  14:00 - 18:30'}}",+33 4 95 60 20 37,20220,308,,https://magasin.mr-bricolage.fr/308-mr-bricolage-algajola
95 avenue Cyrille Besset,Mr Bricolage,CROS DE CAGNES,FR,"{'brand': 'Mr Bricolage', 'fascia': 'Mr Bricolage', 'category': 'Retail', 'edit_date': '2025-03-14', 'lat_lon_source': 'website'}",43.6594122,7.1617745,Mr.Bricolage Cros de cagnes,"{'opening_hours': {'Mon': '08:30 - 12:30  &  14:00 - 19:00', 'Tue': '08:30 - 12:30  &  14:00 - 19:00', 'Wed': '08:30 - 12:30  &  14:00 - 19:00', 'Thu': '08:30 - 12:30  &  14:00 - 19:00', 'Fri': '08:30 - 12:30  &  14:00 - 19:00', 'Sat': '08:30 - 12:30  &  14:00 - 19:00', 'Sun': '09:00 - 12:30'}}",+33 4 92 04 03 95,06800,345,,https://magasin.mr-bricolage.fr/345-mr-bricolage-cros-de-cagnes
670 Rue De L'Arétier,Mr Bricolage,CHAMPNIERS,FR,"{'brand': 'Mr Bricolage', 'fascia': 'Mr Bricolage', 'category': 'Retail', 'edit_date': '2025-03-14', 'lat_lon_source': 'website'}",45.6887748,0.1775692,Mr.Bricolage Champniers - Angouleme,"{'opening_hours': {'Mon': '09:00 - 12:30  &  14:00 - 19:00', 'Tue': '09:00 - 12:30  &  14:00 - 19:00', 'Wed': '09:00 - 12:30  &  14:00 - 19:00', 'Thu': '09:00 - 12:30  &  14:00 - 19:00', 'Fri': '09:00 - 12:30  &  14:00 - 19:00', 'Sat': '09:00 - 19:00'}}",+33 5 45 97 86 86,16430,57,,https://magasin.mr-bricolage.fr/57-mr-bricolage-champniers-angouleme
15 Rue De St Alban,Mr Bricolage,Pleneuf Val André,FR,"{'brand': 'Mr Bricolage', 'fascia': 'Mr Bricolage', 'category': 'Retail', 'edit_date': '2025-03-14', 'lat_lon_source': 'website'}",48.5824297,-2.5337849,Mr.Bricolage Pleneuf Val Andre,"{'opening_hours': {'Mon': '09:00 - 12:00  &  14:00 - 19:00', 'Tue': '09:00 - 12:00  &  14:00 - 19:00', 'Wed': '09:00 - 12:00  &  14:00 - 19:00', 'Thu': '09:00 - 12:00  &  14:00 - 19:00', 'Fri': '09:00 - 12:00  &  14:00 - 19:00', 'Sat': '09:00 - 12:00  &  14:00 - 19:00'}}",+33 2 96 63 17 63,22370,177,,https://magasin.mr-bricolage.fr/177-mr-bricolage-pleneuf-val-andre
10 Rond Point De La Corbinerie,Mr Bricolage,REZE,FR,"{'brand': 'Mr Bricolage', 'fascia': 'Mr Bricolage', 'category': 'Retail', 'edit_date': '2025-03-14', 'lat_lon_source': 'website'}",47.1608351,-1.5470835,Mr.Bricolage Reze Oceane - Nantes,"{'opening_hours': {'Mon': '08:30 - 20:00', 'Tue': '08:30 - 20:00', 'Wed': '08:30 - 20:00', 'Thu': '08:30 - 20:00', 'Fri': '08:30 - 20:00', 'Sat': '08:30 - 20:00'}}",+33 2 40 40 17 40,44400,193,,https://magasin.mr-bricolage.fr/193-mr-bricolage-reze-oceane-nantes
24/26 rue Paul Vaillant Couturier,Mr Bricolage,Clamart,FR,"{'brand': 'Mr Bricolage', 'fascia': 'Mr Bricolage', 'category': 'Retail', 'edit_date': '2025-03-14', 'lat_lon_source': 'website'}",48.802715,2.2632562,Mr.Bricolage Clamart,"{'opening_hours': {'Mon': '09:30 - 13:00  &  14:00 - 19:00', 'Tue': '09:30 - 13:00  &  14:00 - 19:00', 'Wed': '09:30 - 13:00  &  14:00 - 19:00', 'Thu': '09:30 - 13:00  &  14:00 - 19:00', 'Fri': '09:30 - 13:00  &  14:00 - 19:00', 'Sat': '09:00 - 19:00'}}",+33 1 46 45 34 85,92140,359,,https://magasin.mr-bricolage.fr/359-mr-bricolage-clamart
Chemin d'En Palanque,Mr Bricolage,CADOURS,FR,"{'brand': 'Mr Bricolage', 'fascia': 'Mr Bricolage', 'category': 'Retail', 'edit_date': '2025-03-14', 'lat_lon_source': 'website'}",43.7301289,1.0554239,Mr.Bricolage Cadours,"{'opening_hours': {'Mon': '08:00 - 12:00  &  14:00 - 18:30', 'Tue': '08:00 - 12:00  &  14:00 - 18:30', 'Wed': '08:00 - 12:00  &  14:00 - 18:30', 'Thu': '08:00 - 12:00  &  14:00 - 18:30', 'Fri': '08:00 - 12:00  &  14:00 - 18:30', 'Sat': '09:00 - 12:00  &  14:00 - 18:30'}}",+33 5 61 85 62 26,31480,306,,https://magasin.mr-bricolage.fr/306-mr-bricolage-cadours
Rue Auguste Desgenetais,Mr Bricolage,LILLEBONNE,FR,"{'brand': 'Mr Bricolage', 'fascia': 'Mr Bricolage', 'category': 'Retail', 'edit_date': '2025-03-14', 'lat_lon_source': 'website'}",49.522,0.530902,Mr.Bricolage Lillebonne,"{'opening_hours': {'Mon': '09:00 - 12:00  &  14:00 - 19:00', 'Tue': '09:00 - 12:00  &  14:00 - 19:00', 'Wed': '09:00 - 12:00  &  14:00 - 19:00', 'Thu': '09:00 - 12:00  &  14:00 - 19:00', 'Fri': '09:00 - 12:00  &  14:00 - 19:00', 'Sat': '09:00 - 12:30  &  14:00 - 19:00'}}",+33 2 35 39 66 88,76170,120,,https://magasin.mr-bricolage.fr/120-mr-bricolage-lillebonne
