addr_full,brand,city,country,extras,lat,lon,name,opening_hours,phone,postcode,ref,state,website
"Ave. Roberto Clemente, Esq. SÃ¡nchez CastaÃ±o, Villa Carolina, Carolina, P.R. 00985",Wendy's,"Carolina,",Puerto Rico,"{'brand': ""Wendy's"", 'fascia': ""Wendy's"", 'category': 'Retail', 'edit_date': '20250606', 'lat_lon_source': 'Google'}",18.392724,-65.965245,Wendy's Carolina,"{'opening_hours': {'Sun': '06:00-23:00', 'Mon': '06:00-23:00', 'Tue': '06:00-23:00', 'Wed': '06:00-23:00', 'Thu': '06:00-23:00', 'Fri': '06:00-12:00', 'Sat': '06:00-12:00'}}",787-792-2001 ext. 7001,00985,z,,https://www.grupocolongerena.com/wendys
"Calle Federico Degetau, Esq. Calle 52 Urb. San Alfonso, Caguas, P.R. 00725",Wendy's,"Caguas,",Puerto Rico,"{'brand': ""Wendy's"", 'fascia': ""Wendy's"", 'category': 'Retail', 'edit_date': '20250606', 'lat_lon_source': 'Google'}",18.224314,-66.045087,Wendy's Caguas,"{'opening_hours': {'Sun': '06:00-23:00', 'Mon': '06:00-23:00', 'Tue': '06:00-23:00', 'Wed': '06:00-23:00', 'Thu': '06:00-23:00', 'Fri': '06:00-00:00', 'Sat': '06:00-00:00'}}",787-792-2001 ext. 7019,00725,aN,,https://www.grupocolongerena.com/wendys
"Ave. San Alfonso #1321, San Juan, P.R. 00920",Wendy's,"Juan,",Puerto Rico,"{'brand': ""Wendy's"", 'fascia': ""Wendy's"", 'category': 'Retail', 'edit_date': '20250606', 'lat_lon_source': 'Google'}",18.393066,-66.087741,Wendy's Altamesa,"{'opening_hours': {'Sun': '06:00-23:00', 'Mon': '06:00-23:00', 'Tue': '06:00-23:00', 'Wed': '06:00-23:00', 'Thu': '06:00-23:00', 'Fri': '06:00-00:00', 'Sat': '06:00-00:00'}}",787-792-2001 ext. 7003,00920,bO,,https://www.grupocolongerena.com/wendys
"Carr. Estatal 174, Ave. Lomas Verdes, BayamÃ³n, P.R. 00956",Wendy's,"BayamÃ³n,",Puerto Rico,"{'brand': ""Wendy's"", 'fascia': ""Wendy's"", 'category': 'Retail', 'edit_date': '20250606', 'lat_lon_source': 'Google'}",18.383004,-66.143474,Wendy's Lomas Verdes,"{'opening_hours': {'Sun': '06:00-23:00', 'Mon': '06:00-23:00', 'Tue': '06:00-23:00', 'Wed': '06:00-23:00', 'Thu': '06:00-23:00', 'Fri': '06:00-00:00', 'Sat': '06:00-00:00'}}",787-792-2001 ext. 7016,00956,gh,,https://www.grupocolongerena.com/wendys
"Villa MarÃ­a Shopping Center, Carr. Estatal #2 KM. 49.4, ManatÃ­, P.R. 00674",Wendy's,"ManatÃ­,",Puerto Rico,"{'brand': ""Wendy's"", 'fascia': ""Wendy's"", 'category': 'Retail', 'edit_date': '20250606', 'lat_lon_source': 'Google'}",18.431207,-66.489448,Wendy's ManatÃ­,"{'opening_hours': {'Mon': None, 'Tue': None, 'Wed': None, 'Thu': None, 'Fri': None, 'Sat': None, 'Sun': None}}",787-792-2001 ext. 7011,00674,43,,https://www.grupocolongerena.com/wendys
"Carr. #2 KM. 158.6 Bo. Guanajibo, MayagÃ¼ez, P.R. 00680",Wendy's,"MayagÃ¼ez,",Puerto Rico,"{'brand': ""Wendy's"", 'fascia': ""Wendy's"", 'category': 'Retail', 'edit_date': '20250606', 'lat_lon_source': 'Google'}",18.168288,-67.149978,Wendy's MayagÃ¼ez,"{'opening_hours': {'Sun': '06:00-23:00', 'Mon': '06:00-23:00', 'Tue': '06:00-23:00', 'Wed': '06:00-23:00', 'Thu': '06:00-23:00', 'Fri': '06:00-00:00', 'Sat': '06:00-00:00'}}",787-792-2001 ext. 7022,00680,52,,https://www.grupocolongerena.com/wendys
"Ave. Luis Llorens Torres, Urb. Olmos, Arecibo, P.R. 00612",Wendy's,"Arecibo,",Puerto Rico,"{'brand': ""Wendy's"", 'fascia': ""Wendy's"", 'category': 'Retail', 'edit_date': '20250606', 'lat_lon_source': 'Google'}",18.470193,-66.723201,Wendy's Arecibo,"{'opening_hours': {'Sun': '06:00-23:00', 'Mon': '06:00-23:00', 'Tue': '06:00-23:00', 'Wed': '06:00-23:00', 'Thu': '06:00-23:00', 'Fri': '06:00-00:00', 'Sat': '06:00-00:00'}}",787-792-2001 ext. 7017,00612,49,,https://www.grupocolongerena.com/wendys
"Ave. Campo Rico Esq. Calle 246, Country Club Shopping Center, Carolina, P.R. 00979",Wendy's,"Carolina,",Puerto Rico,"{'brand': ""Wendy's"", 'fascia': ""Wendy's"", 'category': 'Retail', 'edit_date': '20250606', 'lat_lon_source': 'Google'}",18.415322,-65.990475,Wendy's Campo Rico,"{'opening_hours': {'Sun': '06:00-23:00', 'Mon': '06:00-23:00', 'Tue': '06:00-23:00', 'Wed': '06:00-23:00', 'Thu': '06:00-23:00', 'Fri': '06:00-00:00', 'Sat': '06:00-00:00'}}",787-792-2001 ext. 7013,00979,gk,,https://www.grupocolongerena.com/wendys
"Carr. 189 KM. 3.20 Bo. Rincon, Gurabo P.R. 00778",Wendy's,Gurabo,Puerto Rico,"{'brand': ""Wendy's"", 'fascia': ""Wendy's"", 'category': 'Retail', 'edit_date': '20250606', 'lat_lon_source': 'Google'}",18.242778,-66.008767,Wendy's Turabo,"{'opening_hours': {'Sun': '06:00-23:00', 'Mon': '06:00-23:00', 'Tue': '06:00-23:00', 'Wed': '06:00-23:00', 'Thu': '06:00-23:00', 'Fri': '06:00-00:00', 'Sat': '06:00-00:00'}}",787-792-2001 ext. 7030,00778,59,,https://www.grupocolongerena.com/wendys
"Ave. Comerio, Rio Hondo, BayamÃ³n, P.R. 00961",Wendy's,"BayamÃ³n,",Puerto Rico,"{'brand': ""Wendy's"", 'fascia': ""Wendy's"", 'category': 'Retail', 'edit_date': '20250606', 'lat_lon_source': 'Google'}",18.411949,-66.160575,Wendy's Plaza del Parque,"{'opening_hours': {'Sun': '06:00-23:00', 'Mon': '06:00-23:00', 'Tue': '06:00-23:00', 'Wed': '06:00-23:00', 'Thu': '06:00-23:00', 'Fri': '06:00-00:00', 'Sat': '06:00-00:00'}}",787-792-2001 ext. 7029,00961,58,,https://www.grupocolongerena.com/wendys
"Carr. PR-3 KM 78.1 Urb. Villa Humacao, Humacao P.R. 00791",Wendy's,Humacao,Puerto Rico,"{'brand': ""Wendy's"", 'fascia': ""Wendy's"", 'category': 'Retail', 'edit_date': '20250606', 'lat_lon_source': 'Google'}",18.144539,-65.801099,Wendy's Humacao,"{'opening_hours': {'Sun': '06:00-23:00', 'Mon': '06:00-23:00', 'Tue': '06:00-23:00', 'Wed': '06:00-23:00', 'Thu': '06:00-23:00', 'Fri': '06:00-00:00', 'Sat': '06:00-00:00'}}",787-792-2001 ext. 7033,00791,62,,https://www.grupocolongerena.com/wendys
"Carretera Estatal #3 Km 14.8, Bo. Canovanillas, Carolina P.R. 00985",Wendy's,Carolina,Puerto Rico,"{'brand': ""Wendy's"", 'fascia': ""Wendy's"", 'category': 'Retail', 'edit_date': '20250606', 'lat_lon_source': 'Google'}",18.376711,-65.918676,Wendy's Los Colobos II,"{'opening_hours': {'Sun': '06:00-23:00', 'Mon': '06:00-23:00', 'Tue': '06:00-23:00', 'Wed': '06:00-23:00', 'Thu': '06:00-23:00', 'Fri': '06:00-00:00', 'Sat': '06:00-00:00'}}",787-792-2001 ext. 7050,00985,75,,https://www.grupocolongerena.com/wendys
"Carr PR 149 KM 47.3, ManatÃ­, P.R. 00674",Wendy's,"ManatÃ­,",Puerto Rico,"{'brand': ""Wendy's"", 'fascia': ""Wendy's"", 'category': 'Retail', 'edit_date': '20250606', 'lat_lon_source': 'Google'}",18.431459,-66.474449,Wendy's ManatÃ­ Plaza,"{'opening_hours': {'Sun': '06:00-23:00', 'Mon': '06:00-23:00', 'Tue': '06:00-23:00', 'Wed': '06:00-23:00', 'Thu': '06:00-23:00', 'Fri': '06:00-00:00', 'Sat': '06:00-00:00'}}",787-792-2001 ext. 7044,00674,cj,,https://www.grupocolongerena.com/wendys
"Carretera 128 Km .06, Bo. Susua Baja, Yauco, P.R. 00698",Wendy's,"Yauco,",Puerto Rico,"{'brand': ""Wendy's"", 'fascia': ""Wendy's"", 'category': 'Retail', 'edit_date': '20250606', 'lat_lon_source': 'Google'}",18.029688,-66.857952,Wendy's Yauco,"{'opening_hours': {'Sun': '06:00-23:00', 'Mon': '06:00-23:00', 'Tue': '06:00-23:00', 'Wed': '06:00-23:00', 'Thu': '06:00-23:00', 'Fri': '06:00-00:00', 'Sat': '06:00-00:00'}}",787-792-2001 ext. 7053,00698,ga,,https://www.grupocolongerena.com/wendys
"Carretera #111 KM 17.6, Barrio Guatemala, San Sebastian, P.R. 00685",Wendy's,"Sebastian,",Puerto Rico,"{'brand': ""Wendy's"", 'fascia': ""Wendy's"", 'category': 'Retail', 'edit_date': '20250606', 'lat_lon_source': 'Google'}",18.348152,-67.002895,Wendy's San SebastiÃ¡n,"{'opening_hours': {'Sun': '06:00-23:00', 'Mon': '06:00-23:00', 'Tue': '06:00-23:00', 'Wed': '06:00-23:00', 'Thu': '06:00-23:00', 'Fri': '06:00-00:00', 'Sat': '06:00-00:00'}}",787-792-2001 ext. 7063,00685,go,,https://www.grupocolongerena.com/wendys
"Plaza Dorada Shopping Center, Carretera 693 Km 8.3, Dorado, P.R. 00646",Wendy's,"Dorado,",Puerto Rico,"{'brand': ""Wendy's"", 'fascia': ""Wendy's"", 'category': 'Retail', 'edit_date': '20250606', 'lat_lon_source': 'Google'}",18.465256,-66.281285,Wendy's Dorado,"{'opening_hours': {'Sun': '06:00-23:00', 'Mon': '06:00-23:00', 'Tue': '06:00-23:00', 'Wed': '06:00-23:00', 'Thu': '06:00-23:00', 'Fri': '06:00-00:00', 'Sat': '06:00-00:00'}}",787-792-2001 ext. 7059,00646,gq,,https://www.grupocolongerena.com/wendys
"Carr #1 esq. Ave Luis MuÃ±oz MarÃ­n, Caguas, P.R. 00725",Wendy's,"Caguas,",Puerto Rico,"{'brand': ""Wendy's"", 'fascia': ""Wendy's"", 'category': 'Retail', 'edit_date': '20250606', 'lat_lon_source': 'Google'}",18.250798,-66.036505,Wendy's Caguas Bairoa,"{'opening_hours': {'Sun': '06:00-23:00', 'Mon': '06:00-23:00', 'Tue': '06:00-23:00', 'Wed': '06:00-23:00', 'Thu': '06:00-23:00', 'Fri': '06:00-00:00', 'Sat': '06:00-00:00'}}",787-792-2001 ext. 7055,00725,bI,,https://www.grupocolongerena.com/wendys
"Carretera #2 KM 92.9, Barrio Meambrillo, Camuy, P.R. 00627",Wendy's,"Camuy,",Puerto Rico,"{'brand': ""Wendy's"", 'fascia': ""Wendy's"", 'category': 'Retail', 'edit_date': '20250606', 'lat_lon_source': 'Google'}",18.472822,-66.870582,Wendy's Camuy,"{'opening_hours': {'Sun': '06:00-23:00', 'Mon': '06:00-23:00', 'Tue': '06:00-23:00', 'Wed': '06:00-23:00', 'Thu': '06:00-23:00', 'Fri': '06:00-00:00', 'Sat': '06:00-00:00'}}",787-792-2001 ext. 7062,00627,aS,,https://www.grupocolongerena.com/wendys
"Carretera PR 167 y PR 861, Barrio Cerro Gordo, BayamÃ³n, P.R. 00956",Wendy's,"BayamÃ³n,",Puerto Rico,"{'brand': ""Wendy's"", 'fascia': ""Wendy's"", 'category': 'Retail', 'edit_date': '20250606', 'lat_lon_source': 'Google'}",18.382919,-66.170153,Wendy's Los Millones,"{'opening_hours': {'Sun': '06:00-23:00', 'Mon': '06:00-23:00', 'Tue': '06:00-23:00', 'Wed': '06:00-23:00', 'Thu': '06:00-23:00', 'Fri': '06:00-00:00', 'Sat': '06:00-00:00'}}",787-792-2001 ext. 7067,00956,ca,,https://www.grupocolongerena.com/wendys
"Carretera #2 KM 148, Barrio Algarrobo, MayagÃ¼ez, P.R. 00680",Wendy's,"MayagÃ¼ez,",Puerto Rico,"{'brand': ""Wendy's"", 'fascia': ""Wendy's"", 'category': 'Retail', 'edit_date': '20250606', 'lat_lon_source': 'Google'}",18.168324,-67.15,Wendy's MayagÃ¼ez III,"{'opening_hours': {'Sun': '06:00-23:00', 'Mon': '06:00-23:00', 'Tue': '06:00-23:00', 'Wed': '06:00-23:00', 'Thu': '06:00-23:00', 'Fri': '06:00-00:00', 'Sat': '06:00-00:00'}}",787-792-2001 ext. 7074,00680,99,,https://www.grupocolongerena.com/wendys
"1151 Ponce de Leon Ave., Santurce P.R. 00908",Wendy's,Santurce,Puerto Rico,"{'brand': ""Wendy's"", 'fascia': ""Wendy's"", 'category': 'Retail', 'edit_date': '20250606', 'lat_lon_source': 'Google'}",18.451467,-66.075252,Wendy's Santurce,"{'opening_hours': {'Sun': '06:00-19:00', 'Mon': '06:00-19:00', 'Tue': '06:00-19:00', 'Wed': '06:00-19:00', 'Thu': '06:00-19:00', 'Fri': '06:00-19:00', 'Sat': '06:00-19:00'}}",787 792-2001 ext. 7068,00908,gs,,https://www.grupocolongerena.com/wendys
"Carretera #2 KM 141.50, Bo Quebrada, AÃ±asco P.R. 00610",Wendy's,AÃ±asco,Puerto Rico,"{'brand': ""Wendy's"", 'fascia': ""Wendy's"", 'category': 'Retail', 'edit_date': '20250606', 'lat_lon_source': 'Google'}",18.313186,-67.149492,Wendy's AÃ±asco,"{'opening_hours': {'Sun': '06:00-23:00', 'Mon': '06:00-23:00', 'Tue': '06:00-23:00', 'Wed': '06:00-23:00', 'Thu': '06:00-23:00', 'Fri': '06:00-00:00', 'Sat': '06:00-00:00'}}",787-792-2001 ext. 7076,00610,gu,,https://www.grupocolongerena.com/wendys
"Bells Outlet Mall, Carretera #3 KM 18.4, Bo. Pueblo, CanÃ³vanas, P.R. 00729",Wendy's,"CanÃ³vanas,",Puerto Rico,"{'brand': ""Wendy's"", 'fascia': ""Wendy's"", 'category': 'Retail', 'edit_date': '20250606', 'lat_lon_source': 'Google'}",18.374249,-65.884588,Wendy's CanÃ³vanas,"{'opening_hours': {'Sun': '06:00-23:00', 'Mon': '06:00-23:00', 'Tue': '06:00-23:00', 'Wed': '06:00-23:00', 'Thu': '06:00-23:00', 'Fri': '06:00-00:00', 'Sat': '06:00-00:00'}}",787-792-2001 ext. 7070,00729,95,,https://www.grupocolongerena.com/wendys
"Carr #2, KM 29.2, Bo. Espinosa, Vega Alta, P.R. 00692",Wendy's,"Alta,",Puerto Rico,"{'brand': ""Wendy's"", 'fascia': ""Wendy's"", 'category': 'Retail', 'edit_date': '20250606', 'lat_lon_source': 'Google'}",18.446288,-66.396584,Wendyâs Vega Alta,"{'opening_hours': {'Sun': '06:00-23:00', 'Mon': '06:00-23:00', 'Tue': '06:00-23:00', 'Wed': '06:00-23:00', 'Thu': '06:00-23:00', 'Fri': '06:00-00:00', 'Sat': '06:00-00:00'}}",787-792-2001 ext. 7083,00692,gx,,https://www.grupocolongerena.com/wendys
"Carretera #177 KM 4.5, Bo. Juan Sanchez, BayamÃ³n, P.R. 00959",Wendy's,"BayamÃ³n,",Puerto Rico,"{'brand': ""Wendy's"", 'fascia': ""Wendy's"", 'category': 'Retail', 'edit_date': '20250606', 'lat_lon_source': 'Google'}",18.385199,-66.133573,Wendy's RÃ­o BayamÃ³n,"{'opening_hours': {'Sun': '06:00-23:00', 'Mon': '06:00-23:00', 'Tue': '06:00-23:00', 'Wed': '06:00-23:00', 'Thu': '06:00-23:00', 'Fri': '06:00-00:00', 'Sat': '06:00-00:00'}}",787 792-2001 ext. 7091,00959,C,,https://www.grupocolongerena.com/wendys
"UrbanizaciÃ³n Industrial San Rafael 1708, Esquina Avenida De Hostos, Barrio Playa, Ponce P.R. 00732",Wendy's,Ponce,Puerto Rico,"{'brand': ""Wendy's"", 'fascia': ""Wendy's"", 'category': 'Retail', 'edit_date': '20250606', 'lat_lon_source': 'Google'}",17.999945,-66.598224,Wendyâs Ponce II,"{'opening_hours': {'Sun': '06:00-23:00', 'Mon': '06:00-23:00', 'Tue': '06:00-23:00', 'Wed': '06:00-23:00', 'Thu': '06:00-23:00', 'Fri': '06:00-00:00', 'Sat': '06:00-00:00'}}",787-792-2001 ext. 7080,00732,105,,https://www.grupocolongerena.com/wendys
"Urb. Los Palacios, Car # 167, KM 14.6 Bo. OrtÃ­z, Toa Alta, P.R. 00953",Wendy's,"Alta,",Puerto Rico,"{'brand': ""Wendy's"", 'fascia': ""Wendy's"", 'category': 'Retail', 'edit_date': '20250606', 'lat_lon_source': 'Google'}",18.340357,-66.202797,Wendyâs Los Palacios,"{'opening_hours': {'Sun': '06:00-23:00', 'Mon': '06:00-23:00', 'Tue': '06:00-23:00', 'Wed': '06:00-23:00', 'Thu': '06:00-23:00', 'Fri': '06:00-00:00', 'Sat': '06:00-00:00'}}",787-792-2001 ext. 7081,00953,106,,https://www.grupocolongerena.com/wendys
"Ave. Montehiedra, San Juan P.R. 00926",Wendy's,Juan,Puerto Rico,"{'brand': ""Wendy's"", 'fascia': ""Wendy's"", 'category': 'Retail', 'edit_date': '20250606', 'lat_lon_source': 'Google'}",18.336647,-66.068556,Wendy's Montehiedra,"{'opening_hours': {'Sun': '06:00-23:00', 'Mon': '06:00-23:00', 'Tue': '06:00-23:00', 'Wed': '06:00-23:00', 'Thu': '06:00-23:00', 'Fri': '06:00-00:00', 'Sat': '06:00-00:00'}}",787 792-2001 ext. 7092,00926,gA,,https://www.grupocolongerena.com/wendys
"Carretara #2 Km 80.8, Bo. Hato Abajo, Arecibo, P.R. 00612.",Wendy's,"Arecibo,",Puerto Rico,"{'brand': ""Wendy's"", 'fascia': ""Wendy's"", 'category': 'Retail', 'edit_date': '20250606', 'lat_lon_source': 'Google'}",18.476911,-66.754081,Wendy's Arecibo II,"{'opening_hours': {'Sun': '06:00-23:00', 'Mon': '06:00-23:00', 'Tue': '06:00-23:00', 'Wed': '06:00-23:00', 'Thu': '06:00-23:00', 'Fri': '06:00-00:00', 'Sat': '06:00-00:00'}}",787-792-2001 ext. 7054,00612.,fm,,https://www.grupocolongerena.com/wendys
"Carreterra PR #1 KM 57.4, Barrio Montellano, Cayey, P.R. 00738.",Wendy's,"Cayey,",Puerto Rico,"{'brand': ""Wendy's"", 'fascia': ""Wendy's"", 'category': 'Retail', 'edit_date': '20250606', 'lat_lon_source': 'Google'}",18.117835,-66.144863,Wendy's Cayey,"{'opening_hours': {'Sun': '06:00-23:00', 'Mon': '06:00-23:00', 'Tue': '06:00-23:00', 'Wed': '06:00-23:00', 'Thu': '06:00-23:00', 'Fri': '06:00-00:00', 'Sat': '06:00-00:00'}}",787-792-2001 ext. 7048,00738.,gB,,https://www.grupocolongerena.com/wendys
"Carretera #2 KM 129.50, Aguadilla, P.R. 00603 ",Wendy's,"Aguadilla,",Puerto Rico,"{'brand': ""Wendy's"", 'fascia': ""Wendy's"", 'category': 'Retail', 'edit_date': '20250606', 'lat_lon_source': 'Google'}",18.407955,-67.152361,Wendy's Aguadilla II,"{'opening_hours': {'Sun': '06:00-23:00', 'Mon': '06:00-23:00', 'Tue': '06:00-23:00', 'Wed': '06:00-23:00', 'Thu': '06:00-23:00', 'Fri': '06:00-00:00', 'Sat': '06:00-00:00'}}",787-792-2001 ext. 7042,00603,gd,,https://www.grupocolongerena.com/wendys
"Carr. #14 KM 52.3, 259 Calle San JosÃ©, Sector Los Robles, Aibonito, P.R. 00705 ",Wendy's,"Aibonito,",Puerto Rico,"{'brand': ""Wendy's"", 'fascia': ""Wendy's"", 'category': 'Retail', 'edit_date': '20250606', 'lat_lon_source': 'Google'}",18.14067,-66.261286,Wendy's Aibonito,"{'opening_hours': {'Sun': '06:00-23:00', 'Mon': '06:00-23:00', 'Tue': '06:00-23:00', 'Wed': '06:00-23:00', 'Thu': '06:00-23:00', 'Fri': '06:00-00:00', 'Sat': '06:00-00:00'}}",787-792-2001 ext. 7058,00705,cq,,https://www.grupocolongerena.com/wendys
"Galeria Pacifico, Ave. Las Cumbres, Esquina 844, Bo. Cupey, San Juan 00926.",Wendy's,,Puerto Rico,"{'brand': ""Wendy's"", 'fascia': ""Wendy's"", 'category': 'Retail', 'edit_date': '20250606', 'lat_lon_source': 'Google'}",18.355852,-66.042474,Wendy's Cupey II,"{'opening_hours': {'Sun': '06:00-23:00', 'Mon': '06:00-23:00', 'Tue': '06:00-23:00', 'Wed': '06:00-23:00', 'Thu': '06:00-23:00', 'Fri': '06:00-00:00', 'Sat': '06:00-00:00'}}",787-792-2001 ext. 7082,,107,,https://www.grupocolongerena.com/wendys
"Carr. #2 KM 111.3, 3680 Ave. Militar, Isabela, P.R. 00662",Wendy's,"Isabela,",Puerto Rico,"{'brand': ""Wendy's"", 'fascia': ""Wendy's"", 'category': 'Retail', 'edit_date': '20250606', 'lat_lon_source': 'Google'}",18.471984,-67.020777,Wendy's Isabela,"{'opening_hours': {'Sun': '06:00-23:00', 'Mon': '06:00-23:00', 'Tue': '06:00-23:00', 'Wed': '06:00-23:00', 'Thu': '06:00-23:00', 'Fri': '06:00-00:00', 'Sat': '06:00-00:00'}}",787-792-2001 ext. 7039,00662,66,,https://www.grupocolongerena.com/wendys
"Carr. 199, SÃ¡nchez Food Court, Bo. Los Frailes, Las Cumbres, Guaynabo, P.R. 00969",Wendy's,"Guaynabo,",Puerto Rico,"{'brand': ""Wendy's"", 'fascia': ""Wendy's"", 'category': 'Retail', 'edit_date': '20250606', 'lat_lon_source': 'Google'}",18.362608,-66.105404,Wendy's Las Cumbres II,"{'opening_hours': {'Sun': '06:00-23:00', 'Mon': '06:00-23:00', 'Tue': '06:00-23:00', 'Wed': '06:00-23:00', 'Thu': '06:00-23:00', 'Fri': '06:00-00:00', 'Sat': '06:00-00:00'}}",787-792-2001 ext. 7079,00969,gF,,https://www.grupocolongerena.com/wendys
"Doramar Shopping Mall, Carretera 693 KM 1.5, Bo. Maguayo, Dorado P.R. 00646",Wendy's,Dorado,Puerto Rico,"{'brand': ""Wendy's"", 'fascia': ""Wendy's"", 'category': 'Retail', 'edit_date': '20250606', 'lat_lon_source': 'Google'}",18.421807,-66.266758,Wendy's Doramar,"{'opening_hours': {'Sun': '06:00-23:00', 'Mon': '06:00-23:00', 'Tue': '06:00-23:00', 'Wed': '06:00-23:00', 'Thu': '06:00-23:00', 'Fri': '06:00-00:00', 'Sat': '06:00-00:00'}}",787-792-2001 ext. 7073,00646,98,,https://www.grupocolongerena.com/wendys
"Carretera #3 KM 43.1, Bo. Quebrada, Fajardo P.R. 00738",Wendy's,Fajardo,Puerto Rico,"{'brand': ""Wendy's"", 'fascia': ""Wendy's"", 'category': 'Retail', 'edit_date': '20250606', 'lat_lon_source': 'Google'}",18.343846,-65.671164,Wendy's Fajardo,"{'opening_hours': {'Sun': '06:00-23:00', 'Mon': '06:00-23:00', 'Tue': '06:00-23:00', 'Wed': '06:00-23:00', 'Thu': '06:00-23:00', 'Fri': '06:00-00:00', 'Sat': '06:00-00:00'}}",787-792-2001 ext. 7046,00738,72,,https://www.grupocolongerena.com/wendys
"Isla Verde Food Mall, Carr. Estatal 187 KM. 1.0 Isla Verde, Carolina, P.R. 00979",Wendy's,"Carolina,",Puerto Rico,"{'brand': ""Wendy's"", 'fascia': ""Wendy's"", 'category': 'Retail', 'edit_date': '20250606', 'lat_lon_source': 'Google'}",18.442169,-66.021934,Wendy's Isla Verde,"{'opening_hours': {'Mon': None, 'Tue': None, 'Wed': None, 'Thu': None, 'Fri': None, 'Sat': None, 'Sun': None}}",787-792-2001 ext. 7014,00979,46,,https://www.grupocolongerena.com/wendys
"Carretera PR52 IntersecciÃ³n PR149, Bo Amuelas, Juana Diaz P.R. 00795",Wendy's,Diaz,Puerto Rico,"{'brand': ""Wendy's"", 'fascia': ""Wendy's"", 'category': 'Retail', 'edit_date': '20250606', 'lat_lon_source': 'Google'}",18.04160229538535,-66.54865801400567,Wendy's Juana DÃ­az,"{'opening_hours': {'Sun': '06:00-23:00', 'Mon': '06:00-23:00', 'Tue': '06:00-23:00', 'Wed': '06:00-23:00', 'Thu': '06:00-23:00', 'Fri': '06:00-00:00', 'Sat': '06:00-00:00'}}",787-792-2001; 7094,00795,123,,https://www.grupocolongerena.com/wendys
"Centro Comercial Las Piedras Carr. 183 KM 20.6, Las Piedras, P.R. 00771",Wendy's,"Piedras,",Puerto Rico,"{'brand': ""Wendy's"", 'fascia': ""Wendy's"", 'category': 'Retail', 'edit_date': '20250606', 'lat_lon_source': 'Google'}",18.173763,-65.879126,Wendy's Las Piedras,"{'opening_hours': {'Sun': '06:00-23:00', 'Mon': '06:00-23:00', 'Tue': '06:00-23:00', 'Wed': '06:00-23:00', 'Thu': '06:00-23:00', 'Fri': '06:00-00:00', 'Sat': '06:00-00:00'}}",787-792-2001 ext. 7034,00771,aJ,,https://www.grupocolongerena.com/wendys
"Carr. Estatal #129 KM 42.3, Bo. Hato Abajo, Arecibo, P.R. 00612",Wendy's,"Arecibo,",Puerto Rico,"{'brand': ""Wendy's"", 'fascia': ""Wendy's"", 'category': 'Retail', 'edit_date': '20250606', 'lat_lon_source': 'Google'}",18.468427,-66.731501,Wendy's Arecibo III,"{'opening_hours': {'Sun': '06:00-23:00', 'Mon': '06:00-23:00', 'Tue': '06:00-23:00', 'Wed': '06:00-23:00', 'Thu': '06:00-23:00', 'Fri': '06:00-00:00', 'Sat': '06:00-00:00'}}",787-792-2001 ext. 7061,00612,bV,,https://www.grupocolongerena.com/wendys
"PR-3 Urb. Brisas del mar, Mata de Plano Ward, Luquillo, P.R. 00773",Wendy's,"Luquillo,",Puerto Rico,"{'brand': ""Wendy's"", 'fascia': ""Wendy's"", 'category': 'Retail', 'edit_date': '20250606', 'lat_lon_source': 'Google'}",18.378424,-65.720737,Wendy's Luquillo,"{'opening_hours': {'Sun': '06:00-23:00', 'Mon': '06:00-23:00', 'Tue': '06:00-23:00', 'Wed': '06:00-23:00', 'Thu': '06:00-23:00', 'Fri': '06:00-00:00', 'Sat': '06:00-00:00'}}",787 792-2001 ext. 7088,00773,113,,https://www.grupocolongerena.com/wendys
"Marginal Carretera #2, Ponce By Pass KM.26 HM.8, Ponce, P.R. 00731",Wendy's,"Ponce,",Puerto Rico,"{'brand': ""Wendy's"", 'fascia': ""Wendy's"", 'category': 'Retail', 'edit_date': '20250606', 'lat_lon_source': 'Google'}",17.999929,-66.598212,Wendy's Ponce,"{'opening_hours': {'Sun': '06:00-23:00', 'Mon': '06:00-23:00', 'Tue': '06:00-23:00', 'Wed': '06:00-23:00', 'Thu': '06:00-23:00', 'Fri': '06:00-00:00', 'Sat': '06:00-00:00'}}",787-792-2001 ext. 7006,00731,41,,https://www.grupocolongerena.com/wendys
"Carreterra #3 KM 24.5, Bo. Guzman Abajo, Rio Grande, P.R. 00721",Wendy's,"Grande,",Puerto Rico,"{'brand': ""Wendy's"", 'fascia': ""Wendy's"", 'category': 'Retail', 'edit_date': '20250606', 'lat_lon_source': 'Google'}",18.376399,-65.833157,Wendy's Rio Grande,"{'opening_hours': {'Sun': '06:00-23:00', 'Mon': '06:00-23:00', 'Tue': '06:00-23:00', 'Wed': '06:00-23:00', 'Thu': '06:00-23:00', 'Fri': '06:00-00:00', 'Sat': '06:00-00:00'}}",787-792-2001 ext. 7072,00721,fn,,https://www.grupocolongerena.com/wendys
"La Arboleda Shopping Center, PR-3 KM 157.98, Periferal Sur, Salinas, P.R. 00751",Wendy's,"Salinas,",Puerto Rico,"{'brand': ""Wendy's"", 'fascia': ""Wendy's"", 'category': 'Retail', 'edit_date': '20250606', 'lat_lon_source': 'Google'}",17.974092297300047,-66.2903572439344,Wendy's Salinas,"{'opening_hours': {'Sun': '06:00-23:00', 'Mon': '06:00-23:00', 'Tue': '06:00-23:00', 'Wed': '06:00-23:00', 'Thu': '06:00-23:00', 'Fri': '06:00-00:00', 'Sat': '06:00-00:00'}}",787-792-2001; 7096,00751,121,,https://www.grupocolongerena.com/wendys
"Carretera 183 Km. .3, Barrio Hato, San Lorenzo P.R. 00754",Wendy's,Lorenzo,Puerto Rico,"{'brand': ""Wendy's"", 'fascia': ""Wendy's"", 'category': 'Retail', 'edit_date': '20250606', 'lat_lon_source': 'Google'}",18.185363,-65.967631,Wendy's San Lorenzo,"{'opening_hours': {'Sun': '06:00-23:00', 'Mon': '06:00-23:00', 'Tue': '06:00-23:00', 'Wed': '06:00-23:00', 'Thu': '06:00-23:00', 'Fri': '06:00-00:00', 'Sat': '06:00-00:00'}}",787-792-2001 ext. 7052,00754,77,,https://www.grupocolongerena.com/wendys
"Park Gardens Food Center, Calle Saragoza y Chapultepek, Trujillo Alto, P.R. 00976",Wendy's,"Alto,",Puerto Rico,"{'brand': ""Wendy's"", 'fascia': ""Wendy's"", 'category': 'Retail', 'edit_date': '20250606', 'lat_lon_source': 'Google'}",18.389401,-66.031145,Wendy's Trujillo Alto,"{'opening_hours': {'Sun': '06:00-23:00', 'Mon': '06:00-23:00', 'Tue': '06:00-23:00', 'Wed': '06:00-23:00', 'Thu': '06:00-23:00', 'Fri': '06:00-00:00', 'Sat': '06:00-00:00'}}",787-792-2001 ext. 7012,00976,cm,,https://www.grupocolongerena.com/wendys
"Plaza Las Vegas, Carretera #2 KM 39.1, Barrio Algarrobo, Vega Baja, P.R. 00982",Wendy's,"Baja,",Puerto Rico,"{'brand': ""Wendy's"", 'fascia': ""Wendy's"", 'category': 'Retail', 'edit_date': '20250606', 'lat_lon_source': 'Google'}",18.446316,-66.396614,Wendy's Vega Baja,"{'opening_hours': {'Sun': '06:00-23:00', 'Mon': '06:00-23:00', 'Tue': '06:00-23:00', 'Wed': '06:00-23:00', 'Thu': '06:00-23:00', 'Fri': '06:00-00:00', 'Sat': '06:00-00:00'}}",787-792-2001 ext. 7057,00982,gM,,https://www.grupocolongerena.com/wendys
"Calle San Francisco #151, San Juan, P.R. 00901",Wendy's,"Juan,",Puerto Rico,"{'brand': ""Wendy's"", 'fascia': ""Wendy's"", 'category': 'Retail', 'edit_date': '20250606', 'lat_lon_source': 'Google'}",18.465431,-66.117002,Wendy's Viejo San Juan,"{'opening_hours': {'Sun': '06:00-23:00', 'Mon': '06:00-23:00', 'Tue': '06:00-23:00', 'Wed': '06:00-23:00', 'Thu': '06:00-23:00', 'Fri': '06:00-00:00', 'Sat': '06:00-00:00'}}",787-792-2001 ext. 7031,00901,gO,,https://www.grupocolongerena.com/wendys
"Ave. Comerio Esq. Calle 312, BayamÃ³n, P.R. 00961",Wendy's,"BayamÃ³n,",Puerto Rico,"{'brand': ""Wendy's"", 'fascia': ""Wendy's"", 'category': 'Retail', 'edit_date': '20250606', 'lat_lon_source': 'Google'}",18.415433,-66.161588,Wendy's Riverview,"{'opening_hours': {'Sun': '06:00-23:00', 'Mon': '06:00-23:00', 'Tue': '06:00-23:00', 'Wed': '06:00-23:00', 'Thu': '06:00-23:00', 'Fri': '06:00-12:00', 'Sat': '06:00-12:00'}}",787-792-2001 ext. 7015,00961,47,,https://www.grupocolongerena.com/wendys
"PR199, Bo. Cerro Gordo, UrbanizaciÃ³n Royal Town, BayamÃ³n, P.R. 00958",Wendy's,"BayamÃ³n,",Puerto Rico,"{'brand': ""Wendy's"", 'fascia': ""Wendy's"", 'category': 'Retail', 'edit_date': '20250606', 'lat_lon_source': 'Google'}",18.365753,-66.174257,Wendy's Royal Town,"{'opening_hours': {'Sun': '06:00-23:00', 'Mon': '06:00-23:00', 'Tue': '06:00-23:00', 'Wed': '06:00-23:00', 'Thu': '06:00-23:00', 'Fri': '06:00-12:00', 'Sat': '06:00-12:00'}}",787-792-2001 ext. 7071,00958,gP,,https://www.grupocolongerena.com/wendys
"Plaza Carolina Mall Local 285, Ave. Fragoso esq. 65 InfanterÃ­a, Carolina, P.R. 00988",Wendy's,"Carolina,",Puerto Rico,"{'brand': ""Wendy's"", 'fascia': ""Wendy's"", 'category': 'Retail', 'edit_date': '20250606', 'lat_lon_source': 'Google'}",18.39266,-65.97489,Wendy's Plaza Carolina,"{'opening_hours': {'Sun': '06:00-23:00', 'Mon': '06:00-23:00', 'Tue': '06:00-23:00', 'Wed': '06:00-23:00', 'Thu': '06:00-23:00', 'Fri': '06:00-12:00', 'Sat': '06:00-12:00'}}",787-792-2001 ext. 7025,00988,55,,https://www.grupocolongerena.com/wendys
"Carr. #2 KM. 57.4, Cruce Davila, Barceloneta, P.R. 00617 ",Wendy's,"Barceloneta,",Puerto Rico,"{'brand': ""Wendy's"", 'fascia': ""Wendy's"", 'category': 'Retail', 'edit_date': '20250606', 'lat_lon_source': 'Google'}",18.432011,-66.561328,Wendy's Barceloneta,"{'opening_hours': {'Sun': '06:00-23:00', 'Mon': '06:00-23:00', 'Tue': '06:00-23:00', 'Wed': '06:00-23:00', 'Thu': '06:00-23:00', 'Fri': '06:00-00:00', 'Sat': '06:00-00:00'}}",787-792-2001 ext. 7023,00617,53,,https://www.grupocolongerena.com/wendys
"Carretera 172 IntersecciÃ³n 78, Berrios Shopping Center, Cidra, P.R. 00739",Wendy's,"Cidra,",Puerto Rico,"{'brand': ""Wendy's"", 'fascia': ""Wendy's"", 'category': 'Retail', 'edit_date': '20250606', 'lat_lon_source': 'Google'}",18.178825,-66.147806,Wendy's Cidra,"{'opening_hours': {'Sun': '06:00-23:00', 'Mon': '06:00-23:00', 'Tue': '06:00-23:00', 'Wed': '06:00-23:00', 'Thu': '06:00-23:00', 'Fri': '06:00-00:00', 'Sat': '06:00-00:00'}}",787-792-2001 ext. 7045,00739,ge,,https://www.grupocolongerena.com/wendys
"Escorial Shopping Center, Ave. 65th InfanterÃ­a KM. 5.4 Bo. San Anton, Carolina, P.R. 00921",Wendy's,"Carolina,",Puerto Rico,"{'brand': ""Wendy's"", 'fascia': ""Wendy's"", 'category': 'Retail', 'edit_date': '20250606', 'lat_lon_source': 'Google'}",18.394864,-65.993869,Wendy's Parque Escorial,"{'opening_hours': {'Sun': '06:00-23:00', 'Mon': '06:00-23:00', 'Tue': '06:00-23:00', 'Wed': '06:00-23:00', 'Thu': '06:00-23:00', 'Fri': '06:00-12:00', 'Sat': '06:00-12:00'}}",787-792-2001 ext. 7027,00921,57,,https://www.grupocolongerena.com/wendys
"Cupey Mall, Carr. 845 km .0 HM 0, San Juan P.R. 00926",Wendy's,Juan,Puerto Rico,"{'brand': ""Wendy's"", 'fascia': ""Wendy's"", 'category': 'Retail', 'edit_date': '20250606', 'lat_lon_source': 'Google'}",18.379422,-66.054237,Wendy's Cupey,"{'opening_hours': {'Sun': '06:00-23:00', 'Mon': '06:00-23:00', 'Tue': '06:00-23:00', 'Wed': '06:00-23:00', 'Thu': '06:00-23:00', 'Fri': '06:00-00:00', 'Sat': '06:00-00:00'}}",787-792-2001 ext. 7010,00926,ak,,https://www.grupocolongerena.com/wendys
"Carretera Estatal #54, Desvio Sur KM .3, Bo Machete, Guayama P.R. 00784",Wendy's,Guayama,Puerto Rico,"{'brand': ""Wendy's"", 'fascia': ""Wendy's"", 'category': 'Retail', 'edit_date': '20250606', 'lat_lon_source': 'Google'}",17.976422,-66.120614,Wendy's Guayama,"{'opening_hours': {'Sun': '06:00-23:00', 'Mon': '06:00-23:00', 'Tue': '06:00-23:00', 'Wed': '06:00-23:00', 'Thu': '06:00-23:00', 'Fri': '06:00-00:00', 'Sat': '06:00-00:00'}}",787-792-2001 ext. 7038,00784,65,,https://www.grupocolongerena.com/wendys
"Carr. Estatal #2 KM 166.4, Bo. Lavadero, Hormigueros, P.R. 00660",Wendy's,"Hormigueros,",Puerto Rico,"{'brand': ""Wendy's"", 'fascia': ""Wendy's"", 'category': 'Retail', 'edit_date': '20250606', 'lat_lon_source': 'Google'}",18.125037,-67.096118,Wendy's Hormigueros,"{'opening_hours': {'Sun': '06:00-23:00', 'Mon': '06:00-23:00', 'Tue': '06:00-23:00', 'Wed': '06:00-23:00', 'Thu': '06:00-23:00', 'Fri': '06:00-00:00', 'Sat': '06:00-00:00'}}",787-792-2001 ext. 7064,00660,89,,https://www.grupocolongerena.com/wendys
"411 Marginal Ave. Kennedy 1er Piso, Urb. Industrial Bechara, San Juan, P.R. 00920",Wendy's,"Juan,",Puerto Rico,"{'brand': ""Wendy's"", 'fascia': ""Wendy's"", 'category': 'Retail', 'edit_date': '20250606', 'lat_lon_source': 'Google'}",18.424619,-66.095605,Wendy's Kennedy,"{'opening_hours': {'Sun': '06:00-23:00', 'Mon': '06:00-23:00', 'Tue': '06:00-23:00', 'Wed': '06:00-23:00', 'Thu': '06:00-23:00', 'Fri': '06:00-00:00', 'Sat': '06:00-00:00'}}",787-792-2001 ext. 7026,00920,B,,https://www.grupocolongerena.com/wendys
"Reina del Sur Shopping Center, PR-2 KM 257.4 Sector Matilde, Ponce P.R. 00716",Wendy's,Ponce,Puerto Rico,"{'brand': ""Wendy's"", 'fascia': ""Wendy's"", 'category': 'Retail', 'edit_date': '20250606', 'lat_lon_source': 'Google'}",17.999087,-66.64034,Wendy's Ponce Baramaya,"{'opening_hours': {'Sun': '06:00-23:00', 'Mon': '06:00-23:00', 'Tue': '06:00-23:00', 'Wed': '06:00-23:00', 'Thu': '06:00-23:00', 'Fri': '06:00-00:00', 'Sat': '06:00-00:00'}}",787-792-2001 ext. 7078,00716,103,,https://www.grupocolongerena.com/wendys
"Marginal Carretera #2, KM 86.80 Bo. Pueblo, Hatillo, P.R. 00959",Wendy's,"Hatillo,",Puerto Rico,"{'brand': ""Wendy's"", 'fascia': ""Wendy's"", 'category': 'Retail', 'edit_date': '20250606', 'lat_lon_source': 'Google'}",18.487183,-66.814866,Wendy's Hatillo,"{'opening_hours': {'Sun': '06:00-23:00', 'Mon': '06:00-23:00', 'Tue': '06:00-23:00', 'Wed': '06:00-23:00', 'Thu': '06:00-23:00', 'Fri': '06:00-00:00', 'Sat': '06:00-00:00'}}",787-792-2001 ext. 7035,00959,64,,https://www.grupocolongerena.com/wendys
"Carretera 31 KM 24.5, Bo Ceiba Norte, Juncos, P.R. 00777",Wendy's,"Juncos,",Puerto Rico,"{'brand': ""Wendy's"", 'fascia': ""Wendy's"", 'category': 'Retail', 'edit_date': '20250606', 'lat_lon_source': 'Google'}",18.227565,-65.916439,Wendy's Juncos,"{'opening_hours': {'Sun': '06:00-23:00', 'Mon': '06:00-23:00', 'Tue': '06:00-23:00', 'Wed': '06:00-23:00', 'Thu': '06:00-23:00', 'Fri': '06:00-00:00', 'Sat': '06:00-00:00'}}",787-792-2001 ext. 7077,00777,102,,https://www.grupocolongerena.com/wendys
"Carretera PR2 KM 125.5, Bo. Caimital Bajo, Aguadilla, P.R. 00603",Wendy's,"Aguadilla,",Puerto Rico,"{'brand': ""Wendy's"", 'fascia': ""Wendy's"", 'category': 'Retail', 'edit_date': '20250606', 'lat_lon_source': 'Google'}",18.407941,-67.152318,Wendy's Aguadilla III,"{'opening_hours': {'Sun': '06:00-23:00', 'Mon': '06:00-23:00', 'Tue': '06:00-23:00', 'Wed': '06:00-23:00', 'Thu': '06:00-23:00', 'Fri': '06:00-00:00', 'Sat': '06:00-00:00'}}",787-792-2001 ext. 7085,00603,gU,,https://www.grupocolongerena.com/wendys
"Carretara #3 KM 8.3, Urb. Paseo Del Prado, Carolina, P.R. 00982",Wendy's,"Carolina,",Puerto Rico,"{'brand': ""Wendy's"", 'fascia': ""Wendy's"", 'category': 'Retail', 'edit_date': '20250606', 'lat_lon_source': 'Google'}",18.387767,-65.973924,Wendy's 65 Infanteria,"{'opening_hours': {'Sun': '06:00-23:00', 'Mon': '06:00-23:00', 'Tue': '06:00-23:00', 'Wed': '06:00-23:00', 'Thu': '06:00-23:00', 'Fri': '06:00-00:00', 'Sat': '06:00-00:00'}}",787-792-2001 ext. 7056,00982,gV,,https://www.grupocolongerena.com/wendys
"Plaza BorinquÃ©n Shopping Center, Carr.Estatal 107 KM. 3.1, Aguadilla P.R. 00603",Wendy's,Aguadilla,Puerto Rico,"{'brand': ""Wendy's"", 'fascia': ""Wendy's"", 'category': 'Retail', 'edit_date': '20250606', 'lat_lon_source': 'Google'}",18.469076,-67.153636,Wendy's Aguadilla,"{'opening_hours': {'Sun': '06:00-23:00', 'Mon': '06:00-23:00', 'Tue': '06:00-23:00', 'Wed': '06:00-23:00', 'Thu': '06:00-23:00', 'Fri': '06:00-00:00', 'Sat': '06:00-00:00'}}",787-792-2001 ext. 7018,00603,ch,,https://www.grupocolongerena.com/wendys
"Carr. #2 Marginal B, BayamÃ³n, P.R. 00956",Wendy's,"BayamÃ³n,",Puerto Rico,"{'brand': ""Wendy's"", 'fascia': ""Wendy's"", 'category': 'Retail', 'edit_date': '20250606', 'lat_lon_source': 'Google'}",18.405685,-66.138382,Wendy's BayamÃ³n,"{'opening_hours': {'Sun': '06:00-23:00', 'Mon': '06:00-23:00', 'Tue': '06:00-23:00', 'Wed': '06:00-23:00', 'Thu': '06:00-23:00', 'Fri': '06:00-00:00', 'Sat': '06:00-00:00'}}",787-792-2001 ext. 7002,00956,A,,https://www.grupocolongerena.com/wendys
"Carretera 506, Plaza San Cristobal, Ponce P.R. 00780",Wendy's,Ponce,Puerto Rico,"{'brand': ""Wendy's"", 'fascia': ""Wendy's"", 'category': 'Retail', 'edit_date': '20250606', 'lat_lon_source': 'Google'}",18.040595,-66.548582,Wendy's Coto Laurel,"{'opening_hours': {'Sun': '06:00-23:00', 'Mon': '06:00-23:00', 'Tue': '06:00-23:00', 'Wed': '06:00-23:00', 'Thu': '06:00-23:00', 'Fri': '06:00-00:00', 'Sat': '06:00-00:00'}}",787-792-2001 ext. 7060,00780,cu,,https://www.grupocolongerena.com/wendys
"Calle Gautier Benitez esq. Ave. Degetau, Bo. Turabo, Caguas, P.R. 00725",Wendy's,"Caguas,",Puerto Rico,"{'brand': ""Wendy's"", 'fascia': ""Wendy's"", 'category': 'Retail', 'edit_date': '20250606', 'lat_lon_source': 'Google'}",18.22131181965401,-66.04041947718932,"Wendy's Gautier BenÃ­tez, Caguas","{'opening_hours': {'Sun': '06:00-23:00', 'Mon': '06:00-23:00', 'Tue': '06:00-23:00', 'Wed': '06:00-23:00', 'Thu': '06:00-23:00', 'Fri': '06:00-00:00', 'Sat': '06:00-00:00'}}",787-792-2001; 7093,00725,gW,,https://www.grupocolongerena.com/wendys
"Ave. Campo Rico, IntersecciÃ³n Carretera PR 190, Barrio Sabana Abajo, Carolina, P.R. 00983",Wendy's,"Carolina,",Puerto Rico,"{'brand': ""Wendy's"", 'fascia': ""Wendy's"", 'category': 'Retail', 'edit_date': '20250606', 'lat_lon_source': 'Google'}",18.417543416247057,-65.98286204264843,"Wendy's La CerÃ¡mica, Carolina","{'opening_hours': {'Sun': '06:00-23:00', 'Mon': '06:00-23:00', 'Tue': '06:00-23:00', 'Wed': '06:00-23:00', 'Thu': '06:00-23:00', 'Fri': '06:00-00:00', 'Sat': '06:00-00:00'}}",787-792-2001; 7095,00983,124,,https://www.grupocolongerena.com/wendys
"Plazoleta Las Cumbres, Carretera 199 Bo. Santa Rosa, Guaynabo, P.R. 00969",Wendy's,"Guaynabo,",Puerto Rico,"{'brand': ""Wendy's"", 'fascia': ""Wendy's"", 'category': 'Retail', 'edit_date': '20250606', 'lat_lon_source': 'Google'}",18.363458,-66.124398,Wendy's Las Cumbres,"{'opening_hours': {'Sun': '06:00-23:00', 'Mon': '06:00-23:00', 'Tue': '06:00-23:00', 'Wed': '06:00-23:00', 'Thu': '06:00-23:00', 'Fri': '06:00-00:00', 'Sat': '06:00-00:00'}}",787-792-2001 ext. 7051,00969,76,,https://www.grupocolongerena.com/wendys
"Ave. Comerio, Marginal Hernan Cortes, Levittown, Toa Baja, P.R. 00949",Wendy's,"Baja,",Puerto Rico,"{'brand': ""Wendy's"", 'fascia': ""Wendy's"", 'category': 'Retail', 'edit_date': '20250606', 'lat_lon_source': 'Google'}",18.443395,-66.165529,Wendy's Levittown,"{'opening_hours': {'Sun': '06:00-23:00', 'Mon': '06:00-23:00', 'Tue': '06:00-23:00', 'Wed': '06:00-23:00', 'Thu': '06:00-23:00', 'Fri': '06:00-00:00', 'Sat': '06:00-00:00'}}",787-792-2001 ext. 7084,00949,109,,https://www.grupocolongerena.com/wendys
"Los Prados Mall, Carretera # 156, Km 56.3, Barrio CaÃ±abon, Caguas, P.R. 00725",Wendy's,"Caguas,",Puerto Rico,"{'brand': ""Wendy's"", 'fascia': ""Wendy's"", 'category': 'Retail', 'edit_date': '20250606', 'lat_lon_source': 'Google'}",18.234675,-66.057787,Wendy's Los Prados ,"{'opening_hours': {'Sun': '06:00-23:00', 'Mon': '06:00-23:00', 'Tue': '06:00-23:00', 'Wed': '06:00-23:00', 'Thu': '06:00-23:00', 'Fri': '06:00-00:00', 'Sat': '06:00-00:00'}}",787-792-2001 ext. 7066,00725,gY,,https://www.grupocolongerena.com/wendys
"Carr. Estatal #2 KM. 159.80, Bo. Guanajibo, MayagÃ¼ez P.R. 00680",Wendy's,MayagÃ¼ez,Puerto Rico,"{'brand': ""Wendy's"", 'fascia': ""Wendy's"", 'category': 'Retail', 'edit_date': '20250606', 'lat_lon_source': 'Google'}",18.168289,-67.149981,Wendy's MayagÃ¼ez Mall,"{'opening_hours': {'Sun': '06:00-23:00', 'Mon': '06:00-23:00', 'Tue': '06:00-23:00', 'Wed': '06:00-23:00', 'Thu': '06:00-23:00', 'Fri': '06:00-00:00', 'Sat': '06:00-00:00'}}",787-792-2001 ext. 7024,00680,54,,https://www.grupocolongerena.com/wendys
"Carr. #2 KM. 15.5 Hato Tejas, BayamÃ³n P.R. 00959",Wendy's,BayamÃ³n,Puerto Rico,"{'brand': ""Wendy's"", 'fascia': ""Wendy's"", 'category': 'Retail', 'edit_date': '20250606', 'lat_lon_source': 'Google'}",18.40388,-66.19558,Wendy's Plaza BayamÃ³n,"{'opening_hours': {'Sun': '06:00-23:00', 'Mon': '06:00-23:00', 'Tue': '06:00-23:00', 'Wed': '06:00-23:00', 'Thu': '06:00-23:00', 'Fri': '06:00-00:00', 'Sat': '06:00-00:00'}}",787-792-2001 ext. 7032,00959,61,,https://www.grupocolongerena.com/wendys
"Carretera #2 KM 84.7, Bo Carrizalez, Hatillo, P.R. 00959",Wendy's,"Hatillo,",Puerto Rico,"{'brand': ""Wendy's"", 'fascia': ""Wendy's"", 'category': 'Retail', 'edit_date': '20250606', 'lat_lon_source': 'Google'}",18.487496,-66.794293,Wendyâs Plaza del Mar (Hatillo) ,"{'opening_hours': {'Sun': '06:00-23:00', 'Mon': '06:00-23:00', 'Tue': '06:00-23:00', 'Wed': '06:00-23:00', 'Thu': '06:00-23:00', 'Fri': '06:00-00:00', 'Sat': '06:00-00:00'}}",787 792-2001 ext. 7090,00959,114,,https://www.grupocolongerena.com/wendys
"Monte Town Center, Carr. #14 KM 6.2, Ponce, P.R. 00733",Wendy's,"Ponce,",Puerto Rico,"{'brand': ""Wendy's"", 'fascia': ""Wendy's"", 'category': 'Retail', 'edit_date': '20250606', 'lat_lon_source': 'Google'}",18.042338,-66.578386,Wendy's Ponce Monte,"{'opening_hours': {'Sun': '06:00-23:00', 'Mon': '06:00-23:00', 'Tue': '06:00-23:00', 'Wed': '06:00-23:00', 'Thu': '06:00-23:00', 'Fri': '06:00-00:00', 'Sat': '06:00-00:00'}}",787-792-2001 ext. 7065,00733,90,,https://www.grupocolongerena.com/wendys
"1110 Calle #2 NE, Urb. Puerto Nuevo, Barrio Monacillos, San Juan, P.R. 00922",Wendy's,"Juan,",Puerto Rico,"{'brand': ""Wendy's"", 'fascia': ""Wendy's"", 'category': 'Retail', 'edit_date': '20250606', 'lat_lon_source': 'Google'}",18.414578,-66.082926,Wendy's Roosevelt,"{'opening_hours': {'Sun': '06:00-23:00', 'Mon': '06:00-23:00', 'Tue': '06:00-23:00', 'Wed': '06:00-23:00', 'Thu': '06:00-23:00', 'Fri': '06:00-00:00', 'Sat': '06:00-00:00'}}",787-792-2001 ext. 7069,00922,94,,https://www.grupocolongerena.com/wendys
"San Juan Industrial Park, Carretera 1 KM 25.5, Caguas, P.R. 00725",Wendy's,"Caguas,",Puerto Rico,"{'brand': ""Wendy's"", 'fascia': ""Wendy's"", 'category': 'Retail', 'edit_date': '20250606', 'lat_lon_source': 'Google'}",18.308442,-66.074112,Wendy's San Juan Industrial Park,"{'opening_hours': {'Sun': '06:00-23:00', 'Mon': '06:00-23:00', 'Tue': '06:00-23:00', 'Wed': '06:00-23:00', 'Thu': '06:00-23:00', 'Fri': '06:00-00:00', 'Sat': '06:00-00:00'}}",787-792-2001 ext. 7075,00725,100,,https://www.grupocolongerena.com/wendys
"San Patricio Plaza, Ave. Gonzalez Giusti, Guaynabo, P.R. 00968.",Wendy's,"Guaynabo,",Puerto Rico,"{'brand': ""Wendy's"", 'fascia': ""Wendy's"", 'category': 'Retail', 'edit_date': '20250606', 'lat_lon_source': 'Google'}",18.408226,-66.104907,Wendy's San Patricio Plaza,"{'opening_hours': {'Sun': '06:00-23:00', 'Mon': '06:00-23:00', 'Tue': '06:00-23:00', 'Wed': '06:00-23:00', 'Thu': '06:00-23:00', 'Fri': '06:00-00:00', 'Sat': '06:00-00:00'}}",787-792-2001 ext. 7049,00968.,74,,https://www.grupocolongerena.com/wendys
"Carr. 153 & Carr. 542, Parcela D, Bo. Felicia II, Santa Isabel, P.R. 00757",Wendy's,"Isabel,",Puerto Rico,"{'brand': ""Wendy's"", 'fascia': ""Wendy's"", 'category': 'Retail', 'edit_date': '20250606', 'lat_lon_source': 'Google'}",18.009408,-66.386025,Wendy's Santa Isabel II,"{'opening_hours': {'Sun': '06:00-23:00', 'Mon': '06:00-23:00', 'Tue': '06:00-23:00', 'Wed': '06:00-23:00', 'Thu': '06:00-23:00', 'Fri': '06:00-00:00', 'Sat': '06:00-00:00'}}",787 792-2001 ext. 7087,00757,112,,https://www.grupocolongerena.com/wendys
"Trujillo Alto Gallery Shopping Center, Carr # PR 181 & PR 850 Saint Just, Trujillo Alto, P.R. 00978",Wendy's,"Alto,",Puerto Rico,"{'brand': ""Wendy's"", 'fascia': ""Wendy's"", 'category': 'Retail', 'edit_date': '20250606', 'lat_lon_source': 'Google'}",18.368983,-66.016146,Wendy's Trujillo Alto II ,"{'opening_hours': {'Sun': '06:00-23:00', 'Mon': '06:00-23:00', 'Tue': '06:00-23:00', 'Wed': '06:00-23:00', 'Thu': '06:00-23:00', 'Fri': '06:00-00:00', 'Sat': '06:00-00:00'}}",787 792-2001 ext. 7086,00978,111,,https://www.grupocolongerena.com/wendys
"Carretera PR 100 KM 6.6, Bo. Miradero, Cabo Rojo, P.R. 00623",Wendy's,"Rojo,",Puerto Rico,"{'brand': ""Wendy's"", 'fascia': ""Wendy's"", 'category': 'Retail', 'edit_date': '20250606', 'lat_lon_source': 'Google'}",18.096205,-67.157167,Wendy's Cabo Rojo,"{'opening_hours': {'Sun': '06:00-23:00', 'Mon': '06:00-23:00', 'Tue': '06:00-23:00', 'Wed': '06:00-23:00', 'Thu': '06:00-23:00', 'Fri': '06:00-00:00', 'Sat': '06:00-00:00'}}",787-792-2001 ext. 7041,00623,68,,https://www.grupocolongerena.com/wendys
"Ave Los Romeros Esquina Avenida Boulevard La MontaÃ±a, Lote 4-4, Barrio Caimito,  San Juan, P.R. 00926",Wendy's,"Juan,",Puerto Rico,"{'brand': ""Wendy's"", 'fascia': ""Wendy's"", 'category': 'Retail', 'edit_date': '20250606', 'lat_lon_source': 'Google'}",18.337077,-66.068949,Applebee's Montehiedra,"{'opening_hours': {'Sun': '11:00-22:00', 'Mon': '11:00-22:00', 'Tue': '11:00-22:00', 'Wed': '11:00-22:00', 'Thu': '11:00-22:00', 'Fri': '11:00-23:00', 'Sat': '11:00-23:00'}}",787-625-1608,00926,120,,https://www.grupocolongerena.com/wendys
"Plaza del Mar, Carretera #2 km 84.7 Bo. Carrizalez, Hatillo, P.R. 00659",Wendy's,"Hatillo,",Puerto Rico,"{'brand': ""Wendy's"", 'fascia': ""Wendy's"", 'category': 'Retail', 'edit_date': '20250606', 'lat_lon_source': 'Google'}",18.4875,-66.7946,Applebee's Hatillo,"{'opening_hours': {'Sun': '11:00-22:00', 'Mon': '11:00-22:00', 'Tue': '11:00-22:00', 'Wed': '11:00-22:00', 'Thu': '11:00-22:00', 'Fri': '11:00-23:00', 'Sat': '11:00-23:00'}}",787-945-2735,00659,cc,,https://www.grupocolongerena.com/wendys
"Sector La Cambija Bo. Juan SÃ¡nchez Av. West Maine, BayamÃ³n, P.R. 00961",Wendy's,"BayamÃ³n,",Puerto Rico,"{'brand': ""Wendy's"", 'fascia': ""Wendy's"", 'category': 'Retail', 'edit_date': '20250606', 'lat_lon_source': 'Google'}",18.4051944,-66.15575,Applebee's BayamÃ³n,"{'opening_hours': {'Sun': '11:00-22:00', 'Mon': '11:00-22:00', 'Tue': '11:00-22:00', 'Wed': '11:00-22:00', 'Thu': '11:00-22:00', 'Fri': '11:00-23:00', 'Sat': '11:00-23:00'}}",939-225-2045,00961,g_,,https://www.grupocolongerena.com/wendys
"Plaza Gloriel, Calle Betances, MayagÃ¼ez, P.R. 00680",Wendy's,"MayagÃ¼ez,",Puerto Rico,"{'brand': ""Wendy's"", 'fascia': ""Wendy's"", 'category': 'Retail', 'edit_date': '20250606', 'lat_lon_source': 'Google'}",18.242158,-67.161226,Applebee's MayagÃ¼ez,"{'opening_hours': {'Sun': '11:00-22:00', 'Mon': '11:00-22:00', 'Tue': '11:00-22:00', 'Wed': '11:00-22:00', 'Thu': '11:00-22:00', 'Fri': '11:00-23:00', 'Sat': '11:00-23:00'}}",787-625-1605,00680,G,,https://www.grupocolongerena.com/wendys
"Escorial Shopping Village 1500 Avenida Sur, Carolina, P.R. 00924",Wendy's,"Carolina,",Puerto Rico,"{'brand': ""Wendy's"", 'fascia': ""Wendy's"", 'category': 'Retail', 'edit_date': '20250606', 'lat_lon_source': 'Google'}",18.394482,-65.993438,Applebee's Carolina,"{'opening_hours': {'Sun': '11:00-22:00', 'Mon': '11:00-22:00', 'Tue': '11:00-22:00', 'Wed': '11:00-22:00', 'Thu': '11:00-22:00', 'Fri': '11:00-23:00', 'Sat': '11:00-23:00'}}",787-625-1602,00924,g$,,https://www.grupocolongerena.com/wendys
"Carretera 693 KM 8.5, Esquina Jose Efron Barrio Higuillar, Plaza Dorado Shopping Center, Dorado, P.R. 00646",Wendy's,"Dorado,",Puerto Rico,"{'brand': ""Wendy's"", 'fascia': ""Wendy's"", 'category': 'Retail', 'edit_date': '20250606', 'lat_lon_source': 'Google'}",18.465291,-66.282223,Applebee's Dorado,"{'opening_hours': {'Sun': '11:00-22:00', 'Mon': '11:00-22:00', 'Tue': '11:00-22:00', 'Wed': '11:00-22:00', 'Thu': '11:00-22:00', 'Fri': '11:00-23:00', 'Sat': '11:00-23:00'}}",787-625-1591 ,00646,e,,https://www.grupocolongerena.com/wendys
" 525 Avenida F.D.  Roosevelt, Plaza Las AmÃ©ricas 480 Primer Nivel,  San Juan, P.R. 00922",Wendy's,"Juan,",Puerto Rico,"{'brand': ""Wendy's"", 'fascia': ""Wendy's"", 'category': 'Retail', 'edit_date': '20250606', 'lat_lon_source': 'Google'}",18.419998,-66.073697,Applebee's Plaza Las AmÃ©ricas,"{'opening_hours': {'Sun': '11:00-22:00', 'Mon': '11:00-22:00', 'Tue': '11:00-22:00', 'Wed': '11:00-22:00', 'Thu': '11:00-22:00', 'Fri': '11:00-23:00', 'Sat': '11:00-23:00'}}",787-765-5000,00922,bY,,https://www.grupocolongerena.com/wendys
"Carr #2 Int PR-149 Hotel Hyatt, ManatÃ­, P.R.  00674 ",Wendy's,"ManatÃ­,",Puerto Rico,"{'brand': ""Wendy's"", 'fascia': ""Wendy's"", 'category': 'Retail', 'edit_date': '20250606', 'lat_lon_source': 'Google'}",18.434212,-66.476713,LongHorn ManatÃ­,"{'opening_hours': {'Sun': '11:00-22:00', 'Mon': '11:00-22:00', 'Tue': '11:00-22:00', 'Wed': '11:00-22:00', 'Thu': '11:00-22:00', 'Fri': '11:00-23:00', 'Sat': '11:00-23:00'}}",787-921-7777,00674,38,,https://www.grupocolongerena.com/wendys
"Plaza del Caribe, Ponce, P.R. ",Wendy's,"Ponce,",Puerto Rico,"{'brand': ""Wendy's"", 'fascia': ""Wendy's"", 'category': 'Retail', 'edit_date': '20250606', 'lat_lon_source': 'Google'}",17.994,-66.612,LongHorn Ponce,"{'opening_hours': {'Sun': '11:00-22:00', 'Mon': '11:00-22:00', 'Tue': '11:00-22:00', 'Wed': '11:00-22:00', 'Thu': '11:00-22:00', 'Fri': '11:00-23:00', 'Sat': '11:00-23:00'}}",787-709-4518,.,37,,https://www.grupocolongerena.com/wendys
"Plaza Sultana Carr. #2 Km 158.3 Bo. Guanajibo, MayagÃ¼ez, P.R. 00680",Wendy's,"MayagÃ¼ez,",Puerto Rico,"{'brand': ""Wendy's"", 'fascia': ""Wendy's"", 'category': 'Retail', 'edit_date': '20250606', 'lat_lon_source': 'Google'}",18.1688,-67.1507,LongHorn MayagÃ¼ez,"{'opening_hours': {'Sun': '11:00-22:00', 'Mon': '11:00-22:00', 'Tue': '11:00-22:00', 'Wed': '11:00-22:00', 'Thu': '11:00-22:00', 'Fri': '11:00-23:00', 'Sat': '11:00-23:00'}}",787-833-2331,00680,35,,https://www.grupocolongerena.com/wendys
"Ave. Ramon Luis Rivera, Esq. Ave. West Main, BayamÃ³n, P.R. ",Wendy's,"BayamÃ³n,",Puerto Rico,"{'brand': ""Wendy's"", 'fascia': ""Wendy's"", 'category': 'Retail', 'edit_date': '20250606', 'lat_lon_source': 'Google'}",18.404908,-66.159512,LongHorn BayamÃ³n,"{'opening_hours': {'Sun': '11:00-22:00', 'Mon': '11:00-22:00', 'Tue': '11:00-22:00', 'Wed': '11:00-22:00', 'Thu': '11:00-22:00', 'Fri': '11:00-23:00', 'Sat': '11:00-23:00'}}",787-778-0880,.,fZ,,https://www.grupocolongerena.com/wendys
"Walmart Shopping Center Lote # 3 Ave. Rafael Cordero Bo. Bairoa Caguas, P.R. 000725 ",Wendy's,"Caguas,",Puerto Rico,"{'brand': ""Wendy's"", 'fascia': ""Wendy's"", 'category': 'Retail', 'edit_date': '20250606', 'lat_lon_source': 'Google'}",18.2459,-66.0182,LongHorn Caguas,"{'opening_hours': {'Sun': '11:00-22:00', 'Mon': '11:00-22:00', 'Tue': '11:00-22:00', 'Wed': '11:00-22:00', 'Thu': '11:00-22:00', 'Fri': '11:00-23:00', 'Sat': '11:00-23:00'}}",787-905-7055,000725,fX,,https://www.grupocolongerena.com/wendys
"Ave. 65 InfanterÃ­a Lote H.E., Carolina, P.R. 00929",Wendy's,"Carolina,",Puerto Rico,"{'brand': ""Wendy's"", 'fascia': ""Wendy's"", 'category': 'Retail', 'edit_date': '20250606', 'lat_lon_source': 'Google'}",18.395428,-65.994203,LongHorn Escorial,"{'opening_hours': {'Sun': '11:00-22:00', 'Mon': '11:00-22:00', 'Tue': '11:00-22:00', 'Wed': '11:00-22:00', 'Thu': '11:00-22:00', 'Fri': '11:00-23:00', 'Sat': '11:00-23:00'}}",787-750-5100,00929,f$,,https://www.grupocolongerena.com/wendys
"Calle GonzÃ¡lez Guisti Lote 4 Esq. Guaynabo, P.R. 00968",Wendy's,"Guaynabo,",Puerto Rico,"{'brand': ""Wendy's"", 'fascia': ""Wendy's"", 'category': 'Retail', 'edit_date': '20250606', 'lat_lon_source': 'Google'}",18.4087,-66.1036,LongHorn San Patricio Plaza,"{'opening_hours': {'Sun': '11:00-22:00', 'Mon': '11:00-22:00', 'Tue': '11:00-22:00', 'Wed': '11:00-22:00', 'Thu': '11:00-22:00', 'Fri': '11:00-23:00', 'Sat': '11:00-23:00'}}",787-707-1995,00968,34,,https://www.grupocolongerena.com/wendys
"Boulevard Baldorioty de Castro Parcela G-2 Distrito de Convenciones, San Juan, P.R. 00907 ",Wendy's,"Juan,",Puerto Rico,"{'brand': ""Wendy's"", 'fascia': ""Wendy's"", 'category': 'Retail', 'edit_date': '20250606', 'lat_lon_source': 'Google'}",18.456026,-66.087116,LongHorn San Juan,"{'opening_hours': {'Sun': '11:00-22:00', 'Mon': '11:00-22:00', 'Tue': '11:00-22:00', 'Wed': '11:00-22:00', 'Thu': '11:00-22:00', 'Fri': '11:00-23:00', 'Sat': '11:00-23:00'}}",787-625-1609,00907,ha,,https://www.grupocolongerena.com/wendys
"Plaza las AmÃ©ricas 525 Ave. Franklin Delano Roosevelt spc 132, San Juan, P.R. 00918",Wendy's,"Juan,",Puerto Rico,"{'brand': ""Wendy's"", 'fascia': ""Wendy's"", 'category': 'Retail', 'edit_date': '20250606', 'lat_lon_source': 'Google'}",18.42485991593703,-66.07404913493335,LongHorn Plaza las AmÃ©ricas,"{'opening_hours': {'Sun': '11:00-22:00', 'Mon': '11:00-22:00', 'Tue': '11:00-22:00', 'Wed': '11:00-22:00', 'Thu': '11:00-22:00', 'Fri': '11:00-23:00', 'Sat': '11:00-23:00'}}",787-723-7110,00918,126,,https://www.grupocolongerena.com/wendys
"Sector La Cambija Bo. Juan SÃ¡nchez Av. West Maine, BayamÃ³n, P.R.",Wendy's,"BayamÃ³n,",Puerto Rico,"{'brand': ""Wendy's"", 'fascia': ""Wendy's"", 'category': 'Retail', 'edit_date': '20250606', 'lat_lon_source': 'Google'}",18.4045,-66.1555,Olive Garden BayamÃ³n,"{'opening_hours': {'Sun': '11:00-22:00', 'Mon': '11:00-22:00', 'Tue': '11:00-22:00', 'Wed': '11:00-22:00', 'Thu': '11:00-22:00', 'Fri': '11:00-23:00', 'Sat': '11:00-23:00'}}",787-395-7044,.,fl,,https://www.grupocolongerena.com/wendys
"Bo. San Anton Carr #3 KM 6.8, Carolina, P.R. 00987",Wendy's,"Carolina,",Puerto Rico,"{'brand': ""Wendy's"", 'fascia': ""Wendy's"", 'category': 'Retail', 'edit_date': '20250606', 'lat_lon_source': 'Google'}",18.3946,-65.9932,Olive Garden Escorial ,"{'opening_hours': {'Sun': '11:00-22:00', 'Mon': '11:00-22:00', 'Tue': '11:00-22:00', 'Wed': '11:00-22:00', 'Thu': '11:00-22:00', 'Fri': '11:00-23:00', 'Sat': '11:00-23:00'}}",787-710-2500,00987,aO,,https://www.grupocolongerena.com/wendys
"600 Ave. Manuel Fernandez Juncos, San Juan, P.R. 00907",Wendy's,"Juan,",Puerto Rico,"{'brand': ""Wendy's"", 'fascia': ""Wendy's"", 'category': 'Retail', 'edit_date': '20250606', 'lat_lon_source': 'Google'}",18.456745,-66.087023,Olive Garden San Juan ,"{'opening_hours': {'Sun': '11:00-22:00', 'Mon': '11:00-22:00', 'Tue': '11:00-22:00', 'Wed': '11:00-22:00', 'Thu': '11:00-22:00', 'Fri': '11:00-23:00', 'Sat': '11:00-23:00'}}",787-775-3779,00907,bZ,,https://www.grupocolongerena.com/wendys
"Carr. #2 Sector Florida Afuera Km 54.6 Barceloneta, P.R. 00617",Wendy's,"Barceloneta,",Puerto Rico,"{'brand': ""Wendy's"", 'fascia': ""Wendy's"", 'category': 'Retail', 'edit_date': '20250606', 'lat_lon_source': 'Google'}",18.436882,-66.540298,Olive Garden Barceloneta ,"{'opening_hours': {'Sun': '11:00-22:00', 'Mon': '11:00-22:00', 'Tue': '11:00-22:00', 'Wed': '11:00-22:00', 'Thu': '11:00-22:00', 'Fri': '11:00-23:00', 'Sat': '11:00-23:00'}}",787-970-8747,00617,hb,,https://www.grupocolongerena.com/wendys
"Av. Montehiedra San Juan, P.R. 00926",Wendy's,"Juan,",Puerto Rico,"{'brand': ""Wendy's"", 'fascia': ""Wendy's"", 'category': 'Retail', 'edit_date': '20250606', 'lat_lon_source': 'Google'}",18.33712307573836,-66.06795596292696,Olive Garden Montehiedra,"{'opening_hours': {'Sun': '11:00-22:00', 'Mon': '11:00-22:00', 'Tue': '11:00-22:00', 'Wed': '11:00-22:00', 'Thu': '11:00-22:00', 'Fri': '11:00-23:00', 'Sat': '11:00-23:00'}}",787-738-4220,00926,119,,https://www.grupocolongerena.com/wendys
"Calle GonzÃ¡lez Guisti, Lote 4, Esquina Avenida San Patricio, Guaynabo, P.R.",Wendy's,"Guaynabo,",Puerto Rico,"{'brand': ""Wendy's"", 'fascia': ""Wendy's"", 'category': 'Retail', 'edit_date': '20250606', 'lat_lon_source': 'Google'}",18.408567,-66.10468,Olive Garden San Patricio Plaza,"{'opening_hours': {'Sun': '11:00-22:00', 'Mon': '11:00-22:00', 'Tue': '11:00-22:00', 'Wed': '11:00-22:00', 'Thu': '11:00-22:00', 'Fri': '11:00-23:00', 'Sat': '11:00-23:00'}}",787-705-5800,.,ax,,https://www.grupocolongerena.com/wendys
"525 F.D. Roosevelt Avenue, Local 600, Plaza Las AmÃ©ricas Shopping Center Hato Rey, P.R. 00918",Wendy's,"Rey,",Puerto Rico,"{'brand': ""Wendy's"", 'fascia': ""Wendy's"", 'category': 'Retail', 'edit_date': '20250606', 'lat_lon_source': 'Google'}",18.4224768,-66.074138,Olive Garden Plaza Las AmÃ©ricas,"{'opening_hours': {'Sun': '11:00-22:00', 'Mon': '11:00-22:00', 'Tue': '11:00-22:00', 'Wed': '11:00-22:00', 'Thu': '11:00-22:00', 'Fri': '11:00-23:00', 'Sat': '11:00-23:00'}}",787-775-1568,00918,hc,,https://www.grupocolongerena.com/wendys
"Plaza Prados del Sur PR-153, Santa Isabel, P.R. 00757",Wendy's,"Isabel,",Puerto Rico,"{'brand': ""Wendy's"", 'fascia': ""Wendy's"", 'category': 'Retail', 'edit_date': '20250606', 'lat_lon_source': 'Google'}",18.00364,-66.23102,Olive Garden Santa Isabel ,"{'opening_hours': {'Sun': '11:00-22:00', 'Mon': '11:00-22:00', 'Tue': '11:00-22:00', 'Wed': '11:00-22:00', 'Thu': '11:00-22:00', 'Fri': '11:00-23:00', 'Sat': '11:00-23:00'}}",787-545-7427,00757,hd,,https://www.grupocolongerena.com/wendys
"Plaza Sultana Carr. 2 Km 158.6 Bo. Guanajibo, MayagÃ¼ez, P.R. 00680",Wendy's,"MayagÃ¼ez,",Puerto Rico,"{'brand': ""Wendy's"", 'fascia': ""Wendy's"", 'category': 'Retail', 'edit_date': '20250606', 'lat_lon_source': 'Google'}",18.169915,-67.150075,Sizzler MayagÃ¼ez,"{'opening_hours': {'Sun': 'Closed', 'Thu': 'Closed', 'Mon': None, 'Tue': None, 'Wed': None, 'Fri': None, 'Sat': None}}",787-832-2790,00680,cl,,https://www.grupocolongerena.com/wendys
"Ponce by Pass, Plaza del Caribe, Suite 2007, Ponce, P.R. 00717",Wendy's,"Ponce,",Puerto Rico,"{'brand': ""Wendy's"", 'fascia': ""Wendy's"", 'category': 'Retail', 'edit_date': '20250606', 'lat_lon_source': 'Google'}",17.9917,-66.6091,Sizzler Ponce,"{'opening_hours': {'Sun': 'Closed', 'Thu': 'Closed', 'Mon': None, 'Tue': None, 'Wed': None, 'Fri': None, 'Sat': None}}",787-841-5320,00717,fz,,https://www.grupocolongerena.com/wendys
"65 de InfanterÃ­a, San Juan, P.R. 00937",Wendy's,"Juan,",Puerto Rico,"{'brand': ""Wendy's"", 'fascia': ""Wendy's"", 'category': 'Retail', 'edit_date': '20250606', 'lat_lon_source': 'Google'}",18.3945562,-65.9940528,Sizzler Escorial ,"{'opening_hours': {'Sun': 'Closed', 'Thu': 'Closed', 'Mon': None, 'Tue': None, 'Wed': None, 'Fri': None, 'Sat': None}}",787-701-1085,00937,fF,,https://www.grupocolongerena.com/wendys
"PR-2 Aguadilla Edf. #3, P.R. 00603",Wendy's,"#3,",Puerto Rico,"{'brand': ""Wendy's"", 'fascia': ""Wendy's"", 'category': 'Retail', 'edit_date': '20250606', 'lat_lon_source': 'Google'}",18.4421,-67.1474,Sizzler Aguadilla ,"{'opening_hours': {'Sun': 'Closed', 'Thu': 'Closed', 'Mon': None, 'Tue': None, 'Wed': None, 'Fri': None, 'Sat': None}}",787-931-7005,00603,fY,,https://www.grupocolongerena.com/wendys
"Doramar Plaza Lote B5 Carr. 693 Int 659 Km 1.5, Dorado, P.R. 00646 ",Wendy's,"Dorado,",Puerto Rico,"{'brand': ""Wendy's"", 'fascia': ""Wendy's"", 'category': 'Retail', 'edit_date': '20250606', 'lat_lon_source': 'Google'}",18.4228,-66.2669,Sizzler Dorado,"{'opening_hours': {'Sun': 'Closed', 'Thu': 'Closed', 'Mon': None, 'Tue': None, 'Wed': None, 'Fri': None, 'Sat': None}}",787-665-7060,00646,fW,,https://www.grupocolongerena.com/wendys
"Carretera #177 KM 4.5, Bo. Juan Sanchez, Bayamon, P.R. 00959",Wendy's,"Bayamon,",Puerto Rico,"{'brand': ""Wendy's"", 'fascia': ""Wendy's"", 'category': 'Retail', 'edit_date': '20250606', 'lat_lon_source': 'Google'}",18.3881253,-66.1556677,Sizzler RÃ­o BayamÃ³n,"{'opening_hours': {'Sun': 'Closed', 'Thu': 'Closed', 'Mon': None, 'Tue': None, 'Wed': None, 'Fri': None, 'Sat': None}}",787-625-1603 ,00959,117,,https://www.grupocolongerena.com/wendys
"Plaza Del Parque Local 25-28 BayamÃ³n, P.R. 00959",Wendy's,"BayamÃ³n,",Puerto Rico,"{'brand': ""Wendy's"", 'fascia': ""Wendy's"", 'category': 'Retail', 'edit_date': '20250606', 'lat_lon_source': 'Google'}",18.4127,-66.1613,Sizzler BayamÃ³n,"{'opening_hours': {'Sun': 'Closed', 'Thu': 'Closed', 'Mon': None, 'Tue': None, 'Wed': None, 'Fri': None, 'Sat': None}}",787-200-7456,00959,aw,,https://www.grupocolongerena.com/wendys
"Bo. Quebrada Carretera #3 Km 43.1, Fajardo, P.R. 00738",Wendy's,"Fajardo,",Puerto Rico,"{'brand': ""Wendy's"", 'fascia': ""Wendy's"", 'category': 'Retail', 'edit_date': '20250606', 'lat_lon_source': 'Google'}",18.343552,-65.670769,Sizzler Fajardo,"{'opening_hours': {'Sun': 'Closed', 'Thu': 'Closed', 'Mon': None, 'Tue': None, 'Wed': None, 'Fri': None, 'Sat': None}}",787-860-0435,00738,ci,,https://www.grupocolongerena.com/wendys
"Ave. Fernandez Juncos Marina San Juan, P.R. 00901 ",Wendy's,"Juan,",Puerto Rico,"{'brand': ""Wendy's"", 'fascia': ""Wendy's"", 'category': 'Retail', 'edit_date': '20250606', 'lat_lon_source': 'Google'}",18.4583,-66.0872,Sizzler San Juan ,"{'opening_hours': {'Sun': 'Closed', 'Thu': 'Closed', 'Mon': None, 'Tue': None, 'Wed': None, 'Fri': None, 'Sat': None}}",787-289-0215,00901,cg,,https://www.grupocolongerena.com/wendys
"Plaza Las AmÃ©ricas 525 Av. Roosevelt local 311, San Juan, P.R. 00918 ",Wendy's,"Juan,",Puerto Rico,"{'brand': ""Wendy's"", 'fascia': ""Wendy's"", 'category': 'Retail', 'edit_date': '20250606', 'lat_lon_source': 'Google'}",18.4235,-66.0746,Sizzler Plaza Las AmÃ©ricas,"{'opening_hours': {'Mon': 'Closed', 'Sun': 'Closed', 'Tue': None, 'Wed': None, 'Thu': None, 'Fri': None, 'Sat': None}}",787-763-4610,00918,g,,https://www.grupocolongerena.com/wendys
